Facility_Name,Index,ODCAF_Facility_Type,Street_No,Street_Name,Postal_Code,City,Prov_Terr
Église Historique De Barachois,68,museum,1350,133 route,E4P 8G7,grand barachois,nb
Admaston/Bromley Twp,127,library or archives,5346,highway 60,K0J 1S0,douglas,on
Admiral Corner Library,129,library or archives,..,..,S0N 0B0,admiral,sk
Alberton Twp,206,library or archives,3,highway 611 south,P9A 3M2,township of alberton,on
Alfred & Plantagenet Twp,230,library or archives,1963,rue de l'hôtel de ville,K0B 1J0,lefaivre,on
Alice Melnyk Public Library,239,library or archives,5009,diefenbaker avenue,T0B 4K0,alder flats,ab
Ancient Echoes Interpretive Center,280,art or cultural centre,330,west road,S0L 1L0,herschel,sk
Aneroid Corner Library,284,library or archives,..,..,S0N 0C0,aneroid,sk
Atikameksheng Anishnawbek Band No. 6 Fn,546,library or archives,212,maaini street,P0M 2M0,whitefish first nation,on
Atlantic Canada Aviation Museum,550,museum,1658,bedford highway,B4A 3X5,bedford,ns
Avon River Heritage Society Museum The,585,museum,17,belmont rd,B0N 2A0,newport hants county,ns
Aweres Lsb,588,library or archives,399,17 hwy n,P6A 5K7,aweres twp,on
Awwp Wrentham Public Library Wrentham,590,library or archives,..,..,..,ashmont,ab
Bancroft Town,624,library or archives,14,flint street,K0L 1C0,bancroft,on
Barkerville Historic Town,649,heritage or historic site,14301,26 hwy e,V0K 1B0,barkerville,bc
Bayham Museums,693,museum,..,..,N0J 1Y0,straffordville,on
Belmont Historical Society,750,museum,107,5th street,R0K 0C0,belmont,mb
Beothuk Interpretation Centre Boyd's Cove,763,heritage or historic site,..,..,A0G 1G0,boyd's cove,nl
Bideford Parsonage Museum,1743,museum,784,bideford road,C0B 1J0,bideford,pe
Big Grassy Fn,1748,library or archives,513,beach rd,P0W 1J0,morson,on
Biigtigong Nishnaabeg,1758,library or archives,21,rabbit drive on,P0T 1R0,heron bay,on
Binscarth & District Gordon Orr Memorial Museum,1776,museum,152,second avenue,R0J 0G0,binscarth,mb
Bkejwanong Fn,1799,library or archives,136,tecumseh road,N8A 4K9,wallaceburg,on
Blue Ridge Community Library,1830,library or archives,..,2nd avenue,T0E 0B0,blue ridge,ab
Bodo Public Library,1841,library or archives,..,main street,T0B 0M0,bodo,ab
Bonanza Municipal Library,1849,library or archives,..,..,T0H 0K0,mallaig,ab
Bowden Public Library,1884,library or archives,2101,20 avenue,T0M 0K0,bonanza,ab
Brant County,1910,library or archives,12,william street,N3L 1K7,paris,on
Britt Area,1947,library or archives,841,riverside drive on,P0G 1A0,britt,on
Brownvale Community Library,1968,library or archives,300,4 avenue,T0H 1W0,brownfield,ab
Brownvale North Peace Agricultural Museum,1969,museum,..,737 highway,T0H 0L0,brownvale,ab
"Brudenell, Lyndoch & Raglan Twp",1981,library or archives,..,..,K0J 2E0,palmer rapids,on
Canadian Air And Space Museum,2128,museum,1115,lodestar road north,M3J 0H3,york,on
Canadian Broadcast Museum Foundation,2137,museum,1000,yonge street,M4W 2K2,..,on
Canmore Public Library,2220,library or archives,700,railway avenue,T1W 1P4,cadogan,ab
Cannington Centennial Museum,2221,museum,80,peace street,L0E 1E0,cannington,on
Cannington Manor Historic Park,2222,heritage or historic site,..,..,S0C 2S0,..,sk
Cape Jourimain Nature Centre Inc.,2235,museum,5039,16 route,E4M 3Z8,bayfield,nb
Caroline Municipal Library,2295,library or archives,5023,50 avenue,T0M 0M0,caroline,ab
"Cavan Monaghan Public Library Board, Township Of",2331,library or archives,..,..,L0A 1G0,millbrook,on
Central New Brunswick Woodmen's Museum Inc.,2367,museum,6342,route 8,E6A 1Z5,boiestown,nb
Centre D'Accueil Et D'Interprétation -Parc National Du Canada De La Mauricie,2403,art or cultural centre,..,..,G0X 2V0,saint jean des piles,qc
Centre D'Interprétation Du Parc National Du Canada Forillon,2501,art or cultural centre,..,..,G0C 1R0,cap des rosiers,qc
Champlain Twp,2584,library or archives,94,main street east,K0B 1R0,vankleek hill,on
Chippewas of Nawash Fn,2654,library or archives,..,..,N0H 2T0,wiarton,on
Clarington Public Library - Bowanville Branch,2739,library or archives,163,church st,L1C 1T7,bowmanville,on
Clarington Public Library - Newcastle Village Branch,2741,library or archives,150,king ave e,L1B 1L5,newcastle,on
Claude Crayston Museum,2748,museum,..,..,R0K 0Y0,glenora,mb
Cook's Creek Heritage Museum,2872,museum,..,..,R0E 0K0,cook's creek,mb
