Facility_Name,Index,ODCAF_Facility_Type,Street_No,Street_Name,Postal_Code,City,Prov_Terr
Crowsnest Pass Ecomuseum Trust Society,2986,museum,..,..,T0K 0C0,bellevue,ab
Crystal Springs Paperback Deposit,2988,library or archives,..,..,S0K 1A0,crystal springs,sk
Curve Lake Fn,3019,library or archives,65,chemong street s,K0L 1R0,curve lakeon,on
Darlingford School Heritage Museum,3050,museum,..,..,R0G 0L0,darlingford,mb
Dawson Creek Art Gallery,3066,gallery,816,alaska ave,V1G 4T6,dawson,bc
Debolt & District Pioneer Museum Society,3077,museum,..,..,T0H 1B0,debolt,ab
Delta Mill Society,3095,miscellaneous,8,lower beverley lake road,K0E 1G0,delta,on
Dickson Store Museum Society,3113,museum,1928,2nd avenue,T0M 1V0,dickson,ab
Docomomo Québec,3139,miscellaneous,..,..,..,..,..
Doig River First Nation Cultural Centre,3144,art or cultural centre,..,..,V0C 2H0,rose prairie,bc
Duck Lake Regional Interpretive Centre (Museum & Art Gallery),3225,museum,5,anderson avenue,S0K 1J0,duck,sk
Duffield Public Library,3229,library or archives,1,main street,T0E 0N0,dixonville,ab
Durrell Museum,3248,museum,17,museum rd,A0G 1Y0,durrell,nl
East Ferris,3268,library or archives,1257,village road,P0H 1B0,astorville,on
East Gwillimbury,3270,library or archives,..,..,L9N 1P2,holland landing,on
Edmonton Garrison Community Library,3335,library or archives,..,..,T0A 2H0,duffield,ab
Edmonton Heritage Festival Association,3346,festival site,10820,119 street north,T5H 3P2,west edmonton,ab
Edson And District Public Library,3369,library or archives,4726,8 avenue,T7E 1E3,lancaster park,ab
Electrical And Mechanical Engineers' Heritage Museum And Memorials,3387,museum,72,station,L0M 1C0,borden,on
Elliot Lake Nuclear And Mining Museum,3402,museum,..,..,P5A 2T1,elliot,on
Empress Municipal Library,3431,library or archives,6,3 avenue,T0J 1E0,elmworth,ab
Enchant Community Library,3432,library or archives,116,centre street,T0K 0V0,enchant,ab
Essa,3480,library or archives,..,..,L0M 1B1,angus,on
Evansburg Public Library,3501,library or archives,4707,46 avenue,T0E 0T0,evansburg,ab
Fairfield Museum,3529,museum,14878,longwoods road,K0P 1C0,bothwell,on
Fauquier-Strickland Twp,3557,library or archives,25,chemin grzela,P0L 1G0,fauquier,on
Fisherman's Museum,3785,museum,..,..,A0B 3C0,st mary's bay,nl
Flatbush Community Library,3792,library or archives,..,..,T0G 0Z0,flatbush,ab
Forge-Menuiserie Cauchon,3827,museum,323,chemin de-la vallée,G5A 1B8,rivière malbaie,qc
Fort Macleod Public Library,3877,library or archives,264,24 street,T0L 0Z0,fort assiniboine,ab
Fort Selkirk,3894,heritage or historic site,..,..,Y1A 1P0,yukon,yt
Fort-Museum of the Nwmp (The),3914,museum,219,jerry potts blvd,T0L 0Z0,fort macleod,ab
Frank Slide Interpretive Centre,3964,heritage or historic site,..,..,T0K 0E0,crowsnest pass,ab
Frazer's Museum,3975,museum,..,..,S0M 1G0,beuval,sk
Front of Yonge Twp,4010,library or archives,76,county road 5 s,K0E 1R0,mallorytown,on
Fundy National Park,4019,heritage or historic site,8641,114 route,E4H 4V2,fundy,nb
Gabriola Historical Museum Society,4025,museum,505,south rd,V0R 1X0,gabriola,bc
Galerie Restigouche Gallery Inc.,4135,gallery,39,rue andrew,E3N 3H1,cambellton,nb
Garden River Fn,4204,library or archives,..,..,P6A 5K9,garden river,on
Georgina Pioneer Village & Archives,4238,library or archives,26557,civic centre rd,L4P 3G1,keswick,on
Gervais Wheels Museum,4241,museum,..,..,S0C 0B0,wauchope,sk
Gladmar Community Delivery Site,4260,library or archives,..,..,S0C 1A0,gladmar,sk
Gleichen And District Library,4266,library or archives,404,main street,T0J 1N0,gem,ab
Glentworth Branch Library,4280,library or archives,..,1st avenue,S0H 1V0,glentworth,sk
Glenwood Municipal Library,4282,library or archives,59,main avenue n,T0K 2R0,gleichen,ab
Grassland Public Library,4370,library or archives,63,ab hwy,T0A 1V0,grassland,ab
Gronlid Public Library,4427,library or archives,..,..,S0E 0W0,gronlid,sk
Haida Heritage And Repatriation Society,4465,heritage or historic site,162,raven avenue,V0T 1M0,massett,bc
Haldimand County,4470,library or archives,111,broad st east,N1A 2X5,dunnville,on
