Facility_Name,Index,ODCAF_Facility_Type,Street_No,Street_Name,Postal_Code,City,Prov_Terr
Manitoba Agricultural Museum Inc.,5911,museum,..,..,R0H 0C0,austin,mb
Manning Park Visitor Centre,5929,heritage or historic site,..,..,V0X 1H0,manning park,bc
Manoir Mauvide-Genest,5931,museum,4818,chemin royal saint-jean,G0A 3W0,île d'orléans,qc
Mattice-Val Cote Twp,6029,library or archives,500,11 route,P0L 1T0,mattice,on
Mayfair Branch Library,6036,library or archives,..,..,S0M 1S0,mayfair,sk
Mccord Corner Library,6051,library or archives,..,..,S0H 2T0,mccord,sk
Mcgarry Twp,6062,library or archives,1,27th st,P0K 1X0,virginiatown,on
Medstead Branch Library,6113,library or archives,209,second ave,S0M 1W0,medstead,sk
Melsness Mercantile Building,6119,museum,..,..,T0H 3M0,valhalla centre,ab
Mentoring Artists For Women's Art Inc.,6136,gallery,611,main street,R3B 1E1,winnipeg,mb
Mgr. Plourde Public Library,6151,library or archives,..,..,E7A 1A4,saint francois,nb
Miami Museum,6156,museum,..,..,R0G 1H0,miami,mb
Mill of Kintail Conservation Area,6181,museum,2854,concession road,K0A 1A0,almonte,on
Mill of the Jesuits,6182,museum,7960,boulevard henri-bourassa,G1H 3G3,charlesbourg,qc
Miniota Municipal Museum Inc.,6201,museum,110,stewart ave,R0M 1M0,miniota,mb
Minnedosa District Museum And Heritage Village Corp.,6202,museum,100,heritage park,R0J 1E0,cres minnedosa,mb
Mississippi Mills,6229,library or archives,155,high street,K0A 1A0,almonte,on
Mohawks of Akwesasne Fn,6239,library or archives,321,37 route,K6H 5R9,cornwall,on
Montmartre Branch Library,6261,library or archives,136,central,S0G 3M0,montmartre,sk
Montréal Aviation Museum,6283,museum,..,..,H9X 3V9,st-anne de-bellevue,qc
Moosehorn Heritage Museum Inc.,6301,museum,..,..,R0C 2E0,north moosehorn,mb
Musée De St-Georges Museum Le,6508,museum,19,baie st,R0E 1V0,st-georges,mb
Musée De St-Pierre-Jolys Inc.,6509,museum,432,joubert street north,R0A 1V0,st-pierre jolys,mb
Musée Des Pionniers De Grand-Digue,6547,museum,468,route 530,E4R 5K3,grande digue,nb
Musée Du Centre Acadien De L'Université Sainte-Anne,6569,museum,1695,1 route,B0W 1M0,pointe de-l'église,ns
Musée Du Squelette (Animal Skeleton Museum),6589,museum,3402,chemin principal,G0L 1K0,île verte,qc
Musée Heritage Museum And Archives,6602,museum,5,st-anne street,T8N 3Z9,st-albert,ab
Musée St. Joseph Museum Inc.,6696,museum,25,boulevard brais,R0G 2C0,st-joseph,mb
Musée St. Paul Museum,6697,museum,5409,50 ave,T0A 3A0,saint-paul,ab
Museum of Antiquities,6710,museum,107,administration place ,S7N 5A2,saskatoon,sk
Museum of Natural Sciences,6726,museum,112,science place,S7N 5E2,university of,sk
Museum of the Cariboo Chilcotin Society,6735,museum,113,fourth ave n,V2G 2C8,williams,bc
Naramata Heritage Museum Society,6799,museum,224,robinson avenue e,V0H 1N0,naramata,bc
National Air Force Museum of Canada,6801,museum,8,wing stn,K0K 3W0,astra,on
Native Cultural Arts Museum,6817,museum,64,mission st,T0G 1C0,grouard,ab
Nebenaigoching Heritage Inc.,6830,museum,188,batchawana,P0S 1A0,batchawana bay,on
New Brunswick Aviation Museum,6857,museum,1753,118 rte,E9E 2H8,doyle's brook,nb
New Credit Fn,6868,library or archives,2789,1st road,N0A 1H0,hagersville,on
Newcastle Village And District Historical Society,6895,museum,20,king ave w,L1B 1H7,newcastle,on
Niagara Parks Commission -Administration Building,6920,miscellaneous,7400,portage road south,L2E 6T2,niagara falls,on
Nordegg Public Library,6950,library or archives,8,stuart street,T0M 2H0,valhalla centre,ab
Norfolk County,6953,library or archives,..,..,N3Y 4H3,simcoe,on
North Cumberland Historical Society Archives,6965,library or archives,10222,durham street,B0K 1L0,pugwash,ns
North Grenville Twp,6968,library or archives,1,water street,K0G 1J0,kemptville,on
North Lanark Historical Society,6977,museum,647,river road,K0A 1A0,almonte,on
North Shore Twp,6984,library or archives,1385,hwy 17,P0R 1A0,algoma mills,on
North Vancouver District Public Library,6990,library or archives,1277,lynn valley rd,V7J 0A2,aldergrove,bc
Nose Creek Valley Museum,7015,museum,1701,main street south,T4B 1C5,west airdrie,ab
Nuyumbalees Cultural Centre,7030,art or cultural centre,..,..,V0P 1N0,mudge,bc
