Facility_Name,Index,ODCAF_Facility_Type,Street_No,Street_Name,Postal_Code,City,Prov_Terr
Ojibways of Onigaming Fn,7067,library or archives,..,..,P0X 1K0,nestor falls,on
Old Bank Museum,7079,museum,5985,riverside route,E4H 4B8,albert,nb
Omamiwinini Pimadjwowin,7104,art or cultural centre,1674,mishomis,K0J 1X0,pikwakanagan,on
Onoway Public Library,7111,library or archives,4708,lac ste anne trail,T0E 1V0,nordegg,ab
Ontario Police College Museum,7126,museum,10716,hacienda road west,N5H 2T2,aylmer west,on
Orwell Corner Historic Village,7154,museum,7,old uigg rd,C0A 2E0,orwell,pe
Otonabee-South Monaghan Twp,7173,library or archives,3252,county road,K0L 2G0,keene,on
Oungre Branch Library,7209,library or archives,..,..,S0C 1Z0,oungre,sk
Pavillon Du Buisson,7298,miscellaneous,23,rue hugues,..,pommier,qc
Peayamichikee Public Library,7309,library or archives,..,..,S0J 2B0,pinehouse lake,sk
Perry Twp,7349,library or archives,25,joseph st,P0A 1J0,emsdale,on
Petit-Rocher Public Library,7372,library or archives,702,principale st,E8J 1V1,petit-rocher,nb
Pickering Public Library - Claremont Branch,7393,library or archives,4941,old brock rd,L1Y 1A9,pickering,on
Pilot Butte Branch Library,7403,library or archives,..,..,S0G 3Z0,pilot butte,sk
Plamondon Municipal Library,7430,library or archives,..,..,T0A 2C0,plamondon,ab
Point Amour Lighthouse Provincial Historic Site,7452,museum,..,..,A0K 3L0,l'anse amour,nl
Port-La-Joye -Fort Amherst National Historic Site of Canada,7526,museum,191,hache gallant lane,C1A 5V6,rocky point,pe
Qu'Appelle Branch Library,7628,library or archives,25,9th avenue,S0G 4A0,quappelle,sk
Rabbit Lake Branch Library,7673,library or archives,..,..,S0M 2L0,rabbit lake,sk
Radway Public Library,7679,library or archives,4915,50 street,T0A 2V0,radway,ab
Rainy Hills Pioneer Exhibits,7686,museum,..,..,T0J 1T0,iddesleigh,ab
Redcliff Museum & Historical Society,7724,museum,2,3rd street north,T0J 2P0,east redcliff,ab
Reston And District Historical Museum,7775,museum,102,9th street,R0M 1X0,reston,mb
Restoule Lsb,7777,library or archives,..,..,P0H 2R0,restoule,on
Rideau Lakes Public Library,7814,library or archives,24,halladay street,K0G 1E0,elgin,on
River John Public Library,7832,library or archives,2725,branch road west,B0K 1N0,river john,ns
Riverton Transportation & Heritage Centre,7843,museum,33,riverton avenue,R0C 2R0,riverton,mb
Robert-Bourassa Generating Facility And Hydro-Qu√©bec's Interpretation Centre,7856,art or cultural centre,..,..,J0Y 2X0,radisson,qc
Rocky Mountain House Reunion Historical Society (R.M.H. Museum),7873,museum,5406,48 st,T4T 1B2,house,ab
Rolling Hills Public Library,7884,library or archives,322,4 street,T0J 2S0,gunn,ab
Rolph Buchanan Wylie And Mckay Historical Society (School House Museum),7885,museum,35753,17 hwy,K0J 1P0,laurentian hills,on
Roosevelt Campobello International Park,7891,museum,459,route 774,E5E 1A4,welshpool,nb
Royal Canadian Artillery Museum,7948,museum,118,patricia road,R0K 2A0,shilo,mb
Royal St. John's Regatta Museum,7969,museum,10,clancey drive,A1C 5J3,quidi vidi lake,nl
Rumsey Community Library,7978,library or archives,229,main street,T0J 2Y0,rumsey,ab
Sables-Spanish Rivers Twp,8010,library or archives,185,grove street,P0P 1P0,massey,on
Sagamok Anishnawbek Fn,8014,library or archives,..,..,P0P 1P0,massey,on
Saint-Claude Dairy Museum,8028,museum,124,mcphillips st east,R0G 1Z0,st claude,mb
Salmonier Nature Park,8083,heritage or historic site,..,..,A0A 2R0,..,nl
Sandilands Forest Discovery Centre,8099,museum,67094,68e road,R0E 0X0,hadashville,mb
Saugeen Fn,8122,library or archives,812,french bay road,N0H 2L0,southampton,on
Savanna Municipal Library,8127,library or archives,..,..,T0H 3E0,silver valley,ab
Scugog Memorial Public Library,8176,library or archives,231,water st,L9L 1A8,port perry,on
Seba Beach Heritage Museum,8187,museum,..,..,T0E 2B0,seba beach,ab
Selwyn,8200,library or archives,836,charles street,K0L 1H0,bridgenorth,on
Senator Ambroise H. Comeau Memorial Library,8204,library or archives,29,chemin hache,B0W 2J0,meteghan,ns
Serpent River Fn,8208,library or archives,..,..,P0P 1B0,cutler,on
Severn Township Library,8214,library or archives,31,coldwater road,L0K 1E0,coldwater,on
Shearwater Aviation Museum,8235,museum,34,bonaventure street,B0J 3A0,shearwater,ns
