Facility_Name,Index,ODCAF_Facility_Type,Street_No,Street_Name,Postal_Code,City,Prov_Terr
Six Nations Fn,8327,library or archives,1679,chiefswood road,N0A 1M0,ohsweken,on
Ska-Nah-Doht Village & Museum,8329,museum,8348,longwoods rd,N0L 1W0,mount,on
Smith Community Library,8337,library or archives,921,9 street,T0G 2B0,smith,ab
Société D'Histoire Du Temiscamingue,8357,library or archives,8,st-gabriel nord,J9V 1Z9,sous sol ville marie,qc
South Algonquin Twp,8394,library or archives,..,post street,K0J 2M0,whitney,on
Spruce View Community Library,8461,library or archives,3054,54 hwy,T0M 1V0,spruce view,ab
St. Croix Island International Historic Site,8508,heritage or historic site,..,route 127,E0A 1B0,bayside,nb
St. John the Divine Church,8523,miscellaneous,1,15 highway north,V0M 1L0,yale,bc
St. Mary's Historical Society of Maxstone,8540,heritage or historic site,23,maxstone,T6R 1W3,mazstone,sk
Star Mound School Museum,8574,museum,..,..,R0G 2K0,snowflake,mb
Stirling-Rawdon,8627,library or archives,43,front st west,K0K 3E0,stirling,on
Strathcona County Library,8654,library or archives,401,festival lane,T8A 5P7,sherwood park,ab
Swords And Ploughshares Museum,8734,museum,7510,reeve craig road,K0A 2E0,kars,on
Tangent Community Library,8756,library or archives,1009,railway avenue,T0H 3J0,tangent,ab
Telecommunications Museum -Pearson Electrotechnology Centre,8781,museum,5000,rené huguet,H8T 1M7,st lachine,qc
The Blue Mountains,8924,library or archives,173,bruce street south,N0H 2P0,thornbury,on
The Little Claybelt Homesteaders Museum,8969,museum,..,..,P0J 1P0,new liskeard,on
The Morris And Sally Justein Heritage Museum,8986,museum,3560,bathurst street north,M6A 2E1,york,on
The United Empire Loyalists' Heritage Centre And Park,9023,heritage or historic site,54,adolphustown park rd,K0H 1G0,bath,on
Thompson-Nicola Regional District Library System,9074,library or archives,465,victoria st,V2C 2A9,yale,bc
"Thornloe, Village Of",9084,library or archives,35,tenth street,P0J 1E0,earlton,on
Tilley And District Public Library,9100,library or archives,148,1 avenue e,T0J 3K0,tilley,ab
Tomahawk Public Library,9120,library or archives,6119,township rd,T0E 2H0,tomahawk,ab
Transnational Ecologies Network In Canadian History And Environment (Niche),9161,miscellaneous,..,..,K7L 3N6,kigston,on
Trent Hills,9172,library or archives,98,bridge st e,K0L 1L0,campbellford,on
Trent Lakes,9173,library or archives,5,george street,K0L 1J0,buckhorn,on
Tyendinaga Twp,9215,library or archives,..,..,K0K 3A0,shannonville,on
Tyrconnell Heritage Society,9216,heritage or historic site,29424,lakeview line,N0L 2M0,wallacetown,on
UCN Chemawawin Public Library,9222,library or archives,..,..,..,easterville,mb
UCN Pukatawagan Public Library,9224,library or archives,..,..,..,..,mb
Van Horne Estate On Ministers Island Inc. (The),9335,museum,199,carriage rd,E5B 0A4,minister,nb
Vibank Branch Library,9394,library or archives,101,2nd ave,S0G 4Y0,vibank,sk
Wabasca Public Library,9458,library or archives,2853,alook drive,T0G 2K0,wabasca,ab
Wallace & Area Museum,9476,museum,13440,6 route,B0K 1Y0,wallace,ns
Water Valley Public Library,9498,library or archives,29376,rr 52,T0M 2E0,water valley,ab
Watson Crossley Community Museum,9514,museum,..,..,R0L 0Y0,north grandview,mb
Wellington County Museum & Archives,9536,museum,536,wellington road,N1M 2W3,fergus,on
West Lincoln Twp,9558,library or archives,177,west street,L0R 2A0,smithville,on
West Nipissing,9559,library or archives,225,holditch st,P2B 1T1,sturgeon falls,on
West Point Lighthouse Museum,9565,museum,364,cedar dunes park rd west,C0B 1V0,west point,pe
Whitefish River Fn,9626,library or archives,52,bay road,P0P 1A0,birch island,on
Whiteley Museum,9632,museum,1,riverside drive,G0G 2P0,st-paul's,qc
Whiteshell Natural History Museum,9635,museum,..,..,R0E 1Y0,nutimik,mb
Whitestone-Hagerman Memorial,9636,library or archives,2206,124 highway,P0A 1G0,dunchurch,on
Wikwemikong Fn,9643,library or archives,34,henry street,P0P 2J0,wikwemikong,on
Wilno Heritage Society & Polish Kashub Heritage Museum,9671,museum,..,..,K0J 2N0,wilno,on
Winfield Community Library,9684,library or archives,401,4 avenue e,T0C 2X0,winfield,ab
Winnipeg River Heritage Museum,9689,museum,19,baie ave,R0E 1V0,st-georges,mb
Wishart Branch Library,9696,library or archives,111,main street,S0A 4R0,wishart,sk
