Facility_Name,Index,ODCAF_Facility_Type,Street_No,Street_Name,Postal_Code,City,Prov_Terr
Acadian House Museum,110,museum,79,hill rd west,B0J 1N0,chezzetcook,ns
Africville Heritage Trust Society,136,art or cultural centre,5795,africville rd,B3K 2R9,halifax,ns
Anna Leonowens Art Gallery,297,gallery,1891,granville st,B3J 3J6,halifax,ns
Army Museum,383,museum,5425,sackville st,B3J 3Y3,halifax,ns
Art Gallery of Nova Scotia,426,gallery,1723,hollis st,B3J 3C8,halifax,ns
Association of Nova Scotia Museums,527,museum,1113,marginal rd,B3H 4P7,halifax,ns
Atlantic Provinces Art Gallery Association,553,gallery,6101,university ave,B3H 4R2,halifax,ns
Black Cultural Centre For Nova Scotia,1804,art or cultural centre,10,cherry road,B2Z 1A8,dartmouth,ns
Canadian Museum of Immigration At Pier 21,2191,museum,1055,marginal road,B3H 4P7,halifax,ns
Centre For Art Tapes,2538,art or cultural centre,2238,maitland street,B3K 2Z9,halifax,ns
Cole Harbour Rural Heritage Society,2809,museum,471,poplar dr,B2W 4L2,dartmouth,ns
Dalhousie Art Gallery,3034,gallery,6101,university ave,B3H 3J5,halifax,ns
Dalhousie University Archives,3036,library or archives,6225,university avenue,B3H 4H8,halifax,ns
Dartmouth Heritage Museum Complex,3051,museum,26,newcastle st,B2Y 3M5,dartmouth,ns
Diocese of Nova Scotia And Prince Edward Island Archives,3127,museum,1340,cathedral lane,B3H 2Z1,halifax,ns
Evergreen House,3507,heritage or historic site,26,newcastle street,B2Y 3M5,dartmouth,ns
Eye Level Gallery Society,3524,gallery,5663,cornwallis st,B3K 1B6,halifax,ns
Fisherman's Life Museum,3784,museum,58,navy pool loop,B0J 1W0,oyster pond,ns
Fultz House Museum,4016,museum,33,sackville drive,B4C 2S8,lower sackville,ns
Halifax Citadel National Historic Site,4478,heritage or historic site,..,..,B3K 5M7,halifax,ns
Heritage Trust of Nova Scotia,4695,heritage or historic site,55,ochterloney st,B2Y 1C3,dartmouth,ns
Khyber Digital Media Centre,5148,miscellaneous,1588,barrington street,B3J 1Z6,halifax,ns
Lake Charlotte Area Heritage Society,5351,museum,5435,clam road,B0J 1Y0,lake charlotte,ns
Macphee House Community Museum,5776,museum,22404,main st,B0J 3B0,eastern shore,ns
Mainland South Heritage Society,5797,library or archives,339,herring rd,V3R 1V9,halifax,ns
Maritime Museum of the Atlantic,5972,museum,1675,lower st,B3J 1S3,halifax,ns
Memory Lane Heritage Village,6129,museum,5435,clam harbour rd,B0J 1Y0,lake charlotte,ns
Moose River Gold Mines Museum,6300,museum,6990,moose road,B0J 2L0,musquodoboit,ns
Mount Saint Vincent Art Gallery,6355,gallery,166,bedford hwy,B3M 2J6,halifax,ns
Mount Saint Vincent University Archives,6356,library or archives,166,bedford highway,B3M 2J6,halifax,ns
Musquodoboit Railway Museum,6761,museum,7895,main harbour,B0J 2L0,eastern shore,ns
Naval Museum of Halifax,6824,museum,2729,gottingen street,B3K 5X5,halifax,ns
Nova Scotia Archives,7020,library or archives,6016,university avenue,B3H 1W4,halifax,ns
Nova Scotia Museum of Natural History,7025,museum,1747,summer street,B3H 3A6,halifax,ns
Nova Scotia Sport Hall of Fame,7026,museum,1800,argyle street,B3J 3N8,halifax,ns
Prince of Wales Martello Tower National Historic Site,7583,heritage or historic site,..,..,B3K 5M7,halifax,ns
Quaker (William Ray) House,7634,museum,59,ochterloney street,B2Y 1C3,dartmouth,ns
Royal Nova Scotia Historical Society,7963,heritage or historic site,..,..,B3J 3P7,halifax,ns
Saint Mary's University Art Gallery,8026,gallery,923,robie street,B3H 3C3,halifax,ns
Saint Mary's University Burke-Gaffney Observatory,8027,museum,923,robie street,B3H 3C3,halifax,ns
Scott Manor House (Fort Sackville Foundation),8172,heritage or historic site,15,fort sackville road,B4A 2G6,bedford,ns
Shubenacadie Canal Commission,8265,heritage or historic site,54,locks road,B2X 2W7,dartmouth,ns
The Discovery Centre,8938,museum,1593,barrington st,B3J 1Z7,halifax,ns
University of King's College Library,9274,library or archives,6350,coburg road,B3H 2A1,halifax,ns
York Redoubt National Historic Site,9764,heritage or historic site,..,..,B3K 5M7,halifax,ns
