Facility_Name,Index,ODCAF_Facility_Type,Street_No,Street_Name,Postal_Code,City,Prov_Terr
Beaton Institute/Cape Breton University,714,library or archives,1250,grand road,B1P 6L2,sydney,ns
Cape Breton Centre For Heritage And Science,2231,art or cultural centre,225,george street,B1P 1J5,sydney,ns
Cape Breton Miners Museum,2232,museum,17,museum street,B1A 5T8,glace,ns
Cape Breton Regional Library,2233,library or archives,50,falmouth street,B1P 6X9,sydney,ns
Cape Breton University Art Gallery,2234,gallery,1250,grand rd,B1P 6L2,sydney,ns
Cossit House,2910,heritage or historic site,75,charlotte street,B1P 1J5,sydney,ns
Dominion Heritage School House Museum,3152,museum,6715,seaside drive,B1G 1V1,dominion,ns
Dominion Public Library,3154,library or archives,78,commercial street,B1G 1B4,dominion,ns
Florence Public Library,3801,library or archives,676,bras road,B1Y 1E4,florence,ns
Fort Petrie Military Museum,3885,museum,3479,new waterford hwy,B1H 5B6,new waterford,ns
Fortress of Louisbourg National Historic Site,3917,heritage or historic site,259,park road,B1C 2L2,louisbourg,ns
Glace Bay Heritage Museum,4258,museum,14,mckeen,B1A 6J3,glace bay,ns
Glace Bay Public Library,4259,library or archives,121,union street,B1A 2P8,glace bay,ns
Jost House Museum,5037,museum,54,charlotte street,B1P 6T7,sydney,ns
Main-Ã€-Dieu Fishermen's Museum,5795,museum,2886,louis road,B1C 1X5,main-a-dieu,ns
Main-A-Dieu Library,5796,library or archives,2886,louisbourg road,B1C 1X5,main-a-dieu,ns
Martha Hollett Memorial Library,5997,library or archives,1,fraser avenue,B1V 2B8,sydney mines,ns
New Waterford Public Library,6879,library or archives,3390,plummer avenue,B1H 4K4,new waterford,ns
North Highlands Community Museum,6969,museum,29243,cabot trail,B0C 1G0,cape breton,ns
North Sydney Museum,6986,museum,309,commercial st north,B2A 1C3,sydney,ns
St. Patrick's Church Museum,8549,museum,87,esplanade,B1P 1J5,sydney,ns
Sydney And Louisburg Railway Museum,8736,museum,7330,main street,B1C 1P5,louisbourg,ns
Sydney Mines Heritage Museum,8737,museum,159,legatto street,B1V 2Y4,sydney mines,ns
Tompkins Memorial Library,9125,library or archives,2249,sydney road,B1E 1J9,reserve mines,ns
W.W. Lewis Memorial Library,9455,library or archives,10,upper street,B1C 1M6,louisbourg,ns
Whitney Pier Historical Museum,9641,museum,88,pleasant st,B1N 2G1,sydney,ns
Wilfred Oram Centennial Library,9657,library or archives,309,commercial street,B2A 1B9,north sydney,ns
