Index,Facility_Name,ODCAF_Facility_Type,Street_No,Street_Name,Postal_Code,City,Prov_Terr
647,barbour's general store,museum,10,market square,e2l1e8,saint-john,nb
2268,carleton martello tower national historic site,heritage or historic site,454,whipple street west,e2m2r3,saint john,nb
2689,cineplex cinemas,theatre/performance and concert hall,,,,saint john,nb
2702,citadel gallery,gallery,162,charlotte street,,saint-john,nb
2784,cobalt gallery,gallery,109,prince street,,saint-john,nb
3266,east branch library,library or archives,,,,st john,nb
4303,good fibrations,gallery,91,germain street,,saint-john,nb
4505,handworks gallery,gallery,12,king street,,saint-john,nb
4543,hatheway labour exhibit centre,museum,,,,saint john,nb
4556,hayward china museum,museum,,,,saint john,nb
4855,imperial theater,theatre/performance and concert hall,,,,saint john,nb
4974,jewish historical museum,museum,,,,saint john,nb
5022,jones gallery,gallery,1,charlotte street,,saint-john,nb
5452,le cormoran library,library or archives,67,ragged rd,e2k5c3,saint-john,nb
5711,loyalist house,museum,,,,saint john,nb
6858,new brunswick historical society,museum,120,union street,e2l1a3,saint-john,nb
6863,new brunswick museum,museum,1,market square,,saint-john,nb
7076,old #2 engine house museum,museum,,,,saint john,nb
7359,peter buckland gallery,gallery,35,duke street,,saint-john,nb
7474,police museum,museum,,,,saint john,nb
8018,saint john arts center,gallery,20,peel plaza,,saint-john,nb
8020,"saint john free public library, central branch",library or archives,1,market sq,e2l4z6,saint-john,nb
8021,"saint john free public library, east branch",library or archives,55,mcdonald street,e2j0c7,saint-john,nb
8022,"saint john free public library, west branch",library or archives,621,fairville blvd,e2m4x5,saint-john,nb
8025,saint john sports hall of fame,museum,99,station street,e2l4l1,saint-john,nb
8950,the fundy gallery of art,gallery,120,mcdonald street,,saint-john,nb
9063,third space gallery,gallery,49,canterbury street,,saint-john,nb
9102,tim isaac antiques & auctions,gallery,213,wentworth street,,saint-john,nb
9184,trinity galleries,gallery,128,germain street,,saint-john,nb
9196,tuck studio,gallery,122,prince street,,saint-john,nb
9566,west side library,library or archives,,,,st john,nb
