Index,Facility_Name,ODCAF_Facility_Type,Street_No,Street_Name,Postal_Code,City,Prov_Terr
4,10 austin street,heritage or historic site,10,austin st,e1c1z6,moncton,nb
8,114 alma st.,heritage or historic site,114,alma st,,moncton,nb
9,118 mountain road,heritage or historic site,118,mountain rd,e1c2k7,moncton,nb
11,134 church street,heritage or historic site,134,church st,e1c4z6,moncton,nb
12,14 church street,heritage or historic site,14,church st,,moncton,nb
13,140 church street,heritage or historic site,140,church st,e1c4z7,moncton,nb
14,149 john street,heritage or historic site,149,john st,e1c2h5,moncton,nb
17,169 botsford street,heritage or historic site,169,botsford st,e1c4x4,moncton,nb
20,1916 city hall façade,heritage or historic site,20,mountain rd,,moncton,nb
23,201 queen street,heritage or historic site,201,queen st,e1c1l3,moncton,nb
25,224 cameron street,heritage or historic site,224,cameron st,e1c5z3,moncton,nb
26,264 botsford street,heritage or historic site,264,botsford st,,moncton,nb
28,27 hillcrest drive,heritage or historic site,27,hillcrest dr,e1e1v9,moncton,nb
32,47 fleet street,heritage or historic site,47,fleet st,e1c1s1,moncton,nb
35,5-11 williams street,heritage or historic site,11,williams st,e1c2g1,moncton,nb
37,69 highfield street,heritage or historic site,69,highfield st,e1c5n4,moncton,nb
38,70 reade street,heritage or historic site,70,reade st,e1c6s2,moncton,nb
39,72 botsford street,heritage or historic site,72,botsford st,e1c4x1,moncton,nb
40,73 highfield street,heritage or historic site,73,highfield st,e1c5n4,moncton,nb
42,75 st. george street,heritage or historic site,75,george st,e1c1t5,moncton,nb
43,86 botsford street,heritage or historic site,86,botsford st,e1c4x3,moncton,nb
44,86 weldon street,heritage or historic site,86,weldon st,e1c5w2,moncton,nb
45,88 church street,heritage or historic site,88,church st,e1c4z5,moncton,nb
49,91 steadman street,heritage or historic site,91,steadman st,e1c4p5,moncton,nb
100,aberdeen cultural centre,art or cultural centre,130,botsford st,e1c4x5,moncton,nb
111,acadian museum,museum,405,universite ave,e1a3e9,moncton,nb
114,acadie rock,festival site,120,assomption blvd,e1c0r9,moncton,nb
119,acoustica concert series,festival site,175,park st,e1c2c1,moncton,nb
120,acoustica concert series,festival site,120,westmorland st,e1c0r9,moncton,nb
208,albion block,heritage or historic site,852,main st,,moncton,nb
237,aliant tower,heritage or historic site,27,alma st,,moncton,nb
322,apple art gallery,gallery,134,church st,e1c4z6,moncton,nb
455,artgora gallery,gallery,135,timberline rd,,moncton,nb
461,artisan village,gallery,465,main st,,moncton,nb
529,assumption gallery,gallery,770,main st,,moncton,nb
552,atlantic nationals,festival site,801,st-george blvd,,moncton,nb
556,atlanticade motorcycle festival,festival site,120,assomption blvd,e1c0r9,moncton,nb
632,bank of montréal building,heritage or historic site,569,main st,,moncton,nb
642,baptist heritage center,museum,333,gorge road,e1c9l7,moncton,nb
1848,bonaccord house,heritage or historic site,250,bonaccord st,e1c5m6,moncton,nb
1866,bore park,heritage or historic site,,,,moncton,nb
2037,c. d. thomson residence,heritage or historic site,184,alma st,e1c2a4,moncton,nb
2038,c. l. jones residence,heritage or historic site,3,cross st,e1a3c3,moncton,nb
2070,caledonia building,heritage or historic site,797,main st,,moncton,nb
2216,canadiana inn,heritage or historic site,46,archibald st,,moncton,nb
2245,capitol theatre,theatre/performance and concert hall,811,main st,e1c1g1,moncton,nb
2247,capitol theatre gallery,gallery,811,main st,,moncton,nb
2328,cathédrale notre-dame de l'assomption,heritage or historic site,226,george st,e1c5g5,moncton,nb
2372,central united church manse,heritage or historic site,154,queen st,e1c1k8,moncton,nb
