Index,Facility_Name,ODCAF_Facility_Type,Street_No,Street_Name,Postal_Code,City,Prov_Terr
5730,lutz mountain heritage museum,museum,3143,mountain rd,e1g3h2,moncton,nb
5786,magnetic hill concert site,miscellaneous,460,front rd,,moncton,nb
5973,marjillee lutes residence,heritage or historic site,860,front rd,e1g3h3,moncton,nb
6003,mary's home,heritage or historic site,220,mountain rd,e1c2l7,moncton,nb
6013,masonic temple,heritage or historic site,115,queen st,e1c1k6,moncton,nb
6091,mcsweeney building,heritage or historic site,700,main st,,moncton,nb
6167,midis musique,festival site,,oak st,,moncton,nb
6204,minto hotel sample rooms,heritage or historic site,196,robinson st,,moncton,nb
6243,moncton gallery (moncton city hall),gallery,20,mountain rd,,moncton,nb
6244,moncton highland games & scottish festival,festival site,250,assomption blvd,e1c0r5,moncton,nb
6247,moncton public library,library or archives,644,main st,e1c1e2,moncton,nb
6248,moncton public library gallery,gallery,644,main st,,moncton,nb
6321,mosaïq multicultural festival,festival site,120,assomption blvd,e1c0r9,moncton,nb
6325,moto moncton,festival site,,,,moncton,nb
6368,mud city melt down,festival site,,,,moncton,nb
6869,new denmark memorial museum,museum,6,main road,e7g2b7,new denmark,nb
6942,no. 2 fire station,heritage or historic site,199,george st,,moncton,nb
7090,old moncton hospital,heritage or historic site,125,king st,e1c4m7,moncton,nb
7299,pavillon jeanne-de-valois,art or cultural centre,68,notre-dame st,,moncton,nb
7367,peters house,heritage or historic site,35,highfield st,,moncton,nb
7481,pops nb,festival site,120,asomption blvd,e1c0r9,moncton,nb
7575,prince edward school,heritage or historic site,100,west st west,e1e3n9,moncton,nb
7612,provincial bank building,heritage or historic site,698,main st,e1c1e4,moncton,nb
7665,r. n. wyse building,heritage or historic site,839,main st,e1c1g3,moncton,nb
7666,r. n. wyse residence,heritage or historic site,206,cameron st,e1c5z3,moncton,nb
7674,radical speed sport car show,festival site,377,killam dr,e1c3t1,moncton,nb
7693,rand house,heritage or historic site,62,botsford st,e1c4x1,moncton,nb
7705,re:flux: festival de musique et art sonore,festival site,140,botsford st,e1c4x5,moncton,nb
7707,record house,heritage or historic site,93,victoria st,,moncton,nb
7779,resurgo place,museum,20,mountain rd,e1c2j8,moncton,nb
7829,river glen ampitheatre,theatre/performance and concert hall,1830,salisbury rd,,riverview,nb
7858,robinson house,heritage or historic site,83,victoria st,e1c4y5,moncton,nb
7944,royal bank building,heritage or historic site,721,main st,,moncton,nb
7976,rubin's ltd. mural,heritage or historic site,730,main st,,moncton,nb
8076,salle sans sous (galerie sans nom),gallery,140,botsford st,e1c4x5,moncton,nb
8093,salvation army citadel,heritage or historic site,16,church st,,moncton,nb
8494,st. bernard's church,heritage or historic site,43,botsford st,e1c4w9,moncton,nb
8514,st. george's anglican church,heritage or historic site,51,church st,e1c4z3,moncton,nb
8526,st. john's united church,heritage or historic site,75,alma st,e1c4y3,moncton,nb
8688,subway block,heritage or historic site,889,main st,,moncton,nb
8689,subway structure,heritage or historic site,889,main st,,moncton,nb
8710,sunny brae rink,heritage or historic site,,donald ave,,moncton,nb
8757,tankville school,heritage or historic site,1665,elmwood dr,e1h2h7,moncton,nb
8906,théatre l'empress,art or cultural centre,811,main st,,moncton,nb
8947,the forum (community peace centre,art or cultural centre,22,church st,,moncton,nb
9069,thomas williams house,museum,103,park,e1c2b2,moncton,nb
9104,times building,heritage or historic site,18,botsford st,e1c4w9,moncton,nb
9160,transcript building,heritage or historic site,828,main st,,moncton,nb
9166,treitz haus,heritage or historic site,10,bendview crt,e1coh7,moncton,nb
