Facility_Name,Index,ODCAF_Facility_Type,Street_No,Street_Name,Postal_Code,City,Prov_Terr
Christmas At the Colesium,2663,festival site,377,killam dr,E1C 3T1,moncton,nb
Creative Works & Starving Artist Gallery And Café,2965,gallery,80,assomption blvd,E1C 1A1,moncton,nb
Doors Open,3164,heritage or historic site,..,..,..,moncton,nb
Dowd Residence,3192,heritage or historic site,385,robinson st,E1C 5E5,moncton,nb
Doyle Building,3194,heritage or historic site,400,george st,..,moncton,nb
Dr Denis Bourgeois,3195,gallery,200,camerson st,E1C 5Z3,moncton,nb
Dr. Ambrose R. Myers Residence And Office,3196,heritage or historic site,15,alma st,..,moncton,nb
Dragon Boat Festival,3207,festival site,1625,main st,..,moncton,nb
Elmwood Cemetery,3411,heritage or historic site,200,elmwood dr,..,moncton,nb
Empire Block,3427,heritage or historic site,805,main st,..,moncton,nb
Escaouette Theatre,3459,theatre/performance and concert hall,170,botsford st,E1C 4X6,moncton,nb
"Federal Building, Dominion Public Building",3559,heritage or historic site,1081,main st,..,moncton,nb
Festival De Musique Magnetic Hill Music Festival,3627,festival site,540,front rd,E1G 3H3,moncton,nb
Festival Del Cine,3629,festival site,18,antonine ave,E1A 3E9,moncton,nb
Festival Inspire,3690,festival site,..,..,..,moncton,nb
Festival International Du Cinéma Francophone En Acadie (Ficfa),3698,festival site,140,botsford st,E1C 4X5,moncton,nb
Fine Arts Collection City of Moncton,3764,gallery,655,main street,E1C 1E8,moncton,nb
First Moncton United Baptist Church,3779,heritage or historic site,50,church st,..,moncton,nb
Flat Iron Building,3791,heritage or historic site,897,main st,..,moncton,nb
Former A. A. Tuttle Building,3829,heritage or historic site,886,main st,..,moncton,nb
Former Moncton And Regional Public Library,3830,library or archives,51,highfield st,..,moncton,nb
Free Meeting House,3986,museum,20,mountain rd,E1C 2J8,moncton,nb
Frye Festival,4015,festival site,644,main st,E1C 1E2,moncton,nb
Galerie 12,4032,gallery,140,botsford st,E1C 4X5,moncton,nb
Galerie Beauséjour,4040,gallery,750,main st,..,moncton,nb
Galerie D'Art Louise Et Reuben-Cohen,4084,gallery,405,universite ave,E1A 3E9,moncton,nb
Galerie D'Art Louise Et Reuben-Cohen De L'Université De Moncton,4085,gallery,..,..,E1A 3E9,moncton,nb
George Leblanc Accordion Festival,4233,festival site,55,mark ave,E1C 7G8,moncton,nb
Gorge Cemetery,4318,heritage or historic site,..,gorge rd,..,moncton,nb
Greater Moncton Museum Society,4383,museum,20,mountain rd,..,moncton,nb
Greater Moncton Music Festival / Le Festival De La Musique De Grand Moncton,4384,festival site,811,main st,E1C 1G1,moncton,nb
Greater Moncton Pride Week / River of Pride,4385,festival site,110,asomption blvd,E1C 0R9,moncton,nb
Gulf Fisheries Centre,4444,heritage or historic site,343,université ave,E1C 5K4,moncton,nb
Higgins Block,4707,heritage or historic site,687,main st,..,moncton,nb
Highfield Street Pumping Station,4716,heritage or historic site,5,thanet st,..,moncton,nb
Highfield Street United Baptist Church,4717,heritage or historic site,290,george st,E1C 1W5,moncton,nb
Hubcap Comedy Festival,4793,festival site,..,..,E1C 2N6,moncton,nb
Humphrey Block,4812,heritage or historic site,599,main st,..,moncton,nb
I.C.R. Monument,4828,heritage or historic site,..,millennium blvd,..,moncton,nb
IGT Legs For Literacy,4838,festival site,..,..,..,moncton,nb
J. A. Marven Residence,4931,heritage or historic site,20,austin st,E1C 1Z6,moncton,nb
Jè-St': Festival D'Art Performatif Et D'Intervention,4937,festival site,140,botsford st,E1C 4X5,moncton,nb
John A. Humphrey Residence,4986,heritage or historic site,132,mill rd,..,moncton,nb
Killam House,5153,heritage or historic site,84,highfield st,E1C 5N5,moncton,nb
L. A. Roy Groceries,5268,heritage or historic site,347,mountain rd,..,moncton,nb
Léopold-Taillon Building,5273,heritage or historic site,18,antonine ave,E1A 3E9,moncton,nb
La Grange,5289,art or cultural centre,19,juin st,..,moncton,nb
La Salle Héritage - Notre Dame Du Sacré Coeur,5308,museum,105,king st,..,moncton,nb
Le Hum: (Galerie Sans Nom),5465,gallery,140,botsford st,E1C 4X5,moncton,nb
