Facility_Name,Index,ODCAF_Facility_Type,Street_No,Street_Name,Postal_Code,City,Prov_Terr
'School Days' Museum,3,museum,427,queen st,E3B 5R6,fredericton,nb
Association Heritage New Brunswick,523,heritage or historic site,163,st-john street,E3B 4A8,fredericton,nb
Beaverbrook Art Gallery,732,gallery,703,queen st,E3B 5A6,fredericton,nb
Currie House Museum,3017,museum,110,currie lane,E5L 1X7,fredericton,nb
Diocese of Fredericton Archives,3125,museum,168,church street,E3B 4C9,fredericton,nb
Dre. Marguerite Michaud Library,3213,library or archives,715,priestman st,E3B 5W7,fredericton,nb
Fredericton Public Library,3982,library or archives,12,carleton st,E3B 5P4,fredericton,nb
Fredericton Public Library - Nashwaaksis,3983,library or archives,324,fulton ave,E3A 5J4,fredericton,nb
Fredericton Region Museum,3984,museum,571,queen street,E3B 5C8,fredericton,nb
Guard House And Soldiers' Barracks,4432,museum,15,carleton street,E3B 3T1,fredericton,nb
Heritage Branch Province of New Brunswick,4604,heritage or historic site,370,king street,E3B 5H1,fredericton,nb
Nature NB,6821,miscellaneous,924,prospect st,E3B 2T9,fredericton,nb
New Brunswick Archaeological Services Branch,6855,miscellaneous,225,king st,E3B 1E1,fredericton,nb
New Brunswick Art Bank,6856,art or cultural centre,..,..,E3B 5H1,fredericton,nb
New Brunswick Library of Craft And Design,6860,library or archives,415,king street,E3B 1E5,fredericton,nb
New Brunswick Sports Hall of Fame,6867,museum,503,queen st,E3B 5H1,fredericton,nb
Provincial Archives of New Brunswick,7609,library or archives,23,dineen drive,E3B 9V7,fredericton,nb
Science East,8161,museum,668,brunswick street,E3B 1H6,fredericton,nb
The Organization For the Development of Artists-Gallery Connexion,8993,gallery,453,queen street,E3B 5B4,fredericton,nb
UNB Art Centre,9242,gallery,9,bailey drive,E3B 5A3,fredericton,nb
University of New Brunswick: Archives And Special Collections,9280,library or archives,5,mccauley drive,E3B 5H5,fredericton,nb
University of New Brunswick: Brydone Jack Observatory Museum,9281,museum,8,bailey dr,E3B 5A3,fredericton,nb
Wulastook Museums Incorporated,9742,museum,124,queen street,E3B 5B4,fredericton,nb
