Index,Facility_Name,ODCAF_Facility_Type,Street_No,Street_Name,Postal_Code,City,Prov_Terr
3731,festival off de québec,festival site,591,rue saint-vallier e,g1k3p9,québec,qc
3915,fortifications of québec national historic site,heritage or historic site,2,rue d'auteuil,g1r5c2,québec,qc
4034,galerie alain lacaze,gallery,129,rue st-paul,g1k3v8,québec,qc
4050,galerie d'art château frontenac,gallery,1,rue des carrières,g1r5j5,québec,qc
4074,galerie d'art internationale,gallery,87,rue st-pierre,g1k4a3,québec,qc
4117,galerie le chien d'or,gallery,8,rue du fort,g1r4m1,québec,qc
4120,galerie michel guimont,gallery,273,rue st-paul,g1k3w6,québec,qc
4131,galerie perreault,gallery,205,rue st-paul,g1k3w2,québec,qc
4147,galerie zen,gallery,1139,rue st-jean,g1r1s3,québec,qc
4593,henry stuart house,miscellaneous,82,grande allée ouest,g1r2g6,québec,qc
4852,impérial bell,theatre/performance and concert hall,252,rue st-joseph e,g1k3a9,québec,qc
5246,"l'îlot des palais, historic and archaeological site",heritage or historic site,8,rue vallière,g1k6s9,québec,qc
5251,l'anti - bar &#38; spectacles,theatre/performance and concert hall,251,rue dorchester,g1k5z6,québec,qc
5258,l'espace contemporain galerie d'art,gallery,313,rue st-jean,g1r1n9,québec,qc
5278,la chapelle du musée de l'amérique francophone,museum,2,côte de la fabrique,g1r3v6,québec,qc
5286,la galerie 3,gallery,247,rue saint-vallier e,g1k3p4,québec,qc
5296,la maison léon-provancher,miscellaneous,1435,rue provancher,g1y1r9,québec,qc
5320,laboratoire de muséologie et d'ingénerie de la culture,miscellaneous,1055,avenue du-séminaire,g1v0a6,québec,qc
5403,lascène lebourgneuf,theatre/performance and concert hall,815,boul lebourgneuf,g2j0c1,québec,qc
5442,le capitole de québec,theatre/performance and concert hall,972,rue st-jean,g1r1r5,québec,qc
5453,le d'auteuil,theatre/performance and concert hall,228,st-joseph e,g1k3a9,québec,qc
5454,le diamant,theatre/performance and concert hall,966,rue saint-jean,g1r1r5,québec,qc
5459,le festival découvrarts du vieux-cap-rouge,festival site,,,g1y1v1,québec,qc
5469,le monastère des augustines,miscellaneous,77,rue des-remparts,g1r0c3,québec,qc
5475,le musée du royal 22e régiment,museum,,,g1r3r2,québec,qc
5532,les artisans du vitrail - glass working économusée,museum,1017,3e avenue,g1l2x3,québec,qc
5546,les musées de la civilisation - maison historique chevalier,museum,50,rue du marché champlain,g1k4e9,québec,qc
5547,les musées de la civilisation - musée de l'amérique francophone,museum,2,côte de la fabrique,g1r3v6,québec,qc
5548,les musées de la civilisation - musée de la civilisation,museum,85,rue dalhousie,g1k8r2,québec,qc
5549,les musées de la civilisation - musée de la place-royale,museum,27,rue notre-dame,g1k4e9,québec,qc
5551,les soeurs du bon-pasteur de québec,miscellaneous,2550,rue marie,g1v2j2,québec,qc
5577,lieu historique national cartier-brébeuf,heritage or historic site,175,rue de-l'espinay,g1k7r3,québec,qc
5851,maison des jésuites de sillery,heritage or historic site,2320,chemin du-foulon,g1t1x4,sillery,qc
5863,maison ephraïm-bédard,heritage or historic site,7655,chemin samuel,g1h7h4,québec,qc
5867,maison girardin,heritage or historic site,583,royale avenue,g1e7g3,québec,qc
6310,morrin centre -literary and historical society of québec,art or cultural centre,44,chaussée des écossais,g1r4h3,quebec city,qc
6457,musée de l'amérique francophone,museum,2,côte de la fabrique,g1r4r7,québec,qc
6514,musée des augustines de l'hôpital général de québec,museum,260,boulevard langelier,g1k5n1,québec,qc
6558,musée des ursulines de québec,museum,12,rue donnacona,g1r3y7,québec,qc
6578,musée du fort,museum,10,rue ste-anne,g1r4s7,québec,qc
6657,musée national des beaux-arts du québec (mnbaq),museum,179,rue grande allée o,g1r2h1,québec,qc
6826,naval museum of québec,museum,170,rue dalhousie,g1k8m7,québec,qc
6871,new france festival presented by td,festival site,,,g1r4c4,québec,qc
7241,palais montcalm - maison de la musique,theatre/performance and concert hall,995,place d' youville,g1r3p1,québec,qc
7370,petit théâtre de québec,theatre/performance and concert hall,135,rue saint-vallier o,g1k1j9,québec,qc
7428,plains of abraham museum,museum,835,québec avenue,g1r2l3,québec,qc
7558,premier acte,theatre/performance and concert hall,870,av de salaberry,g1r2t9,québec,qc
7629,québec city celtic festival,festival site,,,g1j5e7,québec,qc
7630,québec city film festival,festival site,,,g1r3p1,québec,qc
