Index,Facility_Name,ODCAF_Facility_Type,Street_No,Street_Name,Postal_Code,City,Prov_Terr
51,ès trad - living heritage center,gallery,5,rue cul de sac,g1k4h6,québec,qc
84,érico - creative chocolate factory and chocolate museum,museum,634,rue st-jean,g1r1p8,québec,qc
355,archives du monastère des ursulines de québec,library or archives,18,rue donnacona,g1r4t1,québec,qc
460,artillery park heritage site,museum,2,rue d'auteuil,g1r5c2,québec,qc
787,bibliothèque aliette-marchand,library or archives,,,,québec city,qc
793,bibliothèque bon-pasteur,library or archives,,,,québec city,qc
795,bibliothèque canardière,library or archives,,,,québec city,qc
796,bibliothèque champigny,library or archives,,,,québec city,qc
797,bibliothèque charles-h.-blais,library or archives,,,,québec city,qc
798,bibliothèque chrystine-brouillet,library or archives,,,,québec city,qc
801,bibliothèque collège-des-jésuites,library or archives,,,,québec city,qc
815,bibliothèque de l'université laval,library or archives,,,,québec city,qc
851,bibliothèque de saint-sauveur,library or archives,,,,québec city,qc
887,bibliothèque félix-leclerc,library or archives,,,,québec city,qc
889,bibliothèque fernand-dumont,library or archives,,,,québec city,qc
893,bibliothèque gabrielle-roy,library or archives,,,,québec city,qc
920,bibliothèque le tournesol,library or archives,,,,québec city,qc
921,bibliothèque lebourgneuf,library or archives,,,,québec city,qc
926,bibliothèque maison de la littérature,library or archives,,,,québec city,qc
936,bibliothèque monique-corriveau,library or archives,,,,québec city,qc
943,bibliothèque neufchâtel,library or archives,,,,québec city,qc
948,bibliothèque paul-aimé-paiement,library or archives,,,,québec city,qc
957,bibliothèque saint-albert,library or archives,,,,québec city,qc
958,bibliothèque saint-andré,library or archives,,,,québec city,qc
959,bibliothèque saint-charles,library or archives,,,,québec city,qc
1014,bibliothèque claire-martin,library or archives,755,rue saint-jean,g1r1r1,québec,qc
1542,bibliotheque lebourgneuf,library or archives,1650,la boulevard,g2k2l2,quebec,qc
2298,carrefour international de théâtre,festival site,369,rue de-la-couronne,g1k6e9,québec,qc
2305,cartier-brébeuf national historic site,museum,175,rue de l'espinay,g1l3w6,québec,qc
2412,centre d'art la chapelle,art or cultural centre,620,plante avenue,,québec city,qc
2413,centre d'art la maison mauger,art or cultural centre,2185,bastien boulevard,,québec city,qc
2414,centre d'art maison hamel-bruneau,art or cultural centre,,,,québec city,qc
2416,centre d'art maison o'neil,art or cultural centre,3160,wilfrid boulevard,,quebec city,qc
2417,centre d'art maison routhier,art or cultural centre,3325,rue rochambeau,,québec,qc
2418,centre d'art maison sanfaçon-paradis,art or cultural centre,1439,louis XIV boulevard,,québec,qc
2419,centre d'art moulin des jésuites,art or cultural centre,7960,henri boulevard,,québec,qc
2420,centre d'art palais montcalm,art or cultural centre,,,,québec city,qc
2424,centre d'art villa bagatelle,art or cultural centre,1563,laurier boulevard,,québec city,qc
2493,centre d'interprétation de place-royale,art or cultural centre,27,rue notre-dame,g1k7a6,québec,qc
2508,centre d'interprétation historique de sainte-foy,art or cultural centre,2825,chemin sainte-foy,g1v1w1,québec,qc
2516,centre de conservation du québec,miscellaneous,1825,rue semple,g1n4b7,québec,qc
2658,choco-musée erico,museum,634,rue saint-jean,g1r1p8,québec,qc
2711,citadelle de québec / musée royal 22e régiment,museum,,,g1r3r2,québec,qc
3448,envol et macadam festival,festival site,0,,g1k9j9,québec,qc
3593,festival d'été de québec,festival site,0,,g1r2l3,québec,qc
3598,festival d'opéra de québec,festival site,269,boul rené lévesque,,québec,qc
3601,festival de cinéma en famille de québec,festival site,2580,boul laurier,g1v2l8,sainte-foy,qc
3638,festival des brasseurs et artisans de québec,festival site,2000,montmorency boulevard,g1j5e7,québec,qc
3649,festival des journées d'afrique danses et rythmes du monde de québec,festival site,972,rue saint-jean,,québec,qc
