Facility_Name,Index,ODCAF_Facility_Type,Street_No,Street_Name,Postal_Code,City,Prov_Terr
A.C. Davie Shipyard National Historical Site,89,museum,6210,rue st-laurent,G6V 3P4,lévis,qc
Archives De La Confédération Des Caisses Populaires Et D'Économie Desjardins Du Québec,348,library or archives,59,bégin avenue,G6V 4C3,lévis,qc
Bibliotheque Albert-Rousseau,981,library or archives,711,albert avenue,G6J 1Z7,montréal,qc
Bibliotheque Anne-Marie-Filteau,988,library or archives,220,du-pont route,G7A 2T7,montréal,qc
Bibliotheque Croque-Volumes,1019,library or archives,1325,rue 7e,G6K 1Z7,rouyn-noranda,qc
Bibliothèque Francine-Mckenzie,1460,library or archives,100,centre place,G6Z 3B9,bois-franc,qc
Bibliotheque Laureat-Valliere,1527,library or archives,2161,chemin du-fleuve,G6W 5P8,saint-severin,qc
Bibliothèque Marguerite-Poire,1558,library or archives,10,rue giguere,G6V 1N6,laval,qc
Bibliotheque Pierre-Georges-Roy,1664,library or archives,7,rue monseigneur,G6V 5J9,longueuil,qc
Bibliotheque Saint-David,1720,library or archives,4,rue olympique,G6W 6N3,sainte-agathe-des-monts,qc
Centre D'Exposition Louise-Carrier,2467,gallery,33,rue wolfe,G6V 3X5,lévis,qc
Festival International Du Conte Jos Violon De Lévis,3699,festival site,4385,rue st-laurent,G6V 8M8,lévis,qc
Festival Jazz Etcetera Lévis,3703,festival site,..,..,G6V 4C3,lévis,qc
L'Anglicane,5249,theatre/performance and concert hall,31,rue wolfe,G6V 3X5,lévis,qc
L'Espace Culturel Du Quartier - Heritage Center And Art Gallery,5260,gallery,1450,rue des-pionniers,G7A 4L6,lévis,qc
Lévis Forts National Historic Site,5274,museum,41,ch du-gouvernement,..,lévis,qc
Lieu Historique National Des Forts-De-Lévis,5583,heritage or historic site,41,chemin du gouvernement,G6V 7E1,lévis,qc
Lieu Historique National Du Canada Du Chantier A.C. Davie,5586,heritage or historic site,6210,rue saint-laurent,G6V 3P4,lévis,qc
Maison Alphonse-Desjardins,5800,miscellaneous,6,rue du-mont-marie,G6V 1V9,lévis,qc
Maison Natale De Louis Fréchette,5879,miscellaneous,4385,rue saint-laurent,G6V 8M8,lévis,qc
Musée Du Collège De Lévis,6574,museum,9,rue monseigneur,G6V 5K1,lévis,qc
Musée Le Régiment De La Chaudière,6617,museum,10,rue de-l'arsenal,G6V 4P7,arsenal lévis,qc
Presbytère Saint-Nicolas,7559,museum,1450,rue des-pionniers,G7A 4L6,saint-nicolas,qc
Regart - Centre D'Artistes En Art Actuel,7738,gallery,5956,rue saint-laurent,G6V 3P4,lévis,qc
Reseau Biblio De La Capitale-Nationale Et De La Chaudiere-Appalaches,7763,library or archives,3189,rue albert,G6X 3A1,saint-remi,qc
Société Historique Alphonse-Desjardins,8364,museum,6,rue du-mont,G6V 1V9,lévis,qc
Vieux Bureau De Poste,9410,theatre/performance and concert hall,2172,ch du-fleuve,G6W 1Y6,lévis,qc
