Facility_Name,Index,ODCAF_Facility_Type,Street_No,Street_Name,Postal_Code,City,Prov_Terr
Appartenance Mauricie Société D'Histoire Régionale,321,heritage or historic site,2152,rue cascade,G9N 6T9,shawinigan,qc
Bibliothèque Bruno-Sigmen,794,library or archives,1550,rue 118e,..,shawinigan,qc
Bibliothèque Colette-B.-Forget,800,library or archives,1375,chemin principal,..,shawinigan,qc
Bibliothèque Denise-B.-Trudel,854,library or archives,1596,chemin de-saint-jean,..,saint-jean-des-piles,qc
Bibliothèque Fabien-Larochelle,888,library or archives,550,avenue de l'hôtel de ville ,..,shawinigan,qc
Bibliothèque Gisèle-M.-Beaudoin,899,library or archives,1082,chemin de-la-vigilance,..,shawinigan,qc
Bibliothèque Hélène-B.-Beauséjour,901,library or archives,650,rue 8e,..,shawinigan,qc
Bibliotheque Lac-À -La-Tortue,1523,library or archives,1082,37e avenue,G0X 1L0,saint-prime,qc
Centre D'Exposition Du Centre Des Arts De Shawinigan (Autre Nom : Centre D'Exposition Léo-Ayotte),2453,art or cultural centre,..,..,G9N 8R8,shawinigan,qc
Centre D'Exposition Léo-Ayotte,2460,gallery,2100,boul des-hêtres,G9N 8R8,shawinigan,qc
Centre Des Arts De Shawinigan,2529,theatre/performance and concert hall,..,..,G9N 8R8,shawinigan,qc
Fabrique Notre-Dame-De-La-Présentation,3525,museum,825,ozias leduc ave,G9P 1E1,shawinigan-sud,qc
Festival Des Couleurs De Vallée Du Parc,3642,festival site,10000,chemin de-la vallée,G9T 5K5,shawinigan,qc
Festival Des Univers Givrés,3657,festival site,2100,boul des-hêtres,G9N 8R8,shawinigan,qc
Festival Trad De Shawinigan,3742,festival site,15,avenue de grand mère,G9T 2G1,shawinigan,qc
Galerie D'Art Aapcm,4048,gallery,386,de grand mère avenue,G9T 2P8,shawinigan,qc
La Cité De L'Énergie,5281,miscellaneous,1000,melville avenue,G9N 6T9,shawinigan,qc
Les Oeuvres D'Ozias Leduc À L'Église Notre-Dame-De-La-Présentation,5550,gallery,825,ozias leduc ave sud,G9P 1E1,shawinigan sud,qc
Maison De La Culture Francis-Brisson,5822,theatre/performance and concert hall,15,av de grand mère,G9T 2G1,shawinigan,qc
Ozias Leduc En Mauricie - National Historic Site of Canada,7230,museum,825,ozias av,G9P 1E1,leduc shawinigan,qc
