Index,Facility_Name,ODCAF_Facility_Type,Street_No,Street_Name,Postal_Code,City,Prov_Terr
353,archives des ursulines de trois-rivières,library or archives,784,des-ursulines,g9a5b5,trois rivières,qc
356,archives du séminaire de trois-rivières,library or archives,858,rue laviolette,g9a5s3,trois rivières ,qc
884,bibliothèque et archives nationales du québec trois-rivières,library or archives,225,rue des-forges,g9a2g7,trois rivières ,qc
1131,bibliothèque de la franciade,library or archives,100,rue de-la-mairie,g8w1s1,laurierville,qc
1734,bibliotheque simone-l.-roy,library or archives,500,rue grande,g9b7s3,sept-Îles,qc
1859,"boréalis, center for the history of the paper industry",miscellaneous,200,des-draveurs avenue,g9a0b6,trois rivières ,qc
2471,centre d'exposition raymond-lasnier - maison de la culture de trois-rivières,art or cultural centre,1425,de-l'hôtel de-ville place,g9a5h3,trois rivières ,qc
2796,cogeco amphitheatre and cabaret,theatre/performance and concert hall,100,des-draveurs,g9a5h3,trois-rivières,qc
3608,festival de l'assomption,festival site,626,rue notre-dame e,g8t4g9,trois rivières ,qc
3693,festival international de danse encore,festival site,,,g9a2g9,trois rivières ,qc
3978,frederic janssoone museum,museum,890,boul du-saint maurice,g9a3p8,trois rivières ,qc
4068,galerie d'art du parc,gallery,864,rue des-ursulines,g9a5j9,trois rivières ,qc
4694,heritage tour of trois-rivières,heritage or historic site,1457,rue notre-dame,g9a4x4,trois rivières ,qc
4882,international festival of poetry,festival site,1425,de-l'hôtel de-ville place,g9a4j4,trois rivières ,qc
5466,le memphis cabaret,theatre/performance and concert hall,323,rue des-forges,g9a2g9,trois-rivières,qc
5537,les forges du saint-maurice national historic site,museum,10000,boul des-forges,g9c1b1,trois rivières ,qc
6337,moulin seigneurial de pointe-du-lac,miscellaneous,930,rue notre-dame ouest,g9b6x1,trois rivières ,qc
6416,musée bon père frédéric,museum,890,du-saint maurice boulevard,g9a3p8,trois rivières ,qc
6531,musée des filles de jésus,museum,1193,saint-louis boulevard,g8z2m8,trois rivières ,qc
6560,musée des ursulines de trois-rivières,museum,734,rue des-ursulines,g9a5b5,trois-rivières,qc
6639,musée militaire de trois-rivières,museum,574,rue st-françois,g9a1r6,trois rivières ,qc
6662,musée pierre-boucher,museum,858,rue laviolette,g9a5s3,trois rivières ,qc
6668,musée québécois de culture populaire,museum,200,rue laviolette,g9a6l5,trois-rivières,qc
7768,reseau biblio du centre-du-québec de lanaudiere et de la mauricie,library or archives,3125,rue girard,g8z2m4,salaberry-de-valleyfield,qc
8045,salle anaïs-allard-rousseau de la maison de la culture de trois-rivières,theatre/performance and concert hall,1425,de-l'hôtel-de-ville place,g9a5h3,trois-rivières,qc
8059,salle j.-antonio-thompson,theatre/performance and concert hall,374,rue des-forges,g9a5h3,trois-rivières,qc
8086,salon national d'histoire et de patrimoine,miscellaneous,1425,de-l'hôtel de-ville pl,g9a5k4,trois rivières ,qc
9409,vieille prison de trois-rivières (musée pop),museum,200,rue laviolette,g9a6l5,trois rivières ,qc
