Facility_Name,Index,ODCAF_Facility_Type,Street_No,Street_Name,Postal_Code,City,Prov_Terr
Bibliothèque Du Secteur De Rock Forest,866,library or archives,968,rue du-haut bois sud,J1H 5H9,sherbrooke,qc
Bibliothèque Du Secteur De Saint-Élie,871,library or archives,4505,chemin saint-roch nord,..,sherbrooke,qc
Bibliothèque Et Archives Nationales Du Québec Sherbrooke,883,library or archives,225,rue frontenac,J1H 1K1,sherbrooke,qc
Bibliothèque Gisèle-Bergeron,898,library or archives,81,rue curé larocque,J1C 0T2,sherbrooke,qc
Bibliothèque Lennoxville,922,library or archives,101,rue queen,..,sherbrooke,qc
Bibliothèque Municipale Éva-Senécal,941,library or archives,450,rue marquette,J1H 5H9,sherbrooke,qc
Centennial Theatre,2356,theatre/performance and concert hall,2600,rue collège,J1M 1Z7,sherbrooke,qc
Eastern Townships Resource Centre,3277,library or archives,2600,college,J1M 1Z7,sherbrooke,qc
Festival Cinéma Du Monde De Sherbrooke,3581,festival site,63,rue king ouest,J1H 1P1,sherbrooke,qc
Festival Des Harmonies Et Orchestres Symphoniques Du Québec,3647,festival site,2500,boul de-l'université,J1K 2R1,sherbrooke,qc
Festival Des Rythmes D'Afrique De Sherbrooke,3654,festival site,..,..,J1H 4G8,sherbrooke,qc
Festival Des Traditions Du Monde De Sherbrooke,3656,festival site,1671,ch duplessis,J1H 0C2,sherbrooke,qc
Foreman Art Gallery of Bishop's University,3818,gallery,2600,rue collège campus de-l'université,J1M 1Z7,bishop's sherbrooke,qc
Galerie Artazo,4038,gallery,98,welling nord,J1H 5B8,sherbrooke,qc
Galerie D'Art Du Centre Culturel De L'Université De Sherbrooke,4062,gallery,2500,boulevard de-l'université,J1K 2R1,sherbrooke,qc
Galerie D'Art Foreman De L'Université Bishop'S,4072,gallery,2600,college,J1M 1Z7,sherbrooke,qc
La Petite Boîte Noire,5302,theatre/performance and concert hall,58,meadow,J1H 1M8,sherbrooke,qc
Le Musée Régimentaire Les Fusiliers De Sherbrooke,5478,museum,64,rue belvédère s,J1H 4B4,sherbrooke,qc
Le Parvis,5485,theatre/performance and concert hall,987,rue du-conseil,J1G 1L9,sherbrooke,qc
Lennoxville-Ascot Historical And Museum Society,5520,museum,9,speid st,J1M 1R9,sherbrooke,qc
Les Concerts De La Cité,5535,festival site,50,rue place de la cité,J1H 5L8,sherbrooke,qc
Les Galeries Quatre Saisons,5540,gallery,930,13e avenue nord,J1E 3J7,sherbrooke,qc
Les Jours Sont Contés Storytelling Festival,5542,festival site,138,rue wellington nord,J1H 5C5,sherbrooke,qc
Maison Centrale Des Filles De La Charité Du Sacré-Coeur De Jésus,5805,miscellaneous,605,rue bowen sud,J1G 2E6,sherbrooke,qc
Musée D'Histoire De Sherbrooke,6440,museum,275,rue dufferin,J1H 4M5,sherbrooke,qc
Musée De La Nature Et Des Sciences,6489,museum,225,rue frontenac,J1H 1K1,sherbrooke,qc
Musée Des Beaux-Arts De Sherbrooke,6525,museum,241,dufferin,J1H 4M3,sherbrooke,qc
Musée Marie-Léonie,6624,museum,130,rue de-la-cathédrale,J1H 4M1,sherbrooke,qc
Off Festival - Festival Des Harmonies Et Orchestres Symphoniques Du Québec,7059,festival site,..,..,J1H 0E9,sherbrooke,qc
Québec Anglophone Heritage Network,7638,heritage or historic site,257,queen street,J1M 1K7,sherbrooke,qc
Regroupement Des Archives Du Séminaire De Sherbrooke Et De L'Archidiocèse De Sherbrooke,7746,library or archives,130,rue de-la-cathédrale,J1H 4M1,sherbrooke,qc
Reseau Biblio De L'Estrie,7760,library or archives,4155,rue brodeur,J1L 1K4,longueuil,qc
Rivers of Light Festival,7840,festival site,250,rue du-dépôt,J1H 5G1,sherbrooke,qc
Salle Maurice-O'Bready - Centre Culturel De L'Université De Sherbrooke,8067,theatre/performance and concert hall,2500,boul de-l'université,J1K 2R1,sherbrooke,qc
Théâtre Centennial,8838,theatre/performance and concert hall,2600,college,J1M 1Z7,sherbrooke,qc
Théâtre Granada,8877,theatre/performance and concert hall,53,wellington nord,J1H 5A9,sherbrooke,qc
Uplands Cultural And Heritage Center,9300,museum,9,rue speid,J1M 1R9,sherbrooke,qc
Vineberg &#38; Bouchard Classic Gallery,9432,gallery,98,rue wellington n,J1H 5B8,sherbrooke,qc
