Index,Facility_Name,ODCAF_Facility_Type,Street_No,Street_Name,Postal_Code,City,Prov_Terr
520,association des artistes peintres de longueuil,artist,,,j4h0a2,longueuil,qc
970,bibliotheque - claude-henri-grignon,library or archives,,,,longeueil,qc
971,bibliotheque - fatima,library or archives,,,,longeueil,qc
976,bibliotheque - raymond-lévesque,library or archives,,,,longeueil,qc
1109,bibliotheque de greenfield park,library or archives,225,rue empire,j4v1t9,saint-ferreol-les-neiges,qc
1470,bibliothèque georges-dor,library or archives,2760,chemin de-chambly,j4l1m6,maniwaki,qc
1478,bibliotheque hubert-perron,library or archives,1100,rue beauregard,j4k2l1,papineauville,qc
1480,bibliotheque j.-w.-gendron,library or archives,3875,grande,j4t2v8,saint-andre-avellin,qc
1484,bibliothèque jacques-ferron,library or archives,100,rue saint-laurent ouest,j4h1m1,chambord,qc
1493,bibliothèque joseph-de-serigny,library or archives,1000,chemin du lac,j4j1w3,larouche,qc
1705,bibliotheque raymond-levesque,library or archives,7025,boul cousineau,j3y0h1,plessisville,qc
2428,centre d'arts visuels de saint-hubert,art or cultural centre,7450,cousineau boulevard,j3y3l4,saint-hubert,qc
2562,cercle des artistes-peintres de saint-hubert,artist,2229,rue de-lorimier,j4k3p2,longueuil,qc
2771,club de patinage artistique adulte de saint-hubert,artist,,,j3y9a9,longueuil,qc
2772,club de patinage artistique de saint-hubert,artist,5950,saint-hubert,j3y9a9,longueuil,qc
2789,cocathédrale saint-antoine-de-padoue de longueuil,miscellaneous,55,rue sainte-élizabeth,j4h1j3,longueuil,qc
5492,le théâtre du 450,theatre/performance and concert hall,658,rue des-fauvettes,j4g2l6,longueuil,qc
5599,lieux historiques des soeurs des saints noms de jésus et de marie/centre marie-rose,art or cultural centre,80,rue saintt est,j4h1a9,longueuil,qc
5815,maison de la culture de longueuil,art or cultural centre,300,rue saint-charles ouest,j4h1e6,longueuil,qc
6473,musée de la femme,museum,460,rue st-charles ouest,j4h1g4,longueuil,qc
7444,"plein sud, centre d'exposition en art actuel à longueuil",art or cultural centre,150,rue de-gentilly est,j4h4a9,longueil,qc
7770,reseau des bibliotheques de longueuil,library or archives,7025,cousineau boulevard,j3y0h1,trois-rivieres,qc
8360,société d'horticulture et d'écologie de longueuil inc.,museum,205,chemin de-chambly,j4h3l3,longueuil,qc
8370,société historique du marigot,library or archives,440,chemin de-chambly,j4h3l7,longueuil,qc
8851,théâtre de la ville,theatre/performance and concert hall,180,rue de-gentilly est,j4h4a9,longueuil,qc
8890,théâtre motus,theatre/performance and concert hall,,,j4h3h6,longueuil,qc
