Index,Facility_Name,ODCAF_Facility_Type,Street_No,Street_Name,Postal_Code,City,Prov_Terr
64,église de la purification-de-la-bienheureuse-vierge-marie,miscellaneous,445,rue notre-dame,,repentigny,qc
72,église notre-dame-des-champs,miscellaneous,187,boulevard iberville,,repentigny,qc
75,église précieux-sang,miscellaneous,115,rue chauveau,,repentigny,qc
78,église saint-paul-l'ermite,miscellaneous,377,rue du-village,,repentigny,qc
777,biblio-mobile à la résidence de la rive-nord,library or archives,739,rue notre-dame,,repentigny,qc
778,biblio-mobile à la résidence havre du petit village,library or archives,177,boulevard lacombe,,repentigny,qc
779,biblio-mobile à la résidence le notre-dame,library or archives,505,rue notre-dame,,repentigny,qc
780,biblio-mobile à la résidence lucien-goulet,library or archives,301,boulevard ja paré,,repentigny,qc
781,biblio-mobile à la résidence maurice-rivest,library or archives,674,rue masson,,repentigny,qc
782,biblio-mobile au chsld émile mc duff,library or archives,1440,boulevard iberville,,repentigny,qc
876,bibliothèque edmond-archambault,library or archives,231,boulevard ja paré,,repentigny,qc
954,bibliothèque robert-lussier,library or archives,1,d'évry place,,repentigny,qc
2410,centre d'art diane-dufresne,art or cultural centre,11,allée de la création,j6a0c2,repentigny,qc
2836,commission des champs de bataille nationaux,museum,390,rue de-bernières,g1r2l7,québec,qc
3681,festival feu et glace,festival site,396,rue notre-dame,j6a2t1,repentigny,qc
3691,festival interculturel d'été de repentigny,festival site,225,boul ja paré,j5z4m6,repentigny,qc
4091,galerie d'art vigneault,gallery,535,rue notre dame,j6a2t6,repentigny,qc
6330,moulin grenier,miscellaneous,912,rue notre-dame,,repentigny,qc
6332,moulin jetté,miscellaneous,859,rue notre-dame,,repentigny,qc
