Index,Facility_Name,ODCAF_Facility_Type,Street_No,Street_Name,Postal_Code,City,Prov_Terr
977,bibliotheque émile-nelligan,library or archives,325,boul cartier,h7n2j5,saint-telesphore,qc
1467,bibliothèque gabrielle-roy,library or archives,3505,boul dagenais,h7p4v9,laval,qc
1473,bibliotheque germaine-guevremont,library or archives,2900,boul de-la-concorde est,h7e2b6,montebello,qc
1525,bibliotheque laure-conan,library or archives,4660,boul des-laurentides,h7k2j4,saint-athanase,qc
1565,bibliotheque marius-barbeau,library or archives,1245,montee du moulin,h7a3v6,saint-hyacinthe,qc
1570,bibliotheque multiculturelle,library or archives,1535,boul chomedey,h7v3z4,sorel-tracy,qc
1663,bibliothèque philippe-panneton,library or archives,4747,boul arthur,h7r5p8,Laval,qc
1738,bibliotheque sylvain-garneau,library or archives,187,boul sainte-rose,h7l1l5,shawinigan,qc
1740,bibliotheque yves-theriault,library or archives,670,publique place,h7x1g1,saint-lazare,qc
2404,centre d'archives de laval,library or archives,4300,boul samson,h7w2g9,laval,qc
2485,centre d'interprétation de l'eau,art or cultural centre,12,rue hotte,h7l2r3,laval,qc
2500,centre d'interprétation du parc de la rivière-des-mille-îles,art or cultural centre,345,boulevard sainte-rose,h7l1m7,laval,qc
2908,cosmodôme,museum,2150,autoroute des laurentides,h7t2t8,laval,qc
3031,délia-tétreault museum,museum,100,juge place,h7g1a4,laval,qc
3635,festival des bières de laval,festival site,901,du-parc av,h7e2t7,laval,qc
3660,festival diapason,festival site,214,boul sainte-rose,h7l1l6,laval,qc
4082,galerie d'art la vieille caserne,gallery,216,boul ste-rose,h7l1l6,laval,qc
5195,kinzo laval (galeries laval),gallery,1545,boul le corbusier,h7s2k6,corbusier laval,qc
5437,laval laughs festival,festival site,1600,rue robinson,h7w2w4,laval,qc
5847,maison des arts de laval - salle alfred-pellan,art or cultural centre,1395,boulevard -de-la-concorde ouest,h7n5w1,laval,qc
6410,musée armand-frappier,museum,531,boulevard des-prairies,h7v1b7,laval,qc
6666,musée pour enfants de laval,museum,3805,boul curé labelle,h7p0a5,laval,qc
7422,place bell,theatre/performance and concert hall,1950,rue claude gagné,h7n0e4,laval,qc
7847,rivière-des-prairies generating station,miscellaneous,3400,rue du-barrage,h7e5a2,laval,qc
8047,salle andré-mathieu,theatre/performance and concert hall,475,boul de-l'avenir,h7n5h9,laval,qc
8358,société d'histoire et de généalogie de l'île jésus,library or archives,4300,boul samson,h7w2g9,laval,qc
8380,soeurs missionnaires de l'immaculée-conception -services d'archives générale,library or archives,100,juge place,h7g1a4,laval,qc
8745,symposium des artistes sur la route des fleurs,artist,901,av du-parc,h7e2t7,laval,qc
8888,théâtre marcellin-champagnat,theatre/performance and concert hall,1275,av du-collège,h7c1w8,laval,qc
