Facility_Name,Index,ODCAF_Facility_Type,Street_No,Street_Name,Postal_Code,City,Prov_Terr
Musée Du Château Dufresne / Musée Dufresne Nicheri,6571,museum,2929,avenue jeanne-d'arc,H1W 3W2,montréal,qc
Musée Eudore-Dubeau,6596,museum,2900,boul édouard montpetit,H3T 1J4,montréal,qc
Musée Eudore-Dubeau Université De Montréal,6598,museum,2900,édouard montpetit,H3T 1J4,montréal,qc
Musée Mccord Stewart,6637,museum,690,rue sherbrooke ouest,H3A 1E9,montréal,qc
Museum of Jewish Montréal,6723,museum,4040,st-laurent blvd,H2W 1Y8,montréal,qc
Museum of Saint Joseph's Oratory of Mount Royal,6732,museum,3800,chemin queen,H3V 1H6,montréal,qc
Museum of Sault-Au-Récollet,6733,museum,10865,rue du-pressoir,H2B 2L1,montréal,qc
Museum of the Sisters of Providence,6737,museum,12055,rue grenet,H4J 2J5,montréal,qc
Mx Gallery,6763,gallery,333,viger av o,H2Z 0A1,montréal,qc
Notre-Dame Basilica,7017,museum,110,notre-dame street west,H2Y 1T2,montréal,qc
Oboro,7047,gallery,4001,rue berri,H2L 4H2,montréal,qc
Occurrence Espace D'Art Et D'Essai Contemporains,7054,gallery,5455,de-gaspé,H2T 3B3,montréal,qc
Offta - Live Art Festival,7060,festival site,1182,boul st-laurent,H2X 2S5,montréal,qc
Oscar Peterson Concert Hall,7156,theatre/performance and concert hall,7141,rue sherbrooke o,H4B 1R6,montréal,qc
Ostéothèque De Montréal Inc.,7171,museum,1193,carré philipps,H3C 3P8,montréal,qc
Place Des Arts,7423,theatre/performance and concert hall,175,rue ste-catherine o,H2X 1Z8,montréal,qc
Place Des Arts (Incluant La Maison Symphonique),7424,miscellaneous,..,..,..,montréal,qc
Planétarium Rio Tinto Alcan,7432,miscellaneous,4801,pierre avenue,H1V 3V4,montréal,qc
Pointe-À-Callière Musée D'Archéologie Et D'Histoire De Montréal,7459,museum,350,royale pl,H2Y 3Y5,montréal,qc
Pop Montréal International Music Festival,7480,festival site,5723,av du-parc,H2V 4H2,montréal,qc
Pouzza Fest - Montréal's Punk Festival,7538,festival site,..,..,H3A 2G4,montréal,qc
Réserve Des Collections Archéologiques De La Ville De Montréal,7672,miscellaneous,333,rue peel,H3C 2G8,montréal,qc
Redpath Museum,7727,museum,859,rue sherbrooke o,H3A 0C4,montréal,qc
Rock'N'Roll Museum,7863,museum,2222,ontario est,H2K 1V8,montréal,on
Salle Émile-Legault,8039,miscellaneous,613,sainte-croix avenue,H4L 3X7,montréal,qc
Salle Claude-Champagne (Université De Montréal),8049,miscellaneous,..,..,..,montréal,qc
Salle Désilets,8051,theatre/performance and concert hall,7000,rue marie-victorin,H1G 2J6,montréal,qc
Salle D'Activités - Saint-Léonard,8052,miscellaneous,8420,boulevard lacordaire,H1R 3G5,montréal,qc
Salle Jean-Eudes,8063,miscellaneous,3535,boulevard rosemont,H1X 1K7,montréal,qc
Salle Marie-Gérin-Lajoie (Uqam),8066,miscellaneous,..,..,..,montréal,qc
Salle Oscar Peterson (Université Concordia),8069,miscellaneous,..,..,..,montréal,qc
Salle Pauline-Julien,8070,theatre/performance and concert hall,15615,boul gouin,H9H 5K8,montréal,qc
Salle Pierre-Mercure - Centre Pierre-Péladeau (Uqam),8073,miscellaneous,..,..,..,montréal,qc
Salle Pollack (Université Mcgill),8074,miscellaneous,..,..,..,montréal,qc
SBC Galerie D'Art Contemporain,8138,gallery,372,rue sainte-catherine ouest,H3B 1A2,montréal,qc
SBC Gallery of Contemporary Art,8141,gallery,372,rue sainte-catherine ouest,H3B 1A2,montréal,qc
Segal Centre For Performing Arts,8196,theatre/performance and concert hall,5170,ch côte ste catherine,H3W 1M7,montréal,qc
Service Des Archives Et De Gestion Des Documents De L'Uqam,8209,library or archives,1430,rue saint-denis local,H3C 3P8,montréal,qc
Service Du Greffe: Section Des Archives,8210,library or archives,275,rue notre-dame est,H2Y 1C6,montréal,qc
Sir George-Étienne Cartier National Historic Site,8299,heritage or historic site,458,rue notre-dame e,H2Y 1C8,montréal,qc
Société Des Musées Montréalais,8361,museum,333,rue peel,H3C 3R9,montréal,qc
Société Du Musée De La Police De L'Île De Montréal Et De L'Île Bizard,8362,museum,1441,rue saint-urbain,H2X 2M6,montréal,qc
Société Saint-Jean Baptiste De Montréal,8374,art or cultural centre,82,sherbrooke ouest,H2X 1X3,montréal,qc
Society For Arts And Technology,8377,miscellaneous,1195,saint-laurent,H5B 1C2,montréal,qc
Société Des Musées Du Québec,8379,miscellaneous,..,..,H3C 3P8,montréal,qc
Sommets Du Cinéma D'Animation - Montréal International Festival,8387,festival site,335,boul de-maisonneuve e,H2X 1K1,montréal,qc
St-Ambroise Montréal Fringe Festival,8479,festival site,..,..,H2W 1Z4,montréal,qc
Station 16 Urban Art Gallery,8577,gallery,3523,boul st-laurent,H2X 2T6,montréal,qc
Stewart Museum,8620,museum,20,chemin tour,H3C 0K7,montréal,qc
