Facility_Name,Index,ODCAF_Facility_Type,Street_No,Street_Name,Postal_Code,City,Prov_Terr
École De Design Industriel De La Faculté De L'Aménagement De L'Université De Montréal,54,miscellaneous,2940,chemin côte sainte-catherine,H3T 1B9,montréal,qc
Écomusée Du Fier Monde,61,museum,2050,rue amherst,H2L 3L8,montréal,qc
Église Évangélique Arménienne,63,miscellaneous,11455,rue drouart,H3M 2S6,montréal,qc
Église De La Visitation-De-La-Bienheureuse-Vierge-Marie,66,miscellaneous,1847,boulevard gouin est,H2C 1C8,montréal,qc
Église Jean Xxiii,69,miscellaneous,7101,de-l'alsace avenue,H1J 2K5,montréal,qc
Église Marie-Reine-De-La-Paix,70,miscellaneous,11075,boulevard gouin ouest,H8Y 1X6,montréal,qc
Église Notre-Dame-Des-Sept-Douleurs,73,miscellaneous,4155,rue wellington,H4G 1V8,montréal,qc
Église Saint-James the Apostle,76,miscellaneous,1439,rue sainte-catherine ouest,H3G 1S6,montréal,qc
Église Saint-Joseph,77,miscellaneous,10050,boulevard gouin est,H1C 1A8,montréal,qc
Église Saint-René-Goupil,79,miscellaneous,4251,rue du-parc,H1Z 1X8,montréal,qc
Agora De La Danse,153,theatre/performance and concert hall,1435,rue de-bleury,H3A 2H7,montréal,qc
Arab World Festival of Montréal,325,festival site,175,rue ste-catherine o,..,montréal,qc
Archéo-Québec,331,miscellaneous,350,royale place,H2Y 3Y5,montréal,qc
Archives of the Anglican Diocese of Montréal,363,museum,1444,union ave,H3A 2B8,montréal,qc
Archives of the Sisters of Charity of Montréal Grey Nuns Grey Nuns Regional Centre,367,museum,138,saint-pierre street,H2Y 2L7,montréal,qc
Art Souterrain - Contemporary Art Festival,444,festival site,747,rue du-square,H2Y 3Y9,montréal,qc
Atelier Circulaire,535,gallery,5445,rue de-gaspé,H2T 3B2,montréal,qc
Atelier D'Histoire Mercier-Hochelaga-Maisonneuve,536,library or archives,2929,jeanne d'arc,H1W 3W2,montréal,qc
Auditorium Le Prévost,568,theatre/performance and concert hall,7355,christophe avenue,H2R 2S5,montréal,qc
Bank of Montréal Museum,631,museum,129,rue st-jacques,H2Y 1L6,montréal,qc
Bank of Montréal Museum,634,museum,129,rue saint-jacques,H2Y 1L6,montréal,qc
Barbegazi - Winter Action Sports Festival,645,festival site,4141,pierre avenue,H1V 3N7,montréal,qc
Bibliothèque Benny,790,library or archives,6400,de-monkland avenue,H4B 1H3,montréal,qc
Bibliothèque D'Ahuntsic,802,library or archives,10300,rue lajeunesse,H3L 2E5,montréal,qc
Bibliothèque D'Hochelaga,804,library or archives,1870,rue davidson,H1W 2Y6,montréal,qc
Bibliothèque De Belleville,808,library or archives,10400,de-belleville avenue,H1H 4Z7,montréal,qc
Bibliothèque De Cartierville,812,library or archives,5900,rue de-salaberry,H4J 1J8,montréal,qc
Bibliothèque De L'Île-Bizard,813,library or archives,..,montée de l'église,H9C 1G9,montréal,qc
Bibliothèque De L'Île-Des-Sœurs,816,library or archives,260,rue elgar,H3E 1C9,montréal,qc
Bibliothèque De La Danse Vincent-Warren,817,library or archives,4816,rue rivard,H2J 2N6,montréal,qc
Bibliothèque De La Maison Culturelle Et Communautaire De Montréal-Nord,818,library or archives,12002,boulevard rolland,H1G 3W1,montréal,qc
Bibliothèque De La Petite-Patrie,821,library or archives,6707,de-lorimier avenue,H2G 2P8,montréal,qc
Bibliothèque De Mercier,823,library or archives,8105,rue hochelaga,H1L 2K9,montréal,qc
Bibliothèque De Notre-Dame-De-Grâce,825,library or archives,3755,rue botrel,H4A 3G8,montréal,qc
Bibliothèque De Parc-Extension,827,library or archives,421,rue saint-roch,H3N 1K2,montréal,qc
Bibliothèque De Pierrefonds,829,library or archives,13555,boulevard pierrefonds,H9A 1A6,montréal,qc
Bibliothèque De Pointe-Aux-Trembles,832,library or archives,14001,rue notre-dame est,H1A 1T9,montréal,qc
Bibliothèque De Rivière-Des-Prairies,834,library or archives,9001,boulevard perras,H1E 3J7,montréal,qc
Bibliothèque De Rosemont,837,library or archives,3131,boulevard rosemont,H1Y 1M4,montréal,qc
Bibliothèque De Roxboro,839,library or archives,110,rue cartier,H8Y 1G8,montréal,qc
Bibliothèque De Saint-Charles,841,library or archives,2333,rue mullins,H3K 3E3,montréal,qc
Bibliothèque De Saint-Henri,843,library or archives,4707,rue notre-dame ouest,H4C 1S9,montréal,qc
Bibliothèque De Saint-Léonard,845,library or archives,8420,boulevard lacordaire,H1R 3G5,montréal,qc
Bibliothèque De Saint-Michel,847,library or archives,7601,rue françois,H2A 3L6,montréal,qc
Bibliothèque De Saint-Pierre,849,library or archives,183,rue des érables,H8R 1B1,montréal,qc
Bibliothèque De Salaberry,852,library or archives,4170,rue de-salaberry,H4J 1H1,montréal,qc
Bibliothèque Des Jeunes De Montréal,855,library or archives,1410,rue pierce,H3H 2K2,montréal,qc
Bibliothèque Des Livres Rares Et Collections Spéciales -Université De Montréal,856,library or archives,3000,rue jean brilliant,H3C 3J7,montréal,qc
Bibliothèque Du Boisé,858,library or archives,2727,boulevard thimens,H4R 1T4,montréal,qc
