Index,Facility_Name,ODCAF_Facility_Type,Street_No,Street_Name,Postal_Code,City,Prov_Terr
2473,centre d'histoire de montréal,art or cultural centre,,,,montréal,qc
2477,centre d'information artexte,gallery,2,rue sainte-catherine e,h2x1k4,montréal,qc
2513,centre d'archives de montréal,library or archives,535,viger avenue est,h2l2p3,montréal,qc
2515,centre d'histoire de montréal,art or cultural centre,335,d'youville place,h2y3t1,montréal,qc
2518,centre de design de l'uqam,gallery,1440,sanguinet,h3c3p8,montréal,qc
2519,centre de documentation marius-barbeau,miscellaneous,4839,rue de-bordeaux,h2h2a2,montréal,qc
2534,centre des loisirs de saint-laurent,miscellaneous,1375,rue grenet,h4l5k3,montréal,qc
2535,centre des sciences de montréal,miscellaneous,,,,montréal,qc
2536,centre du théâtre d'aujourd'hui,theatre/performance and concert hall,3900,rue st-denis,h2w2m2,montréal,qc
2547,centre leonardo da vinci,miscellaneous,,,,montréal,qc
2548,centre marguerite d'youville,miscellaneous,1185,mathieu st,h3h2h6,montréal,qc
2552,centre pierre-péladeau de l'uqam - salle pierre-mercure,theatre/performance and concert hall,300,boul de-maisonneuve e,h2x3x6,montréal,qc
2567,château dufresne - musée dufresne-nincheri,museum,,,,montréal,qc
2568,"château ramezay, musée et site historique de montréal",museum,,,,montréal,qc
2569,château dufresne - musée et lieu historique patrimonial,museum,2929,av san francisco,h1w3w2,montréal,qc
2571,château ramezay - historical site and museum of montréal,museum,280,rue notre-dame e,h2y1c5,montréal,qc
2600,chapelle historique du bon-pasteur,miscellaneous,100,rue sherbrooke est,h2x1c3,montréal,qc
2675,ciac -centre international d'art contemporain de montréal,gallery,,,h2w2t3,montréal,qc
2681,cinémathèque québécoise,miscellaneous,,,,montréal,qc
2683,cinéma beaubien,miscellaneous,2396,rue beaubien est,h2g1n2,montréal,qc
2685,cinémathèque québécoise,miscellaneous,335,boulevard de-maisonneuve est,h2x1k1,montréal,qc
2688,cinemania film festival,festival site,1430,rue de-bleury,,montréal,qc
2701,"cité historia, musée du sault-au-récollet",museum,10897,rue du-pont,h2b2h3,montréal,qc
2773,club soda,theatre/performance and concert hall,1225,boul st-laurent,h2x2s6,montréal,qc
2818,collection patrimoniale de la sûreté du québec,miscellaneous,1701,parthenais,h2k3s7,montréal,qc
2855,concordia university records management and archives,library or archives,1455,de-maisoneuve blvd,h3g1m8,montréal,qc
2862,conservatoire de musique et d'art dramatique de montréal,theatre/performance and concert hall,4750,av henri-julien,h2t2c8,montréal,qc
2892,corona theatre,theatre/performance and concert hall,2490,rue notre-dame o,h3j1n5,montréal,qc
2970,crescent street grand prix festival,festival site,,,h3g2b2,montréal,qc
3033,département d'anthropologie de l'université de montréal,miscellaneous,3150,jean brilliant,h3c3j7,montréal,qc
3132,division de la gestion de documents et des archives de l`université de montréal,library or archives,2900,boulevard edouard montpetit,h3t1j4,montréal,qc
3133,division gallery,gallery,2020,rue william,,montréal,qc
3388,elektra- international digital art festival,festival site,1345,lalonde av,h2l5a9,montréal,qc
3466,espace libre,theatre/performance and concert hall,1945,rue fullum,h2k3n3,montréal,qc
3470,espace pour la vie: insectarium de montréal,museum,4581,rue sherbrooke est,h1x2b2,montréal,qc
3471,espace pour la vie: jardin botanique de montréal,museum,4101,sherbrooke st east,h1x2b2,montréal,qc
3491,eureka! festival,festival site,2,rue de-la-commune o,h2x4b2,montréal,qc
3530,fairmount theater,theatre/performance and concert hall,5240,av du parc,h2v4g7,montréal,qc
3545,fantasia international film festival,festival site,1455,boul de-maisonneuve o,h3g1m8,montréal,qc
3551,fashion &#38; design festival,festival site,,,h2x3x5,montréal,qc
3574,festival accès asie,festival site,1200,rue bleury,,montréal,qc
3577,festival black &#38; blue,festival site,1004,rue sainte-catherine e,h2l2g2,montréal,qc
3600,festival de casteliers,festival site,1248,bernard avenue ouest,h2v1v6,montréal,qc
3652,festival des orchestres de jeunes du québec,festival site,1600,rue saint-urbain,h2x0s1,montréal,qc
3677,festival du nouveau cinéma of montréal,festival site,175,du-président avenue,h2x3p2,montréal,qc
3686,festival halloween mtl,festival site,150,rue sainte-catherine o,h2x3y2,montréal,qc
3694,festival international de jazz de montréal,festival site,,,h2x3x5,montréal,qc
3696,festival international de la littérature,festival site,175,rue ste-catherine o,,montréal,qc
3700,festival international nuits d'afrique,festival site,1435,rue st-alexandre,h3a2g4,montréal,qc
