Facility_Name,Index,ODCAF_Facility_Type,Street_No,Street_Name,Postal_Code,City,Prov_Terr
Maison De La Culture Villeray-Saint-Michel-Parc-Extension - Salle De Diffusion Parc-Extension,5841,art or cultural centre,421,rue saint-roch,H3N 1K2,montréal,qc
Maison Nivard-De Saint-Dizier,5882,miscellaneous,7244,boulevard lasalle,H4H 1R4,montréal,qc
Maison Pierre-Chartrand,5886,miscellaneous,8000,boulevard gouin est,H1E 1B5,montréal,qc
Maison Saint-Gabriel,5889,heritage or historic site,2146,dublin place,H3K 2A2,montréal,qc
Maison Symphonique De Montréal,5893,theatre/performance and concert hall,1600,rue st-urbain,H2X 0S1,montréal,qc
Maison Théâtre,5894,theatre/performance and concert hall,245,rue ontario e,H2X 3Y6,montréal,qc
Maude Abbott Medical Museum,6030,museum,3640,rue université,H3A 0C7,montréal,qc
Mcgill University Archives,6065,library or archives,3459,mctavish,H3A 0C9,montréal,qc
Montréal Arts Interculturels (Mai),6262,theatre/performance and concert hall,3680,rue jeanne-mance,H2X 2K5,montréal,qc
Montréal Bach Festival,6263,festival site,1600,rue st-urbain,H2X 0S1,montréal,qc
Montréal Brazil Film Festival,6265,festival site,3575,av du-parc,H2X 3P9,montréal,qc
Montréal Chamber Music Festival,6266,festival site,1339,rue sherbrooke ouest,H3G 1G2,montréal,qc
Montréal Cirque Festival,6267,festival site,2345,rue jarry e,H1Z 4P3,montréal,qc
Montréal Comic Arts Festival,6268,festival site,3933,de-parc av,H2L 0C7,montréal,qc
Montréal First Peoples Festival,6269,festival site,..,..,H2X 2J4,montréal,qc
Montréal Folk Festival On the Canal,6270,festival site,..,..,H4E 1A1,montréal,qc
Montréal Holocaust Museum,6271,museum,5151,ch côte ste-catherine,H3W 1M6,montréal,qc
Montréal Insectarium,6272,miscellaneous,4500,boulevard rosemont,H1X 2B1,montréal,qc
Montréal Intercultural Storytelling Festival,6273,festival site,2550,rue ontario e,H2K 1W7,montréal,qc
Montréal International Black Film Festival,6274,festival site,3575,av du-parc,H2X 3P9,montréal,qc
Montréal International Children's Film Festival,6275,festival site,2396,rue beaubien e,H2G 1N2,montréal,qc
Montréal International Classical Guitar Festival And Competition,6276,festival site,1450,rue guy,H3H 1J5,montréal,qc
Montréal International Documentary Festival (Ridm),6277,festival site,335,boul de-maisonneuve e,H2X 1K1,montréal,qc
Montréal International Mizik Kreyol Festival,6278,festival site,2345,rue jarry e,H1Z 4P3,montréal,qc
Montréal International Tango Festival,6279,festival site,1650,rue marie e,H2J 2E1,montréal,qc
Montréal New Music Festival,6280,festival site,..,..,H2X 0S1,montréal,qc
Montréal Ukrainian Festival,6281,festival site,..,..,H1Y 1H3,montréal,qc
Montréal's Italian Week Festival,6282,festival site,..,..,..,montréal,qc
Montréal Science Centre,6288,miscellaneous,2,rue de-la commune ouest,H2X 2E2,montréal,qc
Monument-National,6292,theatre/performance and concert hall,1182,boul st-laurent,H2X 2S5,montréal,qc
Mount Royal Park (Friends of the Mountain),6354,miscellaneous,1260,chemin remembrance,H3H 1A2,montréal,qc
Mtelus,6367,theatre/performance and concert hall,59,rue ste-catherine e,H2X 1K5,montréal,qc
Mural - Public Art Festival,6380,festival site,3527,boul st-laurent,H2X 2V7,montréal,qc
Musée D'Art Contemporain De Montréal,6390,museum,..,..,..,montréal,qc
Musée De L'Oratoire Saint-Joseph Du Mont-Royal,6391,museum,..,..,..,montréal,qc
Musée Des Maîtres Et Artisans Du Québec,6394,museum,..,..,..,montréal,qc
Musée Marguerite-Bourgeoys - Chapelle Notre-Dame-De-Bonsecours,6396,museum,..,..,..,montréal,qc
Musée Mccord,6397,museum,..,..,..,montréal,qc
Musée Stewart,6398,museum,..,..,..,montréal,qc
Musée D'Art Contemporain De Montréal,6430,museum,185,rue sainte-catherine ouest,H2X 3X5,montréal,qc
Musée De L'Éducation,6453,museum,1205,rue saint-denis,H3C 3P8,montréal,qc
Musée De L'Imprimerie Du Québec,6464,museum,423,rue st-nicolas,H2Y 2P4,montréal,qc
Musée De La Mode,6487,museum,385,rue de-la-commune,H2Y 1J3,montréal,qc
Musée De Lachine,6498,museum,1,chemin du-musée,H8S 4L9,montréal,qc
Musée De Paléontologie Et De L'Évolution,6503,museum,541,rue de-la-congrégation,H3K 2J1,montréal,qc
Musée Des Hospitalières De L'Hôtel-Dieu De Montréal,6535,museum,201,des-pins avenue ouest,H2W 1R5,montréal,qc
Musée Des Ondes Emile Berliner,6541,museum,1001,rue lenoir e,H4C 2Z6,montréal,qc
Musée Des Pompiers Auxiliaires De Mont-Royal,6549,museum,5100,boulevard saint-laurent,H2T 1R9,montréal,qc
Musée Des Soeurs De Miséricorde,6554,museum,12435,avenue de la miséricorde,H4J 2G3,montréal,qc
