Index,Facility_Name,ODCAF_Facility_Type,Street_No,Street_Name,Postal_Code,City,Prov_Terr
3714,festival montréal baroque,festival site,6800,henri av,h2v2v4,montréal,qc
3716,festival mtl en arts,festival site,,rue sainte-catherine e,h2l2e1,montréal,qc
3720,festival mutek,festival site,,,h2x3x5,montréal,qc
3732,festival orientalys,festival site,2,rue de-la-commune e,h2y0b1,montréal,qc
3733,festival phénomena,festival site,4848,boul saint-laurent,h2t1r5,montréal,qc
3737,festival quartiers danses,festival site,175,rue sainte-catherine,h2x1y9,montréal,qc
3741,festival stop motion montréal,festival site,1400,boul de-maisonneuve o,h3g1m8,montréal,qc
3743,festival transamériques,festival site,175,rue ste-catherine o,h2x1z8,montréal,qc
3744,festival vue sur la relève,festival site,1182,boul saint-laurent,h2x2s5,montréal,qc
3751,festival yul eat,festival site,,,h3a2g4,montréal,qc
3796,fleming mill interpretation centre,art or cultural centre,9675,boulevard lasalle,h8r2n8,lasalle,qc
3808,fondation daniel langlois pour l'art la science et la technologie,museum,3530,boul saint-laurent,h2x2v1,montréal,qc
3813,fondation lionel-groulx,library or archives,261,bloomfield avenue,h2c3r6,outremont,qc
3814,fondation phi pour l'art contemporain,miscellaneous,451,rue saint-jean,h2y2r5,montréal,qc
4039,galerie b-312,gallery,372,rue ste-catherine o,h3b1a2,montréal,qc
4041,galerie blanc,gallery,1116,ste catherine e,h2l2g2,montréal,qc
4042,galerie bloom,gallery,224,rue st-paul o,h2y1z9,montréal,qc
4045,galerie corno,gallery,51,rue saint-paul o,h2y1z1,montréal,qc
4046,galerie cosner,gallery,1221,boul maisonneuve o,h3g1m3,montréal,qc
4047,galerie cosner du ritz-carlton montréal,gallery,1260,rue sherbrooke o,h3g1h6,montréal,qc
4049,galerie d'art carte blanche,gallery,1853,rue atateken,h2l3l7,montréal,qc
4052,galerie d'art d'outremont,gallery,41,saint-just avenue,h2v4t7,montréal,qc
4073,galerie d'art goncourt,gallery,75000,goncourt avenue,h1k3x9,anjou,qc
4095,galerie d'este,gallery,4396,boul saint-laurent,h2w1z5,montréal,qc
4100,galerie de l'uqam,gallery,1400,rue berri,h2l4e3,montréal,qc
4106,galerie elca london,gallery,1444,rue sherbrooke o,h3g1k4,montréal,qc
4108,galerie gora,gallery,279,rue sherbrooke o,h2x1y2,montréal,qc
4109,galerie got montréal,gallery,50,rue st-paul o,h2y1y8,montréal,qc
4115,galerie lacerte art contemporain,gallery,6355,boul saint-laurent,h2s3c3,montréal,qc
4116,galerie laroche/joncas,gallery,372,rue ste-catherine o,h3b1a2,montréal,qc
4118,galerie le luxart,gallery,66,rue st-paul o,h2y1y8,montréal,qc
4121,galerie michel-ange,gallery,430,rue bonsecours,h2y3c4,montréal,qc
4129,galerie noel guyomarc'h bijoux d'art,gallery,4836,boul st-laurent,h2t1r5,montréal,qc
4130,galerie nuedge,gallery,1480,rue sherbrooke o,h3g1l3,montréal,qc
4132,galerie port-maurice,gallery,8420,boulevard lacordaire,h1r3g5,montréal,qc
4144,galerie valentin,gallery,372,laurier ave o,h2v2k7,montréal,qc
4146,galerie yellowkorner,gallery,1382,rue sainte-catherine o,h3g1p8,montréal,qc
4151,galeries roger bellemare et christian lambert,gallery,372,rue ste-catherine o,h3b1a2,montréal,qc
4242,gesù- centre de créativité,theatre/performance and concert hall,1200,rue de-bleury,h3b3j3,montréal,qc
4243,gesàe,miscellaneous,,,,montréal,qc
4289,go bike montréal festival,festival site,1251,rue rachel est,h2j2j9,montréal,qc
4331,grévin montréal museum,museum,705,rue ste-catherine o,h3b4g5,montréal,qc
4348,grande bibliothèque,library or archives,475,boulevard de-maisonneuve est,h2l5c4,montréal,qc
4436,guido molinari foundation,miscellaneous,3290,rue sainte-catherine est,h1w2c6,montréal,qc
4441,guilde canadienne des métiers d'art,gallery,1460,rue sherbrooke o,h3g1k4,montréal,qc
4600,herbier marie-victorin,miscellaneous,4101,est rue sherbrooke,h1x2b2,montréal,qc
4832,icao museum (international civil aviation organization),museum,999,boul robert,h3c5h7,montréal,qc
4836,if3 festival,festival site,2915,rue ontario e,h2k1x7,montréal,qc
4878,insectarium de montréal,miscellaneous,4581,rue sherbrooke est,h1x2b2,montréal,qc
