Facility_Name,Index,ODCAF_Facility_Type,Street_No,Street_Name,Postal_Code,City,Prov_Terr
Guido Molinari Foundation,4436,miscellaneous,3290,rue sainte-catherine est,H1W 2C6,montréal,qc
Guilde Canadienne Des Métiers D'Art,4441,gallery,1460,rue sherbrooke o,H3G 1K4,montréal,qc
Herbier Marie-Victorin,4600,miscellaneous,4101,est rue sherbrooke,H1X 2B2,montréal,qc
Icao Museum (International Civil Aviation Organization),4832,museum,999,boul robert,H3C 5H7,montréal,qc
If3 Festival,4836,festival site,2915,rue ontario e,H2K 1X7,montréal,qc
Insectarium De Montréal,4878,miscellaneous,4581,rue sherbrooke est,H1X 2B2,montréal,qc
International Festival of Films On Art (Fifa),4881,festival site,1380,rue sherbrooke o,H3G 1J5,montréal,qc
Jardin Botanique De Montréal,4958,miscellaneous,4101,rue sherbrooke est,H1X 2B2,montréal,qc
Joseph-Rouleau Hall,5035,theatre/performance and concert hall,305,av mont-royal e,H2T 1P8,montréal,qc
Jules Saint-Michel - Instrument Making : Violins Économusée,5058,museum,57,rue ontario o,H2X 1Y8,montréal,qc
Just For Laughs Festival,5060,festival site,..,..,..,montréal,qc
L'Arsenal,5252,miscellaneous,..,..,..,montréal,qc
L'Artothèque,5253,miscellaneous,5720,rue saint andré,H2S 2K1,montréal,qc
L'Astral - Maison Du Festival Rio Tinto Alcan,5256,theatre/performance and concert hall,305,rue ste-catherine o,H2X 2A3,montréal,qc
L'Entrepôt,5257,theatre/performance and concert hall,2901,boul st-joseph,H8S 4B7,montréal,qc
L'Illusion - Théâtre De Marionnettes,5261,theatre/performance and concert hall,6430,rue st-denis,H2S 2R7,montréal,qc
L'Olympia De Montréal,5264,theatre/performance and concert hall,1004,rue ste-catherine e,H2L 2G2,montréal,qc
L'Ordre Des Dominicains -Province Saint-Dominique Du Canada,5266,museum,2715,chemin côte ste-catherine,H3T 1B6,montréal,qc
La Chapelle Scènes Contemporaines,5279,theatre/performance and concert hall,3700,rue st-dominique,H2X 2X7,montréal,qc
La Comédie De Montréal,5282,theatre/performance and concert hall,1113,boul de-maisonneuve e,H2L 1Z8,montréal,qc
La Grande Rencontre-Music &#38; Dance Festival &#38; Conference Trad Montréal,5288,festival site,10300,rue lajeunesse,H3L 2E5,montréal,qc
La Guilde,5290,miscellaneous,1356,rue sherbrooke ouest,H3G 1J1,montréal,qc
La Tulipe,5312,theatre/performance and concert hall,4530,av papineau,H2H 1V3,montréal,qc
Laboratoire De Recherche Sur Les Musiques Du Monde (Lrmm) De L'U. De Montréal,5321,miscellaneous,200,vincent ave,H3C 3J7,montréal,qc
Lachine Canal National Historic Site,5339,heritage or historic site,500,ch des-iroquois,..,montréal,qc
Lake St. Louis Historical Society,5358,heritage or historic site,1195,sherbrooke st w,H3A 1H9,montréal,qc
Le Bourget Art Gallery,5441,gallery,34,rue st-paul o,H2Y 1Y8,montréal,qc
Le Musée Régimentaire Les Fusiliers Mont-Royal,5479,museum,3721,ave henri-julien,H2X 3H4,montréal,qc
Le National,5481,theatre/performance and concert hall,1220,rue ste-catherine e,H2L 2G9,montréal,qc
"Leonard & Bina Ellen Art Gallery, Concordia University",5522,gallery,165,boulevard montréal ouest,H3G 1M8,montréal,qc
Leonard &#38; Bina Ellen Art Gallery - Concordia University,5523,gallery,1400,boul montréal o,H3G 1M8,montréal,qc
Les Concerts Populaires De Montréal,5536,festival site,3000,rue viau,H1V 3J3,montréal,qc
Les Missionnaires Oblats De Marie Immaculée,5543,museum,3456,avenue du-musée,H3G 2C7,montréal,qc
Lieu Historique National De Coteau-Du-Lac,5578,heritage or historic site,..,..,J0P 1B0,montréal,qc
Longue Vue Sur Le Court - Festival International De Courts Métrages Du Sud-Ouest,5680,festival site,6052,boulevard monk,H4E 3H6,montréal,qc
Métropolis,5745,miscellaneous,..,..,..,montréal,qc
Maison Antoine-Beaudry,5801,miscellaneous,14678,rue notre-dame est,H1A 1W1,montréal,qc
Maison Brignon-Dit-Lapierre,5804,miscellaneous,4251,boulevard gouin est,H1H 5L9,montréal,qc
Maison Culturelle Et Communautaire De Montréal-Nord,5807,library or archives,12004,boulevard rolland,H1G 3W1,montréal,qc
Maison De La Culture Ahuntsic-Cartierville,5811,art or cultural centre,10300,rue lajeunesse,H3L 2E5,montréal,qc
Maison De La Culture De Côte-Des-Neiges,5814,art or cultural centre,5290,chemin de la côte des neiges,H3T 1Y2,montréal,qc
Maison De La Culture De Notre-Dame-De-Grâce,5816,art or cultural centre,3755,rue botrel,H4A 3G8,montréal,qc
Maison De La Culture De Pointe-Aux-Trembles,5818,art or cultural centre,14001,rue notre-dame est,H1A 1T9,montréal,qc
Maison De La Culture Du Plateau-Mont-Royal,5821,art or cultural centre,465,avenue du-mont est,H2J 1W3,montréal,qc
Maison De La Culture Frontenac,5823,art or cultural centre,2550,rue ontario est,H2K 1W7,montréal,qc
Maison De La Culture Janine-Sutto,5826,art or cultural centre,2550,rue ontario est,H2K 1W7,montréal,qc
Maison De La Culture Maisonneuve,5827,art or cultural centre,4200,rue ontario est,H1V 1K1,montréal,qc
Maison De La Culture Marie-Uguay,5830,art or cultural centre,6052,boulevard monk,H4E 3H6,montréal,qc
Maison De La Culture Mercier,5832,art or cultural centre,8105,rue hochelaga,H1L 2K9,montréal,qc
