Index,Facility_Name,ODCAF_Facility_Type,Street_No,Street_Name,Postal_Code,City,Prov_Terr
62,économusée,museum,,,,gatineau,on
256,alliance of natural history museums of canada,museum,1740,chemin pink,j9j3n7,gatineau,qc
447,art-image et espace odyssée,miscellaneous,855,de-la-gappe boulevard,j8t8h9,gatineau,qc
567,auditorium du cégep de l'outaouais,theatre/performance and concert hall,,,,gatineau,on
591,axe néo -7,gallery,80,rue hanson,j8y3m5,gatineau,qc
789,bibliothèque aurélien-doucet,library or archives,207,du-mont boulevard,,gatineau,qc
792,bibliothèque bernard-lonergan,library or archives,181,rue joseph,,gatineau,qc
836,bibliothèque de riviera,library or archives,12,rue de-picardie,,gatineau,qc
857,bibliothèque docteur-jean-lorrain,library or archives,20,lorrain boulevard,,gatineau,qc
877,bibliothèque et archives nationales du québec gatineau,library or archives,855,de-la-gappe boulevard,j8t8h9,gatineau,qc
900,bibliothèque guy-sanche,library or archives,855,de-la-gappe boulevard,,gatineau,qc
911,bibliothèque jean-marie-caron,library or archives,430,rue du progrès s,,gatineau,qc
924,bibliothèque lucien-lalonde,library or archives,225,rue berri,,gatineau,qc
925,bibliothèque lucy-faris,library or archives,115,rue principale,,gatineau,qc
927,bibliothèque maison du citoyen,library or archives,25,rue laurier,,gatineau,qc
931,bibliothèque manise-morin,library or archives,36,chemin de-montréal est,,montréal,qc
1946,british hotel,heritage or historic site,71,rue principale,,gatineau,qc
1986,buckingham castle,heritage or historic site,325,de-buckingham avenue,,gatineau,qc
2044,cabaret la basoche,theatre/performance and concert hall,120,rue principale,j9h3m3,saint-sauveur,qc
2059,café théâtre markalou,theatre/performance and concert hall,,,,gatineau,on
2144,canadian children's museum,museum,100,rue laurier,j8x4h2,gatineau,qc
2183,canadian museum of civilization,museum,,,,gatineau,on
2184,canadian museum of civilization imax,museum,,,,gatineau,on
2188,canadian museum of history,museum,100,rue laurier,k1a0m8,gatineau,qc
2189,"canadian museum of history (canadian children's museum, canadian postal museum and imax theatre)",museum,100,rue laurier,j8x4h2,gatineau,qc
2394,centre culturel du vieux-aylmer,theatre/performance and concert hall,,,,gatineau,on
2429,centre d'exposition art-image,theatre/performance and concert hall,855,de-la-gappe boulevard,,gatineau,qc
2431,centre d'exposition art-image et espace odyssée,gallery,855,de-la-gappe boulevard,j8t8h9,gatineau,qc
2455,centre d'exposition l'imagier,gallery,9,rue front,j9h4w8,gatineau,qc
2510,centre d'interprétation les brasseurs du temps,heritage or historic site,170,rue montcalm,,gatineau,qc
2554,centre régional d'archives de l'outaouais,library or archives,855,de-la-gappe boulevard,j8t8h9,gatineau,qc
2619,charron house,heritage or historic site,,rue,,gatineau,qc
2625,chaudière falls and e.b. eddy-domtar sector,heritage or historic site,6,rue booth,,gatineau,qc
2678,ciné-campus,theatre/performance and concert hall,,,,gatineau,on
2679,ciné-parc templeton,theatre/performance and concert hall,,,,gatineau,on
2680,ciné-starz,theatre/performance and concert hall,,,,gatineau,on
2682,cinéma 9,theatre/performance and concert hall,,,,gatineau,on
2815,collège saint-alexandre,heritage or historic site,2425,rue saint-louis,,gatineau,qc
3463,espace 33 art gallery / picture framing,gallery,33,rue principale,j9h3l2,gatineau,qc
3468,espace odyssée,theatre/performance and concert hall,855,de-la-gappe boulevard,,gatineau,qc
3469,espace pierre-debain,theatre/performance and concert hall,,,,gatineau,on
3473,espace rené-provost,theatre/performance and concert hall,39,rue leduc,j8x3a3,gatineau,qc
3588,festival country du grand gatineau,festival site,125,rue de-carillon,j8x2p8,gatineau,qc
4122,galerie montcalm,gallery,25,rue laurier,j8x4c8,gatineau,qc
4143,galerie uqo,gallery,101,rue saint-jean bosco,j8x3x7,gatineau,qc
4150,galeries aylmer,theatre/performance and concert hall,,,,gatineau,on
4216,gatineau hot air balloon festival,festival site,988,rue st-louis,,gatineau,qc
4708,higginson residence,heritage or historic site,160,rue joseph,,gatineau,qc
4846,imax,theatre/performance and concert hall,,,,gatineau,on
