Index,Facility_Name,ODCAF_Facility_Type,Street_No,Street_Name,Postal_Code,City,Prov_Terr
5002,john scott property,heritage or historic site,28,alexandre taché boulevard,,gatineau,qc
5007,john-murphy house,heritage or historic site,12,rue broad,,gatineau,qc
5031,joseph mcgooey house,heritage or historic site,416,chemin d'aylmer,,gatineau,qc
5130,kenny residence,heritage or historic site,585,de-buckingham avenue,,gatineau,qc
5283,la filature,theatre/performance and concert hall,80,rue 82,j8y3m5,gatineau,qc
5284,la fonderie,heritage or historic site,211,rue montcalm,,gatineau,qc
5384,landry residence,heritage or historic site,140,rue maclaren est,,gatineau,qc
5435,lauzon residence,heritage or historic site,595,rue georges,,gatineau,qc
5467,le minotaure,theatre/performance and concert hall,3,rue kent,j8x3j8,gatineau,qc
5808,maison de la culture,theatre/performance and concert hall,,,,gatineau,on
5857,maison du citoyen,gallery,25,rue laurier,j8x4c8,gatineau,qc
6047,mccallum & lahaie building,heritage or historic site,444,de-buckingham avenue,,gatineau,qc
6651,musée montcalm,museum,,,,gatineau,on
7081,old courthouse,heritage or historic site,120,rue principale,,gatineau,qc
7091,old national printing bureau,heritage or historic site,45,sacré coeur boulevard,,gatineau,qc
7275,parks canada,miscellaneous,30,victoria street,j8x0b3,gatineau,qc
7285,patrick house,heritage or historic site,,,,gatineau,qc
7421,place aubry,heritage or historic site,,,,gatineau,qc
7669,réseau du patrimoine de gatineau et de l'outaouais,miscellaneous,39,rue leduc,j8x3a3,gatineau,qc
7761,reseau biblio de l'outaouais,library or archives,2295,rue st-louis,j8t5l8,saint-hyacinthe,qc
7793,richard william scott house,heritage or historic site,100,rue gamelin,,gatineau,qc
7977,ruisseau de la brasserie sector,heritage or historic site,,,,gatineau,qc
8030,saint-jean-baptiste heritage site,heritage or historic site,,,,gatineau,qc
8057,salle desjardins - carrefour culturel estacade,theatre/performance and concert hall,580,rue maclaren,j8l2w1,gatineau,qc
8062,salle jean-despréz,theatre/performance and concert hall,25,rue laurier,,gatineau,qc
8351,société d'histoire de buckingham,museum,379,de-buckingham avenue,j8l2g6,gatineau,qc
8575,starcité hull,theatre/performance and concert hall,,,,gatineau,on
8739,symmes inn,heritage or historic site,1,rue front,,gatineau,qc
8741,symmes inn museum,museum,1,rue front,j9h4w8,gatineau,qc
8842,théâtre de l'île,theatre/performance and concert hall,1,rue wellington,j8x2h3,gatineau,qc
8865,théâtre du casino,theatre/performance and concert hall,,,,gatineau,on
8929,the canadian museum of history's christmas market,museum,100,rue laurier,k1a0m8,gatineau,qc
8978,the mill sector,heritage or historic site,,,,gatineau,qc
9414,vieux-marché building,heritage or historic site,379,de-buckingham avenue,,gatineau,qc
9416,view of the historic chemin d'aylmer,heritage or historic site,,,,gatineau,qc
9499,water works,heritage or historic site,,,,gatineau,qc
9755,year-round hot air balloon rides - gatineau hot air balloon festival,festival site,165,rue saint-antoine,j8t3m6,gatineau,qc
