Index,Facility_Name,ODCAF_Facility_Type,Street_No,Street_Name,Postal_Code,City,Prov_Terr
162,air defence museum,museum,6513,ch des-aviateurs,g7b3n8,saguenay,qc
508,arvida heritage centre,museum,,,,jonquière,qc
608,bagotville air defence museum,museum,6473,chemin saint-anicet,g0v1a0,la baie,qc
881,bibliothèque et archives nationales du québec saguenay,library or archives,930,rue jacques est,g7h7k9,saguenay,qc
1026,bibliotheque d'arvida,library or archives,2850,davis place,g7x7w7,cabano,qc
1118,bibliothèque de kénogami,library or archives,3750,boulevard du-royaume,g7x9s4,aston-jonction,qc
1148,bibliotheque de lac-kenogami,library or archives,3000,chemin de-l'église,g7x7v6,sainte-marie-de-blandford,qc
1154,bibliotheque de laterriere,library or archives,6167,rue notre-dame,g7n1a1,saint-leonard-daston,qc
1408,bibliotheque de shipshaw (rivage),library or archives,3760,st-leonard route,g7p1h5,riviere-au-tonnerre,qc
1736,bibliotheque st-michel,library or archives,3885,boulevard harvey,g7x9b1,saint-jacques,qc
2380,centre bang,gallery,132,rue racine est,g7h5b7,chicoutimi,qc
2476,centre d'histoire sir-william-price,art or cultural centre,1994,rue price,g7x7x8,jonquière,qc
2494,centre d'interprétation des battures et de réhabilitation des oiseaux de saint-fulgence,museum,100,chemin du-cap des-roches,g0v1s0,saint-fulgence,qc
2544,centre historique des sœurs de notre-dame du bon-conseil de chicoutimi,miscellaneous,700,rue chicoutimi est,g7h1v2,chicoutimi,qc
2551,centre national d'exposition de saguenay,miscellaneous,4160,rue du-vieux,g7x7w4,pont jonquière,qc
3464,espace côté cour,theatre/performance and concert hall,4014,rue de-la-fabrique,g7x3n1,saguenay,qc
3606,festival de culture et musique traditionnelles les grandes veillées,festival site,993,rue bagot,g7b2n6,saguenay,qc
3636,festival des bières du monde de saguenay,festival site,49,rue lafontaine,g7h5g7,saguenay,qc
3650,festival des musiques de création du saguenay-lac-saint-jean,festival site,4160,rue du-vieux,g7x7w7,pont saguenay,qc
3658,festival des vins de saguenay,festival site,,,g7h1t7,saguenay,qc
3702,festival jazz &#38; blues de saguenay,festival site,460,rue racine e,g7h1t7,saguenay,qc
3755,fiams - festival international des arts de la marionnette à saguenay,festival site,4160,rue du-vieux,g8a2g9,pont saguenay,qc
4080,galerie d'art la corniche,gallery,341,rue racine e,g7h1s8,saguenay,qc
5307,la pulperie de chicoutimi / regional museum,museum,300,rue dubuc,g7j4m1,chicoutimi,qc
6496,musée de la petite maison blanche et du déluge du saguenay,museum,251,rue bossé,g7j0k3,saguenay,qc
6575,musée du fjord,museum,3346,boulevard de-la-grande-baie sud,g7b1g2,saguenay,qc
7671,réseau muséal et patrimonial du saguenay-lac-saint-jean,miscellaneous,300,rue dubuc,g7j4m1,chicoutimi,qc
7737,regard - saguenay international short film festival,festival site,534,rue jacques e,g7h1z6,chicoutimi,qc
7771,reseau des bibliotheques du saguenay,library or archives,155,rue racine est,g7h1r5,terrebonne,qc
8834,théâtre banque nationale,theatre/performance and concert hall,534,rue jacques-cartier e,g7h5c8,saguenay,qc
8870,théâtre du palais municipal,theatre/performance and concert hall,1831,6e avenue,g7b1s1,saguenay,qc
8884,théâtre la rubrique,theatre/performance and concert hall,4160,rue du-vieux-pont,g7x7v8,saguenay,qc
9014,the saguenay international rhythm of the world festival,festival site,459,rue racine e,g7h1t5,saguenay,qc
9148,touverre - glass blowing and fine stone cutting économusée,museum,3205,boul de-la-grande-baie s,g7b1g1,saguenay,qc
