Index,Facility_Name,ODCAF_Facility_Type,Street_No,Street_Name,Postal_Code,City,Prov_Terr
7887,ron maslin playhouse,theatre/performance and concert hall,,,,ottawa,on
7903,rosemount temporary location,library or archives,1207,wellington,k1y2z8,ottawa,on
7924,rothwell gallery,gallery,1718,montréal rd,k1j6n5,ottawa,on
7949,royal canadian geographical society,miscellaneous,1155,lola street,k1k4c1,ottawa,on
7951,royal canadian mint,museum,320,sussex drive,k1a0g8,ottawa,on
7953,royal cdn mint museum,museum,,,,ottawa,on
7988,ruth e. dickinson,library or archives,100,malvern,k2j2g5,ottawa,on
8037,salamander theatre for young audiences,theatre/performance and concert hall,,,,ottawa,on
8131,saw gallery,gallery,67,nicholas st,k1n7b9,ottawa,on
8134,saw video media art centre,art or cultural centre,,,,ottawa,on
8136,sawmill: reproduction,museum,,,,ottawa,on
8160,science & technology museum,museum,,,,ottawa,on
8174,scouts canada national museum,museum,1345,baseline road,k2c0a7,ottawa,on
8205,serbian cultural centre,art or cultural centre,,,,ottawa,on
8213,seventeen voyces,miscellaneous,,,,ottawa,on
8247,shenkman arts centre,theatre/performance and concert hall,,,,ottawa,on
8279,silver city cinema,theatre/performance and concert hall,,,,ottawa,on
8294,"singhal family theatre, richcraft hall, carleton university",theatre/performance and concert hall,43,campus ave,k1s5b6,ottawa,on
8347,snow goose gallery,gallery,83,sparks st,k1p5a5,ottawa,on
8409,south keys 12,theatre/performance and concert hall,,,,ottawa,on
8434,spao centre gallery,gallery,77,pamilla st,k1s3k7,ottawa,on
8448,spratt grier privy: reproduction,museum,,,,ottawa,on
8449,spratt-grier house,museum,,,,ottawa,on
8481,st-laurent,library or archives,515,côté,k1k0z8,ottawa,on
8562,stables art studio,museum,,,,ottawa,on
8563,stafford studios,museum,,,,ottawa,on
8566,stained glass stuff,heritage or historic site,911,richmond road,k2a0g8,ottawa,on
8628,stittsville,library or archives,1637,stittsville,k2s1a9,ottawa,on
8629,stittsville museum,museum,,,,ottawa,on
8666,strings of st. john's chamber orchestra,miscellaneous,,,,ottawa,on
8671,studio gallery,gallery,1701,woodroffe ave,k2g0c4,ottawa,on
8675,studio sixty six,gallery,66,muriel st,k1s4e1,ottawa,on
8712,sunnyside,library or archives,1049,bank,k1s3w9,ottawa,on
8751,tactics,miscellaneous,,,,ottawa,on
8755,tangent building systems inc.,heritage or historic site,65,bentley avenue,k2e8b4,ottawa,on
8760,tara luz danse,miscellaneous,,,,ottawa,on
8771,tay gallery kanata,gallery,471,hazeldean rd,k2l4b8,ottawa,on
8773,taylor barn,museum,,,,ottawa,on
8832,théâtre action,theatre/performance and concert hall,,,,ottawa,on
8837,théâtre belvédère,theatre/performance and concert hall,,,,ottawa,on
8880,théâtre la catapulte,theatre/performance and concert hall,,,,ottawa,on
8899,théâtre rouge écarlate,theatre/performance and concert hall,,,,ottawa,on
8954,the gladstone theatre,theatre/performance and concert hall,,,,ottawa,on
8964,the jack miner migratory bird foundation,miscellaneous,360,3 road west,n9y2e5,kingsville,on
8988,the natalie stern studio theatre,theatre/performance and concert hall,,,,ottawa,on
9012,the royal heraldry society of canada,miscellaneous,,,k1g3h9,ottawa,on
9016,the school of dance,miscellaneous,,,,ottawa,on
9029,the woodturner,heritage or historic site,2477,huntley rd,k2s1b8,ottawa,on
9034,theatre 4.669,theatre/performance and concert hall,,,,ottawa,on
