Index,Facility_Name,ODCAF_Facility_Type,Street_No,Street_Name,Postal_Code,City,Prov_Terr
3101,department of national defence: directorate of history and heritage,heritage or historic site,2429,holly lane,k1a0k2,ottawa,on
3107,designer glass studio,gallery,668,chapel st,k1n7z9,ottawa,on
3108,detour gallery,gallery,117,murray street,k1n5m5,ottawa,on
3118,diefenbunker: canada's cold war museum,museum,3911,carp rd,k0a1l0,ottawa,on
3199,dr. james naismith basketball foundation,museum,2729,draper avenue,k2h7a1,ottawa,on
3221,dublin masonry inc.,heritage or historic site,9,marwood court,k2j5g1,ottawa,on
3222,dubreuilville twp,library or archives,120,rue magpie,p0s1b0,dubreuilville,on
3230,duford garage,museum,,,,ottawa,on
3231,duford house,museum,,,,ottawa,on
3246,dupuis house,museum,,,,ottawa,on
3249,dust evans gallery,gallery,245,centrum blvd,k1e3w8,ottawa,on
3253,e. r. jonas building restoration ltd,heritage or historic site,3717,st-joseph blvd,k1c1t1,ottawa,on
3373,edward j cuhaci and associates architects inc,heritage or historic site,171,slater street,k1p5h7,ottawa,on
3410,elmvale acres,library or archives,1910,st laurent,k1g1a4,ottawa,on
3419,emerald plaza,library or archives,1547,merivale,k2g4v3,ottawa,on
3428,empire kanata,theatre/performance and concert hall,,,,ottawa,on
3429,empire orleans town centre 6,theatre/performance and concert hall,,,,ottawa,on
3430,empire theatres - innes,theatre/performance and concert hall,,,,ottawa,on
3437,engel construction,heritage or historic site,633,melbourne ave,k2a1w9,ottawa,on
3443,enriched bread artist studios,gallery,951,gladstone ave,k1y3e5,ottawa,on
3444,enriched bread artits,museum,,,,ottawa,on
3511,evolution theatre,theatre/performance and concert hall,,,,ottawa,on
3519,exposure gallery,gallery,1255,wellington st w,k1y3a6,ottawa,on
3767,fire hall: reproduction,museum,,,,ottawa,on
3786,fitzroy harbour,library or archives,100,clifford,k0a1x0,ottawa,on
3853,fort frances,library or archives,601,reid avenue,p9a0a2,fort frances,on
3925,foubert garage: reproduction,museum,,,,ottawa,on
3926,foubert garden shed: reproduction,museum,,,,ottawa,on
3927,foubert house & offices,museum,,,,ottawa,on
3928,foubert privy: reproduction,museum,,,,ottawa,on
3940,foyer gallery,gallery,,,,ottawa,on
3941,framed,gallery,1075,bank street,k1s3w9,ottawa,on
3942,framing & art centre,gallery,24,northside road,k2h5z3,ottawa,on
3990,french hill school,museum,,,,ottawa,on
3995,fridgen fenestration ltd.,heritage or historic site,1010,thomas place,k1g5l5,ottawa,on
4043,galerie côté créations,gallery,98,richmond road,k1z6v9,ottawa,on
4076,galerie d'art jean-claude bergeron,gallery,150,patrick st,k1n5j8,ottawa,on
4092,galerie d'art vincent,gallery,1,rideau street,k1n8s7,ottawa,on
4140,galerie saw gallery,gallery,,,,ottawa,on
4141,galerie st laurent + hill,gallery,293,dalhousie st,k1n7e5,ottawa,on
4156,gallery 101,gallery,,,,ottawa,on
4158,gallery 101,gallery,51,young st,k1s3h6,ottawa,on
4160,gallery 112,gallery,100,tallwood dr,k2g6j9,ottawa,on
4187,gallery recording studio,gallery,2,monk st,k1s3y6,ottawa,on
4220,geerts roofing,heritage or historic site,1,matilda gate,k0a2z0,ottawa,on
4224,geological survey of canada -logan hall,museum,601,booth street,k1a0e8,ottawa,on
4251,gigspace performance studio,theatre/performance and concert hall,,,,ottawa,on
4255,girls+ rock ottawa,miscellaneous,,,,ottawa,on
4262,gladstone theatre,theatre/performance and concert hall,910,gladstone ave,k1r6y4,ottawa,on
