Index,Facility_Name,ODCAF_Facility_Type,Street_No,Street_Name,Postal_Code,City,Prov_Terr
2092,cameron highlanders ottawa regimental museum,museum,,,k1a0k2,ottawa,on
2112,canada agriculture and food museum,museum,,,k1g5a3,ottawa,on
2113,canada agriculture museum,museum,,,k1g5a3,ottawa,on
2117,canada science and technology museum,museum,1867,st-laurent blvd,k1g5a3,ottawa,on
2125,canadensis botanical garden society,miscellaneous,,,,ottawa,on
2129,canadian art museum directors organization (camdo-odmac),museum,280,metcalfe st,k2p1r7,ottawa,on
2141,canadian centennial choir,miscellaneous,,,,ottawa,on
2149,canadian conservation institute,miscellaneous,1030,innes rd,k1b4s7,ottawa,on
2193,canadian museum of nature,museum,240,mcleod st,k2p2r1,ottawa,on
2210,canadian war museum,museum,1,vimy place,k1a0m8,ottawa,on
2226,cantata singers of ottawa,miscellaneous,,,,ottawa,on
2272,carleton university art gallery,gallery,1125,colonel dr,k1s5b6,ottawa,on
2274,carleton university choir,miscellaneous,,,,ottawa,on
2276,carlingwood,library or archives,281,woodroffe,k2a3w4,ottawa,on
2297,carp,library or archives,3911,carp,k0a1l0,ottawa,on
2347,centennial,library or archives,3870,old,k2h5c4,ottawa,on
2357,central art garage,gallery,66b,lebreton st n,k1r7h3,ottawa,on
2560,centrepointe theatre,theatre/performance and concert hall,101,centrepointe dr,k2g5k,ottawa,on
2561,centrepointe theatre gallery,gallery,,,,ottawa,on
2576,chamberfest,miscellaneous,,,,ottawa,on
2643,chinatown remixed collective,miscellaneous,,,,ottawa,on
2666,chuo 89.1fm,miscellaneous,,,,ottawa,on
2691,cineplex odeon barrhaven cinemas,theatre/performance and concert hall,,,,ottawa,on
2719,city of ottawa archives,library or archives,100,tallwood dr,k2g4r7,ottawa,on
2720,city of ottawa art collection,gallery,172,guigues avenue,k1n5h9,ottawa,on
2775,cnr caboose,museum,,,,ottawa,on
2797,cohen and cohen,heritage or historic site,92,bentley avenue,k2e6t9,ottawa,on
2812,coliseum 12,theatre/performance and concert hall,,,,ottawa,on
2813,colizza bruni architecture,heritage or historic site,76,chamberlain avenue,k1s1v9,ottawa,on
2865,constance bay,library or archives,262,len,k0a3m0,ottawa,on
2891,coro vivo ottawa inc.,miscellaneous,,,,ottawa,on
2920,council of heritage organizations in ottawa the,heritage or historic site,280,metcalfe st,k2p1r7,ottawa,on
2928,county of prince edward public library & archives,library or archives,28,east st east,k0k3l0,wellington,on
2944,cr√©ations in vivo,miscellaneous,,,,ottawa,on
2949,craig johnson restoration ltd.,heritage or historic site,1541,star road,k1b5w5,ottawa,on
2975,crichton st gallery,gallery,299,crichton st,k1m1w3,ottawa,on
2989,csv consultants inc,heritage or historic site,1066,somerset street west,k1y4t3,ottawa,on
2990,cube gallery,gallery,1285,wellington st w,k1y3a8,ottawa,on
2996,cumberland,library or archives,1599,tenth,k1e3e8,ottawa,on
2999,cumberland gallery,gallery,,,,ottawa,on
3002,cumberland heritage village museum,museum,2940,old rd,k4c1e6,ottawa,on
3004,cumberland museum - washrooms/canteen,museum,,,,ottawa,on
3007,cumberland town hall,theatre/performance and concert hall,,,,ottawa,on
3009,cumberland village heritage museum,museum,,,,ottawa,on
3016,currency museum,museum,,,,ottawa,on
3029,d'omma gallery,gallery,1701,woodroffe ave,k2g0c4,ottawa,on
3040,dandelion dance company,miscellaneous,,,,ottawa,on
3074,de marinis (dma) inc.,heritage or historic site,56,bentley ave,k2e6t8,ottawa,on
3085,degroot barn,museum,,,,ottawa,on
