Facility_Name,Index,ODCAF_Facility_Type,Street_No,Street_Name,Postal_Code,City,Prov_Terr
Ottawa Baroque Consort,7181,miscellaneous,..,..,..,ottawa,on
Ottawa Brass Ltd.,7182,heritage or historic site,17,enterprise avenue,K2G 0A7,ottawa,on
Ottawa Children's Choir,7183,miscellaneous,..,..,..,ottawa,on
Ottawa Choral Society,7184,miscellaneous,..,..,..,ottawa,on
Ottawa City Hall Gallery,7185,gallery,..,..,..,ottawa,on
Ottawa Congress Centre,7186,theatre/performance and concert hall,..,..,..,ottawa,on
Ottawa Conservation Studio,7187,heritage or historic site,2380,holly lane,K1V 7P1,ottawa,on
Ottawa Convention Centre,7188,theatre/performance and concert hall,..,..,..,ottawa,on
Ottawa Dance Directive,7189,miscellaneous,..,..,..,ottawa,on
Ottawa International Writers Festival (A Oneness-World Communications Event),7191,festival site,..,..,..,ottawa,on
Ottawa Jazzworks,7192,miscellaneous,..,..,..,ottawa,on
Ottawa Jewish Archives,7193,library or archives,21,nadolny sachs private,K2A 1R9,ottawa,on
Ottawa Little Theatre,7196,theatre/performance and concert hall,400,king ave,K1N 7M7,ottawa,on
Ottawa Museum Network,7197,museum,280,metcalfe st,K2P 1R7,ottawa,on
Ottawa Regional Youth Choir,7198,miscellaneous,..,..,..,ottawa,on
Ottawa Rhythm Initiative,7199,miscellaneous,..,..,..,ottawa,on
Ottawa School of Art,7200,miscellaneous,..,..,..,ottawa,on
Ottawa Storytellers,7202,miscellaneous,..,..,..,ottawa,on
Ottawa Studio Works,7203,gallery,160,preston st,K1R 7P7,ottawa,on
Ottawa Symphony Orchestra,7204,miscellaneous,..,..,..,ottawa,on
Ottawa Valley Weavers' And Spinners' Guild,7205,miscellaneous,..,..,..,ottawa,on
Ottawa Youth Orchestra Academy,7206,miscellaneous,..,..,..,ottawa,on
Ottawa-Gatineau Printmakers Collective Gallery,7207,gallery,35,stafford rd,K2H 8V8,ottawa,on
Ovlsme & Chvm Shed: Reproduction,7216,museum,..,..,..,ottawa,on
Ovlsme Club House,7217,museum,..,..,..,ottawa,on
Owaa Gallery,7218,gallery,1500,shea rd,K2S 0B2,ottawa,on
Oyp Theatre School,7229,theatre/performance and concert hall,245,centrum blvd,K1E 0A1,ottawa,on
Paranis Construction Inc.,7257,heritage or historic site,676,claude st,K1K 2R9,ottawa,on
Patrick Gordon Framing,7284,gallery,160,elm st,K1R 6N5,ottawa,on
Patrick Mikhail Gallery,7286,gallery,2401,bank street,K1V 8R9,ottawa,on
Pellegrini Opera,7322,miscellaneous,..,..,..,ottawa,on
Photography Museum,7386,museum,..,..,..,ottawa,on
Picnic Shelter: Reproduction,7395,museum,..,..,..,ottawa,on
Pig Barn: Reproduction,7401,museum,..,..,..,ottawa,on
Pinhey's Point Historic Site,7409,museum,270,pinheys rd,K0A 1T0,ottawa,on
Platform Gallery And Studios,7437,gallery,51,young st,K1S 3H6,ottawa,on
Plosive Productions,7449,miscellaneous,..,..,..,ottawa,on
Poets' Pathway,7451,miscellaneous,..,..,..,ottawa,on
Pokrova Ukrainian Arts Network,7473,miscellaneous,..,..,..,ottawa,on
Print Shop,7603,museum,..,..,..,ottawa,on
Propeller Dance,7606,miscellaneous,..,..,..,ottawa,on
Rainbow Cinemas,7684,theatre/performance and concert hall,..,..,..,ottawa,on
Red Poppy Gallery,7720,gallery,103,malvern dr,K2J 4T2,ottawa,on
Red Wall Gallery,7723,gallery,..,..,..,ottawa,on
Regroupement Des Organismes Du Patrimoine Franco-Ontarien,7747,miscellaneous,2445,boulevard st-laurent,K1G 6C3,ottawa,on
Renovatek Construction Inc.,7758,heritage or historic site,5450,canotek road,K1J 9G5,ottawa,on
Richmond,7796,library or archives,6240,perth street,K0A 2Z0,ottawa,on
Rideau,7808,library or archives,377,rideau,K1N 5Y6,ottawa,on
Rideau Centre Cinema,7810,theatre/performance and concert hall,..,..,..,ottawa,on
