Index,Facility_Name,ODCAF_Facility_Type,Street_No,Street_Name,Postal_Code,City,Prov_Terr
5689,loretta studios and gallery,gallery,131,loretta ave n,k1y2j7,ottawa,on
5709,lowrey's roofing specialists,heritage or historic site,38,howden ave,k2g3h6,ottawa,on
5747,métis nation of ontario cultural commission,miscellaneous,500,old street,k1n9g4,ottawa,on
5758,machinery sheds: reproduction,museum,,,,ottawa,on
5774,macmillan drive shed,museum,,,,ottawa,on
5791,main,library or archives,120,metcalfe,k1p5m2,ottawa,on
5798,mainville house,museum,,,,ottawa,on
5938,manotick,library or archives,5499,south-river,k4m1j3,ottawa,on
5939,manotick art association gallery,gallery,3320,paul dr,k1v0j9,ottawa,on
5975,mark t. brandt architect & associates,heritage or historic site,112,nelson st,k1n7r5,ottawa,on
6010,masc,miscellaneous,,,,ottawa,on
6034,may can theatre,theatre/performance and concert hall,,,,ottawa,on
6038,mayfair cinema,theatre/performance and concert hall,,,,ottawa,on
6144,metcalfe village,library or archives,2782,8th line,k0a2p0,ottawa,on
6159,michael gennis gallery,gallery,416,richmond road,k2a0g2,ottawa,on
6173,mifo,miscellaneous,,,,ottawa,on
6238,modern painting & framing shop,gallery,1315,richmond rd,k2b8j7,ottawa,on
6373,multi service restoration ltd.,heritage or historic site,1308,shillington ave,k1z8a5,ottawa,on
6379,munster,library or archives,7749,bleeks,k0a3p0,ottawa,on
6748,music and beyond,miscellaneous,,,,ottawa,on
6752,musica viva singers,miscellaneous,,,,ottawa,on
6764,my ww gallery,gallery,2525,lancaster rd,k1b4l5,ottawa,on
6803,national arts centre,art or cultural centre,53,elgin,k1p5w1,ottawa,on
6806,national capital suzuki school of music,miscellaneous,,,,ottawa,on
6809,national gallery of canada - musée des beaux-arts du canada,gallery,380,sussex dr,k1n9n4,ottawa,on
6820,nature museum,museum,,,,ottawa,on
6844,nepean fine arts league gallery,gallery,101,centrepointe dr,k2g0b5,ottawa,on
6848,nepean museum (traszha macdowall community building),museum,,,,ottawa,on
6849,nepean visual arts centre,museum,,,,ottawa,on
6853,nevado artistic plaster ltd.,artist,22,cleopatra drive,k2g0b3,ottawa,on
6877,new theatre of ottawa,theatre/performance and concert hall,,,,ottawa,on
6966,north gloucester,library or archives,2036,ogilvie,k1j7n8,ottawa,on
6967,north gower,library or archives,6579,fourth line,k0a2t0,ottawa,on
6977,north lanark historical society,museum,647,river road,k0a1a0,almonte,on
6984,north shore twp,library or archives,1385,hwy 17,p0r1a0,algoma mills,on
6996,northern art glass inc.,heritage or historic site,955,gladstone avenue,k1y3e5,ottawa,on
7058,odyssey theatre,theatre/performance and concert hall,,,,ottawa,on
7092,old ottawa south community association (osca),miscellaneous,,,,ottawa,on
7110,one world arts,miscellaneous,,,,ottawa,on
7122,ontario iron works limited,heritage or historic site,6933,mckeown drive,k4p1a2,ottawa,on
7140,orange art gallery,gallery,290,city ave,k1y2w5,ottawa,on
7148,orkidstra (administered by the leading note foundation),miscellaneous,,,,ottawa,on
7150,orleans,library or archives,1705,orléans,k1c4w2,ottawa,on
7157,osgoode,library or archives,5630,osgoode,k0a2w0,ottawa,on
7172,oto-wa taiko group,miscellaneous,,,,ottawa,on
7177,ottawa art gallery,gallery,2,daly ave,k1n6e2,ottawa,on
7179,ottawa art gallery annex,gallery,110,laurier avenue west,k1p1j1,ottawa,on
7180,ottawa bach choir,miscellaneous,,,,ottawa,on
7181,ottawa baroque consort,miscellaneous,,,,ottawa,on
