Facility_Name,Index,ODCAF_Facility_Type,Street_No,Street_Name,Postal_Code,City,Prov_Terr
Theatre 4.669,9034,theatre/performance and concert hall,..,..,..,ottawa,on
Third Wall Theatre Company,9064,theatre/performance and concert hall,..,..,..,ottawa,on
Thirteen Strings Chamber Orchestra,9065,miscellaneous,..,..,..,ottawa,on
Tree Reading Series,9164,miscellaneous,..,..,..,ottawa,on
Trinity Art Gallery,9182,gallery,245,centrum blvd,K1E 0A1,ottawa,on
University of Ottawa Archives,9282,library or archives,100,marie street,K1N 6N5,ottawa,on
University of Ottawa Choir,9283,miscellaneous,..,..,..,ottawa,on
Upasana the Spirit of Dance,9298,miscellaneous,..,..,..,ottawa,on
Valberg Imaging Inc,9319,gallery,111,sherwood drive,K1Y 3V1,ottawa,on
Vanier Museopark,9372,museum,..,..,..,ottawa,on
Vars Train Station,9374,museum,..,..,..,ottawa,on
Vernon,9386,library or archives,8682,bank,K0A 3J0,ottawa,on
Verse Ottawa,9389,miscellaneous,..,..,..,ottawa,on
Village Square Art Gallery,9427,gallery,3759,carp rd,K0A 1L0,ottawa,on
Vincent Spirito & Sons Ltd,9431,heritage or historic site,1550,liverpool court,K1B 4L2,ottawa,on
Vintage Stock Theatre,9434,theatre/performance and concert hall,..,..,..,ottawa,on
Vox Théâtre,9444,theatre/performance and concert hall,..,..,..,ottawa,on
Wall Space Gallery (Train Yards),9474,gallery,505,industrial ave,K1C 1E8,ottawa,on
Wall Space Gallery (Westboro),9475,gallery,358,richmond rd,K2A 0E8,ottawa,on
Wallack Galleries,9479,gallery,225,bank st,K2P 1W7,ottawa,on
War Museum,9490,museum,..,..,..,ottawa,on
Watson's Garage,9515,museum,..,..,..,ottawa,on
Watson's Mill Manotick Inc,9516,museum,5525,dickinson street,K4M 1A2,manotick,on
Waverley Construction Co,9517,heritage or historic site,1827,woodward drive,K2C 0P9,ottawa,on
West Carleton Arts Society Gallery,9542,gallery,930,somerset st w,K1R 6R9,ottawa,on
Winters Building: Reproduction,9692,museum,..,..,..,ottawa,on
Workers' History Museum,9734,museum,..,..,K1S 5B4,ottawa,on
Workshop: Reproduction,9737,museum,..,..,..,ottawa,on
World Exchange Cinemas,9738,theatre/performance and concert hall,..,..,..,ottawa,on
Young Artists School of Piano,9774,artist,168,sunita cres,K2G 6P9,ottawa,on
