Index,Facility_Name,ODCAF_Facility_Type,Street_No,Street_Name,Postal_Code,City,Prov_Terr
5,10 gates dancing inc.,miscellaneous,,,,ottawa,on
85,a company of fools theatre inc.,theatre/performance and concert hall,,,,ottawa,on
122,adams & kennedy - the wood source,heritage or historic site,6178,mitch road,,ottawa,on
156,agriculture museum,museum,,,,ottawa,on
233,algonquin commons theatre,theatre/performance and concert hall,1385,woodroffe ave,k2g1v8,ottawa,on
253,alliance culturelle de l'ontario,miscellaneous,,,,ottawa,on
261,alta vista,library or archives,2516,alta vista,k1v7t1,ottawa,on
292,anglican diocese of ottawa archives,museum,71,bronson ave,k1r6g6,ottawa,on
319,aoe arts council,miscellaneous,,,,ottawa,on
320,aoe gallery,gallery,245,centrum blvd,k1e0a1,ottawa,on
339,archives and research collections carleton university macodrum library,library or archives,1125,colonel drive,k1s5b6,ottawa,on
343,archives de l'archidiocèse d'ottawa,museum,1247,kilborn place,k1h6k9,ottawa,on
344,archives de l'institut canadien-français d'ottawa,library or archives,316,dalhousie street,k1n7e7,ottawa,on
345,archives de l'université st-paul,museum,175,main street,k1s1c3,ottawa,on
354,archives deschâtelets,library or archives,175,main street,k1s1c3,ottawa,on
398,art flow gallery,gallery,838,somerset st w,k1r6r7,ottawa,on
450,arteast,miscellaneous,,,,ottawa,on
451,arteast françois dupuis gallery,gallery,2263,portobello blvd,k4a0r5,ottawa,on
453,artengine,miscellaneous,,,,ottawa,on
480,artists of stonebridge gallery,gallery,3500,cambrian rd,k2j0v1,ottawa,on
481,artists' centre d'artistes ottawa inc. (gallery 101),gallery,236,nepean st,k2p0b8,ottawa,on
494,arts court,theatre/performance and concert hall,,,,ottawa,on
495,arts court theatre,theatre/performance and concert hall,2,daly ave,k1n6e2,ottawa,on
501,arts&architecture,gallery,1181,bank street,k1s3x7,ottawa,on
509,asbex ltd.,heritage or historic site,2710,lancaster road,k1b4w8,ottawa,on
521,association des auteures et auteurs de l'ontario français,miscellaneous,,,,ottawa,on
522,association des professionels de la chanson et de la musique (apcm),miscellaneous,,,,ottawa,on
549,atkinson stonecraft masonry ltd.,heritage or historic site,191,strathcona avenue,k1s1x7,ottawa,on
558,atrium art gallery,gallery,101,centrepointe dr,k2g5k,ottawa,on
566,audio-visual sector national archives of canada cartographic and audio-visual archives division,library or archives,344,rue wellington,k1a0n4,ottawa,on
578,avalon theatre,theatre/performance and concert hall,738,bank st,k1s3v4,ottawa,on
584,aviation museum,museum,,,,ottawa,on
599,b. j. normand ltd,heritage or historic site,3200,swansea crescent,k1g3w4,ottawa,on
626,bandstand: reproduction,museum,,,,ottawa,on
630,bank of canada museum,museum,30,bank st,k1a0g9,ottawa,on
641,baobab tree community,miscellaneous,,,,ottawa,on
643,barbara ann scott gallery,gallery,110,laurier ave w,k1p1j1,ottawa,on
663,barry j hobin. & associates,heritage or historic site,63,pamilla street,k1s3k7,ottawa,on
664,barry padolsky & associates,heritage or historic site,377,dalhousie street,k1n9n8,ottawa,on
731,beaverbrook,library or archives,2500,campeau,k2k2w3,ottawa,on
764,bernard poulin studios,gallery,20,the-driveway,k2p1v2,ottawa,on
1761,billings estate museum,museum,,,,ottawa,on
1770,billings estate national historic site,museum,2100,cabot dr,k1h6k1,ottawa,on
1811,blackburn hamlet,library or archives,199,glen park,k1b5b8,ottawa,on
1814,blacksmith shop: reproduction,museum,,,,ottawa,on
1819,blink gallery,gallery,1,patrick st,k1n9n4,ottawa,on
1937,britannia art gallery,gallery,2728,howe street,k2b6w8,ottawa,on
2033,bytown museum,museum,1,canal ln,k1p1l1,ottawa,on
2034,bytowne cinema,theatre/performance and concert hall,,,,ottawa,on
