Index,Facility_Name,ODCAF_Facility_Type,Street_No,Street_Name,Postal_Code,City,Prov_Terr
4286,gloucester historical society,heritage or historic site,4550b,bank street,k1t3w6,gloucester,on
4287,gloucester pottery school,miscellaneous,,,,ottawa,on
4307,gordon harrison canadian landscape gallery,gallery,495,sussex dr,k1n6z5,ottawa,on
4322,goulbourn museum,museum,2064,huntley rd,k2s1b8,ottawa,on
4327,governor general of canada official residences,heritage or historic site,1,sussex dr,k1a0a1,ottawa,on
4377,great canadian theatre co.,theatre/performance and concert hall,,,,ottawa,on
4378,great canadian theatre company (gctc),theatre/performance and concert hall,,,,ottawa,on
4392,greely,library or archives,1448,meadow drive,k4p1b1,ottawa,on
4396,greenboro,library or archives,363,lorry,k1t3p8,ottawa,on
4451,h'art of ottawa,museum,,,,ottawa,on
4481,halsall associates ltd,heritage or historic site,210,gladstone avenue,k2p0y6,ottawa,on
4557,hazeldean,library or archives,50,castlefrank,k2l2n5,ottawa,on
4570,hearse shed: reproduction,museum,,,,ottawa,on
4574,heartwood gallery,gallery,404,mcarthur ave,k1k1g7,ottawa,on
4605,heritage canada foundation,heritage or historic site,190,bronson ave,k1r6h4,ottawa,on
4627,heritage grade architectural restoration services,heritage or historic site,2280,stevenage dr,k1g3w3,ottawa,on
4640,heritage house millwork,heritage or historic site,1425,cyrville rd,k1b3l7,ottawa,on
4781,horseshoes & hand grenades ontario theatre society,theatre/performance and concert hall,,,,ottawa,on
4845,images on bank,gallery,147,bank street,k1p5n7,ottawa,on
4859,independent filmmakers co-operative of ottawa (ifco) inc.,miscellaneous,,,,ottawa,on
4887,interpretation centre,museum,,,,ottawa,on
4890,inuit artists' shop,museum,,,,ottawa,on
4913,irving greenberg theatre centre,theatre/performance and concert hall,1233,wellington st w,k1y0g7,ottawa,on
4932,j. c. sulpher construction ltd.,heritage or historic site,1525,sieveright rd,k1t1m5,ottawa,on
4935,j.d. sanderson incorporated,heritage or historic site,437,catherine street,k1r5t7,ottawa,on
4991,john g cooke & associates,heritage or historic site,17,fitzgerald road,k2h9g1,ottawa,on
5059,jumec construction inc.,heritage or historic site,6,bexley place,k2h8w2,ottawa,on
5069,kailash mital theatre,theatre/performance and concert hall,1125,colonel dr,k1s5b6,ottawa,on
5087,kanata art club gallery,gallery,65,stonehaven dr,k2k1a1,ottawa,on
5088,kanata civic art gallery,gallery,2500,campeau dr,k2k2w3,ottawa,on
5090,kanata theatre/ron maslin playhouse,theatre/performance and concert hall,1,ron way,k2v1a7,ottawa,on
5096,karsh-masson gallery,gallery,110,laurier ave w,k1p1j1,ottawa,on
5221,knox church,museum,,,,ottawa,on
5230,koyman galleries st laurent,gallery,1771,st-laurent blvd,k1g3v4,ottawa,on
5300,la nouvelle scène gilles desjardins,miscellaneous,,,,ottawa,on
5345,lafrenière & pai gallery,gallery,13,murray st,k1n9m5,ottawa,on
5400,lari construction,heritage or historic site,84,dufferin rd,k1m2a6,ottawa,on
5432,laurier house national historic site of canada,museum,335,laurier ave e,k1n6r4,ottawa,on
5445,le centre d'artistes voix visuelle,artist,,,,ottawa,on
5491,le théâtre de la vieille 17,theatre/performance and concert hall,,,,ottawa,on
5493,le théâtre du trillium,theatre/performance and concert hall,,,,ottawa,on
5524,leonard tavern,museum,,,,ottawa,on
5529,les éditions david,miscellaneous,,,,ottawa,on
5530,les éditions du vermillon,miscellaneous,,,,ottawa,on
5531,les éditions l'interligne,miscellaneous,,,,ottawa,on
5533,les chansonniers d'ottawa inc.,miscellaneous,,,,ottawa,on
5561,levesque-tasse house,museum,,,,ottawa,on
5573,library and archives canada,library or archives,395,wellington,k1a0n4,ottawa,on
5667,log farm (the),miscellaneous,,cedarview road,,nepean,on
