Index,Facility_Name,ODCAF_Facility_Type,Street_No,Street_Name,Postal_Code,City,Prov_Terr
5575,library monument,library or archives,875,gardiners rd,,kingston,on
5771,maclachlan woodworking museum,museum,2993,2 hwy,,kingston,on
5964,marine museum of the great lakes,museum,53,yonge st,,kingston,on
5965,marine museum of the great lakes at kingston,museum,55,ontario street,k7l2y2,kingston,on
6016,massey library,library or archives,7,valour dr,,kingston,on
6179,military communications and electronics museum,museum,95,craftsman blvd,,kingston,on
6188,miller museum of geology and mineralogy,museum,36,union st,,kingston,on
6235,modern fuel artist-run centre,gallery,370,king street w,k7l2x4,kingston,on
6236,modern fuel artist-run centre,artist,21,queen street,k7k1a1,kingston,on
6237,modern fuel gallery,gallery,19,queen st,,kingston,on
6384,murney tower museum and national historic site,museum,,,k7l3j6,kingston,on
6386,murney tower national historic site (museum),museum,2,king st w,,kingston,on
6718,museum of health care at kingston,museum,102,stuart st,,kingston,on
6956,normandy hall dnd,heritage or historic site,346,ontario st,,kingston,on
7056,octave theatre,theatre/performance and concert hall,711,dalton ave,,kingston,on
7528,portsmouth townhall,heritage or historic site,623,king st,,kingston,on
7591,princess of wales' own regimental museum,museum,90,montr√©al st,,kingston,on
7623,pump house steam museum,museum,23,ontario st,,kingston,on
7648,queen's university archives,museum,121,stuart st,,kingston,on
7813,rideau heights library,library or archives,85,maccauley st,,kingston,on
7958,royal military college museum,museum,4,passchendale dr,,kingston,on
8261,shoal tower,heritage or historic site,1,clarence st,,kingston,on
8308,sisters of providence archives,museum,1200,princess st,,kingston,on
8331,skeleton park cemetery - mcburney park,heritage or historic site,151,ordnance st,,kingston,on
8515,st. george's cathedral (historic site),heritage or historic site,270,king st e,,kingston,on
8538,st. mary's cathedral (historic site),heritage or historic site,279,johnson st,,kingston,on
8595,stauffer library,library or archives,101,union st,,kingston,on
8668,studio 22 gallery,gallery,320,king st e,,kingston,on
8702,summerhill house,heritage or historic site,55,stuart st,,kingston,on
8948,the friends of the phoebe,miscellaneous,477,aragon road,k0h1s0,glenburnie,on
8955,the glass house,gallery,1677,bath rd,,kingston,on
8957,the grand theatre,theatre/performance and concert hall,218,princess st,,kingston,on
9020,the tett centre for creativity and learning,gallery,370,king st,,kingston,on
9043,theatre kingston,theatre/performance and concert hall,629,division st,,kingston,on
9248,union gallery,gallery,101,union st,,kingston,on
9534,wellington boutique and gallery,gallery,182,wellington st,,kingston,on
9730,woolen mill,heritage or historic site,2,cataraqui st,,kingston,on
