Index,Facility_Name,ODCAF_Facility_Type,Street_No,Street_Name,Postal_Code,City,Prov_Terr
143,agnes benidickson house,heritage or historic site,55,stuart st,,kingston,on
148,agnes etherington art centre,art or cultural centre,99,university ave,k7l3n6,kingston,on
149,agnes etherington art centre (gallery),gallery,36,university ave,,kingston,on
150,agnes etherington art centre (museum),museum,36,university ave,,kingston,on
291,anglican diocese of ontario archives,museum,90,johnson st,,kingston,on
364,archives of the archdiocese of kingston,museum,279,johnson street,k0k2c0,kingston,on
748,bellevue house national historic site,heritage or historic site,35,centre st,,kingston,on
1805,black dog pottery,gallery,58,queen st,,kingston,on
1855,bonnechere union,library or archives,74,maple street,k0j1t0,eganville,on
2123,canada's penitentiary museum,museum,,,k7l4y8,kingston,on
2198,canadian nautical research society,miscellaneous,,,k7l4w5,kingston,on
2327,cataraqui cemetery (historic site),heritage or historic site,927,purdy's rd,,kingston,on
2397,centre culturel frontenac,art or cultural centre,711,dalton av,,kingston,on
2780,coalition of canadian healthcare museums and archives,museum,32,george street,k7l2v7,kingston,on
2857,confederation tour trolley,heritage or historic site,209,ontario st,,kingston,on
2888,cornerstones fine arts/crafts,gallery,253,ontario st,,kingston,on
2905,correctional services of canada museum,museum,555,king st w,,kingston,on
3156,domino theatres inc.,theatre/performance and concert hall,52,church st,,kingston,on
3182,douglas library,library or archives,93,university ave,,kingston,on
3440,englehart,library or archives,71,fourth avenue,p0j1h0,englehart,on
3528,fairfield house and park,miscellaneous,4574,bath road,k7n1a6,kingston,on
3768,fire works glass,gallery,75,princess st,,kingston,on
3831,former prison for women,heritage or historic site,,,,kingston,on
3838,fort cataraqui historic site,heritage or historic site,388,ontario st,,kingston,on
3855,fort frederick,heritage or historic site,4,passchendale dr,,kingston,on
3856,fort frontenac cfb,heritage or historic site,317,ontario st,,kingston,on
3863,fort henry,museum,1,fort henry drive,k7l4v8,kingston,on
3865,fort henry national historic site (museum),museum,2,fort henry dr,,kingston,on
4012,frontenac county schools museum,museum,414,regent st,,kingston,on
4013,frontenac village,heritage or historic site,1,king st e,,kingston,on
4186,gallery raymond,gallery,334,princess st,,kingston,on
4265,glebe art studio,gallery,2456,princess st,,kingston,on
4452,h'art studio,gallery,189,sydenham st,,kingston,on
4576,heather hall images,gallery,1098,2 hwy,,kingston,on
4577,heather hyanes gallery,gallery,320,king st e,,kingston,on
4578,heathfield - providence motherhouse,museum,1200,princess st,,kingston,on
4914,isabel bader centre for performing arts theatre,theatre/performance and concert hall,390,king st,,kingston,on
5116,keirstead studio,gallery,4,aragon rd,,kingston,on
5171,kingston association of museums galleries & historic sites inc.,museum,,,k7l5j7,kingston,on
5172,kingston city hall (gallery),gallery,216,ontario st,,kingston,on
5173,kingston city hall (historic site),heritage or historic site,216,ontario st,,kingston,on
5174,kingston city hall (museum),museum,216,ontario st,,kingston,on
5175,kingston frame works,gallery,200,princess st,,kingston,on
5176,kingston frontenac library - calvin park branch,library or archives,88,wright cres,,kingston,on
5180,kingston frontenac library - isabel turner branch,library or archives,935,gardiners rd,,kingston,on
5181,kingston frontenac library - pittsburgh branch,library or archives,914,15 hwy,,kingston,on
5183,kingston frontenac public library lot,library or archives,130,johnson st,,kingston,on
5184,kingston general hospital archives,museum,76,stuart st,,kingston,on
5187,kingston mills lock station,heritage or historic site,563,kingston rd,,kingston,on
