Facility_Name,Index,ODCAF_Facility_Type,Street_No,Street_Name,Postal_Code,City,Prov_Terr
9th Line Baptist Church,50,museum,9350,markham rd,..,markham,on
Angus Glen Community Centre And Library,295,library or archives,3990,major dr e,..,markham,on
Burkholder House,2003,museum,9350,markham rd,..,markham,on
Caboose,2049,museum,9350,markham rd,..,markham,on
Cornell Community Centre And Library,2883,library or archives,3201,bur ave,..,markham,on
Fred Varley Art Gallery,3977,gallery,216,main st,..,unionville,on
Markham,5977,library or archives,..,..,L3P 3A7,markham,on
Markham Museum,5980,museum,9350,markham road,L3P 3J3,markham,on
Markham Theatre For Performing Arts,5983,theatre/performance and concert hall,171,town blvd,..,unionville,on
Markham Village Library,5985,library or archives,6031,7 hwy,..,york,on
Maxwell Log Cabin,6033,museum,9350,markham rd,..,markham,on
Mckay Art Centre,6069,gallery,197,main st,..,unionville,on
Milliken Mills Community Centre And Library,6191,library or archives,7600,kennedy rd,..,markham,on
Mini Train (Mhs),6200,museum,9350,markham rd,..,markham,on
Old Unionville Library Community Centre,7095,library or archives,221,main st,..,unionville,on
Rail Pump Car Shed,7680,museum,9350,markham rd,..,markham,on
Railroad Snow Plow,7681,museum,9350,markham rd,..,markham,on
Southeast Community Centre And Library,8418,library or archives,5659,14th ave,..,york,on
Thornhill Community Centre And Library,9080,library or archives,7755,bayview ave,..,markham,on
Transportation Building,9162,museum,9350,markham rd,..,markham,on
Unionville Library,9250,library or archives,15,library lane,..,york,on
Varley Art Gallery of Markham,9373,gallery,216,main st,L3R 2H1,unionville,on
Windmill,9677,museum,9350,markham rd,..,markham,on
York Region District School Board Museum & Archives,9765,museum,21,renfrew dr,L3R 8H3,markham,on
