Index,Facility_Name,ODCAF_Facility_Type,Street_No,Street_Name,Postal_Code,City,Prov_Terr
7251,papermill theatre/museum/art centre at todmorden mills,museum,67,pottery rd,m4k2b9,toronto,on
7267,parkdale,library or archives,1303,queen street west,m6k1l6,toronto,on
7269,"parkdale arts and culture centre (gallery 1313, famer's market)",gallery,1313,queen st w,m6k1l8,toronto,on
7279,parliament street,library or archives,269,gerrard street east,m5a2g3,toronto,on
7282,parts gallery,gallery,1150,queen st e,m4m1l2,toronto,on
7330,pembroke,library or archives,237,victoria street,k8a4k5,pembroke,on
7343,pentimento fine art gallery,gallery,1164,queen st e,m4m1l4,toronto,on
7355,perth/dupont,library or archives,1589,dupont street,m6p3s5,toronto,on
7377,petroff gallery,gallery,1016,eglinton ave w,m6c2c5,toronto,on
7379,petticoat creek library & community centre,library or archives,470,kingston rd,l1v1a4,pickering,on
7385,phoenix concert theatre,theatre/performance and concert hall,410,sherbourne st,m4x1k2,toronto,on
7387,pia bouman school for ballet and creative movement (scotiabank studio),theatre/performance and concert hall,6,noble st,m6k2c6,toronto,on
7389,pickering,library or archives,,,l1v6k7,pickering,on
7392,pickering public library - central library,library or archives,1,the-esplanade,l1v6k7,pickering,on
7441,pleasant view,library or archives,575,van ave,m2j4s8,toronto,on
7475,police museum and discovery centre,museum,40,college st,m5g2j3,toronto,on
7523,port union,library or archives,5450,lawrence ave east,m1c3b2,toronto,on
7529,portstoronto archives,library or archives,60,harbour street,m5j1b7,toronto,on
7530,portuguese pioneer gallery,gallery,960,st-clair ave w,m6e1a1,toronto,on
7555,prefix institute of contemporary art,gallery,401,richmond street west,m5v3a8,toronto,on
7560,presbyterian church in canada archives,library or archives,50,wynford drive,m3c1j7,toronto,on
7589,princess of wales theatre,theatre/performance and concert hall,300,king st w,m5v1j2,toronto,on
7605,proof studio gallery,gallery,55,mill st,m5a3c4,toronto,on
7642,queen elizabeth theatre,theatre/performance and concert hall,190,princes blvd,m6k3c3,toronto,on
7643,queen gallery,gallery,382,queen st e,m5a1t1,toronto,on
7645,queen's own rifles of canada regimental museum the,museum,1,austin terrace,m5r1x8,toronto,on
7650,queen/saulter,library or archives,765,queen street east,m4m1h3,toronto,on
7651,queen`s york rangers (1st american regiment) rcac regimental museum,museum,660,fleet st w,m5v1a9,toronto,on
7654,queens quay terminal building (fleck dance theatre),theatre/performance and concert hall,207,queens w,m5j1a7,toronto,on
7716,red head gallery,gallery,401,richmond st w,m5v3a8,toronto,on
7722,red sandcastle theatre,theatre/performance and concert hall,922,queen st e,m4m1j5,toronto,on
7726,redeye studio gallery,gallery,55,mill st,m5a3c4,toronto,on
7731,redpath sugar museum,museum,95,queens e,m5e1a3,toronto,on
7739,regent park arts & cultural centre,art or cultural centre,585,dundas st e,m5a2b7,toronto,on
7741,regent theatre,theatre/performance and concert hall,551,mount rd,m4s2m5,toronto,on
7786,rexdale,library or archives,2243,kipling avenue,m9w4l5,toronto,on
7789,rh king academy,miscellaneous,3800,st-clair avenue east,,toronto,on
7805,richview,library or archives,1806,islington ave,m9p3n3,toronto,on
7824,rise edutainment,miscellaneous,1081,progress avenue,,toronto,on
7837,riverdale,library or archives,370,broadview ave,m4k2m8,toronto,on
7851,robert gill theatre,theatre/performance and concert hall,214,college st,m5t3a1,toronto,on
7854,robert mede gallery,gallery,321,davenport rd,m5r1k5,toronto,on
7857,roberts gallery,gallery,641,yonge st,m4y1z9,toronto,on
7925,rouge concept gallery,gallery,732,queen st e,m4m1h2,toronto,on
7941,royal alexandra theatre,theatre/performance and concert hall,260,king st w,m5v1h9,toronto,on
7950,royal canadian military institute,museum,426,university ave,m5g1s9,toronto,on
7966,royal ontario museum,museum,100,queen's park,m5s2c6,toronto,on
7980,runnymede,library or archives,2178,bloor street west,m6s1m8,toronto,on
8000,ryerson image centre,gallery,33,gould st,m5b1e9,toronto,on
