Facility_Name,Index,ODCAF_Facility_Type,Street_No,Street_Name,Postal_Code,City,Prov_Terr
Jones,5021,library or archives,118,jones ave,M4M 2Z9,toronto,on
Karen Franzen's Gallery,5094,gallery,3,wembley dr,M4L 3C9,toronto,on
Katharine Mulherin Contemporary Gallery & Art Projects,5103,gallery,1086,queen st w,M6J 1H8,toronto,on
Katzman Kamen Gallery,5104,gallery,80,spadina ave,M5V 2J4,toronto,on
Kennedy/Eglinton,5129,library or archives,2380,eglinton ave east,M1K 2P3,toronto,on
Kinsman Robinson Galleries (Ontario Craft Council),5193,gallery,108,cumberland st,M5R 1A6,toronto,on
Koffler Gallery,5222,gallery,180,shaw st,M6J 2W5,toronto,on
"Korean Cultural Centre (Community Centre, Dance Studio)",5228,art or cultural centre,1133,leslie st,M3C 2J6,toronto,on
Kumf Gallery (Ukranian-Canadian Art Foundation),5235,gallery,2118,bloor st w,M6S 1M8,toronto,on
L Space Gallery (Humber College),5241,gallery,21,colonel samuel smith park dr,M8V 4B6,toronto,on
La Parete Gallery,5301,gallery,1086,bathurst st,M5R 3G9,toronto,on
Lakeshore Arts,5362,miscellaneous,..,..,..,toronto,on
Lakeshore Village Artist's Co-Op,5363,artist,50,etta rd,M8V 3Z7,toronto,on
Laluque Atelier Gallery,5366,gallery,1362,bathurst st,M5R 3H7,toronto,on
Latvian Canadian Cultural Centre,5418,art or cultural centre,4,credit dr,M4A 2N8,toronto,on
Launch Projects Gallery,5419,gallery,404,adelaide st w,M5V 1S7,toronto,on
Le Gallery,5463,gallery,1183,dundas st w,M6J 1X3,toronto,on
Leaside,5502,library or archives,165,mcrae dr,M4G 1S8,toronto,on
Legislative Assembly of Ontario,5510,heritage or historic site,111,wellesley street west,M7A 1A2,toronto,on
Leigha Lee Browne Theatre,5512,theatre/performance and concert hall,..,..,..,toronto,on
Leonardo Galleries,5525,gallery,112,scollard st,M5R 1G2,toronto,on
Lillian H. Smith,5604,library or archives,239,college street,M5T 1R5,toronto,on
Liss Gallery,5621,gallery,140,yorkville ave,M5R 1C2,toronto,on
Loch Gallery,5661,gallery,16,hazelton ave,M5R 2E2,toronto,on
Locke,5662,library or archives,3083,yonge street,M4N 2K7,toronto,on
Long Branch,5678,library or archives,3500,lake blvd west,M8W 1N6,toronto,on
Lonsdale Gallery,5682,gallery,410,spadina ave,M5T 2G7,toronto,on
Loop Gallery,5684,gallery,1273,dundas st w,M6J 1X8,toronto,on
Lower Ossington Theatre,5708,theatre/performance and concert hall,100,ossington ave,M6J 2Z4,toronto,on
Mabellearts,5750,miscellaneous,5005,dundas st w,..,toronto,on
Macedonian Cultural Centre,5757,art or cultural centre,76,overlea blvd,M4H 1C5,toronto,on
Mackenzie House,5763,museum,82,bond st,M5B 1X2,toronto,on
Magic Pony Gallery,5782,gallery,680,queen st w,M6J 1E5,toronto,on
Main Street,5794,library or archives,137,main street,M4E 2V9,toronto,on
Malvern,5909,library or archives,30,sewells road,M1B 3G5,toronto,on
Maria A. Shchuka,5959,library or archives,1745,eglinton avenue w,M6E 2H4,toronto,on
Martha Hicks School of Ballet,5996,theatre/performance and concert hall,1650,avenue rd,M5M 3Y1,toronto,on
Maryvale,6008,library or archives,85,ellesmere road,M1R 4B9,torono,on
Masaryk Memorial Institute Inc. - Czech And Slovak Cultural Centre,6009,art or cultural centre,450,scarborough rd,..,toronto,on
Maslak Mcleod Gallery,6012,gallery,192,davenport rd,M5R 1J2,toronto,on
Mcgregor Park,6067,library or archives,2219,lawrence ave east,M1P 2P5,toronto,on
Mercer Union A Centre For Contemporary Art,6138,gallery,1286,bloor street west,M6H 1N9,toronto,on
Metro Toronto Convention Centre (John W.H. Bassett Theatre),6148,theatre/performance and concert hall,255,front st w,M5V 2W6,toronto,on
Mimico Centennial Branch (Tpl) (Theatre),6197,theatre/performance and concert hall,47,station rd,M8V 2R1,toronto,on
Mira Godard Gallery,6207,gallery,22,hazelton ave,M5R 2E2,toronto,on
Miss Margaret Robins Archives of Women's College Hospital,6211,library or archives,76,grenville st,M5S 1B2,toronto,on
Mixed Company Theatre,6232,theatre/performance and concert hall,157,carlton st,M5A 2K3,toronto,on
Mjolk / Urbanscape Gallery,6233,gallery,2959,dundas st w,M6P 1Z2,toronto,on
Molson Amphitheatre,6241,theatre/performance and concert hall,909,lake blvd w,M6K 3L3,toronto,on
