Index,Facility_Name,ODCAF_Facility_Type,Street_No,Street_Name,Postal_Code,City,Prov_Terr
3285,ed mirvish theatre,theatre/performance and concert hall,244,victoria st,m5b1v8,toronto,on
3372,edward day gallery,gallery,952,queen st w,m6j1g8,toronto,on
3374,"edward johnson building, university of toronto (macmillan theatre, philsopher's stage, walter hall)",theatre/performance and concert hall,80,queen's park,m5s2c5,toronto,on
3376,eglinton square,library or archives,1,eglinton square,m1l2k1,toronto,on
3381,elaine fleck gallery,gallery,888,queen st w,m6j1g3,toronto,on
3390,elgin & winter garden theatre centre,theatre/performance and concert hall,189,yonge st,m5b1m4,toronto,on
3405,elmbrook park,library or archives,2,elmbrook cres,m9c5b4,toronto,on
3438,engine gallery,gallery,37,mill st,m5a3r6,toronto,on
3442,enoch turner schoolhouse,heritage or historic site,106,trinity street,m5a3c6,toronto,on
3449,enwave theatre,theatre/performance and concert hall,231,queens w,m5j2g8,toronto,on
3461,eskimo art gallery,gallery,8,case lane,m5a3c4,toronto,on
3488,etobicoke civic centre art gallery,gallery,399,the-west mall,,toronto,on
3489,etobicoke school of the arts,miscellaneous,675,royal rd,,toronto,on
3503,evelyn gregory,library or archives,120,trowell ave,m6m1l7,toronto,on
3505,evergreen brick works (holcim gallery),gallery,550,bayview ave,m4w3x8,toronto,on
3509,everyone is an artist,artist,302,carlaw ave,m4m3l1,toronto,on
3523,extempore studio gallery,gallery,60,kensington ave,m5t2k1,toronto,on
3526,"factory theatre (studio, mainspace)",theatre/performance and concert hall,125,bathurst st,m5v2r2,toronto,on
3532,fairview branch + theatre (tpl),theatre/performance and concert hall,35,fairview dr,m2j4s4,toronto,on
3797,flemingdon park,library or archives,29,st-dennis dr,m3c3j3,toronto,on
3803,fly gallery,gallery,1172,queen st w,m6j1j5,toronto,on
3823,forest hill,library or archives,700,eglinton ave west,m5n1b9,toronto,on
3910,fort york,library or archives,190,fort boulevard,m5v0e7,toronto,on
3912,fort york national historic site,museum,100,garrison rd,m5v3k9,toronto,on
3938,fox theatre,theatre/performance and concert hall,2263,queen st e,m4e1g3,toronto,on
3944,framing dames art school,miscellaneous,362,old road,,toronto,on
3945,fran hill gallery,gallery,285,rushton rd,m6c2x6,toronto,on
4044,galerie christin,gallery,4,king st w,m5h1b6,toronto,on
4161,gallery 1200,gallery,1200,bloor st w,m6h1n2,toronto,on
4162,gallery 1265,gallery,7.92E+15,toronto,,toronto,on
4163,gallery 129,gallery,129,ossington ave,m6j2z6,toronto,on
4166,gallery 260,gallery,260,richmond st e,m5a1p4,toronto,on
4170,gallery 345 (circuit gallery),gallery,345,sorauren ave,m6r2g5,toronto,on
4172,gallery 44,gallery,401,richmond st w,m5v3a8,toronto,on
4173,gallery arcturus,gallery,80,gerrard st e,m5b1g6,toronto,on
4179,gallery gevik,gallery,12,hazelton ave,m5r2e2,toronto,on
4185,gallery one,gallery,121,scollard st,m5r1g4,toronto,on
4191,gallery tpw,gallery,170,st-helens ave,m6h4a1,toronto,on
4192,gallery tpw,gallery,1256,dundas st w,m6j1x5,toronto,on
4207,gardiner museum,museum,60,mc st,m5t1v9,toronto,on
4208,gardiner museum of ceramic art,museum,111,queen's park,m5s2c7,toronto,on
4222,gendai gallery,gallery,6,garamond court,m3c1z5,toronto,on
4223,general archives of the basilian fathers,library or archives,95,st-joseph street,m5s2r9,toronto,on
4226,george brown college archives,library or archives,37,dartnell avenue,m5r3a3,toronto,on
4228,george fischer photography gallery,gallery,474,queen st w,m5v2b2,toronto,on
4229,george gilmour gallery at open studio,gallery,468,king st w,m5v1l8,toronto,on
4231,george ignatieff theatre,theatre/performance and concert hall,15,devonshire pl,,toronto,on
4240,gerrard/ashdale,library or archives,1432,gerrard street east,m4l1z6,toronto,on
4248,gibsone jessop gallery,gallery,55,mill st,m5a3c4,toronto,on
