Index,Facility_Name,ODCAF_Facility_Type,Street_No,Street_Name,Postal_Code,City,Prov_Terr
8765,tarragon theatre,theatre/performance and concert hall,30,bridgman ave,m5r1x3,toronto,on
8767,tatar gallery,gallery,300,king st e,m5a1k4,toronto,on
8774,taylor memorial,library or archives,1440,kingston road,m1n1r3,toronto,on
8782,telephone booth gallery,gallery,3148,dundas st w,m6p2a1,toronto,on
8797,teodoraart gallery,gallery,214,avenue rd,m5r2j4,toronto,on
8814,testaments of honour historical archives,museum,134,lawton blvd,m4v2a4,toronto,on
8820,textile museum of canada,museum,55,centre ave,m5g2h5,toronto,on
8909,the 48th highlanders museum,museum,73,simcoe st,m5j1w9,toronto,on
8910,the 519 church street community centre (gallery space),gallery,519,church st,m4y2c9,toronto,on
8917,the baitshop gallery,gallery,358,dufferin st,m6k1z8,toronto,on
8919,the bata shoe museum,museum,327,bloor st w,m5s1w7,toronto,on
8932,the castlefield event theatre,theatre/performance and concert hall,2492,yonge st,m4p2h7,toronto,on
8943,the fifth sun theatre,theatre/performance and concert hall,84,hillcrest dr,m6g2e6,toronto,on
8949,the fringe of toronto theatre festival,theatre/performance and concert hall,344,bloor st w,m5s3a7,toronto,on
8961,the hudson's bay company gallery,gallery,401,bay st,m5h2y4,toronto,on
8966,"the koffler centre of the arts (leo posluns theatre, bathurst jcc, donald gales family pavilion)",theatre/performance and concert hall,4588,bathurst st,m2r1w6,toronto,on
8968,the law society of upper canada,miscellaneous,130,queen street west,m5h2n6,toronto,on
8973,the market gallery,gallery,95,front st e,m5e1c2,toronto,on
8980,the mod club theatre,theatre/performance and concert hall,722,college st,m6g1c4,toronto,on
8981,the modern.toronto,miscellaneous,1153,queen street west,m6j1j4,toronto,on
8994,the ossington (gallery 61),gallery,61,ossington ave,m6j2y9,toronto,on
9000,the power plant contemporary art gallery,gallery,231,queens w,m5j2g8,toronto,on
9003,the rectory gallery,gallery,102,lakeshore ave,m5j1x9,toronto,on
9006,"the robertson building (centre for social innovation, material matters, pact, tapa, theatre ontario, sustainability network)",theatre/performance and concert hall,215,spadina ave,m5t2c7,toronto,on
9011,"the royal conservatory (ettore mazoleni concert hall, conservatory theatre, koerner hall)",theatre/performance and concert hall,273,bloor st w,m5s1w2,toronto,on
9019,"the social bar, twist gallery",gallery,1100,queen st w,m6j1h9,toronto,on
9021,the theatre centre,theatre/performance and concert hall,1115,queen st w,m6j1j1,toronto,on
9022,the theatre elusive,theatre/performance and concert hall,1078,dovercourt rd,m6h2x8,toronto,on
9025,the walter carsen centre for the national ballet of canada,art or cultural centre,470,queens w,m5v3k4,toronto,on
9028,the women's art association gallery,gallery,23,prince ave,m5r1b2,toronto,on
9030,the workshop gallery,gallery,705,pape ave,m4k3s6,toronto,on
9039,theatre francais de toronto - centre for creation,theatre/performance and concert hall,21,college st,m5g2b3,toronto,on
9050,theatre passe muraille,theatre/performance and concert hall,16,ryerson ave,m5t2p3,toronto,on
9066,thomas fisher rare book library (university of toronto),library or archives,120,st-george street,m5s1a5,toronto,on
9070,thompson landry gallery,gallery,32,distillery lane,m5a3c4,toronto,on
9071,thompson landry gallery - stone building & cooperage space,gallery,6,trinity st,m5a3c4,toronto,on
9077,thorncliffe,library or archives,48,thorncliffe park dr,m4h1j7,toronto,on
9084,"thornloe, village of",library or archives,35,tenth street,p0j1e0,earlton,on
9111,todmorden mills heritage site,gallery,67,pottery rd,m4k2b9,toronto,on
9112,todmorden room,library or archives,1081,pape ave,m4k3w6,toronto,on
9129,toronto centre for the arts,gallery,5040,yonge st north,m2n6r8,york,on
9130,toronto district school board museum and archives,museum,16,phin avenue,m4j3t2,toronto,on
9131,toronto free gallery,gallery,1277,bloor st w,m6h1n7,toronto,on
9132,toronto international film festival the,festival site,350,king street west,m5v3x5,toronto,on
9135,toronto public labyrinth at trinity square,museum,19,trinity sq,,toronto,on
9136,toronto railway museum,museum,255,bremner blvd,m5v3m9,toronto,on
9137,toronto reference library,library or archives,789,yonge street,m4w2g8,toronto,on
9138,toronto symphony archives,library or archives,60,simcoe street,m5j2h5,toronto,on
9140,toronto's first post office,museum,260,adelaide st e,m5a1n1,toronto,on
