Facility_Name,Index,ODCAF_Facility_Type,Street_No,Street_Name,Postal_Code,City,Prov_Terr
Toronto Free Gallery,9131,gallery,1277,bloor st w,M6H 1N7,toronto,on
Toronto International Film Festival The,9132,festival site,350,king street west,M5V 3X5,toronto,on
Toronto Public Labyrinth At Trinity Square,9135,museum,19,trinity sq,..,toronto,on
Toronto Railway Museum,9136,museum,255,bremner blvd,M5V 3M9,toronto,on
Toronto Reference Library,9137,library or archives,789,yonge street,M4W 2G8,toronto,on
Toronto Symphony Archives,9138,library or archives,60,simcoe street,M5J 2H5,toronto,on
Toronto's First Post Office,9140,museum,260,adelaide st e,M5A 1N1,toronto,on
Toronto-Dominion Bank Archives Department,9141,library or archives,69,wellington street,..,toronto,on
Trias Gallery,9179,gallery,80,spadina ave,M5V 2J4,toronto,on
Trinity College Archives,9183,library or archives,6,hoskin avenue,M5S 1H8,toronto,on
Trinity Square Video And Gallery,9187,gallery,401,richmond st w,M5V 3A8,toronto,on
Ukrainian Hall Cultural Centre,9235,art or cultural centre,83,christie st,M6G 3B1,toronto,on
Ukrainian Museum of Canada,9238,museum,620,spadina ave,M5S 2H4,toronto,on
Ukrainian-Canadian Art Foundation -Kumf Gallery,9241,gallery,145,evans avenue,M8Z 5X8,toronto,on
Unit 102 Theatre,9251,theatre/performance and concert hall,376,dufferin st,M6K 1Z8,toronto,on
United Church of Canada Archives,9254,library or archives,40,oak street,M5A 2C6,toronto,on
University of St. Michael's College Archives,9285,library or archives,113,st-joseph street,M5S 3C2,toronto,on
University of Toronto Archives,9286,library or archives,120,george st,M5S 1A5,toronto,on
University of Toronto Art Centre,9287,gallery,15,king's crcl,M5S 3H7,toronto,on
"University of Toronto of Scarborough (Arc Theatre, Attic, Athletic Centre, Doris Mccarthy Gallery, Arts & Administration Building, Leigha Lee Brown Theatre)",9289,gallery,1265,military trl,M1C 1A4,toronto,on
Upfront Studio Theatre,9299,theatre/performance and concert hall,1290,finch ave w,M3J 3K3,toronto,on
Victoria Village,9404,library or archives,184,sloane ave,M4A 2C4,toronto,on
Village of Yorkville Park,9424,museum,115,cumberland st,..,toronto,on
Vita Brevis Studio/Gallery,9440,gallery,50,vaughan rd,M6G 2N4,toronto,on
Vsvsvs Gallery,9445,gallery,25,polson st,M5A 1A4,toronto,on
Vtape,9446,gallery,401,richmond st w,M5V 3A8,toronto,on
Wagner Rosenbaum Gallery,9463,gallery,169,king st e,M5A 1J4,toronto,on
Walmer Road Baptist Church (Centre Theatre),9480,theatre/performance and concert hall,188,lowther ave,M5R 1E8,toronto,on
Wellington Street Art Gallery,9538,gallery,270,wellington st w,M5V 3P5,toronto,on
Weston,9593,library or archives,2,king street,M9N 1K9,toronto,on
Wexford Collegiate School For the Arts,9600,miscellaneous,1176,pharmacy avenue,..,toronto,on
Winchester Street Theatre (Toronto Dance Theatre),9675,theatre/performance and concert hall,80,winchester st,M4X 1B2,toronto,on
Women's Art Resource Centre/Warc Gallery,9703,gallery,401,richmond st w,M5V 3A8,toronto,on
Woodside Square,9723,library or archives,1571,sandhurst circle,M1V 1V2,toronto,on
Woodview Park,9727,library or archives,16,bradstock road,M9M 1M8,toronto,on
Woolfitt's Gallery,9731,gallery,1153,queen st w,M6J 1J4,toronto,on
Wychwood Branch + Library Theatre (Tpl),9745,library or archives,1431,bathurst st,M5R 3J2,toronto,on
Wynick/Tuck Gallery,9747,gallery,401,richmond st w,M5V 3A8,toronto,on
York Event Theatre,9760,theatre/performance and concert hall,101,eglinton ave e,M4P 1H4,toronto,on
York Museum,9761,museum,2694,eglinton avenue west,M6M 1V1,york,on
York Pioneer And Historical Society,9762,heritage or historic site,2482,yonge street,M4P 3E3,toronto,on
York Quay Gallery At Harbourfront Centre,9763,gallery,235,queen's quay west,M5J 2G8,toronto,on
York Woods,9767,library or archives,1785,finch ave west,M3N 1M6,toronto,on
York Woods (Branch + Arts Hub + Theatre) (Tpl),9768,theatre/performance and concert hall,1785,finch ave w,M3N 1M6,toronto,on
Yorkville,9771,library or archives,22,yorkville ave,M4W 1L4,toronto,on
"Young Centre For the Performing Arts (Marilyn And Charles Baillie Theatre, Soulpepper)",9776,theatre/performance and concert hall,50,tank lane,M5A 3C4,toronto,on
Young People's Theatre,9777,theatre/performance and concert hall,165,front st e,M5A 3Z4,toronto,on
Yyz Artists' Outlet,9786,artist,401,richmond st w,M5V 3A8,toronto,on
Zion Church Cultural Centre,9789,art or cultural centre,1650,finch ave e,..,toronto,on
