Facility_Name,Index,ODCAF_Facility_Type,Street_No,Street_Name,Postal_Code,City,Prov_Terr
Montgomery's Inn,6258,museum,4709,dundas street west,M9A 1A8,toronto,on
Moore Gallery,6295,gallery,80,spadina ave,M5V 2J4,toronto,on
Morningside,6306,library or archives,4279,lawrence ave east,M1E 2S8,toronto,on
Mount Dennis,6340,library or archives,1123,weston road,M6N 3S3,toronto,on
Mount Pleasant,6348,library or archives,599,pleasant road,M4S 2M5,toronto,on
Muhtadi International Drumming Festival,6370,festival site,9,benson ave,M6G 4C6,toronto,on
Multicultural History Society of Ontario,6376,library or archives,901,lawrence avenue west,M6A 1C3,toronto,on
Mural Routes,6381,miscellaneous,1859,kingston road,..,toronto,on
Museum of Contemporary Canadian Art (Mocca),6714,museum,952,queen st w,M6J 1G8,toronto,on
"Museum of Contemporary Canadian Art,Will Be Re-Opening By Winter 2017",6715,museum,158,sterling rd,M6R 2B8,toronto,on
Museum of Cultural Heritage of Indo-Canadians,6716,museum,61,claireville dr,M9W 5Z7,toronto,on
Museum of Inuit Art,6722,museum,207,queens w,M5J 1A7,toronto,on
Museum of New New Painting,6727,museum,123,bellwoods ave,M6J 2P6,toronto,on
Music For Life Conservatory,6750,miscellaneous,1890,eglinton avenue east,..,toronto,on
Music Gallery,6751,gallery,197,john st,M5T 1X6,toronto,on
Myseum of Toronto,6773,miscellaneous,401,richmond street west,M5V 3A8,toronto,on
Mysteriously Yours Dinner Theatre,6774,theatre/performance and concert hall,2026,yonge st,M4S 1Z9,toronto,on
Naco Gallery Cafe,6776,gallery,1691,dundas st w,M6K 1V2,toronto,on
Nathan & Solomon Birnbaum Archive Foundation,6800,library or archives,114,invermay ave,M3H 1Z8,toronto,on
National Ballet of Canada Archives (The),6805,library or archives,470,queens quay west,M5V 3K4,toronto,on
National Presbyterian Museum,6815,museum,415,broadview avenue,M4K 2M9,toronto,on
Navillus Gallery,6828,gallery,110,davenport rd,M5R 3R3,toronto,on
Neilson Park Creative Centre,6837,miscellaneous,56,neilson dr,..,toronto,on
New Toronto,6878,library or archives,110,eleventh street,M8V 3G5,toronto,on
Nightwood Theatre,6930,theatre/performance and concert hall,55,mill st,M5A 3C4,toronto,on
Nikola Rukaj Gallery,6934,gallery,384,eglinton ave w,M5N 1A2,toronto,on
Noor Cultural Centre,6947,art or cultural centre,123,wynford dr,M3C 1K1,toronto,on
North York Central Library,6993,library or archives,5120,yonge street,M2N 5N9,toronto,on
Northern District,6998,library or archives,40,orchard blvd,M4R 1B9,toronto,on
Northern Elms,7000,library or archives,123,rexdale blvd,M9W 1P1,toronto,on
Oakwood Village Library And Arts Centre,7045,library or archives,341,oakwood ave,M6E 2W1,toronto,on
Ocad Graduate Gallery,7050,gallery,205,richmond st w,M5V 1V3,toronto,on
Ocad University Galleries,7051,gallery,100,mccaul street,M5T 1W1,toronto,on
Ocad University Library,7052,library or archives,100,mccaul street,M5T 1W1,toronto,on
Ocadu Student Gallery,7053,gallery,285,dundas st w,M5T 1G1,toronto,on
Odon Wagner Gallery,7057,gallery,198,davenport rd,M5R 1J2,toronto,on
Offthemapgallery,7061,gallery,712,lansdowne ave,M6H 3Y8,toronto,on
Olga Korper Gallery,7099,gallery,17,morrow ave,M6R 2H9,toronto,on
Oliver Gordon Gallery,7102,gallery,641,briar ave,M5N 1N4,toronto,on
Onsite [At] Ocadu,7112,gallery,230,richmond st w,M5V 3E5,toronto,on
Ontario Association of Art Galleries,7114,gallery,401,richmond street west,M5V 3A8,toronto,on
Ontario Association of Art Galleries,7115,gallery,111,peter st,M5V 2H1,toronto,on
Ontario Ballet Theatre,7116,theatre/performance and concert hall,1133,st-clair ave w,M6E 1B1,toronto,on
Ontario Chinese Artists Association,7117,artist,3838,midland ave,M1V 5K5,toronto,on
Ontario Crafts Council Gallery,7118,gallery,990,queen st w,M6J 1H1,toronto,on
Ontario Heritage Trust,7120,heritage or historic site,10,adelaide street east,M5C 1J3,toronto,on
"Ontario Historical Society, John Mckenzie House",7121,heritage or historic site,34,parkview ave,M2N 3Y2,toronto,on
Ontario Jewish Archives Blankenstein Family Heritage Centre,7123,library or archives,4600,bathurst st,M2R 3V2,toronto,on
Ontario Museum Association,7125,museum,50,baldwin st,M5T 1L4,toronto,on
