Index,Facility_Name,ODCAF_Facility_Type,Street_No,Street_Name,Postal_Code,City,Prov_Terr
592,axis gallery & grill,gallery,3048,dundas st w,m6p1z3,toronto,on
611,baka gallery caf√©,gallery,2256,bloor st w,m6s1n6,toronto,on
618,ballet creole studio,theatre/performance and concert hall,375,dovercourt rd,m6j3e5,toronto,on
635,bank of nova scotia archives (the),library or archives,44,king street west,m5h1h1,toronto,on
644,barbara frum,library or archives,20,covington road,m6a3c1,toronto,on
689,bau-xi gallery,gallery,340,dundas st w,m5t1g5,toronto,on
694,bayview,library or archives,2901,bayview ave,m2k1e6,toronto,on
695,bayview glen upper school theatre,theatre/performance and concert hall,85,moatfield dr,m3b3l6,toronto,on
707,beaches,library or archives,2161,queen street east,m4l1j1,toronto,on
727,beaver hall gallery,gallery,29,mc st,m5t1v7,toronto,on
757,bendale,library or archives,1515,danforth road,m1j1h5,toronto,on
758,bending spoons gallery at vesuvio,gallery,3010,dundas st w,m6p1z3,toronto,on
768,beth tzedec reuben and helene dennis museum,museum,1700,bathurst street,m5p3k3,toronto,on
772,betty oliphant theatre (national ballet school of canada),theatre/performance and concert hall,404,jarvis st,m4y2g6,toronto,on
773,bezpala brown gallery,gallery,17,church st,m5e1m2,toronto,on
1742,bickford centre theatre,theatre/performance and concert hall,777,bloor st w,m6g1l6,toronto,on
1789,birdland theatre,theatre/performance and concert hall,401,richmond st w,m5v3a8,toronto,on
1797,bizune event gallery,gallery,452,richmond st w,m5v1y1,toronto,on
1800,black artist networks dialogue (band),artist,1100,lansdowne ave,m6h4k1,toronto,on
1801,black creek,library or archives,1700,wilson ave north,m3l1b2,toronto,on
1803,black creek pioneer village,museum,1000,murray pkwy,m3j2p3,toronto,on
1824,bloor/gladstone,library or archives,1101,bloor street west,m6h1m7,toronto,on
1827,blue dot gallery,gallery,55,mill st,m5a3c4,toronto,on
1837,board of directors gallery,gallery,1082,queen st w,m6j1h8,toronto,on
1913,bread and circus theatre bar,theatre/performance and concert hall,299,augusta ave,m5t2m2,toronto,on
1917,brentwood,library or archives,36,brentwood road north,m8x2b5,toronto,on
1926,bridging festival,festival site,7.92E+14,toronto,,toronto,on
1927,bridlewood,library or archives,2900,warden ave,m1w2s8,bridlewood,on
1960,brookbanks,library or archives,210,brookbanks dr,m3a2t8,toronto,on
1987,buddies in bad times theatre,theatre/performance and concert hall,12,alexander st,m4y1b4,toronto,on
2019,burnhamthorpe auditorium (etobicoke musical theatre productions),theatre/performance and concert hall,500,the-east mall,m9b2c4,toronto,on
2025,burrows hall,library or archives,1081,progress ave,m1b5z6,toronto,on
2048,cabbagetown-regent park museum,museum,201,winchester street,m4x1b8,toronto,on
2098,campbell house,museum,160,queen st w,m5h3h3,toronto,on
2122,canada's national ballet school,theatre/performance and concert hall,400,jarvis st,m4y2g6,toronto,on
2127,canadian air & space museum,museum,65,carl road,m3k2b6,toronto,on
2138,canadian broadcasting corporation museum,museum,250,front st w,m5v3g5,toronto,on
2150,canadian contemporary dance theatre,theatre/performance and concert hall,509,parliament st,m4x1p3,toronto,on
2170,canadian language museum,museum,150,walmer road,m5r2x9,toronto,on
2171,canadian lesbian and gay archives,library or archives,34,isabella street,m4y1n1,toronto,on
2173,canadian macedonian heritage society,heritage or historic site,850,o'connor dr,m4b3l6,toronto,on
2179,canadian multicultural inventors museum,museum,862,scarborough road,m1g1j5,scarborough,on
2182,canadian museum of carpets and textiles,museum,55,centre avenue,m5g2h5,toronto,on
2203,canadian sculpture centre,gallery,500,church st,m4y2c8,toronto,on
2206,canadian society for education through art,miscellaneous,,313a street e,m5a3w8,toronto,on
2208,"canadian stage company - berkeley theatre (upstairs, downstairs, rehersal hall)",theatre/performance and concert hall,26,berkeley st,m5a2w3,toronto,on
2280,carlton cinemas (magic lantern theatres),theatre/performance and concert hall,20,carlton st,m5b2h5,toronto,on
2329,cathedral bluffs symphony orchestra,miscellaneous,5183,sheppard avenue east,,toronto,on
2338,cedar ridge creative centre,miscellaneous,225,confederation drive,,toronto,on
