Index,Facility_Name,ODCAF_Facility_Type,Street_No,Street_Name,Postal_Code,City,Prov_Terr
216,alderlea estate,heritage or historic site,40,elizabeth street s,l6y1r1,brampton,on
484,artists' marketplace,artist,1,theatre lane,l6v0a3,brampton,on
500,arts walk of fame,festival site,1,theatre lane,l6v0a3,brampton,on
1878,bovaird house,art or cultural centre,563,bovaird dr e,l6z2s7,brampton,on
1904,brampton,library or archives,,,l6w3l6,brampton,on
2116,canada day,festival site,9050,bramalea road,l6s6g7,brampton,on
2251,carabram,festival site,150,clark blvd,l6t4y8,brampton,on
2342,celebrampton,festival site,2,wellington street w,l6y4r2,brampton,on
2648,chinguacousy branch,library or archives,150,central park dr,,brampton,on
2712,citizens' awards,festival site,1,theatre lane,l6v0a3,brampton,on
2747,classic cars and legendary stars,festival site,76,main street n,l6v1n7,brampton,on
2968,crescent hill gallery,gallery,85,hartnell sq,l6s5w9,brampton,on
2992,culture days,festival site,1,theatre lane,l6v0a3,brampton,on
2993,culture days,festival site,9,wellington street e,l6w1y1,brampton,on
2994,culture days,festival site,65,queen street e,l6w3l6,brampton,on
3024,cyril clark branch,library or archives,20,loafers lane,,brampton,on
3549,farmers' market,festival site,2,wellington street w,l6y4r2,brampton,on
3931,four corners branch,library or archives,65,queen st e,,brampton,on
3994,friday night concert series,festival site,1,theatre lane,l6v0a3,brampton,on
4314,gore meadows branch,library or archives,10150,the gore rd,,brampton,on
4572,heart lake conservation area,heritage or historic site,10818,heart rd,l6z0b3,brampton,on
4691,heritage theatre,theatre/performance and concert hall,82,main st n,l6v1n7,brampton,on
4823,hvacr heritage centre canada,museum,419,deerhurst drive,l6t5k3,brampton,on
5506,leeds and the thousand islands twp,library or archives,1,jessie st,k0e1l0,lansdowne,on
5553,lester b. pearson theatre,theatre/performance and concert hall,150,central park dr,l6t2t9,brampton,on
5694,lorne scots regimental museum,museum,2,chapel st,l6w2h1,brampton,on
5717,lucas holton carnival,festival site,45,leander street,l6s3m3,brampton,on
6350,mount pleasant library,library or archives,100,commuter dr,l7a0g2,brampton,on
6360,movies under the stars,festival site,1,theatre lane,l6v0a3,brampton,on
6361,movies under the stars,festival site,100,commuter drive,l7a0g2,brampton,on
6362,movies under the stars,festival site,10150,the gore road,l6p0a6,brampton,on
6363,movies under the stars,festival site,9050,bramalea road,l6s6g7,brampton,on
6889,new year's eve,festival site,2,wellington street w,l6y4r2,brampton,on
7312,"peel art gallery, museum and archives (pama)",museum,9,wellington st e,l6w1y1,brampton,on
7545,powerade centre,heritage or historic site,7575,kennedy rd s,l6w4t2,brampton,on
7625,pumpkin party,festival site,1,theatre lane,l6v1a3,brampton,on
7749,remembrance day ceremony,festival site,2,wellington street w,l6y4r2,brampton,on
7790,rib and roll,festival site,45,main street s,l6x1m8,brampton,on
7895,rose theatre,theatre/performance and concert hall,1,theatre lane,,brampton,on
8401,south fletcher's branch,library or archives,500,ray blvd,,brampton,on
8451,springdale branch library,library or archives,10705,bramalea rd,l6r0c1,brampton,on
9040,theatre in the park,theatre/performance and concert hall,9050,bramalea road,l6s6g7,brampton,on
9041,theatre in the park,theatre/performance and concert hall,2,wellington street w,l6y4r2,brampton,on
9097,thursday night concert series,festival site,45,main street s,l6x1m8,brampton,on
9163,tree lighting ceremony,festival site,2,wellington street w,l6y4r2,brampton,on
