Index,Facility_Name,ODCAF_Facility_Type,Street_No,Street_Name,Postal_Code,City,Prov_Terr
29,31 service battalion,miscellaneous,650,catherine st n,l8l4v7,hamilton,on
30,337 sketch gallery,gallery,337,ottawa st n,l8h3z8,hamilton,on
259,allsorts gallery,gallery,244,ottawa street north,l8h3z7,hamilton,on
277,ancaster branch library,library or archives,300,wilson street east,,waterloo,on
278,ancaster heritage village bia,heritage or historic site,223,wilson st e,l9g2b8,ancaster,on
423,art gallery of hamilton,gallery,123,king st w,l8n1a9,hamilton,on
666,barton library,library or archives,,,,hamilton,on
684,battlefield house museum,museum,,,,hamilton,on
686,battlefield house museum and park,museum,77,king street west,l8g1h9,stoney creek,on
1775,binbrook library,library or archives,,,,hamilton,on
1826,blue angel gallery,gallery,243,james st north,l8r2l2,hamilton,on
1846,bold artiste,artist,6,bold street,l8p1t2,hamilton,on
1950,brock township public library - beaverton branch,library or archives,401,simcoe st e,l0k1a0,beaverton,on
2131,canadian association of professional conservators,miscellaneous,230,hatt street,l9h2g8,dundas,on
2157,canadian football hall of fame,museum,,,,hamilton,on
2158,canadian football hall of fame & museum,museum,58,jackson st w,l8p1l4,hamilton,on
2215,canadian warplane heritage museum,museum,9280,airport rd,l0r1w0,hamilton,on
2277,carlisle branch library,library or archives,1496,centre road,,waterloo,on
2278,carlisle library,library or archives,,,,hamilton,on
2293,carnegie gallery,gallery,10,king street west,l9h1t7,dundas,on
2787,cobalt twp,library or archives,30,lang street,p0j1c0,cobalt,on
2854,concession library,library or archives,,,,hamilton,on
3237,dundas library,library or archives,,,,hamilton,on
3238,dundas museum and archives,museum,139,park st,l9h1x8,hamilton,on
3239,dundas valley conservation area: sulphur springs station,museum,650,governors road,l9g3l3,ancaster,on
3240,dundas valley school of art,gallery,21,ogilvie street,l9h2s1,dundas,on
3243,dundurn castle,museum,,,,hamilton,on
3244,dundurn national historic site,heritage or historic site,610,boulevard york,l8h3h1,hamilton,on
3262,earl's court gallery,gallery,215,ottawa street n,l8h3z4,hamilton,on
3380,el camino studio & gallery,gallery,22,wilson st,l8r1c5,hamilton,on
3456,erland lee museum,museum,552,ridge road,l8j2y6,stoney creek,on
3757,fieldcote memorial park & museum,museum,64,sulphur road,l9g1l8,ancaster,on
3788,flagship gallery,gallery,237,james st north,l8r2l2,hamilton,on
3988,freelton branch library,library or archives,1803,brock road,,waterloo,on
3989,freelton library,library or archives,,,,hamilton,on
4000,friends of hmcs haida,miscellaneous,658,catharine st north,l8l4v7,hamilton,on
4171,gallery 4,gallery,55,york blvd,l8n4e4,hamilton,on
4184,gallery on the bay,gallery,231,bay st north,l8r2r1,hamilton,on
4399,greensville library,library or archives,,,,hamilton,on
4417,griffin house national historic site,heritage or historic site,733,mineral rd,l9g1l8,ancaster,on
4491,hamilton artists inc.,artist,155,james street north,l8r2k9,hamilton,on
4492,hamilton central library,library or archives,,,,hamilton,on
4495,hamilton children's museum,museum,1072,main street east,l8m1n6,hamilton,on
4499,hamilton military museum,museum,610,boulevard york,l8r3h1,hamilton,on
4500,hamilton museum of steam & technology,museum,900,woodward avenue,l8h7n2,hamilton,on
4701,hermitage gatehouse museum,museum,,,l9g3l3,ancaster,on
4749,hmcs haida national historic site,heritage or historic site,658,catharine st n,l8l4v7,hamilton,on
4764,hoop gallery,gallery,191,king street east,l8n1b3,hamilton,on
5036,josh tiessen studio gallery,gallery,148,king street,l8g1l5,stoney creek,on
