Index,Facility_Name,ODCAF_Facility_Type,Street_No,Street_Name,Postal_Code,City,Prov_Terr
1952,brock township public library - sunderland branch,library or archives,41,albert st,l0c1h0,sunderland,on
2275,carling twp,library or archives,29,mary street,p2a1e3,parry sound,on
2543,centre hastings,library or archives,20,davidson street,k0k2k0,madoc,on
2788,cobourg,library or archives,200,ontario street,k9a5p4,cobourg,on
2792,cochrane public library board,library or archives,178,4th avenue,p0l1c0,cochrane,on
3563,fergie jenkins museum,museum,67,commerce place,,st-catharines,on
4471,haldimand county museum & archives,museum,8,echo street,n0a1e0,cayuga,on
4942,james a gibson library brock university,library or archives,1812,sir way,,st. catharines,on
5611,lincoln & welland regiment military museum,museum,81,lake st,l2r5x3,st catharines,on
6225,mississauga fn,library or archives,148,village rd,p0r1b0,blind river,on
6308,morningstar mill,museum,2714,decew rd,,st-catharines,on
7124,ontario lacrosse hall of fame and museum,museum,1932,welland pkwy,,catharines,on
7281,parry sound,library or archives,29,mary street,p2a1e3,parry sound,on
7335,penetanguishene,library or archives,24,simcoe street,l9m1r6,penetanguishene,on
7877,rodman hall art centre,museum,109,st-paul cres,,st-catharines,on
8475,st catharines museum and welland canals centre,museum,1932,welland pkwy,,catharines,on
8497,st. catharines,library or archives,,,l2r7k2,st catharines,on
8499,st. catharines public library - central library,library or archives,54,church street,,st. catharines,on
8500,st. catharines public library - dr. huq family library branch,library or archives,425,carlton street,,st. catharines,on
8501,st. catharines public library - merritt branch,library or archives,149,hartzel road,,st. catharines,on
8502,st. catharines public library - port dalhousie branch,library or archives,23,brock street,,st. catharines,on
9759,ymca of niagara children's discovery centre,museum,360,niagara st n,,st catharines,on
