Index,Facility_Name,ODCAF_Facility_Type,Street_No,Street_Name,Postal_Code,City,Prov_Terr
18,17 wing heritage collection,museum,,,r3j3y5,winnipeg,mb
312,anthropology museum university of winnipeg,museum,515,portage avenue,r3b2e9,winnipeg,mb
334,archevêché de saint-boniface,museum,151,de la cathédrale avenue,r2h0h6,saint-boniface,mb
352,archives des soeurs grises,museum,151,rue despins,r2h0l7,saint-boniface,mb
360,archives of manitoba,library or archives,200,vaughan st,r3c1t5,winnipeg,mb
519,assiniboine park conservancy,miscellaneous,55,pavilion crescent,r3p2n6,winnipeg,mb
2181,canadian museum for human rights,museum,85,israel way,r3c0l5,winnipeg,mb
2396,centre culturel franco manitobain,art or cultural centre,340,boulevard provencher,r2h0g7,saint-boniface,mb
2540,centre for mennonite brethren studies,museum,1310,taylor ave,r3m3z6,winnipeg,mb
2613,charleswood library,library or archives,4910,roblin blvd,,winnipeg,mb
2889,cornish library,library or archives,20,gate west,,winnipeg,mb
3282,eckhardt-gramatté foundation (the),miscellaneous,54,harrow street,r3m2y7,winnipeg,mb
3418,embroiderers' association of canada inc.,museum,,,n6k5r1,winnipeg,mb
3766,fire fighters museum of winnipeg,museum,56,maple street,r3b0y8,winnipeg,mb
3858,fort garry historical society inc.,heritage or historic site,200,saulteaux crescent,r3j3w3,winnipeg,mb
3859,fort garry horse museum and archives,museum,551,machray ave,r2w1a8,winnipeg,mb
3860,fort garry library,library or archives,1360,pembina hwy,,winnipeg,mb
3997,friends of dalnavert museum inc.,museum,61,carlton street,r3c1n7,winnipeg,mb
4164,gallery 1c03,gallery,515,portage avenue,r3b2e9,winnipeg,mb
4365,grants old mill,museum,2777,portage avenue,r3j3s5,winnipeg,mb
4536,harvey smith (west end) library,library or archives,999,sargent ave,,winnipeg,mb
4568,health sciences centre archives museum,museum,700,mcdermot ave,r3e0t2,winnipeg,mb
4591,henderson library,library or archives,1050,henderson hwy,,winnipeg,mb
4698,heritage victoria c.c,heritage or historic site,950,sturgeon rd,,winnipeg,mb
4700,heritage winnipeg corporation,heritage or historic site,63,albert st,r3b1g4,winnipeg,mb
4923,ivan franko museum,museum,200,mcgregor street,r2w5l6,winnipeg,mb
4973,jewish heritage centre of western canada inc.,library or archives,123,doncaster st,r3n2b2,winnipeg,mb
5650,living prairie museum,museum,2795,ness avenue,r3j3s4,winnipeg,mb
5699,louis riel library,library or archives,1168,dakota st,,winnipeg,mb
5746,métis genealogical centre of canada,art or cultural centre,295,portage ave,r3c0b9,winnipeg,mb
5866,maison gabrielle-roy inc. la,museum,375,rue deschambault,r2h3b4,saint-boniface,mb
5915,manitoba children's museum,museum,45,forks road,r3c4t6,winnipeg,mb
5917,manitoba electrical museum inc.,museum,680,harrow st,r3m3a3,winnipeg,mb
5919,manitoba historical society ross house museum,museum,140,meade street north,r2w3k4,winnipeg,mb
5921,manitoba indigenous cultural education centre inc.,art or cultural centre,119,sutherland ave,r2w3c9,winnipeg,mb
5924,manitoba sports hall of fame and museum inc.,museum,145,pacific avenue,r3b2z6,winnipeg,mb
5998,martha street studio,gallery,11,martha st,r3b1a2,winnipeg,mb
6133,mennonite heritage centre,library or archives,600,boulevard shaftesbury,r3p0m4,winnipeg,mb
6186,millennium library,library or archives,251,donald st,,winnipeg,mb
6378,munroe library,library or archives,489,london st,,winnipeg,mb
6505,musée de saint-boniface,museum,494,ave taché,r2h2b2,winnipeg,mb
6825,naval museum of manitoba,museum,1,navy way,r3c4j7,winnipeg,mb
7063,ogniwo polish museum society inc.,museum,1417,main street,r2w3v3,winnipeg,mb
7155,osborne library,library or archives,625,osborne st,,winnipeg,mb
7329,pembina trail library,library or archives,2724,pembina hwy,,winnipeg,mb
7435,platform -centre for photograph + digital arts,gallery,100,arthur street,r3b1h3,winnipeg,mb
7450,plug in,gallery,460,portage ave,r3c0e8,winnipeg,mb
7818,riel house national historic site of canada,museum,330,river road,r2n3x9,st-vital,mb
7831,river heights library,library or archives,1520,corydon ave,,winnipeg,mb
