Facility_Name,Index,ODCAF_Facility_Type,Street_No,Street_Name,Postal_Code,City,Prov_Terr
Albert Branch,177,library or archives,1401,robinson st,S4P 3Z5,regina,sk
Alex Youck School Museum,224,museum,1600,4th avenue,S4R 8C8,regina,sk
Art Gallery of Regina,431,gallery,2420,elphinstone street,S4P 3C8,regina,sk
Civic Museum of Regina,2730,museum,1375,broad street,S4R 7V1,regina,sk
Connaught Branch,2859,library or archives,3435,13th ave,S4P 3Z5,regina,sk
Cumberland House Provincial Historic Park,3003,heritage or historic site,..,..,S4S 5W6,regina,sk
Dunlop Art Gallery,3245,gallery,2311,12th ave,S4P 3Z5,regina,sk
Fort Carlton Provincial Historic Park,3837,heritage or historic site,..,212 highway,S4S 5W6,regina,sk
George Bothwell Branch,4225,library or archives,2787,gordon road,S4S 6H7,regina,sk
Glen Elm Branch,4268,library or archives,1601,dewdney ave e,S4P 3Z5,regina,sk
Government House,4326,heritage or historic site,4607,dewdney avenue,S4T 1B7,regina,sk
Lumsden Branch Library,5721,library or archives,20,3rd ave,S0G 3C0,lumsden,sk
Mackenzie Art Gallery,5760,gallery,3475,albert st,S4S 6X6,regina,sk
Museums Association of Saskatchewan,6744,museum,424,mcdonald st,S4N 6E1,regina,sk
Neutral Ground Contemporary Art Forum,6852,gallery,1856,scarth street,S4P 2G3,regina,sk
Prairie History Room Regina Public Library,7547,library or archives,2311,12th avenue,S4P 3Z5,regina,sk
Prince of Wales Branch,7582,library or archives,445,14th avenue,S4N 6T5,regina,sk
Provincial Archives of Saskatchewan,7610,library or archives,3303,hillsdale street,S4S 6W9,regina,sk
Rcmp Heritage Centre,7704,museum,5907,dewdney avenue,S4T 0P4,regina,sk
Regent Place Branch,7740,library or archives,331,albert mall,S4R 2N6,regina,sk
Regina Public Library - Central Library,7743,library or archives,2311,12th ave,S4P 3Z5,regina,sk
Regina Qu'Appelle Health Region Archives,7744,library or archives,1440,14th avenue,S4P 0W5,regina,sk
Royal Saskatchewan Museum,7968,museum,2445,albert street,S4P 4W7,regina,sk
Saskatchewan African Canadian Heritage Museum Inc.,8107,museum,..,..,S4P 3B4,regina,sk
Saskatchewan Arts Board Permanent Collection,8109,gallery,200,lakeshore drive,S4S 7L3,regina,sk
Saskatchewan Legislative Building (Galleries),8112,gallery,2405,legislative drive,S4S 0B3,regina,sk
Saskatchewan Military Museum,8113,museum,1600,elphinstone st,S4T 3N1,regina,sk
Saskatchewan Science Centre,8114,museum,2903,powerhouse drive,S4N 0A1,regina,sk
Saskatchewan Sports Hall of Fame And Museum,8115,museum,2205,victoria avenue,S4P 0S4,regina,sk
Sherwood Village Branch,8258,library or archives,6121,rochdale blvd,S4P 3Z5,regina,sk
St. Brieux Public Library,8496,library or archives,50,3rd ave,S0K 3V0,st brieux,sk
St. Louis Public Library,8535,library or archives,205,2nd st,S0J 2C0,st louis,sk
Sunrise Branch,8713,library or archives,3130,woodhams dr e,S4P 3Z5,regina,sk
Touchwood Hills Provincial Park,9144,heritage or historic site,..,..,S4S 5W6,regina,sk
