Facility_Name,Index,ODCAF_Facility_Type,Street_No,Street_Name,Postal_Code,City,Prov_Terr
Glenmore Square Library,4279,library or archives,7740,18 st se,T2C 2N5,calgary,ab
Granite Gallery,4363,gallery,1089,57 av ne,..,calgary,ab
H/W School of Ballet,4455,theatre/performance and concert hall,2633,hochwald av sw,..,calgary,ab
Hardwood Gallery & Design Center,4520,gallery,5608,1 st se,..,calgary,ab
HBI - Heritage Business Interiors,4563,heritage or historic site,2600,portland st se,..,calgary,ab
Heffel Gallery,4582,gallery,888,4 av sw,..,calgary,ab
Heritage Bakery & Deli,4602,heritage or historic site,1912,37 st sw,..,calgary,ab
Heritage College,4612,heritage or historic site,3015,12 st ne,..,calgary,ab
Heritage Funeral Home,4626,heritage or historic site,1708,16 av nw,..,calgary,ab
Heritage House,4638,heritage or historic site,304,19 av sw,..,calgary,ab
Heritage House,4639,heritage or historic site,2020,urquhart rd nw,..,calgary,ab
Heritage Park Historical Village,4661,heritage or historic site,1900,heritage drive south,T2V 2X3,west calgary,ab
Heritage Posters & Music,4679,heritage or historic site,1316,11 av sw,..,calgary,ab
Heritage Property Maintenance,4680,heritage or historic site,3907,3a st ne,..,calgary,ab
Heritage Station Car Wash,4689,heritage or historic site,8500,horton rd sw,..,calgary,ab
Herringer Kiss Gallery,4703,gallery,1615,10 av sw,..,calgary,ab
Hyundai Gallery,4827,gallery,11770,lake dr se,..,calgary,ab
Illingworth Kerr Gallery,4843,gallery,1407,14 avenue north,T2N 4R3,west calgary,ab
Inglewood Bird Sanctuary,4867,museum,2425,9 avenue south,T2G 4T4,east calgary,ab
Jerome's Appliance Gallery,4971,gallery,7152,fisher st se,..,calgary,ab
Joielene Artistry,5017,artist,1001,1 st se,..,calgary,ab
Judith Umbach Library,5057,library or archives,6617,centre st n,T2K 4Y5,calgary,ab
King`S Own Calgary Regiment (Rcac) Museum,5166,museum,4520,crowchild trail s,T2T 5J4,calgary,ab
Leighton Art Centre,5513,gallery,..,..,T2J 2T9,calgary,ab
Loch Gallery,5660,gallery,314,12 av sw,..,calgary,ab
Loose Moose Theatre,5685,theatre/performance and concert hall,1235,26 av se,..,calgary,ab
Lord Strathcona`S Horse (Royal Canadians) Museum And Archives,5686,museum,4520,crowchild trail sw,T2T 5J4,calgary,ab
Lougheed House,5698,heritage or historic site,707,13 avenue sw,T2R 0K8,calgary,ab
Louise Riley Library,5705,library or archives,1904,14 av nw,T2N 1M5,calgary,ab
Masters Gallery,6021,gallery,2115,4 st sw,..,calgary,ab
Max Bell Theatre,6032,theatre/performance and concert hall,215,8 av se,..,calgary,ab
Memorial Park Library,6125,library or archives,1221,2 st sw,T2R 0W5,calgary,ab
Mona Lisa Artists' Materials,6242,artist,1518,7 st sw,..,calgary,ab
Mount Royal Conservatory,6353,art or cultural centre,4825,mount gate sw,T3E 6K6,calgary,ab
Msbca Cultural Centre,6366,art or cultural centre,114,3 av sw,..,calgary,ab
National Music Centre,6812,art or cultural centre,850,4 street se,T2G 1R1,calgary,ab
Natty's Heritage Caribbean Food Warehouse,6819,heritage or historic site,3132,26 st ne,..,calgary,ab
Naval Museum of Alberta,6823,museum,4520,crowchild trail sw,T2T 5J4,calgary,ab
New Zones Gallery of Contemporary Art,6890,gallery,730,11 av sw,..,calgary,ab
Nickle Galleries,6926,gallery,2500,university dr nw,T2N 1N4,calgary,ab
North Mount Pleasant Arts Centre,6978,art or cultural centre,523,27 av nw,..,calgary,ab
Nose Hill Library,7016,library or archives,1530,northmount dr nw,T2L 0G6,calgary,ab
Optimum Wellness Centres Macleod & Heritage,7137,heritage or historic site,8860,macleod tr se,..,calgary,ab
Palace Theatre (The),7240,theatre/performance and concert hall,219,8 av sw,..,calgary,ab
Paula Timm Artist Studio,7291,artist,1721,29 av sw,..,calgary,ab
Pharaoh's Gallery,7381,gallery,1512,17 av sw,..,calgary,ab
Piano Gallery,7388,gallery,8989,macleod tr sw,..,calgary,ab
Platinum Heritage Construction,7438,heritage or historic site,70,country ld nw,..,calgary,ab
Plaza Theatre,7440,theatre/performance and concert hall,1133,kensington rd nw,..,calgary,ab
