Index,Facility_Name,ODCAF_Facility_Type,Street_No,Street_Name,Postal_Code,City,Prov_Terr
135,aerospace museum,museum,4629,mccall wy ne,,calgary,ab
204,alberta theatre projects,theatre/performance and concert hall,220,9 av se,,calgary,ab
226,alexander calhoun library,library or archives,3223,14 st sw,t2t3v8,calgary,ab
326,arashi-do martial arts heritage,heritage or historic site,8318,fairmount dr se,,calgary,ab
327,arbor valley cabinet gallery,gallery,131,61 av se,,calgary,ab
384,army museum of alberta,museum,4520,crowchild trail sw,t2t5j4,calgary,ab
393,art bealing flower gallery,gallery,4119,17 av se,,calgary,ab
486,artpoint gallery & studios,gallery,1038,17 av se,,calgary,ab
580,avenida art & framing gallery,gallery,625,77 av se,,calgary,ab
617,ballet barre works,theatre/performance and concert hall,1410,4 st sw,,calgary,ab
1752,big secret theatre future cocktail lounge,theatre/performance and concert hall,225,8 av se,,calgary,ab
1806,black earth floral gallery,gallery,5149,country bv nw,,calgary,ab
1836,bmw gallery,gallery,7699,110 av nw,,calgary,ab
1842,boft fine rugs gallery,gallery,1225b,9 av se,,calgary,ab
1881,bow habitat station,museum,1440,17a street se,t2g4t9,calgary,ab
1888,bowness library,library or archives,7930,bowness rd nw,t3b0h3,calgary,ab
2072,calgary chinese cultural centre,art or cultural centre,197,1 st sw,,calgary,ab
2073,calgary coin gallery,gallery,1404,centre st se,,calgary,ab
2074,calgary community theatre,theatre/performance and concert hall,375,bermuda dr nw,,calgary,ab
2075,calgary grand theatre society (the),theatre/performance and concert hall,608,1 st sw,,calgary,ab
2076,calgary heritage roasting co.,heritage or historic site,2010,11 st se,,calgary,ab
2077,calgary highlanders regimental museum and archives,museum,4520,crowchild trail sw,t2t5j4,calgary,ab
2078,calgary italian cultural centre,art or cultural centre,416,1 av ne,,calgary,ab
2079,calgary military museums society,museum,4629,mccall way ne,t2e8a5,calgary,ab
2081,calgary public library,library or archives,800,3 street se,t2g2e7,calgary,ab
2249,car gallery,gallery,330,40 av ne,,calgary,ab
2304,carstar heritage,heritage or historic site,7905,flint rd se,,calgary,ab
2626,chauvin municipal library,library or archives,5200,4 avenue n,t0b0v0,chauvin,ab
2645,chinese cultural centre cuisine,art or cultural centre,197,1 st sw,,calgary,ab
2863,consignment gallery (the),gallery,533,58 av se,,calgary,ab
2870,contemporary calgary art society,gallery,117,8 avenue south,t2p1b4,west calgary,ab
2926,country hills library,library or archives,388,country bv ne,t3k6e3,calgary,ab
2977,croatian canadian cultural centre calgary,art or cultural centre,3010,12 st ne,,calgary,ab
2984,crowfoot library,library or archives,8685,nose dr nw,t3g5t3,calgary,ab
3713,festival market at eau claire,festival site,139,barclay pr sw,,calgary,ab
3763,fin gallery,gallery,1304,4 st sw,,calgary,ab
3769,firefighter's museum society calgary,museum,4144,11 st se,,calgary,ab
3771,firefighters museum of calgary,museum,4124,11 st se,t2g3h2,calgary,ab
3780,fish creek library,library or archives,11161,bonaventure dr se,t2j6s1,calgary,ab
3807,folk festival society of calgary,festival site,1215,10 av se,,calgary,ab
3824,forest lawn library,library or archives,4807,8 av se,t2a4m1,calgary,ab
3836,fort calgary preservation society,museum,750,9th avenue se,t2g5e1,calgary,ab
3943,framing and art centre,art or cultural centre,1218,16 av nw,,calgary,ab
4028,gainsborough galleries and picture framing,gallery,114,61 av sw,,calgary,ab
4273,glenbow museum,museum,130,9 ave se,t2g0p3,calgary,ab
4279,glenmore square library,library or archives,7740,18 st se,t2c2n5,calgary,ab
4363,granite gallery,gallery,1089,57 av ne,,calgary,ab
4455,h/w school of ballet,theatre/performance and concert hall,2633,hochwald av sw,,calgary,ab
4520,hardwood gallery & design center,gallery,5608,1 st se,,calgary,ab
