Index,Facility_Name,ODCAF_Facility_Type,Street_No,Street_Name,Postal_Code,City,Prov_Terr
2713,city centre,library or archives,10350,university drive,v3t4b8,lillooet,bc
2769,cloverdale,library or archives,5642,176a street,v3s4g9,kelowna,bc
3794,fleetwood,library or archives,15996,84th avenue,v4n0w1,midway,bc
4442,guildford,library or archives,15105,105th avenue,v3r7g8,maple ridge,bc
4610,heritage christian school,heritage or historic site,,,,surrey,bc
4739,historic stewart farm,heritage or historic site,,,,surrey,bc
6734,museum of surrey,museum,,,,surrey,bc
6900,newton,library or archives,13795,70th avenue,v3w0e1,lytton,bc
6901,newton cultural centre,art or cultural centre,,,,surrey,bc
7055,ocean park,library or archives,12854,17th avenue,v4a1t5,lillooet,bc
7511,port kells,library or archives,18885,88th avenue,v3s5x7,mcleese lake,bc
8202,semiahmoo library,library or archives,1815,152nd street,v4a9y9,vancouver,bc
8658,strawberry hill,library or archives,7399,122nd street,v3w5j2,likely,bc
8676,studio theatre at surrey arts centre,theatre/performance and concert hall,,,,surrey,bc
8717,surrey art gallery,gallery,,,,surrey,bc
8718,surrey little theatre,theatre/performance and concert hall,,,,surrey,bc
8719,surrey museum & archives,museum,17710,56a avenue,v3s5h8,surrey,bc
8720,surrey public library,library or archives,10350,university drive,v3t4b8,logan lake,bc
9423,village of granisle,miscellaneous,1,village square,v0j1w0,granisle,bc
