Facility_Name,Index,ODCAF_Facility_Type,Street_No,Street_Name,Postal_Code,City,Prov_Terr
15th Field Artillery Regiment Museum And Archives,15,museum,2025,11th av w,V6J 2C7,vancouver,bc
221A Artist Run Centre,24,museum,221,georgia st e,V6A 1Z6,vancouver,bc
Accessible Services,115,library or archives,345,robson st,V6B 6B3,nanaimo,bc
Alliance For Arts And Culture,254,museum,938,howe st,V6Z 1N9,vancouver,bc
Anza Club (Australia-New Zealand Association),318,theatre/performance and concert hall,3,8th av w,V5Y 1M8,vancouver,bc
Architectural Institute of BC Gallery,337,gallery,440,cambie st,V6B 2N5,vancouver,bc
Archives of Anglican Provincial Synod of British Columbia And Diocese of New Westminster,358,library or archives,1410,nanton ave,V6H 2E2,vancouver,bc
Art Beatus,394,museum,808,nelson st,V6Z 2H2,vancouver,bc
Art Club/Bard On Beach Production Centre Theatre,395,theatre/performance and concert hall,162,1st av w,V5Y 1A4,vancouver,bc
Art Emporium,397,museum,2928,granville st,V6H 3J7,vancouver,bc
Art Works Gallery,446,gallery,225,smithe st,V6B 4X7,vancouver,bc
Arts Club Theatre - Granville Island Stage,489,theatre/performance and concert hall,1585,johnston st,V6H 3R9,vancouver,bc
Arts Club Theatre - Revue Stage,490,theatre/performance and concert hall,1601,johnston st,V6H 3R9,vancouver,bc
Arts Club Theatre - Stanley Industrial Alliance Stage,491,theatre/performance and concert hall,2750,granville st,V6H 3J3,vancouver,bc
Artspeak Gallery,506,gallery,233,carrall st,V6B 2J2,vancouver,bc
Artstarts In Schools,507,museum,808,richards st,V6B 3A7,vancouver,bc
Astorino's Hall,532,theatre/performance and concert hall,1739,venables st,V5L 2H3,vancouver,bc
Audain Gallery,565,gallery,149,hastings st w,V6B 1H4,vancouver,bc
Ayden Gallery,594,gallery,88,pender st w,V6B 6N9,vancouver,bc
Back Gallery Project,602,gallery,602,hastings st e,V6A 1R1,vancouver,bc
Baf Studio,607,museum,108,broadway av e,V5T 1V9,vancouver,bc
Basic Inquiry,669,museum,1011,main st,V6A 4L4,vancouver,bc
Bau-Xi Gallery,688,gallery,3045,granville st,V6H 3J9,vancouver,bc
BC Regiment (Duke of Connaught's Own) Museum,701,museum,620,beatty st,V6B 2L9,vancouver,bc
BC Sports Hall of Fame Museum,703,museum,777,pacific blvd s,V6B 4Y8,vancouver,bc
Bill Reid Gallery,1760,gallery,639,hornby st,V6C 2G3,vancouver,bc
Bloedel Conservatory,1822,museum,4600,cambie st,V5Y 2M5,vancouver,bc
Britannia,1936,library or archives,1661,napier st,..,vancouver,bc
Canadian Music Centre (BC Region),2196,museum,837,davie st,V6Z 1B7,vancouver,bc
Canadian Society of Asian Arts,2207,gallery,5655,cambie street,V5Z 3A4,vancouver,bc
Carnegie Centre Theatre,2292,theatre/performance and concert hall,401,main st,V6A 2T7,vancouver,bc
Catriona Jeffries Gallery,2330,gallery,274,1st av e,V5T 1A6,vancouver,bc
Cbc Studio 700,2335,theatre/performance and concert hall,700,hamilton,V6B 2R5,vancouver,bc
Central Branch,2359,library or archives,350,georgia st w,..,vancouver,bc
Centre A - Centre For Contemporary Asian Art,2377,museum,268,keefer st,V6A 1X6,vancouver,bc
Chali-Rosso Gallery,2574,gallery,2250,granville st,V6H 4H7,vancouver,bc
Champlain Heights,2581,library or archives,7110,kerr st,..,vancouver,bc
Chapel Arts,2592,theatre/performance and concert hall,304,dunlevy st,V6A 3Y4,vancouver,bc
Charles H. Scott Gallery,2610,gallery,1399,johnston st,V6H 2R9,vancouver,bc
Chinese Canadian Military Museum,2644,museum,555,columbia street,V6A 4H5,vancouver,bc
Chinese Cultural Centre Museum And Archives,2646,museum,555,columbia st,V6A 4H5,vancouver,bc
Cineplex Odeon International Village Cinemas,2692,theatre/performance and concert hall,88,pender st w,V6B 6N9,vancouver,bc
Circle Craft Co-Operative Shop & Gallery,2694,gallery,1666,johnston st,V6H 3S2,vancouver,bc
City of Vancouver Archives,2725,museum,1150,chestnut st,V6J 3J9,vancouver,bc
Coastal Peoples Fine Arts Gallery Gastown,2781,gallery,312,water st,V6B 1B6,vancouver,bc
Coastal Peoples Fine Arts Gallery Yaletown,2782,gallery,1024,mainland st,V6B 2T4,vancouver,bc
Colbourne House/ Marpole Museum,2800,museum,8743,marine dr,V6P 6A5,vancouver,bc
Collingwood,2823,library or archives,2985,kingsway,..,vancouver,bc
Craft Council of British Columbia Gallery,2945,gallery,1386,cartwright st,V6H 3R8,vancouver,bc
