Index,Facility_Name,ODCAF_Facility_Type,Street_No,Street_Name,Postal_Code,City,Prov_Terr
268,amelia douglas gallery,gallery,,,,new-westminster,bc
286,angie au hemphill studio,artist,,,,new-westminster,bc
317,anvil centre/museum and archives,museum,777,columbia st,,new-westminster,bc
479,artists in the boro,artist,920,ewen avenue,,new-westminster,bc
1916,brenda lee fairfax,artist,,,,new-westminster,bc
1991,bully's studios inc,artist,67,sixth street,,new-westminster,bc
2169,canadian lacrosse hall of fame & museum,museum,777,columbia street,v3m1b6,new-westminster,bc
2217,candice james,artist,,,,new-westminster,bc
3023,cynthia jennifer smith,artist,,,,new-westminster,bc
3060,david m. adams,artist,302,fifth street,,new-westminster,bc
3061,david mcfarland,artist,,,,new-westminster,bc
3078,dee spencer native art,artist,,,,new-westminster,bc
3143,dogma portraits,artist,,,,new-westminster,bc
3379,eileen kernaghan,artist,,,,new-westminster,bc
3396,elizabeth elwood,artist,,,,new-westminster,bc
3762,film2frame studio gallery,gallery,655,front street,,new-westminster,bc
3946,"franci louann, poet, mentor, proofreader",artist,,,,new-westminster,bc
3969,fraser river discovery centre,art or cultural centre,788,quayside drive,v3m6z6,new-westminster,bc
3987,freeflow scenics studio,artist,,,,new-westminster,bc
4023,gabor gasztonyi studio & gallery,gallery,,,,new-westminster,bc
4253,gillian wright,artist,,,,new-westminster,bc
4448,guy allen,artist,1516,new-westminster,,new-westminster,bc
4590,helmcken house,miscellaneous,,,v8v1w1,victoria,bc
4644,heritage life drawing society,heritage or historic site,927,london place,,new-westminster,bc
4719,highland dance with miss kathleen,artist,65,sixth avenue east,,new-westminster,bc
4745,historical museum,museum,302,royal ave,,new-westminster,bc
4879,institute for stained glass in canada,miscellaneous,3545,third avenue west,v6r1l8,vancouver,bc
4953,janet kvammen,artist,720,sixth street,,new-westminster,bc
4972,jerry mclaughlin,artist,406,buchanan avenue,,new-westminster,bc
4980,joann heringer,artist,,,,new-westminster,bc
5023,jonina lynn kirton,artist,700,park crescent,,new-westminster,bc
5055,judith berlin,artist,,,,new-westminster,bc
5056,judith copland,artist,730,twelfth street,,new-westminster,bc
5101,kate colbourn,artist,,,,new-westminster,bc
5232,krachel art,artist,329,devoy street,,new-westminster,bc
5239,kyle mckillop,artist,,,,new-westminster,bc
5397,lanta meng,artist,906,surrey street,,new-westminster,bc
5420,laura c. muir performing arts theatre,theatre/performance and concert hall,700,royal avenue,v3l5b2,new-westminster,bc
5620,lisa bunting,artist,,,,new-westminster,bc
5696,lorrie wager,artist,226,brookes street,,new-westminster,bc
5792,main branch,library or archives,716,6th avenue,v3m2b3,langley,bc
5954,margo prentice stand-up comic,artist,,,,new-westminster,bc
5955,"margo prentice, golden age theatre, artistic director",theatre/performance and concert hall,,,,new-westminster,bc
5961,marilyn norry,artist,,,,new-westminster,bc
6004,marya mclellan,artist,310,durham street,,new-westminster,bc
6017,massey theatre,theatre/performance and concert hall,735,eighth ave,,new-westminster,bc
6749,music box music and theatre academy,theatre/performance and concert hall,810,quayside drive,,new-westminster,bc
6881,new west artists society,artist,,,,new-westminster,bc
6883,new westminster historical society,heritage or historic site,,,,new-westminster,bc
