Index,Facility_Name,ODCAF_Facility_Type,Street_No,Street_Name,Postal_Code,City,Prov_Terr
3140,doctor vigari gallery,gallery,1816,commercial dr,v5n4a3,vancouver,bc
3183,douglas reynolds gallery,gallery,2335,granville st,v6h3g4,vancouver,bc
3184,douglas udell gallery,gallery,1558,6th av w,v6j1r2,vancouver,bc
3202,dr. sun yat-sen classical chinese garden,museum,578,carrall st,v6b5k2,vancouver,bc
3232,dunbar,library or archives,4515,dunbar st,,vancouver,bc
3235,dundarave print workshop & gallery,gallery,1640,johnston st,v6h3s2,vancouver,bc
3251,dynamo arts association,museum,30,6th ave e,v5t1j4,vancouver,bc
3255,eagle spirit gallery,gallery,1803,maritime mews,v6h3w7,vancouver,bc
3395,elissa cristall galleries,gallery,2239,granville st,v6h3g1,vancouver,bc
3424,emily carr institute of art + design 1612 gallery,gallery,1612,3rd av w,v6j1k2,vancouver,bc
3451,equinox gallery,gallery,525,great way,v5t1e1,vancouver,bc
3542,fanclub,theatre/performance and concert hall,1050,granville st,v6z1l2,vancouver,bc
3560,federation gallery,gallery,1241,cartwright st,v6h4b7,vancouver,bc
3561,fei & milton wong experimental theatre,theatre/performance and concert hall,149,hastings st w,v6b1h4,vancouver,bc
3756,field contemporary,museum,17,broadway w,v5y1p1,vancouver,bc
3774,firehall arts centre,theatre/performance and concert hall,280,cordova st e,v6a1l3,vancouver,bc
3775,firehall branch,library or archives,1455,10th avenue west,v6h1j8,surrey,bc
3920,fortune sound club,theatre/performance and concert hall,147,pender st e,v6a1t5,vancouver,bc
3973,fraserview,library or archives,1950,argyle drive,,vancouver,bc
4167,gallery 295,gallery,295,2nd ave e,v5t1b8,vancouver,bc
4177,gallery gachet,gallery,88,cordova st e,v6a1k2,vancouver,bc
4180,gallery jones,gallery,258,1st av e,v5t1a6,vancouver,bc
4181,gallery jones,gallery,1725,3rd av w,v6j1k7,vancouver,bc
4183,gallery of bc ceramics,gallery,1359,cartwright st,v6h3r7,vancouver,bc
4198,gam gallery,gallery,110,hastings st e,v6n1n4,vancouver,bc
4288,gms observatory,museum,1100,chestnut st,v6j3j9,vancouver,bc
4368,granville fine arts,museum,2447,granville st,v6h3g5,vancouver,bc
4369,granville island gallery,gallery,1494,old st,v6h3s6,vancouver,bc
4431,grunt gallery,gallery,350,2nd av e,v5t4r8,vancouver,bc
4454,h.r. macmillan space centre,museum,1100,chestnut st,v6j3j9,vancouver,bc
4528,harrison galleries,gallery,901,homer st,v6b2w6,vancouver,bc
4537,hastings,library or archives,2674,hastings st e,,vancouver,bc
4541,hastings mill store museum,museum,1575,alma st west,v6r3p3,vancouver,bc
4545,havana gallery,gallery,1212,commercial dr,v5l3x4,vancouver,bc
4546,havana theatre,theatre/performance and concert hall,1212,commercial dr,v5l3x4,vancouver,bc
4583,heffel gallery ltd,gallery,2247,granville st,v6h3g1,vancouver,bc
4722,hill's native art,museum,165,water st,v6b1a7,vancouver,bc
4783,hot art wet city,museum,2206,main st,v5t3c7,vancouver,bc
4830,ian tan gallery,gallery,2202,granville st,v6h4h7,vancouver,bc
4833,ice box gallery,gallery,321,railway st,v6a1a4,vancouver,bc
4839,il museo,museum,3075,slocan st,v5m3e4,vancouver,bc
4857,improv centre,theatre/performance and concert hall,1502,duranleau st,v6h3s4,vancouver,bc
4889,interurban gallery,gallery,1,hastings st e,v6a1m9,vancouver,bc
4891,inuit gallery of vancouver,gallery,206,cambie st,v6b2m9,vancouver,bc
4921,italian cultural centre society,art or cultural centre,3075,slocan street,v5m3e4,vancouver,bc
4944,james black gallery,gallery,144,6th av e,v5t1j5,vancouver,bc
4948,james tan gallery,gallery,437,columbia st,v6a2r9,vancouver,bc
4968,jennifer kostuik gallery,gallery,1070,homer st,v6b2w9,vancouver,bc
4970,jericho arts centre,theatre/performance and concert hall,1675,discovery st west,v6r2k5,vancouver,bc
