Index,Facility_Name,ODCAF_Facility_Type,Street_No,Street_Name,Postal_Code,City,Prov_Terr
245,alix goolden performance hall,theatre/performance and concert hall,,,,victoria,bc
418,art gallery of greater victoria,gallery,1040,moss street,v8v4p1,victoria,bc
740,belfry theatre,theatre/performance and concert hall,,,,victoria,bc
2091,cameron bandshell,theatre/performance and concert hall,,,,victoria,bc
2354,centennial square,theatre/performance and concert hall,,,,victoria,bc
2726,city of victoria archives,library or archives,8,centennial square,v8w1p6,victoria,bc
2951,craigdarroch castle historical museum society,museum,1044,joan cres,v8s3l5,victoria,bc
3423,emily carr house,museum,,,,victoria,bc
3479,esquimalt municipal archives,library or archives,1149a,esquimalt road,v9a3n6,victoria,bc
3778,first metropolitan united church and archives,museum,932,balmoral road,v8t1a8,victoria,bc
4389,greater victoria public central library,library or archives,735,broughton street,v8w3h2,fraser lake,bc
4391,greater victoria sports hall of fame,museum,1925,blanshard street,v8t4j2,victoria,bc
4603,heritage branch ministry of forests lands and natural resource operations,heritage or historic site,,,v8w9w3,victoria,bc
4943,james bay branch,library or archives,385,menzies st,v8v0c2,fort st john,bc
5507,legacy art gallery,gallery,,,,victoria,bc
5970,maritime museum of british columbia,museum,634,humboldt street,v8w1a4,victoria,bc
6089,mcpherson playhouse,theatre/performance and concert hall,,,,victoria,bc
7235,pacific north west heritage homes foundation,heritage or historic site,1156,fort street,v8v3k8,victoria,bc
7453,point ellice house,museum,,,,victoria,bc
7454,point ellice house and garden,museum,2616,pleasant street,v8t4v3,victoria,bc
7945,royal bc museum,museum,,,,victoria,bc
7947,royal british columbia museum,museum,675,belleville street,v8w9w2,victoria,bc
7970,royal theatre,theatre/performance and concert hall,,,,victoria,bc
8129,save-on-foods memorial arena,theatre/performance and concert hall,,,,victoria,bc
8491,st. ann's academy,heritage or historic site,835,humboldt street,v8w9e6,victoria,bc
9290,university of victoria legacy art galleries,gallery,630,yates st,v8w1k9,victoria,bc
9797,Craigdarroch Castle,museum,,,,victoria,bc
9798,,museum,,,,victoria,bc
9799,,theatre/performance and concert hall,,,,victoria,bc
9800,,theatre/performance and concert hall,,,,victoria,bc
