Facility_Name,Index,ODCAF_Facility_Type,Street_No,Street_Name,Postal_Code,City,Prov_Terr
Haney House Museum,4506,museum,11617,224th street,V2X 5Z7,maple ridge,bc
Hastings Highlands Twp,4540,library or archives,33011,62 hwy north,K0L 2S0,maynooth,on
Hays Public Library,4555,library or archives,210,2nd avenue,T0K 1B0,hays,ab
"Head, Clara & Maria",4564,library or archives,15,township road,K0J 2K0,stonecliffe,on
Head-Smashed-In Buffalo Jump Interpretive Centre,4565,heritage or historic site,..,..,T0L 0Z0,fort mcleod,ab
Henvey Inlet Fn,4596,library or archives,..,..,P0G 1J0,pickerel,on
Heritage Models Centre,4654,heritage or historic site,1868,main street,B0L 1G0,river hebert,ns
Herschel Island Territorial Park,4704,heritage or historic site,..,..,Y1A 5X6,..,yt
High River Centennial Library,4715,library or archives,909,1 st sw,T1V 1A5,high river,ab
Historical Living Village And Pioneer Museum At Shandro,4744,museum,..,..,T0B 4R0,shandro,ab
Hli Goothl Wilp Adoks Nisga'A Museum,4747,museum,810,highway drive,V0J 1X0,greenville,bc
Homewood Museum,4762,museum,..,..,K0E 1J3,maitland,on
Hudson Bay Heritage Park,4797,museum,..,..,S0E 0Y0,hudson bay,sk
Hurkett Lsb,4815,library or archives,..,..,P0T 1K0,hurkett,on
Huron Shores,4818,library or archives,10,main street,P0R 1H0,iron bridge,on
Ile A La Crosse Public Library (Rossignol High School),4842,library or archives,..,..,S0M 1C0,ile a la crosse,sk
Ingledale,4866,heritage or historic site,..,..,L9G 3L3,stoney creek,on
Ipsco Wild Life Park And Pool,4897,heritage or historic site,..,..,S4P 3C7,ipsco,sk
Irvine Community Library,4911,library or archives,78,railway avenue south,T0J 1V0,irvine,ab
Jogues Lsb,4984,library or archives,..,..,P0L 1R0,jogues,on
John P. Fisher Memorial Museum,5000,museum,3366,845 route,E0G 1N0,kings county,nb
John R. Park Homestead Conservation Area,5001,miscellaneous,..,..,N0R 1G0,harrow,on
Johnson Twp,5016,library or archives,1,johnson drive on,P0R 1E0,desbarats,on
Keephills Public Library,5110,library or archives,..,..,T0E 0N0,standoff,ab
Keethanow Public Library (Rhoda Hardlotte Memorial School),5111,library or archives,..,..,S0J 2P0,stanley mission,sk
Keg River Community Library,5112,library or archives,..,..,T0H 2G0,duffield,ab
Keno City Mining Museum,5131,museum,..,..,Y0B 1M1,keno city,yt
Keystone Pioneer Museum,5146,museum,..,..,R0L 1P0,roblin,mb
Kirkton-Woodham Community Ctr,5199,library or archives,70497,rd 164,N0K 1K0,kirkton,on
Kitscoty Public Library,5211,library or archives,4910,51 street,T0B 2P0,keg river,ab
Kuroki Book Deposit,5236,library or archives,..,..,S0A 1Y0,kuroki,sk
L'Association Communautaire Francophone De Saint-Jean,5254,art or cultural centre,65,chemin ridge,A1B 4P5,saint-jean,nl
L.M. Montgomery Lower Bedeque School,5270,miscellaneous,14,new road,C0B 1C0,lower bedeque,pe
La Glace Community Library,5287,library or archives,9924,97 avenue,T0H 2J0,la glace,ab
La Nation,5299,library or archives,4531,ste-catherine street,K0C 2B0,st-isidore,on
La Vallee Twp,5314,library or archives,56,church road,P0W 1C0,devlin,on
Lac La Biche Mission Historical Society,5334,heritage or historic site,67453,mission road,T0A 2C2,la biche,ab
Laird Twp,5349,library or archives,3,pumpkin rd west,P0S 1C0,echo bay,on
Lamèque Public Library,5367,library or archives,46,du-pêcheur n,E8T 1J3,st lamèque,nb
Lambton Heritage Museum,5371,museum,10035,museum road,N0M 1T0,grand bend,on
Lanark Highlands,5376,library or archives,75,george street,K0G 1K0,lanark,on
Le Musée De La Défense Aérienne De Bagotville,5473,museum,3,escadre,G0V 1A0,bagotville,qc
Le Musée Les Voltigeurs De Québec,5477,museum,835,boul pierre,G1M 2E7,bertrand,qc
Leeds And the Thousand Islands Twp,5506,library or archives,1,jessie st,K0E 1L0,lansdowne,on
Leitch Collieries Provincial Historic Site,5514,heritage or historic site,..,highway  3,T0K 0E0,crowsnest pass,ab
Lieu Historique National De La Bataille-De-La-Châteauguay,5579,heritage or historic site,2371,chemin de-la rivière châteauguay s,J0S 1G0,très st-sacrament,qc
Lucy Maud Montgomery Birthplace,5719,heritage or historic site,..,..,C0B 1M0,new london,pe
Macdonald Farm Heritage Site,5754,museum,600,route 11,E1V 7G1,bartibog bridge,nb
"Macdonald, Meredith & Aberdeen Add'L Twp",5756,library or archives,208,church street,P0S 1C0,echo bay,on
