Facility_Name,Index,ODCAF_Facility_Type,Street_No,Street_Name,Postal_Code,City,Prov_Terr
Naval Museum of Québec,6826,museum,170,rue dalhousie,G1K 8M7,québec,qc
New France Festival Presented By Td,6871,festival site,..,..,G1R 4C4,québec,qc
Observatoire De La Capitale,7048,miscellaneous,1037,rue de la chevrotière,G1R 5E9,québec,qc
Palais Montcalm - Maison De La Musique,7241,theatre/performance and concert hall,995,place d' youville,G1R 3P1,québec,qc
Petit Théâtre De Québec,7370,theatre/performance and concert hall,135,rue saint-vallier o,G1K 1J9,québec,qc
Plains of Abraham Museum,7428,museum,835,québec avenue,G1R 2L3,québec,qc
Port-De-Québec-Au-Xixe-Siècle,7525,heritage or historic site,100,rue saint andré,G1K 7R3,québec,qc
Premier Acte,7558,theatre/performance and concert hall,870,av de salaberry,G1R 2T9,québec,qc
Québec City Celtic Festival,7629,festival site,..,..,G1J 5E7,québec,qc
Québec City Film Festival,7630,festival site,..,..,G1R 3P1,québec,qc
Québec City Pride Festival,7631,festival site,..,..,G1R 3P1,québec,qc
Residence of the Governor General At the Citadelle,7772,miscellaneous,..,..,G1R 4V7,québec,qc
Saint-Louis Forts And Châteaux National Historic Site,8032,heritage or historic site,2,rue d'auteuil,G1R 5C2,québec,qc
Salle Albert-Rousseau,8041,theatre/performance and concert hall,2410,ch ste-foy,G1V 1T3,québec,qc
Salle De Découvertes De La Boîte À Science,8053,museum,1150,boul rené lévesque ouest,G1S 1V7,québec,qc
Salle Multi Et Studio D'Essai De Méduse,8068,theatre/performance and concert hall,591,rue st-vallier e,G1K 3P9,québec,qc
Société Historique Du Cap-Rouge,8369,heritage or historic site,4473,rue saint-félix,G1Y 3A6,québec,qc
Soeurs Servantes Du Saint-Coeur De Marie,8381,miscellaneous,37,des-cascades avenue,G1E 2K1,beauport,qc
Stationnement Bibliothèque Étienne-Parent,8581,library or archives,..,..,..,québec city,qc
Stationnement Bibliothèque Du Chemin Royal,8583,library or archives,..,..,..,québec city,qc
Stationnement Bibliothèque Du Jardin,8585,library or archives,..,..,..,québec city,qc
Stationnement Bibliothèque Duberger,8586,library or archives,..,..,..,québec city,qc
Stationnement Bibliothèque Monique-Corriveau,8590,library or archives,..,..,..,québec city,qc
Stationnement Bibliothèque Roger-Lemelin,8593,library or archives,..,..,..,québec city,qc
Théâtre La Bordée,8879,theatre/performance and concert hall,315,rue st-joseph e,G1K 3B3,québec,qc
Théâtre Périscope,8893,theatre/performance and concert hall,2,rue crémazie e,G1R 2V2,québec,qc
Théâtre Petit Champlain,8895,theatre/performance and concert hall,68,rue du-petit-champlain,G1K 4H4,québec,qc
The Bordeaux Wine Festival In Québec City,8925,festival site,120,rue dalhousie,G1K 8M5,québec,qc
Université Laval : Musée De Géologie,9264,museum,..,..,G1K 7P4,ste foy,qc
Videotron Centre,9408,theatre/performance and concert hall,..,boul 250-b,G1L 5A7,québec,qc
