Facility_Name,Index,ODCAF_Facility_Type,Street_No,Street_Name,Postal_Code,City,Prov_Terr
Théâtre De Verdure,8823,theatre/performance and concert hall,..,..,..,montréal,qc
Théâtre Denise-Pelletier,8824,theatre/performance and concert hall,..,..,..,montréal,qc
Théâtre Desjardins,8825,theatre/performance and concert hall,..,..,..,montréal,qc
Théâtre Du Nouveau Monde,8826,theatre/performance and concert hall,..,..,..,montréal,qc
Théâtre L'Olympia,8827,theatre/performance and concert hall,..,..,..,montréal,qc
Théâtre Le National,8828,theatre/performance and concert hall,..,..,..,montréal,qc
Théâtre Outremont,8829,theatre/performance and concert hall,..,..,..,montréal,qc
Théâtre Rialto,8830,theatre/performance and concert hall,..,..,..,montréal,qc
Théâtre Saint-Denis,8831,theatre/performance and concert hall,..,..,..,montréal,qc
Théâtre Aux Écuries,8833,theatre/performance and concert hall,7285,rue chabot,H2E 2K7,montréal,qc
Théâtre De Quat'Sous,8852,theatre/performance and concert hall,100,av des-pins e,H2W 1N7,montréal,qc
Théâtre De Verdure,8854,theatre/performance and concert hall,..,..,H3C 0G4,montréal,qc
Théâtre Denise-Pelletier,8855,theatre/performance and concert hall,4353,rue ste-catherine e,H1V 1Y2,montréal,qc
Théâtre Desjardins - Salle Jean-Grimaldi,8862,theatre/performance and concert hall,1111,rue lapierre,H8N 2J4,montréal,qc
Théâtre Du Nouveau Monde (Tnm),8869,theatre/performance and concert hall,84,rue ste-catherine o,H2X 1Z6,montréal,qc
Théâtre Du Rideau Vert,8871,theatre/performance and concert hall,4664,rue st-denis,H2J 2L3,montréal,qc
Théâtre Espace Go,8874,theatre/performance and concert hall,4890,boul st-laurent,H2T 1R5,montréal,qc
Théâtre La Licorne,8882,theatre/performance and concert hall,4559,av papineau,H2H 1V4,montréal,qc
Théâtre Mirella Et Lino Saputo,8889,theatre/performance and concert hall,8370,boulevard lacordaire,H1R 3Y6,montréal,qc
Théâtre Outremont,8891,theatre/performance and concert hall,1248,av bernard o,H2V 1V6,montréal,qc
Théâtre Paradoxe,8894,theatre/performance and concert hall,5959,boul monk,H4E 3H5,montréal,qc
Théâtre Plaza,8897,theatre/performance and concert hall,6505,rue st-hubert,H2S 2M5,montréal,qc
Théâtre Prospero,8898,theatre/performance and concert hall,1371,rue ontario e,H2L 1S2,montréal,qc
Théâtre Saint-Denis,8900,theatre/performance and concert hall,1594,rue st-denis,H2X 3K2,montréal,qc
Théâtre Sainte-Catherine,8903,theatre/performance and concert hall,264,rue ste-catherine e,H2X 1L4,montréal,qc
The Fur Trade At Lachine National Historic Site,8951,museum,1255,boul st-joseph,H8S 2M2,montréal,qc
The Montréal Museum of Fine Arts,8985,museum,1380,rue sherbrooke ouest,H3G 1J5,montréal,qc
The Rialto Theatre,9005,theatre/performance and concert hall,5723,av du-parc,H2V 4H2,montréal,qc
Tohu Et Cité Des Arts Du Cirque,9117,miscellaneous,..,..,..,montréal,qc
Univers Culturel De Saint-Sulpice,9261,museum,2065,sherbrooke ouest,H3H 1G6,montréal,qc
Univers Culturel De Saint-Sulpice -Archives,9262,library or archives,116,rue notre-dame ouest,H2Y 1T2,montréal,qc
Usine C,9308,theatre/performance and concert hall,1345,av lalonde,H2L 5A9,montréal,qc
Vieux-Moulin De Pointe-Aux-Trembles,9415,miscellaneous,11630,rue notre-dame est,H1B 2X6,montréal,qc
Vues D'Afrique - Festival International De Cinéma,9448,festival site,335,boulevard de-maisonneuve est,H2X 1K1,montréal,qc
Yves Laroche Galerie D'Art,9784,gallery,6355,laurent st,H2S 3C3,montréal,qc
