Facility_Name,Index,ODCAF_Facility_Type,Street_No,Street_Name,Postal_Code,City,Prov_Terr
Bibliothèque Du Plateau-Mont-Royal,865,library or archives,465,du-mont avenue est,H2J 1W3,montréal,qc
Bibliothèque Du Vieux-Saint-Laurent,874,library or archives,1380,rue de-l'église,H4L 2H2,montréal,qc
Bibliothèque Frontenac,892,library or archives,2550,rue ontario,H2K 1W7,montréal,qc
Bibliothèque Georges-Vanier,895,library or archives,2450,rue workman,H3J 1L8,montréal,qc
Bibliothèque Henri-Bourassa,902,library or archives,5400,boulevard henri est,H1G 2S9,montréal,qc
Bibliothèque Interculturelle,904,library or archives,6767,chemin de-la côte,H3S 2T6,montréal,qc
Bibliothèque Jacqueline-De Repentigny,906,library or archives,5955,rue bannantyne,H4H 1H6,montréal,qc
Bibliothèque Jean-Corbeil,909,library or archives,7500,goncourt avenue,H1K 3X9,montréal,qc
Bibliothèque L'Octogone,912,library or archives,1080,dollard avenue,H8N 2T9,montréal,qc
Bibliothèque Langelier,914,library or archives,6473,rue sherbrooke est,H1N 1C5,montréal,qc
Bibliothèque Le Prévost,918,library or archives,7355,christophe avenue,H2R 2S5,montréal,qc
Bibliothèque Maisonneuve,929,library or archives,4120,rue ontario est,H1V 1J9,montréal,qc
Bibliothèque Marie-Uguay,934,library or archives,6052,boulevard monk,H4E 3H6,montréal,qc
Bibliothèque Mordecai-Richler,939,library or archives,5434,du-parc avenue,H2V 4G7,montréal,qc
Bibliothèque Nationale Du Québec,942,library or archives,2275,rue holt,H2G 3H1,montréal,qc
Bibliothèque Père-Ambroise,946,library or archives,2093,rue de-la-visitation,H2L 3C9,montréal,qc
Bibliothèque Robert-Bourassa,952,library or archives,41,saint-just avenue,H2V 4T7,montréal,qc
Bibliothèque Saul-Bellow,961,library or archives,800,rue sherbrooke,H8S 1H2,lachine,qc
Bibliothèque Yves-Ryan,967,library or archives,4740,rue de-charleroi,H1H 1V2,montréal,qc
Bibliotheque De Côte-Des-Neiges,1057,library or archives,5290,chemin de-la-côte,H3T 1Y2,saint-louis-du-ha! ha!,qc
Bibliotheque De Saint-Charles,1274,library or archives,2333,rue de-mullins,H3K 3E3,nouvelle,qc
Bibliotheque Des Jeunes De Montréal,1435,library or archives,4121,rue 42ieme,H1Z 1R8,sainte-victoire-de-sorel,qc
Bibliothèque Marc-Favreau,1557,library or archives,500,boulevard rosemont,H2S 0C4,laval,qc
Bibliothèque Publique Juive,1700,library or archives,5151,sainte-catherine côte,H3W 1M6,north hatley,qc
Bibliotheque Saul-Bellow,1725,library or archives,3100,rue saint-antoine,H8S 4B8,saint-constant,qc
Biodôme De Montréal,1777,museum,4777,pierre avenue,H1V 1B3,montréal,qc
Biosphère - Environment Museum,1783,museum,160,ch tour de l'isle,H3C 4G8,montréal,qc
Black Watch (Royal Highland Regiment) of Canada Regimental Museum And Archives,1810,museum,2067,bleury st,H3A 2K2,montréal,qc
Blue Metropolis Montréal International Literary Festival,1828,festival site,10,rue sherbrooke o,H2X 4C9,montréal,qc
Cégep Marie-Victorin - Salle Désilets,2040,miscellaneous,7000,rue marie,H1G 2J6,montréal,qc
Cabaret Lion D'Or,2047,theatre/performance and concert hall,1676,rue ontario e,H2L 1S7,montréal,qc
Canadian Centre For Architecture,2142,art or cultural centre,1920,rue baile,H3H 2S6,montréal,qc
Canadian Centre For the Great War,2143,art or cultural centre,5524,st patrick,H4E 1A8,montréal,qc
Canadian Forces Logistics Museum,2160,museum,6560,hochelaga street,H1N 3R9,montréal,qc
Canadian Grenadier Guards Regimental Museum,2164,museum,4171,de-l'esplanade ave,H2W 1S9,montréal,qc
Canadian Guild of Crafts,2165,gallery,1460,sherbrooke ouest,H3G 1K4,montréal,qc
Canadian Pacific Railway Archives,2200,library or archives,910,peel street,H3C 3E4,montréal,qc
Capucins Du Québec: Département D'Archives Provincial,2248,library or archives,3650,boulevard de la rousselière,H1A 2X9,montréal,qc
Centaur Theatre,2346,theatre/performance and concert hall,..,..,..,montréal,qc
Centrale Galerie Powerhouse,2373,gallery,4296,boulevard saint-laurent,H2W 1Z3,montréal,qc
Centre Émilie-Gamelin,2375,museum,12,rue 55,J9J 2L1,montréal,qc
Centre Bell,2381,miscellaneous,..,..,..,montréal,qc
Centre Canadien D'Architecture,2383,miscellaneous,..,..,..,montréal,qc
Centre Cinéma Impérial,2384,miscellaneous,..,..,..,montréal,qc
Centre Communautaire D'Anjou,2385,miscellaneous,7800,boulevard métropolitain est,H1K 1A1,anjou,qc
Centre Communautaire De L'Est,2386,miscellaneous,9665,boulevard gouin west,H8Y 1R4,montréal,qc
Centre Communautaire Elgar,2387,miscellaneous,260,rue elgar,H3E 1C9,montréal,qc
Centre Culturel De Pierrefonds,2391,art or cultural centre,13850,boulevard gouin ouest,H8Z 1X7,montréal,qc
Centre Culturel De Verdun,2393,art or cultural centre,5955,rue bannantyne,H4H 1H6,montréal,qc
