Facility_Name,Index,ODCAF_Facility_Type,Street_No,Street_Name,Postal_Code,City,Prov_Terr
Festival Halloween Mtl,3686,festival site,150,rue sainte-catherine o,H2X 3Y2,montréal,qc
Festival International De Jazz De Montréal,3694,festival site,..,..,H2X 3X5,montréal,qc
Festival International De La Littérature,3696,festival site,175,rue ste-catherine o,..,montréal,qc
Festival International Nuits D'Afrique,3700,festival site,1435,rue st-alexandre,H3A 2G4,montréal,qc
Festival Les Coups De Théâtre,3707,festival site,1345,lalonde av,H2L 5A9,montréal,qc
Festival Montréal Baroque,3714,festival site,6800,henri av,H2V 2V4,montréal,qc
Festival Mtl En Arts,3716,festival site,..,rue sainte-catherine e,H2L 2E1,montréal,qc
Festival Mutek,3720,festival site,..,..,H2X 3X5,montréal,qc
Festival Orientalys,3732,festival site,2,rue de-la-commune e,H2Y 0B1,montréal,qc
Festival Phénomena,3733,festival site,4848,boul saint-laurent,H2T 1R5,montréal,qc
Festival Quartiers Danses,3737,festival site,175,rue sainte-catherine,H2X 1Y9,montréal,qc
Festival Stop Motion Montréal,3741,festival site,1400,boul de-maisonneuve o,H3G 1M8,montréal,qc
Festival Transamériques,3743,festival site,175,rue ste-catherine o,H2X 1Z8,montréal,qc
Festival Vue Sur La Relève,3744,festival site,1182,boul saint-laurent,H2X 2S5,montréal,qc
Festival Yul Eat,3751,festival site,..,..,H3A 2G4,montréal,qc
Fleming Mill Interpretation Centre,3796,art or cultural centre,9675,boulevard lasalle,H8R 2N8,lasalle,qc
Fondation Daniel Langlois Pour L'Art La Science Et La Technologie,3808,museum,3530,boul saint-laurent,H2X 2V1,montréal,qc
Fondation Jean-Pierre Perreault,3812,library or archives,840,rue cherrier,H2L 1H4,montréal,qc
Fondation Lionel-Groulx,3813,library or archives,261,bloomfield avenue,H2C 3R6,outremont,qc
Fondation Phi Pour L'Art Contemporain,3814,miscellaneous,451,rue saint-jean,H2Y 2R5,montréal,qc
Galerie B-312,4039,gallery,372,rue ste-catherine o,H3B 1A2,montréal,qc
Galerie Blanc,4041,gallery,1116,ste catherine e,H2L 2G2,montréal,qc
Galerie Bloom,4042,gallery,224,rue st-paul o,H2Y 1Z9,montréal,qc
Galerie Corno,4045,gallery,51,rue saint-paul o,H2Y 1Z1,montréal,qc
Galerie Cosner,4046,gallery,1221,boul maisonneuve o,H3G 1M3,montréal,qc
Galerie Cosner Du Ritz-Carlton Montréal,4047,gallery,1260,rue sherbrooke o,H3G 1H6,montréal,qc
Galerie D'Art Carte Blanche,4049,gallery,1853,rue atateken,H2L 3L7,montréal,qc
Galerie D'Art D'Outremont,4052,gallery,41,saint-just avenue,H2V 4T7,montréal,qc
Galerie D'Art Goncourt,4073,gallery,75000,goncourt avenue,H1K 3X9,anjou,qc
Galerie D'Este,4095,gallery,4396,boul saint-laurent,H2W 1Z5,montréal,qc
Galerie De L'Uqam,4100,gallery,1400,rue berri,H2L 4E3,montréal,qc
Galerie Elca London,4106,gallery,1444,rue sherbrooke o,H3G 1K4,montréal,qc
Galerie Gora,4108,gallery,279,rue sherbrooke o,H2X 1Y2,montréal,qc
Galerie Got Montréal,4109,gallery,50,rue st-paul o,H2Y 1Y8,montréal,qc
Galerie Lacerte Art Contemporain,4115,gallery,6355,boul saint-laurent,H2S 3C3,montréal,qc
Galerie Laroche/Joncas,4116,gallery,372,rue ste-catherine o,H3B 1A2,montréal,qc
Galerie Le Luxart,4118,gallery,66,rue st-paul o,H2Y 1Y8,montréal,qc
Galerie Leonard & Bina Ellen,4119,gallery,1455,boul montréal ouest,H3G 1M8,montréal,qc
Galerie Michel-Ange,4121,gallery,430,rue bonsecours,H2Y 3C4,montréal,qc
Galerie Noel Guyomarc'H Bijoux D'Art,4129,gallery,4836,boul st-laurent,H2T 1R5,montréal,qc
Galerie Nuedge,4130,gallery,1480,rue sherbrooke o,H3G 1L3,montréal,qc
Galerie Port-Maurice,4132,gallery,8420,boulevard lacordaire,H1R 3G5,montréal,qc
Galerie Valentin,4144,gallery,372,laurier ave o,H2V 2K7,montréal,qc
Galerie Yellowkorner,4146,gallery,1382,rue sainte-catherine o,H3G 1P8,montréal,qc
Galeries Roger Bellemare Et Christian Lambert,4151,gallery,372,rue ste-catherine o,H3B 1A2,montréal,qc
Gesù- Centre De Créativité,4242,theatre/performance and concert hall,1200,rue de-bleury,H3B 3J3,montréal,qc
Gesàe,4243,miscellaneous,..,..,..,montréal,qc
Go Bike Montréal Festival,4289,festival site,1251,rue rachel est,H2J 2J9,montréal,qc
Grévin Montréal Museum,4331,museum,705,rue ste-catherine o,H3B 4G5,montréal,qc
