Facility_Name,Index,ODCAF_Facility_Type,Street_No,Street_Name,Postal_Code,City,Prov_Terr
Library And Archives Canada,5573,library or archives,395,wellington,K1A 0N4,ottawa,on
Log Farm (The),5667,miscellaneous,..,cedarview road,..,nepean,on
Log Shed,5668,museum,..,..,..,ottawa,on
Loretta Studios And Gallery,5689,gallery,131,loretta ave n,K1Y 2J7,ottawa,on
Lowrey's Roofing Specialists,5709,heritage or historic site,38,howden ave,K2G 3H6,ottawa,on
Métis Nation of Ontario Cultural Commission,5747,miscellaneous,500,old street,K1N 9G4,ottawa,on
Machinery Sheds: Reproduction,5758,museum,..,..,..,ottawa,on
Macmillan Drive Shed,5774,museum,..,..,..,ottawa,on
Main,5791,library or archives,120,metcalfe,K1P 5M2,ottawa,on
Mainville House,5798,museum,..,..,..,ottawa,on
Manotick,5938,library or archives,5499,south-river,K4M 1J3,ottawa,on
Manotick Art Association Gallery,5939,gallery,3320,paul dr,K1V 0J9,ottawa,on
Mark T. Brandt Architect & Associates,5975,heritage or historic site,112,nelson st,K1N 7R5,ottawa,on
Masc,6010,miscellaneous,..,..,..,ottawa,on
May Can Theatre,6034,theatre/performance and concert hall,..,..,..,ottawa,on
Mayfair Cinema,6038,theatre/performance and concert hall,..,..,..,ottawa,on
Metcalfe Village,6144,library or archives,2782,8th line,K0A 2P0,ottawa,on
Michael Gennis Gallery,6159,gallery,416,richmond road,K2A 0G2,ottawa,on
Mifo,6173,miscellaneous,..,..,..,ottawa,on
Modern Painting & Framing Shop,6238,gallery,1315,richmond rd,K2B 8J7,ottawa,on
Multi Service Restoration Ltd.,6373,heritage or historic site,1308,shillington ave,K1Z 8A5,ottawa,on
Munster,6379,library or archives,7749,bleeks,K0A 3P0,ottawa,on
Museum of Classical Antiquities,6711,museum,55,laurier ave east,K1N 6N5,ottawa,on
Music And Beyond,6748,miscellaneous,..,..,..,ottawa,on
Musica Viva Singers,6752,miscellaneous,..,..,..,ottawa,on
My Ww Gallery,6764,gallery,2525,lancaster rd,K1B 4L5,ottawa,on
National Arts Centre,6803,art or cultural centre,53,elgin,K1P 5W1,ottawa,on
National Capital Suzuki School of Music,6806,miscellaneous,..,..,..,ottawa,on
National Gallery of Canada - Musée Des Beaux-Arts Du Canada,6809,gallery,380,sussex dr,K1N 9N4,ottawa,on
Nature Museum,6820,museum,..,..,..,ottawa,on
Nepean Fine Arts League Gallery,6844,gallery,101,centrepointe dr,K2G 0B5,ottawa,on
Nepean Museum (Traszha Macdowall Community Building),6848,museum,..,..,..,ottawa,on
Nepean Visual Arts Centre,6849,museum,..,..,..,ottawa,on
Nevado Artistic Plaster Ltd.,6853,artist,22,cleopatra drive,K2G 0B3,ottawa,on
New Theatre of Ottawa,6877,theatre/performance and concert hall,..,..,..,ottawa,on
North Gloucester,6966,library or archives,2036,ogilvie,K1J 7N8,ottawa,on
North Gower,6967,library or archives,6579,fourth line,K0A 2T0,ottawa,on
Northern Art Glass Inc.,6996,heritage or historic site,955,gladstone avenue,K1Y 3E5,ottawa,on
Odyssey Theatre,7058,theatre/performance and concert hall,..,..,..,ottawa,on
Old Ottawa South Community Association (Osca),7092,miscellaneous,..,..,..,ottawa,on
One World Arts,7110,miscellaneous,..,..,..,ottawa,on
Ontario Iron Works Limited,7122,heritage or historic site,6933,mckeown drive,K4P 1A2,ottawa,on
Orange Art Gallery,7140,gallery,290,city ave,K1Y 2W5,ottawa,on
Orkidstra (Administered By the Leading Note Foundation),7148,miscellaneous,..,..,..,ottawa,on
Orleans,7150,library or archives,1705,orléans,K1C 4W2,ottawa,on
Osgoode,7157,library or archives,5630,osgoode,K0A 2W0,ottawa,on
Oto-Wa Taiko Group,7172,miscellaneous,..,..,..,ottawa,on
Ottawa Art Gallery,7177,gallery,2,daly ave,K1N 6E2,ottawa,on
Ottawa Art Gallery Annex,7179,gallery,110,laurier avenue west,K1P 1J1,ottawa,on
