Facility_Name,Index,ODCAF_Facility_Type,Street_No,Street_Name,Postal_Code,City,Prov_Terr
Rishworth Stained Glass,7825,heritage or historic site,153,preston st,K1R 7P6,ottawa,on
Rockcliffe Park,7864,library or archives,380,springfield,K1M 0L7,ottawa,on
Ron Maslin Playhouse,7887,theatre/performance and concert hall,..,..,..,ottawa,on
Rosemount Temporary Location,7903,library or archives,1207,wellington,K1Y 2Z8,ottawa,on
Rothwell Gallery,7924,gallery,1718,montréal rd,K1J 6N5,ottawa,on
Royal Canadian Geographical Society,7949,miscellaneous,1155,lola street,K1K 4C1,ottawa,on
Royal Canadian Mint,7951,museum,320,sussex drive,K1A 0G8,ottawa,on
Royal Cdn Mint Museum,7953,museum,..,..,..,ottawa,on
Ruth E. Dickinson,7988,library or archives,100,malvern,K2J 2G5,ottawa,on
Salamander Theatre For Young Audiences,8037,theatre/performance and concert hall,..,..,..,ottawa,on
Saw Gallery,8131,gallery,67,nicholas st,K1N 7B9,ottawa,on
Saw Video Media Art Centre,8134,art or cultural centre,..,..,..,ottawa,on
Sawmill: Reproduction,8136,museum,..,..,..,ottawa,on
Science & Technology Museum,8160,museum,..,..,..,ottawa,on
Scouts Canada National Museum,8174,museum,1345,baseline road,K2C 0A7,ottawa,on
Serbian Cultural Centre,8205,art or cultural centre,..,..,..,ottawa,on
Seventeen Voyces,8213,miscellaneous,..,..,..,ottawa,on
Shenkman Arts Centre,8247,theatre/performance and concert hall,..,..,..,ottawa,on
Silver City Cinema,8279,theatre/performance and concert hall,..,..,..,ottawa,on
"Singhal Family Theatre, Richcraft Hall, Carleton University",8294,theatre/performance and concert hall,43,campus ave,K1S 5B6,ottawa,on
Skate Canada Hall of Fame & Museum,8330,museum,1200,saint-laurent blvd,K1K 3B8,ottawa,on
Snow Goose Gallery,8347,gallery,83,sparks st,K1P 5A5,ottawa,on
South Keys 12,8409,theatre/performance and concert hall,..,..,..,ottawa,on
Spao Centre Gallery,8434,gallery,77,pamilla st,K1S 3K7,ottawa,on
Spratt Grier Privy: Reproduction,8448,museum,..,..,..,ottawa,on
Spratt-Grier House,8449,museum,..,..,..,ottawa,on
St-Laurent,8481,library or archives,515,côté,K1K 0Z8,ottawa,on
Stables Art Studio,8562,museum,..,..,..,ottawa,on
Stafford Studios,8563,museum,..,..,..,ottawa,on
Stained Glass Stuff,8566,heritage or historic site,911,richmond road,K2A 0G8,ottawa,on
Stittsville,8628,library or archives,1637,stittsville,K2S 1A9,ottawa,on
Stittsville Museum,8629,museum,..,..,..,ottawa,on
Strings of St. John's Chamber Orchestra,8666,miscellaneous,..,..,..,ottawa,on
Studio Gallery,8671,gallery,1701,woodroffe ave,K2G 0C4,ottawa,on
Studio Sixty Six,8675,gallery,66,muriel st,K1S 4E1,ottawa,on
Sunnyside,8712,library or archives,1049,bank,K1S 3W9,ottawa,on
Tactics,8751,miscellaneous,..,..,..,ottawa,on
Tangent Building Systems Inc.,8755,heritage or historic site,65,bentley avenue,K2E 8B4,ottawa,on
Tara Luz Danse,8760,miscellaneous,..,..,..,ottawa,on
Tay Gallery Kanata,8771,gallery,471,hazeldean rd,K2L 4B8,ottawa,on
Taylor Barn,8773,museum,..,..,..,ottawa,on
Théâtre Action,8832,theatre/performance and concert hall,..,..,..,ottawa,on
Théâtre Belvédère,8837,theatre/performance and concert hall,..,..,..,ottawa,on
Théâtre La Catapulte,8880,theatre/performance and concert hall,..,..,..,ottawa,on
Théâtre Rouge Écarlate,8899,theatre/performance and concert hall,..,..,..,ottawa,on
The Gladstone Theatre,8954,theatre/performance and concert hall,..,..,..,ottawa,on
The Natalie Stern Studio Theatre,8988,theatre/performance and concert hall,..,..,..,ottawa,on
The Royal Heraldry Society of Canada,9012,miscellaneous,..,..,K1G 3H9,ottawa,on
The School of Dance,9016,miscellaneous,..,..,..,ottawa,on
