Facility_Name,Index,ODCAF_Facility_Type,Street_No,Street_Name,Postal_Code,City,Prov_Terr
10 Gates Dancing Inc.,5,miscellaneous,..,..,..,ottawa,on
A Company of Fools Theatre Inc.,85,theatre/performance and concert hall,..,..,..,ottawa,on
Adams & Kennedy - the Wood Source,122,heritage or historic site,6178,mitch road,..,ottawa,on
Agriculture Museum,156,museum,..,..,..,ottawa,on
Algonquin College Museum,232,museum,..,..,K2G 1V8,nepean,on
Algonquin Commons Theatre,233,theatre/performance and concert hall,1385,woodroffe ave,K2G 1V8,ottawa,on
Alliance Culturelle De L'Ontario,253,miscellaneous,..,..,..,ottawa,on
Alta Vista,261,library or archives,2516,alta vista,K1V 7T1,ottawa,on
Anglican Diocese of Ottawa Archives,292,museum,71,bronson ave,K1R 6G6,ottawa,on
Aoe Arts Council,319,miscellaneous,..,..,..,ottawa,on
Aoe Gallery,320,gallery,245,centrum blvd,K1E 0A1,ottawa,on
Archives And Research Collections Carleton University Macodrum Library,339,library or archives,1125,colonel drive,K1S 5B6,ottawa,on
Archives De L'Archidiocèse D'Ottawa,343,museum,1247,kilborn place,K1H 6K9,ottawa,on
Archives De L'Institut Canadien-Français D'Ottawa,344,library or archives,316,dalhousie street,K1N 7E7,ottawa,on
Archives De L'Université St-Paul,345,museum,175,main street,K1S 1C3,ottawa,on
Archives Deschâtelets,354,library or archives,175,main street,K1S 1C3,ottawa,on
Art Flow Gallery,398,gallery,838,somerset st w,K1R 6R7,ottawa,on
Arteast,450,miscellaneous,..,..,..,ottawa,on
Arteast François Dupuis Gallery,451,gallery,2263,portobello blvd,K4A 0R5,ottawa,on
Artengine,453,miscellaneous,..,..,..,ottawa,on
Artists of Stonebridge Gallery,480,gallery,3500,cambrian rd,K2J 0V1,ottawa,on
Artists' Centre D'Artistes Ottawa Inc. (Gallery 101),481,gallery,236,nepean st,K2P 0B8,ottawa,on
Arts Court,494,theatre/performance and concert hall,..,..,..,ottawa,on
Arts Court Theatre,495,theatre/performance and concert hall,2,daly ave,K1N 6E2,ottawa,on
Arts&Architecture,501,gallery,1181,bank street,K1S 3X7,ottawa,on
Asbex Ltd.,509,heritage or historic site,2710,lancaster road,K1B 4W8,ottawa,on
Association Des Auteures Et Auteurs De L'Ontario Français,521,miscellaneous,..,..,..,ottawa,on
Association Des Professionels De La Chanson Et De La Musique (Apcm),522,miscellaneous,..,..,..,ottawa,on
Atkinson Stonecraft Masonry Ltd.,549,heritage or historic site,191,strathcona avenue,K1S 1X7,ottawa,on
Atrium Art Gallery,558,gallery,101,centrepointe dr,K2G G5K,ottawa,on
Audio-Visual Sector National Archives of Canada Cartographic And Audio-Visual Archives Division,566,library or archives,344,rue wellington,K1A 0N4,ottawa,on
Avalon Theatre,578,theatre/performance and concert hall,738,bank st,K1S 3V4,ottawa,on
Aviation Museum,584,museum,..,..,..,ottawa,on
B. J. Normand Ltd,599,heritage or historic site,3200,swansea crescent,K1G 3W4,ottawa,on
Bandstand: Reproduction,626,museum,..,..,..,ottawa,on
Bank of Canada Museum,630,museum,30,bank st,K1A 0G9,ottawa,on
Baobab Tree Community,641,miscellaneous,..,..,..,ottawa,on
Barbara Ann Scott Gallery,643,gallery,110,laurier ave w,K1P 1J1,ottawa,on
Barry J Hobin. & Associates,663,heritage or historic site,63,pamilla street,K1S 3K7,ottawa,on
Barry Padolsky & Associates,664,heritage or historic site,377,dalhousie street,K1N 9N8,ottawa,on
Beaverbrook,731,library or archives,2500,campeau,K2K 2W3,ottawa,on
Bernard Poulin Studios,764,gallery,20,the driveway,K2P 1V2,ottawa,on
Billings Estate Museum,1761,museum,..,..,..,ottawa,on
Billings Estate National Historic Site,1770,museum,2100,cabot dr,K1H 6K1,ottawa,on
Blackburn Hamlet,1811,library or archives,199,glen park,K1B 5B8,ottawa,on
Blacksmith Shop: Reproduction,1814,museum,..,..,..,ottawa,on
Blink Gallery,1819,gallery,1,patrick st,K1N 9N4,ottawa,on
Britannia Art Gallery,1937,gallery,2728,howe street,K2B 6W8,ottawa,on
Bytown Gunners' Firepower Museum (30th Field Regtiment.),2030,museum,307,deniverville uplands,K1A 0K2,ottawa,on
