Facility_Name,Index,ODCAF_Facility_Type,Street_No,Street_Name,Postal_Code,City,Prov_Terr
Bytowne Cinema,2034,theatre/performance and concert hall,..,..,..,ottawa,on
Cada Constructions Inc,2053,heritage or historic site,854,boyd avenue,K2A 2E1,ottawa,on
Cameron Highlanders Ottawa Regimental Museum,2092,museum,..,..,K1A 0K2,ottawa,on
Canada Agriculture And Food Museum,2112,museum,..,..,K1G 5A3,ottawa,on
Canada Agriculture Museum,2113,museum,..,..,K1G 5A3,ottawa,on
Canada Science And Technology Museum,2117,museum,1867,st-laurent blvd,K1G 5A3,ottawa,on
Canada Science And Technology Museums Corporation,2119,museum,2380,lancaster rd,K1G 5A3,ottawa,on
Canadensis Botanical Garden Society,2125,miscellaneous,..,..,..,ottawa,on
Canadian Art Museum Directors Organization (Camdo-Odmac),2129,museum,280,metcalfe st,K2P 1R7,ottawa,on
Canadian Centennial Choir,2141,miscellaneous,..,..,..,ottawa,on
Canadian Conservation Institute,2149,miscellaneous,1030,innes rd,K1B 4S7,ottawa,on
Canadian Museum of Nature,2193,museum,240,mcleod st,K2P 2R1,ottawa,on
Canadian War Museum,2210,museum,1,vimy place,K1A 0M8,ottawa,on
Cantata Singers of Ottawa,2226,miscellaneous,..,..,..,ottawa,on
Carleton University Art Gallery,2272,gallery,1125,colonel dr,K1S 5B6,ottawa,on
Carleton University Choir,2274,miscellaneous,..,..,..,ottawa,on
Carlingwood,2276,library or archives,281,woodroffe,K2A 3W4,ottawa,on
Carp,2297,library or archives,3911,carp,K0A 1L0,ottawa,on
Centennial,2347,library or archives,3870,old richmond,K2H 5C4,ottawa,on
Central Art Garage,2357,gallery,66,lebreton st n,K1R 7H3,ottawa,on
Centre De Recherche En Civilisation Canadienne-Française Université D'Ottawa,2526,library or archives,65,rue université,K1N 6N5,ottawa,on
Centrepointe Theatre,2560,theatre/performance and concert hall,101,centrepointe dr,K2G G5K,ottawa,on
Centrepointe Theatre Gallery,2561,gallery,..,..,..,ottawa,on
Chamberfest,2576,miscellaneous,..,..,..,ottawa,on
Chinatown Remixed Collective,2643,miscellaneous,..,..,..,ottawa,on
Chuo 89.1Fm,2666,miscellaneous,..,..,..,ottawa,on
Cineplex Odeon Barrhaven Cinemas,2691,theatre/performance and concert hall,..,..,..,ottawa,on
City of Ottawa Archives,2719,library or archives,100,tallwood dr,K2G 4R7,ottawa,on
City of Ottawa Art Collection,2720,gallery,172,guigues avenue,K1N 5H9,ottawa,on
CNR Caboose,2775,museum,..,..,..,ottawa,on
Cohen And Cohen,2797,heritage or historic site,92,bentley avenue,K2E 6T9,ottawa,on
Coliseum 12,2812,theatre/performance and concert hall,..,..,..,ottawa,on
Colizza Bruni Architecture,2813,heritage or historic site,76,chamberlain avenue,K1S 1V9,ottawa,on
Constance Bay,2865,library or archives,262,len purcell,K0A 3M0,ottawa,on
Coro Vivo Ottawa Inc.,2891,miscellaneous,..,..,..,ottawa,on
Council of Heritage Organizations In Ottawa The,2920,heritage or historic site,280,metcalfe st,K2P 1R7,ottawa,on
Créations In Vivo,2944,miscellaneous,..,..,..,ottawa,on
Craig Johnson Restoration Ltd.,2949,heritage or historic site,1541,star road,K1B 5W5,ottawa,on
Crichton St Gallery,2975,gallery,299,crichton st,K1M 1W3,ottawa,on
Csv Consultants Inc,2989,heritage or historic site,1066,somerset street west,K1Y 4T3,ottawa,on
Cube Gallery,2990,gallery,1285,wellington st w,K1Y 3A8,ottawa,on
Cumberland,2996,library or archives,1599,tenth line,K1E 3E8,ottawa,on
Cumberland Gallery,2999,gallery,..,..,..,ottawa,on
Cumberland Heritage Village Museum,3002,museum,2940,old montréal rd,K4C 1E6,ottawa,on
Cumberland Museum - Washrooms/Canteen,3004,museum,..,..,..,ottawa,on
Cumberland Town Hall,3007,theatre/performance and concert hall,..,..,..,ottawa,on
Cumberland Township Historical Society,3008,heritage or historic site,1599,tenth line  road,K1E 3E8,ottawa,on
Cumberland Village Heritage Museum,3009,museum,..,..,..,ottawa,on
Currency Museum,3016,museum,..,..,..,ottawa,on
