Facility_Name,Index,ODCAF_Facility_Type,Street_No,Street_Name,Postal_Code,City,Prov_Terr
Royal Alexandra Theatre,7941,theatre/performance and concert hall,260,king st w,M5V 1H9,toronto,on
Royal Canadian Military Institute,7950,museum,426,university ave,M5G 1S9,toronto,on
Royal Ontario Museum,7966,museum,100,queen's park,M5S 2C6,toronto,on
Runnymede,7980,library or archives,2178,bloor street west,M6S 1M8,toronto,on
Ryerson Image Centre,8000,gallery,33,gould st,M5B 1E9,toronto,on
Ryerson Theatre,8001,theatre/performance and concert hall,43,gerrard st e,..,toronto,on
Ryerson Theatre School,8002,theatre/performance and concert hall,44,gerrard st e,M5B 1G3,toronto,on
Ryerson University Archives,8003,library or archives,350,victoria street,M5B 2X3,toronto,on
S. Walter Stewart,8004,library or archives,170,memorial park ave,M4J 2K5,toronto,on
Sanderson,8098,library or archives,327,bathurst street,M5T 1J1,toronto,on
Sandra Ainsley Gallery,8101,gallery,55,mill st,M5A 3C4,toronto,on
Sarah And Chaim Neuberger Holocaust Education Centre,8105,museum,4600,bathurst st,M2R 3V3,toronto,on
Sathiya Sai Baba Cultural Centre,8120,art or cultural centre,5321,finch ave e,M1S 5W2,toronto,on
"Scarborough Arts, Harrison Estate Grounds, the Bluffs Gallery",8143,gallery,1859,kingston rd,M1N 1T3,toronto,on
Scarborough Civic Centre,8144,library or archives,156,borough dr,M1P 4N7,toronto,on
Scarborough Film Festival,8145,festival site,2236,queen street east,..,toronto,on
Scarborough Historical Museum,8147,museum,1007,brimley rd,M1P 3E8,toronto,on
Scarborough Historical Society - Morrish Store,8148,heritage or historic site,6282,kingston rd,M1C 1K9,toronto,on
Scarborough Philharmonic Orchestra,8151,miscellaneous,3007,kingston road,..,toronto,on
Scarborough Town Jazz,8152,miscellaneous,100,consilium place,..,toronto,on
Scarborough Village Theatre,8154,theatre/performance and concert hall,3600,kingston road,..,toronto,on
Scotiabank Theatre,8166,theatre/performance and concert hall,259,richmond st w,M5V 3M6,toronto,on
Sculptors Society of Canada,8179,miscellaneous,1,wiltshire avenue,M6N 2V7,toronto,on
Second City Training Centre (John Candy Box Theatre),8191,theatre/performance and concert hall,70,peter st,M5V 2G5,toronto,on
Shadowland Theatre,8222,theatre/performance and concert hall,20,fifth st,M5J 2B9,toronto,on
Sherway Gardens (Gallery In the Garden),8256,gallery,25,the west mall,M9C 1B8,toronto,on
Show Gallery,8263,gallery,978,queen st w,M6J 1H1,toronto,on
Sirius Theatrical Company,8307,miscellaneous,119,mimico ave,..,toronto,on
Six20Seven (Norman Felix Gallery),8328,gallery,627,queen st w,M5V 2B7,toronto,on
Smith Zone Gallery,8338,gallery,..,..,..,toronto,on
Solar Stage Children's Theatre,8383,theatre/performance and concert hall,4950,yonge st,M2N 6K1,toronto,on
Soldiers' Tower Memorial Room,8384,miscellaneous,21,king's circle,M5S 3J3,toronto,on
Sole Gallery,8385,gallery,9,ossington ave,M6J 2Y8,toronto,on
South Asian Visual Arts Centre,8395,gallery,401,richmond street west,M5V 3A8,toronto,on
Spadina Museum,8428,museum,285,spadina rd,M5R 2V5,toronto,on
Spadina Road,8431,library or archives,10,spadina road,M5R 2S7,toronto,on
Spazio Dell'Arte Gallery,8437,gallery,400,eastern ave,M4M 1B9,toronto,on
Spence Gallery,8439,gallery,600,markham st,M6G 2L8,toronto,on
Sport Gallery,8446,gallery,55,mill st,M5A 3C4,toronto,on
"St Lawrence Centre For the Arts (Bluma Appel Theatre, Jane Mallett Theatre)",8478,theatre/performance and concert hall,27,front st e,M5E 1B4,toronto,on
St. Chads Anglican Church (Theatre),8503,theatre/performance and concert hall,1695,dufferin st,M6E 3N9,toronto,on
St. Clair/Silverthorn,8505,library or archives,1748,st-clair ave west,M6N 1J3,toronto,on
St. James Town,8520,library or archives,495,sherbourne street,M4X 1K7,toronto,on
St. Lawrence,8529,library or archives,171,front street east,M5A 4H3,toronto,on
St. Mark's Coptic Museum,8537,museum,41,glendinning avenue,M1W 3E2,scarborough,on
St. Michael's College (Alumni Hall Theatre),8545,theatre/performance and concert hall,12,joseph st,M4Y 1J7,toronto,on
State of the Art Gallery,8576,gallery,1541,bayview ave,M4G 3B5,toronto,on
Steeles,8600,library or archives,375,bamburgh circle,M1W 3Y1,toronto,on
Stephen Bulger Gallery,8607,gallery,1026,queen st w,M6J 1H6,toronto,on
