Facility_Name,Index,ODCAF_Facility_Type,Street_No,Street_Name,Postal_Code,City,Prov_Terr
Cedarbrae,2340,library or archives,545,markham road,M1H 2A1,toronto,on
Centennial,2348,library or archives,578,finch ave west,M2R 1N7,toronto,on
Centennial College of Applied Arts And Technology,2350,library or archives,941,progress avenue,M1L 3Z5,toronto,on
Central Commerce Collegiate Theatre,2361,theatre/performance and concert hall,570,shaw st,M6G 3L6,toronto,on
Central Technical High School (Art Centre),2371,art or cultural centre,725,bathurst st,M5S 2R5,toronto,on
Centre For Addiction And Mental Health (Workman Theatre),2537,theatre/performance and concert hall,1001,queen st w,M6J 1H4,toronto,on
Charlie's Gallery,2615,gallery,112,harbord st,M5S 1G6,toronto,on
"Children's Peace Theatre, Goulding Estate",2639,theatre/performance and concert hall,305,dawes rd,M4B 2E2,toronto,on
"Chinese Cultural Centre of Greater Toronto (P.C. Ho Theatre, Hin-Shiu Hung Art Gallery)",2647,gallery,5183,sheppard ave e,M1B 5Z5,toronto,on
Christopher Cutts Gallery,2664,gallery,21,morrow ave,M6R 2H9,toronto,on
City of Toronto Archives,2722,library or archives,255,spadina road,M5R 2V3,toronto,on
City of Toronto Museums & Heritage Services,2723,museum,55,john st,M5V 3C6,toronto,on
Clara Thomas Archives And Special Collections,2731,library or archives,305,scott street,M3J 1P3,toronto,on
Clarington Public Library - Orono Branch,2742,library or archives,127,church st,L0B 1M0,orono,on
Cliffcrest,2760,library or archives,3017,kingston road,M1M 1P1,toronto,on
Clint Roenisch Gallery,2764,gallery,944,queen st w,M6J 1G8,toronto,on
Coalition Music,2779,miscellaneous,1731,lawrence avenue east,..,toronto,on
Cobalt Gallery,2785,gallery,870,kingston rd,M4E 1S3,toronto,on
Colborne Lodge,2799,museum,11,colborne dr,..,toronto,on
Collections And Conservation Centre,2820,miscellaneous,55,john st,M5V 3C6,toronto,on
College/Shaw,2822,library or archives,766,college street,M6G 1C4,toronto,on
Columbus Centre (Joseph D. Carrier Art Gallery),2830,gallery,901,lawrence ave w,M6A 1C3,toronto,on
Communication Art Gallery,2839,gallery,209,harbord st,M5S 1H6,toronto,on
Community Arts Guild,2842,miscellaneous,..,..,..,toronto,on
Convenience Gallery,2871,gallery,58,lansdowne ave,M6K 2V9,toronto,on
Corkin Gallery,2881,gallery,7,tank lane,M5A 3C4,toronto,on
Craft Ontario,2947,gallery,1106,queen st west,M6J 1H9,toronto,on
Craig Scott Gallery,2950,gallery,95,berkeley st,M5A 2W8,toronto,on
Creative Spirit Art Centre,2964,art or cultural centre,999,dovercourt rd,M6H 2X7,toronto,on
Crescent School (Centre For Creative Learning Theatre),2969,theatre/performance and concert hall,2365,bayview ave,M2L 1A2,toronto,on
Crow's Theatre,2983,theatre/performance and concert hall,87,ravina cres,M4J 3L9,toronto,on
Danforth Music Hall Theatre,3041,theatre/performance and concert hall,147,danforth ave,M4K 1N2,toronto,on
Danforth/Coxwell,3042,library or archives,1675,danforth ave,M4C 5P2,toronto,on
Davenport,3053,library or archives,1246,shaw street,M6G 3P1,toronto,on
David Gibson House Museum,3057,museum,5172,yonge st,M2N 5P6,toronto,on
David Kaye Gallery,3058,gallery,1092,queen st w,M6J 1H9,toronto,on
David Scott Gallery,3062,gallery,11,strickland ave,M6K 3E6,toronto,on
Dawes Road,3064,library or archives,416,dawes road,M4B 2E8,toronto,on
De Luca Fine Art Gallery,3073,gallery,217,avenue rd,M5R 2J3,toronto,on
Deer Park,3084,library or archives,40,st-clair ave e,M4T 1M9,toronto,on
Delaware Fn,3086,library or archives,..,center rd,N0P 2K0,thamesville,on
Design Exchange,3106,museum,234,bay st,..,toronto,on
Distillery Historic District,3131,library or archives,55,mill street,M5A 3C4,toronto,on
Dna Theatre,3136,theatre/performance and concert hall,133,bathurst st,M5V 2R2,toronto,on
Dominion Modern: Museum of Modern Architecture & Design,3153,museum,401,richmond street west,M5V 3A8,toronto,on
Don Mills,3157,library or archives,888,lawrence ave east,M3C 1P6,toronto,on
Doris Mccarthy Gallery (Dmg),3169,gallery,1265,military trail,..,toronto,on
Downsview,3193,library or archives,2793,keele street,M3M 2G3,toronto,on
Dufferin/St. Clair,3228,library or archives,1625,dufferin street,M6H 3L9,toronto,on
