Facility_Name,Index,ODCAF_Facility_Type,Street_No,Street_Name,Postal_Code,City,Prov_Terr
#Hashtag Gallery,1,gallery,801,dundas st w,M6J 1V2,toronto,on
"2 of 2 Gallery, Pari Nadimi Gallery",22,gallery,254,niagara st,M6J 2L8,toronto,on
48th Highlanders Museum,33,museum,73,simcoe street,M5J 1W9,toronto,on
A Space Gallery,87,gallery,401,richmond st w,M5V 3A8,toronto,on
Acoustic Harvest Folk Club,118,miscellaneous,1512,kingston road,..,toronto,on
Aerospace Heritage Foundation of Canada,134,museum,..,..,M9A 4X2,etobicoke,on
Aga Khan Museum,137,museum,77,wynford dr,M3C 1K1,toronto,on
Agincourt,142,library or archives,155,bonis ave,M1T 3W6,toronto,on
Ago Art Rental + Sales Gallery,152,gallery,481,university ave,M5G 2H4,toronto,on
Akasha Art Projects Gallery,171,gallery,511,church st,M4Y 2C9,toronto,on
Al Green Sculpture Gallery,172,gallery,64,merton st,M4S 1A1,toronto,on
"Al Green Theatre, Miles Nadal Jewish Community Centre",173,theatre/performance and concert hall,750,spadina ave,M5S 2J2,toronto,on
Albert Campbell,178,library or archives,496,birchmount road,M1K 1N8,toronto,on
Albion,207,library or archives,1515,albion road,M9V 1B2,toronto,on
Alderwood,218,library or archives,2,orianna drive,M8W 4Y1,toronto,on
Alison Milne Gallery,244,gallery,198,walnut ave,M6J 2N6,toronto,on
Allan Gardens Conservatory,249,heritage or historic site,19,horticultural avenue,M5A 2P2,toronto,on
Alliance Francaise De Toronto (Pierre-Leon Downtown Gallery),255,gallery,24,spadina rd,M5R 2S7,toronto,on
Alumnae Theatre,264,theatre/performance and concert hall,70,berkeley st,M5A 2W6,toronto,on
Aluna Theatre,265,theatre/performance and concert hall,1,wiltshire ave,M6N 2V7,toronto,on
Amesbury Park,270,library or archives,1565,lawrence ave w,M6L 1A8,toronto,on
Angell Gallery,285,gallery,12,ossington ave,M6J 2Y7,toronto,on
Anglican Church of Canada General Synod Archives,288,museum,80,hayden street,M4Y 3G2,toronto,on
Anglican Diocese of Toronto Archives,293,library or archives,135,adelaide street east,M5C 1L8,toronto,on
Annette Street,308,library or archives,145,annette street,M6P 1P3,toronto,on
Anoush Gallery,309,gallery,75,kensington ave,M5T 2K2,toronto,on
Applewood the Shaver Homestead,324,heritage or historic site,450,the west mall,M9C 1E9,etobicoke,on
Arcadia Art Gallery And Co-Op,330,gallery,680,queens w,M5V 2Y9,toronto,on
Archive Gallery Inc.,338,gallery,56,berkeley st,M5A 2W6,toronto,on
Archives of Jesuits In Canada,359,library or archives,43,queen's park cres e,M5S 2C3,toronto,on
Archives of Ontario,361,library or archives,134,boulevard ian,M7A 2C5,toronto,on
Archives of the Institute of the Blessed Virgin Mary,365,museum,101,mason blvd,M5M 3E2,toronto,on
Archives of the Roman Catholic Archdiocese of Toronto (Arcat),366,library or archives,1155,yonge street,M4T 1W2,toronto,on
Archives of Women's College Hospital,368,library or archives,76,grenville street,M5S 1B2,toronto,on
Armour Heights,379,library or archives,2140,avenue road,M5M 4M7,toronto,on
Art Gallery of Ontario,428,gallery,317,dundas st w,M5T 1G4,toronto,on
Art Gallery of York University,439,gallery,4700,keele st,M3J 1P3,toronto,on
Art Metropole,441,gallery,1490,dundas street w,M6K 1T5,toronto,on
Art Side Out,443,miscellaneous,..,..,..,toronto,on
Art Square Gallery And Caf√©,445,gallery,334,dundas st w,M5T 1G5,toronto,on
"Arta Gallery, Distillery District",449,gallery,55,mill st,M5A 3C4,toronto,on
Articsok Gallery,458,gallery,1697,st-clair ave w,M6N 1J2,toronto,on
Articulations: Earl Selkirk Gallery,459,gallery,2928,dundas st w,M6P 1Y8,toronto,on
Artists 25 Studio,477,artist,267,brock ave,M6K 2M3,toronto,on
Arts Etobicoke Gallery,497,gallery,4893,dundas st w,M9A 1B2,toronto,on
Arts Inter-Media Canada / Dance Collection Danse,498,art or cultural centre,149,church street,M5B 1Y4,toronto,on
Artscape Triangle Gallery,502,gallery,38,abell st,M6J 0A2,toronto,on
Artscape Wychwood Barns (Theatre Direct),503,theatre/performance and concert hall,76,wychwood ave,M6G 2X7,toronto,on
Assembly Hall,514,miscellaneous,1,colonel samuel smith park dr,..,toronto,on
