Facility_Name,Index,ODCAF_Facility_Type,Street_No,Street_Name,Postal_Code,City,Prov_Terr
George Ignatieff Theatre,4231,theatre/performance and concert hall,15,devonshire pl,..,toronto,on
Gerrard/Ashdale,4240,library or archives,1432,gerrard street east,M4L 1Z6,toronto,on
Gibsone Jessop Gallery,4248,gallery,55,mill st,M5A 3C4,toronto,on
"Glen Morris Studio Theatre, University of Toronto",4271,theatre/performance and concert hall,4,glen st,M5S 1J1,toronto,on
"Glendon Gallery And Theatre, York University",4276,gallery,2275,bayview ave,M4N 3M6,toronto,on
Goethe-Institut Inter Nationes,4293,art or cultural centre,163,king street west,M5H 4C6,toronto,on
Gold Picture Frames Gallery Wall,4296,gallery,3083,kingston road,..,toronto,on
Goldhawk Park,4302,library or archives,295,alton circle,M1V 4P1,toronto,on
Goodfellas Gallery,4304,gallery,1266,queen st w,M6K 1L3,toronto,on
Grange (The),4359,miscellaneous,317,dundas street,M5T 1G4,toronto,on
Guild Alive With Culture,4437,miscellaneous,..,..,..,toronto,on
Guild Festival Theatre,4438,theatre/performance and concert hall,201,guildwood parkway,..,toronto,on
Guildwood,4443,library or archives,123,guildwood parkway,M1E 4V2,toronto,on
Hamazkayin Theatre,4486,theatre/performance and concert hall,50,hallcrown pl,M2J 1P7,toronto,on
Hangman Art Gallery (Artists' Network Initiative),4507,gallery,756,queen st e,M4M 1H4,toronto,on
"Harbourfront Centre - York Quay Centre (Studio Theatre, Brigantine Room, Marilyn Brewer Community Space, Lakeside Terrace, Miss Lou's Room)",4518,theatre/performance and concert hall,235,queens w,M5J 2G8,toronto,on
"Hart House (Library, Map Room, Theatre, Arbor Room, East Common Room, Music Room, Great Hall, Barnicke Gallery)",4532,gallery,7,hart crcl,M5S 3H3,toronto,on
Havergal College Archives,4548,library or archives,1451,avenue road,M5N 2H9,toronto,on
Healthy Living Through Art,4569,miscellaneous,225,morningside avenue,..,toronto,on
Heritage Toronto,4693,heritage or historic site,157,king street east,M5C 1G9,toronto,on
High Park,4711,library or archives,228,roncesvalles ave,M6R 2L7,toronto,on
High Park & Ampitheatre,4712,theatre/performance and concert hall,1873,bloor st w,..,toronto,on
Highland Creek,4718,library or archives,3550,ellesmere road,M1C 3Z2,toronto,on
Hillcrest,4724,library or archives,5801,leslie street,M2H 1J8,toronto,on
Historic Zion Schoolhouse,4742,museum,1091,finch ave e,M2J 2X3,toronto,on
Historica Canada,4743,heritage or historic site,2,carlton street east,M5B 1J3,toronto,on
Hockey Hall of Fame,4750,museum,30,yonge street,M5E 1X8,toronto,on
Hollander York Gallery,4755,gallery,110,yorkville ave,M5R 1B9,toronto,on
Hospital For Sick Children Library And Archives,4782,library or archives,555,university avenue,M5G 1X8,toronto,on
Humber Bay,4805,library or archives,200,park road,M8Y 3J1,toronto,on
Humber Summit,4807,library or archives,2990,islington ave,M9L 2K6,toronto,on
Humber Theatre,4808,theatre/performance and concert hall,3199,lake blvd w,M8V 1K8,toronto,on
Humberwood,4809,library or archives,850,humberwood blvd,M9W 7A6,toronto,on
I.M.A. Gallery (Ryerson Student Gallery),4829,gallery,80,spadina ave,M5V 2J4,toronto,on
Impatient Theatre Co. Studio,4853,theatre/performance and concert hall,439,wellington st w,M5V 1E7,toronto,on
Impromptu Gallery,4856,gallery,2861,dundas st w,M6P 1Y9,toronto,on
"Index G Artshops (Chinese Contemporary Xchange, Lee Ka-Sing Gallery)",4860,gallery,50,gladstone ave,M6J 3K6,toronto,on
Ingram Gallery,4870,gallery,49,avenue rd,M5R 2G3,toronto,on
Isabel Bader Theatre,4915,theatre/performance and concert hall,93,charles st w,..,toronto,on
Islamic Museum,4918,museum,328,passmore ave,M1V 5J5,toronto,on
Ix Gallery And Event Place,4924,gallery,11,davies ave,M4M 2A9,toronto,on
Jacob Gallery,4940,gallery,388,richmond st w,M5V 3P1,toronto,on
Jane Corkin Gallery,4950,gallery,179,john st,M5T 1X4,toronto,on
Jane/Dundas,4951,library or archives,620,jane street,M6S 4A6,toronto,on
Jane/Sheppard,4952,library or archives,1906,sheppard ave west,M3L 1Y7,toronto,on
Japan Foundation,4955,museum,2,bloor st e,M4W 1A8,toronto,on
Japanese Canadian Cultural Centre,4956,art or cultural centre,6,garamond crt,M3C 1Z5,toronto,on
Joan Baillie Archives of the Canadian Opera Company,4979,library or archives,227,front street east,M5A 1E8,toronto,on
John Baird Gallery,4988,gallery,900,bay st,M7A 1L2,toronto,on
