Facility_Name,Index,ODCAF_Facility_Type,Street_No,Street_Name,Postal_Code,City,Prov_Terr
2 For Art,21,museum,177,lakeshore rd e,L5G 4T9,mississauga,on
A2D2 Inc. - Aerial Dance Cirque Company,92,theatre/performance and concert hall,1095,strathy ave,L5E 2K1,mississauga,on
Adamason Estate Main House,121,heritage or historic site,850,enola,..,mississauga,on
Art Golf Classics,440,artist,10,hurontario st,L5G 3G7,mississauga,on
Benares Historic House,753,museum,1507,clarkson,..,mississauga,on
Brampton Music Theatre,1907,theatre/performance and concert hall,6625,tomken rd,L5T 2C2,brampton,on
Burnhamthorpe Library,2020,library or archives,..,..,..,mississauga,on
Carolyn's Model And Talent Agency Ltd,2296,artist,1965,britannia rd w,L5M 4Y4,mississauga,on
Cawthra Elliot Estate,2332,heritage or historic site,1507,cawthra,..,mississauga,on
Chappell Estate,2607,heritage or historic site,4300,riverwood park,..,mississauga,on
Churchill Meadows Branch Library And Active Living Centre,2671,library or archives,3801,thomas st,L5M 7G2,mississauga,on
Cineplex Odeon,2690,theatre/performance and concert hall,110,courtneypark dr e,L5T 2Y3,mississauga,on
Clarkson Library,2745,library or archives,..,..,..,mississauga,on
Cooksville Library,2875,library or archives,3024,hurontario st,L5B 4M4,mississauga,on
Courtney Park Library,2933,library or archives,730,courtneypark dr w,L5W 1L9,mississauga,on
Denz Studio,3099,artist,2840,argentia rd,L5N 8G4,mississauga,on
Erin Meadows Library,3455,library or archives,2800,erin blvd,L5M 6R5,mississauga,on
Frank Mckechnie Library,3963,library or archives,310,bristol rd e,L4Z 3V5,mississauga,on
German Heritage Museum,4239,museum,6650,hurontario st,L5M 2B5,mississauga,on
Heritage Mississauga,4652,heritage or historic site,1921,dundas st w,L5K 1R2,mississauga,on
Laidlaw Hall,5347,gallery,4141,living arts,..,mississauga,on
Lakeview Library,5365,library or archives,1110,atwater ave,L5E 1M9,mississauga,on
Lena's Roti & Doubles,5517,theatre/performance and concert hall,6990,financial dr,L5N 8J4,mississauga,on
Leslie Log House,5552,museum,4415,mississauga rd,L5M 2L9,mississauga,on
Lewis Bradley Museum,5562,museum,1620,orr,..,mississauga,on
Lewis Bradley the Anchorage,5564,heritage or historic site,1610,orr,..,mississauga,on
Liberty Junction,5567,theatre/performance and concert hall,2453,dunwin dr,L5L 1T1,mississauga,on
Lithuanian Museum-Archives of Canada,5623,museum,2185,stavebank road,L5C 1T3,mississauga,on
Living Art Centre,5644,theatre/performance and concert hall,4141,living dr,L5B 4B8,mississauga,on
Lorne Park Library,5693,library or archives,1474,truscott dr,L5J 1Z2,mississauga,on
Maja Prentice Theatre,5896,theatre/performance and concert hall,3650,dixie,..,mississauga,on
Malton Library,5907,library or archives,..,..,..,mississauga,on
Meadowvale Community Theatre,6096,theatre/performance and concert hall,6315,montevideo rd,L5N 4G7,mississauga,on
Meadowvale Library,6097,library or archives,6655,glen dr,L5N 2R5,mississauga,on
Meadowvale Theatre Lobby Gallery,6103,gallery,6315,montevideo,..,mississauga,on
Mississauga Art Gallery,6222,gallery,300,city centre,..,mississauga,on
Mississauga Central Library,6223,library or archives,301,burnhamthorpe rd w,L5B 3Y3,mississauga,on
Mississauga Children's Choir,6224,artist,4094,tomken rd,L4W 1J5,mississauga,on
Mississauga Valley Library,6227,library or archives,1275,mississauga blvd,L5A 3R8,mississauga,on
Noel Ryan Auditorium,6943,theatre/performance and concert hall,301,burnhamthorpe,..,mississauga,on
Ontario's Professional School of Music And Arts,7132,artist,5632,tenth line ,L5M 7L9,mississauga,on
Pazan Gallery,7302,gallery,6,brant ave,L5G 3N8,mississauga,on
Port Credit Library,7499,library or archives,20,lakeshore rd e,L5G 1C8,mississauga,on
Sheridan Library,8253,library or archives,..,..,..,mississauga,on
Sikh Heritage Museum of Canada,8276,museum,2980,drew rd,L4T 0A7,mississauga,on
South Common Library,8399,library or archives,2233,millway south,L5L 3H7,mississauga,on
Streetsville Historical Society,8659,heritage or historic site,..,..,..,..,on
Streetsville Library,8660,library or archives,..,..,..,mississauga,on
Terrain Art School,8807,artist,3033,palstan rd,L4Y 4E7,mississauga,on
