Facility_Name,Index,ODCAF_Facility_Type,Street_No,Street_Name,Postal_Code,City,Prov_Terr
Locke Library,5663,library or archives,..,..,..,hamilton,on
Lynden Branch Library,5733,library or archives,110,lynden road,..,waterloo,on
Lyric Theatre Hamilton,5740,theatre/performance and concert hall,434,king street west,L8E 1B7,hamilton,on
Mcmaster Museum of Art,6077,museum,1280,main st w,..,hamilton,on
Millgrove Branch Library,6190,library or archives,857,millgrove road,..,waterloo,on
Mount Hope Library,6344,library or archives,..,..,..,hamilton,on
Red Hill Library,7717,library or archives,..,..,..,hamilton,on
Saltfleet Library,8092,library or archives,..,..,..,hamilton,on
Sherwood Library,8257,library or archives,..,..,..,hamilton,on
Stoney Creek Library,8633,library or archives,..,..,..,hamilton,on
Terryberry Library,8812,library or archives,..,..,..,hamilton,on
The Arctic Experience Mcnaught Gallery,8914,gallery,191,james st s,L8P 3A8,hamilton,on
The Focus Gallery,8944,gallery,66,james street north,L8R 2K5,hamilton,on
The Hamilton Toy Museum,8959,museum,1231,main street east,L8K 1A5,hamilton,on
The Melanie Gillis Studio And Gallery,8974,gallery,126,james st n,L8R 2K7,hamilton,on
The Nathaniel Hughson Art Gallery,8989,gallery,27,john st north,L8R 1H1,hamilton,on
The Zoetic Theatre & Creative Arts Company,9031,theatre/performance and concert hall,526,concession street,L8V 1A6,hamilton,on
"Theatre Aquarius, Dofasco Centre For the Arts",9035,theatre/performance and concert hall,190,king st,L8R 1A8,hamilton,on
Tourism And Culture Division City of Hamilton,9145,miscellaneous,28,james street north,L8R 2K3,hamilton,on
Tribal Gallery,9180,gallery,174,james st n,L8R 2L1,hamilton,on
True North Gallery/The Music Gallery,9192,gallery,23,griffin street,L0R 2H0,waterdown,on
Turner Park Library,9203,library or archives,..,..,..,hamilton,on
Valley Park Library,9327,library or archives,..,..,..,hamilton,on
Waterdown Branch Library,9500,library or archives,25,mill street north,..,waterloo,on
Waterdown Library,9501,library or archives,..,..,..,hamilton,on
Westdale Library,9575,library or archives,..,..,..,hamilton,on
Westfield Heritage Village,9588,heritage or historic site,1049,regional road,L0R 1X0,rockton,on
Whitehalls Gallery,9627,gallery,40,biggar avenue,L8L 8A3,hamilton,on
Whitehern Historic House & Garden,9630,heritage or historic site,41,jackson st w,L8P 1L3,hamilton,on
Woodstock Art Gallery,9725,gallery,449,dundas st,N4S 1C2,dundas,on
Workers Art & Heritage Centre,9732,heritage or historic site,51,stuart st,L8L 1B5,hamilton,on
You Me Gallery,9773,gallery,330,james st n,L8L 1H3,hamilton,on
