Facility_Name,Index,ODCAF_Facility_Type,Street_No,Street_Name,Postal_Code,City,Prov_Terr
Banting House National Historic Site,639,heritage or historic site,442,adelaide street north,N6B 3H8,london,on
Canadian Medical Hall of Fame The,2174,museum,267,dundas street,N6A 1H2,london,on
Cowboys Ranch / London Concert Theatre,2939,theatre/performance and concert hall,..,..,..,london,on
Eldon House,3384,art or cultural centre,481,ridout street north,N6A 2P6,london,on
Fanshawe Pioneer Village,3544,museum,2609,fanshawe park rd e,N5X 4A1,london,on
First Hussars Citizen Soldiers Museum,3777,museum,1,dundas,N6A 2P1,london,on
Grand Theatre,4344,theatre/performance and concert hall,..,..,..,london,on
London,5673,library or archives,..,..,N6A 6H9,london,on
London Heritage Council,5674,heritage or historic site,201,king street,N6A 1C9,london,on
London Regional Children's Museum,5675,museum,21,wharncliffe rd s,N6J 4G5,london,on
Mcintosh Gallery,6068,gallery,..,..,N6A 3K7,london,on
Museum London,6708,museum,421,ridout st n,N6A 5H4,london,on
Museum of Ontario Archaeology,6730,museum,1600,attawandaron road,N6G 3M6,london,on
Paul Davenport Theatre,7290,theatre/performance and concert hall,..,..,..,london,on
Royal Canadian Regiment Museum,7952,museum,701,oxford street east,N5Y 4T7,london,on
The Secrets of Radar Museum,9017,museum,930,western rd,N6H 5C4,london,on
University of Western Ontario: Hume Cronyn Memorial Observatory,9294,miscellaneous,..,..,N6A 3K7,london,on
Western University Libraries: Western Archives,9585,library or archives,..,..,N6A 3K7,london,on
Wolf Performance Hall,9698,theatre/performance and concert hall,..,..,..,london,on
