Facility_Name,Index,ODCAF_Facility_Type,Street_No,Street_Name,Postal_Code,City,Prov_Terr
17 Wing Heritage Collection,18,museum,..,..,R3J 3Y5,winnipeg,mb
Aceartinc.,116,gallery,290,mcdermot ave,R3B 0T2,winnipeg,mb
Air Force Heritage Museum And Air Park,164,museum,..,..,R3J 3Y5,winnipeg,mb
Anthropology Laboratory Museum University of Manitoba,311,museum,..,..,R3T 2N2,winnipeg,mb
Anthropology Museum University of Winnipeg,312,museum,515,portage avenue,R3B 2E9,winnipeg,mb
Archevêché De Saint-Boniface,334,museum,151,de la cathédrale avenue,R2H 0H6,saint-boniface,mb
Archives Des Soeurs Grises,352,museum,151,rue despins,R2H 0L7,saint-boniface,mb
Archives of Manitoba,360,library or archives,200,vaughan st,R3C 1T5,winnipeg,mb
Assiniboine Park Conservancy,519,miscellaneous,55,pavilion crescent,R3P 2N6,winnipeg,mb
Association of Manitoba Museums,526,museum,555,main st,R3B 1C3,winnipeg,mb
Canada's History Society,2121,miscellaneous,515,portage avenue,R3B 2E9,winnipeg,mb
Canadian Museum For Human Rights,2181,museum,85,israel way,R3C 0L5,winnipeg,mb
Centre Culturel Franco Manitobain,2396,art or cultural centre,340,boulevard provencher,R2H 0G7,saint-boniface,mb
Centre For Mennonite Brethren Studies,2540,museum,1310,taylor ave,R3M 3Z6,winnipeg,mb
Charleswood Library,2613,library or archives,4910,roblin blvd,..,winnipeg,mb
City of Winnipeg Museums Board,2728,museum,510,main street,R3B 1B9,winnipeg,mb
Cornish Library,2889,library or archives,20,gate west,..,winnipeg,mb
Costume Museum of Canada,2912,museum,250,mcdermot ave,R3B 0S5,winnipeg,mb
Eckhardt-Gramatté Foundation (The),3282,miscellaneous,54,harrow street,R3M 2Y7,winnipeg,mb
Embroiderers' Association of Canada Inc.,3418,museum,..,..,N6K 5R1,winnipeg,mb
Fire Fighters Museum of Winnipeg,3766,museum,56,maple street,R3B 0Y8,winnipeg,mb
Fort Garry Historical Society Inc.,3858,heritage or historic site,200,saulteaux crescent,R3J 3W3,winnipeg,mb
Fort Garry Horse Museum And Archives,3859,museum,551,machray ave,R2W 1A8,winnipeg,mb
Fort Garry Library,3860,library or archives,1360,pembina hwy,..,winnipeg,mb
Friends of Dalnavert Museum Inc.,3997,museum,61,carlton street,R3C 1N7,winnipeg,mb
Gallery 1C03,4164,gallery,515,portage avenue,R3B 2E9,winnipeg,mb
Grants Old Mill,4365,museum,2777,portage avenue,R3J 3S5,winnipeg,mb
Harvey Smith (West End) Library,4536,library or archives,999,sargent ave,..,winnipeg,mb
Health Sciences Centre Archives Museum,4568,museum,700,mcdermot ave,R3E 0T2,winnipeg,mb
Henderson Library,4591,library or archives,1050,henderson hwy,..,winnipeg,mb
Heritage Victoria C.C,4698,heritage or historic site,950,sturgeon rd,..,winnipeg,mb
Heritage Winnipeg Corporation,4700,heritage or historic site,63,albert st,R3B 1G4,winnipeg,mb
Ivan Franko Museum,4923,museum,200,mcgregor street,R2W 5L6,winnipeg,mb
Jewish Heritage Centre of Western Canada Inc.,4973,library or archives,123,doncaster st,R3N 2B2,winnipeg,mb
Living Prairie Museum,5650,museum,2795,ness avenue,R3J 3S4,winnipeg,mb
Louis Riel Library,5699,library or archives,1168,dakota st,..,winnipeg,mb
Métis Genealogical Centre of Canada,5746,art or cultural centre,295,portage ave,R3C 0B9,winnipeg,mb
Maison Gabrielle-Roy Inc. La,5866,museum,375,rue deschambault,R2H 3B4,saint-boniface,mb
Manitoba Children's Museum,5915,museum,45,forks road,R3C 4T6,winnipeg,mb
Manitoba Crafts Museum And Library,5916,museum,183,kennedy st,R3C 1S6,winnipeg,mb
Manitoba Electrical Museum Inc.,5917,museum,680,harrow st,R3M 3A3,winnipeg,mb
Manitoba Genealogical Society Inc.,5918,library or archives,1045,st-james street,R3H 1B1,winnipeg,mb
Manitoba Historical Society Ross House Museum,5919,museum,140,meade street north,R2W 3K4,winnipeg,mb
Manitoba Hockey Hall of Fame & Museum,5920,museum,260,hargrave st,R3C 5S5,winnipeg,mb
Manitoba Indigenous Cultural Education Centre Inc.,5921,art or cultural centre,119,sutherland ave,R2W 3C9,winnipeg,mb
Manitoba Sports Hall of Fame And Museum Inc.,5924,museum,145,pacific avenue,R3B 2Z6,winnipeg,mb
Martha Street Studio,5998,gallery,11,martha st,R3B 1A2,winnipeg,mb
Mennonite Heritage Centre,6133,library or archives,600,boulevard shaftesbury,R3P 0M4,winnipeg,mb
Millennium Library,6186,library or archives,251,donald st,..,winnipeg,mb
