Facility_Name,Index,ODCAF_Facility_Type,Street_No,Street_Name,Postal_Code,City,Prov_Terr
Musée De Saint-Boniface,6505,museum,494,ave taché,R2H 2B2,winnipeg,mb
Naval Museum of Manitoba,6825,museum,1,navy way,R3C 4J7,winnipeg,mb
Ogniwo Polish Museum Society Inc.,7063,museum,1417,main street,R2W 3V3,winnipeg,mb
Osborne Library,7155,library or archives,625,osborne st,..,winnipeg,mb
Pembina Trail Library,7329,library or archives,2724,pembina hwy,..,winnipeg,mb
Platform -Centre For Photograph + Digital Arts,7435,gallery,100,arthur street,R3B 1H3,winnipeg,mb
Plug In,7450,gallery,460,portage ave,R3C 0E8,winnipeg,mb
Queen's Own Cameron Highlanders of Canada Regimental Museum Inc.,7644,museum,230,minto avenue,R3G 0J7,winnipeg,mb
Riel House National Historic Site of Canada,7818,museum,330,river road,R2N 3X9,st-vital,mb
River Heights Library,7831,library or archives,1520,corydon ave,..,winnipeg,mb
Royal Aviation Museum of Western Canada,7942,museum,958,ferry road,R3J 0X7,winnipeg,mb
Royal Winnipeg Rifles Regimental Museum,7973,museum,969,st-matthews ave,R3G 0J7,winnipeg,mb
School of Art Gallery,8157,gallery,255,dafoe road,R3T 2N2,winnipeg,mb
Seven Oaks House Museum,8212,museum,115,boulevard rupertsland,R2V 4C8,winnipeg,mb
Sir William Stephenson Library,8305,library or archives,765,keewatin st,..,winnipeg,mb
Sisters of the Cross,8309,heritage or historic site,66,moore avenue,R2M 2C4,winnipeg,mb
Société Historique De Saint-Boniface,8368,heritage or historic site,340,boulevard provencher,R2H 0G7,winnipeg,mb
St. Boniface Library,8495,library or archives,131,provencher blvd,..,winnipeg,mb
St. James-Assiniboia Library,8521,library or archives,1910,portage ave,..,winnipeg,mb
St. James-Assiniboia Museum,8522,museum,3180,portage avenue,R3K 0Y5,winnipeg,mb
St. John's Library,8525,library or archives,500,salter st,..,winnipeg,mb
St. Norbert Arts Centre,8547,miscellaneous,100,rue des-ruines,R3V 1L6,winnipeg,mb
St. Norbert Provincial Heritage Park,8548,heritage or historic site,40,turnbull drive,R3J 3W3,winnipeg,mb
St. Vital Historical Society Inc.,8558,museum,600,st-mary's road,R2M 3L5,winnipeg,mb
St. Vital Library,8559,library or archives,6,fermor ave,..,winnipeg,mb
Stewart Hay Memorial Museum,8618,museum,..,..,R3T 2N2,winnipeg,mb
The Forks National Historic Site of Canada,8945,heritage or historic site,25,forks road,R3C 4S8,winnipeg,mb
The Manitoba Museum,8972,museum,190,rupert ave,R3B 0N2,winnipeg,mb
The Pavilion Gallery Museum Inc.,8996,museum,55,pavilion crescent,R3P 2N6,winnipeg,mb
The Winnipeg Art Gallery,9027,gallery,300,memorial blvd,R3C 1V1,winnipeg,mb
Transcona Historical Museum,9158,museum,141,regent ave w,R2C 1R1,winnipeg,mb
Transcona Library,9159,library or archives,111,victoria ave w,..,winnipeg,mb
Ukrainian Academy of Arts And Sciences (Uvan) In Canada Inc.,9225,art or cultural centre,456,main street,R3B 1B6,winnipeg,mb
Ukrainian Cultural & Educational Centre,9233,art or cultural centre,184,alexander ave,R3B 0L6,winnipeg,mb
United Church Archives Conference of Manitoba And Northwestern Ontario,9253,library or archives,515,portage ave,R3B 2E9,winnipeg,mb
University of Manitoba Archives & Special Collections,9277,library or archives,330,dafoe library,R3T 2N2,winnipeg,mb
University of Manitoba: Lockhart Planetarium,9278,museum,394,university college,R3T 2M8,winnipeg,mb
University of Winnipeg Geography Museum,9295,museum,515,portage avenue,R3B 2E9,winnipeg,mb
Urban Shaman Gallery,9307,gallery,290,mcdermot avenue,R3B 0T2,winnipeg,mb
Video Pool Media Arts Centre,9407,miscellaneous,100,arthur street,R3B 1H3,winnipeg,mb
Vintage Locomotive Society Inc.,9433,museum,..,..,R3G 3N4,winnipeg,mb
West Kildonan Library,9554,library or archives,365,jefferson ave,..,winnipeg,mb
Westwood Library,9597,library or archives,66,allard ave,..,winnipeg,mb
Windsor Park Library,9680,library or archives,1195,archibald st,..,winnipeg,mb
Winnipeg Architecture Foundation Inc.,9685,library or archives,266,mcdermot avenue,R3B 0S1,winnipeg,mb
Winnipeg Police Museum And Historical Society Inc.,9686,museum,245,smith st,R3C 2Z7,winnipeg,mb
Winnipeg Railway Museum,9688,museum,123,main street,R3C 1A3,winnipeg,mb
