Facility_Name,Index,ODCAF_Facility_Type,Street_No,Street_Name,Postal_Code,City,Prov_Terr
Aka Artist-Run,170,gallery,424,20th st w,S7M 0X4,saskatoon,sk
Alice Turner Branch Library,241,library or archives,110,nelson road,..,saskatoon,sk
Beau Village Museum (Le),718,museum,..,..,S0H 3T0,st victor,sk
Beaver Creek Conservation Area,726,heritage or historic site,402,3rd avenue south,S7K 3G5,saskatoon,sk
Canadian Military Heritage Museum,2176,museum,3021,louise street,S7J 3L1,saskatoon,sk
Carlyle King Branch Library,2282,library or archives,3130,laurier dr,..,saskatoon,sk
Cliff Wright Branch Library,2758,library or archives,1635,mckercher dr,..,saskatoon,sk
Conquest Branch Library,2860,library or archives,401,pacific avenue,S0L 0L0,conquest,sk
Gabriel Dumont Institute,4024,miscellaneous,917,22nd street west,S7M 0R9,saskatoon,sk
Gallery-Frances Morrison Library (The),4193,library or archives,311,23rd street east,S7K 0J6,saskatoon,sk
Gordon Snelgrove Gallery,4311,gallery,191,murray drive,S7N 5A4,saskatoon,sk
J. S. Wood Branch Library,4933,library or archives,1801,lansdowne ave,..,saskatoon,sk
J.S. Wood Branch Library,4936,library or archives,..,..,S7H 2C4,saskatoon,sk
Kenderdine Art Gallery,5125,gallery,51,campus drive,S7N 5A8,level university of,sk
Library On 20th Street Branch,5576,library or archives,100,219 ave south,..,saskatoon,sk
Little Stone Schoolhouse,5641,museum,..,..,S7N 5B8,saskatoon,sk
Local History Rooms: Saskatoon Public Library,5657,library or archives,311,23rd street east,S7K 0J6,saskatoon,sk
Mayfair Public Library,6039,library or archives,602,33rd st w,..,saskatoon,sk
Meewasin Valley Centre,6114,heritage or historic site,402,third avenue s,S7K 3G5,saskatoon,sk
Mus√©e Ukraina Museum,6699,museum,222,m avenue south,S7K 7V9,saskatoon,sk
Nutana Collegiate Institute: Memorial Library And Art Gallery,7029,gallery,411,11th street e,S7N 0E9,saskatoon,sk
Perdue Branch Library,7344,library or archives,1124,10th st,S0K 3C0,perdue,sk
Provincial Archives of Saskatchewan (Saskatoon),7611,library or archives,91,murray drive,S7N 5A4,saskatoon,sk
Remai Modern,7748,miscellaneous,950,spadina crescent east,S7K 3L6,saskatoon,sk
Right Honourable John G. Diefenbaker Centre For the Study of Canada,7819,museum,101,diefenbaker pl,S7N 5B8,saskatoon,sk
Rusty Macdonald Branch Library,7985,library or archives,225,primrose dr,..,saskatoon,sk
Saskatchewan Agricultural Hall of Fame,8108,museum,2610,lorne avenue south,S7J 0S6,saskatoon,sk
Saskatchewan Craft Council,8110,miscellaneous,813,broadway ave,S7N 1B5,saskatoon,sk
Saskatchewan Western Development Museum,8116,museum,2935,lorne ave,S7J 0S5,saskatoon,sk
Saskatoon Public Library (Frances Morrison Library),8118,library or archives,..,..,S7K 0J6,saskatoon,sk
St. Thomas More Art Gallery,8555,gallery,1437,college drive,S7N 0W6,saskatoon,sk
Ukrainian Canadian Congress -Saskatchewan Provincial Council,9231,miscellaneous,1219,8th st e,S7H 0S5,saskatoon,sk
United Church of Canada Saskatchewan Conference Archives,9256,library or archives,91,murray drive,S7N 5A4,saskatoon,sk
University of Saskatchewan Observatory,9284,museum,..,..,S7N 5E2,saskatoon,sk
W.P. Fraser Herbarium,9453,museum,51,campus drive,S7N 5A8,saskatoon,sk
Wanuskewin Heritage Park,9487,heritage or historic site,4,penner road,S7K 3J7,saskatoon,sk
Western Development Museum Saskatoon,9578,museum,2610,lorne avenue south,S7J 0S6,saskatoon,sk
Wheatland Regional Library,9603,library or archives,..,..,S7K 0R3,saskatoon,sk
