Facility_Name,Index,ODCAF_Facility_Type,Street_No,Street_Name,Postal_Code,City,Prov_Terr
St Basils Cultural Centre,8473,art or cultural centre,10819,71 avenue nw,..,edmonton,ab
Strathcona,8651,library or archives,8331,104 street,T6E 4E9,edmonton,ab
Studio Theatre Box Office,8677,theatre/performance and concert hall,..,..,..,edmonton,ab
Telephone Historical Centre,8784,heritage or historic site,10440,108 avenue nw,..,edmonton,ab
Telus World of Science Edmonton,8790,museum,11211,142 street,T5M 4A1,edmonton,ab
Terrace Theatre,8803,theatre/performance and concert hall,4445,calgary trail nw,..,edmonton,ab
Tevie Miller Heritage School Program,8816,heritage or historic site,6240,113 street nw,..,edmonton,ab
The Edmonton Telephone Historical Centre,8941,museum,10440,108 ave nw,T5J 2J1,edmonton,ab
Theatre Network,9045,theatre/performance and concert hall,10708,124 street nw,..,edmonton,ab
Ukrainian Canadian Archives & Museum of Alberta,9226,museum,9543,110 avenue nw,..,edmonton,ab
Ukrainian Catholic Women's League of Canada Arts & Crafts Museum,9232,museum,10825,97 street,T5H 2M4,edmonton,ab
Ukrainian Cultural Heritage Village (Provincial Historic Site),9234,museum,..,..,T0B 4J0,edmonton,ab
Ukrainian Museum of Canada-Alberta Branch,9239,museum,10611,110 ave nw,T5H 1H7,edmonton,ab
University of Alberta,9265,museum,1,edmonton,T6G 2E1,edmonton,ab
University of Alberta Archives,9266,library or archives,8170,50th street,T6B 1E6,edmonton,ab
University of Alberta Libraries,9267,miscellaneous,7,cameron library,T6G 2J8,edmonton,ab
University of Alberta Vascular Plant Herbarium,9268,miscellaneous,..,..,T6G 2E9,edmonton,ab
Varscona Theatre,9375,theatre/performance and concert hall,10329,83 avenue nw,..,edmonton,ab
West End Gallery,9547,gallery,12308,jasper avenue nw,..,edmonton,ab
West Henday Promenade (Lewis Estates),9552,library or archives,818,webber drive west,T5T 4K5,edmonton,ab
Whitemud Crossing,9634,library or archives,145,whitemud crossing,T6J 6L7,edmonton,ab
Wildwood Gallery,9648,gallery,6655,178 street nw,..,edmonton,ab
Women's Art Museum of Canada / Mus√©e D'Art De La Femme Du Canada,9702,museum,8627,marie anne gaboury street,T6C 3N1,edmonton,ab
Woodcroft (Westmount),9712,library or archives,13420,114 avenue,T5M 2Y5,edmonton,ab
Workshop West Playwright's Theatre,9735,theatre/performance and concert hall,11516,103 street nw,..,edmonton,ab
Worsley And District Public Library,9739,library or archives,216,alberta avenue,T0H 3W0,worsley,ab
