Facility_Name,Index,ODCAF_Facility_Type,Street_No,Street_Name,Postal_Code,City,Prov_Terr
Abbottsfield - Penny Mckee,96,library or archives,3410,118 avenue,T5W 0Z4,edmonton,ab
Agnes Bugera Gallery Inc,144,gallery,12310,jasper avenue nw,..,edmonton,ab
Alberta Aviation Museum Association,182,museum,11410,kingsway nw,T5G 0X4,edmonton,ab
Alberta Ballet,185,theatre/performance and concert hall,10123,99 street nw,..,edmonton,ab
Alberta Museums Association,200,museum,10408,124 street,T5N 1R5,edmonton,ab
Alberta Railway Museum,201,museum,24215,34 street,T5Y 6B4,edmonton,ab
Art Gallery of Alberta (Aga),401,gallery,2,sir square nw,..,edmonton,ab
Avenue Theatre,582,theatre/performance and concert hall,9030,118 avenue nw,..,edmonton,ab
Azimuth Theatre Association,597,theatre/performance and concert hall,11315,106 avenue nw,..,edmonton,ab
Bearsclaw Gallery,711,gallery,10403,124 street nw,..,edmonton,ab
Birks Art Gallery (1989) Ltd,1791,gallery,12512,118 avenue nw,..,edmonton,ab
Black Settlers of Alberta And Saskatchewan Historical Society,1809,library or archives,10509,58 avenue,K6H 1B8,edmonton,ab
Bright Nights Festival,1931,festival site,..,hawrelak park nw,..,edmonton,ab
Bruce Peel Special Collections,1977,library or archives,..,..,T6G 2J4,edmonton,ab
C & E Railway Museum,2035,museum,10447,86 avenue nw,..,edmonton,ab
Calder,2061,library or archives,12710,131 avenue nw,T5L 2Z6,edmonton,ab
Canadian Aviation Historical Society,2134,museum,8712,42 ave nw,T6K 1E7,edmonton,ab
Canadian Civil Defence Museum Association,2145,museum,4055,26 avenue nw,T6L 5L9,edmonton,ab
Capilano,2242,library or archives,9915,67 street,T6A 3Z7,edmonton,ab
Cariwest Festival,2258,festival site,..,..,..,edmonton,ab
Castle Downs,2314,library or archives,106,15379 rd,T5X 3Y7,edmonton,ab
Catalyst Theatre Society,2322,theatre/performance and concert hall,8529,103 street nw,..,edmonton,ab
Celebrations Musical Dinner Theatre,2343,theatre/performance and concert hall,13103,fort road nw,..,edmonton,ab
Children's Educational Wildlife Museum,2637,museum,5304,97 street nw,..,edmonton,ab
Citadel Theatre,2710,theatre/performance and concert hall,9828,101a avenue nw,..,edmonton,ab
City of Edmonton Archives,2717,library or archives,10440,108 avenue,T5H 3Z9,edmonton,ab
Clareview,2737,library or archives,3808,139 avenue,T5Y 3G4,edmonton,ab
College & Association of Registered Nurses of Alberta Museum And Archives,2821,museum,11620,168 street,T5M 4A6,edmonton,ab
Commonwealth Association of Museums,2838,museum,10023,93 street,T5H 1W6,edmonton,ab
Devonian Botanic Garden (University of Alberta),3111,museum,..,..,T6G 2E1,edmonton,ab
Douglas Udell Gallery Ltd,3185,gallery,10332,124 street nw,..,edmonton,ab
Edition Gallery,3291,gallery,2596,edmonton mall west,..,edmonton,ab
Editions Gallery,3306,gallery,8882,170 street nw,..,edmonton,ab
Edmonton Canada Day Fireworks Festival,3323,festival site,..,victoria park nw,..,edmonton,ab
Edmonton Folk Music Festival,3327,festival site,9411,97 avenue nw,..,edmonton,ab
Edmonton Folk Music Festival Office,3333,festival site,10115,97a avenue nw,..,edmonton,ab
Edmonton Gay Pride Festival,3336,festival site,..,..,..,edmonton,ab
Edmonton Heritage Council,3345,heritage or historic site,10440,108 ave,T5H 3Z9,edmonton,ab
Edmonton International Street Performers Festival,3347,festival site,..,..,..,edmonton,ab
Edmonton Labatt's Blues Festival,3356,festival site,..,hawrelak park nw,..,edmonton,ab
Edmonton Power Historical Foundation,3358,heritage or historic site,10065,jasper avenue,T5J 3B1,edmonton,ab
Edmonton Public Library,3359,library or archives,..,..,T5J 5A3,edmonton,ab
Edmonton Public Schools Archives & Museum,3360,museum,10425,99 avenue nw,..,edmonton,ab
Edmonton Radial Railway Society,3367,museum,..,..,T6H 5Y1,edmonton,ab
Enterprise Square (Downtown),3445,library or archives,10212,jasper avenue nw,T5J 4P6,edmonton,ab
Eva O'Howard Theatre,3495,theatre/performance and concert hall,10210,108 avenue nw,..,edmonton,ab
Festival of Trees,3725,festival site,9797,jasper avenue nw,..,edmonton,ab
Fort Edmonton Park,3843,heritage or historic site,7000,143 street,T5J 2R7,edmonton,ab
Francis Winspear Concert Hall,3948,theatre/performance and concert hall,4,sir square nw,..,edmonton,ab
