Facility_Name,Index,ODCAF_Facility_Type,Street_No,Street_Name,Postal_Code,City,Prov_Terr
St James Community Square,8476,theatre/performance and concert hall,3214,10th av w,V6K 2L2,vancouver,bc
St. Roch National Historic Site C/O Vancouver Maritime Museum,8553,museum,..,..,V6J 1A3,vancouver,bc
Stanley Park Nature House,8570,museum,..,..,..,vancouver,bc
Strathcona Branch,8653,library or archives,592,pender street east,V6A 1V5,richmond,bc
Sum Gallery,8700,gallery,268,keefer st,V6A 1X5,vancouver,bc
Teck Gallery,8777,gallery,515,hastings st w,V6B 0B2,vancouver,bc
Terry Salman Branch,8811,library or archives,4575,clancy way,V5Y 2M4,horsefly,bc
The Apartment,8913,museum,119,pender st e,V6A 1T6,vancouver,bc
The Ironworks Studio,8963,theatre/performance and concert hall,235,alexander st,V6A 1C2,vancouver,bc
Tom Lee Music Recital Hall,9118,theatre/performance and concert hall,929,granville st,V6Z 1L3,vancouver,bc
Tracey Lawrence Gallery,9153,gallery,1531,4th av w,V6J 1L6,vancouver,bc
Trench Gallery,9171,gallery,148,alexander st,V6A 1B5,vancouver,bc
Trillium North Park,9181,museum,699,national av,..,vancouver,bc
Underwater Archaeological Society of British Columbia,9244,museum,1905,ogden avenue,V6J 1A3,vancouver,bc
Unit/Pitt Projects,9252,museum,236,pender st e,V6A 1T7,vancouver,bc
United Church of Canada B.C. Conference Archives,9255,library or archives,2195,45th west,V6M 2J2,vancouver,bc
Uno Langmann Limited Fine Arts,9297,museum,2117,granville st,V6H 3E9,vancouver,bc
Van Dusen Botanical Garden,9332,museum,5251,oak st,V6M 4H1,vancouver,bc
Vancity Theatre,9336,theatre/performance and concert hall,1181,seymour st,V6B 3M7,vancouver,bc
Vancouver Access Artist Run Centre,9337,museum,222,georgia st e,V6A 1Z7,vancouver,bc
Vancouver Art Gallery,9339,gallery,750,hornby st,V6Z 2H7,vancouver,bc
Vancouver Art Gallery Offsite,9340,gallery,1100,georgia st w,V6E 0A8,vancouver,bc
Vancouver Biennale,9341,museum,290,3rd av w,V5Y 1G1,vancouver,bc
Vancouver Contemporary Art Gallery,9342,gallery,555,nelson st,V6B 6R5,vancouver,bc
Vancouver East Cultural Centre - Vancity Culture Lab,9344,theatre/performance and concert hall,1895,venables st,V5L 2H6,vancouver,bc
Vancouver Holocaust Education Centre,9348,museum,950,41st av w,V5Z 2N7,vancouver,bc
Vancouver Island University Museum of Natural History,9353,museum,900,5th street,V9R 5S5,vancouver,bc
Vancouver Maritime Museum,9355,museum,1905,ogden av,V6J 1A3,vancouver,bc
Vancouver Naval Museum,9356,museum,1200,stanley park drive,V7V 3P1,vancouver,bc
Vancouver Playhouse Theatre,9357,theatre/performance and concert hall,600,hamilton st,V6B 6A1,vancouver,bc
Vancouver Police Museum,9359,museum,240,cordova st e,V6A 1L3,vancouver,bc
Vancouver Public Library,9360,library or archives,350,georgia st w,V6B 6B1,vancouver,bc
Vancouver Symphony Orchestra School of Music - Recital Hall (Pyatt Hall),9363,theatre/performance and concert hall,843,seymour st,V6B 3L4,vancouver,bc
Vivo Media Arts Centre,9441,library or archives,2625,kaslo st,V5M 3G9,vancouver,bc
Vogue Theatre,9442,theatre/performance and concert hall,918,granville st,V6Z 1L2,vancouver,bc
Waterfront Theatre,9505,theatre/performance and concert hall,1412,cartwright st,V6H 3R7,vancouver,bc
West Point Grey Branch,9564,library or archives,4480,10th avenue west,V6R 2H9,gibsons,bc
Western Front - Gallery,9580,gallery,303,8th av e,V5T 1S1,vancouver,bc
Western Front - Luxe Hall,9581,theatre/performance and concert hall,303,8th av e,V5T 1S1,vancouver,bc
Wil Aballe Art Projects,9644,museum,1356,frances st,V5L 1Y9,vancouver,bc
Winsor Gallery,9690,gallery,258,1st ave e,V5T 1A6,vancouver,bc
Wise Club Hall,9694,theatre/performance and concert hall,1882,adanac st,V5L 2E2,vancouver,bc
Woodward's Atrium,9728,theatre/performance and concert hall,111,hastings st w,V6B 1H4,vancouver,bc
York Theatre,9766,theatre/performance and concert hall,639,commercial dr,V5L 2W2,vancouver,bc
Yuk Yuk's Comedy Club,9780,theatre/performance and concert hall,2837,cambie st,V5Z 3Y8,vancouver,bc
