Facility_Name,Index,ODCAF_Facility_Type,Street_No,Street_Name,Postal_Code,City,Prov_Terr
New West Artists Society,6881,artist,..,..,..,new-westminster,bc
New West Heritage Hall,6882,heritage or historic site,726,twelfth st,V3M 4J9,new-westminster,bc
New Westminster Historical Society,6883,heritage or historic site,..,..,..,new-westminster,bc
New Westminster Hyack Festival Association,6884,festival site,204,sixth,V3L 3A1,new-westminster,bc
New Westminster Museum & Archives,6885,museum,302,royal ave,V3L 1H7,new-westminster,bc
New Westminster Public Library,6886,library or archives,..,..,..,new-westminster,bc
New Westminster Public Library And Archives,6888,library or archives,716,6th avenue,V3M 2B3,new-westminster,bc
Peri-Laine Nilan,7346,artist,..,..,..,new-westminster,bc
Peter Lojewski,7361,artist,327,boyne street,..,new-westminster,bc
Plaskett Gallery,7433,gallery,735,eighth avenue,V3M 2R2,new-westminster,bc
Queensborough,7656,library or archives,920,ewan ave,V3M 5C8,victoria,bc
Razzberry Art And Design,7702,artist,625,second street,..,new-westminster,bc
Richard R. Carswell,7792,artist,309,eighth street,..,new-westminster,bc
Rob Fee,7850,artist,..,..,..,new-westminster,bc
Royal City Musical Theatre Company,7954,theatre/performance and concert hall,..,..,..,new-westminster,bc
Royal City Youth Ballet,7955,theatre/performance and concert hall,511,columbia street,..,new-westminster,bc
Royal Principal Ballet Academy Ltd,7967,theatre/performance and concert hall,511,columbia st,V3L 1B2,new-westminster,bc
Samson V Maritime Museum,8095,museum,880,quayside drive,V3M 6G1,new-westminster,bc
Samson V Museum,8096,museum,900,quayside dr,..,new-westminster,bc
Shadows & Dreams Theatre Company,8223,theatre/performance and concert hall,..,..,..,new-westminster,bc
Silvana Mcnulty Garden Gals,8278,artist,736,fifth street,..,new-westminster,bc
Spencer Goring,8440,artist,310,durham street,..,new-westminster,bc
Terry Erickson,8808,artist,234,fenton street,..,new-westminster,bc
The Art of Law Gallery,8915,gallery,711,columbia street,..,new-westminster,bc
The Bernie Legge Theatre,8922,theatre/performance and concert hall,..,..,..,new-westminster,bc
The Mojo Stars,8982,artist,530,columbia street,..,new-westminster,bc
The Royal Westminster Regiment Museum,9013,museum,530,queens avenue,..,new-westminster,bc
Vagabond Theatre/Fisheries Exibition Building,9316,theatre/performance and concert hall,600,first st,..,new-westminster,bc
Valerie Mcrae,9324,artist,..,..,..,new-westminster,bc
Van Dop Gallery,9331,gallery,421,richmond street,..,new-westminster,bc
