Facility_Name,Index,ODCAF_Facility_Type,Street_No,Street_Name,Postal_Code,City,Prov_Terr
7302754 Canada Inc,41,artist,6909,mckay av,..,burnaby,bc
Bill Reid Centre For Northwest Coast Studies At Simon Fraser University,1759,museum,8888,university drive,V5A 1S6,burnaby,bc
Bob Prittie Metrotown Branch,1839,library or archives,6100,willingdon avenue,V5H 4N5,kitimat,bc
Bob Prittie Metrotown Library,1840,library or archives,..,..,..,burnaby,bc
Burnaby Art Gallery,2015,gallery,..,..,..,burnaby,bc
Burnaby Village Museum,2017,museum,6501,deer avenue,V5G 3T6,burnaby,bc
Cameron,2090,library or archives,9523,cameron street,V3J 1L6,coquitlam,bc
Cameron Library,2093,library or archives,..,..,..,burnaby,bc
Fang-Chih Liao,3543,artist,9985,david dr,..,burnaby,bc
Greater Vancouver Regional District Parks Department,4387,heritage or historic site,4330,kingsway street,V5H 2G8,burnaby,bc
Heidi Zolty,4584,theatre/performance and concert hall,4528,hastings st,..,burnaby,bc
Jienelyn Dimatatac,4977,miscellaneous,5266,dominion st,..,burnaby,bc
Lipsett Glazing Systems Inc,5618,heritage or historic site,7343,buller av,..,burnaby,bc
Mcgill,6063,library or archives,4595,albert st,V5C 2G6,lake country,bc
Mcgill Library,6064,library or archives,..,..,..,burnaby,bc
National Nikkei Museum - Heritage Centre,6813,museum,6688,southoaks cr,..,burnaby,bc
Susan Mccallum,8721,artist,7231,antrim av,..,burnaby,bc
Synthesis Consulting Ltd,8746,art or cultural centre,4562,hastings st,..,burnaby,bc
The Michael J Fox Theatre Society,8976,theatre/performance and concert hall,5455,rumble st,..,burnaby,bc
Tommy Douglas Branch,9122,library or archives,7311,kingsway,V5E 1G8,vancouver,bc
Tommy Douglas Library,9123,library or archives,..,..,..,burnaby,bc
