Facility_Name,Index,ODCAF_Facility_Type,Street_No,Street_Name,Postal_Code,City,Prov_Terr
Joe Fortes,4982,library or archives,870,denman st,..,vancouver,bc
Kensington,5134,library or archives,1428,cedar mews,..,vancouver,bc
Kerrisdale,5139,library or archives,2112,42nd av w,..,vancouver,bc
Kitsilano,5212,library or archives,2425,macdonald st,..,vancouver,bc
Kw Atrium Studio,5237,theatre/performance and concert hall,351,abbott st,V6B 0G6,vancouver,bc
Labyrinth Gallery,5329,gallery,112,hastings st e,V6A 4J1,vancouver,bc
Lattimer Gallery,5417,gallery,1590,2nd av w,V6J 1H2,vancouver,bc
Little Mountain Gallery,5638,gallery,195,26th av e,V5V 2G8,vancouver,bc
Make Gallery,5900,gallery,257,7th av e,V5T 0B4,vancouver,bc
Malaspina Printmakers Gallery,5904,gallery,1555,duranleau st,V6H 3S3,vancouver,bc
Malkin Bowl,5905,theatre/performance and concert hall,610,pipeline rd,V6G 3E2,vancouver,bc
Marion Scott Gallery,5967,gallery,2423,granville st,V6H 3G5,vancouver,bc
Marpole,5988,library or archives,8386,granville st,..,vancouver,bc
Metro Theatre,6147,theatre/performance and concert hall,1370,marine dr,V6P 5Z9,vancouver,bc
Monte Clark Gallery,6256,gallery,525,great way,V5T 1E1,vancouver,bc
Mount Pleasant,6347,library or archives,1,kingsway,..,vancouver,bc
Museum of Original Costume The,6731,museum,1489,mcrae avenue,V6H 1V1,vancouver,bc
Museum of Vancouver,6739,museum,1100,chestnut st,V6J 3J9,vancouver,bc
Neca?Mat Ct Strathcona Branch,6831,library or archives,730,hastings street east,V6A 1R5,hornby island,bc
Norman Rothstein Theatre,6954,theatre/performance and concert hall,950,41st av w,V5Z 2N7,vancouver,bc
Oakridge Branch,7038,library or archives,650,41st avenue west,V5Z 2M9,hazelton,bc
Oblates of Mary Immaculate St. Paul's Province -Oblate Archives,7046,library or archives,1311,the crescent,V6H 1T7,vancouver,bc
On Main Gallery,7108,gallery,200,20th av e,V5V 1M1,vancouver,bc
Or Gallery,7138,gallery,555,hamilton st,V6B 2R1,vancouver,bc
Orpheum Annex,7152,theatre/performance and concert hall,823,seymour st,V6B 5G1,vancouver,bc
Orpheum Theatre,7153,theatre/performance and concert hall,601,smithe st,V6B 5G1,vancouver,bc
Outreach Services,7212,library or archives,345,robson st,..,vancouver,bc
Pacific Cinémathèque,7232,theatre/performance and concert hall,1131,howe st,V6Z 2L7,vancouver,bc
Pacific Theatre,7236,theatre/performance and concert hall,1440,12th av w,V6H 1M8,vancouver,bc
Pal Studio Theatre,7239,theatre/performance and concert hall,581,cardero st,V6G 3L2,vancouver,bc
Pendulum Gallery,7334,gallery,885,georgia st w,V6C 3E8,vancouver,bc
Performance Works,7345,theatre/performance and concert hall,1218,cartwright st,V6H 3R8,vancouver,bc
Peter Kiss Gallery,7360,gallery,1327,railspur alley,V6H 4G9,vancouver,bc
Petley Jones Gallery,7376,gallery,554,6th av w,V6J 1R2,vancouver,bc
Queen Elizabeth Park,7640,heritage or historic site,4600,cambie st,V5Y 2M4,vancouver,bc
Queen Elizabeth Theatre,7641,theatre/performance and concert hall,650,hamilton st,V6B 5N6,vancouver,bc
Remington Gallery And Studio,7751,gallery,108,hastings st e,V6A 4J1,vancouver,bc
Renfrew Branch,7755,library or archives,2969,22nd avenue east,V5M 2Y3,keremeos,bc
Rennie Collection At Wing Sang,7756,museum,51,pender st e,V6A 1S9,vancouver,bc
Rickshaw Theatre,7806,theatre/performance and concert hall,254,hastings st e,V6A 1P1,vancouver,bc
Rio Theatre,7821,theatre/performance and concert hall,1660,broadway e,V5N 1W1,vancouver,bc
Roedde House,7879,museum,1415,barclay st west,V6G 1J6,vancouver,bc
Satellite Gallery,8119,gallery,560,seymour st,V6B 3J5,vancouver,bc
Science World At Telus World of Science,8163,museum,1455,québec st,V6A 3Z7,vancouver,bc
Scotiabank Dance Centre - Faris Family Studio,8165,theatre/performance and concert hall,677,davie st,V6B 2G6,vancouver,bc
Seaforth Highlanders of Canada Regimental Museum And Archives,8182,museum,1650,burrard street,V6J 3G4,vancouver,bc
Skwachàys Lodge Gallery,8332,gallery,31,pender st w,V6B 1R3,vancouver,bc
Société Historique Francophone De La Colombie-Britannique,8371,library or archives,1555,7e av o,V6J 1S1,vancouver,bc
South Hill,8405,library or archives,6076,fraser st,..,vancouver,bc
