Facility_Name,Index,ODCAF_Facility_Type,Street_No,Street_Name,Postal_Code,City,Prov_Terr
Artista Art & Antiques Ltd.,464,gallery,271,lawrence ave,..,kelowna,bc
Artistic Ceramics,467,artist,578,spruceview pl,..,kelowna,bc
BC Wine Museum,705,museum,1304,ellis st,..,kelowna,bc
"BC Wine, Cider & Spirits Festival",706,festival site,1527,ellis st,..,kelowna,bc
British Columbia Orchard Industry Museum,1944,museum,1304,ellis street,V1Y 1Z8,kelowna,bc
Caldwell Heritage Farm,2063,heritage or historic site,4275,goodison rd,..,kelowna,bc
Central Okanagan Heritage Society,2368,heritage or historic site,1060,cameron avenue,V1Y 8V3,kelowna,bc
Cinehaus Theatre Concepts Inc.,2687,theatre/performance and concert hall,1573,mountain ave,..,kelowna,bc
Dani Lachuk Fine Artist,3043,artist,329,walnut st,..,kelowna,bc
Digby Heritage Services,3122,heritage or historic site,4020,todd rd,..,kelowna,bc
Diocese of Kootenay Archives (Anglican Church of Canada),3126,library or archives,380,leathead road,V1X 2H8,kelowna,bc
Father Pandosy Mission,3556,heritage or historic site,3685,benvoulin road,V1Y 7V8,kelowna,bc
Festivals Kelowna,3754,festival site,100,water st,..,kelowna,bc
Haley Heritage House,4473,heritage or historic site,3652,spiers rd,..,kelowna,bc
Hambleton Galleries,4487,gallery,1290,ellis st,..,kelowna,bc
Heritage Christian Childcare,4609,heritage or historic site,905,badke rd,..,kelowna,bc
Heritage Finishers,4624,heritage or historic site,1,mccurdy rd,..,kelowna,bc
Heritage Food Service Group of Canada Ltd,4625,heritage or historic site,2,mccurdy pl,..,kelowna,bc
Heritage Ventures Ltd,4697,heritage or historic site,1340,glenmore rd n,..,kelowna,bc
Huculiak Artist Designer,4795,artist,884,kennedy st,..,kelowna,bc
Kelowna Art Gallery,5118,gallery,1315,water st,V1Y 9R3,kelowna,bc
Kelowna Branch,5119,library or archives,1380,ellis street,V1Y 2A2,kelowna,bc
Kelowna Community Theatre,5120,theatre/performance and concert hall,1375,water st,..,kelowna,bc
Kelowna Museum Sociery,5121,museum,470,queen's way,..,kelowna,bc
Kelowna Museums Society,5122,museum,470,queensway ave,V1Y 6S7,kelowna,bc
Mission,6212,library or archives,4105,gordon dr,V1W 4Z1,salmon arm,bc
Okanagan Artist's Alternative Association,7068,gallery,103,caston ave,..,kelowna,bc
Okanagan Diamond Gallery Inc,7069,gallery,482,bernard ave,..,kelowna,bc
Okanagan Heritage Museum,7071,museum,470,queensway avenue,V1Y 6S7,kelowna,bc
Okanagan Military Museum Society,7072,museum,1424,ellis st,V1Y 6S7,kelowna,bc
Ritchcraft Gallery & Framing,7826,gallery,103,lakeshore rd,..,kelowna,bc
Rutland,7996,library or archives,20,33 hwy w,V1X 1X8,savona,bc
Society of Canadian Visual Artists Dba Federation of Canadian Artists,8378,artist,101,dilworth dr,..,kelowna,bc
Studio One School of Dance Dba Canadian School of Ballet,8674,theatre/performance and concert hall,101,leckie rd,..,kelowna,bc
The Creative Artist,8935,artist,306,klo rd,..,kelowna,bc
Tri Art Gallery Inc,9178,gallery,560,raymer ave,..,kelowna,bc
Tutt Street Gallery Ltd,9205,gallery,9,tutt stkelowna,..,kelowna,bc
