Index,Facility_Name,ODRSF_facility_type,Provider,Street_No,Street_Name,Postal_Code,City,Prov_Terr
165543,David Allen Drive Park,park,halifax,..,..,..,..,ns
165562,Davis Drive Park,park,halifax,..,..,..,..,ns
165583,Deadman's Island Park,park,halifax,..,..,..,..,ns
165601,Deeprun Drive Park,park,halifax,..,..,..,..,ns
165614,Deermist Drive Park,park,halifax,..,..,..,..,ns
165623,Delaney Drive Park,park,halifax,..,..,..,..,ns
165645,Demers Road Park,park,halifax,..,..,..,..,ns
165715,Devils Island View Park,park,halifax,..,..,..,..,ns
165722,Devonport Avenue Park,park,halifax,..,..,..,..,ns
165725,Devonshire/Barrington Parkette,park,halifax,..,..,..,..,ns
165736,Deyoung Drive Park,park,halifax,..,..,..,..,ns
165796,Doherty Drive Park,park,halifax,..,..,..,..,ns
165801,Dolomite Court Park,park,halifax,..,..,..,..,ns
165813,Don Bayer Park,park,halifax,..,..,..,..,ns
165950,Dr. Gerald J. Lebrun Memorial Centre Park,park,halifax,..,..,..,..,ns
165995,Duc D'Anville School Park,park,halifax,..,..,..,..,ns
166001,Duck Lake Brook Greenway Park,park,halifax,..,..,..,..,ns
166028,Duncan Macmillan High School Park,park,halifax,..,..,..,..,ns
166081,Dutch Settlement Elementary School Park,park,halifax,..,..,..,..,ns
166082,Dutch Settlement Park,park,halifax,..,..,..,..,ns
166105,Eaglewood Elementary School Park,park,halifax,..,..,..,..,ns
166115,Earls Road Park,park,halifax,..,..,..,..,ns
166132,East Dover Village Green Park,park,halifax,..,..,..,..,ns
166138,East Jeddore Park,park,halifax,..,..,..,..,ns
166150,East Preston Park,park,halifax,..,..,..,..,ns
166151,East St. Margaret's Consolidated School Park,park,halifax,..,..,..,..,ns
166157,Eastern Consolidated Elementary School Park,park,halifax,..,..,..,..,ns
166158,Eastern Passage Common,park,halifax,..,..,..,..,ns
166159,Eastern Passage Education Centre,park,halifax,..,..,..,..,ns
166160,Eastern Shore District High School Park,park,halifax,..,..,..,..,ns
166201,Ecole Beaubassin Park,park,halifax,..,..,..,..,ns
166202,Ecole Beaufort Park,park,halifax,..,..,..,..,ns
166203,Ecole Bois-Joli Park,park,halifax,..,..,..,..,ns
166205,Ecole Des Beaux-Marais Park,park,halifax,..,..,..,..,ns
166206,Ecole Du Carrefour Park,park,halifax,..,..,..,..,ns
166207,Ecole Du Grand-Portage Park,park,halifax,..,..,..,..,ns
166208,Ecole Secondaire Du Sommet Park,park,halifax,..,..,..,..,ns
166262,Edward Drillio Park,park,halifax,..,..,..,..,ns
166300,Eisenhauer Park,park,halifax,..,..,..,..,ns
166309,Elbow Lake Park,park,halifax,..,..,..,..,ns
166312,Elderbank Park,park,halifax,..,..,..,..,ns
166329,Elgin Street Park,park,halifax,..,..,..,..,ns
166337,Elizabeth Sutherland School Park,park,halifax,..,..,..,..,ns
166351,Ellenvale Junior High/Brookhouse Elementary Park,park,halifax,..,..,..,..,ns
166403,Emerald Estates Park,park,halifax,..,..,..,..,ns
166420,Emma Court Park,park,halifax,..,..,..,..,ns
166452,Eric Graves Memorial Junior High School Park,park,halifax,..,..,..,..,ns
166541,Evandale Lane Park,park,halifax,..,..,..,..,ns
166549,Evelyn Wood Place Park,park,halifax,..,..,..,..,ns
