Index,Facility_Name,ODRSF_facility_type,Provider,Street_No,Street_Name,Postal_Code,City,Prov_Terr
168098,Harry R. Hamilton Elementary School Park,park,halifax,..,..,..,..,ns
168108,Hartlen Park,park,halifax,..,..,..,..,ns
168135,Hatchet Lake Park,park,halifax,..,..,..,..,ns
168145,Haverstock Drive Park,park,halifax,..,..,..,..,ns
168146,Havill Park,park,halifax,..,..,..,..,ns
168159,Hawthorn Elementary School Park,park,halifax,..,..,..,..,ns
168181,Head Of Jeddore Park,park,halifax,..,..,..,..,ns
168182,Head Of St Margarets Bay View Park,park,halifax,..,..,..,..,ns
168207,Hebb Park,park,halifax,..,..,..,..,ns
168210,Heddas Way Park,park,halifax,..,..,..,..,ns
168235,Hemlock Ravine Park,park,halifax,..,..,..,..,ns
168262,Henry Findlay Park,park,halifax,..,..,..,..,ns
168347,Herring Cove Junior High School Park,park,halifax,..,..,..,..,ns
168391,High Head Trail Park,park,halifax,..,..,..,..,ns
168399,High Road Park,park,halifax,..,..,..,..,ns
168400,High Street Park,park,halifax,..,..,..,..,ns
168401,High Timber Drive Park,park,halifax,..,..,..,..,ns
168429,Highland Park,park,halifax,..,..,..,..,ns
168432,Highland Park Junior High School Park,park,halifax,..,..,..,..,ns
168450,Hilden Drive Park,park,halifax,..,..,..,..,ns
168488,Hillside Elementary Park School Park,park,halifax,..,..,..,..,ns
168511,Historic Properties,park,halifax,..,..,..,..,ns
168524,Hogan Court Park,park,halifax,..,..,..,..,ns
168537,Holland Road Elementary School Park,park,halifax,..,..,..,..,ns
168552,Hollyoake Lane Park,park,halifax,..,..,..,..,ns
168583,Honeysuckle Road Park,park,halifax,..,..,..,..,ns
168602,Horseshoe Island Park,park,halifax,..,..,..,..,ns
168603,Horseshoe Lake Park,park,halifax,..,..,..,..,ns
168633,Howe Street Park,park,halifax,..,..,..,..,ns
168644,Hubbards Recreation Centre Park,park,halifax,..,..,..,..,ns
168669,Humber Park,park,halifax,..,..,..,..,ns
168670,Humber Park Elementary School Park,park,halifax,..,..,..,..,ns
168753,Hydrostone Park,park,halifax,..,..,..,..,ns
168760,Ian Forsyth Elementary School Park,park,halifax,..,..,..,..,ns
168782,Imperoyal Park,park,halifax,..,..,..,..,ns
168798,Inglewood Crescent Park,park,halifax,..,..,..,..,ns
168837,Ira Settle Park,park,halifax,..,..,..,..,ns
168881,Isleville Park,park,halifax,..,..,..,..,ns
168895,J. Albert Walker Park,park,halifax,..,..,..,..,ns
168901,J. L. Ilsley High School Park,park,halifax,..,..,..,..,ns
168912,Jabaru Lane Park,park,halifax,..,..,..,..,ns
168933,Jackladder Park,park,halifax,..,..,..,..,ns
168951,Jadry Court Park,park,halifax,..,..,..,..,ns
169007,Jason Maccullough Memorial Park,park,halifax,..,..,..,..,ns
169086,Joan Drive Park,park,halifax,..,..,..,..,ns
169153,John Grant Park,park,halifax,..,..,..,..,ns
169163,John Macneil Elementary School Park,park,halifax,..,..,..,..,ns
169166,John Martin Junior High School Park,park,halifax,..,..,..,..,ns
169195,John W. Macleod Park,park,halifax,..,..,..,..,ns
