Index,Facility_Name,ODRSF_facility_type,Provider,Street_No,Street_Name,Postal_Code,City,Prov_Terr
175614,Scott Manor House,park,halifax,..,..,..,..,ns
175618,Scott Saunders Memorial Park,park,halifax,..,..,..,..,ns
175642,Seabright Park,park,halifax,..,..,..,..,ns
175655,Seaview Community Park,park,halifax,..,..,..,..,ns
175659,Seawood Avenue Park,park,halifax,..,..,..,..,ns
175660,Sebastian Place Park,park,halifax,..,..,..,..,ns
175702,Serop Crescent Park,park,halifax,..,..,..,..,ns
175708,Settle Lake Park,park,halifax,..,..,..,..,ns
175726,Shad Bay Park,park,halifax,..,..,..,..,ns
175734,Shady Vista Drive Park,park,halifax,..,..,..,..,ns
175761,Shatford Memorial Elementary School Park,park,halifax,..,..,..,..,ns
175775,Shearwater Flyer Trail Park,park,halifax,..,..,..,..,ns
175776,Sheet Harbour Elementary School Park,park,halifax,..,..,..,..,ns
175777,Sheet Harbour Lions Park,park,halifax,..,..,..,..,ns
175778,Sheet Harbour Lions Recreation Centre Park,park,halifax,..,..,..,..,ns
175783,Sheffield Park,park,halifax,..,..,..,..,ns
175799,Sheldrake Lake Park,park,halifax,..,..,..,..,ns
175809,Sheppards Run Park,park,halifax,..,..,..,..,ns
175843,Sherwood Park,park,halifax,..,..,..,..,ns
175848,Sherwood Street Park,park,halifax,..,..,..,..,ns
175855,Shipside Lane Park,park,halifax,..,..,..,..,ns
175862,Shore Road Lands,park,halifax,..,..,..,..,ns
175863,Shore Road Park,park,halifax,..,..,..,..,ns
175864,Shore Road Pond Lands,park,halifax,..,..,..,..,ns
175875,Shrewsbury Road Park,park,halifax,..,..,..,..,ns
175904,Silver Maple Drive Park,park,halifax,..,..,..,..,ns
175905,Silver Sands Beach Park,park,halifax,..,..,..,..,ns
175913,Silver's Hill Park,park,halifax,..,..,..,..,ns
175914,Silversides Residents Association Park,park,halifax,..,..,..,..,ns
175953,Sinnot Hill Park,park,halifax,..,..,..,..,ns
175962,Sir Charles Tupper Elementary School Park,park,halifax,..,..,..,..,ns
175966,Sir John A. Macdonald High School Park,park,halifax,..,..,..,..,ns
175977,Sir Robert Borden Junior High School Park,park,halifax,..,..,..,..,ns
175982,Sir Sandford Fleming Park,park,halifax,..,..,..,..,ns
176014,Skora Park,park,halifax,..,..,..,..,ns
176027,Sleepy Park,park,halifax,..,..,..,..,ns
176031,Smelt Brook Park,park,halifax,..,..,..,..,ns
176038,Smokey Drive Elementary School Park,park,halifax,..,..,..,..,ns
176072,Solutions Drive Park,park,halifax,..,..,..,..,ns
176130,South Ridge Circle Park,park,halifax,..,..,..,..,ns
176156,South Woodside Elementary School Park,park,halifax,..,..,..,..,ns
176161,Southbrook Crescent Park,park,halifax,..,..,..,..,ns
176167,Southdale North Woodside Elementary School Park,park,halifax,..,..,..,..,ns
176177,Southgate Drive Park,park,halifax,..,..,..,..,ns
176223,Spencer House Park,park,halifax,..,..,..,..,ns
176271,Springfield Lake Beach Park,park,halifax,..,..,..,..,ns
176272,Springfield Lake Recreation Centre Park,park,halifax,..,..,..,..,ns
176273,Springfield Lake Road Park,park,halifax,..,..,..,..,ns
176282,Springvale Elementary School Park,park,halifax,..,..,..,..,ns
