Index,Facility_Name,ODRSF_facility_type,Provider,Street_No,Street_Name,Postal_Code,City,Prov_Terr
172113,Newcombe Drive Park,park,halifax,..,..,..,..,ns
172134,Nicholas Meaghers Park,park,halifax,..,..,..,..,ns
172139,Nick Meagher Park,park,halifax,..,..,..,..,ns
172142,Nickie Park,park,halifax,..,..,..,..,ns
172149,Nine Mile Drive Community Park,park,halifax,..,..,..,..,ns
172159,Norawarren Drive Neighbourhood Park,park,halifax,..,..,..,..,ns
172164,Nordic Crescent Park,park,halifax,..,..,..,..,ns
172196,North Dartmouth Community Garden,park,halifax,..,..,..,..,ns
172202,North Green Road Park,park,halifax,..,..,..,..,ns
172228,North Preston Community Centre Park,park,halifax,..,..,..,..,ns
172242,North Woodside Community Centre Park,park,halifax,..,..,..,..,ns
172244,Northbrook Park,park,halifax,..,..,..,..,ns
172247,Northcliffe Recreation Centre Park,park,halifax,..,..,..,..,ns
172407,Nottingham Lane Park,park,halifax,..,..,..,..,ns
172426,Oak Street Park,park,halifax,..,..,..,..,ns
172437,Oaken Hills Park,park,halifax,..,..,..,..,ns
172438,Oakfield Woods Park,park,halifax,..,..,..,..,ns
172442,Oakland Road Park,park,halifax,..,..,..,..,ns
172449,Oakmount House Park,park,halifax,..,..,..,..,ns
172463,Oakwood Court Park,park,halifax,..,..,..,..,ns
172465,Oakwood Park,park,halifax,..,..,..,..,ns
172472,Oathill Lake Park,park,halifax,..,..,..,..,ns
172479,Oceanic Drive Park,park,halifax,..,..,..,..,ns
172482,O'Connell Drive Elementary School Park,park,halifax,..,..,..,..,ns
172508,Old Coach Road Trail Park,park,halifax,..,..,..,..,ns
172535,Oldfield Consolidated Elementary School Park,park,halifax,..,..,..,..,ns
172537,Oldham Road Park,park,halifax,..,..,..,..,ns
172538,Oleary Drive Park,park,halifax,..,..,..,..,ns
172562,Omega Court Park,park,halifax,..,..,..,..,ns
172623,Orkney Drive Park,park,halifax,..,..,..,..,ns
172673,Owls Nest Island,park,halifax,..,..,..,..,ns
172681,Oxford School Park,park,halifax,..,..,..,..,ns
172684,Oyster Pond Academy Park,park,halifax,..,..,..,..,ns
172746,Paper Mill Lane Park,park,halifax,..,..,..,..,ns
173586,Park Road Park,park,halifax,..,..,..,..,ns
173597,Park West School Park,park,halifax,..,..,..,..,ns
173605,Parkdale Park,park,halifax,..,..,..,..,ns
173608,Parkedge Crescent Park,park,halifax,..,..,..,..,ns
173635,Parklea Drive Park,park,halifax,..,..,..,..,ns
173673,Partridge Nest Drive Park,park,halifax,..,..,..,..,ns
173731,Peace Park,park,halifax,..,..,..,..,ns
173757,Pebblecreek Crescent Park,park,halifax,..,..,..,..,ns
173782,Penhorn Lake Park,park,halifax,..,..,..,..,ns
173803,Perrin Drive Park,park,halifax,..,..,..,..,ns
173805,Perry Lake Park,park,halifax,..,..,..,..,ns
173820,Peter Buckley Drive Park,park,halifax,..,..,..,..,ns
173832,Petpeswick Lake Park,park,halifax,..,..,..,..,ns
173859,Picnic Cove Park,park,halifax,..,..,..,..,ns
173869,Pierre Gingras Memorial Park,park,halifax,..,..,..,..,ns
