Index,Facility_Name,ODRSF_facility_type,Provider,Street_No,Street_Name,Postal_Code,City,Prov_Terr
169247,Joseph Giles Elementary School Park,park,halifax,..,..,..,..,ns
169248,Joseph Howe Elementary School Park,park,halifax,..,..,..,..,ns
169249,Joseph Howe Park,park,halifax,..,..,..,..,ns
169277,Joshua Slocum Avenue Park,park,halifax,..,..,..,..,ns
169299,Judy Anne Court Park,park,halifax,..,..,..,..,ns
169375,Kearney Lake Beach Park,park,halifax,..,..,..,..,ns
169403,Keltic Gardens Park,park,halifax,..,..,..,..,ns
169446,Kenneth Walker Park,park,halifax,..,..,..,..,ns
169469,Kerri Lea Lane Park,park,halifax,..,..,..,..,ns
169472,Kerry Drive Park,park,halifax,..,..,..,..,ns
169485,Keyport Avenue Park,park,halifax,..,..,..,..,ns
169489,Kidston Lake Park,park,halifax,..,..,..,..,ns
169508,Killarney Crescent Park,park,halifax,..,..,..,..,ns
169520,Kinap Canoe Club,park,halifax,..,..,..,..,ns
169575,Kingswood Drive Park,park,halifax,..,..,..,..,ns
169576,Kingswood Elementary School Park,park,halifax,..,..,..,..,ns
169592,Kinsmen Park,park,halifax,..,..,..,..,ns
169630,Kiwanis Graham's Grove Park,park,halifax,..,..,..,..,ns
169936,Lacewood Drive Park,park,halifax,..,..,..,..,ns
169968,Lake Banook Regional Park,park,halifax,..,..,..,..,ns
169970,Lake Charlotte Boat Launch,park,halifax,..,..,..,..,ns
169973,Lake Echo Community Centre Park,park,halifax,..,..,..,..,ns
169974,Lake Echo Community Play Park,park,halifax,..,..,..,..,ns
169978,Lake Of The Woods Park,park,halifax,..,..,..,..,ns
169987,Lakecrest Drive Park,park,halifax,..,..,..,..,ns
169988,Lakefront Consolidated Elementary School Park,park,halifax,..,..,..,..,ns
169992,Lakeland Street Park,park,halifax,..,..,..,..,ns
169994,Lakemist Court Park,park,halifax,..,..,..,..,ns
170003,Lakeshore Drive Park,park,halifax,..,..,..,..,ns
170024,Lakeview Park,park,halifax,..,..,..,..,ns
170030,Lakeview Terrace Park,park,halifax,..,..,..,..,ns
170079,Landrace Crescent Park,park,halifax,..,..,..,..,ns
170089,Langdon Drive Park,park,halifax,..,..,..,..,ns
170118,Larkview Terrace Park,park,halifax,..,..,..,..,ns
170123,Larrigan Drive Park,park,halifax,..,..,..,..,ns
170125,Larry O'Connell Park,park,halifax,..,..,..,..,ns
170127,Larry Uteck Boulevard Community Park,park,halifax,..,..,..,..,ns
170145,Launch Park,park,halifax,..,..,..,..,ns
170146,Laura Drive Park,park,halifax,..,..,..,..,ns
170161,Laurie Lively Park,park,halifax,..,..,..,..,ns
170177,Lawnsdale Drive Park,park,halifax,..,..,..,..,ns
170187,Lawrencetown Community Centre Park,park,halifax,..,..,..,..,ns
170205,Leaside Community Park,park,halifax,..,..,..,..,ns
170218,Lee Murphy Crescent Park,park,halifax,..,..,..,..,ns
170223,Leeward Avenue Park,park,halifax,..,..,..,..,ns
170226,Legacy Court Park,park,halifax,..,..,..,..,ns
170258,Lemarchant-St. Thomas Elementary School Park,park,halifax,..,..,..,..,ns
170267,Leo Lanigan Park,park,halifax,..,..,..,..,ns
170288,Leslie Thomas Junior High School Park,park,halifax,..,..,..,..,ns
