Index,Facility_Name,ODRSF_facility_type,Provider,Street_No,Street_Name,Postal_Code,City,Prov_Terr
166638,Fairview Heights Annex Elementary Park,park,halifax,..,..,..,..,ns
166639,Fairview Heights Elementary/Junior High Park,park,halifax,..,..,..,..,ns
166642,Fairview Lawn Cemetery,park,halifax,..,..,..,..,ns
166667,Fall River Recreation Centre Park,park,halifax,..,..,..,..,ns
166689,Farrell Street Park,park,halifax,..,..,..,..,ns
166722,Feetham Park,park,halifax,..,..,..,..,ns
166728,Fenerty Landing,park,halifax,..,..,..,..,ns
166769,Ferry Terminal Park,park,halifax,..,..,..,..,ns
166800,Findlay Community Centre Park,park,halifax,..,..,..,..,ns
166828,First Lake Regional Park,park,halifax,..,..,..,..,ns
166831,First Pond Drive Park,park,halifax,..,..,..,..,ns
166839,Fish Hatchery Park,park,halifax,..,..,..,..,ns
166853,Five Bridges Junior High School Park,park,halifax,..,..,..,..,ns
166855,Five Island Lake Park,park,halifax,..,..,..,..,ns
166865,Flandrum Hill Road Park,park,halifax,..,..,..,..,ns
166866,Flat Lake Park,park,halifax,..,..,..,..,ns
166870,Fleetview Drive Park,park,halifax,..,..,..,..,ns
166875,Fleming Tower Park,park,halifax,..,..,..,..,ns
166880,Fletcher Drive Park,park,halifax,..,..,..,..,ns
166940,Forest Hills Greenway Park,park,halifax,..,..,..,..,ns
166967,Former Lakeview Consolidated School Park,park,halifax,..,..,..,..,ns
166982,Fort Needham Memorial Park,park,halifax,..,..,..,..,ns
166985,Fort Sackville School Park,park,halifax,..,..,..,..,ns
166988,Foster Park,park,halifax,..,..,..,..,ns
167008,Fox Hollow Drive Park,park,halifax,..,..,..,..,ns
167110,Frenchman Lake Park,park,halifax,..,..,..,..,ns
167114,Freshwater Trail Park,park,halifax,..,..,..,..,ns
167120,Friesian Court Park,park,halifax,..,..,..,..,ns
167135,Fuller Terrace Park,park,halifax,..,..,..,..,ns
167140,Fun Park,park,halifax,..,..,..,..,ns
167162,Gaetz Brook Junior High School Park,park,halifax,..,..,..,..,ns
167188,Gammon Lake Community Park,park,halifax,..,..,..,..,ns
167240,Gary Martin Drive Park,park,halifax,..,..,..,..,ns
167241,Gaspereau Run Park,park,halifax,..,..,..,..,ns
167244,Gaston Road Park,park,halifax,..,..,..,..,ns
167281,George Bissett Elementary School Park,park,halifax,..,..,..,..,ns
167287,George Cyril Drive Park,park,halifax,..,..,..,..,ns
167288,George Dixon Centre Park,park,halifax,..,..,..,..,ns
167321,Georges P. Vanier Junior High School Park,park,halifax,..,..,..,..,ns
167332,Gerald B. Gray Park,park,halifax,..,..,..,..,ns
167412,Gladstone Ridge Park,park,halifax,..,..,..,..,ns
167430,Glebe Street Parkette,park,halifax,..,..,..,..,ns
167441,Glen Arbour Way Park,park,halifax,..,..,..,..,ns
167459,Glen Haven Community Centre Park,park,halifax,..,..,..,..,ns
167475,Glen Slaunwhite Memorial Park,park,halifax,..,..,..,..,ns
167481,Glenbourne Park,park,halifax,..,..,..,..,ns
167497,Glendale Drive Park,park,halifax,..,..,..,..,ns
167509,Glenforest Park,park,halifax,..,..,..,..,ns
167511,Glengarry Estates Park,park,halifax,..,..,..,..,ns
