Index,Facility_Name,ODRSF_facility_type,Provider,Street_No,Street_Name,Postal_Code,City,Prov_Terr
163027,Bedford Village Park,park,halifax,..,..,..,..,ns
163030,Beech Hill Road Park,park,halifax,..,..,..,..,ns
163033,Beechcrest Drive Park,park,halifax,..,..,..,..,ns
163037,Beechville Estates Park,park,halifax,..,..,..,..,ns
163038,Beechville Lakeside Timberlea Recreation Park,park,halifax,..,..,..,..,ns
163039,Beechville Lakeside Timberlea School Park,park,halifax,..,..,..,..,ns
163040,Beechville Lakeside Timberlea Trail Park,park,halifax,..,..,..,..,ns
163050,Bel Ayr Elementary School Park,park,halifax,..,..,..,..,ns
163054,Belchers Marsh Park,park,halifax,..,..,..,..,ns
163061,Bell Brook Park,park,halifax,..,..,..,..,ns
163068,Bell Lake Park,park,halifax,..,..,..,..,ns
163072,Bell Park Academic Centre Park,park,halifax,..,..,..,..,ns
163098,Belmont Avenue Park,park,halifax,..,..,..,..,ns
163114,Belvedere Park,park,halifax,..,..,..,..,ns
163145,Bennett Park,park,halifax,..,..,..,..,ns
163284,Big Hubley Lake Road Park,park,halifax,..,..,..,..,ns
163285,Big Latter Pond Park,park,halifax,..,..,..,..,ns
163294,Bi-Hi Park,park,halifax,..,..,..,..,ns
163297,Bilby Street Park,park,halifax,..,..,..,..,ns
163304,Bill Dompierre Memorial Park,park,halifax,..,..,..,..,ns
163313,Billy Bollong Memorial Park,park,halifax,..,..,..,..,ns
163319,Bingham Drive Park,park,halifax,..,..,..,..,ns
163323,Birch Bear Run Park,park,halifax,..,..,..,..,ns
163324,Birch Cove Park,park,halifax,..,..,..,..,ns
163326,Birch Hill Lake Park,park,halifax,..,..,..,..,ns
163335,Birchwood Park,park,halifax,..,..,..,..,ns
163367,Bissett Lake Park,park,halifax,..,..,..,..,ns
163426,Bloomfield Centre Park,park,halifax,..,..,..,..,ns
163436,Blue Forest Lane Park,park,halifax,..,..,..,..,ns
163441,Blue Mountain Drive Park,park,halifax,..,..,..,..,ns
163458,Bluerock Road Park,park,halifax,..,..,..,..,ns
163461,Bluff Trail Park,park,halifax,..,..,..,..,ns
163520,Bonsai Drive Community Park,park,halifax,..,..,..,..,ns
163538,Bosun Run Park,park,halifax,..,..,..,..,ns
163614,Bradford Place Park,park,halifax,..,..,..,..,ns
163623,Braemar Drive Park,park,halifax,..,..,..,..,ns
163650,Breakers District Park,park,halifax,..,..,..,..,ns
163659,Brennans Road Park,park,halifax,..,..,..,..,ns
163706,Bridgeview Drive Park,park,halifax,..,..,..,..,ns
163745,Bristol Avenue Park,park,halifax,..,..,..,..,ns
163758,Broad Street Park,park,halifax,..,..,..,..,ns
163778,Brompton Road Park,park,halifax,..,..,..,..,ns
163798,Brookdale Crescent Park,park,halifax,..,..,..,..,ns
163807,Brookhill Drive Park 1,park,halifax,..,..,..,..,ns
163808,Brookhill Drive Park 2,park,halifax,..,..,..,..,ns
163809,Brookhill Drive Park 3,park,halifax,..,..,..,..,ns
163818,Brookside Junior High School Park,park,halifax,..,..,..,..,ns
163825,Brookview Drive Park,park,halifax,..,..,..,..,ns
163837,Brownlow Park,park,halifax,..,..,..,..,ns
