Index,Facility_Name,ODRSF_facility_type,Provider,Street_No,Street_Name,Postal_Code,City,Prov_Terr
177957,Voyageur Way Park,park,halifax,..,..,..,..,ns
177961,W. D. Piercey Park,park,halifax,..,..,..,..,ns
177975,Wadlow Park,park,halifax,..,..,..,..,ns
177985,Walker Avenue Park,park,halifax,..,..,..,..,ns
177997,Walkway To Sir Sandford Flemming Park,park,halifax,..,..,..,..,ns
178003,Wallace Lucas Community Centre Park,park,halifax,..,..,..,..,ns
178028,Wanderers Grounds,park,halifax,..,..,..,..,ns
178069,Water Street Parkette,park,halifax,..,..,..,..,ns
178090,Waterstone Run Park,park,halifax,..,..,..,..,ns
178114,Waverley Memorial Elementary School Park,park,halifax,..,..,..,..,ns
178115,Waverley On The Green Park,park,halifax,..,..,..,..,ns
178120,Waverley Road Elementary School Park,park,halifax,..,..,..,..,ns
178121,Waverley Road Park,park,halifax,..,..,..,..,ns
178147,Wedgewood Park,park,halifax,..,..,..,..,ns
178157,Weir Park,park,halifax,..,..,..,..,ns
178169,Wellington Fire Hall Park,park,halifax,..,..,..,..,ns
178186,Wendybrook Drive Park,park,halifax,..,..,..,..,ns
178187,Wendy's Meadow Park,park,halifax,..,..,..,..,ns
178190,Wentworth Street Park,park,halifax,..,..,..,..,ns
178191,Werner Park,park,halifax,..,..,..,..,ns
178215,West Dover Park,park,halifax,..,..,..,..,ns
178288,Western Common,park,halifax,..,..,..,..,ns
178322,Westmount Elementary School Park,park,halifax,..,..,..,..,ns
178339,Westpoint Drive Park,park,halifax,..,..,..,..,ns
178342,Westridge Road Park,park,halifax,..,..,..,..,ns
178350,Westwind Ridge Park,park,halifax,..,..,..,..,ns
178356,Westwood Park,park,halifax,..,..,..,..,ns
178384,Whimsical Lake Park,park,halifax,..,..,..,..,ns
178390,White Hills Park,park,halifax,..,..,..,..,ns
178444,Wilcot Lane Park,park,halifax,..,..,..,..,ns
178470,Willard Christie Memorial Park,park,halifax,..,..,..,..,ns
178475,Willett Street Park,park,halifax,..,..,..,..,ns
178499,William Henry Harry Little Park,park,halifax,..,..,..,..,ns
178502,William King Elementary School Park,park,halifax,..,..,..,..,ns
178517,William Ross Park,park,halifax,..,..,..,..,ns
178527,Williams Lake Road Pocket Park,park,halifax,..,..,..,..,ns
178536,Williamswood Recreation Park,park,halifax,..,..,..,..,ns
178589,Wilson Lake Drive Park,park,halifax,..,..,..,..,ns
178620,Windgate Drive Park,park,halifax,..,..,..,..,ns
178634,Windwood Drive Park,park,halifax,..,..,..,..,ns
178645,Winley Estates Park,park,halifax,..,..,..,..,ns
178653,Winslow Drive Park,park,halifax,..,..,..,..,ns
178679,Withrod Drive Park,park,halifax,..,..,..,..,ns
178751,Woodlawn Park,park,halifax,..,..,..,..,ns
178760,Woodside Area Park,park,halifax,..,..,..,..,ns
178799,Wyndham Drive Park,park,halifax,..,..,..,..,ns
178802,Wyndholme Park,park,halifax,..,..,..,..,ns
178803,Wynn Castle Drive Park,park,halifax,..,..,..,..,ns
178814,Yeadon Green Park,park,halifax,..,..,..,..,ns
