Index,Facility_Name,ODRSF_facility_type,Provider,Street_No,Street_Name,Postal_Code,City,Prov_Terr
177172,Tidewater Lane Park,park,halifax,..,..,..,..,ns
177199,Timberlane Terrace Park,park,halifax,..,..,..,..,ns
177200,Timberlea Village Park,park,halifax,..,..,..,..,ns
177209,Titanium Crescent Park,park,halifax,..,..,..,..,ns
177210,Titus Smith Park,park,halifax,..,..,..,..,ns
177238,Tomahawk Run Park,park,halifax,..,..,..,..,ns
177251,Toni Avenue Park,park,halifax,..,..,..,..,ns
177363,Transom Drive Park,park,halifax,..,..,..,..,ns
177372,Travertine Court Park,park,halifax,..,..,..,..,ns
177373,Travis Court Park,park,halifax,..,..,..,..,ns
177385,Tremont Plateau Park,park,halifax,..,..,..,..,ns
177392,Trevor Avenue Park,park,halifax,..,..,..,..,ns
177449,Turnmill Drive Park,park,halifax,..,..,..,..,ns
177454,Turtle Marsh Park,park,halifax,..,..,..,..,ns
177488,Twining Drive Park,park,halifax,..,..,..,..,ns
177490,Tyler Sampson Park,park,halifax,..,..,..,..,ns
177653,Unnamed Park 10,park,halifax,..,..,..,..,ns
177654,Unnamed Park 11,park,halifax,..,..,..,..,ns
177655,Unnamed Park 12,park,halifax,..,..,..,..,ns
177656,Unnamed Park 13,park,halifax,..,..,..,..,ns
177657,Unnamed Park 14,park,halifax,..,..,..,..,ns
177658,Unnamed Park 15,park,halifax,..,..,..,..,ns
177659,Unnamed Park 16,park,halifax,..,..,..,..,ns
177660,Unnamed Park 17,park,halifax,..,..,..,..,ns
177661,Unnamed Park 18,park,halifax,..,..,..,..,ns
177662,Unnamed Park 19,park,halifax,..,..,..,..,ns
177663,Unnamed Park 20,park,halifax,..,..,..,..,ns
177664,Unnamed Park 21,park,halifax,..,..,..,..,ns
177665,Unnamed Park 22,park,halifax,..,..,..,..,ns
177666,Unnamed Park 23,park,halifax,..,..,..,..,ns
177667,Unnamed Park 24,park,halifax,..,..,..,..,ns
177668,Unnamed Park 25,park,halifax,..,..,..,..,ns
177669,Unnamed Park 26,park,halifax,..,..,..,..,ns
177670,Unnamed Park 27,park,halifax,..,..,..,..,ns
177671,Unnamed Park 3,park,halifax,..,..,..,..,ns
177672,Unnamed Park 4,park,halifax,..,..,..,..,ns
177673,Unnamed Park 5,park,halifax,..,..,..,..,ns
177674,Unnamed Park 6,park,halifax,..,..,..,..,ns
177675,Unnamed Park 7,park,halifax,..,..,..,..,ns
177676,Unnamed Park 8,park,halifax,..,..,..,..,ns
177677,Unnamed Park 9,park,halifax,..,..,..,..,ns
177678,Unnamed Park Amesbury Gate 1,park,halifax,..,..,..,..,ns
177679,Unnamed Park Amesbury Gate 2,park,halifax,..,..,..,..,ns
177685,Uplands Park,park,halifax,..,..,..,..,ns
177703,Upper Flinn Park,park,halifax,..,..,..,..,ns
177704,Upper Hammonds Plains Recreation Centre Park,park,halifax,..,..,..,..,ns
177709,Upper Musquodoboit Elementary School Park,park,halifax,..,..,..,..,ns
177710,Upper Musquodoboit Park,park,halifax,..,..,..,..,ns
177866,Victoria Park,park,halifax,..,..,..,..,ns
