Index,Facility_Name,ODRSF_facility_type,Provider,Street_No,Street_Name,Postal_Code,City,Prov_Terr
164813,Clarence Court Park,park,halifax,..,..,..,..,ns
164852,Clayton Park Junior High School Park,park,halifax,..,..,..,..,ns
164863,Clement Street Park,park,halifax,..,..,..,..,ns
164867,Cleveland Brewer Park,park,halifax,..,..,..,..,ns
164935,Cogswell Park,park,halifax,..,..,..,..,ns
164939,Colby Village Elementary School Park,park,halifax,..,..,..,..,ns
164940,Colby Village Recreation Centre Park,park,halifax,..,..,..,..,ns
164942,Cole Harbour Common,park,halifax,..,..,..,..,ns
164943,Cole Harbour District High School Park,park,halifax,..,..,..,..,ns
164944,Cole Harbour Salt Marsh Trail,park,halifax,..,..,..,..,ns
164968,Collins Grove Park,park,halifax,..,..,..,..,ns
164969,Collins Road Park,park,halifax,..,..,..,..,ns
164974,Colonel John Stuart Elementary School Park,park,halifax,..,..,..,..,ns
165001,Columbus Place Park,park,halifax,..,..,..,..,ns
165006,Commodore Park,park,halifax,..,..,..,..,ns
165040,Confederation Avenue Park,park,halifax,..,..,..,..,ns
165051,Conifer Court Park,park,halifax,..,..,..,..,ns
165056,Connaught Battery Park,park,halifax,..,..,..,..,ns
165065,Connrose Park,park,halifax,..,..,..,..,ns
165066,Conrod Beach Road Park,park,halifax,..,..,..,..,ns
165080,Cooks Brook Park,park,halifax,..,..,..,..,ns
165144,Cornwallis Park,park,halifax,..,..,..,..,ns
165145,Coronation Avenue Park,park,halifax,..,..,..,..,ns
165163,Correctional Centre Park,park,halifax,..,..,..,..,ns
165202,Country Lake Drive Park,park,halifax,..,..,..,..,ns
165253,Cove Road Park,park,halifax,..,..,..,..,ns
165262,Cow Bay Lake Park,park,halifax,..,..,..,..,ns
165263,Cow Bay Road Park,park,halifax,..,..,..,..,ns
165273,Coyote Park,park,halifax,..,..,..,..,ns
165285,Craigburn Drive Park,park,halifax,..,..,..,..,ns
165291,Cranberry Lake Park,park,halifax,..,..,..,..,ns
165299,Crathorne Park,park,halifax,..,..,..,..,ns
165356,Crichton Park Elementary School Park,park,halifax,..,..,..,..,ns
165408,Crowell Road Park,park,halifax,..,..,..,..,ns
165440,Cunard Junior High School Park,park,halifax,..,..,..,..,ns
165449,Cutler Avenue Park,park,halifax,..,..,..,..,ns
165450,Cutter Drive Park,park,halifax,..,..,..,..,ns
165455,Cyril Smith Park,park,halifax,..,..,..,..,ns
165459,D. J. Butler Park,park,halifax,..,..,..,..,ns
165470,Dale Bennett Memorial Park,park,halifax,..,..,..,..,ns
165514,Danny Drive Park,park,halifax,..,..,..,..,ns
165517,Darjeeling Drive Park,park,halifax,..,..,..,..,ns
165519,Darlington Drive Park,park,halifax,..,..,..,..,ns
165520,Dartmouth Common,park,halifax,..,..,..,..,ns
165521,Dartmouth Common Cemetery,park,halifax,..,..,..,..,ns
165522,Dartmouth Harbour East Recreation Campus,park,halifax,..,..,..,..,ns
165523,Dartmouth High School Park,park,halifax,..,..,..,..,ns
165524,Dartmouth Road Park,park,halifax,..,..,..,..,ns
165525,Dartmouth South Academy Park,park,halifax,..,..,..,..,ns
