Index,Facility_Name,ODRSF_facility_type,Provider,Street_No,Street_Name,Postal_Code,City,Prov_Terr
174865,Roblea Drive Park,park,halifax,..,..,..,..,ns
174881,Rockcliffe Drive Park,park,halifax,..,..,..,..,ns
174887,Rockingham Elementary School Park,park,halifax,..,..,..,..,ns
174888,Rockingham Ridge Park,park,halifax,..,..,..,..,ns
174889,Rockingstone Heights School Park,park,halifax,..,..,..,..,ns
174896,Rocky Lake Junior High School Park,park,halifax,..,..,..,..,ns
174935,Roleika Drive Park,park,halifax,..,..,..,..,ns
174999,Rosewood Lane Park,park,halifax,..,..,..,..,ns
175001,Rosley Road Park,park,halifax,..,..,..,..,ns
175011,Ross Road School Park,park,halifax,..,..,..,..,ns
175030,Rotary Park,park,halifax,..,..,..,..,ns
175321,Run Lake Park,park,halifax,..,..,..,..,ns
175340,Russell Drive Park,park,halifax,..,..,..,..,ns
175341,Russell Lake Park,park,halifax,..,..,..,..,ns
175359,Rutledge Street Park,park,halifax,..,..,..,..,ns
175364,Ryan Rosen Park,park,halifax,..,..,..,..,ns
175380,Sackville Centennial Elementary School Park,park,halifax,..,..,..,..,ns
175381,Sackville Cross Road Community Park,park,halifax,..,..,..,..,ns
175382,Sackville Heights Elementary School Park,park,halifax,..,..,..,..,ns
175383,Sackville Heights Junior High School Park,park,halifax,..,..,..,..,ns
175384,Sackville High School Park,park,halifax,..,..,..,..,ns
175386,Sackville Landing,park,halifax,..,..,..,..,ns
175387,Sackville River Linear Park,park,halifax,..,..,..,..,ns
175388,Sackville Sports Stadium Park,park,halifax,..,..,..,..,ns
175418,Saint Mary's Elementary School Park,park,halifax,..,..,..,..,ns
175419,Saint Paul's Cemetery,park,halifax,..,..,..,..,ns
175420,Saint Peter's Cemetery,park,halifax,..,..,..,..,ns
175437,Salmon River Drive Park,park,halifax,..,..,..,..,ns
175438,Salmon River Terrace Park,park,halifax,..,..,..,..,ns
175439,Salmon Run Park,park,halifax,..,..,..,..,ns
175443,Saltwater Lake Park,park,halifax,..,..,..,..,ns
175444,Salty Dips Park,park,halifax,..,..,..,..,ns
175445,Saluki Drive Park,park,halifax,..,..,..,..,ns
175454,Samaa Court Park,park,halifax,..,..,..,..,ns
175455,Sambro Elementary School Park,park,halifax,..,..,..,..,ns
175459,Samuel R. Balcom Community Centre Park,park,halifax,..,..,..,..,ns
175496,Sandwick Drive Park,park,halifax,..,..,..,..,ns
175502,Sandy Lake Park,park,halifax,..,..,..,..,ns
175503,Sandy Lake Road Park,park,halifax,..,..,..,..,ns
175504,Sandy Lane Park,park,halifax,..,..,..,..,ns
175506,Sandy Run Park,park,halifax,..,..,..,..,ns
175516,Sarah Ingraham Drive Park,park,halifax,..,..,..,..,ns
175530,Saunders Park,park,halifax,..,..,..,..,ns
175533,Savoy Avenue Community Park,park,halifax,..,..,..,..,ns
175534,Sawgrass Drive Park,park,halifax,..,..,..,..,ns
175583,Schmidt Lake Park,park,halifax,..,..,..,..,ns
175603,Schooner Drive Park,park,halifax,..,..,..,..,ns
175605,Schwarzwald Park,park,halifax,..,..,..,..,ns
175609,Scots Lake Park,park,halifax,..,..,..,..,ns
