Index,Facility_Name,ODRSF_facility_type,Provider,Street_No,Street_Name,Postal_Code,City,Prov_Terr
171355,Meadowlands Park,park,halifax,..,..,..,..,ns
171375,Meadowview Drive Park,park,halifax,..,..,..,..,ns
171379,Meaghers Grant Park,park,halifax,..,..,..,..,ns
171404,Melham Drive Community Park,park,halifax,..,..,..,..,ns
171407,Melrose Crescent Park,park,halifax,..,..,..,..,ns
171409,Meltzer Common Park,park,halifax,..,..,..,..,ns
171410,Melville Island Lookoff Park,park,halifax,..,..,..,..,ns
171412,Melwood Avenue Park,park,halifax,..,..,..,..,ns
171416,Memorial Drive Trail,park,halifax,..,..,..,..,ns
171442,Meridian Court Park,park,halifax,..,..,..,..,ns
171446,Merkel Place Park,park,halifax,..,..,..,..,ns
171458,Merv Sullivan Park,park,halifax,..,..,..,..,ns
171462,Metropolitan Avenue Park,park,halifax,..,..,..,..,ns
171478,Michael Wallace Elementary School Park,park,halifax,..,..,..,..,ns
171483,Michelle Drive Park,park,halifax,..,..,..,..,ns
171485,Micmac Drive Park,park,halifax,..,..,..,..,ns
171487,Middle Park,park,halifax,..,..,..,..,ns
171501,Midnight Run Park,park,halifax,..,..,..,..,ns
171592,Millstone Court Park,park,halifax,..,..,..,..,ns
171600,Millview Park,park,halifax,..,..,..,..,ns
171602,Millwood Common Park,park,halifax,..,..,..,..,ns
171603,Millwood Elementary School Park,park,halifax,..,..,..,..,ns
171604,Millwood High School Park,park,halifax,..,..,..,..,ns
171675,Mitchells Brook Park,park,halifax,..,..,..,..,ns
171730,Moirs Mill Park,park,halifax,..,..,..,..,ns
171746,Monarch Rivendale Park,park,halifax,..,..,..,..,ns
171767,Mont Blanc Terrace Park,park,halifax,..,..,..,..,ns
171768,Montague Estates Park,park,halifax,..,..,..,..,ns
171779,Montgomery Court Park,park,halifax,..,..,..,..,ns
171814,Morash Park,park,halifax,..,..,..,..,ns
171841,Mornington Court Park,park,halifax,..,..,..,..,ns
171844,Morris Lake Park,park,halifax,..,..,..,..,ns
171861,Moser River Park,park,halifax,..,..,..,..,ns
171883,Mount Edward Elementary School Park,park,halifax,..,..,..,..,ns
171884,Mount Edward Road Park,park,halifax,..,..,..,..,ns
171885,Mount Hermon Cemetery,park,halifax,..,..,..,..,ns
171909,Mount Royale Park,park,halifax,..,..,..,..,ns
171981,Munroe Park,park,halifax,..,..,..,..,ns
171999,Murray Drive Park,park,halifax,..,..,..,..,ns
172002,Murray Warrington Park,park,halifax,..,..,..,..,ns
172006,Musquodoboit Rural High School Park,park,halifax,..,..,..,..,ns
172007,Musquodoboit Trail At Greenway,park,halifax,..,..,..,..,ns
172008,Musquodoboit Valley Education Centre Park,park,halifax,..,..,..,..,ns
172014,Nadia Drive Park,park,halifax,..,..,..,..,ns
172015,Nadine Drive Park,park,halifax,..,..,..,..,ns
172049,Nathan Green Square,park,halifax,..,..,..,..,ns
172050,Nathan Smith Recreation Centre Park,park,halifax,..,..,..,..,ns
172060,Navigation Way Park,park,halifax,..,..,..,..,ns
172091,Nelson Whynder Elementary School Park,park,halifax,..,..,..,..,ns
