Index,Facility_Name,ODRSF_facility_type,Provider,Street_No,Street_Name,Postal_Code,City,Prov_Terr
170305,Lewis Lake Terrace Park,park,halifax,..,..,..,..,ns
170328,Limardo Drive Park,park,halifax,..,..,..,..,ns
170340,Lincoln Cross Park,park,halifax,..,..,..,..,ns
170374,Linden Lea Frog Pond Park,park,halifax,..,..,..,..,ns
170382,Lindforest Park,park,halifax,..,..,..,..,ns
170393,Linear Park,park,halifax,..,..,..,..,ns
170435,Lisa Ann Drive Park,park,halifax,..,..,..,..,ns
170443,Lisle Lake Court Park,park,halifax,..,..,..,..,ns
170488,Lizard Lake Park,park,halifax,..,..,..,..,ns
170501,Locks Road Park,park,halifax,..,..,..,..,ns
170502,Lockview High School Park,park,halifax,..,..,..,..,ns
170526,Long Cove Park,park,halifax,..,..,..,..,ns
170530,Long Lake Drive Park,park,halifax,..,..,..,..,ns
170550,Loriann Drive Park,park,halifax,..,..,..,..,ns
170566,Lost Creek Park,park,halifax,..,..,..,..,ns
170570,Lou Goddard Memorial Park,park,halifax,..,..,..,..,ns
170588,Lovers Cove Park,park,halifax,..,..,..,..,ns
170611,Lower Flinn Park,park,halifax,..,..,..,..,ns
170615,Lower Prospect Road Park,park,halifax,..,..,..,..,ns
170635,Lucy Court Park,park,halifax,..,..,..,..,ns
170680,Lynnett Road Park,park,halifax,..,..,..,..,ns
170689,Lynwood Drive Park,park,halifax,..,..,..,..,ns
170719,Macdonald Sports Park,park,halifax,..,..,..,..,ns
170733,Maclennan Drive Park,park,halifax,..,..,..,..,ns
170753,Madeline Symonds Middle School Park,park,halifax,..,..,..,..,ns
170774,Mahar Drive Park,park,halifax,..,..,..,..,ns
170781,Main Street Corner Park,park,halifax,..,..,..,..,ns
170787,Mainland Common,park,halifax,..,..,..,..,ns
170794,Majestic Avenue Park,park,halifax,..,..,..,..,ns
170808,Malay Falls Beach Park,park,halifax,..,..,..,..,ns
170838,Mandaville Court Park,park,halifax,..,..,..,..,ns
170858,Mansion Avenue Neighbourhood Park,park,halifax,..,..,..,..,ns
170866,Maple Drive Park,park,halifax,..,..,..,..,ns
170869,Maple Grove Avenue Park,park,halifax,..,..,..,..,ns
170913,Maplewood Drive Park,park,halifax,..,..,..,..,ns
170980,Marjorie Drive Park,park,halifax,..,..,..,..,ns
171032,Marlborough Woods Park,park,halifax,..,..,..,..,ns
171062,Martins Park,park,halifax,..,..,..,..,ns
171065,Mary Beth Benedict Memorial Park,park,halifax,..,..,..,..,ns
171067,Mary Clayton Memorial Park,park,halifax,..,..,..,..,ns
171074,Mary Lawson Park,park,halifax,..,..,..,..,ns
171091,Masons Point Park,park,halifax,..,..,..,..,ns
171150,Maybank Park,park,halifax,..,..,..,..,ns
171166,Maynard Lake Park,park,halifax,..,..,..,..,ns
171186,Mccabe Brook Park,park,halifax,..,..,..,..,ns
171187,Mccabe Lake Drive Park,park,halifax,..,..,..,..,ns
171228,Mcdonald Lake Park,park,halifax,..,..,..,..,ns
171261,Mcintosh Run District Park,park,halifax,..,..,..,..,ns
171343,Meadowbrook Drive Park,park,halifax,..,..,..,..,ns
