Index,Facility_Name,ODRSF_facility_type,Provider,Street_No,Street_Name,Postal_Code,City,Prov_Terr
167603,Goldeneye Drive Park,park,halifax,..,..,..,..,ns
167614,Golf Links Park,park,halifax,..,..,..,..,ns
167637,Gordon Bell Park,park,halifax,..,..,..,..,ns
167644,Gordon J. Stevens Park,park,halifax,..,..,..,..,ns
167649,Gordon R. Snow Community Centre Park,park,halifax,..,..,..,..,ns
167665,Gorsebrook Park,park,halifax,..,..,..,..,ns
167676,Governors Brook District Park,park,halifax,..,..,..,..,ns
167677,Governors Glen Park,park,halifax,..,..,..,..,ns
167697,Grafton Street Park,park,halifax,..,..,..,..,ns
167699,Graham Creighton Junior High School Park,park,halifax,..,..,..,..,ns
167712,Grand Desert Park,park,halifax,..,..,..,..,ns
167713,Grand Lake Drive Park,park,halifax,..,..,..,..,ns
167716,Grand Parade,park,halifax,..,..,..,..,ns
167752,Granite Cove Drive Park,park,halifax,..,..,..,..,ns
167767,Granville Mall,park,halifax,..,..,..,..,ns
167775,Grassy Brook Park,park,halifax,..,..,..,..,ns
167781,Graves-Oakley Memorial Park,park,halifax,..,..,..,..,ns
167786,Grayson Court Park,park,halifax,..,..,..,..,ns
167791,Greely Court Park,park,halifax,..,..,..,..,ns
167796,Green Acres Park,park,halifax,..,..,..,..,ns
167798,Green Bay Park,park,halifax,..,..,..,..,ns
167806,Green Meadows Park,park,halifax,..,..,..,..,ns
167811,Green Street Parkette,park,halifax,..,..,..,..,ns
167815,Green Village Lane Park,park,halifax,..,..,..,..,ns
167837,Greenforest Park,park,halifax,..,..,..,..,ns
167845,Greenhill Road Park,park,halifax,..,..,..,..,ns
167847,Greenpark Close Park,park,halifax,..,..,..,..,ns
167869,Greenwood Heights Park,park,halifax,..,..,..,..,ns
167878,Gregory Drive Park,park,halifax,..,..,..,..,ns
167881,Grenoble Court Park,park,halifax,..,..,..,..,ns
167906,Grosvenor-Wentworth Park Elementary School Park,park,halifax,..,..,..,..,ns
167943,Guy & Irene Tucker Park,park,halifax,..,..,..,..,ns
167963,Hacketts Cove Park,park,halifax,..,..,..,..,ns
167966,Hadley Crescent Neighbourhood Park,park,halifax,..,..,..,..,ns
167975,Hages Lane Park,park,halifax,..,..,..,..,ns
167979,Hail Pond Park,park,halifax,..,..,..,..,ns
167988,Halfway Lake Park,park,halifax,..,..,..,..,ns
167989,Haliburton Park,park,halifax,..,..,..,..,ns
167990,Halifax Central Common,park,halifax,..,..,..,..,ns
167991,Halifax Christian Academy,park,halifax,..,..,..,..,ns
167993,Halifax North Common,park,halifax,..,..,..,..,ns
167994,Halifax West High School Park,park,halifax,..,..,..,..,ns
167996,Hallow Park,park,halifax,..,..,..,..,ns
168009,Hammonds Plains Consolidated Elementary School,park,halifax,..,..,..,..,ns
168043,Harbour View Elementary School Park,park,halifax,..,..,..,..,ns
168059,Harmes Drive Park,park,halifax,..,..,..,..,ns
168071,Harold T. Barrett Junior High School Park,park,halifax,..,..,..,..,ns
168077,Harrietsfield Community Centre Park,park,halifax,..,..,..,..,ns
168078,Harrietsfield Elementary School Park,park,halifax,..,..,..,..,ns
