Index,Facility_Name,ODRSF_facility_type,Provider,Street_No,Street_Name,Postal_Code,City,Prov_Terr
305,Beaver Bank - Kinsac Community Centre,community centre,halifax,..,..,..,..,ns
314,Bedford Hammonds Plains Community Centre,community centre,halifax,..,..,..,..,ns
431,Bloomfield Centre,community centre,halifax,..,..,..,..,ns
677,Captain William Spry Community Centre,community centre,halifax,..,..,..,..,ns
708,Carrolls Corner Community Centre,community centre,halifax,..,..,..,..,ns
1026,Cherry Brook Community Centre,community centre,halifax,..,..,..,..,ns
1075,Citadel Community Centre,community centre,halifax,..,..,..,..,ns
1131,Cole Harbour Community Centre,community centre,halifax,..,..,..,..,ns
1132,Cole Harbour Place,community centre,halifax,..,..,..,..,ns
1155,Community Recreation Centre,community centre,halifax,..,..,..,..,ns
1249,Crichton Centre,community centre,halifax,..,..,..,..,ns
1295,Dartmouth North Community Centre,community centre,halifax,..,..,..,..,ns
1470,East Dartmouth Community Centre,community centre,halifax,..,..,..,..,ns
1493,Eastern Shore Community Centre,community centre,halifax,..,..,..,..,ns
1612,Fairbank Centre,community centre,halifax,..,..,..,..,ns
1675,Findlay Community Centre,community centre,halifax,..,..,..,..,ns
1828,George Dixon Community Recreation Centre,community centre,halifax,..,..,..,..,ns
1939,Gordon R Snow Community Centre,community centre,halifax,..,..,..,..,ns
2070,Harrietsfield - Williamswood Community Centre,community centre,halifax,..,..,..,..,ns
2097,Head Of St Margarets Bay Community Centre,community centre,halifax,..,..,..,..,ns
2377,Isleville Community Centre,community centre,halifax,..,..,..,..,ns
2547,Ketch Harbour And Area Community Hall,community centre,halifax,..,..,..,..,ns
2663,Lake & Shore Community Recreation Centre,community centre,halifax,..,..,..,..,ns
2668,Lake Echo Community Centre,community centre,halifax,..,..,..,..,ns
2737,Lawrencetown Community Centre,community centre,halifax,..,..,..,..,ns
2832,Local Council Of Woman Halifax,community centre,halifax,..,..,..,..,ns
3375,Mineville Community Centre,community centre,halifax,..,..,..,..,ns
3385,Mitchell Cove Commerce And Community Centre,community centre,halifax,..,..,..,..,ns
3441,Moser River Community Hall,community centre,halifax,..,..,..,..,ns
3487,Musquodoboit Valley Bicentennial Cultural Centre,community centre,halifax,..,..,..,..,ns
3575,North Preston Community Centre,community centre,halifax,..,..,..,..,ns
3584,North Woodside Community Centre,community centre,halifax,..,..,..,..,ns
3586,Northbrook Community Centre,community centre,halifax,..,..,..,..,ns
3638,Oakwood House,community centre,halifax,..,..,..,..,ns
4784,Porters Lake Community Centre,community centre,halifax,..,..,..,..,ns
4831,Prospect Road Community Centre,community centre,halifax,..,..,..,..,ns
5177,Riverline Community Centre,community centre,halifax,..,..,..,..,ns
5185,Riverview Community Centre,community centre,halifax,..,..,..,..,ns
5289,Sackville Heights Community Centre,community centre,halifax,..,..,..,..,ns
5313,Samuel R Balcom Community Centre,community centre,halifax,..,..,..,..,ns
5399,Sheet Harbour Lions Community Centre,community centre,halifax,..,..,..,..,ns
5682,Spencer House Senior Centre,community centre,halifax,..,..,..,..,ns
5886,St Marks Community Centre,community centre,halifax,..,..,..,..,ns
5957,Ste Therese Community Centre,community centre,halifax,..,..,..,..,ns
6071,The Commons Pavilion,community centre,halifax,..,..,..,..,ns
6078,The Old School Gathering Place Co-Operative,community centre,halifax,..,..,..,..,ns
6200,Upper Hammonds Plains Community Centre,community centre,halifax,..,..,..,..,ns
6201,Upper Musquodoboit Community Hall,community centre,halifax,..,..,..,..,ns
6379,Wallace Lucas Community Centre,community centre,halifax,..,..,..,..,ns
