Index,Facility_Name,ODRSF_facility_type,Provider,Street_No,Street_Name,Postal_Code,City,Prov_Terr
28102,Glen Slauenwhite Trail,trail,halifax,..,..,..,..,ns
28103,Glen Slauenwhite Trail,trail,halifax,..,..,..,..,ns
28104,Glen Slauenwhite Trail,trail,halifax,..,..,..,..,ns
28105,Glen Slauenwhite Trail,trail,halifax,..,..,..,..,ns
28106,Glen Slauenwhite Trail,trail,halifax,..,..,..,..,ns
28107,Glen Slauenwhite Trail,trail,halifax,..,..,..,..,ns
28108,Glen Slauenwhite Trail,trail,halifax,..,..,..,..,ns
28109,Glen Slauenwhite Trail,trail,halifax,..,..,..,..,ns
28110,Glen Slauenwhite Trail,trail,halifax,..,..,..,..,ns
28111,Glen Slauenwhite Trail,trail,halifax,..,..,..,..,ns
28112,Glen Slauenwhite Trail,trail,halifax,..,..,..,..,ns
28113,Glen Slauenwhite Trail,trail,halifax,..,..,..,..,ns
28114,Glen Slauenwhite Trail,trail,halifax,..,..,..,..,ns
28115,Glenbourne Park Trail,trail,halifax,..,..,..,..,ns
28116,Glenbourne Park Trail,trail,halifax,..,..,..,..,ns
28266,Gorsebud Cl To Mainland Linear Trail,trail,halifax,..,..,..,..,ns
28616,Green Village Lane Park Walkway,trail,halifax,..,..,..,..,ns
28617,Green Village Lane Park Walkway,trail,halifax,..,..,..,..,ns
28618,Green Village Lane Park Walkway,trail,halifax,..,..,..,..,ns
28619,Green Village Lane Park Walkway,trail,halifax,..,..,..,..,ns
28820,Halifax Urban At Greenway,trail,halifax,..,..,..,..,ns
28821,Halifax Urban At Greenway,trail,halifax,..,..,..,..,ns
28822,Halifax Urban At Greenway,trail,halifax,..,..,..,..,ns
28823,Halifax Waterfront Boardwalk,trail,halifax,..,..,..,..,ns
28824,Halifax Waterfront Boardwalk,trail,halifax,..,..,..,..,ns
28825,Halifax Waterfront Boardwalk,trail,halifax,..,..,..,..,ns
28826,Halifax Waterfront Boardwalk,trail,halifax,..,..,..,..,ns
28827,Halifax Waterfront Boardwalk,trail,halifax,..,..,..,..,ns
28828,Halifax Waterfront Boardwalk,trail,halifax,..,..,..,..,ns
28829,Halifax Waterfront Boardwalk,trail,halifax,..,..,..,..,ns
28846,Hammonds Plains Trail,trail,halifax,..,..,..,..,ns
28847,Hammonds Plains Trail,trail,halifax,..,..,..,..,ns
28848,Hammonds Plains Trail,trail,halifax,..,..,..,..,ns
28849,Hammonds Plains Trail,trail,halifax,..,..,..,..,ns
28850,Hammonds Plains Trail,trail,halifax,..,..,..,..,ns
28851,Hammonds Plains Trail,trail,halifax,..,..,..,..,ns
28852,Hammonds Plains Trail,trail,halifax,..,..,..,..,ns
28853,Hammonds Plains Trail,trail,halifax,..,..,..,..,ns
28854,Hammonds Plains Trail,trail,halifax,..,..,..,..,ns
28855,Hammonds Plains Trail,trail,halifax,..,..,..,..,ns
28856,Hammonds Plains Trail,trail,halifax,..,..,..,..,ns
28857,Hammonds Plains Trail,trail,halifax,..,..,..,..,ns
28858,Hammonds Plains Trail,trail,halifax,..,..,..,..,ns
28859,Hammonds Plains Trail,trail,halifax,..,..,..,..,ns
28860,Hammonds Plains Trail,trail,halifax,..,..,..,..,ns
28861,Hammonds Plains Trail,trail,halifax,..,..,..,..,ns
28862,Hammonds Plains Trail,trail,halifax,..,..,..,..,ns
29114,Heathside Cres To Mainland Linear Trail,trail,halifax,..,..,..,..,ns
29142,Hemlock Ravine Trail,trail,halifax,..,..,..,..,ns
