Index,Facility_Name,ODRSF_facility_type,Provider,Street_No,Street_Name,Postal_Code,City,Prov_Terr
173890,Pine Bluff Island Park,park,halifax,..,..,..,..,ns
173896,Pine Street Park,park,halifax,..,..,..,..,ns
173903,Pinecrest Park,park,halifax,..,..,..,..,ns
173912,Pinehaven Drive Park,park,halifax,..,..,..,..,ns
173973,Plateau Crescent Park,park,halifax,..,..,..,..,ns
173983,Pleasant Valley Park,park,halifax,..,..,..,..,ns
173994,Po2 Craig Blake Memorial Park,park,halifax,..,..,..,..,ns
173995,Pockwock Road Park,park,halifax,..,..,..,..,ns
174003,Point Pleasant Park,park,halifax,..,..,..,..,ns
174037,Poplar Drive Park,park,halifax,..,..,..,..,ns
174069,Porters Lake Community Centre Park,park,halifax,..,..,..,..,ns
174070,Porters Lake Elementary School Park,park,halifax,..,..,..,..,ns
174071,Portland Estates School Park,park,halifax,..,..,..,..,ns
174077,Portuguese Cove Park,park,halifax,..,..,..,..,ns
174121,Prince Andrew High School Park,park,halifax,..,..,..,..,ns
174170,Prospect Bay Road Park,park,halifax,..,..,..,..,ns
174171,Prospect Bay View Park,park,halifax,..,..,..,..,ns
174175,Prospect Road Elementary School Park,park,halifax,..,..,..,..,ns
174192,Public Gardens,park,halifax,..,..,..,..,ns
174279,Quintin Silas Patterson Memorial Park,park,halifax,..,..,..,..,ns
174283,R. S. Allen Memorial Park,park,halifax,..,..,..,..,ns
174299,Radcliffe Drive Park,park,halifax,..,..,..,..,ns
174312,Raena June Perry Memorial Park,park,halifax,..,..,..,..,ns
174314,Rafting Drive Neighbourhood Park,park,halifax,..,..,..,..,ns
174334,Rajeeve Purba Memorial Park,park,halifax,..,..,..,..,ns
174361,Randall Avenue Park,park,halifax,..,..,..,..,ns
174374,Range Park,park,halifax,..,..,..,..,ns
174395,Rat Island View Park,park,halifax,..,..,..,..,ns
174402,Ravenscraig Drive Park,park,halifax,..,..,..,..,ns
174431,Raymond Taavel Park,park,halifax,..,..,..,..,ns
174456,Red Bridge Pond Park,park,halifax,..,..,..,..,ns
174517,Regatta Point Park,park,halifax,..,..,..,..,ns
174542,Remington Court Park,park,halifax,..,..,..,..,ns
174550,Renfrew Street Park,park,halifax,..,..,..,..,ns
174584,Richardson Drive Park,park,halifax,..,..,..,..,ns
174610,Ridding Road Park,park,halifax,..,..,..,..,ns
174623,Ridge Avenue Park,park,halifax,..,..,..,..,ns
174631,Ridgecliff Middle School Park,park,halifax,..,..,..,..,ns
174633,Ridgevale Drive Park 1,park,halifax,..,..,..,..,ns
174634,Ridgevale Drive Park 2,park,halifax,..,..,..,..,ns
174661,Rising Sun Trail Park,park,halifax,..,..,..,..,ns
174663,Ritcey Crescent Park,park,halifax,..,..,..,..,ns
174685,River Park,park,halifax,..,..,..,..,ns
174792,Riverview Drive Park,park,halifax,..,..,..,..,ns
174805,Riverwood Drive Park,park,halifax,..,..,..,..,ns
174815,Roaches Pond Ball Diamond Park,park,halifax,..,..,..,..,ns
174816,Roaches Pond Park,park,halifax,..,..,..,..,ns
174822,Robert Drive Park,park,halifax,..,..,..,..,ns
174838,Robert Kemp Turner Elementary School Park,park,halifax,..,..,..,..,ns
