Index,Facility_Name,ODRSF_facility_type,Provider,Street_No,Street_Name,Postal_Code,City,Prov_Terr
29144,Hemlock Ravine Trail,trail,halifax,..,..,..,..,ns
29145,Hemlock Ravine Trail,trail,halifax,..,..,..,..,ns
29146,Hemlock Ravine Trail,trail,halifax,..,..,..,..,ns
29147,Hemlock Ravine Trail,trail,halifax,..,..,..,..,ns
29148,Hemlock Ravine Trail,trail,halifax,..,..,..,..,ns
29149,Hemlock Ravine Trail,trail,halifax,..,..,..,..,ns
29150,Hemlock Ravine Trail,trail,halifax,..,..,..,..,ns
29151,Hemlock Ravine Trail,trail,halifax,..,..,..,..,ns
29152,Hemlock Ravine Trail,trail,halifax,..,..,..,..,ns
29153,Hemlock Ravine Trail,trail,halifax,..,..,..,..,ns
29154,Hemlock Ravine Trail,trail,halifax,..,..,..,..,ns
29155,Hemlock Ravine Trail,trail,halifax,..,..,..,..,ns
29156,Hemlock Ravine Trail,trail,halifax,..,..,..,..,ns
29157,Hemlock Ravine Trail,trail,halifax,..,..,..,..,ns
29158,Hemlock Ravine Trail,trail,halifax,..,..,..,..,ns
29159,Hemlock Ravine Trail,trail,halifax,..,..,..,..,ns
29160,Hemlock Ravine Trail,trail,halifax,..,..,..,..,ns
29161,Hemlock Ravine Trail,trail,halifax,..,..,..,..,ns
29162,Hemlock Ravine Trail,trail,halifax,..,..,..,..,ns
29163,Hemlock Ravine Trail,trail,halifax,..,..,..,..,ns
29164,Hemlock Ravine Trail,trail,halifax,..,..,..,..,ns
29165,Hemlock Ravine Trail,trail,halifax,..,..,..,..,ns
29166,Hemlock Ravine Trail,trail,halifax,..,..,..,..,ns
29167,Hemlock Ravine Trail,trail,halifax,..,..,..,..,ns
29168,Hemlock Ravine Trail,trail,halifax,..,..,..,..,ns
29169,Hemlock Ravine Trail,trail,halifax,..,..,..,..,ns
29170,Hemlock Ravine Trail,trail,halifax,..,..,..,..,ns
29171,Hemlock Ravine Trail,trail,halifax,..,..,..,..,ns
29172,Hemlock Ravine Trail,trail,halifax,..,..,..,..,ns
29173,Hemlock Ravine Trail,trail,halifax,..,..,..,..,ns
29174,Hemlock Ravine Trail,trail,halifax,..,..,..,..,ns
29175,Hemlock Ravine Trail,trail,halifax,..,..,..,..,ns
29300,Henry Finlay Park Walkway,trail,halifax,..,..,..,..,ns
29646,Hobsons Lake Trail,trail,halifax,..,..,..,..,ns
29647,Hobsons Lake Trail,trail,halifax,..,..,..,..,ns
29648,Hobsons Lake Trail,trail,halifax,..,..,..,..,ns
29649,Hobsons Lake Trail,trail,halifax,..,..,..,..,ns
29650,Hobson's Lake Trail,trail,halifax,..,..,..,..,ns
29694,Horseshoe Park Trail,trail,halifax,..,..,..,..,ns
31047,John Macneil Elementary School Park Walkway,trail,halifax,..,..,..,..,ns
31048,John Macneil Elementary School Park Walkway,trail,halifax,..,..,..,..,ns
31049,John Macneil Elementary School Park Walkway,trail,halifax,..,..,..,..,ns
34931,Lake Banook Trail,trail,halifax,..,..,..,..,ns
34932,Lake Banook Trail,trail,halifax,..,..,..,..,ns
34933,Lake Banook Trail,trail,halifax,..,..,..,..,ns
34975,Lakeside Pump Station Diversion,trail,halifax,..,..,..,..,ns
35179,Lantz To East Milford,trail,halifax,..,..,..,..,ns
35292,Laurie Provincial Park Trail,trail,halifax,..,..,..,..,ns
35745,Linear Trail At Parkwest,trail,halifax,..,..,..,..,ns
