Index,Facility_Name,ODRSF_facility_type,Provider,Street_No,Street_Name,Postal_Code,City,Prov_Terr
176295,Spryfield Lions Club Arena,park,halifax,..,..,..,..,ns
176356,St Joseph'S-Alexander Mckay Elementary School Park,park,halifax,..,..,..,..,ns
176402,St. Agnes Junior High School Park,park,halifax,..,..,..,..,ns
176405,St. Andrew's Community Centre Park,park,halifax,..,..,..,..,ns
176406,St. Andrew's Park,park,halifax,..,..,..,..,ns
176424,St. Catherine's Elementary School Park,park,halifax,..,..,..,..,ns
176478,St. Margaret's Bay Centre,park,halifax,..,..,..,..,ns
176479,St. Margaret's Bay Elementary School Park,park,halifax,..,..,..,..,ns
176480,St. Margaret's Bay Rail To Trails Park,park,halifax,..,..,..,..,ns
176489,St. Mary's Boat Club Park,park,halifax,..,..,..,..,ns
176501,St. Stephen's Elementary School Park,park,halifax,..,..,..,..,ns
176527,Stage Road Park,park,halifax,..,..,..,..,ns
176537,Stanley I. Raine Park,park,halifax,..,..,..,..,ns
176541,Stanley Park,park,halifax,..,..,..,..,ns
176553,Starboard Drive Park,park,halifax,..,..,..,..,ns
176554,Starflower Way Community Park,park,halifax,..,..,..,..,ns
176558,Starr Park,park,halifax,..,..,..,..,ns
176563,States Lane Park,park,halifax,..,..,..,..,ns
176591,Sterling Drive Park,park,halifax,..,..,..,..,ns
176618,Stokil Drive Park,park,halifax,..,..,..,..,ns
176622,Stone Mount Drive Park,park,halifax,..,..,..,..,ns
176655,Stoneyridge Lane Park,park,halifax,..,..,..,..,ns
176658,Stonington Park,park,halifax,..,..,..,..,ns
176677,Stratford Way Park And Gardens,park,halifax,..,..,..,..,ns
176740,Sullivan's Pond Park,park,halifax,..,..,..,..,ns
176746,Summer Field Way Park,park,halifax,..,..,..,..,ns
176769,Summit Heights Park,park,halifax,..,..,..,..,ns
176776,Sun Key Drive Park,park,halifax,..,..,..,..,ns
176816,Sunnyview Terrace Park,park,halifax,..,..,..,..,ns
176826,Sunset Acres Park,park,halifax,..,..,..,..,ns
176847,Sussex Drive Park,park,halifax,..,..,..,..,ns
176894,Sybyl Court Park,park,halifax,..,..,..,..,ns
176895,Sycamore Lane Elementary School Park,park,halifax,..,..,..,..,ns
176908,Sylvania Terrace Park,park,halifax,..,..,..,..,ns
176946,Tamarack Hills Park,park,halifax,..,..,..,..,ns
176961,Tantallon Junior Elementary Park,park,halifax,..,..,..,..,ns
176962,Tantallon Senior Elementary Park,park,halifax,..,..,..,..,ns
176963,Tantallon Woods Park,park,halifax,..,..,..,..,ns
176969,Tara Drive Park,park,halifax,..,..,..,..,ns
176975,Tattenham Crescent Park,park,halifax,..,..,..,..,ns
176984,Taylor Drive Park,park,halifax,..,..,..,..,ns
176996,Teachery Park,park,halifax,..,..,..,..,ns
177025,Tenon Drive Park,park,halifax,..,..,..,..,ns
177026,Terence Bay Elementary School Park,park,halifax,..,..,..,..,ns
177027,Terence Bay Playground,park,halifax,..,..,..,..,ns
177028,Terence Bay River Park,park,halifax,..,..,..,..,ns
177057,The Birches Park,park,halifax,..,..,..,..,ns
177067,The Gullies Park,park,halifax,..,..,..,..,ns
177115,Thompson Drive Park,park,halifax,..,..,..,..,ns
