Index,Facility_Name,ODRSF_facility_type,Provider,Street_No,Street_Name,Postal_Code,City,Prov_Terr
163861,Brule Street Park,park,halifax,..,..,..,..,ns
163869,Bryanston Road Park,park,halifax,..,..,..,..,ns
163877,Buckingham Common Park,park,halifax,..,..,..,..,ns
163878,Buckingham Drive Park,park,halifax,..,..,..,..,ns
163896,Bunchberry Lane Park,park,halifax,..,..,..,..,ns
163945,Burton Ettinger School Park,park,halifax,..,..,..,..,ns
163987,C. A. Beckett Park,park,halifax,..,..,..,..,ns
163992,Cabot Place Park,park,halifax,..,..,..,..,ns
164017,Caldwell Road Elementary School Park,park,halifax,..,..,..,..,ns
164021,Caledonia Road Park,park,halifax,..,..,..,..,ns
164056,Cameron Park,park,halifax,..,..,..,..,ns
164065,Camp Hill Cemetery,park,halifax,..,..,..,..,ns
164082,Campbell Point Park,park,halifax,..,..,..,..,ns
164118,Cannon Terrace Park,park,halifax,..,..,..,..,ns
164129,Canterbury Lane Park,park,halifax,..,..,..,..,ns
164143,Capilano Common Park,park,halifax,..,..,..,..,ns
164166,Captain William Spry Centre,park,halifax,..,..,..,..,ns
164189,Carl Morash Memorial Park,park,halifax,..,..,..,..,ns
164220,Carmel Crescent Park,park,halifax,..,..,..,..,ns
164235,Carolyns Way Park,park,halifax,..,..,..,..,ns
164255,Carrolls Corner Community Centre Park,park,halifax,..,..,..,..,ns
164294,Castle Hill Park,park,halifax,..,..,..,..,ns
164321,Catherine Furness Park,park,halifax,..,..,..,..,ns
164323,Catherine Maclean Sullivan Park,park,halifax,..,..,..,..,ns
164337,Caudle Park Elementary School Park,park,halifax,..,..,..,..,ns
164338,Cavalier Drive Elementary School Park,park,halifax,..,..,..,..,ns
164361,Cedar Crescent Park,park,halifax,..,..,..,..,ns
164453,Centennial Park,park,halifax,..,..,..,..,ns
164503,Central Spryfield Elementary School Park,park,halifax,..,..,..,..,ns
164525,Chain Lake Park,park,halifax,..,..,..,..,ns
164526,Chain Of Lakes Trail Park,park,halifax,..,..,..,..,ns
164528,Chalamont Drive Park,park,halifax,..,..,..,..,ns
164535,Chamberlain Drive Park,park,halifax,..,..,..,..,ns
164561,Chani Drive Park,park,halifax,..,..,..,..,ns
164569,Chapais Drive Park,park,halifax,..,..,..,..,ns
164598,Charles P. Allen High School Park,park,halifax,..,..,..,..,ns
164633,Chaswood Drive Park,park,halifax,..,..,..,..,ns
164642,Chebucto Connaught Parkette,park,halifax,..,..,..,..,ns
164643,Chebucto Heights Elementary School Park,park,halifax,..,..,..,..,ns
164644,Chebucto Landing,park,halifax,..,..,..,..,ns
164645,Chebucto Road Park,park,halifax,..,..,..,..,ns
164660,Chelton Woods Park,park,halifax,..,..,..,..,ns
164670,Cherry Brook Lake Loon Park,park,halifax,..,..,..,..,ns
164687,Cheviot Hills Park,park,halifax,..,..,..,..,ns
164716,Chisholm Avenue Park,park,halifax,..,..,..,..,ns
164722,Chocolate Lake Community Centre Park,park,halifax,..,..,..,..,ns
164723,Chocolate Lake Park,park,halifax,..,..,..,..,ns
164740,Christopher Lane Park,park,halifax,..,..,..,..,ns
164747,Church Street Park,park,halifax,..,..,..,..,ns
