Index,Facility_Name,ODRSF_facility_type,Provider,Street_No,Street_Name,Postal_Code,City,Prov_Terr
162160,Albro Lake Park,park,halifax,..,..,..,..,ns
162163,Alder Crescent Park,park,halifax,..,..,..,..,ns
162165,Alder Piper Park,park,halifax,..,..,..,..,ns
162183,Alderney Elementary School Park,park,halifax,..,..,..,..,ns
162246,Allen Heights Park,park,halifax,..,..,..,..,ns
162269,Alpine Drive Park,park,halifax,..,..,..,..,ns
162311,Amesbury Gate Community Park,park,halifax,..,..,..,..,ns
162316,Amin Street Park,park,halifax,..,..,..,..,ns
162339,Andrew Cobb Park,park,halifax,..,..,..,..,ns
162476,Ardmore Park,park,halifax,..,..,..,..,ns
162509,Armcrest Park,park,halifax,..,..,..,..,ns
162513,Armstrong Court Park,park,halifax,..,..,..,..,ns
162525,Arnold Whitworth Park,park,halifax,..,..,..,..,ns
162566,Ash Lee Jefferson Elementary School Park,park,halifax,..,..,..,..,ns
162571,Ashburn Park,park,halifax,..,..,..,..,ns
162620,Astral Drive Elementary & Junior High School Park,park,halifax,..,..,..,..,ns
162621,Astral Drive Neighbourhood Park,park,halifax,..,..,..,..,ns
162626,Atholea Drive Park,park,halifax,..,..,..,..,ns
162629,Atlantic Memorial Elementary School Park,park,halifax,..,..,..,..,ns
162630,Atlantic View Elementary School Park,park,halifax,..,..,..,..,ns
162631,Atlantic View Regional Trail Park,park,halifax,..,..,..,..,ns
162642,Auburn Drive High School Park,park,halifax,..,..,..,..,ns
162643,Auburn John Stewart Park,park,halifax,..,..,..,..,ns
162647,Audrey's Park,park,halifax,..,..,..,..,ns
162666,Autumn Drive Park,park,halifax,..,..,..,..,ns
162676,Avenue Du Portage Park,park,halifax,..,..,..,..,ns
162692,Azure Court Park,park,halifax,..,..,..,..,ns
162706,Baker Drive Community Park,park,halifax,..,..,..,..,ns
162715,Balcom Park,park,halifax,..,..,..,..,ns
162785,Bareng Court Park,park,halifax,..,..,..,..,ns
162806,Barrett Lake Park,park,halifax,..,..,..,..,ns
162827,Basinview Drive Community School Park,park,halifax,..,..,..,..,ns
162828,Basinview Drive Park,park,halifax,..,..,..,..,ns
162829,Bass Court Park,park,halifax,..,..,..,..,ns
162831,Basswood Run Park,park,halifax,..,..,..,..,ns
162833,Bastian Point Road Park,park,halifax,..,..,..,..,ns
162862,Bay Look Off Park,park,halifax,..,..,..,..,ns
162865,Bayers Road Windsor Street Park,park,halifax,..,..,..,..,ns
162956,Bearpaw Drive Park,park,halifax,..,..,..,..,ns
162971,Beaufort Drive Park,park,halifax,..,..,..,..,ns
162992,Beaver Bank Kinsac Elementary School Park,park,halifax,..,..,..,..,ns
162993,Beaver Bank Kinsac Park,park,halifax,..,..,..,..,ns
162994,Beaver Bank Monarch Elementary School Park,park,halifax,..,..,..,..,ns
163001,Beaver Lake Park,park,halifax,..,..,..,..,ns
163005,Beaverbrook Park,park,halifax,..,..,..,..,ns
163011,Beazley Park,park,halifax,..,..,..,..,ns
163020,Bedford Barrens,park,halifax,..,..,..,..,ns
163021,Bedford Junior High School Park,park,halifax,..,..,..,..,ns
163022,Bedford Lions Park,park,halifax,..,..,..,..,ns
