Index,Facility_Name,ODRSF_facility_type,Provider,Street_No,Street_Name,Postal_Code,City,Prov_Terr
93,Allison Grounds Playground,playground,saint john,..,..,..,..,nb
134,Anglin Drive Playground,playground,saint john,..,..,..,..,nb
262,Barnhill Memorial School,gym,saint john,..,..,..,..,nb
279,Bayside Middle School,gym,saint john,..,..,..,..,nb
282,Bayview Elementary School Playground,playground,saint john,..,..,..,..,nb
293,Beaconsfield School,gym,saint john,..,..,..,..,nb
484,Boyaner Crescent Playground,playground,saint john,..,..,..,..,nb
489,Boys & Girls Club,community centre,saint john,..,..,..,..,nb
491,Boys And Girls Club Playground,playground,saint john,..,..,..,..,nb
653,Canada Games Aquatic Centre,pool,saint john,..,..,..,..,nb
681,Carleton,community centre,saint john,..,..,..,..,nb
764,Celebration Street Playground,playground,saint john,..,..,..,..,nb
790,Centennial School,gym,saint john,..,..,..,..,nb
791,Centennial School Community Playground,playground,saint john,..,..,..,..,nb
995,Champlain Heights School,gym,saint john,..,..,..,..,nb
996,Champlain Heights School Playground,playground,saint john,..,..,..,..,nb
1007,Charles Gorman Arena,arena,saint john,..,..,..,..,nb
1047,Chown Field Bark Park,park,saint john,..,..,..,..,nb
1142,Colonial Inn,pool,saint john,..,..,..,..,nb
1224,Courtney Avenue Park Playground,playground,saint john,..,..,..,..,nb
1290,Dalila Court Playground,playground,saint john,..,..,..,..,nb
1326,Delta Brunswick Hotel,pool,saint john,..,..,..,..,nb
1330,Denis Morris,community centre,saint john,..,..,..,..,nb
1364,Dominion Park Playground,playground,saint john,..,..,..,..,nb
1414,Dresden Avenue Playground,playground,saint john,..,..,..,..,nb
1500,Eastmount Playground,playground,saint john,..,..,..,..,nb
1548,Ellerdale Street Park Playground,playground,saint john,..,..,..,..,nb
1606,Exhibition Park Raceway,race track,saint john,..,..,..,..,nb
1694,Flemming Court Splash Pad,splash pad,saint john,..,..,..,..,nb
1715,Forest Glen,community centre,saint john,..,..,..,..,nb
1725,Forest Hills School,gym,saint john,..,..,..,..,nb
1726,Forest Hills School Playground,playground,saint john,..,..,..,..,nb
1739,Fort Howe Hotel,pool,saint john,..,..,..,..,nb
1792,G. Forbes Elliot Athletics Centre (Unbsj),gym,saint john,..,..,..,..,nb
1880,Glen Falls Elementary School Playground,playground,saint john,..,..,..,..,nb
1881,Glen Falls School,gym,saint john,..,..,..,..,nb
2058,Harbour Station,arena,saint john,..,..,..,..,nb
2060,Harbour View High School,gym,saint john,..,..,..,..,nb
2061,Harbour View High School,pool,saint john,..,..,..,..,nb
2083,Havelock Elementary School,gym,saint john,..,..,..,..,nb
2084,Havelock Elementary School Playground,playground,saint john,..,..,..,..,nb
2095,Hazen White / St. Francis School Playground,playground,saint john,..,..,..,..,nb
2096,Hazen-White / St. Francis School,gym,saint john,..,..,..,..,nb
2194,Hilton Belyea Arena,arena,saint john,..,..,..,..,nb
2195,Hilton Belyea Arena Playground,arena,saint john,..,..,..,..,nb
2197,Hilton Saint John,pool,saint john,..,..,..,..,nb
2221,Honeysuckle Drive Playground,playground,saint john,..,..,..,..,nb
2223,Hope Center Playground,playground,saint john,..,..,..,..,nb
2230,Hotel Courtenay Bay,pool,saint john,..,..,..,..,nb
