Index,Facility_Name,ODRSF_facility_type,Provider,Street_No,Street_Name,Postal_Code,City,Prov_Terr
48877,Our Compliments,trail,saint john,..,..,..,..,nb
48878,Our Compliments,trail,saint john,..,..,..,..,nb
48879,Our Compliments,trail,saint john,..,..,..,..,nb
48880,Our Compliments,trail,saint john,..,..,..,..,nb
48881,Our Compliments,trail,saint john,..,..,..,..,nb
48894,Owen Lake,trail,saint john,..,..,..,..,nb
48895,Owen Lake,trail,saint john,..,..,..,..,nb
48896,Owen Lake,trail,saint john,..,..,..,..,nb
48897,Owen Lake,trail,saint john,..,..,..,..,nb
48898,Owen Lake,trail,saint john,..,..,..,..,nb
48899,Owen Lake,trail,saint john,..,..,..,..,nb
50411,Pugsley,trail,saint john,..,..,..,..,nb
50412,Pugsley,trail,saint john,..,..,..,..,nb
50413,Pugsley,trail,saint john,..,..,..,..,nb
51283,Rockpile Road,trail,saint john,..,..,..,..,nb
51284,Rockpile Road,trail,saint john,..,..,..,..,nb
51285,Rockpile Road,trail,saint john,..,..,..,..,nb
51286,Rockpile Road,trail,saint john,..,..,..,..,nb
52086,Seal Trail,trail,saint john,..,..,..,..,nb
52087,Seal Trail,trail,saint john,..,..,..,..,nb
52088,Seal Trail,trail,saint john,..,..,..,..,nb
52089,Seal Trail,trail,saint john,..,..,..,..,nb
52090,Seal Trail,trail,saint john,..,..,..,..,nb
52091,Seal Trail,trail,saint john,..,..,..,..,nb
52092,Seal Trail,trail,saint john,..,..,..,..,nb
52093,Seal Trail,trail,saint john,..,..,..,..,nb
53621,Shyzer,trail,saint john,..,..,..,..,nb
53622,Shyzer,trail,saint john,..,..,..,..,nb
53623,Shyzer,trail,saint john,..,..,..,..,nb
53624,Shyzer,trail,saint john,..,..,..,..,nb
53625,Shyzer,trail,saint john,..,..,..,..,nb
53626,Shyzer,trail,saint john,..,..,..,..,nb
53792,Simon Says,trail,saint john,..,..,..,..,nb
53873,Ski Hill Parking Lot,trail,saint john,..,..,..,..,nb
53874,Ski Hill Parking Lot,trail,saint john,..,..,..,..,nb
53875,Ski Hill Parking Lot,trail,saint john,..,..,..,..,nb
53876,Ski Hill Parking Lot,trail,saint john,..,..,..,..,nb
53877,Ski Hill Parking Lot,trail,saint john,..,..,..,..,nb
53878,Ski Hill Parking Lot,trail,saint john,..,..,..,..,nb
53879,Ski Hill Road,trail,saint john,..,..,..,..,nb
53880,Ski Hill Road,trail,saint john,..,..,..,..,nb
53881,Ski Hill Road,trail,saint john,..,..,..,..,nb
53882,Ski Hill Road,trail,saint john,..,..,..,..,nb
53883,Ski Hill Road,trail,saint john,..,..,..,..,nb
53884,Ski Hill Road,trail,saint john,..,..,..,..,nb
53885,Ski Hill Road,trail,saint john,..,..,..,..,nb
53886,Ski Hill Road,trail,saint john,..,..,..,..,nb
53895,Skywalker,trail,saint john,..,..,..,..,nb
54108,Splenda,trail,saint john,..,..,..,..,nb
