Index,Facility_Name,ODRSF_facility_type,Provider,Street_No,Street_Name,Postal_Code,City,Prov_Terr
2375,Island View School Playground,playground,saint john,..,..,..,..,nb
2515,Karen Street Playground,playground,saint john,..,..,..,..,nb
2521,Kbm,community centre,saint john,..,..,..,..,nb
2548,Ketepec Belmont Morna Community Center Playground,playground,saint john,..,..,..,..,nb
2577,King Edward School,gym,saint john,..,..,..,..,nb
2685,Lakewood Heights School,gym,saint john,..,..,..,..,nb
2686,Lakewood Heights School Playground,playground,saint john,..,..,..,..,nb
2717,Latimore Lake,community centre,saint john,..,..,..,..,nb
2718,Latimore Lake Community Center Playground,playground,saint john,..,..,..,..,nb
2719,Latimore Lake Outdoor Zone,playground,saint john,..,..,..,..,nb
2817,Little River Reservoir Bark Park,park,saint john,..,..,..,..,nb
2818,Little River Reservoir Playground,playground,saint john,..,..,..,..,nb
2834,Loch Lomond School,gym,saint john,..,..,..,..,nb
2851,Lord Beaverbrook Rink,rink,saint john,..,..,..,..,nb
2857,Lorne Middle School,gym,saint john,..,..,..,..,nb
2858,Lorneville,community centre,saint john,..,..,..,..,nb
2859,Lorneville Community Center Playground,playground,saint john,..,..,..,..,nb
2860,Lou Murphy Park Playground,playground,saint john,..,..,..,..,nb
2968,M. Gerald Teed Memorial School,gym,saint john,..,..,..,..,nb
2969,M. Gerald Teed School Playground,playground,saint john,..,..,..,..,nb
3196,Market Place West Playground,playground,saint john,..,..,..,..,nb
3197,Market Place West Skatepark,skate park,saint john,..,..,..,..,nb
3207,Martinon,community centre,saint john,..,..,..,..,nb
3208,Martinon Community Center Playground,playground,saint john,..,..,..,..,nb
3338,Midwood Avenue Playground,playground,saint john,..,..,..,..,nb
3339,Milford Memorial,community centre,saint john,..,..,..,..,nb
3356,Millidgeville,community centre,saint john,..,..,..,..,nb
3357,Millidgeville North School,gym,saint john,..,..,..,..,nb
3358,Millidgeville School Playground,playground,saint john,..,..,..,..,nb
3403,Monte Cristo Playground,playground,saint john,..,..,..,..,nb
3429,Morna Heights School,gym,saint john,..,..,..,..,nb
3430,Morna Heights School Playground,playground,saint john,..,..,..,..,nb
3434,Morris Street Playground,playground,saint john,..,..,..,..,nb
3493,Nason Road Playground,playground,saint john,..,..,..,..,nb
3523,New Brunswick Community College,gym,saint john,..,..,..,..,nb
3562,North End,community centre,saint john,..,..,..,..,nb
3641,Ocean Drive Playground,playground,saint john,..,..,..,..,nb
4518,Peter Murrary Arena,arena,saint john,..,..,..,..,nb
4807,Prince Charles Elementary School Playground,playground,saint john,..,..,..,..,nb
4810,Prince Charles School,gym,saint john,..,..,..,..,nb
4819,Princess Elizabeth School,gym,saint john,..,..,..,..,nb
4820,Princess Elizabeth School Playground,playground,saint john,..,..,..,..,nb
5044,Quinton Heights Park Playground,playground,saint john,..,..,..,..,nb
5061,Rainbow Park Playground,playground,saint john,..,..,..,..,nb
5062,Rainbow Park Splash Pad,splash pad,saint john,..,..,..,..,nb
5194,Robertson Square,playground,saint john,..,..,..,..,nb
5202,Rockwood Park Bark Park,park,saint john,..,..,..,..,nb
5203,Rockwood Park Playground,playground,saint john,..,..,..,..,nb
5255,Royal Kennebeccasis Yacht Club,marina,saint john,..,..,..,..,nb
