Index,Facility_Name,ODRSF_facility_type,Provider,Street_No,Street_Name,Postal_Code,City,Prov_Terr
5298,Saint John High School,pool,saint john,..,..,..,..,nb
5299,Saint John Marina,marina,saint john,..,..,..,..,nb
5300,Saint John Power Boat Club,marina,saint john,..,..,..,..,nb
5312,Samuel De Champlain,gym,saint john,..,..,..,..,nb
5314,Samuel-De-Champlain School Playground,playground,saint john,..,..,..,..,nb
5361,Seaside Park Playground,playground,saint john,..,..,..,..,nb
5362,Seawood School,gym,saint john,..,..,..,..,nb
5363,Seawood School Playground,playground,saint john,..,..,..,..,nb
5442,Simonds High School,gym,saint john,..,..,..,..,nb
5443,Simonds High School,pool,saint john,..,..,..,..,nb
5649,South End,community centre,saint john,..,..,..,..,nb
5910,St. John The Baptist School / South End Community Center Playground,playground,saint john,..,..,..,..,nb
5916,St. Joseph'S,community centre,saint john,..,..,..,..,nb
5922,St. Malachy's Memorial High School,gym,saint john,..,..,..,..,nb
5930,St. Patrick's Elementary School Playground,playground,saint john,..,..,..,..,nb
5931,St. Patrick's School,gym,saint john,..,..,..,..,nb
5932,St. Rose School,gym,saint john,..,..,..,..,nb
5933,St. Rose School Playground,playground,saint john,..,..,..,..,nb
5955,Station 1 Skatepark,skate park,saint john,..,..,..,..,nb
5968,Stewart Hurley Arena,arena,saint john,..,..,..,..,nb
6035,Swanton Street Playground,playground,saint john,..,..,..,..,nb
6057,Teen Resource Centre,community centre,saint john,..,..,..,..,nb
6276,Victoria Street Playground,playground,saint john,..,..,..,..,nb
6630,Woodhaven Drive Playground,playground,saint john,..,..,..,..,nb
6640,Woodlawn Learning Centre,gym,saint john,..,..,..,..,nb
6673,Ymca,community centre,saint john,..,..,..,..,nb
6674,Ymca,pool,saint john,..,..,..,..,nb
7164,Allison Grounds,sports field,saint john,..,..,..,..,nb
7165,Allison Grounds,sports field,saint john,..,..,..,..,nb
8309,Barrack Green Armouries,sports field,saint john,..,..,..,..,nb
8310,Barrack Green Armouries,sports field,saint john,..,..,..,..,nb
8852,Bayview Elementary School,sports field,saint john,..,..,..,..,nb
8853,Bayview Elementary School,sports field,saint john,..,..,..,..,nb
8877,Beaconsfield Park,sports field,saint john,..,..,..,..,nb
9423,Canada Games Stadium,sports field,saint john,..,..,..,..,nb
9424,Canada Games Stadium,sports field,saint john,..,..,..,..,nb
9472,Carleton Curling Club,rink,saint john,..,..,..,..,nb
9574,Cedar Groves,sports field,saint john,..,..,..,..,nb
9706,Champlain Heights School,sports field,saint john,..,..,..,..,nb
9707,Champlain Heights School,sports field,saint john,..,..,..,..,nb
9769,Cherry Brook Zoo,miscellaneous,saint john,..,..,..,..,nb
9797,Chown Field,sports field,saint john,..,..,..,..,nb
10233,Courtenay Avenue / East Saint John Diamond,sports field,saint john,..,..,..,..,nb
10447,Dennis Morris Field,sports field,saint john,..,..,..,..,nb
10516,Dominion Park Courts,sports field,saint john,..,..,..,..,nb
10853,Emera New Brunswick Field At Shamrock Park,sports field,saint john,..,..,..,..,nb
11167,Forest Hills Park,sports field,saint john,..,..,..,..,nb
11168,Forest Hills Park,sports field,saint john,..,..,..,..,nb
11169,Forest Hills Park,sports field,saint john,..,..,..,..,nb
