Index,Facility_Name,ODRSF_facility_type,Provider,Street_No,Street_Name,Postal_Code,City,Prov_Terr
24058,Chown Field,trail,saint john,..,..,..,..,nb
24059,Chown Field,trail,saint john,..,..,..,..,nb
24060,Chown Field,trail,saint john,..,..,..,..,nb
24061,Chown Field,trail,saint john,..,..,..,..,nb
24062,Chown Field,trail,saint john,..,..,..,..,nb
24230,Clean Air,trail,saint john,..,..,..,..,nb
24231,Clean Air,trail,saint john,..,..,..,..,nb
24232,Clean Air,trail,saint john,..,..,..,..,nb
24233,Clean Air,trail,saint john,..,..,..,..,nb
24245,Cliff Trail,trail,saint john,..,..,..,..,nb
24246,Cliff Trail,trail,saint john,..,..,..,..,nb
24247,Cliff Trail,trail,saint john,..,..,..,..,nb
24862,Courduroy,trail,saint john,..,..,..,..,nb
24863,Courduroy,trail,saint john,..,..,..,..,nb
24864,Courduroy,trail,saint john,..,..,..,..,nb
24865,Courduroy,trail,saint john,..,..,..,..,nb
24866,Courduroy,trail,saint john,..,..,..,..,nb
24867,Courduroy,trail,saint john,..,..,..,..,nb
25102,Crystal Lake,trail,saint john,..,..,..,..,nb
25103,Crystal Lake,trail,saint john,..,..,..,..,nb
25104,Crystal Lake,trail,saint john,..,..,..,..,nb
25105,Crystal Lake,trail,saint john,..,..,..,..,nb
25106,Crystal Lake,trail,saint john,..,..,..,..,nb
25107,Crystal Lake,trail,saint john,..,..,..,..,nb
25108,Crystal Lake,trail,saint john,..,..,..,..,nb
25109,Crystal Lake,trail,saint john,..,..,..,..,nb
25110,Crystal Lake,trail,saint john,..,..,..,..,nb
25111,Crystal Lake,trail,saint john,..,..,..,..,nb
25358,Deer Trax,trail,saint john,..,..,..,..,nb
25359,Deer Trax,trail,saint john,..,..,..,..,nb
25360,Deer Trax,trail,saint john,..,..,..,..,nb
25834,Donnie's Detour,trail,saint john,..,..,..,..,nb
25835,Donnie's Detour,trail,saint john,..,..,..,..,nb
25836,Donnie's Detour,trail,saint john,..,..,..,..,nb
26485,Enthusiasts' Path,trail,saint john,..,..,..,..,nb
27042,Fisher Lakes Dr,trail,saint john,..,..,..,..,nb
27043,Fisher Lakes Dr,trail,saint john,..,..,..,..,nb
27044,Fisher Lakes Dr,trail,saint john,..,..,..,..,nb
27045,Fisher Lakes Dr,trail,saint john,..,..,..,..,nb
27046,Fisher Lakes Dr,trail,saint john,..,..,..,..,nb
27047,Fisher Lakes Dr,trail,saint john,..,..,..,..,nb
27048,Fisher Lakes Dr,trail,saint john,..,..,..,..,nb
27049,Fisher Lakes Dr,trail,saint john,..,..,..,..,nb
27050,Fisher Lakes Dr,trail,saint john,..,..,..,..,nb
27051,Fisher Lakes Dr,trail,saint john,..,..,..,..,nb
27052,Fisher Lakes Dr,trail,saint john,..,..,..,..,nb
27053,Fisher Lakes Dr,trail,saint john,..,..,..,..,nb
27054,Fisher Lakes Dr,trail,saint john,..,..,..,..,nb
27055,Fisher Lakes Dr,trail,saint john,..,..,..,..,nb
