Index,Facility_Name,ODRSF_facility_type,Provider,Street_No,Street_Name,Postal_Code,City,Prov_Terr
11171,Forest Hills Park,sports field,saint john,..,..,..,..,nb
11172,Forest Hills School,sports field,saint john,..,..,..,..,nb
11936,Hilton Belyea Arena,sports field,saint john,..,..,..,..,nb
12157,Island View School,sports field,saint john,..,..,..,..,nb
12424,Ketepec Belmont Morna Community Centre,sports field,saint john,..,..,..,..,nb
12841,Lakewood Heights School,sports field,saint john,..,..,..,..,nb
12908,Latimore Lake,sports field,saint john,..,..,..,..,nb
13129,Loch Lomond School,sports field,saint john,..,..,..,..,nb
13168,Lou Murphy / Milford Park,sports field,saint john,..,..,..,..,nb
13239,M. Gerald Teed School,sports field,saint john,..,..,..,..,nb
13240,M.G. Teed Memorial School,sports field,saint john,..,..,..,..,nb
13369,Market Place West,sports field,saint john,..,..,..,..,nb
13370,Market Square Courts,sports field,saint john,..,..,..,..,nb
13384,Martinon Community Centre,sports field,saint john,..,..,..,..,nb
13580,Memorial Park,sports field,saint john,..,..,..,..,nb
13581,Memorial Park,sports field,saint john,..,..,..,..,nb
13582,Memorial Park,sports field,saint john,..,..,..,..,nb
13583,Memorial Park,sports field,saint john,..,..,..,..,nb
13584,Memorial Park,sports field,saint john,..,..,..,..,nb
13709,Millidgeville North School,sports field,saint john,..,..,..,..,nb
13710,Millidgeville North School,sports field,saint john,..,..,..,..,nb
13711,Millidgeville North School,sports field,saint john,..,..,..,..,nb
14902,Princess Elizabeth School,sports field,saint john,..,..,..,..,nb
15409,Rockwood Park Golf Course,sports field,saint john,..,..,..,..,nb
15585,Samuel-De-Champlain School,sports field,saint john,..,..,..,..,nb
15586,Samuel-De-Champlain School,sports field,saint john,..,..,..,..,nb
15587,Samuel-De-Champlain School,sports field,saint john,..,..,..,..,nb
15688,Seawood Elementary School,sports field,saint john,..,..,..,..,nb
15731,Shamrock Park,sports field,saint john,..,..,..,..,nb
15732,Shamrock Park,sports field,saint john,..,..,..,..,nb
15733,Shamrock Park,sports field,saint john,..,..,..,..,nb
15734,Shamrock Park,sports field,saint john,..,..,..,..,nb
15735,Shamrock Park,sports field,saint john,..,..,..,..,nb
15866,Simonds High School,sports field,saint john,..,..,..,..,nb
15867,Simonds High School,sports field,saint john,..,..,..,..,nb
17149,St. Francis School,sports field,saint john,..,..,..,..,nb
17220,St. Peter's Park,sports field,saint john,..,..,..,..,nb
17710,Thistle - St. Andrews Curling Club,rink,saint john,..,..,..,..,nb
17745,Tiger Claws,sports field,saint john,..,..,..,..,nb
18541,Woodlawn Learning Center,sports field,saint john,..,..,..,..,nb
19397,18Th Hole,trail,saint john,..,..,..,..,nb
19782,9Th Hole,trail,saint john,..,..,..,..,nb
19783,9Th Hole,trail,saint john,..,..,..,..,nb
19784,9Th Hole,trail,saint john,..,..,..,..,nb
19785,9Th Hole,trail,saint john,..,..,..,..,nb
22126,Blueberry Hill,trail,saint john,..,..,..,..,nb
22127,Blueberry Hill,trail,saint john,..,..,..,..,nb
22128,Blueberry Hill,trail,saint john,..,..,..,..,nb
22129,Blueberry Hill,trail,saint john,..,..,..,..,nb
