Index,Facility_Name,ODRSF_facility_type,Provider,Street_No,Street_Name,Postal_Code,City,Prov_Terr
163621,Braemar,park,moncton,..,..,..,..,nb
163663,Brentwood,park,moncton,..,..,..,..,nb
163882,Budd,park,moncton,..,..,..,..,nb
164053,Camelot Estates,park,moncton,..,..,..,..,nb
164097,Canadian Heights,park,moncton,..,..,..,..,nb
164109,Candlewood,park,moncton,..,..,..,..,nb
164426,Centennial,park,moncton,..,..,..,..,nb
164933,Codiac Heights,park,moncton,..,..,..,..,nb
165050,Congressional,park,moncton,..,..,..,..,nb
165315,Creek Village,park,moncton,..,..,..,..,nb
166119,East,park,moncton,..,..,..,..,nb
166135,East End,park,moncton,..,..,..,..,nb
166641,Fairview Knoll,park,moncton,..,..,..,..,nb
167104,Freeman,park,moncton,..,..,..,..,nb
167170,Gagnon,park,moncton,..,..,..,..,nb
167200,Garden Hill,park,moncton,..,..,..,..,nb
167909,Grove Hamlet,park,moncton,..,..,..,..,nb
167939,Gurney,park,moncton,..,..,..,..,nb
167997,Halls Creek,park,moncton,..,..,..,..,nb
168003,Hamilton Heights,park,moncton,..,..,..,..,nb
168408,Highfield,park,moncton,..,..,..,..,nb
168449,Hildegard,park,moncton,..,..,..,..,nb
168530,Holland,park,moncton,..,..,..,..,nb
168842,Irishtown Nature,park,moncton,..,..,..,..,nb
168886,Israelii,park,moncton,..,..,..,..,nb
169168,John Mccrae,park,moncton,..,..,..,..,nb
169234,Jones Lake,park,moncton,..,..,..,..,nb
169286,Jubilee,park,moncton,..,..,..,..,nb
169886,Knox,park,moncton,..,..,..,..,nb
170300,Lewis,park,moncton,..,..,..,..,nb
170310,Lewisville,park,moncton,..,..,..,..,nb
170708,Macaleese Meadows,park,moncton,..,..,..,..,nb
170767,Magnetic Hill Estates,park,moncton,..,..,..,..,nb
170904,Maplehurst,park,moncton,..,..,..,..,nb
170911,Mapleton,park,moncton,..,..,..,..,nb
170948,Marguerite Maillet,park,moncton,..,..,..,..,nb
171334,Mcsweeney,park,moncton,..,..,..,..,nb
171623,Milner,park,moncton,..,..,..,..,nb
171924,Mountain Woods,park,moncton,..,..,..,..,nb
172300,Northwest,park,moncton,..,..,..,..,nb
172420,Oak,park,moncton,..,..,..,..,nb
173715,Pauline Frizzell,park,moncton,..,..,..,..,nb
173913,Pinehurst,park,moncton,..,..,..,..,nb
174017,Pommier,park,moncton,..,..,..,..,nb
174127,Prince Edward,park,moncton,..,..,..,..,nb
174442,Reade,park,moncton,..,..,..,..,nb
174535,Reicker,park,moncton,..,..,..,..,nb
174543,René-Arthur Fréchet,park,moncton,..,..,..,..,nb
174555,Renton,park,moncton,..,..,..,..,nb
