Index,Facility_Name,ODRSF_facility_type,Provider,Street_No,Street_Name,Postal_Code,City,Prov_Terr
51064,Riverfront,trail,moncton,..,..,..,..,nb
51065,Riverfront,trail,moncton,..,..,..,..,nb
51066,Riverfront,trail,moncton,..,..,..,..,nb
51067,Riverfront,trail,moncton,..,..,..,..,nb
51068,Riverfront,trail,moncton,..,..,..,..,nb
51069,Riverfront,trail,moncton,..,..,..,..,nb
51070,Riverfront,trail,moncton,..,..,..,..,nb
51071,Riverfront,trail,moncton,..,..,..,..,nb
51072,Riverfront,trail,moncton,..,..,..,..,nb
51073,Riverfront,trail,moncton,..,..,..,..,nb
51074,Riverfront,trail,moncton,..,..,..,..,nb
51075,Riverfront,trail,moncton,..,..,..,..,nb
51709,Ruisseau Rabbit Brook,trail,moncton,..,..,..,..,nb
51710,Ruisseau Rabbit Brook,trail,moncton,..,..,..,..,nb
51711,Ruisseau Rabbit Brook,trail,moncton,..,..,..,..,nb
51712,Ruisseau Rabbit Brook,trail,moncton,..,..,..,..,nb
51713,Ruisseau Rabbit Brook,trail,moncton,..,..,..,..,nb
51714,Ruisseau Rabbit Brook,trail,moncton,..,..,..,..,nb
51715,Ruisseau Rabbit Brook,trail,moncton,..,..,..,..,nb
51716,Ruisseau Rabbit Brook,trail,moncton,..,..,..,..,nb
51717,Ruisseau Rabbit Brook,trail,moncton,..,..,..,..,nb
51718,Ruisseau Rabbit Brook,trail,moncton,..,..,..,..,nb
51719,Ruisseau Rabbit Brook,trail,moncton,..,..,..,..,nb
51720,Ruisseau Rabbit Brook,trail,moncton,..,..,..,..,nb
51721,Ruisseau Rabbit Brook,trail,moncton,..,..,..,..,nb
51722,Ruisseau Rabbit Brook,trail,moncton,..,..,..,..,nb
51723,Ruisseau Rabbit Brook,trail,moncton,..,..,..,..,nb
51724,Ruisseau Rabbit Brook,trail,moncton,..,..,..,..,nb
51725,Ruisseau Rabbit Brook,trail,moncton,..,..,..,..,nb
51726,Ruisseau Rabbit Brook,trail,moncton,..,..,..,..,nb
52074,Scout,trail,moncton,..,..,..,..,nb
54101,Spillway,trail,moncton,..,..,..,..,nb
54102,Spillway,trail,moncton,..,..,..,..,nb
54542,Suoman,trail,moncton,..,..,..,..,nb
54543,Suoman,trail,moncton,..,..,..,..,nb
54544,Suoman,trail,moncton,..,..,..,..,nb
55279,Topaqan,trail,moncton,..,..,..,..,nb
55280,Topaqan,trail,moncton,..,..,..,..,nb
55281,Topaqan,trail,moncton,..,..,..,..,nb
62735,Transmission,trail,moncton,..,..,..,..,nb
62736,Transmission,trail,moncton,..,..,..,..,nb
62737,Transmission,trail,moncton,..,..,..,..,nb
62738,Transmission,trail,moncton,..,..,..,..,nb
62739,Transmission Access,trail,moncton,..,..,..,..,nb
62740,Transmission Access,trail,moncton,..,..,..,..,nb
62799,Tsuga,trail,moncton,..,..,..,..,nb
62800,Tsuga,trail,moncton,..,..,..,..,nb
62801,Tsuga,trail,moncton,..,..,..,..,nb
62802,Tsuga,trail,moncton,..,..,..,..,nb
