Index,Facility_Name,ODRSF_facility_type,Provider,Street_No,Street_Name,Postal_Code,City,Prov_Terr
78,Alexander Splash Pad,splash pad,moncton,85,reade,..,..,nb
722,Casino New Brunswick,casino,moncton,21,casino,E1G 0R7,..,nb
778,Centennial Park Beach,beach,moncton,45,centennial beach,..,..,nb
779,Centennial Park Dog Park,park,moncton,..,st george,..,..,nb
780,Centennial Park Splash Pad,splash pad,moncton,15,centennial beach,..,..,nb
1236,Creek Village Splash Pad,splash pad,moncton,40,pleasant,..,..,nb
1256,Crossman Community Centre - Kay Arena,arena,moncton,99,wynwood,..,..,nb
2016,Grove Hamlet Splash Pad,splash pad,moncton,39,ripplewood,..,..,nb
2773,Lewisville Y Splash Pad,splash pad,moncton,45,glenmoor,..,..,nb
3169,Maplehurst Splash Pad,splash pad,moncton,115,maplehurst,..,..,nb
4811,Prince Edward Park Splash Pad,splash pad,moncton,25,burlington,..,..,nb
5113,Renton Park Splash Pad,splash pad,moncton,280,noel,..,..,nb
5689,Splash Pad,splash pad,moncton,..,..,..,..,nb
6005,Sumner Park Splash Pad,splash pad,moncton,170,lorne,..,..,nb
6476,Westbrook Community Centre,community centre,moncton,16,community,..,moncton,nb
10087,Cn Sportplexe (Baseball Fields),sports field,moncton,80,russ,..,..,nb
10088,Cn Sportplexe (Soccer Fields),sports field,moncton,135,russ howard,..,..,nb
10256,Crandall University (Baseball Field),sports field,moncton,333,gorge,..,..,nb
10257,Crandall University (Soccer Field),sports field,moncton,333,gorge,..,..,nb
10907,Evergreeen Baseball Field,sports field,moncton,333,evergreen,E1G 2J2,..,nb
13268,Magnetic Hill Zoo,miscellaneous,moncton,125,magic mountain,E1G 4V7,..,nb
15488,Royal Oaks Golf Club,sports field,moncton,401,royal oaks,E1H 3S7,..,nb
17604,Tennis Moncton,sports field,moncton,40,centennial park,..,..,nb
18264,Westbrook Baseball Field,sports field,moncton,..,community,..,..,nb
18335,Wheeler Baseball Field,sports field,moncton,54,crowley,..,..,nb
19873,Access,trail,moncton,..,..,..,..,nb
19874,Access,trail,moncton,..,..,..,..,nb
19875,Access,trail,moncton,..,..,..,..,nb
19876,Access,trail,moncton,..,..,..,..,nb
19877,Access,trail,moncton,..,..,..,..,nb
19878,Access,trail,moncton,..,..,..,..,nb
19879,Access,trail,moncton,..,..,..,..,nb
19880,Access,trail,moncton,..,..,..,..,nb
19881,Access,trail,moncton,..,..,..,..,nb
19882,Access,trail,moncton,..,..,..,..,nb
19883,Access,trail,moncton,..,..,..,..,nb
19884,Access,trail,moncton,..,..,..,..,nb
19885,Access,trail,moncton,..,..,..,..,nb
19887,Access,trail,moncton,..,..,..,..,nb
19888,Access,trail,moncton,..,..,..,..,nb
19889,Access,trail,moncton,..,..,..,..,nb
19900,Access,trail,moncton,..,..,..,..,nb
19901,Access,trail,moncton,..,..,..,..,nb
19902,Access,trail,moncton,..,..,..,..,nb
19903,Access,trail,moncton,..,..,..,..,nb
19904,Access,trail,moncton,..,..,..,..,nb
19905,Access,trail,moncton,..,..,..,..,nb
19906,Access,trail,moncton,..,..,..,..,nb
19907,Access,trail,moncton,..,..,..,..,nb
