Index,Facility_Name,ODRSF_facility_type,Provider,Street_No,Street_Name,Postal_Code,City,Prov_Terr
27150,Floodplain,trail,moncton,..,..,..,..,nb
27151,Floodplain,trail,moncton,..,..,..,..,nb
27152,Floodplain,trail,moncton,..,..,..,..,nb
27153,Floodplain,trail,moncton,..,..,..,..,nb
27154,Floodplain,trail,moncton,..,..,..,..,nb
27155,Floodplain,trail,moncton,..,..,..,..,nb
27156,Floodplain,trail,moncton,..,..,..,..,nb
27157,Floodplain,trail,moncton,..,..,..,..,nb
27158,Floodplain,trail,moncton,..,..,..,..,nb
27159,Floodplain,trail,moncton,..,..,..,..,nb
27160,Floodplain,trail,moncton,..,..,..,..,nb
27161,Floodplain,trail,moncton,..,..,..,..,nb
27461,Foret Acadienne,trail,moncton,..,..,..,..,nb
27753,Gagnon Park Pathway,trail,moncton,..,..,..,..,nb
28008,Gerhardt,trail,moncton,..,..,..,..,nb
28034,Gitpo,trail,moncton,..,..,..,..,nb
29089,Hawk,trail,moncton,..,..,..,..,nb
29090,Hawk,trail,moncton,..,..,..,..,nb
29493,Hibou,trail,moncton,..,..,..,..,nb
29840,Humphreys Brook,trail,moncton,..,..,..,..,nb
29841,Humphreys Brook,trail,moncton,..,..,..,..,nb
29842,Humphreys Brook,trail,moncton,..,..,..,..,nb
29843,Humphreys Brook,trail,moncton,..,..,..,..,nb
29844,Humphrey's Brook Access,trail,moncton,..,..,..,..,nb
31036,John Howard,trail,moncton,..,..,..,..,nb
31056,John Mccrae,trail,moncton,..,..,..,..,nb
31057,John Mccrae,trail,moncton,..,..,..,..,nb
31058,John Mccrae,trail,moncton,..,..,..,..,nb
31133,Jones Lake,trail,moncton,..,..,..,..,nb
31134,Jones Lake,trail,moncton,..,..,..,..,nb
31135,Jones Lake,trail,moncton,..,..,..,..,nb
31136,Jones Lake,trail,moncton,..,..,..,..,nb
31137,Jones Lake,trail,moncton,..,..,..,..,nb
31138,Jones Lake,trail,moncton,..,..,..,..,nb
34907,Lagune,trail,moncton,..,..,..,..,nb
34908,Lagune,trail,moncton,..,..,..,..,nb
34909,Lagune,trail,moncton,..,..,..,..,nb
34910,Lagune,trail,moncton,..,..,..,..,nb
35184,Lapin,trail,moncton,..,..,..,..,nb
36141,Lynx,trail,moncton,..,..,..,..,nb
36227,Malcolm's Way,trail,moncton,..,..,..,..,nb
42819,Marguerite Maillet,trail,moncton,..,..,..,..,nb
43080,Martre,trail,moncton,..,..,..,..,nb
43093,Masqwi,trail,moncton,..,..,..,..,nb
44735,Muskrat,trail,moncton,..,..,..,..,nb
44736,Muskrat,trail,moncton,..,..,..,..,nb
48418,Northwest,trail,moncton,..,..,..,..,nb
48419,Northwest,trail,moncton,..,..,..,..,nb
48420,Northwest,trail,moncton,..,..,..,..,nb
