Index,Facility_Name,ODRSF_facility_type,Provider,Street_No,Street_Name,Postal_Code,City,Prov_Terr
62813,Tupig,trail,moncton,..,..,..,..,nb
65098,Viceroy,trail,moncton,..,..,..,..,nb
65099,Viceroy,trail,moncton,..,..,..,..,nb
65100,Viceroy,trail,moncton,..,..,..,..,nb
65101,Viceroy,trail,moncton,..,..,..,..,nb
65102,Viceroy,trail,moncton,..,..,..,..,nb
65103,Viceroy,trail,moncton,..,..,..,..,nb
65204,Victoria Park Pathway,trail,moncton,..,..,..,..,nb
65205,Victoria Park Pathway,trail,moncton,..,..,..,..,nb
65206,Victoria Park Pathway,trail,moncton,..,..,..,..,nb
65237,Vince's Walk,trail,moncton,..,..,..,..,nb
65267,Voyage,trail,moncton,..,..,..,..,nb
67443,Westbrook Pathway,trail,moncton,..,..,..,..,nb
67526,Wetland,trail,moncton,..,..,..,..,nb
67527,Wetland,trail,moncton,..,..,..,..,nb
67528,Wetland,trail,moncton,..,..,..,..,nb
67529,Wetland,trail,moncton,..,..,..,..,nb
67530,Wetland,trail,moncton,..,..,..,..,nb
67531,Wetland,trail,moncton,..,..,..,..,nb
67532,Wetland,trail,moncton,..,..,..,..,nb
67533,Wetland,trail,moncton,..,..,..,..,nb
67534,Wetland,trail,moncton,..,..,..,..,nb
67535,Wetland,trail,moncton,..,..,..,..,nb
81815,..,trail,moncton,..,..,..,..,nb
95591,..,trail,moncton,..,..,..,..,nb
95592,..,trail,moncton,..,..,..,..,nb
95593,..,trail,moncton,..,..,..,..,nb
95594,..,trail,moncton,..,..,..,..,nb
95595,..,trail,moncton,..,..,..,..,nb
95596,..,trail,moncton,..,..,..,..,nb
95597,..,trail,moncton,..,..,..,..,nb
95598,..,trail,moncton,..,..,..,..,nb
95599,..,trail,moncton,..,..,..,..,nb
95600,..,trail,moncton,..,..,..,..,nb
95601,..,trail,moncton,..,..,..,..,nb
95602,..,trail,moncton,..,..,..,..,nb
95603,..,trail,moncton,..,..,..,..,nb
95604,..,trail,moncton,..,..,..,..,nb
95605,..,trail,moncton,..,..,..,..,nb
95606,..,trail,moncton,..,..,..,..,nb
162027,Ã‰cole,park,moncton,..,..,..,..,nb
162196,Alexander,park,moncton,..,..,..,..,nb
162252,Allison Heights,park,moncton,..,..,..,..,nb
162638,A'Tugwet,park,moncton,..,..,..,..,nb
162641,Auburn Circle,park,moncton,..,..,..,..,nb
163232,Bessborough,park,moncton,..,..,..,..,nb
163331,Birchmount,park,moncton,..,..,..,..,nb
163495,Bonaccord,park,moncton,..,..,..,..,nb
163507,Bond,park,moncton,..,..,..,..,nb
