Index,Facility_Name,ODRSF_facility_type,Provider,Street_No,Street_Name,Postal_Code,City,Prov_Terr
48422,Northwest,trail,moncton,..,..,..,..,nb
48423,Northwest,trail,moncton,..,..,..,..,nb
48424,Northwest,trail,moncton,..,..,..,..,nb
48425,Northwest,trail,moncton,..,..,..,..,nb
48426,Northwest,trail,moncton,..,..,..,..,nb
48427,Northwest,trail,moncton,..,..,..,..,nb
48428,Northwest,trail,moncton,..,..,..,..,nb
48429,Northwest,trail,moncton,..,..,..,..,nb
48430,Northwest,trail,moncton,..,..,..,..,nb
48431,Northwest,trail,moncton,..,..,..,..,nb
48432,Northwest,trail,moncton,..,..,..,..,nb
48433,Northwest,trail,moncton,..,..,..,..,nb
48434,Northwest,trail,moncton,..,..,..,..,nb
48435,Northwest,trail,moncton,..,..,..,..,nb
48436,Northwest,trail,moncton,..,..,..,..,nb
48437,Northwest,trail,moncton,..,..,..,..,nb
48438,Northwest Access,trail,moncton,..,..,..,..,nb
48439,Northwest Access,trail,moncton,..,..,..,..,nb
48440,Northwest Access,trail,moncton,..,..,..,..,nb
48441,Northwest Access,trail,moncton,..,..,..,..,nb
48442,Northwest Access,trail,moncton,..,..,..,..,nb
48443,Northwest Access,trail,moncton,..,..,..,..,nb
48444,Northwest Access,trail,moncton,..,..,..,..,nb
48445,Northwest Access,trail,moncton,..,..,..,..,nb
48446,Northwest Access,trail,moncton,..,..,..,..,nb
48516,Ogilvie Brook,trail,moncton,..,..,..,..,nb
48517,Ogilvie Brook,trail,moncton,..,..,..,..,nb
48862,Orignal,trail,moncton,..,..,..,..,nb
48863,Orignal,trail,moncton,..,..,..,..,nb
48864,Orignal,trail,moncton,..,..,..,..,nb
49888,Pinehurst Pathways,trail,moncton,..,..,..,..,nb
49889,Pinehurst Pathways,trail,moncton,..,..,..,..,nb
49890,Pinehurst Pathways,trail,moncton,..,..,..,..,nb
49891,Pinehurst Pathways,trail,moncton,..,..,..,..,nb
49892,Pinehurst Pathways,trail,moncton,..,..,..,..,nb
49893,Pinehurst Pathways,trail,moncton,..,..,..,..,nb
50131,Pommier,trail,moncton,..,..,..,..,nb
50132,Pommier,trail,moncton,..,..,..,..,nb
50133,Pommier,trail,moncton,..,..,..,..,nb
50134,Pommier,trail,moncton,..,..,..,..,nb
50135,Pommier,trail,moncton,..,..,..,..,nb
50136,Pommier Access,trail,moncton,..,..,..,..,nb
50215,Porc-Epic,trail,moncton,..,..,..,..,nb
50405,Promenade Terry Fox Promenade,trail,moncton,..,..,..,..,nb
50906,Reicker,trail,moncton,..,..,..,..,nb
50910,Renard,trail,moncton,..,..,..,..,nb
51030,Riparian,trail,moncton,..,..,..,..,nb
51061,Riverfront,trail,moncton,..,..,..,..,nb
51062,Riverfront,trail,moncton,..,..,..,..,nb
