Index,Facility_Name,ODRSF_facility_type,Provider,Street_No,Street_Name,Postal_Code,City,Prov_Terr
172507,Old Burial Ground,park,fredericton,..,..,..,..,nb
173764,Pederson Crescent Park,park,fredericton,..,..,..,..,nb
173778,Pembroke Crescent Park,park,fredericton,..,..,..,..,nb
173864,Piercy To Adams Neighbourhood Connector,park,fredericton,..,..,..,..,nb
174114,Priestman To Willingdon Neighbour Connector,park,fredericton,..,..,..,..,nb
174243,Queen Square,park,fredericton,..,..,..,..,nb
174244,Queen Street Cenotaph,park,fredericton,..,..,..,..,nb
174371,Randoldh Street Park,park,fredericton,..,..,..,..,nb
174444,Reading Street Park,park,fredericton,..,..,..,..,nb
174527,Regent Street At Kings College,park,fredericton,..,..,..,..,nb
174529,Regent Street Park,park,fredericton,..,..,..,..,nb
174704,River Street Green,park,fredericton,..,..,..,..,nb
174726,Riverfront North Green,trail,fredericton,..,..,..,..,nb
174727,Riverfront North Green,trail,fredericton,..,..,..,..,nb
174728,Riverfront North Green,trail,fredericton,..,..,..,..,nb
174729,Riverfront North Green,trail,fredericton,..,..,..,..,nb
174730,Riverfront North Green,trail,fredericton,..,..,..,..,nb
174731,Riverfront North Green,trail,fredericton,..,..,..,..,nb
174732,Riverfront North Green,trail,fredericton,..,..,..,..,nb
174733,Riverfront North Green,trail,fredericton,..,..,..,..,nb
174734,Riverfront North Green,trail,fredericton,..,..,..,..,nb
174739,Riverfront South Green,trail,fredericton,..,..,..,..,nb
174740,Riverfront South Green,trail,fredericton,..,..,..,..,nb
174741,Riverfront South Green,trail,fredericton,..,..,..,..,nb
174742,Riverfront South Green,trail,fredericton,..,..,..,..,nb
174743,Riverfront South Green,trail,fredericton,..,..,..,..,nb
174744,Riverfront South Green,trail,fredericton,..,..,..,..,nb
174745,Riverfront South Green,trail,fredericton,..,..,..,..,nb
174746,Riverfront South Green,trail,fredericton,..,..,..,..,nb
174747,Riverfront South Green,trail,fredericton,..,..,..,..,nb
174748,Riverfront South Green,trail,fredericton,..,..,..,..,nb
174864,Robinson Park Drive,park,fredericton,..,..,..,..,nb
174998,Rosewood Estates Park,park,fredericton,..,..,..,..,nb
175305,Royal Road Park,park,fredericton,..,..,..,..,nb
175311,Royals Field,park,fredericton,..,..,..,..,nb
175785,Sheffield To Forest Hill Neighbour Connector,park,fredericton,..,..,..,..,nb
175885,Sierra Drive Park,park,fredericton,..,..,..,..,nb
175924,Silverwood Lagoon Property,park,fredericton,..,..,..,..,nb
176030,Small Craft Aquatic Center,park,fredericton,..,..,..,..,nb
176049,Smythe Street Green,trail,fredericton,..,..,..,..,nb
176050,Smythe Street Green,trail,fredericton,..,..,..,..,nb
176051,Smythe Street Green,trail,fredericton,..,..,..,..,nb
176052,Smythe Street Green,trail,fredericton,..,..,..,..,nb
176653,Stoneybrook Crescent Park,park,fredericton,..,..,..,..,nb
176829,Sunset Drive,park,fredericton,..,..,..,..,nb
177065,The Green,park,fredericton,..,..,..,..,nb
177179,Tilley Drive Park,park,fredericton,..,..,..,..,nb
177191,Timber Lane Park,park,fredericton,..,..,..,..,nb
177271,Topcliffe To Topcliffe Neighbourhood Connector,park,fredericton,..,..,..,..,nb
