Index,Facility_Name,ODRSF_facility_type,Provider,Street_No,Street_Name,Postal_Code,City,Prov_Terr
168298,Heritage Center,park,fredericton,..,..,..,..,nb
168462,Hillcrest Drive Park,park,fredericton,..,..,..,..,nb
168682,Hummingbird Street Park,park,fredericton,..,..,..,..,nb
168754,Hyla Park,park,fredericton,..,..,..,..,nb
168854,Irvine Street Park,park,fredericton,..,..,..,..,nb
169510,Killarney Lake Park,park,fredericton,..,..,..,..,nb
169518,Kimble Drive Park,park,fredericton,..,..,..,..,nb
169620,Kitchen To Regent Neighbourhood Connector,park,fredericton,..,..,..,..,nb
169943,Lady Beaverbrook Arena,park,fredericton,..,..,..,..,nb
170109,Lapointe Street Park,park,fredericton,..,..,..,..,nb
170175,Law Society Land,park,fredericton,..,..,..,..,nb
170189,Lawson Court Park,park,fredericton,..,..,..,..,nb
170221,Leeds Drive Park,park,fredericton,..,..,..,..,nb
170237,Leicester To Chelsea Neighbourhood Connector,park,fredericton,..,..,..,..,nb
170333,Limerick / Flemming Park,park,fredericton,..,..,..,..,nb
170335,Limerick Road School Land,park,fredericton,..,..,..,..,nb
170345,Lincoln Park,park,fredericton,..,..,..,..,nb
170349,Lincoln Road Green At Yacth Club,park,fredericton,..,..,..,..,nb
170352,Lincoln Trail,trail,fredericton,..,..,..,..,nb
170353,Lincoln Trail,trail,fredericton,..,..,..,..,nb
170354,Lincoln Trail,trail,fredericton,..,..,..,..,nb
170355,Lincoln Trail,trail,fredericton,..,..,..,..,nb
170356,Lincoln Trail,trail,fredericton,..,..,..,..,nb
170357,Lincoln Trail,trail,fredericton,..,..,..,..,nb
170358,Lincoln Trail,trail,fredericton,..,..,..,..,nb
170359,Lincoln Trail,trail,fredericton,..,..,..,..,nb
170360,Lincoln Trail,trail,fredericton,..,..,..,..,nb
170361,Lincoln Trail,trail,fredericton,..,..,..,..,nb
170362,Lincoln Trail,trail,fredericton,..,..,..,..,nb
170363,Lincoln Trail,trail,fredericton,..,..,..,..,nb
170364,Lincoln Trail,trail,fredericton,..,..,..,..,nb
170365,Lincoln Trail,trail,fredericton,..,..,..,..,nb
170366,Lincoln Trail,trail,fredericton,..,..,..,..,nb
170367,Lincoln Trail,trail,fredericton,..,..,..,..,nb
170372,Linden Court,park,fredericton,..,..,..,..,nb
170517,London Court Park,park,fredericton,..,..,..,..,nb
170620,Loyalist Cemetary,park,fredericton,..,..,..,..,nb
170741,Macpherson Street Park,park,fredericton,..,..,..,..,nb
170821,Malloy Park,park,fredericton,..,..,..,..,nb
170844,Mannington Lane Park,park,fredericton,..,..,..,..,nb
170852,Manresa Drive Open Space,park,fredericton,..,..,..,..,nb
170892,Maple To Linden Neighbourhood Connector,park,fredericton,..,..,..,..,nb
171084,Marysville Cenotaph,park,fredericton,..,..,..,..,nb
171163,Mayflower Street Park,park,fredericton,..,..,..,..,nb
171176,Mcadam Avenue School,park,fredericton,..,..,..,..,nb
171236,Mcevoy Street Park,park,fredericton,..,..,..,..,nb
171256,Mcgregor Street Park,park,fredericton,..,..,..,..,nb
171283,Mckinley Avenue Park,park,fredericton,..,..,..,..,nb
171290,Mcknight Street Park,park,fredericton,..,..,..,..,nb
