Index,Facility_Name,ODRSF_facility_type,Provider,Street_No,Street_Name,Postal_Code,City,Prov_Terr
11010,Fhs Tennis Courts,sports field,fredericton,..,..,..,..,nb
11027,Fisher Avenue,sports field,fredericton,99,noble,..,..,nb
11028,Fisher Field,sports field,fredericton,99,noble,..,..,nb
11029,Fisher Field,sports field,fredericton,..,..,..,..,nb
11161,Forest Hill,sports field,fredericton,..,..,..,..,nb
11162,Forest Hill Field,sports field,fredericton,518,forest hill,..,..,nb
11256,Fredericton High School,sports field,fredericton,..,..,..,..,nb
11257,Fredericton High School (Lower),sports field,fredericton,300,priestman,..,fredericton,nb
11258,Fredericton High School (Mini),sports field,fredericton,300,priestman,..,fredericton,nb
11259,Fredericton High School (Practice),sports field,fredericton,300,priestman,..,fredericton,nb
11260,Fredericton High School (Upper),sports field,fredericton,300,priestman,..,fredericton,nb
11720,Harrison Court Park,sports field,fredericton,27,harrison,..,..,nb
11798,Henry Park,sports field,fredericton,248,medley,..,..,nb
11799,Henry Park,sports field,fredericton,175,henry,..,..,nb
11800,Henry Park,sports field,fredericton,..,..,..,..,nb
11801,Henry Park,sports field,fredericton,..,..,..,..,nb
11802,Henry Park (Baseball),sports field,fredericton,489,sewell,..,..,nb
11803,Henry Park A,sports field,fredericton,..,..,..,..,nb
11804,Henry Park B,sports field,fredericton,..,sewell,..,..,nb
11805,Henry Park B (Lit),sports field,fredericton,..,..,..,..,nb
11806,Henry Park Skateboard Park,sports field,fredericton,..,sewell,..,..,nb
11807,Henry Park T-Ball,sports field,fredericton,..,sewell,..,..,nb
11808,Henry Park Tennis Courts,sports field,fredericton,..,..,..,..,nb
11809,Henry Street Park,sports field,fredericton,248,medley,..,..,nb
12076,Hummingbird St. Courts,sports field,fredericton,..,..,..,..,nb
12295,Johnston,sports field,fredericton,..,..,..,..,nb
12296,Johnston Avenue,sports field,fredericton,138,johnston,..,..,nb
12297,Johnston Field,sports field,fredericton,118,johnston,..,..,nb
12419,Kent St.,miscellaneous,fredericton,..,..,..,..,nb
12443,Kimble Drive,sports field,fredericton,605,kimble,..,fredericton,nb
12444,Kimble Drive Park,sports field,fredericton,..,..,..,..,nb
12445,Kimble Field,sports field,fredericton,605,kimble,..,..,nb
12446,Kimble Field (Lit),sports field,fredericton,..,..,..,..,nb
12447,Kimble Street,sports field,fredericton,605,kimble,..,..,nb
12448,Kimble Tennis Courts,sports field,fredericton,..,..,..,..,nb
13043,Limerick / Southwood Park,sports field,fredericton,157,limerick,..,..,nb
13044,Limerick Park,sports field,fredericton,157,limerick,..,..,nb
13045,Limerick Park,sports field,fredericton,..,..,..,..,nb
13046,Limerick/Southwood Parktennis Courts,sports field,fredericton,..,..,..,..,nb
13055,Lincoln,sports field,fredericton,1900,lincoln,..,..,nb
13056,Lincoln,sports field,fredericton,..,..,..,..,nb
13057,Lincoln Heights,sports field,fredericton,267,adams,..,fredericton,nb
13058,Lincoln Heights Park,sports field,fredericton,267,adams,..,..,nb
13060,Lincoln Heights Park,sports field,fredericton,..,..,..,..,nb
13245,Macadam Avenue,sports field,fredericton,129,macadam,..,..,nb
13246,Macadam Avenue,sports field,fredericton,..,..,..,..,nb
13252,Macloon Field,sports field,fredericton,..,..,..,..,nb
13295,Malloy,sports field,fredericton,100,noble,..,..,nb
13296,Malloy Field,sports field,fredericton,..,noble,..,..,nb
