Index,Facility_Name,ODRSF_facility_type,Provider,Street_No,Street_Name,Postal_Code,City,Prov_Terr
261,Barker's Point Gym,gym,fredericton,..,..,..,..,nb
1342,Devon Gym,gym,fredericton,..,..,..,..,nb
1403,Downing Street Park,rink,fredericton,51,downing,..,fredericton,nb
1669,Fhs Auxilary Gyms,gym,fredericton,..,..,..,..,nb
1670,Fhs Main Gym,gym,fredericton,..,..,..,..,nb
1671,Fhs Side Gym 3,gym,fredericton,..,..,..,..,nb
1673,Fieldhouse Gym 1,gym,fredericton,..,..,..,..,nb
1783,Fredericton Indoor Pool,pool,fredericton,79,carrington,..,fredericton,nb
1804,Garden Creek Gym,gym,fredericton,..,..,..,..,nb
1974,Grant Harvey Centre,rink,fredericton,600,knowledge,..,fredericton,nb
2121,Henry Park,park,fredericton,248,medley,..,fredericton,nb
2122,Henry Park,rink,fredericton,780,dobie,..,fredericton,nb
2376,Islandview Park,park,fredericton,15,island,..,fredericton,nb
2546,Kent Street Park,park,fredericton,51,kent,..,fredericton,nb
2561,Killarney Lake Beach,beach,fredericton,1670,st-marys,..,fredericton,nb
2661,Lady Beaverbrook Rink,rink,fredericton,411,university,..,fredericton,nb
2762,Leo Hayes Main Gym,gym,fredericton,..,..,..,..,nb
2763,Leo Hayes Side Gym,gym,fredericton,..,..,..,..,nb
2779,Limerick Road Park,park,fredericton,157,limerick,..,fredericton,nb
2781,Lincoln Heights Park,rink,fredericton,267,adams,..,fredericton,nb
2782,Lincoln Heights Park,park,fredericton,85,piercy,..,fredericton,nb
2822,Liverpool Street Gym,pool,fredericton,..,..,..,..,nb
3216,Marysville Gym,gym,fredericton,..,..,..,..,nb
3223,Massey Street Park,park,fredericton,150,massey,..,fredericton,nb
3384,Mitch Clarke Park,rink,fredericton,116,johnson,..,fredericton,nb
3647,Officers Square,rink,fredericton,575,queen,..,fredericton,nb
4150,Parc Island View Park,rink,fredericton,15,islandview,..,fredericton,nb
4317,Park St. School,park,fredericton,..,..,..,..,nb
4318,Park Street Gym,gym,fredericton,..,..,..,..,nb
4319,Park Street Park,park,fredericton,199,longwood,..,fredericton,nb
4803,Priestman Street Gym,gym,fredericton,..,..,..,..,nb
5037,Queen’S Square,rink,fredericton,780,aberdeen,..,fredericton,nb
5181,Riverside Park,park,fredericton,306,union,..,fredericton,nb
5256,Royal Road Gym,gym,fredericton,..,..,..,..,nb
6567,Willie O’Ree Place,rink,fredericton,605,cliffe,..,fredericton,nb
6579,Wilmot Park Splash Pad,splash pad,fredericton,50,woodstock,..,fredericton,nb
6680,York Arena,rink,fredericton,891,barker,..,fredericton,nb
8294,Barker Street,sports field,fredericton,930,barker,..,fredericton,nb
8297,Barkers Point School,sports field,fredericton,53,carman,..,..,nb
8298,Barkers Point School,sports field,fredericton,53,carman,..,..,nb
8299,Barker's Point School,sports field,fredericton,..,..,..,..,nb
8300,Barker's Point Tennis Courts,sports field,fredericton,..,..,..,..,nb
9043,Bliss Carmen Middle School,sports field,fredericton,605,kimble,..,..,nb
9474,Carleton Park,sports field,fredericton,800,union,..,fredericton,nb
10470,Devon Middle School,sports field,fredericton,681,dobie,..,fredericton,nb
10573,Downing Street Park,sports field,fredericton,31,downing,..,..,nb
10574,Downing Street Park,sports field,fredericton,..,..,..,..,nb
10633,Dunham,sports field,fredericton,138,johnston,..,..,nb
10634,Dunham Field,sports field,fredericton,138,johnston,..,..,nb
