Index,Facility_Name,ODRSF_facility_type,Provider,Street_No,Street_Name,Postal_Code,City,Prov_Terr
164309,Castleton To Southhall Neighbourhood Connector,park,fredericton,..,..,..,..,nb
164588,Charles Avenue Park,park,fredericton,..,..,..,..,nb
164666,Cherry / Douglas Trail,park,fredericton,..,..,..,..,nb
164667,Cherry Avenue Park,park,fredericton,..,..,..,..,nb
164772,City Avenue Open Space,park,fredericton,..,..,..,..,nb
164823,Clark Street Rifle Range,park,fredericton,..,..,..,..,nb
164853,Clayton Street Park,park,fredericton,..,..,..,..,nb
164928,Coburn Court Park,park,fredericton,..,..,..,..,nb
164929,Coburn Drive Park,park,fredericton,..,..,..,..,nb
164984,Colonial Heights Park,park,fredericton,..,..,..,..,nb
165258,Coventry To Canterbury Neighbourhood Connector,park,fredericton,..,..,..,..,nb
165266,Cowperthwaite Park,park,fredericton,..,..,..,..,nb
165369,Crocket Street Park A,park,fredericton,..,..,..,..,nb
165370,Crocket Street Park B,park,fredericton,..,..,..,..,nb
165678,Derby Neighbourhood Connector,park,fredericton,..,..,..,..,nb
165681,Derby To London Neighbourhood Connector,park,fredericton,..,..,..,..,nb
165716,Devon Avenue Green Space,park,fredericton,..,..,..,..,nb
165718,Devon Middle School Sports Field,park,fredericton,..,..,..,..,nb
165732,Dewitt Acres Park,park,fredericton,..,..,..,..,nb
165739,Diamond To Mcgregor Neighbourhood Connector,park,fredericton,..,..,..,..,nb
165873,Dora Drive Trail,park,fredericton,..,..,..,..,nb
165913,Dover Crescent Park,park,fredericton,..,..,..,..,nb
165923,Downing Street Park,park,fredericton,..,..,..,..,nb
165924,Downing To Elliott Connector,park,fredericton,..,..,..,..,nb
166087,Dykeman Street Park,park,fredericton,..,..,..,..,nb
166099,Eagle / Birdie Park,park,fredericton,..,..,..,..,nb
166209,Ecole St. Anne Sports Field,park,fredericton,..,..,..,..,nb
166275,Edward To Adams Neighbour Connector,park,fredericton,..,..,..,..,nb
166358,Elliott Street Park,park,fredericton,..,..,..,..,nb
166542,Evans Street Park,park,fredericton,..,..,..,..,nb
166899,Folkstone To Rochester Neighbourhood Connector,park,fredericton,..,..,..,..,nb
166912,Forbes Street Open Space,park,fredericton,..,..,..,..,nb
166938,Forest Hill Road School - Foster Field,park,fredericton,..,..,..,..,nb
167098,Fredericton Dog Park,park,fredericton,..,..,..,..,nb
167099,"Fredericton High School (Fields,Tennis,Basketball)",park,fredericton,..,..,..,..,nb
167100,Fredericton Raceway Fields,park,fredericton,..,..,..,..,nb
167101,Fredericton Yacht Club,park,fredericton,..,..,..,..,nb
167196,"Garden Creek School (Sports Field,Rink,Tennis)",park,fredericton,..,..,..,..,nb
167378,Gibson Trail,park,fredericton,..,..,..,..,nb
167539,Gloucester \ Bliss Carman Neighbourhood Connector,park,fredericton,..,..,..,..,nb
167540,Gloucester Crescent Park,park,fredericton,..,..,..,..,nb
167613,Golf Club Road Land,park,fredericton,..,..,..,..,nb
167673,Gourley Park,park,fredericton,..,..,..,..,nb
167877,Gregg Court Park,park,fredericton,..,..,..,..,nb
167981,Haines Crescent Park,park,fredericton,..,..,..,..,nb
168034,Hanwell Road Open Space,park,fredericton,..,..,..,..,nb
168056,Harland Court Wetland,park,fredericton,..,..,..,..,nb
168086,Harrison Court Park,park,fredericton,..,..,..,..,nb
168154,Hawkins Street Park,park,fredericton,..,..,..,..,nb
