Index,Facility_Name,ODRSF_facility_type,Provider,Street_No,Street_Name,Postal_Code,City,Prov_Terr
171301,Mcleod Hill Road Park,park,fredericton,..,..,..,..,nb
171311,Mcmann Street,park,fredericton,..,..,..,..,nb
171411,Melvin Street Park,park,fredericton,..,..,..,..,nb
171674,Mitchell Street Park,park,fredericton,..,..,..,..,nb
171786,Montgomery To Gregg Neighbour Connector,park,fredericton,..,..,..,..,nb
171788,Montogomery To Oxford Neighbourhood Connector,park,fredericton,..,..,..,..,nb
171964,Mullberry To Broad Neighbour Connector,park,fredericton,..,..,..,..,nb
171998,Murray Avenue Park,park,fredericton,..,..,..,..,nb
172029,Nashwaak Trail,trail,fredericton,..,..,..,..,nb
172030,Nashwaak Trail,trail,fredericton,..,..,..,..,nb
172031,Nashwaak Trail,trail,fredericton,..,..,..,..,nb
172032,Nashwaak Trail,trail,fredericton,..,..,..,..,nb
172033,Nashwaak Trail,trail,fredericton,..,..,..,..,nb
172034,Nashwaak Trail,trail,fredericton,..,..,..,..,nb
172035,Nashwaak Trail,trail,fredericton,..,..,..,..,nb
172036,Nashwaak Trail,trail,fredericton,..,..,..,..,nb
172037,Nashwaak Trail,trail,fredericton,..,..,..,..,nb
172038,Nashwaak Trail,trail,fredericton,..,..,..,..,nb
172039,Nashwaaksis Arena,park,fredericton,..,..,..,..,nb
172040,Nashwaaksis Commons,park,fredericton,..,..,..,..,nb
172041,Nashwaaksis Memorial School ( Tennis Court),park,fredericton,..,..,..,..,nb
172042,Nashwaaksis Middle School,park,fredericton,..,..,..,..,nb
172073,Neil To Carney Neighbourhood Connector,park,fredericton,..,..,..,..,nb
172101,Neville Street Park,park,fredericton,..,..,..,..,nb
172171,Norfolk To Liverpool Neighbourhood Connector,park,fredericton,..,..,..,..,nb
172267,Northside Trail,trail,fredericton,..,..,..,..,nb
172268,Northside Trail,trail,fredericton,..,..,..,..,nb
172269,Northside Trail,trail,fredericton,..,..,..,..,nb
172270,Northside Trail,trail,fredericton,..,..,..,..,nb
172271,Northside Trail,trail,fredericton,..,..,..,..,nb
172272,Northside Trail,trail,fredericton,..,..,..,..,nb
172273,Northside Trail,trail,fredericton,..,..,..,..,nb
172274,Northside Trail,trail,fredericton,..,..,..,..,nb
172275,Northside Trail,trail,fredericton,..,..,..,..,nb
172276,Northside Trail,trail,fredericton,..,..,..,..,nb
172277,Northside Trail,trail,fredericton,..,..,..,..,nb
172278,Northside Trail,trail,fredericton,..,..,..,..,nb
172279,Northside Trail,trail,fredericton,..,..,..,..,nb
172280,Northside Trail,trail,fredericton,..,..,..,..,nb
172281,Northside Trail,trail,fredericton,..,..,..,..,nb
172282,Northside Trail,trail,fredericton,..,..,..,..,nb
172283,Northside Trail,trail,fredericton,..,..,..,..,nb
172284,Northside Trail,trail,fredericton,..,..,..,..,nb
172285,Northside Trail,trail,fredericton,..,..,..,..,nb
172286,Northside Trail,trail,fredericton,..,..,..,..,nb
172288,Northside Trail,trail,fredericton,..,..,..,..,nb
172290,Northside Trail,trail,fredericton,..,..,..,..,nb
172291,Northside Trail,trail,fredericton,..,..,..,..,nb
172292,Northside Trail,trail,fredericton,..,..,..,..,nb
