Index,Facility_Name,ODRSF_facility_type,Provider,Street_No,Street_Name,Postal_Code,City,Prov_Terr
49168,Parc Odell Park,trail,fredericton,..,..,..,..,nb
49169,Parc Odell Park,trail,fredericton,..,..,..,..,nb
49170,Parc Odell Park,trail,fredericton,..,..,..,..,nb
49171,Parc Odell Park,trail,fredericton,..,..,..,..,nb
49172,Parc Odell Park,trail,fredericton,..,..,..,..,nb
49173,Parc Odell Park,trail,fredericton,..,..,..,..,nb
49174,Parc Odell Park,trail,fredericton,..,..,..,..,nb
49175,Parc Odell Park,trail,fredericton,..,..,..,..,nb
49176,Parc Odell Park,trail,fredericton,..,..,..,..,nb
49177,Parc Odell Park,trail,fredericton,..,..,..,..,nb
49178,Parc Odell Park,trail,fredericton,..,..,..,..,nb
49179,Parc Odell Park,trail,fredericton,..,..,..,..,nb
49180,Parc Odell Park,trail,fredericton,..,..,..,..,nb
49181,Parc Odell Park,trail,fredericton,..,..,..,..,nb
49182,Parc Odell Park,trail,fredericton,..,..,..,..,nb
49183,Parc Odell Park,trail,fredericton,..,..,..,..,nb
49184,Parc Odell Park,trail,fredericton,..,..,..,..,nb
49185,Parc Odell Park,trail,fredericton,..,..,..,..,nb
49186,Parc Odell Park,trail,fredericton,..,..,..,..,nb
49187,Parc Odell Park,trail,fredericton,..,..,..,..,nb
50745,Reading Street Park / Parc Rue Reading,trail,fredericton,..,..,..,..,nb
51795,Salamanca,trail,fredericton,..,..,..,..,nb
53978,South Riverfront / Riverain Sud,trail,fredericton,..,..,..,..,nb
64612,Valley / Vallae,trail,fredericton,..,..,..,..,nb
64613,Valley / Vallae,trail,fredericton,..,..,..,..,nb
65067,Vanier,trail,fredericton,..,..,..,..,nb
162104,Adney Street Park,park,fredericton,..,..,..,..,nb
162200,Alexander Gibson Memorial School,park,fredericton,..,..,..,..,nb
162351,Angelview Park,park,fredericton,..,..,..,..,nb
162564,Ascot Drive Park,park,fredericton,..,..,..,..,nb
162771,Barbara Court,park,fredericton,..,..,..,..,nb
162775,Barbara To Kimble Neighbourhood Connector,park,fredericton,..,..,..,..,nb
162790,Barkers Point Cenotaph Area,park,fredericton,..,..,..,..,nb
162791,Barkers Point School Sportsfield,park,fredericton,..,..,..,..,nb
162792,Barkers Street Sports Field,park,fredericton,..,..,..,..,nb
162821,Barton Crescent Park,park,fredericton,..,..,..,..,nb
162949,Beaconsfield To Bristol Neighbourhood Connector,park,fredericton,..,..,..,..,nb
163041,Beechwood Crescent Park,park,fredericton,..,..,..,..,nb
163349,Bishop Drive,park,fredericton,..,..,..,..,nb
163537,Boss Gibson Monument Area,park,fredericton,..,..,..,..,nb
163606,Boyne Court Pathway,park,fredericton,..,..,..,..,nb
163937,Burpee Street Park,park,fredericton,..,..,..,..,nb
164044,Cambridge Crescent Park,park,fredericton,..,..,..,..,nb
164049,Cambridge To Manchester Neighbourhood Connector,park,fredericton,..,..,..,..,nb
164068,Campbell Creek Open Space - Mill Pond,park,fredericton,..,..,..,..,nb
164128,Canterbury Drive Park,park,fredericton,..,..,..,..,nb
164131,Canterbury To Birmingham Neighbourhood Connector,park,fredericton,..,..,..,..,nb
164193,Carleton Park,park,fredericton,..,..,..,..,nb
164250,Carrington To Lexington Neighbourhood Connector,park,fredericton,..,..,..,..,nb
