Index,Facility_Name,ODRSF_facility_type,Provider,Street_No,Street_Name,Postal_Code,City,Prov_Terr
13402,Marysville,miscellaneous,fredericton,37,harrison,..,fredericton,nb
13404,Marysville (Back),sports field,fredericton,60,morrison,..,..,nb
13405,Marysville (Front),sports field,fredericton,51,downing,..,..,nb
13406,Marysville School,sports field,fredericton,..,..,..,..,nb
13418,Massey St.,miscellaneous,fredericton,..,..,..,..,nb
13444,Mcadam Avenue Tennis Courts,sports field,fredericton,..,..,..,..,nb
13445,Mcaloon,sports field,fredericton,324,fulton,..,..,nb
13514,Mcloon Field,sports field,fredericton,81,carrington,..,..,nb
13817,Morell Park,sports field,fredericton,265,waterloo,..,..,nb
13818,Morell Park,sports field,fredericton,255,waterloo,..,fredericton,nb
13819,Morell Park,sports field,fredericton,265,waterloo,..,..,nb
13820,Morell Park,sports field,fredericton,..,..,..,..,nb
13905,Nashwaaksis Memorial School,sports field,fredericton,80,main,..,..,nb
13906,Nashwaaksis Memorial Tennis Courts,sports field,fredericton,..,..,..,..,nb
13907,Nashwaaksis Middle School,sports field,fredericton,350,fulton,..,..,nb
13908,Nashwaaksis Middle School,sports field,fredericton,129,mcadam,..,..,nb
13909,Nashwaaksis Middle School,sports field,fredericton,..,..,..,..,nb
13910,Nashwaaksis Middle School (Lower),sports field,fredericton,350,fulton,..,fredericton,nb
13911,Nashwaaksis Middle School (Middle),sports field,fredericton,350,fulton,..,fredericton,nb
13912,Nashwaaksis Middle School (Upper),sports field,fredericton,350,fulton,..,fredericton,nb
13913,Nashwaaksis Middle Tennis Courts,sports field,fredericton,..,..,..,..,nb
14913,Prospect Street (Lower),sports field,fredericton,695,prospect,..,..,nb
14914,Prospect Street (Upper),sports field,fredericton,695,prospect,..,..,nb
14915,Prospect Street Lower,sports field,fredericton,695,prospect,..,..,nb
14916,Prospect Street Lower (Lit),sports field,fredericton,..,..,..,..,nb
14917,Prospect Street Upper,sports field,fredericton,695,prospect,..,..,nb
14918,Prospect Street Upper,sports field,fredericton,..,..,..,..,nb
15073,Queen Sqaure A (Lit),sports field,fredericton,..,..,..,..,nb
15074,Queen Sqaure B,sports field,fredericton,..,..,..,..,nb
15075,Queen Square,miscellaneous,fredericton,740,aberdeen,..,fredericton,nb
15077,Queen Square (Baseball),sports field,fredericton,785,mcleod,..,..,nb
15078,Queen Square (Softball),sports field,fredericton,380,saint-john,..,..,nb
15079,Queen Square A,sports field,fredericton,785,mcleod,..,..,nb
15080,Queen Square B,sports field,fredericton,380,saint-john,..,..,nb
15081,Queen Square Park,sports field,fredericton,780,aberdeen,..,..,nb
15082,Queen Square Park,sports field,fredericton,780,aberdeen,..,..,nb
15083,Queen Square Park,sports field,fredericton,780,aberdeen,..,..,nb
15084,Queen Square Park,sports field,fredericton,..,..,..,..,nb
15085,Queen Square Tennis Courts,sports field,fredericton,..,..,..,..,nb
15155,Randolph Street Park,sports field,fredericton,12,randolph,..,fredericton,nb
15186,Reading Street Park,sports field,fredericton,102,reading,..,fredericton,nb
15339,Riverside,miscellaneous,fredericton,..,..,..,..,nb
15491,Royal Road,sports field,fredericton,39,royal,..,..,nb
15492,Royal Road,miscellaneous,fredericton,35,royal,..,fredericton,nb
15493,Royal Road,sports field,fredericton,35,royal,..,..,nb
15494,Royal Road,sports field,fredericton,..,..,..,..,nb
15498,Royals Back,sports field,fredericton,60,morrison,..,..,nb
15499,Royals Back (Lit),sports field,fredericton,..,..,..,..,nb
15500,Royals Field,sports field,fredericton,60,morrison,..,..,nb
