Index,Facility_Name,ODRSF_facility_type,Provider,Street_No,Street_Name,Postal_Code,City,Prov_Terr
15502,Royals Front,sports field,fredericton,..,..,..,..,nb
15503,Royals Senior,sports field,fredericton,60,morrison,..,..,nb
15504,Royals Senior (Lit),sports field,fredericton,..,..,..,..,nb
15660,Scotiabank Park North,sports field,fredericton,605,cliffe,..,fredericton,nb
15661,Scotiabank Park South,sports field,fredericton,600,knowledge park,..,fredericton,nb
15859,Silverwood,miscellaneous,fredericton,..,..,..,..,nb
15860,Silverwood Area,sports field,fredericton,35,hummingbird,..,..,nb
15901,Skyline Acres Area,sports field,fredericton,77,rochester,..,..,nb
16931,Southwood,sports field,fredericton,157,limerick,..,..,nb
16932,Southwood,sports field,fredericton,..,..,..,..,nb
16933,Southwood,miscellaneous,fredericton,..,..,..,..,nb
17716,Thompson,sports field,fredericton,1035,smythe,..,..,nb
17717,Thompson Field,sports field,fredericton,1035,smyth,..,..,nb
17718,Thompson Field,sports field,fredericton,..,..,..,..,nb
17753,Tingley,sports field,fredericton,138,johnston,..,..,nb
17754,Tingley Field,sports field,fredericton,118,johnston,..,..,nb
17755,Tingley Field,sports field,fredericton,..,..,..,..,nb
18398,Willie O'Ree Place,sports field,fredericton,605,cliffe,..,..,nb
18418,Wilmot,miscellaneous,fredericton,..,..,..,..,nb
18419,Wilmot Park,sports field,fredericton,9,saunders,..,..,nb
18420,Wilmot Park,sports field,fredericton,50,woodstock,..,fredericton,nb
18421,Wilmot Park,sports field,fredericton,11,saunders,..,..,nb
18422,Wilmot Park,sports field,fredericton,..,..,..,..,nb
18423,Wilmot Park Tennis Courts,sports field,fredericton,..,..,..,..,nb
18508,Woodbridge,miscellaneous,fredericton,15,woodbridge,..,fredericton,nb
25071,Crosstown / Urbain,trail,fredericton,..,..,..,..,nb
25072,Crosstown / Urbain,trail,fredericton,..,..,..,..,nb
25073,Crosstown / Urbain,trail,fredericton,..,..,..,..,nb
25074,Crosstown / Urbain,trail,fredericton,..,..,..,..,nb
28024,Gibson,trail,fredericton,..,..,..,..,nb
35716,Lincoln,trail,fredericton,..,..,..,..,nb
44762,Nashwaak,trail,fredericton,..,..,..,..,nb
44763,Nashwaaksis Middle School,trail,fredericton,..,..,..,..,nb
44764,Nashwaaksis Stream Nature Park / Parc Nayurel Du Ruisseau Nashwaaksis,trail,fredericton,..,..,..,..,nb
44765,Nashwaaksis Stream Nature Park / Parc Nayurel Du Ruisseau Nashwaaksis,trail,fredericton,..,..,..,..,nb
48316,North Riverfront / Riverain Nord,trail,fredericton,..,..,..,..,nb
48317,North Riverfront / Riverain Nord,trail,fredericton,..,..,..,..,nb
48318,North Riverfront / Riverain Nord,trail,fredericton,..,..,..,..,nb
48319,North Riverfront / Riverain Nord,trail,fredericton,..,..,..,..,nb
48374,Northside / Rive Nord,trail,fredericton,..,..,..,..,nb
48599,Old Train Bridge / Ancien Pont-Rail,trail,fredericton,..,..,..,..,nb
49017,Parc Killarney Park,trail,fredericton,..,..,..,..,nb
49018,Parc Killarney Park,trail,fredericton,..,..,..,..,nb
49019,Parc Killarney Park,trail,fredericton,..,..,..,..,nb
49020,Parc Killarney Park,trail,fredericton,..,..,..,..,nb
49021,Parc Killarney Park,trail,fredericton,..,..,..,..,nb
49022,Parc Killarney Park,trail,fredericton,..,..,..,..,nb
49023,Parc Killarney Park,trail,fredericton,..,..,..,..,nb
49024,Parc Killarney Park,trail,fredericton,..,..,..,..,nb
