Index,Facility_Name,ODRSF_facility_type,Provider,Street_No,Street_Name,Postal_Code,City,Prov_Terr
910,Centre Communautaire Pointe-Au-Père,community centre,rimouski,400,j-roger-lebel,..,..,qc
914,Centre Communautaire Sacré-Coeur,community centre,rimouski,148,du-rocher-blanc,..,..,qc
916,Centre Communautaire Sainte-Agnès Nord,community centre,rimouski,129,talbot,..,..,qc
917,Centre Communautaire Sainte-Agnès Sud,community centre,rimouski,305,elzéar-sasseville,..,..,qc
921,Centre Communautaire Sainte-Odile,community centre,rimouski,505,des-écarts,..,..,qc
931,Centre Communautaire Saint-Pie-X,community centre,rimouski,280,arthur-buies,..,..,qc
934,Centre Communautaire Saint-Robert,community centre,rimouski,358,sirois,..,..,qc
937,Centre Communautaire Terrasse Arthur-Buies,community centre,rimouski,387,des-passereaux,..,..,qc
944,Centre De Loisirs Curé-Soucy,park,rimouski,29,de-l'église,..,..,qc
4585,Piscine Pierre-Harvey,park,rimouski,250,arthur-buies,..,..,qc
9958,Club De Golf De Bic,sports field,province of québec,150,du-golf,G0L 1B0,rimouski,qc
9969,Club De Golf De Rivière-Hâtée,sports field,province of québec,2500,132,G0L 1B0,rimouski,qc
10010,Club De Golf L'Empress,sports field,province of québec,365,du-golf,G5M 1S3,rimouski,qc
10017,Club De Golf Les Saules,sports field,province of québec,285,des-saules,G5L 8Y9,rimouski,qc
13013,Les Tennis De Rimouski,sports field,rimouski,416,rouleau,..,..,qc
163273,Bibliothèque Lisette-Morin,park,rimouski,..,..,..,..,qc
163274,Bibliothèque Pascale-Parent,park,rimouski,..,..,..,..,qc
170789,Maison Lamontagne,park,rimouski,..,..,..,..,qc
172804,Parc Avenue Des Pluviers,park,rimouski,..,..,..,..,qc
172805,Parc Avenue Louis-Hébert,park,rimouski,..,..,..,..,qc
172806,Parc Avenue Sirois,park,rimouski,..,..,..,..,qc
172812,Parc Beauséjour,park,rimouski,..,..,..,..,qc
172928,Parc De La Pointe-À -Pouliot,park,rimouski,..,..,..,..,qc
173001,Parc Des Épinettes (Rue Des Astilbes),park,rimouski,..,..,..,..,qc
173124,Parc Du Mont-Saint-Louis,park,rimouski,..,..,..,..,qc
173159,Parc Entre Rues Des Pommetiers Et Des Bouleaux,park,rimouski,..,..,..,..,qc
173171,Parc Flori-Jeux (Avenue Thomas-Dionne),park,rimouski,..,..,..,..,qc
173216,Parc Horizon (Rue Émilien-Amiot),park,rimouski,..,..,..,..,qc
173290,Parc Lepage,park,rimouski,..,..,..,..,qc
173416,Parc Route Santerre Et Rue De La Rive,park,rimouski,..,..,..,..,qc
173417,Parc Rue Élisabeth-Turgeon (Élize Picard),park,rimouski,..,..,..,..,qc
173418,Parc Rue De La Normandie,park,rimouski,..,..,..,..,qc
173419,Parc Rue De La Pinède,park,rimouski,..,..,..,..,qc
173420,Parc Rue De L''Île-De-France,park,rimouski,..,..,..,..,qc
173421,Parc Rue Des Agarics,park,rimouski,..,..,..,..,qc
173422,Parc Rue Des Jardiniers,park,rimouski,..,..,..,..,qc
173423,Parc Rue Des Pinsons,park,rimouski,..,..,..,..,qc
173424,Parc Rue Des Sarcelles,park,rimouski,..,..,..,..,qc
173425,Parc Rue Du Bosquet,park,rimouski,..,..,..,..,qc
173426,Parc Rue Du Fleuve,park,rimouski,..,..,..,..,qc
173427,Parc Rue Du Versant,park,rimouski,..,..,..,..,qc
173428,Parc Rue Duquesne,park,rimouski,..,..,..,..,qc
173429,Parc Rue Frédéric-Rousseau,park,rimouski,..,..,..,..,qc
173430,Parc Rue Frontenac,park,rimouski,..,..,..,..,qc
173431,Parc Rue Georges-Henri-Lévesque,park,rimouski,..,..,..,..,qc
173432,Parc Rue Gilles-Vigneault,park,rimouski,..,..,..,..,qc
173433,Parc Rue Jalna,park,rimouski,..,..,..,..,qc
173434,Parc Rue Monseigneur-Langis,park,rimouski,..,..,..,..,qc
173435,Parc Rue Saint-Germain Est (Face Au No°383),park,rimouski,..,..,..,..,qc
