Index,Facility_Name,ODRSF_facility_type,Provider,Street_No,Street_Name,Postal_Code,City,Prov_Terr
15900,Ski De Fond Charlesbourg,miscellaneous,quebec city,375,de-l'aventure,..,quebec city,qc
17282,Stationnement Aréna 2 Glaces,arena,quebec city,..,de linnovation,..,..,qc
17283,Stationnement Aréna Bardy,arena,quebec city,..,..,..,..,qc
17284,Stationnement Aréna Duberger,arena,quebec city,3050,central,..,..,qc
17285,Stationnement Aréna Gaétan-Duchesne,arena,quebec city,2650,dalembert,..,..,qc
17286,Stationnement Aréna Marcel-Bédard,arena,quebec city,655,des-chutes,..,quebec city,qc
17287,Stationnement Aréna Patrick-Poulin,arena,quebec city,220,du chanoine côté,..,..,qc
17288,Stationnement Aréna Réjean-Lemelin,arena,quebec city,1300,pompadour,..,..,qc
17289,Stationnement Centre De Loisirs Jean-Guyon,athletic park,quebec city,153,des sablonni res,..,quebec city,qc
17291,Stationnement Centre De Loisirs La Cavée,athletic park,quebec city,69,juchereau,..,..,qc
17292,Stationnement Centre De Loisirs La Ribambelle,athletic park,quebec city,333,perroteau,..,..,qc
17293,Stationnement Centre De Loisirs Pie-Xii,athletic park,quebec city,909,pie xii,..,..,qc
17294,Stationnement Centre De Loisirs Provancher,athletic park,quebec city,4170,michel herv,..,..,qc
17295,Stationnement Centre De Loisirs Saint-Ange,athletic park,quebec city,1545,rang saint ange,..,..,qc
17296,Stationnement Centre De Loisirs Saint-Mathieu,athletic park,quebec city,1000,de bar le duc,..,..,qc
17297,Stationnement Centre De Loisirs Trois-Saisons,athletic park,quebec city,1390,buffon,..,..,qc
17298,Stationnement Centre De Loisirs Ulric-Turcotte,athletic park,quebec city,35,vachon,..,..,qc
17299,Stationnement Centre Sportif Alexis-Bérubé,athletic park,quebec city,2175,saint clément,..,..,qc
17301,Stationnement Centre Sportif De Sainte-Foy,athletic park,quebec city,930,roland beaudin,..,..,qc
17304,Stationnement Du Centre Sportif Marc-Simoneau,athletic park,quebec city,3500,cambronne,..,..,qc
17305,Stationnement Stade Chauveau,athletic park,quebec city,7200,de lormi re,..,de-lormi,qc
172847,Parc Canin De La Pente-Douce,park,quebec,..,c te de la pente douce,..,..,qc
172848,Parc Canin De La Pointe-Aux-Lièvres,park,quebec,..,de la pointe aux li vres,..,..,qc
173294,Parc Linéaire De La Rivière-Des-Roches,park,quebec,8900,des li vres,..,..,qc
173299,Parc Louis-Jolliet,park,quebec,1201,de la pointe aux li vres,..,..,qc
173505,Parc-École Amédée-Boutin,park,quebec,3320,de-la-roport,..,..,qc
173506,Parc-École André-Roux,park,quebec,334,12e,..,..,qc
173507,Parc-École Anne-Hébert,park,quebec,..,p re marquette,..,..,qc
173508,Parc-École Chanoine-Côté,park,quebec,138,beaucage,..,..,qc
173509,Parc-École De La Chanterelle,park,quebec,1070,pie xi,..,..,qc
173510,Parc-École De La Chaumière,park,quebec,4285,ren chaloult,..,..,qc
173511,Parc-École De La Grande-Hermine,park,quebec,185,13e,..,..,qc
173512,Parc-École De La Mosaïque,park,quebec,2264,lemieux,..,..,qc
173513,Parc-École De La Passerelle,park,quebec,460,des-couventines,..,..,qc
173514,Parc-École De La Source,park,quebec,204,des-tudiants,..,..,qc
173516,Parc-École De L'Accueil,park,quebec,1587,guillaume bresse,..,..,qc
173517,Parc-École De L'Arc-En-Ciel,park,quebec,475,racine,..,..,qc
173518,Parc-École De L'Aventure,park,quebec,40,johnny parent,..,..,qc
173519,Parc-École De L'Escabelle,park,quebec,10725,saint-charles,..,..,qc
173520,Parc-École De L'Orée-Des-Bois,park,quebec,1389,des-camarades,..,..,qc
173521,Parc-École De Saint-Jean-Baptiste,park,quebec,..,daiguillon,..,..,qc
173522,Parc-École De Saint-Sacrement,park,quebec,..,frontenac,..,..,qc
173523,Parc-École Des Écrivains,park,quebec,4400,jacques cr peault,..,..,qc
173524,Parc-École Des Berges,park,quebec,510,du prince douard,..,..,qc
173525,Parc-École Des Jeunes-Du-Monde,park,quebec,1990,25e,..,..,qc
173526,Parc-École Des Neiges,park,quebec,4140,gastonguay,..,..,qc
173527,Parc-École Dominique-Savio,park,quebec,2050,de-la-trinit,..,..,qc
173528,Parc-École Du Buisson,park,quebec,5385,banville,..,..,qc
173529,Parc-École Du Domaine Saint-Charles,park,quebec,1630,des-balsamines,..,..,qc
