Index,Facility_Name,ODRSF_facility_type,Provider,Street_No,Street_Name,Postal_Code,City,Prov_Terr
9652,Centre De Loisirs Provancher,community centre,quebec city,4170,michel herv,..,..,qc
9653,Centre De Loisirs Saint-Ange,community centre,quebec city,1545,rang saint ange,..,..,qc
9654,Centre De Loisirs Sainte-Geneviève,community centre,quebec city,690,de-cherbourg,..,quebec city,qc
9655,Centre De Loisirs Sainte-Gertrude,community centre,quebec city,788,du cénacle,..,..,qc
9656,Centre De Loisirs Sainte-Ursule,community centre,quebec city,3224,armand hamelin,..,..,qc
9657,Centre De Loisirs Saint-Jean-Baptiste-De La Salle,community centre,quebec city,2608,biencourt,..,..,qc
9658,Centre De Loisirs Saint-Louis-De-France,community centre,quebec city,1560,de léglise,..,québec city,qc
9659,Centre De Loisirs Saint-Mathieu,community centre,quebec city,1000,de bar le duc,..,..,qc
9660,Centre De Loisirs Saint-Thomas-D'Aquin,community centre,quebec city,895,myrand,..,..,qc
9661,Centre De Loisirs Ulric-Turcotte,community centre,quebec city,35,vachon,..,..,qc
9662,Centre De Plein Air De Beauport (Camping Municipal De Beauport),miscellaneous,quebec city,95,de-la-sérénité,..,quebec city,qc
9669,Centre Sportif Alexis-Bérubé,athletic park,quebec city,2175,saint clément,..,..,qc
9673,Centre Sportif De Sainte-Foy,arena,quebec city,930,roland beaudin,..,..,qc
9674,Centre Sportif Marcel-Bédard,arena,quebec city,655,des-chutes,..,quebec city,qc
9675,Centre Sportif Marc-Simoneau,athletic park,quebec city,3500,cambronne,..,..,qc
9698,Chalet De Services De La Piscine,pool,quebec city,6106,de-laccueil,..,quebec city,qc
9699,Chalet De Services De La Piscine Guillaume-Mathieu,pool,quebec city,720,de-gironde,..,quebec city,qc
9700,Chalet De Services De La Piscine Saint-Jérôme,pool,quebec city,585,64e,..,..,qc
9701,Chalet De Services De La Piscine Terrasse Bon-Air,pool,quebec city,1085,60e,..,..,qc
9702,Chalet De Services Du Tennis,sports field,quebec city,6106,de-laccueil,..,quebec city,qc
10000,Club De Golf L'Albatros,sports field,province of québec,1418,de-l'aéroport,G2G 1G6,québec,qc
10005,Club De Golf Le Montmorency,sports field,province of québec,2700,du-sault,G1C 2L2,québec,qc
10021,Club De Golf Lorette,sports field,quebec city,12986,monseigneur-cooke,..,quebec city,qc
10024,Club De Golf Métropolitain,sports field,province of québec,5136,chauveau,G2E 1A2,québec,qc
10043,Club De Golf Royal Charbourg,sports field,province of québec,17280,de la grande-ligne,G2N 2G3,québec,qc
10071,Club De Soccer De Longueuil Inc.,sports field,longueuil,57101,centre,j4l 4t6,..,qc
10515,Domaine De Maizerets,miscellaneous,quebec city,2000,montmorency,..,..,qc
14704,Pavillon De La Piscine Notre-Dame-De-La-Garde,pool,quebec city,..,champlain,..,..,qc
14705,Pavillon De Service De Tennis Du Parc La Chanterelle,sports field,quebec city,1525,de linnovation,..,..,qc
14706,Pavillon De Tennis Victoria,sports field,quebec city,170,du cardinal maurice roy,..,..,qc
14801,Piscine J.-A.-Lachance,pool,quebec city,2920,claisse,..,..,qc
14803,Piscine Municipale Chevalier,pool,quebec city,491,du méandre,..,..,qc
14804,Piscine Municipale Courville,pool,quebec city,121,vachon,..,..,qc
14805,Piscine Municipale De Giffard,pool,quebec city,3400,marie louise marmette,..,..,qc
14806,Piscine Municipale De L'École Secondaire L'Odyssée,pool,quebec city,1485,de linnovation,..,..,qc
14807,Piscine Municipale De Lebourgneuf,pool,quebec city,1640,la morille,..,..,qc
14808,Piscine Municipale De Loretteville,pool,quebec city,305,racine,..,..,qc
14809,Piscine Municipale Du Bourg-Royal,pool,quebec city,640,du bourg royal,..,..,qc
14810,Piscine Municipale Du Centre De Plein Air De Beauport,pool,quebec city,95,de la sérénité,..,québec city,qc
14812,Piscine Municipale Du Centre Lucien-Borne,pool,quebec city,100,sainte foy,..,..,qc
14813,Piscine Municipale Ferland,pool,quebec city,1600,8e,..,..,qc
14814,Piscine Municipale Jacques-Amyot,pool,quebec city,3643,des-compagnons,..,quebec city,qc
14815,Piscine Municipale Monseigneur-Robert,pool,quebec city,788,du cénacle,..,..,qc
14816,Piscine Municipale Montmorency,pool,quebec city,4551,sainte-anne,..,quebec city,qc
14817,Piscine Municipale Saint-Benoît,pool,quebec city,3454,rochambeau,..,..,qc
14818,Piscine Municipale Saint-Thomas-D'Aquin,pool,quebec city,2122,boivin,..,..,qc
14819,Piscine Municipale Sylvie-Bernier,pool,quebec city,3020,hochelaga,..,..,qc
14820,Piscine Municipale Wilfrid-Hamel,pool,quebec city,155,bigaouette,..,..,qc
15036,Québec International Pee-Wee Hockey Tournament,rink,province of québec,250,hamel,G1L 5A7,québec,qc
