Index,Facility_Name,ODRSF_facility_type,Provider,Street_No,Street_Name,Postal_Code,City,Prov_Terr
3191,Marina Saint-Roch,marina,quebec city,230,du-pont,..,quebec city,qc
4080,Parc Des Champs-De-Bataille,park,quebec city,835,wilfrid-laurier,..,quebec city,qc
4170,Parc Jules-Émond,park,quebec city,1045,des-collégiens,..,quebec city,qc
4478,Patinoire De La Place D'Youville,rink,province of québec,995,d'youville,G1R 3P1,québec,qc
4480,Patinoire Du Méga Parc,park,province of québec,5401,des galeries,G2K 1N4,québec,qc
4492,Pavillon Des Piscines Du Parc Bardy,park,quebec city,2350,bardy,..,quebec city,qc
5197,Roc Gyms - L'Ascensation - Aventurex,gym,province of québec,2350,du-colisée,G1L 5A1,québec,qc
5956,Stationnement Parc De La Plage Jacques-Cartier,park,quebec city,..,du pavillon,..,quebec city,qc
6731,..,community centre,quebec city,1,600,..,quebec city,qc
6732,..,community centre,quebec city,..,45,..,quebec city,qc
6733,..,community centre,quebec city,..,..,..,quebec city,qc
6734,..,community centre,quebec city,906,907,..,quebec city,qc
6735,..,community centre,quebec city,1585,de la peltrie,..,quebec city,qc
6736,..,community centre,quebec city,2,monseigneur marc leclerc,..,quebec city,qc
6737,..,community centre,quebec city,..,champlain,..,quebec city,qc
6738,..,community centre,quebec city,1680,iberville,..,quebec city,qc
6739,..,community centre,quebec city,1140,guillaume bresse,..,quebec city,qc
6740,..,community centre,quebec city,1678,saint louis,..,quebec city,qc
6741,..,community centre,quebec city,227,cambert,..,quebec city,qc
6742,..,community centre,quebec city,4001,charles a roy,..,quebec city,qc
6743,..,community centre,quebec city,3200,d'amours,..,quebec city,qc
6744,..,community centre,quebec city,..,3251,..,quebec city,qc
6745,..,community centre,quebec city,9180,actif,..,quebec city,qc
6746,..,community centre,quebec city,13550,duhamel,..,quebec city,qc
6747,..,community centre,quebec city,1475,virginia woolf,..,quebec city,qc
6748,..,community centre,quebec city,3460,rochambeau,..,quebec city,qc
6749,..,community centre,quebec city,771,jacques berthiaume,..,quebec city,qc
6750,..,community centre,quebec city,621,gerbier,..,quebec city,qc
6751,..,community centre,quebec city,875,groseilles,..,quebec city,qc
6752,..,community centre,quebec city,156,bertrand,..,quebec city,qc
6753,..,community centre,quebec city,2475,triquet,..,quebec city,qc
6754,..,community centre,quebec city,1259,collin,..,quebec city,qc
6755,..,community centre,quebec city,1522,chavigneau,..,quebec city,qc
6756,..,community centre,quebec city,..,..,..,quebec city,qc
6757,..,community centre,quebec city,450,des,..,quebec city,qc
6758,..,community centre,quebec city,1644,lapierre,..,quebec city,qc
6759,..,community centre,quebec city,9780,vanier,..,quebec city,qc
6760,..,community centre,quebec city,475,racine,..,quebec city,qc
6761,..,community centre,quebec city,6300,de montrachet,..,quebec city,qc
6762,..,community centre,quebec city,105,savio,..,quebec city,qc
6763,..,community centre,quebec city,3075,du golf,..,quebec city,qc
6764,..,community centre,quebec city,570,pacifique,..,quebec city,qc
6765,..,community centre,quebec city,1005,du girondas,..,quebec city,qc
6766,..,community centre,quebec city,..,40,..,quebec city,qc
6767,..,community centre,quebec city,..,..,..,quebec city,qc
6768,..,community centre,quebec city,1473,provancher,..,quebec city,qc
6769,..,community centre,quebec city,1440,quatre vents,..,quebec city,qc
6770,..,community centre,quebec city,4675,des soeurs,..,quebec city,qc
6771,..,community centre,quebec city,4575,des soeurs,..,quebec city,qc
