Index,Facility_Name,ODRSF_facility_type,Provider,Street_No,Street_Name,Postal_Code,City,Prov_Terr
6773,..,community centre,quebec city,1290,adagio,..,quebec city,qc
6774,..,community centre,quebec city,5395,4e,..,quebec city,qc
6775,..,community centre,quebec city,1356,..,..,quebec city,qc
6776,..,community centre,quebec city,..,..,..,quebec city,qc
6777,..,community centre,quebec city,595,saint jude,..,quebec city,qc
6785,..,community centre,quebec city,1270,îlots,..,quebec city,qc
6786,..,community centre,quebec city,219,prénoveau,..,quebec city,qc
6787,..,community centre,quebec city,..,..,..,quebec city,qc
6788,..,community centre,quebec city,1045,des,..,quebec city,qc
6789,..,community centre,quebec city,6920,brumes,..,quebec city,qc
6790,..,community centre,quebec city,950,calixa lavallée,..,quebec city,qc
6791,..,community centre,quebec city,..,..,..,quebec city,qc
6792,..,community centre,quebec city,10080,d',..,quebec city,qc
6793,..,community centre,quebec city,1214,émeraudes,..,quebec city,qc
6794,..,community centre,quebec city,..,..,..,quebec city,qc
6795,..,community centre,quebec city,1510,1516,..,quebec city,qc
6796,..,community centre,quebec city,6805,de jurançon,..,quebec city,qc
6797,..,community centre,quebec city,204,des,..,quebec city,qc
6798,..,community centre,quebec city,4299,doré,..,quebec city,qc
6799,..,community centre,quebec city,1181,robert l séguin,..,quebec city,qc
6800,..,community centre,quebec city,..,estérelde-l',..,quebec city,qc
6801,..,community centre,quebec city,..,..,..,quebec city,qc
6802,..,community centre,quebec city,..,..,..,quebec city,qc
6803,..,community centre,quebec city,1284,onésime voyer,..,quebec city,qc
6804,..,community centre,quebec city,..,..,..,quebec city,qc
7236,Aréna 2 Glaces Val-Bélair,arena,quebec city,1515,de linnovation,..,..,qc
7238,Aréna Bardy,arena,quebec city,2280,monseigneur gosselin,..,..,qc
7241,Aréna Duberger,arena,quebec city,3050,central,..,..,qc
7242,Aréna Gaétan-Duchesne,arena,quebec city,2650,dalembert,..,..,qc
7244,Aréna Michel-Labadie,arena,quebec city,3705,chauveau,..,..,qc
7245,Aréna Patrick-Poulin,arena,quebec city,220,du chanoine côté,..,..,qc
7246,Aréna Réjean-Lemelin,arena,quebec city,1300,pompadour,..,..,qc
8317,Base De Plein Air De Sainte-Foy,miscellaneous,quebec city,3180,laberge,..,..,qc
8318,Base De Plein Air La Découverte,miscellaneous,quebec city,10,de-la-découverte,..,quebec city,qc
9109,Boisé Des Compagnons-De-Cartier,miscellaneous,quebec city,3643,des-compagnons,..,quebec city,qc
9637,Centre De Glisse Myrand,miscellaneous,quebec city,2150,chapdelaine,..,..,qc
9638,Centre De Loisirs Cambert,community centre,quebec city,280,cambert,..,..,qc
9639,Centre De Loisirs De Saint-Sacrement,community centre,quebec city,..,de-lentente,..,quebec city,qc
9640,Centre De Loisirs Des Trois-Saisons,community centre,quebec city,1390,buffon,..,..,qc
9641,Centre De Loisirs Du Petit-Village,community centre,quebec city,2900,du-loiret,..,quebec city,qc
9642,Centre De Loisirs Jean-Guyon,community centre,quebec city,153,des sablonni res,..,quebec city,qc
9643,Centre De Loisirs La Cavée,community centre,quebec city,69,juchereau,..,..,qc
9644,Centre De Loisirs La Ribambelle,community centre,quebec city,333,perroteau,..,..,qc
9645,Centre De Loisirs La Sablière,community centre,quebec city,156,bertrand,..,..,qc
9646,Centre De Loisirs Monseigneur-De-Laval,community centre,quebec city,2,du-fargy,..,quebec city,qc
9647,Centre De Loisirs Montcalm,community centre,quebec city,265,rené-lévesque,..,quebec city,qc
9648,Centre De Loisirs Notre-Dame-De-Foy,community centre,quebec city,771,jacques berthiaume,..,..,qc
9649,Centre De Loisirs Odilon-Blanchette,community centre,quebec city,49,ruel,..,..,qc
9650,Centre De Loisirs Pavillon Royal,community centre,quebec city,3365,royal,..,..,qc
