Index,Facility_Name,ODRSF_facility_type,Provider,Street_No,Street_Name,Postal_Code,City,Prov_Terr
650,Camping Plage Laurentides,beach,province of québec,282,dublin,G2M 1C5,québec,qc
704,Carrefour Communautaire De Charlesbourg,community centre,quebec city,7260,cloutier,..,quebec city,qc
817,Centre Communautaire Édifice Victorin-Beaucage,community centre,quebec city,380,beaucage,..,quebec city,qc
818,Centre Communautaire Édouard-Lavergne,community centre,quebec city,380,arago,..,quebec city,qc
827,Centre Communautaire Bon-Pasteur,community centre,quebec city,425,du bienheureux jean xxiii,..,quebec city,qc
828,Centre Communautaire Bourassa,community centre,quebec city,570,79e,..,quebec city,qc
830,Centre Communautaire Champigny,community centre,quebec city,7519,wilfrid hamel,..,quebec city,qc
831,Centre Communautaire Charles-Auguste-Savard,community centre,quebec city,2155,bastien,..,quebec city,qc
832,Centre Communautaire Claude-Allard,community centre,quebec city,3200,damours,..,quebec city,qc
838,Centre Communautaire De Cap-Rouge,community centre,quebec city,4473,saint f lix,..,quebec city,qc
849,Centre Communautaire De Saint-Sacrement,community centre,quebec city,1360,de-lentente,..,quebec city,qc
851,Centre Communautaire Des Chutes,community centre,quebec city,4551,sainte-anne,..,quebec city,qc
861,Centre Communautaire Du Plateau,community centre,quebec city,8815,jean paquin,..,quebec city,qc
863,Centre Communautaire Du Saint-Gérard,community centre,quebec city,3259,de-la-roport,..,quebec city,qc
864,Centre Communautaire Duberger,community centre,quebec city,2341,de la rivi re du berger,..,quebec city,qc
868,Centre Communautaire Elzéar-Turcotte,community centre,quebec city,2455,central,..,quebec city,qc
872,Centre Communautaire Ferland,community centre,quebec city,1600,8e,..,quebec city,qc
873,Centre Communautaire Fernand-Dufour,community centre,quebec city,380,chabot,..,quebec city,qc
879,Centre Communautaire J.-B.-Lafrance,community centre,quebec city,4075,maria goretti,..,quebec city,qc
880,Centre Communautaire Jean-Guy Drolet,community centre,quebec city,16,royal roussillon,..,quebec city,qc
892,Centre Communautaire Lebourgneuf,community centre,quebec city,1650,la morille,..,quebec city,qc
893,Centre Communautaire Les Saules,community centre,quebec city,4120,de-musset,..,quebec city,qc
894,Centre Communautaire Loretteville,community centre,quebec city,305,racine,..,quebec city,qc
895,Centre Communautaire Lucien-Borne,community centre,quebec city,100,sainte foy,..,quebec city,qc
896,Centre Communautaire Mères Et Monde,community centre,quebec city,..,6e,..,quebec city,qc
897,Centre Communautaire Maison Des Jeunes L'Intégrale,community centre,quebec city,17099,henri bourassa,..,quebec city,qc
898,Centre Communautaire Marchand,community centre,quebec city,2740,2e,..,quebec city,qc
899,Centre Communautaire Mgr. Marcoux,community centre,quebec city,1885,de la canardi re,..,quebec city,qc
900,Centre Communautaire Michel-Labadie,community centre,quebec city,3705,chauveau,..,quebec city,qc
903,Centre Communautaire Noël-Brulart,community centre,quebec city,1229,du chanoine morel,..,quebec city,qc
907,Centre Communautaire Paul-Émile Beaulieu,community centre,quebec city,530,delage,..,quebec city,qc
909,Centre Communautaire Pierre-Garon,community centre,quebec city,748,louis xiv,..,quebec city,qc
915,Centre Communautaire Saint-Émile,community centre,quebec city,2200,de-la-faune,..,quebec city,qc
929,Centre Communautaire Saint-Michel,community centre,quebec city,1829,pie xi,..,quebec city,qc
939,Centre Communautaire Ymca-Saint-Roch,community centre,quebec city,500,du-pont,..,quebec city,qc
941,Centre Communautaire Ywca,community centre,quebec city,855,holland,..,quebec city,qc
942,Centre Culturel Et Communautaire De Charlesbourg,community centre,quebec city,7575,henri bourassa,..,quebec city,qc
943,Centre Culturel Georges-Dor,community centre,quebec city,3490,de-la-roport,..,quebec city,qc
945,Centre Deblois,community centre,quebec city,2130,de-l,..,quebec city,qc
952,Centre Musical Uni-Son De Sillery,community centre,quebec city,1675,dina b langer,..,quebec city,qc
982,Chalet De Services De La Piscine Du Parc Maria-Goretti,park,quebec city,7475,paul comtois,..,quebec city,qc
983,Chalet De Services De La Piscine Du Parc Maurice-Dorion,park,quebec city,8815,jean paquin,..,quebec city,qc
984,Chalet De Services De La Piscine Du Parc Maurice-Lortie,park,quebec city,130,50e,..,quebec city,qc
2029,Gymnase François-Borgia,gym,quebec city,7700,est,..,quebec city,qc
2995,Maison Belle-Eau,community centre,quebec city,1194,du beau milieu,..,quebec city,qc
2997,Maison Des Jeunes De Sillery,community centre,quebec city,1225,du chanoine morel,..,quebec city,qc
2998,Maison Des Jeunes La Symbiose De Cap-Rouge,community centre,quebec city,1210,provancher,..,quebec city,qc
2999,Maison Des Jeunes L'Ambassade,community centre,quebec city,540,delage,..,quebec city,qc
3000,Maison Des Jeunes L'Escapade,community centre,quebec city,1565,de linnovation,..,quebec city,qc
