Index,Facility_Name,ODRSF_facility_type,Provider,Street_No,Street_Name,Postal_Code,City,Prov_Terr
29,École Secondaire Des Chutes,gym,shawinigan,5285,albert-tessier,..,..,qc
31,École Secondaire Val-Mauricie,gym,shawinigan,1700,de-val-mauricie,..,..,qc
183,Aréna De Grand-Mère,arena,shawinigan,601,3e,..,..,qc
184,Aréna Émile-Bédard,arena,shawinigan,540,207e,..,..,qc
186,Aréna Gilles-Bourassa,arena,shawinigan,1609,117e,..,..,qc
949,Centre Gervais Auto (Amphithéâtre Municipal),arena,shawinigan,1,jacques-plante,..,..,qc
4010,Parc Alphonse-Trépanier,park,shawinigan,171,des-loisirs,..,..,qc
4012,Parc André-Yvon-Perreault,rink,shawinigan,..,des-coopérants,..,..,qc
4013,Parc Antoine-St-Onge,park,shawinigan,2143,royal,..,..,qc
4024,Parc Belgoville,park,shawinigan,..,de-belgoville / émile-jacob,..,..,qc
4025,Parc Bellevue,rink,shawinigan,..,beaupré,..,..,qc
4031,Parc Boisvert,park,shawinigan,..,..,..,..,qc
4058,Parc De La Plage Idéale,park,shawinigan,5790,du-tour-du-lac,..,..,qc
4062,Parc De La Rivière Grand-Mère,park,shawinigan,1090,7e,..,..,qc
4071,Parc De L'Île Melville,park,shawinigan,..,..,..,..,qc
4076,Parc De Sainte-Flore,park,shawinigan,3531,riopelle,..,..,qc
4087,Parc Des Piles,park,shawinigan,..,morin,..,..,qc
4093,Parc Des Trois-L,park,shawinigan,..,..,..,..,qc
4100,Parc Du Beau-Rivage,rink,shawinigan,..,beaurivage,..,..,qc
4101,Parc Du Boisé,rink,shawinigan,..,des-sources / av jourdain,..,..,qc
4103,Parc Du Clair-Val,rink,shawinigan,..,..,..,..,qc
4106,Parc Du Grand-Orme,rink,shawinigan,..,morin,..,..,qc
4116,Parc Eddy-Rivard,park,shawinigan,..,..,..,..,qc
4122,Parc Florence-Lawless-Lacroix,park,shawinigan,..,..,..,..,qc
4126,Parc Frank-Gauthier,park,shawinigan,1201,3e,..,..,qc
4133,Parc Gervais,park,shawinigan,540,207e,..,..,qc
4138,Parc Glenada,park,shawinigan,..,..,..,..,qc
4155,Parc Jacob,rink,shawinigan,..,du-capitaine-veilleux,..,d'almaville,qc
4181,Parc Lafayette,rink,shawinigan,..,lafayette,..,..,qc
4183,Parc Lafond,park,shawinigan,..,de-la-mauricie,..,..,qc
4224,Parc Morand,park,shawinigan,..,morand,..,..,qc
4228,Parc Multisport Manfredo-Devito,rink,shawinigan,..,..,..,..,qc
4229,Parc Multisport Réal-Dufresne,park,shawinigan,925,129e,..,..,qc
4247,Parc Pierre-Garceau,park,shawinigan,..,des-genévriers,..,..,qc
4264,Parc Robitaille,rink,shawinigan,..,..,..,..,qc
4282,Parc Saint-Michel,park,shawinigan,..,ovila-demontigny,..,..,qc
4294,Parc St-Maurice,park,shawinigan,100,broadway,..,..,qc
4305,Parc Wellie-Robitaille,park,shawinigan,..,..,..,..,qc
4574,Piscine Extérieure De La Station Plein-Air Val-Mauricie,pool,shawinigan,1700,val-mauricie,..,..,qc
4575,Piscine Extérieure Du Parc Antoine-St-Onge,pool,shawinigan,2143,royal,..,..,qc
4576,Piscine Extérieure Du Parc Frank-Gauthier,pool,shawinigan,1250,3e,..,..,qc
4577,Piscine Extérieure Du Parc St-Maurice,pool,shawinigan,202,broadway,..,..,qc
7032,École Des Bâtisseurs,rink,shawinigan,1125,10e,..,..,qc
7049,École Saint-Jean-De-Bosco,miscellaneous,shawinigan,1590,10e,..,..,qc
7051,École Secondaire Des Chutes,sports field,shawinigan,5285,albert-tessier,..,..,qc
7052,École Secondaire Des Chutes,rink,shawinigan,5285,albert-tessier,..,..,qc
7053,École Secondaire Des Chutes,sports field,shawinigan,5285,albert-tessier,..,..,qc
7054,École Secondaire Du Rocher,miscellaneous,shawinigan,300,7e,..,..,qc
7055,École Secondaire Du Rocher,pool,shawinigan,300,7e,..,..,qc
