Index,Facility_Name,ODRSF_facility_type,Provider,Street_No,Street_Name,Postal_Code,City,Prov_Terr
159340,..,trail,shawinigan,..,..,..,..,qc
159341,..,trail,shawinigan,..,..,..,..,qc
159342,..,trail,shawinigan,..,..,..,..,qc
159343,..,trail,shawinigan,..,..,..,..,qc
159344,..,trail,shawinigan,..,..,..,..,qc
159345,..,trail,shawinigan,..,..,..,..,qc
159346,..,trail,shawinigan,..,..,..,..,qc
159347,..,trail,shawinigan,..,..,..,..,qc
163111,Belvédère D'Almaville,park,shawinigan,..,du-capitaine-veilleux,..,..,qc
163112,Belvédère Lambert,park,shawinigan,..,105e,..,..,qc
163113,Belvédère Van Bruyssel,park,shawinigan,..,..,..,..,qc
165025,Complexe Sportif De Shawinigan,park,shawinigan,..,albert-tessier,..,..,qc
166492,Espace Vert,park,shawinigan,..,du-lac-bournival / chemin de-sainte-flore,..,..,qc
166493,Espace Vert,park,shawinigan,..,..,..,..,qc
166494,Espace Vert,park,shawinigan,..,..,..,..,qc
166495,Espace Vert,park,shawinigan,..,..,..,..,qc
166496,Espace Vert,park,shawinigan,..,..,..,..,qc
166497,Espace Vert,park,shawinigan,..,..,..,..,qc
166498,Espace Vert Aldred,park,shawinigan,..,..,..,..,qc
166499,Espace Vert Alfred-Desrochers,park,shawinigan,..,..,..,..,qc
166500,Espace Vert Augustin-Lambert,park,shawinigan,..,..,..,..,qc
166501,Espace Vert Bellefeuille,park,shawinigan,..,bellefeuille,..,..,qc
166502,Espace Vert De La Carrière,park,shawinigan,2101,4e,..,..,qc
166503,Espace Vert De Vimy,park,shawinigan,..,de-vimy,..,..,qc
166504,Espace Vert Eymard,park,shawinigan,..,..,..,..,qc
166505,Espace Vert Guillemette,park,shawinigan,..,guillemette,..,..,qc
166506,Espace Vert Hôtel De Ville,park,shawinigan,..,des-cèdres,..,..,qc
166507,Espace Vert Hamilton,park,shawinigan,..,..,..,..,qc
166508,Espace Vert Notre-Dame,park,shawinigan,..,notre-dame,..,..,qc
166509,Espace Vert Place Richelieu,park,shawinigan,..,..,..,..,qc
166510,Espace Vert Summit,park,shawinigan,..,summit,..,..,qc
172765,Parc Étienne-Bellemare,park,shawinigan,..,..,..,..,qc
172778,Parc Alphonse-Desaulniers,park,shawinigan,219,201e,..,..,qc
172782,Parc André-Huard,park,shawinigan,..,18e,..,..,qc
172783,Parc André-Yvon-Perreault,park,shawinigan,..,des-coopérants,..,..,qc
172816,Parc Bellevue,park,shawinigan,..,beaupré,..,..,qc
172856,Parc Cendrillon,park,shawinigan,..,211e,..,..,qc
172862,Parc Chahoon,park,shawinigan,621,7e,..,..,qc
172919,Parc De La Gare-De-Grand-Mère,park,shawinigan,..,..,..,..,qc
172923,Parc De La Marina Grand-Mère,park,shawinigan,..,chahoon,..,..,qc
172925,Parc De La Paix,park,shawinigan,..,réjane-sanschagrin,..,..,qc
172926,Parc De La Plage-Idéale,park,shawinigan,..,du-tour-du-lac,..,..,qc
172934,Parc De La Rive-Du-Golf,park,shawinigan,..,..,..,..,qc
172936,Parc De La Rivière-Grand-Mère,park,shawinigan,..,..,..,..,qc
172937,Parc De La Rivière-Noire,park,shawinigan,..,214e,..,..,qc
172938,Parc De La Rivière-Shawinigan,park,shawinigan,..,trudel,..,..,qc
172952,Parc De L''Île-Melville,park,shawinigan,..,melville,..,..,qc
172969,Parc De L'Horloge Du Millénaire,park,shawinigan,..,105e,..,..,qc
173025,Parc Des Jardins-Saint-Georges,park,shawinigan,..,215e,..,..,qc
