Index,Facility_Name,ODRSF_facility_type,Provider,Street_No,Street_Name,Postal_Code,City,Prov_Terr
173081,Parc Du Beau-Rivage,park,shawinigan,..,du-beau-rivage,..,..,qc
173085,Parc Du Boisé,park,shawinigan,..,des-sources / avenue jourdain,..,..,qc
173091,Parc Du Centenaire-De-Grand-Mère,park,shawinigan,401,de-grand-mère,..,..,qc
173096,Parc Du Clair-Val,park,shawinigan,..,..,..,..,qc
173103,Parc Du Domaine-Du-Havre,park,shawinigan,..,eugène-dumas,..,..,qc
173105,Parc Du Domaine-Laflèche,park,shawinigan,..,..,..,..,qc
173110,Parc Du Grand-Orme,park,shawinigan,..,morin,..,..,qc
173114,Parc Du Lac-Bournival,park,shawinigan,..,des-immortelles,..,..,qc
173116,Parc Du Lac-Montclair,park,shawinigan,..,du-lac-montclair / chemin des-bouleaux,..,..,qc
173127,Parc Du Passant,park,shawinigan,..,..,..,..,qc
173131,Parc Du Rocher,park,shawinigan,100,5e,..,..,qc
173173,Parc Forman,park,shawinigan,..,forman,..,..,qc
173190,Parc Georges-Vanier,park,shawinigan,..,..,..,..,qc
173203,Parc Guillaume-Tell,park,shawinigan,..,206e,..,..,qc
173215,Parc Hooper,park,shawinigan,..,1ere,..,hooper,qc
173224,Parc J.-Émile-Hébert,park,shawinigan,..,..,..,..,qc
173228,Parc Jacob,park,shawinigan,..,du-capitaine-veilleux,..,d'almaville,qc
173232,Parc Jacques-Marcotte,park,shawinigan,102,du-plateau,..,..,qc
173233,Parc Jacques-Plante,park,shawinigan,..,..,..,..,qc
173238,Parc Jean-Claude-Légaré,park,shawinigan,..,..,..,..,qc
173266,Parc Lafayette,park,shawinigan,..,lafayette,..,..,qc
173291,Parc Le-Petit-Poucet,park,shawinigan,..,..,..,..,qc
173296,Parc Lord,park,shawinigan,..,pierre lord,..,..,qc
173306,Parc Ludger-Gerbeau,park,shawinigan,75,101e,..,..,qc
173314,Parc Manfredo-De-Vito,park,shawinigan,..,..,..,..,qc
173332,Parc Maurice-Beaudoin,park,shawinigan,..,de-la-station,..,..,qc
173365,Parc Paul-André-Potvin,park,shawinigan,..,..,..,..,qc
173369,Parc Petit-Canada,park,shawinigan,..,7e,..,..,qc
173443,Parc Sainte-Flore,park,shawinigan,3531,riopelle,..,..,qc
173449,Parc Saint-Jean,park,shawinigan,..,notre-dame,..,laurier,qc
173451,Parc Saint-Jean-Baptiste,park,shawinigan,1221,de-grand-mère,..,..,qc
173456,Parc Saint-Maurice,park,shawinigan,..,broadway,..,..,qc
173475,Parc Sylva-Boisclair,park,shawinigan,..,..,..,..,qc
173479,Parc Terrasse-Des-Rapides,park,shawinigan,..,77e,..,..,qc
173483,Parc Tom-Pouce,park,shawinigan,..,..,..,..,qc
173486,Parc Trois-L,park,shawinigan,..,..,..,..,qc
173488,Parc Turcotte,park,shawinigan,..,..,..,..,qc
173491,Parc Val-Mauricie,park,shawinigan,..,de-val-mauricie / antoinette-j-goulet,..,..,qc
173966,Place Du Centenaire-De-Shawinigan,park,shawinigan,..,trudel,..,..,qc
173967,Place Du Marché,park,shawinigan,5,de-la-pointe,..,..,qc
