Index,Facility_Name,ODRSF_facility_type,Provider,Street_No,Street_Name,Postal_Code,City,Prov_Terr
14288,Parc Bellevue,sports field,shawinigan,..,beaupré,..,..,qc
14309,Parc De La Rivière Grand-Mère,sports field,shawinigan,1090,7e,..,..,qc
14320,Parc De Sainte-Flore,sports field,shawinigan,3531,riopelle,..,..,qc
14333,Parc Du Grand-Orme,sports field,shawinigan,..,morin,..,..,qc
14343,Parc Frank-Gauthier,sports field,shawinigan,1201,3e,..,..,qc
14381,Parc Multisport Manfredo-Devito,sports field,shawinigan,..,..,..,..,qc
14382,Parc Multisport Manfredo-Devito,sports field,shawinigan,..,..,..,..,qc
14383,Parc Multisport Réal-Dufresne,sports field,shawinigan,925,129e,..,..,qc
14384,Parc Multisport Réal-Dufresne,sports field,shawinigan,925,129e,..,..,qc
14387,Parc Paul-André-Potvin,sports field,shawinigan,..,..,..,..,qc
14388,Parc Paul-André-Potvin,sports field,shawinigan,..,..,..,..,qc
14389,Parc Pierre-Garceau,sports field,shawinigan,..,des-genévriers,..,..,qc
14415,Parc St-Maurice,sports field,shawinigan,100,broadway,..,..,qc
14416,Parc Turcotte,sports field,shawinigan,..,..,..,..,qc
14418,Parc Wellie-Robitaille,sports field,shawinigan,..,..,..,..,qc
15702,Sentier Thibaudeau-Ricard,trail,shawinigan,..,..,..,..,qc
17280,Station Plein-Air Val-Mauricie,miscellaneous,shawinigan,1700,val-mauricie,..,..,qc
17281,Station Plein-Air Val-Mauricie,pool,shawinigan,1700,val-mauricie,..,..,qc
17677,Terrain De Volleyball De Plage,sports field,shawinigan,5790,du-tour-du-lac,..,..,qc
18834,..,trail,shawinigan,..,..,..,..,qc
18835,..,trail,shawinigan,..,..,..,..,qc
18836,..,trail,shawinigan,..,..,..,..,qc
18837,..,trail,shawinigan,..,..,..,..,qc
18838,..,trail,shawinigan,..,..,..,..,qc
18840,..,trail,shawinigan,..,..,..,..,qc
18841,..,trail,shawinigan,..,..,..,..,qc
18842,..,trail,shawinigan,..,..,..,..,qc
18843,..,trail,shawinigan,..,..,..,..,qc
18844,..,trail,shawinigan,..,..,..,..,qc
18845,..,trail,shawinigan,..,..,..,..,qc
18846,..,trail,shawinigan,..,..,..,..,qc
18847,..,trail,shawinigan,..,..,..,..,qc
18848,..,trail,shawinigan,..,..,..,..,qc
18849,..,trail,shawinigan,..,..,..,..,qc
18850,..,trail,shawinigan,..,..,..,..,qc
18851,..,trail,shawinigan,..,..,..,..,qc
18852,..,trail,shawinigan,..,..,..,..,qc
18853,..,trail,shawinigan,..,..,..,..,qc
18854,..,trail,shawinigan,..,..,..,..,qc
18855,..,trail,shawinigan,..,..,..,..,qc
18856,..,trail,shawinigan,..,..,..,..,qc
18857,..,trail,shawinigan,..,..,..,..,qc
18858,..,trail,shawinigan,..,..,..,..,qc
18859,..,trail,shawinigan,..,..,..,..,qc
18860,..,trail,shawinigan,..,..,..,..,qc
18861,..,trail,shawinigan,..,..,..,..,qc
18862,..,trail,shawinigan,..,..,..,..,qc
18863,..,trail,shawinigan,..,..,..,..,qc
18864,..,trail,shawinigan,..,..,..,..,qc
