Index,Facility_Name,ODRSF_facility_type,Provider,Street_No,Street_Name,Postal_Code,City,Prov_Terr
7063,École Secondaire Val-Mauricie,sports field,shawinigan,1700,de-val-mauricie,..,..,qc
7064,École Secondaire Val-Mauricie,sports field,shawinigan,1700,de-val-mauricie,..,..,qc
7065,École Secondaire Val-Mauricie,sports field,shawinigan,1700,de-val-mauricie,..,..,qc
7237,Aréna Émile-Bédard,rink,shawinigan,540,207e,..,..,qc
7240,Aréna De Grand-Mère,rink,shawinigan,601,3e,..,..,qc
7243,Aréna Gilles-Bourassa,rink,shawinigan,..,..,..,..,qc
9584,Cegep De Shawinigan,pool,shawinigan,2263,du-collège,..,..,qc
9664,Centre Des Arts,pool,shawinigan,2100,des-hêtres,..,..,qc
9666,Centre Gervais Auto (Amphithéâtre Municipal),rink,shawinigan,1,jacques-plante,..,..,qc
9667,Centre Municipal De Curling,rink,shawinigan,601,3e,..,..,qc
9684,Centre-Ville,rink,shawinigan,3,de-la-pointe,..,..,qc
9740,Chemin De Sainte-Flore,trail,shawinigan,..,..,..,..,qc
9741,Chemin De Sainte-Flore,trail,shawinigan,..,..,..,..,qc
9742,Chemin De Sainte-Flore,trail,shawinigan,..,..,..,..,qc
9743,Chemin De Sainte-Flore,trail,shawinigan,..,..,..,..,qc
9744,Chemin De Sainte-Flore,trail,shawinigan,..,..,..,..,qc
9745,Chemin De Sainte-Flore,trail,shawinigan,..,..,..,..,qc
9746,Chemin De Sainte-Flore,trail,shawinigan,..,..,..,..,qc
9747,Chemin De Sainte-Flore,trail,shawinigan,..,..,..,..,qc
9748,Chemin De Sainte-Flore,trail,shawinigan,..,..,..,..,qc
9749,Chemin De Sainte-Flore,trail,shawinigan,..,..,..,..,qc
9750,Chemin De Sainte-Flore,trail,shawinigan,..,..,..,..,qc
9751,Chemin De Sainte-Flore,trail,shawinigan,..,..,..,..,qc
9752,Chemin De Sainte-Flore,trail,shawinigan,..,..,..,..,qc
9753,Chemin De Sainte-Flore,trail,shawinigan,..,..,..,..,qc
9754,Chemin De Sainte-Flore,trail,shawinigan,..,..,..,..,qc
9755,Chemin De Sainte-Flore,trail,shawinigan,..,..,..,..,qc
9756,Chemin De Sainte-Flore,trail,shawinigan,..,..,..,..,qc
9757,Chemin De Sainte-Flore,trail,shawinigan,..,..,..,..,qc
9758,Chemin De Sainte-Flore,trail,shawinigan,..,..,..,..,qc
9759,Chemin De Sainte-Flore,trail,shawinigan,..,..,..,..,qc
9760,Chemin De Sainte-Flore,trail,shawinigan,..,..,..,..,qc
9761,Chemin De Sainte-Flore,trail,shawinigan,..,..,..,..,qc
9762,Chemin De Sainte-Flore,trail,shawinigan,..,..,..,..,qc
9763,Chemin De Sainte-Flore,trail,shawinigan,..,..,..,..,qc
9764,Chemin De Sainte-Flore,trail,shawinigan,..,..,..,..,qc
9765,Chemin De Sainte-Flore,trail,shawinigan,..,..,..,..,qc
9766,Chemin De Sainte-Flore,trail,shawinigan,..,..,..,..,qc
9767,Chemin De Sainte-Flore,trail,shawinigan,..,..,..,..,qc
9768,Chemin De Sainte-Flore,trail,shawinigan,..,..,..,..,qc
10004,Club De Golf Le Mémorial,sports field,province of québec,3005,rang,G9P 400000000,shawinigan,qc
10116,Complexe Sportif De Shawinigan,athletic park,shawinigan,5285,albert-tessier,..,..,qc
10117,Complexe Sportif De Shawinigan,sports field,shawinigan,5285,albert-tessier,..,..,qc
10118,Complexe Sportif De Shawinigan,sports field,shawinigan,5285,albert-tessier,..,..,qc
10119,Complexe Sportif De Shawinigan,sports field,shawinigan,5285,albert-tessier,..,..,qc
10120,Complexe Sportif Du Domaine-Laflèche,sports field,shawinigan,1699,10e,..,..,qc
11484,Golf De Grand Mère,sports field,shawinigan,..,..,..,..,qc
11485,Golf De Grand Mère,sports field,shawinigan,..,..,..,..,qc
11486,Golf De Grand Mère,sports field,shawinigan,..,..,..,..,qc
