Index,Facility_Name,ODRSF_facility_type,Provider,Street_No,Street_Name,Postal_Code,City,Prov_Terr
18866,..,trail,shawinigan,..,..,..,..,qc
18867,..,trail,shawinigan,..,..,..,..,qc
18868,..,trail,shawinigan,..,..,..,..,qc
18869,..,trail,shawinigan,..,..,..,..,qc
18870,..,trail,shawinigan,..,..,..,..,qc
18871,..,trail,shawinigan,..,..,..,..,qc
18872,..,trail,shawinigan,..,..,..,..,qc
21148,Avenue Du Capitaine-Veilleux,trail,shawinigan,..,..,..,..,qc
28224,Golf De Grand Mere,trail,shawinigan,..,..,..,..,qc
49013,Parc De La Riviere-Shawinigan,trail,shawinigan,..,..,..,..,qc
49014,Parc De L'Ile Melville,trail,shawinigan,..,..,..,..,qc
49015,Parc Etienne-Bellemare,trail,shawinigan,..,..,..,..,qc
49016,Parc Glenada,trail,shawinigan,..,..,..,..,qc
49922,Place Du Centenaire,trail,shawinigan,..,..,..,..,qc
50404,Promenade Du Saint-Maurice,trail,shawinigan,..,..,..,..,qc
52123,Sentier Thibaudeau-Ricard,trail,shawinigan,..,..,..,..,qc
159306,..,trail,shawinigan,..,..,..,..,qc
159307,..,trail,shawinigan,..,..,..,..,qc
159308,..,trail,shawinigan,..,..,..,..,qc
159309,..,trail,shawinigan,..,..,..,..,qc
159310,..,trail,shawinigan,..,..,..,..,qc
159311,..,trail,shawinigan,..,..,..,..,qc
159312,..,trail,shawinigan,..,..,..,..,qc
159313,..,trail,shawinigan,..,..,..,..,qc
159314,..,trail,shawinigan,..,..,..,..,qc
159315,..,trail,shawinigan,..,..,..,..,qc
159316,..,trail,shawinigan,..,..,..,..,qc
159317,..,trail,shawinigan,..,..,..,..,qc
159318,..,trail,shawinigan,..,..,..,..,qc
159319,..,trail,shawinigan,..,..,..,..,qc
159320,..,trail,shawinigan,..,..,..,..,qc
159321,..,trail,shawinigan,..,..,..,..,qc
159322,..,trail,shawinigan,..,..,..,..,qc
159323,..,trail,shawinigan,..,..,..,..,qc
159324,..,trail,shawinigan,..,..,..,..,qc
159325,..,trail,shawinigan,..,..,..,..,qc
159326,..,trail,shawinigan,..,..,..,..,qc
159327,..,trail,shawinigan,..,..,..,..,qc
159328,..,trail,shawinigan,..,..,..,..,qc
159329,..,trail,shawinigan,..,..,..,..,qc
159330,..,trail,shawinigan,..,..,..,..,qc
159331,..,trail,shawinigan,..,..,..,..,qc
159332,..,trail,shawinigan,..,..,..,..,qc
159333,..,trail,shawinigan,..,..,..,..,qc
159334,..,trail,shawinigan,..,..,..,..,qc
159335,..,trail,shawinigan,..,..,..,..,qc
159336,..,trail,shawinigan,..,..,..,..,qc
159337,..,trail,shawinigan,..,..,..,..,qc
159338,..,trail,shawinigan,..,..,..,..,qc
