Index,Facility_Name,ODRSF_facility_type,Provider,Street_No,Street_Name,Postal_Code,City,Prov_Terr
182,Aréna Collège Bishop,arena,sherbrooke,..,..,..,..,qc
185,Aréna Eugène-Lalonde,arena,sherbrooke,..,..,..,..,qc
187,Aréna Ivan-Dugré,arena,sherbrooke,..,..,..,..,qc
188,Aréna Jane Et Eric Molson De L'Université Bishop'S,arena,sherbrooke,..,..,..,..,qc
189,Aréna Mont-Sainte-Anne,arena,sherbrooke,..,..,..,..,qc
190,Aréna Philippe-Bergeron,arena,sherbrooke,..,..,..,..,qc
703,Carrefour Accès Loisirs,community centre,sherbrooke,..,..,..,..,qc
819,Centre Communautaire Amédée-Beaudoin,community centre,sherbrooke,..,..,..,..,qc
847,Centre Communautaire De Loisir Sherbrooke,community centre,sherbrooke,..,..,..,..,qc
905,Centre Communautaire Optimiste Rock Forest,community centre,sherbrooke,..,..,..,..,qc
913,Centre Communautaire Richard-Gingras,community centre,sherbrooke,..,..,..,..,qc
951,Centre Julien-Ducharme (Aréna),arena,sherbrooke,..,..,..,..,qc
954,Centre Récréatif De Rock Forest (Aréna),arena,sherbrooke,..,..,..,..,qc
2838,Loisir Fleuri-Est,community centre,sherbrooke,..,..,..,..,qc
4059,Parc De La Plage Municipale,park,sherbrooke,..,..,..,..,qc
4060,Parc De La Plage-Municipale De Deauville,beach,province of québec,790,du-parc,0,sherbrooke,qc
4561,Piscine De La Claire-Fontaine Du Parc Victoria,park,sherbrooke,..,..,..,..,qc
4562,Piscine Du Parc Alfred-Élie-Dufresne,park,sherbrooke,..,..,..,..,qc
4563,Piscine Du Parc Centennial,park,sherbrooke,..,..,..,..,qc
4564,Piscine Du Parc Central,park,sherbrooke,..,..,..,..,qc
4565,Piscine Du Parc De Ma-Villa,park,sherbrooke,..,..,..,..,qc
4566,Piscine Du Parc De Mi-Vallon,park,sherbrooke,..,..,..,..,qc
4567,Piscine Du Parc De Saint-Alphonse-De-Liguori,park,sherbrooke,..,..,..,..,qc
4568,Piscine Du Parc Des Optimistes,park,sherbrooke,..,..,..,..,qc
4569,Piscine Du Parc Du Cœur-Immaculé-De-Marie,park,sherbrooke,..,..,..,..,qc
4570,Piscine Du Parc Nault,park,sherbrooke,..,..,..,..,qc
4571,Piscine Du Parc Paul-Marin,park,sherbrooke,..,..,..,..,qc
4609,Plage Du Parc De La Plage-Municipale,park,sherbrooke,..,..,..,..,qc
4614,Plage Du Parc Lucien-Blanchard,park,sherbrooke,..,..,..,..,qc
6133,Townships Trail,trail,province of québec,20,don-bosco,J1L 1W4,sherbrooke,qc
10026,Club De Golf Milby,sports field,province of québec,2200,bowers,J1M 0B9,sherbrooke,qc
10058,Club De Golf Sherbrooke,sports field,province of québec,1000,musset,J1J 3X4,sherbrooke,qc
14822,Piscine Sangster,pool,sherbrooke,..,..,..,..,qc
17253,Stade Amédée-Roy,stadium,sherbrooke,..,..,..,..,qc
17699,The Old Lennoxville Golf Club,sports field,province of québec,19,du-golf,J1M 1Z7,sherbrooke,qc
172755,Parc Édouard-Boudreau,park,sherbrooke,..,..,..,..,qc
172756,Parc Édouard-Jean-Desruisseaux,park,sherbrooke,..,..,..,..,qc
172757,Parc Émery-Fortier,park,sherbrooke,..,..,..,..,qc
172758,Parc Émile-Gaudette,park,sherbrooke,..,..,..,..,qc
172769,Parc Adrien-Cambron,park,sherbrooke,..,..,..,..,qc
172771,Parc Albany-Charest,park,sherbrooke,..,..,..,..,qc
172772,Parc Alexander-Clark-Ross,park,sherbrooke,..,..,..,..,qc
172773,Parc Alfred-Élie-Dufresne,park,sherbrooke,..,..,..,..,qc
172774,Parc Alfred-Demers,park,sherbrooke,..,..,..,..,qc
172775,Parc Alguéric-Bussière,park,sherbrooke,..,..,..,..,qc
172780,Parc André-Nault,park,sherbrooke,..,..,..,..,qc
172781,Parc André-Viger,park,sherbrooke,..,..,..,..,qc
172784,Parc Andrew-Sangster,park,sherbrooke,..,..,..,..,qc
172786,Parc Annette-Charest,park,sherbrooke,..,..,..,..,qc
