Index,Facility_Name,ODRSF_facility_type,Provider,Street_No,Street_Name,Postal_Code,City,Prov_Terr
173162,Parc Félix-Thibault,park,sherbrooke,..,..,..,..,qc
173165,Parc Ferland,park,sherbrooke,..,..,..,..,qc
173174,Parc Frédéric,park,sherbrooke,..,..,..,..,qc
173176,Parc François-Xavier-Luc,park,sherbrooke,..,..,..,..,qc
173196,Parc Gilles-Charland,park,sherbrooke,..,..,..,..,qc
173198,Parc Gilles-Paradis,park,sherbrooke,..,..,..,..,qc
173206,Parc Hélène-Boullé,park,sherbrooke,..,..,..,..,qc
173219,Parc Irène-Ducharme,park,sherbrooke,..,..,..,..,qc
173220,Parc Irma-Levasseur,park,sherbrooke,..,..,..,..,qc
173229,Parc Jacob-Nicol,park,sherbrooke,..,..,..,..,qc
173230,Parc Jacques-Cartier,park,sherbrooke,..,..,..,..,qc
173234,Parc James-Simpson-Mitchell,park,sherbrooke,..,..,..,..,qc
173237,Parc Jean-Bosco,park,sherbrooke,..,..,..,..,qc
173239,Parc Jean-Claude-Quirion,park,sherbrooke,..,..,..,..,qc
173244,Parc Jeffrey-Gingras,park,sherbrooke,..,..,..,..,qc
173250,Parc Joseph-Forest,park,sherbrooke,..,..,..,..,qc
173252,Parc Judes-O.-Camirand,park,sherbrooke,..,..,..,..,qc
173254,Parc Jules-Richard,park,sherbrooke,..,..,..,..,qc
173261,Parc Léo-Paul-Boissé,park,sherbrooke,..,..,..,..,qc
173279,Parc Laurier-Bernard,park,sherbrooke,..,..,..,..,qc
173283,Parc Lavoie,park,sherbrooke,..,..,..,..,qc
173288,Parc Lennoxville Optimist,park,sherbrooke,..,..,..,..,qc
173289,Parc Leonard-Cohen,park,sherbrooke,..,..,..,..,qc
173295,Parc Lionel-Lord,park,sherbrooke,..,..,..,..,qc
173300,Parc Louis-Luc,park,sherbrooke,..,..,..,..,qc
173304,Parc Lucien-Blanchard,park,sherbrooke,..,..,..,..,qc
173310,Parc Maillé,park,sherbrooke,..,..,..,..,qc
173323,Parc Marguerite-Bourgeoys,park,sherbrooke,..,..,..,..,qc
173325,Parc Marie-Victorin,park,sherbrooke,..,..,..,..,qc
173349,Parc Nagle,park,sherbrooke,..,..,..,..,qc
173350,Parc Nault,park,sherbrooke,..,..,..,..,qc
173352,Parc Noé-Ponton,park,sherbrooke,..,..,..,..,qc
173355,Parc Normand-Dussault,park,sherbrooke,..,..,..,..,qc
173358,Parc Olivier-Chauveau,park,sherbrooke,..,..,..,..,qc
173360,Parc Ouellet,park,sherbrooke,..,..,..,..,qc
173367,Parc Paul-Marin,park,sherbrooke,..,..,..,..,qc
173370,Parc Philippe-Desranleau,park,sherbrooke,..,..,..,..,qc
173371,Parc Philippe-Doyon,park,sherbrooke,..,..,..,..,qc
173373,Parc Pierre-Dansereau,park,sherbrooke,..,..,..,..,qc
173387,Parc Quintal,park,sherbrooke,..,..,..,..,qc
173390,Parc Réal-D.-Carbonneau,park,sherbrooke,..,..,..,..,qc
173392,Parc Ralph-Gustafson,park,sherbrooke,..,..,..,..,qc
173394,Parc René-Vanier,park,sherbrooke,..,..,..,..,qc
173400,Parc Rita-Desclos,park,sherbrooke,..,..,..,..,qc
173408,Parc Rodolphe-Vallée,park,sherbrooke,..,..,..,..,qc
173409,Parc Rodrigue,park,sherbrooke,..,..,..,..,qc
173410,Parc Roger-Gingues,park,sherbrooke,..,..,..,..,qc
173461,Parc Saint-Paul,park,sherbrooke,..,..,..,..,qc
173466,Parc Saint-Thomas,park,sherbrooke,..,..,..,..,qc
