Index,Facility_Name,ODRSF_facility_type,Provider,Street_No,Street_Name,Postal_Code,City,Prov_Terr
172788,Parc Antoine-Racine,park,sherbrooke,..,..,..,..,qc
172791,Parc Antoinette-Guinebretière,park,sherbrooke,..,..,..,..,qc
172792,Parc Antonio-Barrette,park,sherbrooke,..,..,..,..,qc
172794,Parc Antonio-Montour,park,sherbrooke,..,..,..,..,qc
172795,Parc Apollinaire-Dion,park,sherbrooke,..,..,..,..,qc
172798,Parc Armand-Duplessis,park,sherbrooke,..,..,..,..,qc
172799,Parc Arsène-Goyette,park,sherbrooke,..,..,..,..,qc
172800,Parc Arthur-Buies,park,sherbrooke,..,..,..,..,qc
172802,Parc Arthur-Tardif,park,sherbrooke,..,..,..,..,qc
172803,Parc Atto-Beaver,park,sherbrooke,..,..,..,..,qc
172810,Parc Beaulieu,park,sherbrooke,..,..,..,..,qc
172818,Parc Belmont,park,sherbrooke,..,..,..,..,qc
172819,Parc Belvédère,park,sherbrooke,..,..,..,..,qc
172824,Parc Bibeau,park,sherbrooke,..,..,..,..,qc
172841,Parc Brooks,park,sherbrooke,..,..,..,..,qc
172843,Parc Bureau,park,sherbrooke,..,..,..,..,qc
172852,Parc Carmen-Savoie,park,sherbrooke,..,..,..,..,qc
172853,Parc Caron,park,sherbrooke,..,..,..,..,qc
172854,Parc Carrie-Derick,park,sherbrooke,..,..,..,..,qc
172857,Parc Centennial,park,sherbrooke,..,..,..,..,qc
172858,Parc Central,park,sherbrooke,..,..,..,..,qc
172867,Parc Charland,park,sherbrooke,..,..,..,..,qc
172868,Parc Charles-Émile-Gadbois,park,sherbrooke,..,..,..,..,qc
172871,Parc Civic,park,sherbrooke,..,..,..,..,qc
172872,Parc Claire-Guillemette-Lamirande,park,sherbrooke,..,..,..,..,qc
172879,Parc Couturier,park,sherbrooke,..,..,..,..,qc
172886,Parc D'Amboise,park,sherbrooke,..,..,..,..,qc
172889,Parc D'Arcy-Bennett,park,sherbrooke,..,..,..,..,qc
172893,Parc De Beauvoir,park,sherbrooke,..,..,..,..,qc
172906,Parc De Charette,park,sherbrooke,..,..,..,..,qc
172910,Parc De La Butte-Aux-Bouleaux,park,sherbrooke,..,..,..,..,qc
172921,Parc De La Kruger,park,sherbrooke,..,..,..,..,qc
172922,Parc De La Laurentie,park,sherbrooke,..,..,..,..,qc
172927,Parc De La Plage-Municipale,park,sherbrooke,..,..,..,..,qc
172929,Parc De La Pointe-Du-Rang-Ix,park,sherbrooke,..,..,..,..,qc
172933,Parc De La Rive,park,sherbrooke,..,..,..,..,qc
172943,Parc De La Saint-François,park,sherbrooke,..,..,..,..,qc
172957,Parc De L'Ancien-Chemin-De-Fer,park,sherbrooke,..,..,..,..,qc
172958,Parc De L'Ancienne-Caserne,park,sherbrooke,..,..,..,..,qc
172959,Parc De L'Ancienne-Prison,park,sherbrooke,..,..,..,..,qc
172960,Parc De L'Ancien-Réservoir,park,sherbrooke,..,..,..,..,qc
172968,Parc De L'Escarpe,park,sherbrooke,..,..,..,..,qc
172970,Parc De Liège,park,sherbrooke,..,..,..,..,qc
172977,Parc De Marie-Médiatrice,park,sherbrooke,..,..,..,..,qc
172978,Parc De Marie-Reine-Du-Monde,park,sherbrooke,..,..,..,..,qc
172979,Parc De Ma-Villa,park,sherbrooke,..,..,..,..,qc
172983,Parc De Monseigneur-Letendre,park,sherbrooke,..,..,..,..,qc
172986,Parc De Newington,park,sherbrooke,..,..,..,..,qc
172987,Parc De Notre-Dame-Du-Laus,park,sherbrooke,..,..,..,..,qc
