Index,Facility_Name,ODRSF_facility_type,Provider,Street_No,Street_Name,Postal_Code,City,Prov_Terr
172992,Parc De Saint-Alphonse-De-Liguori,park,sherbrooke,..,..,..,..,qc
172993,Parc De Saint-Boniface,park,sherbrooke,..,..,..,..,qc
172994,Parc De Saint-Charles-Garnier,park,sherbrooke,..,..,..,..,qc
172995,Parc De Saint-Colomban,park,sherbrooke,..,..,..,..,qc
173000,Parc De View Point,park,sherbrooke,..,..,..,..,qc
173011,Parc Des Chrysanthèmes,park,sherbrooke,..,..,..,..,qc
173015,Parc Des Deux-Ruisseaux,park,sherbrooke,..,..,..,..,qc
173018,Parc Des Géographes,park,sherbrooke,..,..,..,..,qc
173019,Parc Des Géologues,park,sherbrooke,..,..,..,..,qc
173023,Parc Des Jardins-Fleuris,park,sherbrooke,..,..,..,..,qc
173026,Parc Des Jeunes,park,sherbrooke,..,..,..,..,qc
173034,Parc Des Optimistes,park,sherbrooke,..,..,..,..,qc
173044,Parc Des Pyrénées,park,sherbrooke,..,..,..,..,qc
173045,Parc Des Quatre-Pins,park,sherbrooke,..,..,..,..,qc
173049,Parc Des Roseraies,park,sherbrooke,..,..,..,..,qc
173060,Parc Des Vétérans,park,sherbrooke,..,..,..,..,qc
173067,Parc Desranleau,park,sherbrooke,..,..,..,..,qc
173068,Parc Diane-Vaillancourt,park,sherbrooke,..,..,..,..,qc
173070,Parc Dolor-Biron,park,sherbrooke,..,..,..,..,qc
173073,Parc Dominique-Viscogliosi,park,sherbrooke,..,..,..,..,qc
173075,Parc Dorilas-Gagnon,park,sherbrooke,..,..,..,..,qc
173076,Parc D'Oxford,park,sherbrooke,..,..,..,..,qc
173078,Parc Du Barrage,park,sherbrooke,..,..,..,..,qc
173083,Parc Du Bel-Air,park,sherbrooke,..,..,..,..,qc
173086,Parc Du Boisé-Fabi,park,sherbrooke,..,..,..,..,qc
173087,Parc Du Bois-Beckett,park,sherbrooke,..,..,..,..,qc
173093,Parc Du Champ-De-Mars,park,sherbrooke,..,..,..,..,qc
173094,Parc Du Cheptel,park,sherbrooke,..,..,..,..,qc
173095,Parc Du Cimetière,park,sherbrooke,..,..,..,..,qc
173097,Parc Du Coeur-Immaculé-De-Marie,park,sherbrooke,..,..,..,..,qc
173102,Parc Du Debonair,park,sherbrooke,..,..,..,..,qc
173104,Parc Du Domaine-Howard,park,sherbrooke,..,..,..,..,qc
173108,Parc Du Frère-Théode,park,sherbrooke,..,..,..,..,qc
173112,Parc Du Grand-Saule,park,sherbrooke,..,..,..,..,qc
173118,Parc Du Marais,park,sherbrooke,..,..,..,..,qc
173119,Parc Du Marquis-De Montcalm,park,sherbrooke,..,..,..,..,qc
173120,Parc Du Mena'Sen,park,sherbrooke,..,..,..,..,qc
173121,Parc Du Mi-Vallon,park,sherbrooke,..,..,..,..,qc
173122,Parc Du Mont-Bellevue,park,sherbrooke,..,..,..,..,qc
173128,Parc Du Petit-Canada,park,sherbrooke,..,..,..,..,qc
173129,Parc Du Plateau,park,sherbrooke,..,..,..,..,qc
173132,Parc Du Rond-Point-Paradis,park,sherbrooke,..,..,..,..,qc
173138,Parc Du Trianon,park,sherbrooke,..,..,..,..,qc
173141,Parc Du Vandal-Blanc,park,sherbrooke,..,..,..,..,qc
173143,Parc Du Villageois,park,sherbrooke,..,..,..,..,qc
173146,Parc Ducharme,park,sherbrooke,..,..,..,..,qc
173149,Parc Dumont,park,sherbrooke,..,..,..,..,qc
173152,Parc Dussault,park,sherbrooke,..,..,..,..,qc
173155,Parc Edward-Worthington,park,sherbrooke,..,..,..,..,qc
