Index,Facility_Name,ODRSF_facility_type,Provider,Street_No,Street_Name,Postal_Code,City,Prov_Terr
174961,"Rosanne-Laflamme, Parc",park,longueuil,..,..,..,..,qc
175236,"Rouillard, Jardin",park,longueuil,..,..,..,..,qc
175242,"Roussillon, Parc",park,longueuil,..,..,..,..,qc
175421,"Saint-Judes, Parc",park,longueuil,..,..,..,..,qc
175423,"Saint-Nazaire, Parc",park,longueuil,..,..,..,..,qc
175424,"Saint-Roch, Parc",park,longueuil,..,..,..,..,qc
175425,"Saint-Thomas-De-Villeneuve, Parc",park,longueuil,..,..,..,..,qc
175679,"Semis, Parc Des",park,longueuil,..,..,..,..,qc
175994,"Sirois, Parc",park,longueuil,..,..,..,..,qc
176069,"Soissons, Jardin",park,longueuil,..,..,..,..,qc
176070,"Soldat-Simon-Longtin, Parc Du",park,longueuil,..,..,..,..,qc
176093,"Sorbiers, Parc Des",park,longueuil,..,..,..,..,qc
176485,"St. Mark, Parc",park,longueuil,..,..,..,..,qc
176586,"Stephen-Olynyk, Parc",park,longueuil,..,..,..,..,qc
176837,"Sureaux, Parc Des",park,longueuil,..,..,..,..,qc
177035,"Terroir, Boisé Du",park,longueuil,..,..,..,..,qc
177114,"Thomas-Dubuc, Parc",park,longueuil,..,..,..,..,qc
177317,"Tournesol, Parc",park,longueuil,..,..,..,..,qc
177319,"Tourterelles, Parc Des",park,longueuil,..,..,..,..,qc
177501,"Ulric-Brouillard, Parc",park,longueuil,..,..,..,..,qc
177720,"Vétérans, Parc Des",park,longueuil,..,..,..,..,qc
177896,"Viger, Parc",park,longueuil,..,..,..,..,qc
178103,"Watson, Parc",park,longueuil,..,..,..,..,qc
178463,"Wilfrid-Tremblay, Parc",park,longueuil,..,..,..,..,qc
