Index,Facility_Name,ODRSF_facility_type,Provider,Street_No,Street_Name,Postal_Code,City,Prov_Terr
171444,"Merisiers, Parc Des",park,longueuil,..,..,..,..,qc
171465,"Meunier, Parc",park,longueuil,..,..,..,..,qc
171469,"Mgr.-A.-M.-Parent, Parc-École",park,longueuil,..,..,..,..,qc
171482,"Michel-Chartrand, Parc",park,longueuil,..,..,..,..,qc
171748,"Monarques, Parc Des",park,longueuil,..,..,..,..,qc
171752,"Monique-Gervais, Parc",park,longueuil,..,..,..,..,qc
171787,"Montmorency, Jardin",park,longueuil,..,..,..,..,qc
171817,"Moreau, Parc",park,longueuil,..,..,..,..,qc
171968,"Multi-Sports, Centre",park,longueuil,..,..,..,..,qc
171994,"Murphy, Parc",park,longueuil,..,..,..,..,qc
172118,"Newhaven, Parc",park,longueuil,..,..,..,..,qc
172178,"Normandie, Parc De",park,longueuil,..,..,..,..,qc
172697,"Pacific, Parc",park,longueuil,..,..,..,..,qc
172754,Parc À Chiens,park,longueuil,..,..,..,..,qc
173681,"Patenaude, Parc",park,longueuil,..,..,..,..,qc
173692,"Patriote-Joseph-Vincent, Parc Du",park,longueuil,..,..,..,..,qc
173693,"Patriotes-1837-1838, Place Des",park,longueuil,..,..,..,..,qc
173713,"Paul-Berval, Parc",park,longueuil,..,..,..,..,qc
173719,"Paul-Pratt, Parc",park,longueuil,..,..,..,..,qc
173720,"Paul-Provost, Parc",park,longueuil,..,..,..,..,qc
173801,"Perras, Parc",park,longueuil,..,..,..,..,qc
173802,"Perrault, Parc",park,longueuil,..,..,..,..,qc
173804,"Perron, Parc",park,longueuil,..,..,..,..,qc
173872,"Pierre-Beaudry, Parc",park,longueuil,..,..,..,..,qc
173873,"Pierre-Et-Bernard-Lucas, Parc",park,longueuil,..,..,..,..,qc
173874,"Pierre-Gosselin, Parc",park,longueuil,..,..,..,..,qc
173875,"Pierre-Laporte, Parc",park,longueuil,..,..,..,..,qc
173876,"Pierre-Raza, Parc",park,longueuil,..,..,..,..,qc
173884,"Pinard, Parc",park,longueuil,..,..,..,..,qc
173935,"Pinsons, Parc Des",park,longueuil,..,..,..,..,qc
174008,"Pointe-Du-Marigot, Parc",park,longueuil,..,..,..,..,qc
174072,"Portneuf, Parc",park,longueuil,..,..,..,..,qc
174165,"Promenade René-Lévesque, Parc Linéaire",park,longueuil,..,..,..,..,qc
174188,"Prunelliers, Parc Des",park,longueuil,..,..,..,..,qc
174202,"Quévillon, Parc",park,longueuil,..,..,..,..,qc
174290,"R-100, Parc Linéaire Du",park,longueuil,..,..,..,..,qc
174291,"Réal-Bouvier, Port De Plaisance",park,longueuil,..,..,..,..,qc
174292,"Régent, Parc",park,longueuil,..,..,..,..,qc
174293,"Rémy-De-Courcelle, Boisé",park,longueuil,..,..,..,..,qc
174297,"Racine, Parc",park,longueuil,..,..,..,..,qc
174432,"Raymond, Parc",park,longueuil,..,..,..,..,qc
174433,"Raymond-Brassard, Parc",park,longueuil,..,..,..,..,qc
174434,"Raymond-Comeau, Parc",park,longueuil,..,..,..,..,qc
174544,"René-Veillet, Parc",park,longueuil,..,..,..,..,qc
174552,"Renne, Jardin Du",park,longueuil,..,..,..,..,qc
174848,"Robert-Dubois, Parc",park,longueuil,..,..,..,..,qc
174854,"Roberval, Parc",park,longueuil,..,..,..,..,qc
174877,"Roch-Sénéchal, Parc",park,longueuil,..,..,..,..,qc
174936,"Rolland, Parc",park,longueuil,..,..,..,..,qc
