Index,Facility_Name,ODRSF_facility_type,Provider,Street_No,Street_Name,Postal_Code,City,Prov_Terr
902,Centre Communautaire Nazareth,community centre,rimouski,455,cartier,..,..,qc
2741,Le Club De Gymnastique Gym-Richelieu,gym,longueuil,3600,1ere,j3y 8y5,saint-hubert,qc
4630,Plage Municipale De Longueuil,beach,province of québec,..,..,0,longueuil,qc
7395,Badminton Castonguay,sports field,longueuil,3695,saint-hubert,j3y 5k2,..,qc
8270,Balle-Molle Greenfield Park Ladies Softball League,sports field,longueuil,432,de-verchères greenfield,j4v 2b8,..,qc
8818,Basketball Mineur Les Lynx Saint-Hubert,sports field,longueuil,3942,saint-hubert,j3y 8v2,..,qc
10006,Club De Golf Le Parcours Du Cerf,sports field,province of québec,2500,fernand-lafontaine,J4N 1M5,longueuil,qc
11092,Fondation Tennis Jeunesse Rive-Sud,sports field,longueuil,280,longueuil,j4h 2l7,..,qc
162028,"Église, Parc De L'",park,longueuil,..,..,..,..,qc
162032,"Île-Charron, Parc De L'",park,longueuil,..,..,..,..,qc
162035,"Émiliana-Brosseau, Parc",park,longueuil,..,..,..,..,qc
162038,"Éperviers, Parc Des",park,longueuil,..,..,..,..,qc
162041,"Étienne-Truteau, Parc",park,longueuil,..,..,..,..,qc
162042,"Abénaquis, Parc Des",park,longueuil,..,..,..,..,qc
162105,"Adoncour, Parc",park,longueuil,..,..,..,..,qc
162106,"Adrien-Gamache, Parc",park,longueuil,..,..,..,..,qc
162129,"Alain-Forget, Parc",park,longueuil,..,..,..,..,qc
162130,"Alakazou, Parc",park,longueuil,..,..,..,..,qc
162150,"Albert-Beausoleil, Parc",park,longueuil,..,..,..,..,qc
162286,"Amandiers, Parc Des",park,longueuil,..,..,..,..,qc
162321,"Anastase-Forget, Parc",park,longueuil,..,..,..,..,qc
162460,"Arcand, Jardin",park,longueuil,..,..,..,..,qc
162461,"Arcand, Parc",park,longueuil,..,..,..,..,qc
162506,"Armand-Bruno, Parc",park,longueuil,..,..,..,..,qc
162507,"Armand-Racicot, Parc",park,longueuil,..,..,..,..,qc
162603,"Asselin, Parc",park,longueuil,..,..,..,..,qc
162694,"Bédard, Parc",park,longueuil,..,..,..,..,qc
162787,"Bariteau, Parc",park,longueuil,..,..,..,..,qc
162804,"Baronnie, Parc De La",park,longueuil,..,..,..,..,qc
162974,"Beaujolais, Parc",park,longueuil,..,..,..,..,qc
162989,"Beauregard, Parc",park,longueuil,..,..,..,..,qc
163055,"Belcourt, Parc",park,longueuil,..,..,..,..,qc
163083,"Bellerive, Boisé",park,longueuil,..,..,..,..,qc
163084,"Bellerive, Parc",park,longueuil,..,..,..,..,qc
163208,"Bernard-Hubert, Parc",park,longueuil,..,..,..,..,qc
163224,"Berthelet, Parc",park,longueuil,..,..,..,..,qc
163486,"Boisjoli, Parc",park,longueuil,..,..,..,..,qc
163487,"Boismenu, Parc",park,longueuil,..,..,..,..,qc
163488,"Boisvert, Parc",park,longueuil,..,..,..,..,qc
163561,"Bourgeoys, Parc",park,longueuil,..,..,..,..,qc
163562,"Bourget, Parc",park,longueuil,..,..,..,..,qc
163610,"Brébeuf, Parc-École",park,longueuil,..,..,..,..,qc
163774,"Brodeur, Parc",park,longueuil,..,..,..,..,qc
164027,"Calixa-Lavallée, Parc",park,longueuil,..,..,..,..,qc
164085,"Campbell, Parc",park,longueuil,..,..,..,..,qc
164123,"Canon, Parc",park,longueuil,..,..,..,..,qc
164132,"Cantin, Parc",park,longueuil,..,..,..,..,qc
164160,"Capricorne, Parc",park,longueuil,..,..,..,..,qc
164185,"Carignan-Salières, Parc",park,longueuil,..,..,..,..,qc
