Index,Facility_Name,ODRSF_facility_type,Provider,Street_No,Street_Name,Postal_Code,City,Prov_Terr
168776,"Iellamo, Parc",park,longueuil,..,..,..,..,qc
168777,"Immaculée-Conception, Parc",park,longueuil,..,..,..,..,qc
168885,"Isodore-Hurteau, Carré",park,longueuil,..,..,..,..,qc
168948,"Jacques-Cartier, Parc",park,longueuil,..,..,..,..,qc
168949,"Jacques-Rousseau, Parc-École",park,longueuil,..,..,..,..,qc
169019,"Jean Xxiii, Parc",park,longueuil,..,..,..,..,qc
169020,"Jean-Baptiste-Le Moyne-De-Bienville,Parc",park,longueuil,..,..,..,..,qc
169023,"Jean-De-Lalande, Parc",park,longueuil,..,..,..,..,qc
169032,"Jean-Jacques-Bertrand, Parc",park,longueuil,..,..,..,..,qc
169033,"Jean-Louis, Parc",park,longueuil,..,..,..,..,qc
169035,"Jean-Pierre-Côté, Parc",park,longueuil,..,..,..,..,qc
169266,"Joseph-Antonio-Mantha, Parc",park,longueuil,..,..,..,..,qc
169268,"Joseph-De-Sérigny, Parc",park,longueuil,..,..,..,..,qc
169271,"Joseph-Paré, Parc",park,longueuil,..,..,..,..,qc
169272,"Joseph-William-Gendron, Parc",park,longueuil,..,..,..,..,qc
169280,"Jovette-Bernier, Parc",park,longueuil,..,..,..,..,qc
169294,"Jubilee, Parc",park,longueuil,..,..,..,..,qc
169302,"Jules-Moulin, Parc",park,longueuil,..,..,..,..,qc
169303,"Julien-Lord, Parc",park,longueuil,..,..,..,..,qc
169919,"La Fayette, Jardin",park,longueuil,..,..,..,..,qc
169930,"Légionnaires, Parc Commémoratif Des",park,longueuil,..,..,..,..,qc
169931,"Léo-Ayotte, Parc",park,longueuil,..,..,..,..,qc
169932,"Léo-Major, Parc",park,longueuil,..,..,..,..,qc
169947,"Laflamme, Parc",park,longueuil,..,..,..,..,qc
170166,"Laurier, Parc",park,longueuil,..,..,..,..,qc
170174,"Laviolette, Parc",park,longueuil,..,..,..,..,qc
170200,"Le Marquis, Parc",park,longueuil,..,..,..,..,qc
170201,"Le Moyne, Parc",park,longueuil,..,..,..,..,qc
170212,"Lecavalier, Parc",park,longueuil,..,..,..,..,qc
170368,"Lincourt, Parc",park,longueuil,..,..,..,..,qc
170410,"Lionel-Groulx, Parc",park,longueuil,..,..,..,..,qc
170580,"Louis-Brosseau, Parc",park,longueuil,..,..,..,..,qc
170586,"Louis-Olivier-Taillon, Parc",park,longueuil,..,..,..,..,qc
170633,"Lucien-Milette, Parc",park,longueuil,..,..,..,..,qc
170634,"Lucien-Tapin, Parc",park,longueuil,..,..,..,..,qc
170692,"Lyon, Parc De",park,longueuil,..,..,..,..,qc
170700,"Médicis, Jardin De",park,longueuil,..,..,..,..,qc
170701,"Mégantic, Parc",park,longueuil,..,..,..,..,qc
170703,"Mûriers, Parc Des",park,longueuil,..,..,..,..,qc
170788,"Mainville, Parc",park,longueuil,..,..,..,..,qc
170897,"Maple, Parc",park,longueuil,..,..,..,..,qc
170922,"Maréchal, Parc",park,longueuil,..,..,..,..,qc
170932,"Marcel-Simard, Parc",park,longueuil,..,..,..,..,qc
170956,"Marie-Josée-Vandette, Parc",park,longueuil,..,..,..,..,qc
170960,"Marie-Victorin, Parc",park,longueuil,..,..,..,..,qc
171036,"Marquette, Parc",park,longueuil,..,..,..,..,qc
171038,"Marquis-De-Montcalm, Parc",park,longueuil,..,..,..,..,qc
171058,"Martinets, Parc Des",park,longueuil,..,..,..,..,qc
171103,"Masson, Parc",park,longueuil,..,..,..,..,qc
