Index,Facility_Name,ODRSF_facility_type,Provider,Street_No,Street_Name,Postal_Code,City,Prov_Terr
164241,"Carrefour, Parc Du",park,longueuil,..,..,..,..,qc
164330,"Catherine-Primot, Parc",park,longueuil,..,..,..,..,qc
164505,"Central, Parc",park,longueuil,..,..,..,..,qc
164519,"Cerf, Jardin Du",park,longueuil,..,..,..,..,qc
164522,"Châtelet, Parc",park,longueuil,..,..,..,..,qc
164540,"Chamonix, Parc",park,longueuil,..,..,..,..,qc
164549,"Champlain, Parc",park,longueuil,..,..,..,..,qc
164550,"Champvert, Parc",park,longueuil,..,..,..,..,qc
164580,"Charbonneau, Parc",park,longueuil,..,..,..,..,qc
164662,"Cherbourg, Parc",park,longueuil,..,..,..,..,qc
164743,"Christ-Roi, Parc",park,longueuil,..,..,..,..,qc
164770,"Cité, Parc De La",park,longueuil,..,..,..,..,qc
164953,"Colibris, Jardin Des",park,longueuil,..,..,..,..,qc
165460,"D.E. Joyal, Parc",park,longueuil,..,..,..,..,qc
165513,"Daniel-Johnson, Parc",park,longueuil,..,..,..,..,qc
165559,"Davidson-Lavoie, Parc",park,longueuil,..,..,..,..,qc
165664,"Denis-Vanier, Parc",park,longueuil,..,..,..,..,qc
165696,"Des Ormeaux, Parc",park,longueuil,..,..,..,..,qc
165697,"Des Pâquerettes, Parc",park,longueuil,..,..,..,..,qc
165702,"Desaulniers, Jardin",park,longueuil,..,..,..,..,qc
165708,"Desmarteau, Parc",park,longueuil,..,..,..,..,qc
165885,"Doris-Lussier, Parc",park,longueuil,..,..,..,..,qc
165966,"Drapeau, Parc",park,longueuil,..,..,..,..,qc
165988,"Du Tremblay, Boisé",park,longueuil,..,..,..,..,qc
165994,"Dubuisson, Parc",park,longueuil,..,..,..,..,qc
166425,"Empire, Parc",park,longueuil,..,..,..,..,qc
166603,"Fairfield, Parc-École",park,longueuil,..,..,..,..,qc
166711,"Faubourg, Boisé Du",park,longueuil,..,..,..,..,qc
166712,"Fauvettes, Parc Des",park,longueuil,..,..,..,..,qc
166757,"Fernand-Bouffard, Parc",park,longueuil,..,..,..,..,qc
166901,"Fonrouge, Parc",park,longueuil,..,..,..,..,qc
167024,"Franchère, Parc",park,longueuil,..,..,..,..,qc
167153,"Gaétan-Baillargeon, Parc",park,longueuil,..,..,..,..,qc
167154,"Génération, Parc",park,longueuil,..,..,..,..,qc
167156,"Gérard-Carmel, Parc",park,longueuil,..,..,..,..,qc
167157,"Gérard-Fillion, Parc-École",park,longueuil,..,..,..,..,qc
167158,"Gérard-Philipps, Parc",park,longueuil,..,..,..,..,qc
167206,"Gardenville, Parc",park,longueuil,..,..,..,..,qc
167265,"Geais-Bleus, Parc Des",park,longueuil,..,..,..,..,qc
167275,"Gentilly Est, Parc",park,longueuil,..,..,..,..,qc
167276,"Gentilly Ouest, Parc",park,longueuil,..,..,..,..,qc
167323,"Georges-Dor, Parc",park,longueuil,..,..,..,..,qc
167324,"Georges-Touten, Parc",park,longueuil,..,..,..,..,qc
167369,"Gerry-Boulet, Parc",park,longueuil,..,..,..,..,qc
167395,"Gilles-Latulippe, Parc",park,longueuil,..,..,..,..,qc
167405,"Glaïeuls, Parc Des",park,longueuil,..,..,..,..,qc
167782,"Gray, Parc",park,longueuil,..,..,..,..,qc
168209,"Hector-Martin, Parc",park,longueuil,..,..,..,..,qc
168253,"Henri-Cyr, Parc",park,longueuil,..,..,..,..,qc
