Index,Facility_Name,ODRSF_facility_type,Provider,Street_No,Street_Name,Postal_Code,City,Prov_Terr
886,Centre Communautaire Laurent-Venne,community centre,repentigny,225,j-a-paré repentigny,..,..,qc
162033,Île-Lebel,park,repentigny,..,..,..,..,qc
162039,Érables,park,repentigny,..,..,..,..,qc
162281,Amédée-Meunier,park,repentigny,..,..,..,..,qc
162561,Artisans,park,repentigny,..,..,..,..,qc
164329,Catherine-Bousquet,park,repentigny,..,..,..,..,qc
164538,Chamberland,park,repentigny,..,..,..,..,qc
164542,Champigny,park,repentigny,..,..,..,..,qc
164607,Charles-De Gaulle,park,repentigny,..,..,..,..,qc
164842,Claudel,park,repentigny,..,..,..,..,qc
164937,Colbert,park,repentigny,..,..,..,..,qc
165086,Coopérative,park,repentigny,..,..,..,..,qc
165620,Delacroix,park,repentigny,..,..,..,..,qc
165703,Deschamps,park,repentigny,..,..,..,..,qc
165709,Desrosiers,park,repentigny,..,..,..,..,qc
166441,Entramis,park,repentigny,..,..,..,..,qc
167020,Frédéric-Coiteux,park,repentigny,..,..,..,..,qc
167734,Grande-Paix,park,repentigny,..,..,..,..,qc
167736,Grand-Manitou,park,repentigny,..,..,..,..,qc
169021,Jean-Baptiste-Meilleur,park,repentigny,..,..,..,..,qc
169022,Jean-Claude-Crevier,park,repentigny,..,..,..,..,qc
169024,Jean-Duceppe,park,repentigny,..,..,..,..,qc
169324,Juneau,park,repentigny,..,..,..,..,qc
169937,Lachapelle,park,repentigny,..,..,..,..,qc
169949,Laforest,park,repentigny,..,..,..,..,qc
169962,Lajoie,park,repentigny,..,..,..,..,qc
170090,Langelier,park,repentigny,..,..,..,..,qc
170120,Larochelle,park,repentigny,..,..,..,..,qc
170172,Laverdière,park,repentigny,..,..,..,..,qc
170199,Le Gardeur,park,repentigny,..,..,..,..,qc
170585,Louis-Fréchette,park,repentigny,..,..,..,..,qc
170632,Lucien-Gauthier,park,repentigny,..,..,..,..,qc
170958,Marie-Soleil-Tougas,park,repentigny,..,..,..,..,qc
171131,Maurice-Richard,park,repentigny,..,..,..,..,qc
171731,Moissons,park,repentigny,..,..,..,..,qc
171772,Montcalm,park,repentigny,..,..,..,..,qc
171878,Moulin,park,repentigny,..,..,..,..,qc
172145,Nicolas-Cusson,park,repentigny,..,..,..,..,qc
172404,Notre-Dame-Des-Sables,park,repentigny,..,..,..,..,qc
172712,Paix,park,repentigny,..,..,..,..,qc
173877,Pie-Xii,park,repentigny,..,..,..,..,qc
173934,Pins,park,repentigny,..,..,..,..,qc
174098,Premières-Nations,park,repentigny,..,..,..,..,qc
174809,Rivest,park,repentigny,..,..,..,..,qc
174874,Rochefort,park,repentigny,..,..,..,..,qc
175422,Saint-Laurent,park,repentigny,..,..,..,..,qc
175509,Sanguinet,park,repentigny,..,..,..,..,qc
175667,Seigneurie,park,repentigny,..,..,..,..,qc
175928,Simard,park,repentigny,..,..,..,..,qc
