Index,Facility_Name,ODRSF_facility_type,Provider,Street_No,Street_Name,Postal_Code,City,Prov_Terr
172815,Parc Bellehumeur,park,laval,7919,bellehumeur,..,..,qc
172820,Parc Benjamin-Dion,park,laval,1218,des g raniums,..,..,qc
172821,Parc Bernard-Langevin,park,laval,1875,..,..,..,qc
172823,Parc Berthiaume-Du Tremblay,park,laval,..,..,H7W 2P8,..,qc
172825,Parc Bienville,park,laval,1309,bienville,..,..,qc
172826,Parc Biermans,park,laval,4748,du-tremblay,H7W 2S9,..,qc
172827,Parc Bigras,park,laval,886,de la fourche,H7Y 1T1,..,qc
172828,Parc Binet,park,laval,927,montgolfier,..,..,qc
172830,Parc Bizet,park,laval,1659,bizet,H7S 1B8,..,qc
172831,Parc Bois-De-Boulogne,park,laval,975,de bois de boulogne,..,..,qc
172833,Parc Bon-Pasteur,park,laval,70,du bon pasteur,H7N 3R2,..,qc
172834,Parc Borduas,park,laval,6000,la fayette,..,..,qc
172836,Parc Bousquet,park,laval,1295,bousquet,H7N 5A8,..,qc
172842,Parc Brousseau,park,laval,884,aim bibeau,H7C 2K7,..,qc
172844,Parc Buteau,park,laval,2500,buteau,H7T 2X4,..,qc
172845,Parc Campeau,park,laval,4560,4e,..,..,qc
172849,Parc Canin Des Rossignols,park,laval,5596,des-rossignols,H7L 5Z1,..,qc
172850,Parc Canin Falco,park,laval,180,sauriol,..,..,qc
172851,Parc Canin Haut-Saint-François,park,laval,3895,du bas saint françois,H7E 4P2,..,qc
172855,Parc Cartier,park,laval,45,cartier,..,..,qc
172859,Parc Chénier,park,laval,580,des-alouettes,..,..,qc
172861,Parc Chabrier,park,laval,715,chabrier,H7S 2L1,..,qc
172864,Parc Champenois,park,laval,6710,lamirande,H7L 4Y1,..,qc
172865,Parc Champfleury,park,laval,2585,des-oiseaux,H7L 4M4,..,qc
172869,Parc Chopin,park,laval,1881,dumouchel,H7S 1J7,..,qc
172870,Parc Christos-Karigiannis,park,laval,3150,7e,..,..,qc
172874,Parc Clichy,park,laval,3815,caron,..,..,qc
172876,Parc Collège Laval,park,laval,1275,du coll ge,H7C 1W8,..,qc
172877,Parc Collège Letendre,park,laval,1000,de-lavenir,H7N 6J6,..,qc
172878,Parc Collin,park,laval,4599,ch nier,..,..,qc
172880,Parc Couvrette,park,laval,665,des jardins sainte doroth,H7X 2K4,..,qc
172881,Parc Crevier,park,laval,130,lamarche,H7X 4000000,..,qc
172882,Parc Curé-Coursol,park,laval,320,richard,H7M 1T8,..,qc
172884,Parc D'Alexandrie,park,laval,111,dalexandrie,H7K 0B4,..,qc
172885,Parc Dalida,park,laval,335,dalida,..,..,qc
172887,Parc Damien-Cyr,park,laval,440,damien cyr,H7L 6H3,..,qc
172890,Parc D'Argenson,park,laval,1765,rochefort,..,..,qc
172891,Parc De Bagatelle,park,laval,850,de bois de boulogne,H7N 4000000000,..,qc
172896,Parc De Brétigny,park,laval,910,de br tigny,H7P 5W9,..,qc
172897,Parc De Brest,park,laval,730,de-brest,..,..,qc
172899,Parc De Bucarest,park,laval,1985,de-bucarest,..,..,qc
172901,Parc De Calvi,park,laval,3599,de-calvi,H7P 5W4,..,qc
172907,Parc De Chevillon,park,laval,671,de-chevillon,..,..,qc
172908,Parc De Cluny,park,laval,425,de-chartres,..,..,qc
172912,Parc De La Caille,park,laval,2570,de-la-caille,H7L 4X3,..,qc
172913,Parc De La Canardière,park,laval,2545,de la canardi re,..,..,qc
172917,Parc De La Fabrique-Saint-Martin,park,laval,4060,saint martin,..,..,qc
172924,Parc De La Mauricie,park,laval,1775,de-la-mauricie,..,..,qc
172932,Parc De La Renaissance,park,laval,4255,de-la-renaissance,H7L 3X2,..,qc
