Index,Facility_Name,ODRSF_facility_type,Provider,Street_No,Street_Name,Postal_Code,City,Prov_Terr
173133,Parc Du Royal-22E-Régiment,park,laval,3325,des-ambassadeurs,..,..,qc
173135,Parc Du Sablon,park,laval,4919,4e,..,..,qc
173147,Parc Dufresne,park,laval,30,olier,H7G 4T7,..,qc
173148,Parc Dumas,park,laval,1774,de-berne,..,..,qc
173151,Parc Durocher,park,laval,1012,du lac de mai,H7P 3M2,..,qc
173154,Parc Edmond-Rostand,park,laval,3076,edmond rostand,H7P 5X8,..,qc
173163,Parc Fabien,park,laval,3261,fabien,H7P 2B5,..,qc
173164,Parc Fabre-Joie,park,laval,3938,dagenais,..,..,qc
173166,Parc Ferme-Ste-Thérèse,park,laval,1658,mattawa,..,..,qc
173168,Parc Fernando-Pessoa,park,laval,8088,fernando pessoa,H7Y 2J2,..,qc
173170,Parc Florent,park,laval,910,montgravel,..,..,qc
173175,Parc Frégault,park,laval,2455,fr gault,..,..,qc
173177,Parc Francine,park,laval,1474,louise,H7S 10000,..,qc
173182,Parc Gagné,park,laval,270,des-prairies,H7N 2T9,..,qc
173183,Parc Gagnon,park,laval,129,clarence gagnon,..,..,qc
173185,Parc Gauthier,park,laval,100,du-pacifique,H7N 3X8,..,qc
173186,Parc Gemma,park,laval,618,gemma,..,..,qc
173189,Parc Georges-Bourgeois,park,laval,1400,hector nadon,..,..,qc
173191,Parc Gerry-Dattilio,park,laval,3200,du-souvenir,H7V 1W9,..,qc
173193,Parc Gilardeau,park,laval,816,josaphat demers,H7X 3Y1,..,qc
173194,Parc Gilbert,park,laval,3100,germain,H7P 1Y6,..,qc
173199,Parc Giovanni-Caboto,park,laval,3125,des-aristocrates,..,..,qc
173202,Parc Goupil,park,laval,65,goupil,H7K 1K8,..,qc
173205,Parc Hôtel De Ville,park,laval,3,du souvenir,..,..,qc
173210,Parc Hector-Lussier,park,laval,3199,hector lussier,H7C 2S4,..,qc
173211,Parc Henri-Dunant,park,laval,..,..,..,..,qc
173213,Parc Henri-Duplessis,park,laval,1900,henri duplessis,..,..,qc
173214,Parc Honoré-De Balzac,park,laval,3146,honor de balzac,..,..,qc
173217,Parc Ingrid,park,laval,565,ingrid,H7P 3P9,..,qc
173221,Parc Isabelle,park,laval,400,jacques,H7P 5K5,..,qc
173222,Parc Islemère,park,laval,1601,de-mingan,..,..,qc
173223,Parc Ivan-Pavlov,park,laval,540,jean piaget,..,..,qc
173225,Parc J.-M.-Daigneault,park,laval,1160,mattawa,..,..,qc
173226,Parc Jérôme,park,laval,3,j r me,..,..,qc
173236,Parc Jarry,park,laval,705,mandel,H7X 1L6,..,qc
173243,Parc Jean-Xxiii,park,laval,1125,vanier,H7C 2N2,..,qc
173245,Parc Joachim-Du Bellay,park,laval,3280,joachim du bellay,..,..,qc
173246,Parc Jodelle,park,laval,7225,jodelle,..,..,qc
173247,Parc Jolibourg,park,laval,1350,du-relais,H7Y 1W2,..,qc
173256,Parc Kennedy,park,laval,1250,shorecrest,H7W 1R7,..,qc
173262,Parc Légaré,park,laval,2245,..,..,..,qc
173264,Parc Lévis-Paquette,park,laval,135,de-valognes,H7M 4A8,..,qc
173265,Parc Labelle,park,laval,..,..,H7V 3L8,..,qc
173270,Parc Lagarde,park,laval,3538,lagarde,..,..,qc
173272,Parc Laguerrier,park,laval,150,laguerrier,..,..,qc
173281,Parc Laval-Ouest,park,laval,7189,21e,H7R 3G9,..,qc
173282,"Parc Laval-Ouest, Site Saint-Antoine",park,laval,3150,saint antoine,H7R 1H8,..,qc
173284,Parc Le Boutillier,park,laval,1124,le boutillier,H7W 0,..,qc
173292,Parc L'Escale,park,laval,8050,myl,H7A 1G3,..,qc
