Index,Facility_Name,ODRSF_facility_type,Provider,Street_No,Street_Name,Postal_Code,City,Prov_Terr
173298,Parc Louis-Jolliet,park,laval,1140,croissant louis jolliet,..,..,qc
173305,Parc Lucien-Cartier,park,laval,4201,duguay,..,..,qc
173307,Parc Lynne,park,laval,1020,lynne,..,..,qc
173309,Parc Madeleine,park,laval,790,madeleine,H7P 3W7,..,qc
173315,Parc Marc-Aurèle-Fortin,park,laval,720,fleury,..,..,qc
173317,Parc Marcel-Gamache,park,laval,644,principale,..,..,qc
173319,Parc Marcel-Proust,park,laval,3080,marcel proust,H7P 6A5,..,qc
173321,Parc Marchand,park,laval,1840,marchand,H7G 4V6,..,qc
173324,Parc Marguerite-Duras,park,laval,3020,marcel proust,H7P 6A6,..,qc
173330,Parc Maskinongé,park,laval,2295,de-maskinong,H7E 4A9,..,qc
173331,Parc Masson,park,laval,6655,duranleau,..,..,qc
173333,Parc Mayfield,park,laval,2013,mayfield,H7T 1K4,..,qc
173335,Parc Michel-Mathieu,park,laval,326,sigmund freud,..,..,qc
173337,Parc Montcalm,park,laval,755,parkway,..,..,qc
173338,Parc Montgolfier,park,laval,1000,montgolfier,H7W 4Z2,..,qc
173341,Parc Montreuil,park,laval,250,rosario,H7X 3K1,..,qc
173342,Parc Montreuil,park,laval,301,montreuil,H7X 3K1,..,qc
173343,Parc Mont-Royal,park,laval,101,du mont royal,..,..,qc
173351,Parc Nicole,park,laval,3896,nicole,..,..,qc
173354,Parc Nodier,park,laval,3355,24e,..,..,qc
173356,Parc Notre-Dame,park,laval,46,terrasse dufferin,..,..,qc
173357,Parc Olier-Payette,park,laval,1207,olier payette,..,..,qc
173361,Parc Père-Vimont,park,laval,2280,marc,..,..,qc
173362,Parc Pépin,park,laval,355,flore,H7P 5L5,..,qc
173363,Parc Paradis,park,laval,2220,marc,H7K 1N8,..,qc
173364,Parc Parenteau,park,laval,5831,parenteau,..,..,qc
173366,Parc Paul-Marcel-Maheu,park,laval,327,montmorency,..,..,qc
173372,Parc Pierre-Corneille,park,laval,3149,pierre corneille,H7P 5Y4,..,qc
173377,Parc Pie-X,park,laval,1170,pie x,H7V 3B5,..,qc
173383,Parc Pontmain,park,laval,104,des-prairies,H7N 2T5,..,qc
173384,Parc Prévost,park,laval,1760,de-neuville,H7M 4L2,..,qc
173385,Parc Prince-Rupert,park,laval,6245,de prince rupert,H7H 1C5,..,qc
173397,Parc René-Patenaude,park,laval,80,ouimet,H7G 2H3,..,qc
173399,Parc Ringuet,park,laval,4749,arthur sauv,..,..,qc
173401,Parc Rivard,park,laval,1180,foucher,..,..,qc
173402,Parc Robert-L'Herbier,park,laval,241,notre dame de fatima,..,..,qc
173404,Parc Robitaille,park,laval,247,robitaille,..,..,qc
173406,Parc Roch-Hébert,park,laval,1021,jean charles,H7L 5J7,..,qc
173407,Parc Rodolphe-Lavoie,park,laval,4890,saint-joseph,H7C 1H5,..,qc
173411,Parc Roger-Provost,park,laval,..,..,H7G 3T4,..,qc
173413,Parc Roi-Du-Nord,park,laval,222,du roi du nord,H7L 1W9,..,qc
173415,Parc Rosaire-Gauthier,park,laval,..,..,..,..,qc
173437,Parc Sacré-Coeur,park,laval,3165,esther,..,..,qc
173438,Parc Saint-Édouard,park,laval,705,18e,H7R 5G4,..,qc
173439,Parc Saint-Claude,park,laval,99,7e,H7N 2C8,..,qc
173441,Parc Sainte-Béatrice,park,laval,5345,de prince rupert,..,..,qc
173444,Parc Sainte-Marie,park,laval,50,sainte-marie,H7J 1C6,..,qc
173445,Parc Saint-Ernest,park,laval,2430,de-meulles,..,..,qc
173453,Parc Saint-Martin,park,laval,4025,gaboury,..,..,qc
