Index,Facility_Name,ODRSF_facility_type,Provider,Street_No,Street_Name,Postal_Code,City,Prov_Terr
816,Centre Communautaire Accès,community centre,laval,6500,arthur sauv,H7R 3X7,laval ouest,qc
822,Centre Communautaire Auteuil,community centre,laval,6200,des-laurentides,H7H 1N5,auteuil,qc
824,Centre Communautaire Bigras,community centre,laval,886,de la fourche,H7Y 1T1,îles laval,qc
826,Centre Communautaire Boileau,community centre,laval,7100,des mille les,H7A 4B3,saint françois,qc
829,Centre Communautaire Champfleury,community centre,laval,2585,des-oiseaux,H7L 4M4,sainte rose,qc
839,Centre Communautaire De La Canadienne,community centre,laval,1222,du bord de leau,H7Y 1B3,sainte dorothée,qc
840,Centre Communautaire De La Caserne-Des-Pompiers,community centre,laval,950,de lh tel de ville,H7X 2K8,sainte dorothée,qc
843,Centre Communautaire De L'Ex-Garage (C.P.A.L.),community centre,laval,4939,de la fabrique,H7C 10000,saint vincent de paul,qc
844,Centre Communautaire De L'Ex-Garage-Municipal,community centre,laval,2388,35e,H7R 3P4,laval ouest,qc
845,Centre Communautaire De L'Ex-Hôtel-De-Ville,community centre,laval,1111,j eudes blanchard,H7C 1T1,saint vincent de paul,qc
850,Centre Communautaire Des Chênes,community centre,laval,355,les rables,H7R 1A3,laval sur le lac,qc
853,Centre Communautaire Des Jeunes-De-Sainte-Rose,community centre,laval,155,je me souviens,H7L 1V6,sainte rose,qc
854,Centre Communautaire Des Lacasse,community centre,laval,905,des-lacasse,H7K 3W3,auteuil,qc
858,Centre Communautaire Du Chalet-Des-Érables,community centre,laval,7,8e,H7H 2L9,auteuil,qc
859,Centre Communautaire Du Chalet-Municipal,community centre,laval,3999,de-la-concorde,H7E 5A5,saint vincent de paul,qc
860,Centre Communautaire Du Chalet-Saint-Victor,community centre,laval,650,de-beauport,H7E 4B8,duvernay,qc
871,Centre Communautaire Félix-Leclerc,community centre,laval,455,montée du moulin,H7A 1Z2,saint françois,qc
878,Centre Communautaire Groulx,community centre,laval,4901,saint-joseph,H7C 1H6,saint vincent de paul,qc
881,Centre Communautaire Jean-Paul-Campeau,community centre,laval,3781,lévesque,H7V 1G5,chomedey,qc
882,Centre Communautaire Jolibourg,community centre,laval,1350,du-relais,H7Y 1W2,sainte dorothée,qc
887,Centre Communautaire Laval-Des-Rapides,community centre,laval,387,des-prairies,H7N 2W4,laval des rapides,qc
888,Centre Communautaire Laval-Ouest,community centre,laval,6600,29e,H7R 3M3,laval ouest,qc
889,Centre Communautaire Le 400,community centre,laval,400,principale,H7X 3T9,sainte dorothée,qc
891,Centre Communautaire Le Sorbier,community centre,laval,140,nadon,H7L 1T5,sainte rose,qc
901,Centre Communautaire Montrougeau,community centre,laval,725,montmontrougeau,H7P 3M1,fabreville,qc
908,Centre Communautaire Philémon-Gascon,community centre,laval,2830,saint elzéar,H7E 4P2,duvernay,qc
912,Centre Communautaire Raymond-Fortin,community centre,laval,1885,dumouchel,H7S 1J7,chomedey,qc
920,Centre Communautaire Sainte-Dorothée,community centre,laval,996,montée gravel,H7X 2B8,sainte dorothée,qc
922,Centre Communautaire Sainte-Rose,community centre,laval,345,sainte-rose,H7L 1M7,sainte rose,qc
923,Centre Communautaire Saint-François,community centre,laval,2100,montsaint fran ois,..,duvernay,qc
927,Centre Communautaire Saint-Joseph,community centre,laval,1450,pie x,H7V 3C1,chomedey,qc
928,Centre Communautaire Saint-Louis-De-Montfort,community centre,laval,25,saint-louis,H7G 4W3,pont viau,qc
930,Centre Communautaire Saint-Noël-Chabanel,community centre,laval,8555,lévesque,H7A 1W7,saint françois,qc
938,Centre Communautaire Vimont,community centre,laval,1900,bédard,H7M 2M7,vimont,qc
947,Centre Du Sablon,community centre,laval,755,du sablon,H7W 4H5,chomedey,qc
961,Centre Sportif Honoré-Mercier,community centre,laval,2465,honor mercier,H7L 2S9,sainte rose,qc
962,Centre Sportif Josée-Faucher,community centre,laval,125,des-prairies,H7N 2T6,laval des rapides,qc
4493,Pavillon Du Bois-Papineau,community centre,laval,3235,saint-martin,H7E 5G8,duvernay,qc
4494,Pavillon Renaud-Coursol,community centre,laval,320,richard,H7M 1T8,chomedey,qc
4591,Place Des Aînés,community centre,laval,435,cur labelle,H7V 2S8,chomedey,qc
5072,Résidence Durocher,community centre,laval,4759,sainte-rose,H7R 2A5,fabreville,qc
9938,Club De Curling Laval-Sur-Le-Lac,rink,laval,10,les pins,H7R 1C7,laval sur le lac,qc
172760,Parc Éliot,park,laval,4415,eliot,..,..,qc
172761,Parc Émile,park,laval,55,cartier,H7N 5T3,..,qc
172762,Parc Émile-Zola,park,laval,3101,mile,H7P 0A3,..,qc
172766,Parc Éveline,park,laval,299,veline,H7P 2V4,..,qc
172768,Parc Adélard-Poirier,park,laval,5215,de la fabrique,..,..,qc
172777,Parc Alpha-Leblanc,park,laval,1760,leblanc,..,..,qc
172801,Parc Arthur-Lessard,park,laval,79,sainte-rose,..,..,qc
