Index,Facility_Name,ODRSF_facility_type,Provider,Street_No,Street_Name,Postal_Code,City,Prov_Terr
172941,Parc De La Rousserolle,park,laval,2238,de-la-rousserolle,H7L 0C4,..,qc
172944,Parc De La Seigneurie,park,laval,2450,de monts gur,..,..,qc
172947,Parc De La Terrasse-Germaine,park,laval,535,terrasse germaine,H7X 2R6,..,qc
172948,Parc De La Volière,park,laval,2440,de la voli re,H7L 4B6,..,qc
172949,Parc De L'École D'Éducation Internationale De Laval,park,laval,5075,du souvenir,H7W 10,..,qc
172953,Parc De L'Émerillon,park,laval,6300,de l merillon,H7L 6J4,..,qc
172956,Parc De L'Abbé-John-Colford,park,laval,1170,dale,..,..,qc
172961,Parc De L'Anse-Bleue,park,laval,55,de lanse bleue,H7N 4B1,..,qc
172963,Parc De L'Aquarelle,park,laval,725,marc aur le fortin,..,..,qc
172965,Parc De Lausanne,park,laval,425,de-lausanne,..,..,qc
172973,Parc De Lotbinière,park,laval,2380,de lotbini re,..,..,qc
172976,Parc De Lyon,park,laval,4920,de-lyon,..,..,qc
172980,Parc De Mingan,park,laval,1475,de-mingan,H7Y 1W1,..,qc
172984,Parc De Montceau,park,laval,315,de-montceau,..,..,qc
172985,Parc De Naples,park,laval,1955,de-naples,..,..,qc
172989,Parc De Renaix,park,laval,2096,de-renaix,H7M 6000000000,..,qc
172991,Parc De Ségovie,park,laval,2125,de-s,..,..,qc
172999,Parc De Venise,park,laval,2,de-venise,..,..,qc
173002,Parc Des Érables,park,laval,69,1re,H7H 2G9,..,qc
173003,Parc Des Acrobates,park,laval,100,sylvie,H7X 4B5,..,qc
173004,Parc Des Anémones,park,laval,370,des-roseaux,..,..,qc
173008,Parc Des Cardinaux,park,laval,6080,des-cardinaux,H7L 6B7,..,qc
173010,Parc Des Choucas,park,laval,5928,des-choucas,H7L 6A6,..,qc
173012,Parc Des Coccinelles,park,laval,750,73e,..,..,qc
173014,Parc Des Crécerelles,park,laval,2260,des cr cerelles,H7L 5S2,..,qc
173017,Parc Des Fleurs,park,laval,548,muguet,..,..,qc
173021,Parc Des Hiboux,park,laval,225,des-hiboux,..,..,qc
173022,Parc Des Hirondelles,park,laval,108,de-vaucluse,..,..,qc
173028,Parc Des Lucioles,park,laval,100,du-crochet,..,..,qc
173029,Parc Des Mésanges,park,laval,625,amp re,..,..,qc
173031,Parc Des Nénuphars,park,laval,975,du bord de leau,H7Y 1A4,..,qc
173035,Parc Des Orioles,park,laval,4225,le corbusier,..,..,qc
173039,Parc Des Peupliers,park,laval,190,perrier,..,..,qc
173041,Parc Des Pivoines,park,laval,660,des-pivoines,H7X 3V6,..,qc
173043,Parc Des Prairies,park,laval,5,du-crochet,..,..,qc
173048,Parc Des Roseaux,park,laval,385,des-roseaux,H7X 4H2,..,qc
173050,Parc Des Saules,park,laval,100,saint sa ns,H7H 1J1,..,qc
173053,Parc Des Terrasses,park,laval,45,des-terrasses,..,..,qc
173054,Parc Des Tilleuls,park,laval,7415,des-tilleuls,..,..,qc
173055,Parc Des Tisserands,park,laval,5160,du bas saint françois,H7E 4P2,..,qc
173056,Parc Des Trembles,park,laval,7578,des-trembles,..,..,qc
173065,Parc Desmarteau,park,laval,2709,prudentiel,H7K 3V7,..,qc
173069,Parc Dollard-Des Ormeaux,park,laval,1465,rigny,H7E 1N8,..,qc
173074,Parc Dora,park,laval,55,claude,H7A 4A9,..,qc
173089,Parc Du Calvaire-Sauriol,park,laval,360,marineau,..,..,qc
173092,Parc Du Centre-Communautaire-Montrougeau,park,laval,727,montmontrougeau,H7P 3M1,..,qc
173100,Parc Du Crochet,park,laval,98,du-crochet,..,..,qc
173107,Parc Du Faubourg,park,laval,745,ovide,..,..,qc
173125,Parc Du Moulin,park,laval,1125,montdu moulin,H7A 2A2,..,qc
