Index,Facility_Name,ODRSF_facility_type,Provider,Street_No,Street_Name,Postal_Code,City,Prov_Terr
4278,Parc Saint-Georges,pool,montreal,13,prince-albert,..,..,qc
4281,Parc Saint-Laurent,pool,montreal,614,salk,..,..,qc
4283,Parc Saint-Michel,pool,montreal,..,..,..,..,qc
4286,Parc Saint-Victor,pool,montreal,175,hochelaga,..,..,qc
4288,Parc Sauvé,pool,montreal,701,de bayonne,..,..,qc
4289,Parc Sir George-Étienne-Cartier,pool,montreal,550,sainte-émilie,..,..,qc
4290,Parc Sir Wilfrid-Laurier,pool,montreal,200,de-brébeuf,..,..,qc
4291,Parc St-Aloysius,pool,montreal,1,valois,..,..,qc
4292,Parc St-Clément,pool,montreal,855,de ville marie,..,..,qc
4293,Parc St-Laurent,pool,montreal,845,poirier,..,..,qc
4295,Parc Talcy,pool,montreal,151,talcy,..,..,qc
4296,Parc Tardif,pool,montreal,455,tardif,..,..,qc
4297,Parc Théodore,pool,montreal,525,théodore,..,..,qc
4298,Parc Toussaint-Louverture,pool,montreal,137,de-maisonneuve,..,..,qc
4299,Parc Trenholme,pool,montreal,800,sherbrooke ouest,..,..,qc
4300,Parc Turin,pool,montreal,205,chambort,..,..,qc
4301,Parc Van Horne,pool,montreal,900,van horne,..,..,qc
4302,Parc Verdelle,pool,montreal,441,verdelles,..,montréal,qc
4303,Parc Victoria-Girard,pool,montreal,..,jean-leduc,..,..,qc
4304,Parc Vinet,pool,montreal,550,vinet,..,..,qc
4306,Parc Willibrord,pool,montreal,800,willibrord,..,..,qc
4307,Parc Wilson,pool,montreal,1075,brown,..,..,qc
4473,Pataugeoire Ahuntsic,pool,montreal,10555,lajeunesse,..,..,qc
4474,Pataugeoire De Mésy,pool,montreal,12120,grenet,..,..,qc
4475,Pataugeoire Du Sault-Au-Récollet,pool,montreal,10550,st-firmin,..,..,qc
4476,Pataugeoire Henri-Julien,pool,montreal,9300,st-denis,..,..,qc
4477,Pataugeoire St-Paul De La Croix,pool,montreal,9900,hamel,..,..,qc
4487,Patro Le Prévost,pool,montreal,355,christophe colomb,..,..,qc
4558,Piscine Émile-Legault,pool,montreal,..,..,..,..,qc
4559,Piscine Association Sportive Et Communautaire Centre-S,pool,montreal,2093,de-la-visitation,..,..,qc
4560,Piscine Briarwood,pool,montreal,12421,pavillon,..,..,qc
4572,Piscine Du Vieux-Montréal,pool,montreal,255,ontario,..,..,qc
4573,Piscine Du Ymca Centre-Ville,pool,montreal,1440,stanley,..,..,qc
4578,Piscine Intérieure De Saint-Léonard,pool,montreal,115,des galets,..,..,qc
4579,Piscine Intérieure Roussin,pool,montreal,125,notre-dame,..,..,qc
4580,Piscine Intérieure Saint-Henri,pool,montreal,55,st jacques,..,..,qc
4581,Piscine Jonh F. Kennedy,pool,montreal,..,..,..,..,qc
4582,Piscine Marcelin-Wilson,pool,montreal,1655,dudemaine,..,..,qc
4584,Piscine Pierrefonds Park,pool,montreal,355,rive-boisée,..,..,qc
4586,Piscine Roxboro,pool,montreal,51,georges-vanier,..,..,qc
4587,Piscine Thorndale,pool,montreal,14921,oakwood,..,..,qc
4588,Piscine Valleycrest,pool,montreal,4600,cageux,..,..,qc
4589,Piscine Versailles,pool,montreal,13207,desjardins,..,..,qc
4601,Plage Du Cap Saint-Jacques,pool,montreal,21,115,..,..,qc
4612,Plage Du Parc Jean-Drapeau,park,montreal,..,..,..,montréal,qc
4619,Plage Jean-Doré,beach,province of québec,151,circuit,H3C 1A9,montréal,qc
4777,Port De Plaisance,pool,montreal,800,des iroquois,..,..,qc
5303,Saint-Jean-Baptiste,pool,montreal,48,saint jean baptiste,..,saint-jean-baptiste,qc
5639,Sophie-Barat,pool,montreal,10,saint-charles,h2c 3h7,..,qc
