Index,Facility_Name,ODRSF_facility_type,Provider,Street_No,Street_Name,Postal_Code,City,Prov_Terr
4204,Parc Luigi Pirandello,pool,montreal,550,de-compiègne,..,..,qc
4205,Parc Mackenzie-King,pool,montreal,905,saint kevin,..,..,qc
4207,Parc Médéric-Martin,pool,montreal,255,du havre,..,..,qc
4208,Parc Malborough,pool,montreal,105,beauzèle,..,..,qc
4209,Parc Ménard,pool,montreal,781,ménard,..,..,qc
4210,Parc Ménard,pool,montreal,300,clément,..,..,qc
4213,Parc Marcelle-Barthe,pool,montreal,..,wolfe,..,..,qc
4214,Parc Maria-Goretti,pool,montreal,488,85e,..,..,qc
4215,Parc Marie-Coron,pool,montreal,..,victor-e-beaupré,..,..,qc
4218,Parc Mcdonald,pool,montreal,355,clanranald,..,..,qc
4219,Parc Mgr J.A. Richard,pool,montreal,40,lasalle,..,lasalle,qc
4221,Parc Montmartre,pool,montreal,14555,de-montigny,..,..,qc
4223,Parc Monty,pool,montreal,357,monty,..,..,qc
4225,Parc Morgan,pool,montreal,370,sainte-catherine,..,..,qc
4230,Parc Nelson Mandela,pool,montreal,4920,vézina,..,..,qc
4231,Parc Nicolas-Tillemont,pool,montreal,833,des-érables,..,..,qc
4232,Parc Noël-Nord,pool,montreal,900,baker,..,..,qc
4233,Parc Normand Dawe,pool,montreal,1,woodland,..,..,qc
4234,Parc Notre-Dame-De-Grâce,pool,montreal,..,marcil,..,..,qc
4235,Parc Oscar,pool,montreal,10,saint-michel,..,..,qc
4236,Parc Ottawa,pool,montreal,400,belleville,..,..,qc
4237,Parc Ouelette,pool,montreal,1407,serre,..,..,qc
4238,Parc Père-Marquette,pool,montreal,..,..,..,..,qc
4239,Parc Père-Marquette,pool,montreal,555,des-carrières,..,..,qc
4240,Parc Painter,pool,montreal,260,marcotte,..,..,qc
4241,Parc Persillier-Lachapelle,pool,montreal,..,plessis,..,..,qc
4242,Parc Peterborough,pool,montreal,400,châteauneuf,..,..,qc
4243,Parc Pie Xii,pool,montreal,200,lavoisier,..,lavoisier,qc
4244,Parc Pierre-Bédard,pool,montreal,855,turenne,..,..,qc
4245,Parc Pierre-Bernard,pool,montreal,170,pierre bernard,..,pierre-bernard,qc
4246,Parc Pierre-Blanchet,pool,montreal,..,pierre-blanchet,..,..,qc
4250,Parc Pilon,pool,montreal,135,des-récollets,..,..,qc
4251,Parc Poirier,pool,montreal,3215,lasalle,..,..,qc
4252,Parc Poirier,pool,montreal,900,trudeau,..,..,qc
4253,Parc Primeau,pool,montreal,209,de castille,..,..,qc
4254,Parc Raymond,pool,montreal,555,bishop-power,..,..,qc
4256,Parc Raymond-Préfontaine,pool,montreal,300,dézéry,..,..,qc
4257,Parc René-Goupil,pool,montreal,250,du-parc-rené-goupil,..,..,qc
4260,Parc Richelieu,pool,montreal,600,forsyth,..,..,qc
4261,Parc Riverside,pool,montreal,625,35e,..,..,qc
4262,Parc Robert-Sauvé,pool,montreal,734,de-la-caserne,..,sainte-geneviève,qc
4265,Parc Roger Rousseau,pool,montreal,501,rondeau,..,rondeau,qc
4266,Parc Rosemary-Brown,pool,montreal,665,mclynn,..,..,qc
4267,Parc Rougemont,pool,montreal,900,bossuet,..,..,qc
4268,Parc Sabrevois,pool,montreal,110,des-récollets,..,..,qc
4269,Parc Saint-Édouard,pool,montreal,..,saint-andré / saint-zotique est,..,..,qc
4271,Parc Saint-Donat,pool,montreal,800,de marseille,..,..,qc
4273,Parc Sainte-Lucie,pool,montreal,93,16e,..,..,qc
4274,Parc Sainte-Yvette,pool,montreal,950,10e,..,..,qc
