Index,Facility_Name,ODRSF_facility_type,Provider,Street_No,Street_Name,Postal_Code,City,Prov_Terr
4008,Parc Alexis-Nihon,pool,montreal,999,badeaux,..,..,qc
4009,Parc Alphonse-Télesphore-Lépine,pool,montreal,..,de-gaspé,..,..,qc
4011,Parc André-Laurendeau,pool,montreal,361,andré-laurendeau,..,..,qc
4014,Parc Arthur-Therrien,pool,montreal,750,gaétan-laberge,..,..,qc
4015,Parc Étienne-Desmarteau,pool,montreal,..,..,..,..,qc
4017,Parc Bélair,pool,montreal,35,2e,..,..,qc
4018,Parc Baldwin,pool,montreal,330,rachel,..,..,qc
4019,Parc Beaubien,pool,montreal,633,6e,..,..,qc
4022,Parc Beauclerk,pool,montreal,855,émile-legrand,..,..,qc
4023,Parc Beaulac,pool,montreal,145,élizabeth,..,..,qc
4027,Parc Benny,pool,montreal,6445,monkland,..,..,qc
4030,Parc Bocage,pool,montreal,200,du bocage,..,..,qc
4032,Parc Boivin,pool,montreal,..,de-matane,..,..,qc
4033,Parc Bourbonnière,pool,montreal,2800,cazeneuve,..,..,qc
4034,Parc Campbell-Centre,pool,montreal,810,chatham,..,..,qc
4035,Parc Campbell-Ouest,pool,montreal,1,de-maricourt,..,..,qc
4036,Parc Carignan,pool,montreal,100,provost,..,..,qc
4039,Parc Chamberland,pool,montreal,800,dorais,..,..,qc
4040,Parc Champdoré,pool,montreal,..,champdoré,..,..,qc
4041,Parc Chénier,pool,montreal,555,de-l'aréna,..,..,qc
4043,Parc Charleroi,pool,montreal,975,alfred,..,..,qc
4045,Parc Cité-Jardin,pool,montreal,220,rosemont,..,rosemont,qc
4046,Parc Clark,pool,montreal,..,clark,..,..,qc
4048,Parc Cooney,pool,montreal,175,melrose,..,..,qc
4049,Parc Coubertin,pool,montreal,755,valéry,..,..,qc
4050,Parc Curé Albert-Arnold,pool,montreal,855,hamilton,..,..,qc
4051,Parc Dalmany,pool,montreal,9,dalmany,..,..,qc
4053,Parc De Gaspé,pool,montreal,655,de-gaspé,..,..,qc
4054,Parc De Kent,pool,montreal,533,de kent,..,montréal,qc
4055,Parc De La Bruère,pool,montreal,150,liébert,..,..,qc
4056,Parc De La Confédération,pool,montreal,265,biermans,..,..,qc
4057,Parc De La Fontaine,pool,montreal,550,de-la-fontaine,..,..,qc
4061,Parc De La Reine Élizabeth,pool,montreal,1,crawford,..,..,qc
4065,Parc De La Savanne,pool,montreal,111,paré,..,..,qc
4068,Parc De L'Épervière,pool,montreal,..,de-la-vigne,..,..,qc
4069,Parc De L'Honorable-George-O'Reilly,pool,montreal,4400,lasalle,..,..,qc
4070,Parc De L'Ukraine,pool,montreal,41,12e,..,..,qc
4075,Parc De Normanville,pool,montreal,7,de-normanville,..,..,qc
4077,Parc De Sienne,pool,montreal,4,53e,..,..,qc
4078,Parc Decelles,pool,montreal,845,roy,..,..,qc
4079,Parc Delorme,pool,montreal,6,de-honfleur,..,..,qc
4082,Parc Des Faubourgs,pool,montreal,..,dorion,..,..,qc
4085,Parc Des Joyeux-Vikings,pool,montreal,..,beaudry,..,..,qc
4088,Parc Des Pins,pool,montreal,3995,42e,..,..,qc
4089,Parc Des Roseraies,pool,montreal,7,de-la-nantaise,..,..,qc
4090,Parc Des Royaux,pool,montreal,..,..,..,..,qc
4094,Parc Des Vétérans,pool,montreal,655,papineau,..,..,qc
4098,Parc Dixie,pool,montreal,695,54e,..,..,qc
4099,Parc Dollard-Morin,pool,montreal,..,la valinière,..,..,qc
