Index,Facility_Name,ODRSF_facility_type,Provider,Street_No,Street_Name,Postal_Code,City,Prov_Terr
4115,Parc Duquette,pool,montreal,900,bannantyne,..,..,qc
4117,Parc Elgar,pool,montreal,260,elgar,..,..,qc
4118,Parc Eugène-Dostie,pool,montreal,488,de-l'église l'île-bizard,..,..,qc
4121,Parc Ferland,pool,montreal,20,lavoisier,..,lavoisier,qc
4125,Parc François-Perrault,pool,montreal,601,françois-perrault,..,..,qc
4129,Parc G. Garibaldi,pool,montreal,125,liénart,..,..,qc
4132,Parc Georges-Saint-Pierre,pool,montreal,999,d'oxford,..,..,qc
4136,Parc Gilles-Lefebvre,pool,montreal,..,drolet,..,..,qc
4139,Parc Gohier,pool,montreal,730,buchanam,..,..,qc
4140,Parc Goulet,pool,montreal,695,d'oxford,..,..,qc
4141,Parc Hébert,pool,montreal,655,colbert,..,..,qc
4142,Parc Harris,pool,montreal,365,o'brien,..,o'brien,qc
4143,Parc Hartenstein,pool,montreal,505,cardinal,..,..,qc
4144,Parc Haymard,pool,montreal,170,orchard,..,..,qc
4145,Parc Henri-Bourassa,pool,montreal,100,pascal,..,..,qc
4147,Parc Houde,pool,montreal,100,saint louis,..,..,qc
4148,Parc Howard,pool,montreal,..,de-l'épée,..,..,qc
4149,Parc Ignace-Bourget,pool,montreal,925,de montmagny,..,..,qc
4151,Parc J.D. Ducharme,pool,montreal,..,daoust,..,..,qc
4152,Parc J.O.R.-Leduc,pool,montreal,..,paquette,..,..,qc
4156,Parc Jacques-Blanchet,pool,montreal,..,jeanne-d'arc,..,..,qc
4158,Parc Jarry,pool,montreal,920,saint laurent,..,saint-laurent,qc
4159,Parc Jean-Amyot,pool,montreal,6,de-marseille,..,..,qc
4160,Parc Jean-Brillant,pool,montreal,252,decelles,..,..,qc
4162,Parc Jean-Duceppe,pool,montreal,..,..,..,..,qc
4163,Parc Jeanne-Mance,pool,montreal,167,de l'esplanade,..,..,qc
4164,Parc Jeannotte,pool,montreal,..,..,..,..,qc
4165,Parc Joanette,pool,montreal,..,..,..,..,qc
4166,Parc John-F.-Kennedy,pool,montreal,860,outremont,..,..,qc
4169,Parc Joseph-Paré,pool,montreal,6,41e,..,..,qc
4173,Parc Kirkland,pool,montreal,150,des-érables,..,..,qc
4174,Parc L.-O.-Taillon,pool,montreal,200,notre-dame,..,..,qc
4175,Parc La Fontaine Est,pool,montreal,450,rachel,..,..,qc
4178,Parc Lacharité,pool,montreal,55,latour,..,..,qc
4179,Parc Lacordaire,pool,montreal,576,lacordaire,..,lacordaire,qc
4180,Parc Ladauversière,pool,montreal,560,lacordaire,..,lacordaire,qc
4184,Parc Lafond,pool,montreal,500,laurier,..,..,qc
4188,Parc Lasalle 1,pool,montreal,950,remembrance,..,remembrance,qc
4189,Parc L'Orée Du Fleuve,pool,montreal,..,..,..,..,qc
4191,Parc Laurier-Charlemagne,pool,montreal,..,..,..,..,qc
4192,Parc Lawrence,pool,montreal,..,beyries,..,..,qc
4193,Parc Le Ber,pool,montreal,470,fortune,..,..,qc
4194,Parc Le Carignan,pool,montreal,11,pm-favier,..,..,qc
4195,Parc Le Pélican,pool,montreal,2,masson,..,..,qc
4196,Parc Lefebvre,pool,montreal,600,hardy,..,..,qc
4197,Parc Leroux,pool,montreal,7,centrale,..,..,qc
4198,Parc Liébert,pool,montreal,55,pierre de coubertin,..,..,qc
4200,Parc Louis-Cyr,pool,montreal,205,saint-ferdinand,..,..,qc
4201,Parc Loyola,pool,montreal,69,somerland,..,..,qc
