Index,Facility_Name,ODRSF_facility_type,Provider,Street_No,Street_Name,Postal_Code,City,Prov_Terr
6073,The Great Trail,trail,province of québec,321,de-la-commune,H2Y 20,montréal,qc
7239,Aréna Camillien-Houde,arena,montreal,1696,montcalm,H2L 3H4,montréal,qc
9966,Club De Golf De L'Île De Montréal,sports field,province of québec,3700,damien-gauthier,H1A 5S2,montréal,qc
10025,Club De Golf Meadowbrook,sports field,province of québec,8370,de la côte st-luc,H4W 1S3,montréal,qc
14695,Patinoire Des Quais Du Vieux-Port,rink,montreal,..,..,..,montréal,qc
14696,Patinoire Des Vétérans,rink,montreal,..,..,..,montréal,qc
14697,Patinoire Du Lac Aux Castors,rink,montreal,2000,remembrance,..,montréal,qc
14699,Patinoire Toussaint-Louverture,rink,montreal,..,de maisonneuve,..,montréal,qc
14700,Patinoire Walter-Stewart,rink,montreal,..,..,..,montréal,qc
14796,Piscine De L'Association Sportive Et Communautaire Du Centre Sud,pool,montreal,2093,de la visitation,H2L 3C9,montréal,qc
14797,Piscine Du Cégep Du Vieux Montréal,pool,montreal,255,ontario,H2X 1X6,montréal,qc
14798,Piscine Du Centre Jean-Claude-Malépart,pool,montreal,2633,ontario,H2K 1X1,montréal,qc
14800,Piscine Du Ymca Guy-Favreau,pool,montreal,200,rené-lévesque,H2Z 1X4,montréal,qc
14821,Piscine Quintal,pool,montreal,1550,dufresne,H2K 3J5,montréal,qc
14831,Plage De L'Horloge,beach,montreal,..,..,..,montréal,qc
17254,Stade Percival-Molson,stadium,montreal,475,des pins,H2W 1S4,montréal,qc
18609,Zoofest,miscellaneous,province of québec,2101,st-laurent,H2X 2T5,montréal,qc
162029,Île Bonfoin,park,montreal,..,..,..,..,qc
162030,Île Cadastre 150,park,montreal,..,..,..,..,qc
162031,Île Ménard,park,montreal,..,..,..,..,qc
172785,Parc Angrignon,park,montreal,..,..,..,..,qc
172914,Parc De La Cité-Du-Havre,park,montreal,..,..,..,..,qc
172930,Parc De La Promenade-Bellerive,park,montreal,..,..,..,..,qc
173046,Parc Des Rapides,park,montreal,..,..,..,..,qc
173098,Parc Du Complexe Environnemental De Saint-Michel,park,montreal,..,..,..,..,qc
173123,Parc Du Mont-Royal,park,montreal,..,..,..,..,qc
173139,Parc Du Troisième-Sommet,park,montreal,..,..,..,..,qc
173235,Parc Jarry,park,montreal,..,..,..,..,qc
173240,Parc Jean-Drapeau,park,montreal,..,..,..,..,qc
173242,Parc Jeanne-Mance,park,montreal,..,..,..,..,qc
173259,Parc La Fontaine,park,montreal,..,..,..,..,qc
173311,Parc Maisonneuve (Incluant Le Golf Municipal),park,montreal,..,..,..,..,qc
173395,Parc René-Lévesque,park,montreal,..,..,..,..,qc
173545,Parc-Nature De La Pointe-Aux-Prairies,park,montreal,..,..,..,..,qc
173546,Parc-Nature De L''Île-De-La-Visitation,park,montreal,..,..,..,..,qc
173547,Parc-Nature De L'Anse-À -L'Orme,park,montreal,..,..,..,..,qc
173548,Parc-Nature Des Rapides-Du-Cheval-Blanc,park,montreal,..,..,..,..,qc
173549,Parc-Nature Du Bois-D'Anjou,park,montreal,..,..,..,..,qc
173550,Parc-Nature Du Bois-De-L''Île-Bizard,park,montreal,..,..,..,..,qc
173551,Parc-Nature Du Bois-De-Liesse,park,montreal,..,..,..,..,qc
173552,Parc-Nature Du Bois-De-Saraguay,park,montreal,..,..,..,..,qc
173553,Parc-Nature Du Cap-Saint-Jacques,park,montreal,..,..,..,..,qc
173554,Parc-Nature Du Ruisseau-De Montigny,park,montreal,..,..,..,..,qc
