Index,Facility_Name,ODRSF_facility_type,Provider,Street_No,Street_Name,Postal_Code,City,Prov_Terr
43,Édouard-Montpetit,pool,montreal,100,pierre de coubertin,..,..,qc
232,Bain Émard,pool,montreal,71,laurendeau,..,..,qc
233,Bain Lévesque,pool,montreal,955,marie-anne,..,..,qc
234,Bain Morgan,pool,montreal,875,morgan,..,..,qc
235,Bain Quintal,pool,montreal,1,dufresne,..,..,qc
236,Bain Schubert,pool,montreal,950,saint laurent,..,saint-laurent,qc
237,Bain St-Denis,pool,montreal,75,saint hubert,..,..,qc
430,Bloc Shop Climbing Gym,gym,province of québec,1370,chabanel,H4N 1H4,montréal,qc
716,Casino De Montréal,casino,province of québec,1,du-casino,H3C 4W7,montréal,qc
814,Centre Aquatique Rivières-Des-Prairies,pool,montreal,515,rodolphe forget,..,rodolphe-forget,qc
833,Centre Communautaire D'Anjou,community centre,montreal,7800,métropolitain,H1K 1A1,anjou,qc
842,Centre Communautaire De L'Est,community centre,montreal,9665,gouin,H8Y 1R4,montreal,qc
867,Centre Communautaire Elgar,community centre,montreal,260,elgar,H3E 1C9,montréal,qc
904,Centre Communautaire Notre-Dame-De-Grâce,pool,montreal,311,de-la-côte-saint-antoine,..,..,qc
946,Centre Du Plateau,pool,montreal,275,st joseph,..,st-joseph,qc
955,Centre Rosemont,pool,montreal,101,8e,..,..,qc
956,Centre Sportif Côte-Des-Neiges,pool,montreal,880,van horne,..,..,qc
960,Centre Sportif De Notre-Dame-De-Grâce,pool,montreal,445,monkland,..,..,qc
963,Centre Sportif Père-Marquette,pool,montreal,600,drucourt,..,..,qc
964,Centre Sportif Petite-Bourgogne,pool,montreal,825,notre dame ouest,..,notre-dame,qc
967,Centre Sportif St-Charles,pool,montreal,55,hibernia,..,..,qc
1156,Complexe Aquatique - Société Du Parc Jean-Drapeau,pool,montreal,1,circuit,..,..,qc
1157,Complexe Sportif Claude-Robillard,pool,montreal,0,émile-journeault,..,..,qc
1158,Complexe Sportif Gadbois,pool,montreal,485,de-la-côte-saint-paul,..,..,qc
1306,De La Louisiane,pool,montreal,244,35e,..,..,qc
1795,Gabriel-Lalemant,pool,montreal,350,sauvé,h2b 1b2,..,qc
1844,Georges-Vernot,pool,montreal,475,13e,..,..,qc
2201,Hochelaga,pool,montreal,1,davidson,..,..,qc
2419,Jean-Claude-Malépart,pool,montreal,633,ontario,..,..,qc
2427,Jeux D'Eau De L'Estre,pool,montreal,7930,bloomfield,..,..,qc
2428,Jeux D'Eau Des Hirondelles,pool,montreal,..,..,..,..,qc
2429,Jeux D'Eau Howard,pool,montreal,8505,de-l'épée,..,..,qc
2430,Jeux D'Eau Saint-Alphonse,pool,montreal,8888,de-châteaubrian,..,..,qc
2431,Jeux D'Eau Saint-Jacques,pool,montreal,1360,saint-jacques,..,..,qc
2432,Jeux D'Eau St-André-Apôtre,pool,montreal,215,prieur,..,..,qc
2433,Jeux D'Eau St-Benoit,pool,montreal,..,..,..,..,qc
2434,Jeux D'Eau St-Simon-Apôtre,pool,montreal,260,legendre,..,..,qc
2499,Joseph-Charbonneau,pool,montreal,200,rousselot,..,..,qc
2710,Léon-Provencher,pool,montreal,555,pie ix,..,pie-ix,qc
2720,L'Aquadôme Lasalle,pool,montreal,411,lapierre,..,..,qc
2742,Le Petit Gym St-Laurent,gym,province of québec,1936,thimens,H4R 2K2,montréal,qc
2996,Maison Culturelle Et Communautaire De Montréal-Nord,community centre,montreal,12004,rolland,H1G 3W1,montréal,qc
3002,Maisonneuve,pool,montreal,4,de-rouen,..,..,qc
3173,Marcelin-Wilson,pool,montreal,655,"dudemaine, h3m 1r2",h3m 1r2,..,qc
3408,Montréal Old Port Skating Rink,rink,province of québec,..,..,0,montreal,qc
3497,Natatorium De Verdun,pool,montreal,500,lasalle,..,lasalle,qc
3500,National Trail In Quebec,trail,province of québec,321,de-la-commune,H2Y 20,montréal,qc
3675,Olivier-Robert,pool,montreal,325,de maisonneuve,..,..,qc
3984,Ovila-Légaré,pool,montreal,..,51e,..,..,qc
