Index,Facility_Name,ODRSF_facility_type,Provider,Street_No,Street_Name,Postal_Code,City,Prov_Terr
815,Centre Communautaire,community centre,blainville,1000,du-plan-bouchard,..,..,qc
162034,Îlot De Saint-Médard-En-Jalles,park,blainville,..,..,..,..,qc
162307,Ambroise-Filion,park,blainville,..,..,..,..,qc
162337,André-Joly,park,blainville,..,..,..,..,qc
163398,Blainville,park,blainville,..,..,..,..,qc
164566,Chante-Bois,park,blainville,..,..,..,..,qc
164841,Claude-Henri-Grignon,park,blainville,..,..,..,..,qc
164909,Club De Golf Le Blainvillier,park,blainville,..,..,..,..,qc
164911,Club De Golf Le Fontainebleau,park,blainville,..,..,..,..,qc
165184,Coulombe-Saint-Marcoux,park,blainville,..,..,..,..,qc
165474,D'Alençon,park,blainville,..,..,..,..,qc
165502,D'Amos,park,blainville,..,..,..,..,qc
165576,De La Renaissance,park,blainville,..,..,..,..,qc
165577,De La Seigneurie,park,blainville,..,..,..,..,qc
165578,De La Sentinelle,park,blainville,..,..,..,..,qc
165579,De L'Aquarelle,park,blainville,..,..,..,..,qc
165580,De L'Armistice,park,blainville,..,..,..,..,qc
165581,De Montauban,park,blainville,..,..,..,..,qc
165582,De Montmartre,park,blainville,..,..,..,..,qc
165688,Des As,park,blainville,..,..,..,..,qc
165689,Des Bolivars,park,blainville,..,..,..,..,qc
165690,Des Capucines,park,blainville,..,..,..,..,qc
165691,Des Chanterelles,park,blainville,..,..,..,..,qc
165692,Des Hirondelles,park,blainville,..,..,..,..,qc
165694,Des Liserons,park,blainville,..,..,..,..,qc
165695,Des Mélèzes,park,blainville,..,..,..,..,qc
165699,Des Ramilles,park,blainville,..,..,..,..,qc
165700,Des Semailles,park,blainville,..,..,..,..,qc
165701,Des Violettes,park,blainville,..,..,..,..,qc
165984,Du Plateau Saint-Louis,park,blainville,..,..,..,..,qc
165985,Du Ruisseau,park,blainville,..,..,..,..,qc
165989,Du Voltigeur,park,blainville,..,..,..,..,qc
165992,Dubreuil,park,blainville,..,..,..,..,qc
166584,Félix-Leclerc,park,blainville,..,..,..,..,qc
166903,Fontainebleau,park,blainville,..,..,..,..,qc
167127,Frontenac,park,blainville,..,..,..,..,qc
168254,Henri-Dunant,park,blainville,..,..,..,..,qc
168950,Jacques-Viger,park,blainville,..,..,..,..,qc
169270,Joseph-Masson,park,blainville,..,..,..,..,qc
170928,Marc-Aurèle-Fortin,park,blainville,..,..,..,..,qc
170959,Marie-Victorin,park,blainville,..,..,..,..,qc
171132,Maurice-Tessier A,park,blainville,..,..,..,..,qc
171133,Maurice-Tessier B,park,blainville,..,..,..,..,qc
171134,Maurice-Tessier C,park,blainville,..,..,..,..,qc
172402,Notre-Dame-De-L'Assomption,park,blainville,..,..,..,..,qc
172764,Parc Équestre,park,blainville,..,..,..,..,qc
173503,Parc Yannick-Scherrer,park,blainville,..,..,..,..,qc
173555,Parcs Canin Nord,park,blainville,..,..,..,..,qc
173556,Parcs Canin Sud,park,blainville,..,..,..,..,qc
