Index,Facility_Name,ODRSF_facility_type,Provider,Street_No,Street_Name,Postal_Code,City,Prov_Terr
21,École De La Forêt,rink,gatineau,219,du-bois-franc,..,..,qc
22,École Des Cavaliers,rink,gatineau,120,nancy-elliot,..,..,qc
23,École Du Lac-Des-Fées,rink,gatineau,165,bisson,..,..,qc
24,École Du Sacré-Coeur,rink,gatineau,420,du-progrès,..,..,qc
25,École Parc-De-La-Montagne,rink,gatineau,15,doucet,..,..,qc
26,École Polyvalente De L'Érablière,pool,gatineau,500,de-cannes,..,..,qc
27,École Saint-Jean-De-Brébeuf,skate park,gatineau,32,de-montréal,..,..,qc
28,École Secondaire De L'Île,pool,gatineau,255,saint-rédempteur,..,..,qc
103,Altitude Gym,gym,province of québec,35,st-raymond,J8Y 1R5,gatineau,qc
159,Aréna Baribeau,arena,ottawa,..,..,..,gatineau,qc
160,Aréna Baribeau,rink,gatineau,231,magnus,..,..,qc
161,Aréna Beaudry,arena,ottawa,..,..,..,gatineau,qc
162,Aréna Beaudry,rink,gatineau,23,saint-alexandre,..,..,qc
163,Aréna Campeau,arena,ottawa,..,..,..,gatineau,qc
164,Aréna Campeau,rink,gatineau,165,des-sables,..,..,qc
166,Aréna Cholette,arena,ottawa,..,..,..,gatineau,qc
168,Aréna Frank-Robinson,arena,ottawa,..,..,..,gatineau,qc
169,Aréna Jean-Paul-Sabourin,arena,ottawa,..,..,..,gatineau,qc
170,Aréna Paul-Et-Isabelle-Duchesnay,arena,ottawa,..,..,..,gatineau,qc
171,Aréna Paul-Et-Isabelle-Duchesnay,rink,gatineau,92,du-patrimoine,..,..,qc
172,Aréna Stade-Pierre-Lafontaine,arena,ottawa,..,..,..,gatineau,qc
173,Aréna Stade-Pierre-Lafontaine,rink,gatineau,255,saint-antoine,..,..,qc
227,Aylmer Marina,marina,gatineau,1,principale,J9H 5000000,gatineau,qc
719,Casino Du Lac-Leamy,casino,ottawa,..,..,..,gatineau,qc
721,Casino Lac-Leamy Sound Of Light,casino,province of québec,..,..,K1A 0M8,gatineau,qc
812,Centre Aquatique Lucien-Houle,pool,gatineau,580,maclaren,..,..,qc
813,Centre Aquatique Paul-Pelletier,pool,gatineau,325,d'aylmer,..,..,qc
820,Centre Communautaire André-Touchet,community centre,gatineau,57,vanier,..,..,qc
821,Centre Communautaire Apollo,community centre,gatineau,520,carle,..,..,qc
823,Centre Communautaire Belmont,community centre,gatineau,26,belmont,..,..,qc
825,Centre Communautaire Bisson,community centre,gatineau,36,thérien,..,..,qc
834,Centre Communautaire D'Anger,community centre,gatineau,1100,yvon-pichette,..,..,qc
835,Centre Communautaire Daniel-Johnson,community centre,gatineau,54,tassé,..,..,qc
836,Centre Communautaire Daniel-Lafortune,community centre,gatineau,448,de-pointe-gatineau,..,..,qc
837,Centre Communautaire De Buckingham,community centre,gatineau,181,joseph,..,..,qc
841,Centre Communautaire De La Riviera,community centre,gatineau,12,de-picardie,..,..,qc
846,Centre Communautaire De Limbour,community centre,gatineau,288,lebaudy,..,..,qc
848,Centre Communautaire De Lucerne-Nord,community centre,gatineau,674,des-écureuils,..,..,qc
852,Centre Communautaire Des Hautes-Plaines,community centre,gatineau,479,des-hautes-plaines,..,..,qc
855,Centre Communautaire Des Trembles,community centre,gatineau,150,des-trembles,..,..,qc
856,Centre Communautaire Desjardins,community centre,gatineau,1,goyette,..,..,qc
857,Centre Communautaire Docteur-Jean-Lorrain,community centre,gatineau,20,lorrain,..,..,qc
862,Centre Communautaire Du Plateau,community centre,gatineau,145,de-l'atmosphère,..,..,qc
865,Centre Communautaire Dupuis,community centre,gatineau,50,isidore-ostiguy,..,..,qc
866,Centre Communautaire Edgar-Chénier,community centre,gatineau,10,bériault,..,..,qc
869,Centre Communautaire Ernest-Lattion,community centre,gatineau,30,court,..,..,qc
870,Centre Communautaire Eugène-Sauvageau,community centre,gatineau,179,mutchmore,..,..,qc
874,Centre Communautaire Fontaine,community centre,gatineau,120,charlevoix,..,..,qc
875,Centre Communautaire Frank-Robinson,community centre,gatineau,96,du-patrimoine,..,..,qc
