Index,Facility_Name,ODRSF_facility_type,Provider,Street_No,Street_Name,Postal_Code,City,Prov_Terr
172904,Parc De Castillou,park,gatineau,40,de-castillou,..,..,qc
172905,Parc De Champagne,park,gatineau,14,du-barsac,..,..,qc
172911,Parc De La Côte-Des-Neiges,park,gatineau,187,louis-colin,..,..,qc
172915,Parc De La Citadelle,park,gatineau,67,de-la-citadelle,..,..,qc
172916,Parc De La Croisée,park,gatineau,6,impasse,..,..,qc
172918,Parc De La Ferme-Dalton,park,gatineau,199,dalton,..,..,qc
172920,Parc De La Guadeloupe,park,gatineau,14,thérien,..,..,qc
172931,Parc De La Reine-Élisabeth,park,gatineau,122,de-la-reine-élisabeth,..,..,qc
172939,Parc De La Riviera,park,gatineau,22,d'auvergne,..,..,qc
172940,Parc De La Rosée,park,gatineau,15,de-la-rosée,..,..,qc
172942,Parc De La Sablonnière,park,gatineau,930,bel-air,..,..,qc
172946,Parc De La Terrasse Est,park,gatineau,15,de-la-terrasse,..,..,qc
172950,Parc De L'Écorce,park,gatineau,95,de-l'écorce,..,..,qc
172951,Parc De L''Île,park,gatineau,305,saint-rédempteur,..,..,qc
172954,Parc De L'Érablière,park,gatineau,185,des-samares,..,..,qc
172955,Parc De L'Étrier,park,gatineau,57,des-lipizzans,..,..,qc
172962,Parc De Laperrière,park,gatineau,63,de-laperrière,..,..,qc
172964,Parc De L'Aréna,park,gatineau,97,de-l'aréna,..,..,qc
172966,Parc De Lausanne,park,gatineau,504,de-neuchâtel,..,..,qc
172967,Parc De Laverdière,park,gatineau,24,de-fréville,..,..,qc
172971,Parc De Limoges,park,gatineau,28,de-parme,..,..,qc
172972,Parc De L'Oiseau-Bleu,park,gatineau,110,de-la-drave,..,..,qc
172974,Parc De Lucerne,park,gatineau,33,olida,..,..,qc
172975,Parc De Lucerne-Nord,park,gatineau,674,des-écureuils,..,..,qc
172981,Parc De Mingan,park,gatineau,99,de-mingan,..,..,qc
172990,Parc De Roberval,park,gatineau,140,de-roberval,..,..,qc
172996,Parc De Saint-Malo,park,gatineau,41,de-saint-malo,..,..,qc
172997,Parc De Tellier,park,gatineau,23,de-tellier,..,..,qc
172998,Parc De Val-D'Oise,park,gatineau,124,lachapelle,..,..,qc
173005,Parc Des Becs-Scie,park,gatineau,100,des-becs-scie,..,..,qc
173006,Parc Des Cèdres,park,gatineau,15,raoul-roy,..,..,qc
173007,Parc Des Cèdres,park,gatineau,1,principale,..,..,qc
173009,Parc Des Chars-De-Combat,park,gatineau,52,saint-joseph,..,..,qc
173013,Parc Des Coquelicots,park,gatineau,25,des-coquelicots,..,..,qc
173016,Parc Des Draveurs,park,gatineau,205,de-la-gappe,..,..,qc
173020,Parc Des Hautes-Plaines,park,gatineau,479,des-hautes-plaines,..,..,qc
173024,Parc Des Jardins-Lavigne,park,gatineau,250,du-bois-franc,..,..,qc
173027,Parc Des Jonquilles,park,gatineau,83,des-jonquilles,..,..,qc
173030,Parc Des Marguerites,park,gatineau,11,des-marguerites,..,..,qc
173032,Parc Des Oiseaux,park,gatineau,528,de-la-blanche,..,..,qc
173033,Parc Des Optimistes,park,gatineau,28,de-turin,..,..,qc
173036,Parc Des Ormes,park,gatineau,32,des-ormes,..,..,qc
173037,Parc Des Paysans,park,gatineau,261,des-paysans,..,..,qc
173038,Parc Des Petits-Seigneurs,park,gatineau,237,des explorateurs,..,..,qc
173042,Parc Des Portageurs,park,gatineau,425,de-lucerne,..,..,qc
173047,Parc Des Ravin-Boisés,park,gatineau,153,lacombe,..,..,qc
173051,Parc Des Servantes,park,gatineau,46,des-servantes,..,..,qc
173052,Parc Des Soeurs-Maristes,park,gatineau,45,de-la-soeur-jeanne-marie-chavoin,..,..,qc
173057,Parc Des Trembles,park,gatineau,150,des-trembles,..,..,qc
