Index,Facility_Name,ODRSF_facility_type,Provider,Street_No,Street_Name,Postal_Code,City,Prov_Terr
13366,Marina De Hull,sports field,ottawa,..,..,..,gatineau,qc
13367,Marina Kitchissipi De Gatineau,sports field,ottawa,..,..,..,gatineau,qc
14284,Parc Aydelu,sports field,gatineau,..,court,..,..,qc
14287,Parc Beauchampville,sports field,gatineau,930,georges,..,..,qc
14289,Parc Belmont,sports field,gatineau,..,belmont,..,..,qc
14292,Parc Bisson,sports field,gatineau,..,froment,..,..,qc
14294,Parc Broad,sports field,gatineau,140,brook,..,..,qc
14306,Parc Champagne,sports field,gatineau,..,du-barsac,..,..,qc
14307,Parc Daniel-Johnson,sports field,gatineau,..,tassé,..,..,qc
14311,Parc De La Riviera,sports field,gatineau,..,de-provence,..,..,qc
14316,Parc De L'Île,sports field,gatineau,..,saint-rédempteur,..,..,qc
14317,Parc De L'Oiseau-Bleu,sports field,gatineau,..,louis-hémon,..,..,qc
14319,Parc De L'Oiseau-Bleu,sports field,gatineau,..,louis-hémon,..,..,qc
14321,Parc Des Cèdres,sports field,gatineau,..,raoul-roy,..,..,qc
14322,Parc Des Draveurs,sports field,gatineau,..,de-la-gappe,..,..,qc
14324,Parc Des Ormes,sports field,gatineau,..,des-ormes,..,..,qc
14325,Parc Des Trembles,sports field,gatineau,..,des-trembles,..,..,qc
14326,Parc Des Trembles,sports field,gatineau,..,des-trembles,..,..,qc
14327,Parc Des Vignobles,sports field,gatineau,..,nobert,..,..,qc
14328,Parc Desjardins,sports field,gatineau,1,goyette,..,..,qc
14334,Parc Du Méridien,sports field,gatineau,..,du-méridien,..,..,qc
14335,Parc Du Plateau,sports field,gatineau,..,de-l'atmosphère,..,..,qc
14336,Parc Du Plateau,sports field,gatineau,..,de-l'atmosphère,..,..,qc
14337,Parc Du Vieux-Verger,sports field,gatineau,510,du-caveau,..,..,qc
14339,Parc Eugène-Sauvageau,sports field,gatineau,179,mutchmore,..,..,qc
14340,Parc Fontaine,sports field,gatineau,120,charlevoix,..,..,qc
14341,Parc Fontaine,sports field,gatineau,..,charlevoix,..,..,qc
14342,Parc Fontaine,sports field,gatineau,120,charlevoix,..,..,qc
14344,Parc Front,sports field,gatineau,..,front,..,..,qc
14345,Parc Front,sports field,gatineau,..,front,..,..,qc
14346,Parc Front,sports field,gatineau,..,front,..,..,qc
14348,Parc Georges-Étienne-Cartier,sports field,gatineau,..,de-savoie,..,..,qc
14350,Parc Gilbert-Garneau No 1,sports field,gatineau,..,moreau,..,..,qc
14351,Parc Gilbert-Garneau No 2,sports field,gatineau,..,moreau,..,..,qc
14352,Parc Gilles-Maisonneuve,sports field,gatineau,1100,yvon-pichette,..,..,qc
14353,Parc Haute-Plaines,sports field,gatineau,479,des-hautes-plaines,..,..,qc
14357,Parc Jack-Eyamie,sports field,gatineau,40,du-bassin,..,..,qc
14360,Parc Jardins-Lavigne,sports field,gatineau,250,du-bois-franc,..,..,qc
14361,Parc Jean-Dallaire,sports field,gatineau,..,hanson,..,..,qc
14362,Parc Jolicoeur,sports field,gatineau,..,jolicoeur,..,..,qc
14364,Parc Kenneth-Lloyd,sports field,gatineau,26,arthur-whelan,..,..,qc
14366,Parc Lakeview,sports field,gatineau,39,crescent,..,..,qc
14368,Parc Larocque,sports field,gatineau,..,brodeur,..,..,qc
14369,Parc Larocque,sports field,gatineau,2,fortier,..,..,qc
14370,Parc Limbour,sports field,gatineau,..,saint-alexandre,..,..,qc
14371,Parc Louis-Philion,sports field,gatineau,13,curé-labelle,..,gatineau,qc
14372,Parc Louis-Phillion,sports field,gatineau,..,lorrain,..,..,qc
14373,Parc Lucerne-Nord,sports field,gatineau,..,des-écureuils,..,..,qc
14374,Parc Marcel-Gladu,sports field,gatineau,..,de-bourassa,..,gatineau,qc
