Index,Facility_Name,ODRSF_facility_type,Provider,Street_No,Street_Name,Postal_Code,City,Prov_Terr
4104,Parc Du Dôme,rink,gatineau,60,du-dôme,..,..,qc
4105,Parc Du Gabbro,rink,gatineau,79,du-gabbro,..,..,qc
4107,Parc Du Lac-Beauchamp,rink,gatineau,741,maloney,..,..,qc
4108,Parc Du Lac-Beauchamp,beach,gatineau,741,maloney,..,..,qc
4109,Parc Du Lac-Leamy,beach,gatineau,..,fournier,..,..,qc
4110,Parc Du Méridien,rink,gatineau,16,du-méridien,..,..,qc
4111,Parc Du Plateau,rink,gatineau,155,de-l'atmosphère,..,..,qc
4112,Parc Du Plateau,skate park,gatineau,155,de-l'atmosphère,..,..,qc
4113,Parc Du Vieux-Verger,rink,gatineau,510,du-caveau,..,..,qc
4119,Parc Eugène-Sauvageau,rink,gatineau,179,mutchmore,..,..,qc
4120,Parc Eugène-Sauvageau,pool,gatineau,179,mutchmore,..,..,qc
4123,Parc Fontaine,pool,gatineau,120,charlevoix,..,..,qc
4124,Parc Fontaine,rink,gatineau,120,charlevoix,..,..,qc
4127,Parc Front,pool,gatineau,175,front,..,..,qc
4128,Parc Front,rink,gatineau,175,front,..,..,qc
4130,Parc Gérard-Marchand,rink,gatineau,101,d'arizona,..,..,qc
4131,Parc George-Étienne-Cartier,rink,gatineau,36,de-savoie,..,..,qc
4134,Parc Gilbert-Garneau,rink,gatineau,80,moreau,..,..,qc
4137,Parc Gilles-Maisonneuve,skate park,gatineau,1100,yvon-pichette,..,..,qc
4146,Parc Henri-Dunant,rink,gatineau,687,du-mont-royal,..,..,qc
4153,Parc Jack-Eyamie,rink,gatineau,40,du-bassin,..,..,qc
4154,Parc Jack-Eyamie,pool,gatineau,40,du-bassin,..,..,qc
4157,Parc Jardins-Lavigne,rink,gatineau,250,du-bois-franc,..,..,qc
4161,Parc Jean-Dallaire,rink,gatineau,31,hanson,..,..,qc
4167,Parc Joseph-H.-Maloney,rink,gatineau,548,a-gibeault,..,..,qc
4168,Parc Joseph-H.-Maloney,skate park,gatineau,548,a-gibeault,..,..,qc
4171,Parc Kenneth-Lloyd,rink,gatineau,26,arthur-whelan,..,..,qc
4172,Parc Kenneth-Lloyd,skate park,gatineau,26,arthur-whelan,..,..,qc
4176,Parc La Vérendrye,pool,gatineau,..,main,..,..,qc
4177,Parc La Vérendrye,rink,gatineau,730,main,..,..,qc
4182,Parc Laflèche,rink,gatineau,181,de-lausanne,..,..,qc
4185,Parc Lakeview,rink,gatineau,39,crescent,..,..,qc
4186,Parc Larocque,rink,gatineau,2,fortier,..,..,qc
4187,Parc Larocque,pool,gatineau,2,fortier,..,..,qc
4190,Parc Laurent-Groulx,pool,gatineau,1,lévesque,..,..,qc
4199,Parc Limbour,rink,gatineau,23,saint-alexandre,..,..,qc
4206,Parc Maclaren,rink,gatineau,575,de-buckingham,..,..,qc
4211,Parc Manoir-Des-Trembles,pool,gatineau,150,des-trembles,..,..,qc
4212,Parc Marcel-Gladu,rink,gatineau,104,du-barry,..,..,qc
4216,Parc Martin-Larouche,rink,gatineau,984,notre-dame,..,..,qc
4217,Parc Mcandrew,rink,gatineau,170,john-fkennedy,..,..,qc
4220,Parc Moncion,pool,gatineau,..,saint-onge,..,..,qc
4226,Parc Moussette,rink,gatineau,361,de-lucerne,..,..,qc
4227,Parc Moussette,beach,gatineau,361,de-lucerne,..,..,qc
4248,Parc Pierre-Lafontaine,rink,gatineau,251,saint-antoine,..,..,qc
4249,Parc Pierre-Laporte,rink,gatineau,489,antoine,..,..,qc
4255,Parc Raymond-Madore,rink,gatineau,160,des-fleurs,..,..,qc
4258,Parc René-Lévesque,rink,gatineau,288,lebaudy,..,..,qc
4263,Parc Roberval,rink,gatineau,140,de-roberval,..,..,qc
