Index,Facility_Name,ODRSF_facility_type,Provider,Street_No,Street_Name,Postal_Code,City,Prov_Terr
173258,Parc Kent,park,gatineau,13,walter-herbert,..,..,qc
173260,Parc La Vérendrye,park,gatineau,730,main,..,..,qc
173263,Parc Légion,park,gatineau,481,james,..,..,qc
173267,Parc Laflèche,park,gatineau,181,de-lausanne,..,..,qc
173269,Parc Laframboise,park,gatineau,555,laframboise,..,..,qc
173273,Parc Lakeview,park,gatineau,39,crescent,..,..,qc
173274,Parc Lamarche,park,gatineau,13,stéphane,..,..,qc
173275,Parc Lanctôt,park,gatineau,61,lanctôt,..,..,qc
173276,Parc Larocque,park,gatineau,2,fortier,..,..,qc
173277,Parc Lattion,park,gatineau,201,lattion,..,..,qc
173278,Parc Laurent-Groulx,park,gatineau,1,lévesque,..,..,qc
173280,Parc Lauzon,park,gatineau,191,de-castagnier,..,..,qc
173287,Parc Lemoyne,park,gatineau,480,bigué,..,..,qc
173293,Parc Limbour,park,gatineau,23,saint-alexandre,..,..,qc
173301,Parc Louis-Philion,park,gatineau,13,du-curé-labelle,..,..,qc
173302,Parc Louis-Taché,park,gatineau,163,lebaudy,..,..,qc
173303,Parc Louis-Taché,park,gatineau,62,le roy,..,..,qc
173308,Parc Madaire,park,gatineau,57,vanier,..,..,qc
173313,Parc Mallish,park,gatineau,431,de-la-scierie,..,..,qc
173316,Parc Marcel-Chaput,park,gatineau,26,marcel-chaput,..,..,qc
173318,Parc Marcel-Gladu,park,gatineau,104,du-barry,..,..,qc
173320,Parc Marc-Gosselin,park,gatineau,1109,de-neuville,..,..,qc
173322,Parc Marengère,park,gatineau,5,marengère,..,..,qc
173327,Parc Marlene-Goyet,park,gatineau,102,marlene-goyet,..,..,qc
173328,Parc Martin-Larouche,park,gatineau,984,notre-dame,..,..,qc
173329,Parc Martin-Perrier,park,gatineau,578,martin-perrier,..,..,qc
173334,Parc Mcandrew,park,gatineau,170,john,..,..,qc
173336,Parc Moncion,park,gatineau,43,st-onge,..,..,qc
173339,Parc Mont-Luc,park,gatineau,14,du-mont-luc,..,..,qc
173340,Parc Montpetit,park,gatineau,97,saint-raymond,..,..,qc
173346,Parc Moussette,park,gatineau,361,de-lucerne,..,..,qc
173347,Parc Mulligan,park,gatineau,30,mulligan,..,..,qc
173353,Parc Nobert,park,gatineau,56,laflamme,..,..,qc
173368,Parc Pearson,park,gatineau,490,costello,..,..,qc
173375,Parc Pierre-Lafontaine,park,gatineau,251,saint-antoine,..,..,qc
173376,Parc Pierre-Laporte,park,gatineau,489,antoine,..,..,qc
173378,Parc Plouffe,park,gatineau,945,grandmaison,..,..,qc
173379,Parc Polyvalente De L'Érablière,park,gatineau,500,de-cannes,..,..,qc
173380,Parc Polyvalente Le Carrefour,park,gatineau,50,de-la-savane,..,..,qc
173381,Parc Polyvalente Nicolas-Gatineau,park,gatineau,360,la vérendrye,..,..,qc
173386,Parc Prospérine,park,gatineau,125,foley,..,..,qc
173389,Parc R.-H.-Lalonde,park,gatineau,767,r-h-lalonde,..,..,qc
173391,Parc Racicot,park,gatineau,77,sabourin,..,..,qc
173393,Parc Raymond-Madore,park,gatineau,160,des-fleurs,..,..,qc
173396,Parc René-Lévesque,park,gatineau,288,lebaudy,..,..,qc
173398,Parc Riel,park,gatineau,27,du parc,..,..,qc
173403,Parc Robinson,park,gatineau,98,de-la-baie,..,..,qc
173405,Parc Robitaille,park,gatineau,145,churchill,..,..,qc
173412,Parc Roger-St-Onge,park,gatineau,114,roger-st-onge,..,..,qc
