Index,Facility_Name,ODRSF_facility_type,Provider,Street_No,Street_Name,Postal_Code,City,Prov_Terr
173059,Parc Des Trois-Portages,park,gatineau,170,broad,..,..,qc
173062,Parc Des Vendanges,park,gatineau,72,de-saint-émilion,..,..,qc
173063,Parc Des Vignobles,park,gatineau,449,nobert,..,..,qc
173064,Parc Desjardins,park,gatineau,1,goyette,..,..,qc
173066,Parc Desnoyers,park,gatineau,534,jacques-poulin,..,..,qc
173082,Parc Du Beau-Vallon,park,gatineau,155,des-hauts-bois,..,..,qc
173088,Parc Du Côteau,park,gatineau,60,louis-riel,..,..,qc
173090,Parc Du Carré-Vaudreuil,park,gatineau,54,vaudreuil,..,..,qc
173099,Parc Du Cosmos,park,gatineau,2,de-l'hémisphère,..,..,qc
173101,Parc Du Dôme,park,gatineau,60,du-dôme,..,..,qc
173106,Parc Du Drakkar,park,gatineau,126,du-drakkar,..,..,qc
173109,Parc Du Gabbro,park,gatineau,79,du-gabbro,..,..,qc
173111,Parc Du Grand-Ruisseau,park,gatineau,116,du-grand-ruisseau,..,..,qc
173113,Parc Du Lac-Beauchamp,park,gatineau,741,maloney,..,..,qc
173115,Parc Du Lac-Leamy,park,gatineau,100,du-lac-leamy,..,..,qc
173117,Parc Du Méridien,park,gatineau,16,du-méridien,..,..,qc
173130,Parc Du Relais,park,gatineau,433,des-caravelles,..,..,qc
173134,Parc Du Ruisseau,park,gatineau,132,du ruisseau,..,..,qc
173136,Parc Du Spoutnik,park,gatineau,10,ruelle,..,..,qc
173137,Parc Du Tourbillon,park,gatineau,39,lake,..,..,qc
173140,Parc Du Vallon,park,gatineau,80,de-cannes,..,..,qc
173142,Parc Du Vieux-Verger,park,gatineau,510,du-caveau,..,..,qc
173144,Parc Du Voilier,park,gatineau,67,du-voilier,..,..,qc
173150,Parc Dupuis,park,gatineau,50,isidore-ostiguy,..,..,qc
173156,Parc Elgin,park,gatineau,65,elgin,..,..,qc
173158,Parc En Mémoire-D'Elles,park,gatineau,10,bruyère,..,..,qc
173161,Parc Eugène-Sauvageau,park,gatineau,179,mutchmore,..,..,qc
173167,Parc Fernand-Béland,park,gatineau,268,f-béland,..,..,qc
173172,Parc Fontaine,park,gatineau,120,charlevoix,..,..,qc
173178,Parc Front,park,gatineau,175,front,..,..,qc
173179,Parc Généreux,park,gatineau,436,généreux,..,..,qc
173180,Parc Gérald-Millar,park,gatineau,1,lake,..,..,qc
173181,Parc Gérard-Marchand,park,gatineau,101,d'arizona,..,..,qc
173184,Parc Gaston-Renaud,park,gatineau,18,racan,..,..,qc
173187,Parc Gendron,park,gatineau,130,judge,..,..,qc
173188,Parc George-Étienne-Cartier,park,gatineau,36,de-savoie,..,..,qc
173195,Parc Gilbert-Garneau,park,gatineau,80,moreau,..,..,qc
173197,Parc Gilles-Maisonneuve,park,gatineau,1100,yvon-pichette,..,..,qc
173204,Parc Guitard,park,gatineau,150,elzéar-lafleur,..,..,qc
173207,Parc Hétu,park,gatineau,333,hétu,..,..,qc
173209,Parc Hector-Aubin,park,gatineau,27,thérèse,..,..,qc
173212,Parc Henri-Dunant,park,gatineau,687,du-mont-royal,..,..,qc
173218,Parc Irène,park,gatineau,1307,gilles,..,..,qc
173227,Parc Jack-Eyamie,park,gatineau,40,du-bassin,..,..,qc
173231,Parc Jacques-Cartier Sud,park,gatineau,162,laurier,..,..,qc
173241,Parc Jean-Gardy-Bienvenu,park,gatineau,10,ruelle,..,..,qc
173248,Parc Jolicoeur,park,gatineau,110,jolicoeur,..,..,qc
173251,Parc Joseph-H.-Maloney,park,gatineau,548,a-gibeault,..,..,qc
173255,Parc Jules-Verne,park,gatineau,396,jules-verne,..,..,qc
