Index,Facility_Name,ODRSF_facility_type,Provider,Street_No,Street_Name,Postal_Code,City,Prov_Terr
4272,Parc Sainte-Bernadette,rink,gatineau,40,pilon,..,..,qc
4276,Parc Saint-Gérard,rink,gatineau,1259,maloney,..,..,qc
4280,Parc Saint-Jean-Bosco,rink,gatineau,70,saint-joseph,..,..,qc
4284,Parc Saint-René,rink,gatineau,238,saint-rené,..,..,qc
4285,Parc Saint-Rosaire,pool,gatineau,..,saint-rosaire,..,..,qc
4287,Parc Sanscartier,rink,gatineau,5,sanscartier,..,..,qc
4308,Parc Woods,rink,gatineau,81,woods,..,..,qc
4483,Patinoire Du Ruisseau De La Brasserie,rink,province of québec,69,montcalm,0,gatineau,qc
4596,Plage Des Cèdres,beach,province of québec,1,principale,J9H 3M5,gatineau,qc
4616,Plage Du Parc Moussette,beach,ottawa,..,..,..,gatineau,qc
5065,Ramada Plaza Le Manoir Du Casino,casino,ottawa,..,..,..,gatineau,qc
6070,Théâtre Du Casino,casino,ottawa,..,..,..,gatineau,qc
7028,École De La Forêt,sports field,gatineau,219,du-bois-franc,..,..,qc
7029,École De La Froêt,sports field,gatineau,219,du-bois-franc,..,..,qc
7030,École De L'Amérique-Française,sports field,gatineau,125,de-l'amérique-française,..,..,qc
7033,École Du Marais,sports field,gatineau,200,du-marigot,..,..,qc
7038,École Polyvalente De L'Érablière,sports field,gatineau,500,de-cannes,..,..,qc
7039,École Polyvalente Le Carrefour,sports field,gatineau,50,de-la-savane,..,..,qc
7042,École Polyvalente Nicolas-Gatineau,sports field,gatineau,360,la vérendrye,..,..,qc
7043,École Primaire Des Deux-Ruisseaux,sports field,gatineau,278,de-l'atmosphère,..,..,qc
7044,École Primaire Des Deux-Ruisseaux,sports field,gatineau,278,de-l'atmosphère,..,..,qc
7045,École Primaire Du Plateau,sports field,gatineau,145,de-l'atmosphère,..,..,qc
7046,École Primaire Du Plateau,sports field,gatineau,145,de-l'atmosphère,..,..,qc
7047,École Primaire Du Ruisseau,sports field,gatineau,175,samares,..,..,qc
7048,École Primaire Du Sacré-Coeur,sports field,gatineau,420,du-progrès,..,..,qc
7050,École Secondaire De L'Île,sports field,gatineau,255,saint-rédempteur,..,..,qc
7056,École Secondaire Du Versant,sports field,gatineau,808,de-la-cité,..,..,qc
7057,École Secondaire Hormidas-Gamelin,sports field,gatineau,580,maclaren,..,..,qc
7058,École Secondaire Hormisdas-Gamelin,sports field,gatineau,580,maclaren,..,..,qc
7060,École Secondaire Mont-Bleu,sports field,gatineau,389,de-la-cité-des-jeunes,..,..,qc
9325,Buckingham Golf Club,sports field,ottawa,..,..,..,gatineau,qc
9634,Centre Communautaire Eugène-Sauvageau,sports field,gatineau,179,mutchmore,..,..,qc
9635,Centre Communautaire Père-Arthur-Guertain,sports field,gatineau,16,beriault,..,..,qc
9670,Centre Sportif De Gatineau,sports field,gatineau,850,de-la-gappe,..,..,qc
9671,Centre Sportif De Gatineau,sports field,gatineau,850,de-la-gappe,..,..,qc
9950,Club De Golf Champlain,sports field,gatineau,1145,d'aylmer,J9J 1T7,gatineau,qc
9952,Club De Golf Château Cartier,sports field,gatineau,1170,d'aylmer,J9H 7L3,gatineau,qc
9978,Club De Golf Du Parc Kingsway,sports field,gatineau,1461,de-la-montagne,J9J 3S5,gatineau,qc
9986,Club De Golf Gatineau,sports field,gatineau,255,samuel-edey,J9J 1T7,gatineau,qc
10009,Club De Golf Le Sorcier,sports field,gatineau,967,dalton,J8R 3C5,gatineau,qc
10023,Club De Golf Masson-Angers,sports field,gatineau,1240,de-montréal,J8M 1P7,gatineau,qc
10060,Club De Golf Tecumseh,sports field,gatineau,475,saint-louis,J8P 8B6,gatineau,qc
10061,Club De Golf Touraine,sports field,province of québec,312,taché,J8V 3Y1,gatineau,qc
10062,Club De Golf Touraine,sports field,gatineau,312,taché,J8V 3Y1,gatineau,qc
10069,Club De Golf Vieux Moulins,sports field,gatineau,511,boucher,J9H 50,gatineau,qc
10100,Collège Saint-Alexandre,sports field,gatineau,2425,saint-louis,..,..,qc
10744,Ecole Primaire Eardley,sports field,gatineau,180,north,..,..,qc
12951,Le Sorcier Golf Club,sports field,province of québec,967,dalton,J8R 3C5,gatineau,qc
12952,Le Sorcier Golf Course,sports field,ottawa,..,..,..,gatineau,qc
