Index,Facility_Name,ODRSF_facility_type,Provider,Street_No,Street_Name,Postal_Code,City,Prov_Terr
877,Centre Communautaire Gérard-Pezzani,community centre,gatineau,22,d'auvergne,..,..,qc
883,Centre Communautaire Kenneth-Lloyd,community centre,gatineau,26,arthur-whelan,..,..,qc
884,Centre Communautaire Larocque,community centre,gatineau,2,fortier,..,..,qc
885,Centre Communautaire Laurent-Groulx,community centre,gatineau,1,lévesque,..,..,qc
890,Centre Communautaire Le Baron,community centre,gatineau,104,du-barry,..,..,qc
906,Centre Communautaire Père-Arthur-Guertin,community centre,gatineau,16,bériault,..,..,qc
911,Centre Communautaire Portugais Les Ami Unis,community centre,gatineau,42,hanson,..,..,qc
918,Centre Communautaire Sainte-Bernadette,community centre,gatineau,40,pilon,..,..,qc
919,Centre Communautaire Sainte-Blandine,community centre,rimouski,19,du-pavillon,..,..,qc
924,Centre Communautaire Saint-Gérard,community centre,gatineau,1259,maloney,..,..,qc
925,Centre Communautaire Saint-Jean-Bosco,community centre,gatineau,100,scott,..,..,qc
926,Centre Communautaire Saint-Jean-De-Brébeuf,community centre,gatineau,70,moreau,..,..,qc
932,Centre Communautaire Saint-Raymond,community centre,gatineau,99,saint-raymond,..,..,qc
933,Centre Communautaire Saint-Richard,community centre,gatineau,315,migneault,..,..,qc
935,Centre Communautaire Saint-Rosaire,community centre,gatineau,5,saint-arthur,..,..,qc
936,Centre Communautaire Tétreau,community centre,gatineau,361,de-lucerne,..,..,qc
940,Centre Communautaire Yvon-A.-Grégoire,community centre,gatineau,70,saint-joseph,..,..,qc
957,Centre Sportif De Buckingham,arena,ottawa,..,..,..,gatineau,qc
958,Centre Sportif De Buckingham,rink,gatineau,485,james,..,..,qc
965,Centre Sportif Robert-Rochon,arena,ottawa,..,..,..,gatineau,qc
966,Centre Sportif Robert-Rochon,rink,gatineau,97,de-l'aréna,..,..,qc
1136,Collège Saint-Alexandre De La Gatineau,rink,gatineau,2425,saint-louis,..,..,qc
2027,Gymélites Gymnastique Et Trampoline,gym,gatineau,183,freeman,J8Z 2A7,gatineau,qc
2402,Jacques-Cartier Marina,marina,gatineau,120,laurier,..,gatineau,qc
2623,Kitchissipi Marina,marina,gatineau,5,sanscartier,J8P 7R8,gatineau,qc
3448,Motel Casino,casino,ottawa,..,..,..,gatineau,qc
4016,Parc Baker,rink,gatineau,62,millar,..,..,qc
4020,Parc Beauchampville,rink,gatineau,930,georges,..,..,qc
4021,Parc Beauchampville,skate park,gatineau,930,georges,..,..,qc
4026,Parc Belmont,rink,gatineau,26,belmont,..,..,qc
4028,Parc Bisson,pool,gatineau,..,froment,..,..,qc
4029,Parc Bisson,rink,gatineau,36,thérien,..,..,qc
4037,Parc Central,rink,gatineau,205,de-bruxelles,..,..,qc
4038,Parc Central,skate park,gatineau,205,de-bruxelles,..,..,qc
4042,Parc Chénier,rink,gatineau,515,jean-chénier,..,..,qc
4052,Parc Daniel-Johnson,rink,gatineau,54,tassé,..,..,qc
4063,Parc De La Riviera,rink,gatineau,22,d'auvergne,..,..,qc
4066,Parc De L'Île,skate park,gatineau,305,saint-rédempteur,..,..,qc
4067,Parc De L'Érablière,rink,gatineau,185,des-samares,..,..,qc
4074,Parc De L'Oiseau-Bleu,rink,gatineau,110,de-la-drave,..,..,qc
4081,Parc Des Deux-Ruisseaux,rink,gatineau,22,du-tropique,..,..,qc
4083,Parc Des Hautes-Plaines,rink,gatineau,479,des-hautes-plaines,..,..,qc
4084,Parc Des Hautes-Plaines,skate park,gatineau,..,des-hautes-plaines,..,..,qc
4086,Parc Des Ormes,rink,gatineau,32,des-ormes,..,..,qc
4091,Parc Des Trembles,rink,gatineau,150,des-trembles,..,..,qc
4092,Parc Des Trembles,skate park,gatineau,150,des-trembles,..,..,qc
4095,Parc Des Vignobles,rink,gatineau,449,nobert,..,..,qc
4096,Parc Desjardins,rink,gatineau,1,goyette,..,..,qc
4097,Parc Desjardins,pool,gatineau,1,goyette,..,..,qc
