Index,Facility_Name,ODRSF_facility_type,Provider,Street_No,Street_Name,Postal_Code,City,Prov_Terr
173442,Parc Sainte-Bernadette,park,gatineau,40,pilon,..,..,qc
173446,Parc Sainte-Thérèse,park,gatineau,116,sainte-thérèse,..,..,qc
173447,Parc Saint-Exupéry,park,gatineau,15,de-mougins,..,..,qc
173448,Parc Saint-Gérard,park,gatineau,1259,maloney,..,..,qc
173450,Parc Saint-Jean,park,gatineau,40,labelle,..,..,qc
173452,Parc Saint-Jean-Bosco,park,gatineau,70,saint-joseph,..,..,qc
173460,Parc Saint-Paul,park,gatineau,141,isabelle,..,..,qc
173463,Parc Saint-Rédempteur,park,gatineau,101,de-carillon,..,..,qc
173464,Parc Saint-René,park,gatineau,238,saint-rené,..,..,qc
173465,Parc Saint-Rosaire,park,gatineau,52,saint-rosaire,..,..,qc
173470,Parc Sanscartier,park,gatineau,5,sanscartier,..,..,qc
173471,Parc Schingh,park,gatineau,8,schingh,..,..,qc
173478,Parc Tecumseh,park,gatineau,280,de-la-savane,..,..,qc
173482,Parc Tibérius,park,gatineau,12,tiberius,..,..,qc
173493,Parc Valpin,park,gatineau,39,de-grandpré,..,..,qc
173494,Parc Victoria,park,gatineau,328,de-la-reine-victoria,..,..,qc
173498,Parc Wilfrid-Lavigne,park,gatineau,961,wilfrid-lavigne,..,..,qc
173502,Parc Woods,park,gatineau,81,woods,..,..,qc
173515,Parc-École De La Traversée,park,gatineau,257,luck,..,..,qc
173530,Parc-École Du Lac-Des-Fées,park,gatineau,165,bisson,..,..,qc
173544,Parc-École South Hull,park,gatineau,86,crescent,..,..,qc
