Index,Facility_Name,ODRSF_facility_type,Provider,Street_No,Street_Name,Postal_Code,City,Prov_Terr
14377,Parc Mcandrew,sports field,gatineau,..,bélanger,..,..,qc
14379,Parc Moussette,sports field,gatineau,..,prévost,..,..,qc
14380,Parc Moussette,sports field,gatineau,..,prévost,..,..,qc
14390,Parc Pierre-Lafontaine,sports field,gatineau,255,saint-antoine,..,..,qc
14392,Parc Pierre-Laporte,sports field,gatineau,..,antoine,..,..,qc
14393,Parc Racicot,sports field,gatineau,..,sabourin,..,..,qc
14394,Parc Racicot,sports field,gatineau,..,sabourin,..,..,qc
14398,Parc Riviera,sports field,gatineau,..,d'auvergne,..,..,qc
14400,Parc Saint-Coeur-De-Marie,sports field,gatineau,..,gatineau,..,..,qc
14401,Parc Sainte-Bernadette,sports field,gatineau,..,pilon,..,..,qc
14404,Parc Saint-Jean-Bosco,sports field,gatineau,70,saint-joseph,..,..,qc
14407,Parc Saint-René,sports field,gatineau,..,saint-rené,..,..,qc
14409,Parc Sanscartier No 1,sports field,gatineau,..,sanscartier,..,..,qc
14410,Parc Sanscartier No 2,sports field,gatineau,..,sanscartier,..,..,qc
15330,Rivermead Golf Club,sports field,ottawa,..,..,..,gatineau,qc
17485,Tecumseh Golf Club,sports field,ottawa,..,..,..,gatineau,qc
17817,Touraine Golf Club,sports field,ottawa,..,..,..,gatineau,qc
165028,Complexe Sportif Du Mont-Bleu,park,gatineau,395,de-la-cité-des-jeunes,..,..,qc
165164,Corridor De La Vigne,park,gatineau,..,dumont,..,..,qc
165804,Domaine Fairview,park,gatineau,100,gamelin,..,..,qc
172759,Parc Édouard-Mercier,park,gatineau,555,gouin,..,..,qc
172763,Parc Émile-Zola,park,gatineau,15,émile-zola,..,..,qc
172767,Parc Achbar,park,gatineau,525,léveillé,..,..,qc
172776,Parc Allen,park,gatineau,100,allen,..,..,qc
172779,Parc Alphonse-Dutil,park,gatineau,1347,saint-louis,..,..,qc
172796,Parc Apollo,park,gatineau,520,carle,..,..,qc
172797,Parc Aquamarine,park,gatineau,15,du-tamarac,..,..,qc
172807,Parc Aydelu,park,gatineau,20,rue,..,..,qc
172808,Parc Bélisle,park,gatineau,255,broadway,..,..,qc
172811,Parc Beaumont,park,gatineau,940,cook,..,..,qc
172813,Parc Beauvais,park,gatineau,375,beauvais,..,..,qc
172817,Parc Belmont,park,gatineau,26,belmont,..,..,qc
172822,Parc Berthiaume,park,gatineau,36,berthiaume,..,..,qc
172829,Parc Bisson,park,gatineau,36,thérien,..,..,qc
172835,Parc Bourgeau,park,gatineau,221,bourgeau,..,..,qc
172837,Parc Brébeuf,park,gatineau,71,bourget,..,..,qc
172839,Parc Broad,park,gatineau,140,brook,..,..,qc
172840,Parc Broadway,park,gatineau,182,de-la-reine-élisabeth,..,..,qc
172860,Parc Chénier,park,gatineau,515,jean-chénier,..,..,qc
172863,Parc Chalifoux,park,gatineau,115,walker,..,..,qc
172873,Parc Claude-Rioux,park,gatineau,42,alexis-rajotte,..,..,qc
172883,Parc Décosse,park,gatineau,15,décosse,..,..,qc
172888,Parc Daniel-Johnson,park,gatineau,54,tassé,..,..,qc
172892,Parc De Beauchampville,park,gatineau,930,georges,..,..,qc
172894,Parc De Blainville,park,gatineau,51,de-blainville,..,..,qc
172895,Parc De Boisbriand,park,gatineau,80,de-boisbriand,..,..,qc
172898,Parc De Brignoles,park,gatineau,19,de-brignoles,..,..,qc
172900,Parc De Côtéville,park,gatineau,155,de-côtéville,..,..,qc
172902,Parc De Canadel,park,gatineau,194,de-canadel,..,..,qc
