Index,Facility_Name,ODRSF_facility_type,Provider,Street_No,Street_Name,Postal_Code,City,Prov_Terr
175722,Sewell Park,park,ottawa,15,sewell,..,kanata,on
175730,Shadow Ridge Park,park,ottawa,7064,donwel,..,greely,on
175759,Sharel Park,park,ottawa,1900,florida,..,..,on
175774,Shearer Park,park,ottawa,89,kakulu,..,kanata,on
175782,Sheffield Glen Park,park,ottawa,2320,southvale,..,..,on
175786,Shefford Sports Park,park,ottawa,..,..,..,..,on
175788,Sheila Mckee Memorial Park,park,ottawa,1730,sixth line,..,kanata,on
175804,Sheperds Grove Park,park,ottawa,3825,stonecrest,..,carleton,on
175828,Sherry Lane Park,park,ottawa,39,sherry,..,nepean,on
175851,Shetland Park,park,ottawa,24,shetland,..,kanata,on
175858,Shirley's Brook Park,park,ottawa,5,shirley's brook,..,kanata,on
175887,Sieveright Park,park,ottawa,2999,sable ridge,..,gloucester,on
175894,Silas Bradley Park,park,ottawa,5970,fernbank,..,..,on
175907,Silverbirch Park,park,ottawa,6105,silverbirch,..,gloucester,on
175984,Sir Wilfrid Laurier Park,park,ottawa,288,chapel,..,ottawa,on
176013,Ski Hill Park,park,ottawa,1995,naskapi,..,gloucester,on
176022,Slate Park,park,ottawa,13,slate,..,goulbourn,on
176131,South River Drive Park,park,ottawa,5495,south-river,..,rideau,on
176133,South Sawmill Creek Park,park,ottawa,1619,rosebella,..,gloucester,on
176150,South Vernon Park,park,ottawa,9020,bank,..,osgoode,on
176151,South Village Park,park,ottawa,6799,village,..,osgoode,on
176197,Southwood Park,park,ottawa,121,grandpark,..,..,on
176239,Spratt Park,park,ottawa,4191,spratt,..,gloucester,on
176276,Springhurst Park,park,ottawa,24,brunswick,..,ottawa,on
176404,St. Ambroise Park,park,ottawa,120,landry,..,vanier,on
176430,St. Charles Park,park,ottawa,5,st charles,..,..,on
176439,St. Fran√ßois Park,park,ottawa,1855,simard,..,gloucester,on
176448,St. Germain Park,park,ottawa,86,templeton,..,ottawa,on
176476,St. Luke's Park,park,ottawa,166,frank,..,ottawa,on
176498,St. Paul's Park,park,ottawa,469,donald,..,ottawa,on
176540,Stanley Park,park,ottawa,1575,lakeshore,..,osgoode,on
176550,Stanstead Park,park,ottawa,861,stanstead,..,ottawa,on
176552,Star Park,park,ottawa,11,highmont,..,..,on
176565,Station Park,park,ottawa,613,mattino,..,..,on
176571,St-Denis Parkette,park,ottawa,..,st denis,..,..,on
176592,Steve Maclean Park,park,ottawa,1190,deer park,..,nepean,on
176596,Stewart Martin Park,park,ottawa,2552,market,..,cumberland,on
176605,Stinson Park,park,ottawa,80,queensbury,..,nepean,on
176613,Stirling-Carruthers Park,park,ottawa,195,carruthers,..,..,on
176614,Stitt Street Park,park,ottawa,19,stitt,..,goulbourn,on
176617,St-Jacques Parkette,park,ottawa,..,..,..,..,on
176623,Stoneboat Park,park,ottawa,1765,stoneboat,..,gloucester,on
176629,Stonecrest Park,park,ottawa,220,stoneway,..,nepean,on
176634,Stonegate Park,park,ottawa,45,mcintosh,..,kanata,on
176637,Stonehenge Park,park,ottawa,1851,stonehenge,..,gloucester,on
176639,Stonemeadow Park,park,ottawa,56,stonemeadow,..,kanata,on
176686,Strathcona Park,park,ottawa,25,range,..,ottawa,on
176707,Stroughton Park,park,ottawa,6,chelmsford,..,goulbourn,on
176713,Stuemer Park,park,ottawa,777,trim,..,cumberland,on
