Index,Facility_Name,ODRSF_facility_type,Provider,Street_No,Street_Name,Postal_Code,City,Prov_Terr
165287,Craighurst Drive Park,park,ottawa,6567,craighurst,..,rideau,on
165298,Crantham Park,park,ottawa,11,crantham,..,goulbourn,on
165327,Creekview Park,park,ottawa,505,creekview,..,..,on
165345,Cresthaven Park,park,ottawa,28,cresthaven,..,nepean,on
165385,Crossing Bridge Park,park,ottawa,27,hobin,..,goulbourn,on
165413,Crownridge Park,park,ottawa,290,meadowbreeze,..,..,on
165430,Cumberland Millennium Sports Park,park,ottawa,100,millennium,..,cumberland,on
165434,Cumberland Park,park,ottawa,187,bruyère,..,..,on
165439,Cummings Park,park,ottawa,1060,cummings,..,gloucester,on
165457,Cyrville Park,park,ottawa,1420,meadowbrook,..,gloucester,on
165461,Décarie Park,park,ottawa,7883,décarie,..,..,on
165472,Dale Park,park,ottawa,1590,alta vista,..,ottawa,on
165485,Dalhousie South Park,park,ottawa,343,bell,..,ottawa,on
165515,Dante Park,park,ottawa,17,dante,..,..,on
165544,David Bartlett Park,park,ottawa,5201,mclean,..,..,on
165557,Davidson Park,park,ottawa,5,ryerson,..,..,on
165563,Davis Park,park,ottawa,304,davis,..,..,on
165568,Daybreak Park,park,ottawa,38,daybreak,..,nepean,on
165608,Deer Run Park,park,ottawa,272,ridge,..,goulbourn,on
165618,Deevy Pines Park,park,ottawa,65,stonehaven,..,kanata,on
165635,Delorme Park,park,ottawa,6591,delorme,..,gloucester,on
165698,Des Pionniers Park,park,ottawa,1880,carrigan,..,cumberland,on
165721,Devonian Park,park,ottawa,171,escarpment,..,..,on
165737,Diamond Jubilee Park,park,ottawa,2810,findlay creek,..,gloucester,on
165742,Dick Bell Park,park,ottawa,3259,carling,..,..,on
165786,Dog Bone Park,park,ottawa,5,morton,..,kanata,on
165795,Dogwood Park And Munster Hamlet Community Centre,park,ottawa,2890,munster,..,goulbourn,on
165815,Don Boudria Park,park,ottawa,655,décoeur,..,..,on
165845,Donland Park,park,ottawa,23,parker,..,..,on
165853,Donoghue Memorial Park,park,ottawa,29,larkspur,..,nepean,on
165881,Dorey Park,park,ottawa,80,mccurdy,..,kanata,on
165890,Dossetter Park,park,ottawa,72,dossetter,..,ottawa,on
165891,Doug Frobel Park,park,ottawa,16,rowley,..,..,on
165894,Doug Rivington Park,park,ottawa,701,meadowridge,..,..,on
165922,Dowitcher Park,park,ottawa,..,dowitcher,..,..,on
165954,Dr. John Hopps Park,park,ottawa,300,den haag,..,ottawa,on
165963,Dragonfly Park,park,ottawa,2920,findlay creek,..,gloucester,on
165976,Drumlins Park,park,ottawa,12,drumlins,..,..,on
166016,Dumaurier Park,park,ottawa,2850,dumaurier,..,..,on
166047,Dundonald Park,park,ottawa,516,somerset,..,ottawa,on
166059,Dunlop Park,park,ottawa,15,dunlop,..,..,on
166064,Dunollie Park,park,ottawa,2057,dunollie,..,..,on
166065,Dunrobin Shores Park,park,ottawa,..,barlow,..,..,on
166084,Dutchie's Hole Park,park,ottawa,154,mann,..,..,on
166088,Dylan Way Park,park,ottawa,31,dylan,..,nepean,on
166103,Eaglehead Park,park,ottawa,6111,hazeldean,..,..,on
166123,East Bridle Path Park,park,ottawa,4040,bridle path,..,gloucester,on
166172,Eastvale Park,park,ottawa,740,eastvale,..,gloucester,on
166193,Eccolands Park,park,ottawa,334,river,..,gloucester,on
