Index,Facility_Name,ODRSF_facility_type,Provider,Street_No,Street_Name,Postal_Code,City,Prov_Terr
162815,Barry Mullen Park,park,ottawa,152,grandview,..,nepean,on
162824,Barwell Park,park,ottawa,921,alenmede,..,..,on
162839,Bateman Park,park,ottawa,24,bateman,..,nepean,on
162842,Bathgate Park,park,ottawa,724,bathgate,..,ottawa,on
162871,Bayshore Park,park,ottawa,175,woodridge,..,..,on
162886,Bayview Friendship Park,park,ottawa,128,bayview,..,ottawa,on
162955,Bearbrook Park And Pool,park,ottawa,99,bearbrook,..,gloucester,on
162959,Beaton Park,park,ottawa,70,castlefrank,..,kanata,on
162970,Beauclaire Park,park,ottawa,947,beauclaire,..,gloucester,on
162972,Beaufort Park,park,ottawa,56,beaufort,..,kanata,on
163004,Beaverbrook Park,park,ottawa,2500,campeau,..,kanata,on
163006,Beaverbrook Pool Park,park,ottawa,1002,beaverbrook,..,kanata,on
163010,Beaverpond Park / Graham Beasley Trail,park,ottawa,243,walden,..,kanata,on
163032,Beechcliffe Park,park,ottawa,2,beechcliffe,..,nepean,on
163052,Bel-Air Park,park,ottawa,2149,berwick,..,..,on
163062,Bell Centennial Arena And Bell Arena Park,park,ottawa,50,cassidy,..,nepean,on
163074,Bella Vista Park,park,ottawa,1541,carino,..,cumberland,on
163088,Bellevue Manor Park,park,ottawa,1520,caldwell,..,..,on
163090,Bellfield Park,park,ottawa,18,bellfield,..,nepean,on
163095,Bellwood Parkette,park,ottawa,100,bellwood,..,..,on
163121,Ben Franklin Park East,park,ottawa,180,knoxdale,..,nepean,on
163122,Ben Franklin Park West,park,ottawa,191,knoxdale,..,nepean,on
163214,Berrigan Park,park,ottawa,51,berrigan,..,..,on
163216,Berry Glen Park,park,ottawa,36,berry glen,..,nepean,on
163229,Beryl Gaffney Park,park,ottawa,3901,rideau valley,..,nepean,on
163234,Besserer Park,park,ottawa,232,fountain,..,..,on
163253,Bethune Park,park,ottawa,279,march,..,kanata,on
163282,Big Bird Park,park,ottawa,936,lawnsberry,..,cumberland,on
163296,Bilberry Park,park,ottawa,6600,bilberry,..,gloucester,on
163309,Bill Teron Park,park,ottawa,6301,campeau,..,kanata,on
163310,Billings Park,park,ottawa,495,billings,..,..,on
163312,Billy Bishop Park,park,ottawa,1,bishops mills,..,..,on
163320,Bingham Park,park,ottawa,145,cathcart,..,ottawa,on
163340,Birdland Park,park,ottawa,3,whippoorwill,..,gloucester,on
163376,Black Raven Community Park,park,ottawa,675,dundonald,..,..,on
163383,Blackburn Park,park,ottawa,190,glen park,..,gloucester,on
163393,Blackstone Park,park,ottawa,101,tapadero,..,..,on
163404,Blair Park,park,ottawa,56,winding,..,nepean,on
163445,Blue Rock Park,park,ottawa,1514,blue rock,..,..,on
163449,Blue Willow Park,park,ottawa,6011,longleaf,..,gloucester,on
163455,Bluegrass Park,park,ottawa,59,bluegrass,..,..,on
163471,Bob Mitchell Park,park,ottawa,58,fieldrow,..,nepean,on
163473,Bob Slack Park,park,ottawa,91,fowler,..,richmond,on
163482,Boisdale Park,park,ottawa,210,émerillon,..,..,on
163500,Bonaventure Park,park,ottawa,1759,bonaventure,..,gloucester,on
163524,Boothfield Park,park,ottawa,660,boothfield,..,..,on
163527,Bordeleau Park,park,ottawa,349,bruyère,..,..,on
163528,Borden Farm Park,park,ottawa,35,overlake,..,nepean,on
163531,Borduas Court Parkette,park,ottawa,8,borduas,..,..,on
