Index,Facility_Name,ODRSF_facility_type,Provider,Street_No,Street_Name,Postal_Code,City,Prov_Terr
8578,Basketball Court,sports field,ottawa,4386,spratt,..,gloucester,on
8579,Basketball Court,sports field,ottawa,70,foxfield,..,nepean,on
8580,Basketball Court,sports field,ottawa,7,sycamore,..,nepean,on
8581,Basketball Court,sports field,ottawa,3320,paul anka,..,ottawa,on
8582,Basketball Court,sports field,ottawa,3560,wyman,..,..,on
8583,Basketball Court,sports field,ottawa,2185,arch,..,ottawa,on
8584,Basketball Court,sports field,ottawa,272,ridge,..,goulbourn,on
8585,Basketball Court,sports field,ottawa,2359,orient park,..,gloucester,on
8586,Basketball Court,sports field,ottawa,175,woodridge,..,..,on
8587,Basketball Court,sports field,ottawa,99,bearbrook,..,gloucester,on
8588,Basketball Court,sports field,ottawa,154,mann,..,..,on
8589,Basketball Court,sports field,ottawa,250,holland,..,..,on
8590,Basketball Court,sports field,ottawa,55,bellrock,..,..,on
8591,Basketball Court,sports field,ottawa,100,grovehurst,..,nepean,on
8592,Basketball Court,sports field,ottawa,7064,donwel,..,greely,on
8593,Basketball Court,sports field,ottawa,1575,lakeshore,..,osgoode,on
8594,Basketball Court,sports field,ottawa,96,bridle park,..,kanata,on
8595,Basketball Court,sports field,ottawa,2890,munster,..,goulbourn,on
8596,Basketball Court,sports field,ottawa,1250,ledbury,..,..,on
8597,Basketball Court,sports field,ottawa,22,brisbane,..,nepean,on
8598,Basketball Court,sports field,ottawa,999,heron,..,..,on
8599,Basketball Court,sports field,ottawa,1200,cedarcroft,..,gloucester,on
8600,Basketball Court,sports field,ottawa,25,bie,..,nepean,on
8601,Basketball Court,sports field,ottawa,1465,ridgebrook,..,gloucester,on
8602,Basketball Court,sports field,ottawa,645,parkview,..,ottawa,on
8603,Basketball Court,sports field,ottawa,52,bayview,..,ottawa,on
8604,Basketball Court,sports field,ottawa,1,windsor,..,..,on
8605,Basketball Court,sports field,ottawa,166,frank,..,ottawa,on
8606,Basketball Court,sports field,ottawa,83,amberwood,..,..,on
8607,Basketball Court,sports field,ottawa,30,woodfield,..,nepean,on
8621,Basketball Court,sports field,ottawa,2955,michèle,..,..,on
8622,Basketball Court,sports field,ottawa,2955,michèle,..,..,on
8623,Basketball Court,sports field,ottawa,6250,beauséjour,..,..,on
8624,Basketball Court,sports field,ottawa,43,ste-cécile,..,ottawa,on
8625,Basketball Court,sports field,ottawa,43,ste-cécile,..,ottawa,on
8719,Basketball Key,sports field,ottawa,6480,doctor blair,..,..,on
8720,Basketball Key,sports field,ottawa,27,hobin,..,goulbourn,on
8721,Basketball Key,sports field,ottawa,..,..,..,..,on
8722,Basketball Key,sports field,ottawa,3165,uplands,..,ottawa,on
8723,Basketball Key,sports field,ottawa,44,tartan,..,nepean,on
8724,Basketball Key,sports field,ottawa,44,tartan,..,nepean,on
8725,Basketball Key,sports field,ottawa,16,rowley,..,..,on
8726,Basketball Key,sports field,ottawa,1309,randall,..,..,on
8727,Basketball Key,sports field,ottawa,75,flanders,..,nepean,on
8728,Basketball Key,sports field,ottawa,6018,voyageur,..,gloucester,on
8729,Basketball Key,sports field,ottawa,223,iona,..,ottawa,on
8730,Basketball Key,sports field,ottawa,223,iona,..,ottawa,on
8731,Basketball Key,sports field,ottawa,59,bluegrass,..,..,on
8732,Basketball Key,sports field,ottawa,262,len purcell,..,carleton,on
