Index,Facility_Name,ODRSF_facility_type,Provider,Street_No,Street_Name,Postal_Code,City,Prov_Terr
18448,Windsor Park Ottawa,sports field,ottawa,..,..,..,..,on
18470,Winterwood Park,sports field,ottawa,..,..,..,..,on
18471,Winterwood Park,sports field,ottawa,..,..,..,..,on
18543,Woodroffe Avenue Public School,sports field,ottawa,235,woodroffe,..,..,on
18544,Woodroffe High School,sports field,ottawa,2410,prom georgina,..,..,on
18545,Woodroffe High School,sports field,ottawa,2410,prom georgina,..,..,on
18546,Woodroffe Park,sports field,ottawa,180,lockhart,..,..,on
18596,Yves Chénier Park,sports field,ottawa,3585,sarsfield,..,cumberland,on
18597,Yves Chénier Park,sports field,ottawa,3585,sarsfield,..,cumberland,on
18598,Yves Richer Park,sports field,ottawa,499,des-épinettes,..,ottawa,on
18599,Yves Richer Park,sports field,ottawa,499,des-épinettes,..,ottawa,on
21182,Bailout,trail,ottawa,..,..,..,..,on
21183,Bailout,trail,ottawa,..,..,..,..,on
21184,Bailout,trail,ottawa,..,..,..,..,on
21400,Beartree,trail,ottawa,..,..,..,..,on
21401,Beartree,trail,ottawa,..,..,..,..,on
21402,Beartree,trail,ottawa,..,..,..,..,on
21403,Beartree,trail,ottawa,..,..,..,..,on
21404,Beartree,trail,ottawa,..,..,..,..,on
22483,Brady,trail,ottawa,..,..,..,..,on
23349,Cannonball Run,trail,ottawa,..,..,..,..,on
23350,Cannonball Run,trail,ottawa,..,..,..,..,on
23351,Cannonball Run,trail,ottawa,..,..,..,..,on
23352,Cannonball Run,trail,ottawa,..,..,..,..,on
25361,Deerdrop,trail,ottawa,..,..,..,..,on
25362,Deerdrop Bypass,trail,ottawa,..,..,..,..,on
26868,Fast Out,trail,ottawa,..,..,..,..,on
26869,Fast Out,trail,ottawa,..,..,..,..,on
26870,Fast Out,trail,ottawa,..,..,..,..,on
26871,Fast Out,trail,ottawa,..,..,..,..,on
26872,Fast Out,trail,ottawa,..,..,..,..,on
26873,Fast Out,trail,ottawa,..,..,..,..,on
26874,Fast Out,trail,ottawa,..,..,..,..,on
27307,Forestbrook,trail,ottawa,..,..,..,..,on
27856,Garter Belt,trail,ottawa,..,..,..,..,on
30010,Imba,trail,ottawa,..,..,..,..,on
30011,Imba,trail,ottawa,..,..,..,..,on
30012,Imba,trail,ottawa,..,..,..,..,on
30013,Imba,trail,ottawa,..,..,..,..,on
30014,Imba,trail,ottawa,..,..,..,..,on
31235,Kenneth J. Watkins Pathway,trail,ottawa,..,..,..,..,on
31482,Klondike,trail,ottawa,..,..,..,..,on
31483,Klondike,trail,ottawa,..,..,..,..,on
31484,Klondike,trail,ottawa,..,..,..,..,on
31485,Klondike,trail,ottawa,..,..,..,..,on
31486,Klondike,trail,ottawa,..,..,..,..,on
31487,Klondike Ext,trail,ottawa,..,..,..,..,on
36142,M Line,trail,ottawa,..,..,..,..,on
48265,North Dogsled,trail,ottawa,..,..,..,..,on
