Index,Facility_Name,ODRSF_facility_type,Provider,Street_No,Street_Name,Postal_Code,City,Prov_Terr
13949,Nepean Sportsplex Park,sports field,ottawa,1701,woodroffe,..,..,on
13952,New Edinburgh Park,sports field,ottawa,..,..,..,..,on
13953,New Edinburgh Park,sports field,ottawa,193,stanley,..,..,on
13996,Norman Johnston Secondary Alternate Program,sports field,ottawa,2401,crois,..,cleroux,on
14022,North Vineyard Park,sports field,ottawa,..,..,..,..,on
14023,North Vineyard Park,sports field,ottawa,..,..,..,..,on
14024,North Vineyard Park,sports field,ottawa,6018,voyageur,..,gloucester,on
14025,North Vineyard Sports Fields,sports field,ottawa,..,..,..,ottawa,on
14057,Notre Dame High School,sports field,ottawa,710,broadview,..,..,on
14059,Notre-Dame-Des-Champs Park,sports field,ottawa,3659,navan,..,gloucester,on
14139,Olmstead Park,sports field,ottawa,26,viewmount,..,nepean,on
14169,Orléans Tennis Club,sports field,ottawa,1257,joseph drouin,..,gloucester,on
14170,Orlando Park Annex,sports field,ottawa,..,..,..,..,on
14171,Orlando Park Annex,sports field,ottawa,..,..,..,..,on
14172,Orlando Park Annex,sports field,ottawa,..,..,..,..,on
14173,Orlando Park Annex,sports field,ottawa,..,..,..,..,on
14178,Osgoode Community Centre,sports field,ottawa,..,..,..,..,on
14179,Osgoode Community Centre,sports field,ottawa,..,..,..,..,on
14180,Osgoode Community Centre,sports field,ottawa,..,..,..,..,on
14181,Osgoode Community Centre,sports field,ottawa,5660,osgoode main,..,osgoode,on
14182,Osgoode Community Centre,sports field,ottawa,5660,osgoode main,..,osgoode,on
14183,Osgoode Public School,sports field,ottawa,5590,osgoode,..,..,on
14184,Osgoode Township High School,sports field,ottawa,2800,ch8th line,..,..,on
14185,Osgoode Township High School,sports field,ottawa,2800,ch8th line,..,..,on
14186,Osgoode Village Park,sports field,ottawa,..,..,..,..,on
14197,Ottawa Athletic Club (Tennis),sports field,ottawa,2525,lancaster,..,ottawa,on
14198,Ottawa Business Park,sports field,ottawa,..,..,..,..,on
14199,Ottawa Business Park,sports field,ottawa,..,..,..,..,on
14200,Ottawa Business Park,sports field,ottawa,..,..,..,..,on
14201,Ottawa Business Park,sports field,ottawa,..,..,..,..,on
14202,Ottawa Business Park,sports field,ottawa,..,..,..,..,on
14203,Ottawa Business Park,sports field,ottawa,3035,conroy,..,ottawa,on
14204,Ottawa Business Park,sports field,ottawa,3035,conroy,..,ottawa,on
14205,Ottawa Hunt & Golf Club,sports field,ottawa,..,..,..,ottawa,on
14206,Ottawa Hunt And Golf Club,sports field,ottawa,..,..,..,ottawa,on
14207,Ottawa New Edinburgh Club,sports field,ottawa,504,sir george-étienne cartier,..,ottawa,on
14208,Ottawa Stadium,sports field,ottawa,..,..,..,ottawa,on
14209,Ottawa Technical Secondary School,sports field,ottawa,485,donald,..,..,on
14210,Ottawa Technical Secondary School,sports field,ottawa,485,donald,..,..,on
14211,Ottawa Tennis And Lawn Bowling Club,sports field,ottawa,..,..,..,ottawa,on
14212,Ottawa Tennis And Lawn Bowling Club,sports field,ottawa,176,cameron,..,..,on
14218,Ouellette Park,sports field,ottawa,..,..,..,..,on
14238,Overbrook Park,sports field,ottawa,..,..,..,..,on
14245,Owl Park,sports field,ottawa,..,..,..,..,on
14246,Owl Park,sports field,ottawa,..,..,..,..,on
14275,Palmerston Park,sports field,ottawa,1326,ogilvie,..,gloucester,on
14702,Pauline Vanier Park,sports field,ottawa,1015,harkness,..,..,on
14703,Pauline Vanier Park,sports field,ottawa,1015,harkness,..,..,on
14711,Pebble Trail Park,sports field,ottawa,..,..,..,..,on
