Index,Facility_Name,ODRSF_facility_type,Provider,Street_No,Street_Name,Postal_Code,City,Prov_Terr
166905,Foot Guards Park,park,ottawa,226,leamington,..,nepean,on
166908,Forbes Park,park,ottawa,669,paul,..,..,on
166921,Forest Creek Park,park,ottawa,21,amy,..,goulbourn,on
166925,Forest Glen Park,park,ottawa,6091,forestglen,..,gloucester,on
166953,Forestbrook Park,park,ottawa,201,forestbrook,..,kanata,on
166954,Forestglade Park,park,ottawa,62,forestglade,..,..,on
166959,Forestview Park,park,ottawa,74,forestview,..,..,on
166990,Fosterbrook Park,park,ottawa,428,fosterbrook,..,nepean,on
166997,Fountainhead Park,park,ottawa,105,felicity,..,gloucester,on
167001,Four Seasons Park,park,ottawa,4386,spratt,..,gloucester,on
167023,François Dupont Park,park,ottawa,755,champlain,..,cumberland,on
167043,Frank J. Licari Park,park,ottawa,1990,cochrane,..,..,on
167046,Frank Ryan Park,park,ottawa,950,alpine,..,..,on
167063,Fraser Fields Parkette,park,ottawa,309,harthill,..,nepean,on
167111,Frenette Park,park,ottawa,1654,frenette,..,cumberland,on
167113,Freshwater Parkette,park,ottawa,3025,freshwater,..,nepean,on
167115,Friar Gate Park,park,ottawa,6368,friar,..,gloucester,on
167121,Fringewood Park - Phase 2,park,ottawa,1,poole creek,..,goulbourn,on
167122,Fringewood Park And Community Centre,park,ottawa,14,fringewood,..,goulbourn,on
167144,Furness Park,park,ottawa,99,furness,..,nepean,on
167155,Gérald Poulin Park,park,ottawa,1899,du-clairvaux,..,gloucester,on
167208,Gardenway Park,park,ottawa,2001,gardenway,..,cumberland,on
167211,Garfield Park,park,ottawa,2019,garfield,..,..,on
167216,Garneau Park,park,ottawa,1567,champneuf,..,gloucester,on
167247,Gateshead Park,park,ottawa,2,spalding,..,..,on
167269,General Burns Park,park,ottawa,107,chesterton,..,nepean,on
167278,Geoff Wightman Park,park,ottawa,100,kamloops,..,..,on
167301,George Mclean Park,park,ottawa,5348,mclean,..,..,on
167305,George Nelms Sports Park,park,ottawa,5650,mitch owens,..,..,on
167319,George Wilson Park,park,ottawa,9,virgil,..,nepean,on
167320,George-Dassylva Park,park,ottawa,670,monardia,..,..,on
167371,Gesner Court Park,park,ottawa,25,gesner,..,..,on
167372,Ghosh Park,park,ottawa,45,cellini,..,..,on
167389,Gilbey Park,park,ottawa,17,gilbey,..,nepean,on
167394,Gill Park,park,ottawa,107,gill park,..,carleton,on
167396,Gillespie Park,park,ottawa,3601,riverside,..,ottawa,on
167400,Gil-O-Julien Park,park,ottawa,201,donald,..,ottawa,on
167406,Glabar Park,park,ottawa,845,hare,..,..,on
167420,Glandriel Park,park,ottawa,2130,valin,..,cumberland,on
167429,Glebe Memorial Park,park,ottawa,75,glendale,..,..,on
167445,Glen Cairn Community Centre / Morrena Park,park,ottawa,190,morrena,..,kanata,on
167468,Glen Park,park,ottawa,1756,grey nuns,..,gloucester,on
167522,Glenmanor Park,park,ottawa,33,glenmanor,..,nepean,on
167541,Gloucester Hydro Park,park,ottawa,1078,blair,..,gloucester,on
167545,Goddard Street Park,park,ottawa,1304,potter,..,rideau,on
167601,Golden Triangle Park,park,ottawa,33,maclaren,..,ottawa,on
167620,Golflinks Park,park,ottawa,50,golflinks,..,nepean,on
167667,Gospel Oak Park,park,ottawa,55,gospel oak,..,nepean,on
167678,Gow Park,park,ottawa,1009,beaverbrook,..,kanata,on
