Index,Facility_Name,ODRSF_facility_type,Provider,Street_No,Street_Name,Postal_Code,City,Prov_Terr
162203,Alexander Park,park,ottawa,960,silver,..,ottawa,on
162221,Alfred Mccoy Park,park,ottawa,73,ridge,..,stittsville,on
162245,Allegro Park,park,ottawa,523,allegro,..,cumberland,on
162247,Allenby Park,park,ottawa,7,allenby,..,kanata,on
162250,Alliance Park,park,ottawa,398,codd's,..,..,on
162268,Alphabet Park,park,ottawa,225,scout,..,ottawa,on
162276,Alta Vista Park,park,ottawa,1309,randall,..,..,on
162279,Alvin Heights Park,park,ottawa,352,london,..,..,on
162302,Amberway Park,park,ottawa,11,denham,..,goulbourn,on
162305,Ambleside Park,park,ottawa,1083,ambleside,..,ottawa,on
162341,Andrew Haydon Park,park,ottawa,3127,carling,..,..,on
162349,Andy Shields Park,park,ottawa,1448,meadow,..,osgoode,on
162370,Anish√† Park,park,ottawa,4355,kelly farm,..,..,on
162396,Anthony Vincent Park,park,ottawa,14,bedford,..,..,on
162401,Apollo Crater Park,park,ottawa,600,apollo,..,cumberland,on
162402,Appaloosa Park,park,ottawa,37,appaloosa,..,kanata,on
162419,Appleford Park,park,ottawa,1879,appleford,..,gloucester,on
162422,Appleton Park,park,ottawa,1437,appleton,..,gloucester,on
162427,Applewood Park,park,ottawa,134,begonia,..,..,on
162431,Aquaview Park,park,ottawa,318,aquaview,..,cumberland,on
162434,Arbeatha Park,park,ottawa,105,arbeatha,..,nepean,on
162447,Arbuckle Park,park,ottawa,134,hamilton,..,goulbourn,on
162459,Arcadia Park,park,ottawa,175,calvington,..,..,on
162471,Archie Park,park,ottawa,179,archie,..,carleton,on
162487,Arlington Park,park,ottawa,165,arlington,..,..,on
162492,Arlington Woods Park,park,ottawa,270,mcclellan,..,nepean,on
162518,Armstrong Park (Kanata),park,ottawa,19,penfield,..,kanata,on
162519,Armstrong Park (Old Ottawa),park,ottawa,69,armstrong,..,ottawa,on
162524,Arnold Park,park,ottawa,46,arnold,..,nepean,on
162527,Arnott Park,park,ottawa,691,hartman,..,..,on
162565,Ascot Park,park,ottawa,10,ascot,..,..,on
162589,Ashton Park And Cavanagh Community Centre,park,ottawa,8930,flewellyn,..,goulbourn,on
162618,Aston Woods Park,park,ottawa,1245,upton,..,rideau,on
162624,Athans Park,park,ottawa,1779,st barbara,..,gloucester,on
162650,August Park,park,ottawa,544,ponthieu,..,..,on
162675,Avebury Park,park,ottawa,2126,avebury,..,cumberland,on
162698,Baden Park,park,ottawa,3900,autumnwood,..,gloucester,on
162705,Bairds Park,park,ottawa,2388,fitzroy,..,carleton,on
162718,Balena Park,park,ottawa,1640,devon,..,ottawa,on
162725,Ballantyne Park,park,ottawa,31,hawthorne,..,..,on
162751,Bandmaster Park,park,ottawa,230,mistral,..,goulbourn,on
162763,Banner Park,park,ottawa,90,banner,..,nepean,on
162765,Bannockburn Park,park,ottawa,1557,landel,..,kanata,on
162769,Banyon Park,park,ottawa,70,abaca,..,goulbourn,on
162781,Barcham Park,park,ottawa,80,bren-maur,..,nepean,on
162795,Barnabe Park,park,ottawa,1797,des-epinettes,..,gloucester,on
162798,Barnett Park,park,ottawa,2045,174,..,..,on
162803,Baroness Park,park,ottawa,2,crestway,..,nepean,on
162807,Barrhaven Mews Park,park,ottawa,1010,andora,..,..,on
