Index,Facility_Name,ODRSF_facility_type,Provider,Street_No,Street_Name,Postal_Code,City,Prov_Terr
5248,Roving Skateboard Park Location,skate park,ottawa,110,malvern,..,..,on
5249,Roving Skateboard Park Location,skate park,ottawa,1448,meadow,..,..,on
5250,Roving Skateboard Park Location,skate park,ottawa,5660,osgoode main,..,..,on
5251,Roving Skateboard Park Location,skate park,ottawa,2785,8th line,..,..,on
5279,Russell Heights Outdoor Rink,rink,ottawa,1761,russell,..,..,on
5327,Sandy Hill Arena,arena,ottawa,..,..,..,ottawa,on
5336,Sawmill Creek C.C. And Pool,pool,ottawa,3380,d'aoust,K1T 1R5,ottawa,on
5337,Sawmill Creek Pool,pool,ottawa,..,..,..,ottawa,on
5369,Sens Rink,rink,ottawa,1560,heatherington,..,..,on
5370,Sens Rink,rink,ottawa,400,clarence,..,..,on
5371,Sens Rink,rink,ottawa,175,woodridge,..,..,on
5372,Sens Rink Of Dreams,rink,ottawa,110,laurier,..,..,on
5486,Skating Court,rink,ottawa,450,queen elizabeth,..,..,on
5709,Splash Pad,splash pad,ottawa,1841,elmridge,..,gloucester,on
5710,Splash Pad,splash pad,ottawa,1027,klondike,..,kanata,on
5711,Splash Pad,splash pad,ottawa,2095,provence,..,cumberland,on
5712,Splash Pad,splash pad,ottawa,2001,gardenway,..,cumberland,on
5713,Splash Pad,splash pad,ottawa,1899,du-clairvaux,..,gloucester,on
5714,Splash Pad,splash pad,ottawa,895,greenbank,..,nepean,on
5715,Splash Pad,splash pad,ottawa,6940,bilberry,..,gloucester,on
5716,Splash Pad,splash pad,ottawa,1505,cahill,..,ottawa,on
5717,Splash Pad,splash pad,ottawa,37,chartwell,..,..,on
5718,Splash Pad,splash pad,ottawa,295,churchill,..,..,on
5719,Splash Pad,splash pad,ottawa,1861,markwell,..,gloucester,on
5720,Splash Pad,splash pad,ottawa,75,glendale,..,..,on
5721,Splash Pad,splash pad,ottawa,1766,grey,..,gloucester,on
5722,Splash Pad,splash pad,ottawa,2040,jasmine,..,gloucester,on
5723,Splash Pad,splash pad,ottawa,2554,kaladar,..,..,on
5724,Splash Pad,splash pad,ottawa,1060,cummings,..,gloucester,on
5725,Splash Pad,splash pad,ottawa,424,chapman,..,nepean,on
5726,Splash Pad,splash pad,ottawa,21,dayton,..,..,on
5727,Splash Pad,splash pad,ottawa,265,britannia,..,ottawa,on
5728,Splash Pad,splash pad,ottawa,1485,meadowbrook,..,gloucester,on
5729,Splash Pad,splash pad,ottawa,6026,voyageur,..,gloucester,on
5730,Splash Pad,splash pad,ottawa,6218,voyageur,..,gloucester,on
5731,Splash Pad,splash pad,ottawa,3939,albion,..,gloucester,on
5732,Splash Pad,splash pad,ottawa,1859,stonehenge,..,gloucester,on
5733,Splash Pad,splash pad,ottawa,45,provender,..,..,on
5734,Splash Pad,splash pad,ottawa,285,citiplace,..,nepean,on
5735,Splash Pad,splash pad,ottawa,179,primrose,..,..,on
5736,Splash Pad,splash pad,ottawa,1485,duford,..,cumberland,on
5737,Splash Pad,splash pad,ottawa,6105,silverbirch,..,gloucester,on
5738,Splash Pad,splash pad,ottawa,288,chapel,..,ottawa,on
5739,Splash Pad,splash pad,ottawa,861,stanstead,..,ottawa,on
5740,Splash Pad,splash pad,ottawa,1735,st bernard,..,gloucester,on
5741,Splash Pad,splash pad,ottawa,990,cobble,..,nepean,on
5742,Splash Pad,splash pad,ottawa,250,holland,..,..,on
5743,Splash Pad,splash pad,ottawa,4101,innovation,..,kanata,on
5744,Splash Pad,splash pad,ottawa,4355,kelly farm,..,..,on
