Index,Facility_Name,ODRSF_facility_type,Provider,Street_No,Street_Name,Postal_Code,City,Prov_Terr
176732,Sugar Creek Park,park,ottawa,13,basford,..,goulbourn,on
176757,Summerhill Park,park,ottawa,560,summerhill,..,..,on
176817,Sunray Park,park,ottawa,22,sunray,..,goulbourn,on
176855,Sutherland Drive Park,park,ottawa,6564,lewis,..,rideau,on
176878,Sweetnam Park,park,ottawa,30,sweetnam,..,goulbourn,on
176879,Sweetvalley Park,park,ottawa,180,sweetvalley,..,..,on
176898,Syd And Verna Cotton Park,park,ottawa,1070,forest lea,..,cumberland,on
176909,Sylvia Holden Park,park,ottawa,641,o'connor,..,ottawa,on
176910,Sylvia Holden Park Annex,park,ottawa,625,o'connor,..,ottawa,on
176934,Talcy Park,park,ottawa,1359,talcy,..,cumberland,on
176940,Tallwood Park,park,ottawa,18,mattamy,..,..,on
176950,Tanglewood Park,park,ottawa,30,woodfield,..,nepean,on
176951,Tanmount Park,park,ottawa,283,goldridge,..,kanata,on
176976,Tauvette Park,park,ottawa,2436,innes,..,gloucester,on
176990,Taylor Park,park,ottawa,5449,taylor,..,osgoode,on
177015,Tempest Park,park,ottawa,201,tempest,..,goulbourn,on
177021,Temporary Parkette (2017-2022),park,ottawa,234,o'connor,..,..,on
177036,Terry Carisse Park,park,ottawa,3035,steeple hill,..,..,on
177041,Terry Fox Park,park,ottawa,1175,ste-thérèse,..,..,on
177130,Thornecliffe Park,park,ottawa,45,provender,..,..,on
177173,Tierney Park,park,ottawa,50,heritage glen,..,nepean,on
177176,Tiger Lily Park,park,ottawa,211,hillman marsh,..,gloucester,on
177178,Tillbury Park,park,ottawa,725,sherbourne,..,ottawa,on
177205,Tintern Park,park,ottawa,1314,tintern,..,osgoode,on
177236,Tom Thomson Park,park,ottawa,1021,teron,..,kanata,on
177274,Topley Park,park,ottawa,32,topley,..,..,on
177312,Totteridge Park,park,ottawa,11,totteridge,..,..,on
177327,Traditions Park,park,ottawa,459,ridge,..,goulbourn,on
177366,Trappers Park,park,ottawa,3580,trapper's,..,gloucester,on
177386,Trend Park,park,ottawa,36,canfield,..,nepean,on
177387,Trend-Arlington Park,park,ottawa,50,bellman,..,nepean,on
177393,Trevor Park,park,ottawa,5,trevor,..,..,on
177394,Trevor Vance Park,park,ottawa,129,goodman,..,kanata,on
177404,Trillium Park,park,ottawa,2030,ogilvie,..,gloucester,on
177406,Trillium Park (Nepean),park,ottawa,58,eleanor,..,nepean,on
177409,Trillium Woods Park,park,ottawa,800,old second line,..,kanata,on
177413,Trojan Park,park,ottawa,901,trojan,..,..,on
177419,Troyes Park,park,ottawa,7946,décarie,..,..,on
177430,Trustee M. Curry Park,park,ottawa,85,hartsmere,..,goulbourn,on
177431,Tucana Park,park,ottawa,325,tucana,..,nepean,on
177437,Tulip Tree Park,park,ottawa,520,tulip tree,..,..,on
177455,Turtle Park,park,ottawa,720,white alder,..,gloucester,on
177484,Twin Lakes Park,park,ottawa,1044,old prescott,..,osgoode,on
177681,Upcountry Park,park,ottawa,310,upcountry,..,goulbourn,on
177684,Uplands Park,park,ottawa,3165,uplands,..,ottawa,on
177690,Uplands Riverside Park,park,ottawa,3860,riverside,..,ottawa,on
177719,Utman Park,park,ottawa,280,mountshannon,..,nepean,on
177726,Valin Park And South Fallingbrook Community Centre,park,ottawa,998,valin,..,cumberland,on
177752,Valleystream East Park,park,ottawa,92,gladecrest,..,..,on
