Index,Facility_Name,ODRSF_facility_type,Provider,Street_No,Street_Name,Postal_Code,City,Prov_Terr
170370,Linda Dunn Park,park,ottawa,1885,celeste,..,cumberland,on
170371,Linda Thom Park,park,ottawa,1324,bank,..,ottawa,on
170377,Lindenlea Park,park,ottawa,15,rockcliffe,..,ottawa,on
170378,Lindenshade Park,park,ottawa,160,lindenshade,..,..,on
170392,Linear Park,park,ottawa,153,king edward,..,..,on
170403,Linton Park,park,ottawa,1000,walkley,..,ottawa,on
170406,Lionel Britton Park,park,ottawa,19,fifth,..,..,on
170427,Lion's Park,park,ottawa,294,elmgrove,..,..,on
170436,Lisa Park,park,ottawa,6,lisa,..,..,on
170442,Lisgar Parkette,park,ottawa,342,nepean,..,ottawa,on
170445,Lismer Pines Park,park,ottawa,18,kimmons,..,..,on
170474,Littlerock Park,park,ottawa,920,littlerock,..,..,on
170504,Lockwood Park,park,ottawa,22,seguin,..,gloucester,on
170507,Logan Lea Park,park,ottawa,51,steacie,..,kanata,on
170511,Lola Park,park,ottawa,1122,lola,..,..,on
170520,London Terrace Park,park,ottawa,355,london,..,..,on
170527,Long Island Road Park,park,ottawa,5331,long island,..,rideau,on
170532,Longleaf Park,park,ottawa,5831,gladewoods,..,..,on
170564,Lorry Greenberg Park,park,ottawa,1968,castlewood,..,..,on
170577,Louis Perrault Park,park,ottawa,6250,beauséjour,..,..,on
170579,Louis Turner Park,park,ottawa,1190,old second line,..,kanata,on
170623,Loyola Park,park,ottawa,956,loyola,..,gloucester,on
170628,Lt. Col. William G. Barker Vc Park,park,ottawa,..,codd's,..,..,on
170630,Luc Major Park,park,ottawa,956,bilberry,..,gloucester,on
170639,Ludger Landry Park,park,ottawa,4825,piperville,..,gloucester,on
170665,Lynda Lane Park,park,ottawa,580,smyth,..,ottawa,on
170690,Lynwood Park,park,ottawa,7,sycamore,..,nepean,on
170694,Lytle Park (Kanata),park,ottawa,1010,beaverbrook,..,kanata,on
170695,Lytle Park (Nepean),park,ottawa,4401,o'keefe,..,..,on
170714,Macdonald Gardens Park,park,ottawa,99,cobourg,..,ottawa,on
170757,Madison Park,park,ottawa,56,whitestone,..,ottawa,on
170761,Maestro Park,park,ottawa,140,maestro,..,..,on
170778,Mahoney Park,park,ottawa,160,lanark,..,..,on
170801,Major W. Ross Chamberlain Park,park,ottawa,520,bridgeport,..,..,on
170805,Maki Park,park,ottawa,19,leeming,..,nepean,on
170822,Maloja Park,park,ottawa,740,maloja,..,..,on
170828,Malvern Park,park,ottawa,100,malvern,..,nepean,on
170837,Mancini Park,park,ottawa,110,mancini,..,..,on
170847,Manor Park,park,ottawa,100,braemar,..,ottawa,on
170850,Manordale Park,park,ottawa,60,knoxdale,..,nepean,on
170851,Manotick Remembrance Park,park,ottawa,5517,dickinson,..,..,on
170903,Maplehill Park,park,ottawa,35,maplehill,..,nepean,on
170918,Maplewood Park,park,ottawa,115,pinelock,..,..,on
170924,Marathon Park,park,ottawa,210,linda,..,..,on
170927,Marble Park,park,ottawa,2693,marble,..,..,on
170929,Marcel Bériault Park,park,ottawa,1691,sunview,..,gloucester,on
170931,Marcel Lalande Park,park,ottawa,2157,northlands,..,cumberland,on
170933,March Central Community Centre And Park,park,ottawa,630,cameron harvey,..,kanata,on
170934,Marchand Park,park,ottawa,1157,kenaston,..,gloucester,on
