Index,Facility_Name,ODRSF_facility_type,Provider,Street_No,Street_Name,Postal_Code,City,Prov_Terr
171967,Mulligan Park,park,ottawa,70,mountshannon,..,nepean,on
171985,Munster North Park,park,ottawa,2778,munster,..,goulbourn,on
171993,Murphy Park,park,ottawa,1408,lowen,..,gloucester,on
171996,Murphy's Point Pp,park,kingston,..,..,..,..,on
172013,Mystery Park,park,ottawa,985,orléans,..,..,on
172017,Nairn Park,park,ottawa,141,kincardine,..,kanata,on
172022,Nanaimo Park,park,ottawa,48,nanaimo,..,nepean,on
172043,Naskapi Ridge Park,park,ottawa,2051,naskapi,..,gloucester,on
172056,Nault Park,park,ottawa,325,st denis,..,vanier,on
172058,Navaho Park,park,ottawa,2031,navaho,..,ottawa,on
172059,Navan Centennial Park,park,ottawa,3591,wickham,..,..,on
172062,Ncc Aubrey Moodie Park,park,ottawa,595,moodie,..,nepean,on
172074,Neill Nesbitt Park,park,ottawa,70,foxfield,..,nepean,on
172075,Neilson Park,park,ottawa,59,varley,..,..,on
172094,Nepean Creek Park / Charmaine Hooper Fields,park,ottawa,15,colonnade,..,nepean,on
172095,Nepean Pond Park,park,ottawa,81,colonnade,..,..,on
172096,Nepean Sportsplex Park,park,ottawa,1701,woodroffe,..,..,on
172109,New Edinburgh Park,park,ottawa,193,stanley,..,..,on
172110,New Orchard Park,park,ottawa,243,new orchard,..,..,on
172147,Nimiq Park,park,ottawa,5058,bluff,..,gloucester,on
172175,Norman Edwards Park,park,ottawa,155,sunshine,..,cumberland,on
172203,North Harrow Park,park,ottawa,32,harrow,..,nepean,on
172232,North River Road Parkette,park,ottawa,291,north-river,..,vanier,on
172233,North Sawmill Creek Park,park,ottawa,3600,albion,..,gloucester,on
172237,North Vineyard Park,park,ottawa,6018,voyageur,..,gloucester,on
172403,Notre-Dame-Des-Champs Park,park,ottawa,3659,navan,..,gloucester,on
172454,Oakview Park,park,ottawa,10,oakview,..,..,on
172494,Ogilvie North Park,park,ottawa,1059,ogilvie,..,gloucester,on
172496,Ogilvie South Park,park,ottawa,2054,jasmine,..,gloucester,on
172502,Okanagan Park,park,ottawa,59,okanagan,..,nepean,on
172516,Old March Town Hall Park,park,ottawa,821,march,..,kanata,on
172536,Oldfield Park,park,ottawa,49,oldfield,..,nepean,on
172549,Olmstead Park,park,ottawa,26,viewmount,..,nepean,on
172594,Optimiste Park,park,ottawa,43,ste-cécilevanier,..,..,on
172602,Orchard Hollow Park,park,ottawa,1091,orchard hollow,..,rideau,on
172606,Orchard Park,park,ottawa,235,kilspindie,..,..,on
172624,Orlando Park,park,ottawa,2347,orlando,..,..,on
172625,Orlando Park Annex,park,ottawa,2347,orlando,..,..,on
172631,Osborne Park,park,ottawa,21,osborne,..,ottawa,on
172638,Osgoode Village Park,park,ottawa,5701,philip,..,osgoode,on
172645,Ottawa Business Park,park,ottawa,3035,conroy,..,ottawa,on
172648,Otterson Park,park,ottawa,..,upper otterson,..,..,on
172654,Ouellette Park,park,ottawa,530,strasbourg,..,cumberland,on
172662,Overbrook Park,park,ottawa,33,quill,..,ottawa,on
172670,Owl Park,park,ottawa,215,owl,..,ottawa,on
172672,Owl Valley Park / Shoreline Park,park,ottawa,4180,owl valley,..,gloucester,on
172674,Owlshead Park,park,ottawa,14,owlshead,..,goulbourn,on
172704,Paget Park,park,ottawa,801,springland,..,ottawa,on
172723,Palmadeo Park,park,ottawa,80,palmadeo,..,nepean,on
