Index,Facility_Name,ODRSF_facility_type,Provider,Street_No,Street_Name,Postal_Code,City,Prov_Terr
177772,Van Rens Park,park,ottawa,8256,van rens,..,osgoode,on
177774,Van Vliet Park,park,ottawa,1064,hill,..,rideau,on
177801,Varennes Park,park,ottawa,1595,varennes,..,cumberland,on
177805,Varley Park,park,ottawa,56,varley,..,kanata,on
177825,Vernon Park,park,ottawa,7814,lawrence,..,osgoode,on
177873,Victoria Park,park,ottawa,8215,victoria,..,osgoode,on
177892,Viewmount Park,park,ottawa,230,viewmount,..,nepean,on
177898,Village Green Memorial Park,park,ottawa,10,colchester,..,..,on
177899,Village Green Park,park,ottawa,270,springfield,..,rockcliffe,on
177907,Village Square Park,park,ottawa,6000,abbott,..,..,on
177923,Vinette Silo Park,park,ottawa,..,eric czapnik,..,..,on
177933,Vista Park,park,ottawa,720,vistapark,..,cumberland,on
177954,Voyageur Park,park,ottawa,6138,voyageur,..,gloucester,on
177964,W.C. Bowes Park,park,ottawa,1251,halton,..,..,on
177969,W.J. Bell Rotary Peace Park,park,ottawa,1751,stittsville main,..,goulbourn,on
177981,Walden Park,park,ottawa,130,walden,..,kanata,on
177995,Walkley Albion Park,park,ottawa,2930,albion,..,ottawa,on
178020,Walter Baker Park,park,ottawa,100,charlie rogers,..,..,on
178026,Walter Upton-Collins Park,park,ottawa,894,river,..,gloucester,on
178065,Water Dragon Park,park,ottawa,424,chapman mills,..,nepean,on
178089,Watershield Park,park,ottawa,125,watershield,..,nepean,on
178107,Watters Park,park,ottawa,841,clearcrest,..,cumberland,on
178108,Watt's Creek Park,park,ottawa,74,katimavik,..,..,on
178137,Weatherly Park,park,ottawa,2,maley,..,kanata,on
178138,Weatherston Street Park,park,ottawa,557,weatherston,..,kanata,on
178195,Weslock Park,park,ottawa,73,weslock,..,kanata,on
178201,West Bridle Path Park,park,ottawa,2630,bridle path,..,gloucester,on
178249,"West Ridge Park ""A""",park,ottawa,20,ridge,..,goulbourn,on
178250,West River Drive Park,park,ottawa,5506,river,..,rideau,on
178266,Westboro Kiwanis Park,park,ottawa,411,dovercourt,..,..,on
178277,Westcliffe Park,park,ottawa,681,seyton,..,nepean,on
178333,Weston Park,park,ottawa,955,pleasant park,..,ottawa,on
178355,Westwood Park,park,ottawa,2000,saville,..,..,on
178372,Weybridge Park,park,ottawa,75,flanders,..,nepean,on
178374,Whalen Park,park,ottawa,4111,kanata,..,..,on
178391,White Horse Park,park,ottawa,5484,old mill,..,gloucester,on
178400,Whitehaven / George C. Brown Park,park,ottawa,970,parkhaven,..,..,on
178410,Whiterock Park,park,ottawa,1245,matheson,..,gloucester,on
178413,Whitewood Avenue Park,park,ottawa,5490,whitewood,..,..,on
178421,Whittle-Winter Park,park,ottawa,6621,dorack,..,rideau,on
178460,Wilfred Murray Park / R.J. Kennedy Community Hall And Arena,park,ottawa,1115,dunning,..,cumberland,on
178489,William Bradley Park,park,ottawa,18,porter,..,..,on
178529,Williams Park,park,ottawa,34,tanglewood,..,nepean,on
178602,Wincanton Park,park,ottawa,489,lawler,..,cumberland,on
178631,Windsor Park Gloucester,park,ottawa,3560,wyman,..,..,on
178632,Windsor Park Ottawa,park,ottawa,1,windsor,..,..,on
178640,Winfield Park,park,ottawa,6,winfield,..,..,on
178642,Wing Officer Willa Walker Park,park,ottawa,305,lysander,..,..,on
178663,Winterwood Park,park,ottawa,1844,johnston,..,ottawa,on
