Index,Facility_Name,ODRSF_facility_type,Provider,Street_No,Street_Name,Postal_Code,City,Prov_Terr
8478,Basketball Court,sports field,ottawa,960,silver,..,ottawa,on
8479,Basketball Court,sports field,ottawa,2359,orient park,..,gloucester,on
8480,Basketball Court,sports field,ottawa,1797,des-epinettes,..,gloucester,on
8481,Basketball Court,sports field,ottawa,6591,delorme,..,gloucester,on
8482,Basketball Court,sports field,ottawa,1410,henri lauzon,..,gloucester,on
8483,Basketball Court,sports field,ottawa,1855,simard,..,gloucester,on
8484,Basketball Court,sports field,ottawa,1855,simard,..,gloucester,on
8485,Basketball Court,sports field,ottawa,1556,forest valley,..,gloucester,on
8486,Basketball Court,sports field,ottawa,1899,du-clairvaux,..,gloucester,on
8487,Basketball Court,sports field,ottawa,701,meadowridge,..,..,on
8488,Basketball Court,sports field,ottawa,1825,trim,..,cumberland,on
8489,Basketball Court,sports field,ottawa,2095,provence,..,cumberland,on
8490,Basketball Court,sports field,ottawa,681,deancourt,..,cumberland,on
8491,Basketball Court,sports field,ottawa,5660,osgoode main,..,osgoode,on
8492,Basketball Court,sports field,ottawa,205,romina,..,goulbourn,on
8493,Basketball Court,sports field,ottawa,2810,findlay creek,..,gloucester,on
8494,Basketball Court,sports field,ottawa,2920,findlay creek,..,gloucester,on
8495,Basketball Court,sports field,ottawa,33,quill,..,ottawa,on
8496,Basketball Court,sports field,ottawa,33,quill,..,ottawa,on
8497,Basketball Court,sports field,ottawa,960,silver,..,ottawa,on
8498,Basketball Court,sports field,ottawa,6860,pebble trail,..,..,on
8499,Basketball Court,sports field,ottawa,7292,parkway,..,..,on
8500,Basketball Court,sports field,ottawa,660,boothfield,..,..,on
8501,Basketball Court,sports field,ottawa,710,mikinak,..,..,on
8502,Basketball Court,sports field,ottawa,710,mikinak,..,..,on
8503,Basketball Court,sports field,ottawa,964,bronson,..,..,on
8504,Basketball Court,sports field,ottawa,641,o'connor,..,ottawa,on
8505,Basketball Court,sports field,ottawa,1095,morrison,..,ottawa,on
8506,Basketball Court,sports field,ottawa,48,nanaimo,..,nepean,on
8507,Basketball Court,sports field,ottawa,1190,deer park,..,nepean,on
8508,Basketball Court,sports field,ottawa,1500,larose,..,..,on
8509,Basketball Court,sports field,ottawa,76,inverness,..,..,on
8510,Basketball Court,sports field,ottawa,960,eiffel,..,..,on
8511,Basketball Court,sports field,ottawa,31,sutton,..,..,on
8512,Basketball Court,sports field,ottawa,1604,old wellington,..,rideau,on
8513,Basketball Court,sports field,ottawa,1099,grenon,..,..,on
8514,Basketball Court,sports field,ottawa,1463,prince of wales,..,ottawa,on
8515,Basketball Court,sports field,ottawa,5831,gladewoods,..,..,on
8516,Basketball Court,sports field,ottawa,1756,grey nuns,..,gloucester,on
8517,Basketball Court,sports field,ottawa,1756,grey nuns,..,gloucester,on
8518,Basketball Court,sports field,ottawa,956,bilberry,..,gloucester,on
8519,Basketball Court,sports field,ottawa,6940,bilberry,..,gloucester,on
8520,Basketball Court,sports field,ottawa,100,charlie rogers,..,..,on
8521,Basketball Court,sports field,ottawa,1060,cummings,..,gloucester,on
8522,Basketball Court,sports field,ottawa,33,quill,..,ottawa,on
8523,Basketball Court,sports field,ottawa,1448,meadow,..,osgoode,on
8524,Basketball Court,sports field,ottawa,108,beech,..,ottawa,on
8525,Basketball Court,sports field,ottawa,956,bilberry,..,gloucester,on
8526,Basketball Court,sports field,ottawa,1520,caldwell,..,..,on
