Index,Facility_Name,ODRSF_facility_type,Provider,Street_No,Street_Name,Postal_Code,City,Prov_Terr
169340,Kaladar Park,park,ottawa,2554,kaladar,..,..,on
169350,Karsh Park,park,ottawa,96,topley,..,..,on
169361,Katimavik Woods Park North,park,ottawa,4,katimavik,..,kanata,on
169404,Kemp Park,park,ottawa,11,robert kemp,..,gloucester,on
169417,Ken Ross Park,park,ottawa,600,longfields,..,nepean,on
169418,Ken Steele Park,park,ottawa,1195,ogilvie,..,gloucester,on
169431,Kenmore Bicentennial Park,park,ottawa,3151,yorks corners,..,osgoode,on
169454,Kenson Park,park,ottawa,1265,adirondack,..,ottawa,on
169486,Keyrock Park,park,ottawa,401,brunskill,..,kanata,on
169493,Kilbirnie Park,park,ottawa,665,kilbirnie,..,nepean,on
169515,Kilreen Park,park,ottawa,1250,southwood,..,ottawa,on
169519,Kimmins Court Park,park,ottawa,250,walden,..,kanata,on
169522,Kincardine Park,park,ottawa,46,kincardine,..,kanata,on
169523,Kindle Court Park,park,ottawa,22,briarcliffe,..,gloucester,on
169544,Kings Grant Park,park,ottawa,30,queenston,..,richmond,on
169567,Kingsmere Park,park,ottawa,2074,benjamin,..,..,on
169584,Kinsella Park,park,ottawa,1600,prestwick,..,cumberland,on
169589,Kinsmen Park,park,ottawa,27,elvina,..,gloucester,on
169626,Kittiwake Park,park,ottawa,15,kittiwake,..,goulbourn,on
169634,Kiwanis Park,park,ottawa,395,levis,..,..,on
169655,Klondike Road Park,park,ottawa,1365,halton,..,..,on
169885,Knowlton Park,park,ottawa,86,knowlton,..,nepean,on
169906,Kristina Kiss Park,park,ottawa,100,akerson,..,kanata,on
169927,La Verendrye Park,park,ottawa,625,la verendrye,..,gloucester,on
169944,Ladybird Park,park,ottawa,65,sirocco,..,goulbourn,on
169945,Ladybug Park,park,ottawa,103,inverkip,..,..,on
170022,Lakeview Park,park,ottawa,62,horner,..,nepean,on
170039,Lalande Conservation Park,park,ottawa,2145,nantes,..,cumberland,on
170058,Lamprey Park,park,ottawa,165,lamprey,..,nepean,on
170097,Langstaff Park,park,ottawa,83,frances colbert,..,carleton,on
170104,Lansdowne Park,park,ottawa,450,queen,..,..,on
170116,Larkin Park,park,ottawa,76,larkin,..,nepean,on
170119,Laroche Park,park,ottawa,52,bayview,..,ottawa,on
170128,Larsen Park,park,ottawa,41,chimo,..,kanata,on
170144,Laumann Park,park,ottawa,2,laumann,..,goulbourn,on
170170,Lavalee Plaza Park,park,ottawa,2655,monique,..,cumberland,on
170178,Lawren Harris Park,park,ottawa,23,lismer,..,..,on
170190,Lawson Park,park,ottawa,491,lawson,..,..,on
170208,Leather Leaf Park,park,ottawa,235,leather leaf,..,..,on
170211,Leboutillier Park,park,ottawa,301,leboutillier,..,..,on
170214,Ledbury Park And Pavilion,park,ottawa,1250,ledbury,..,..,on
170215,Lee Boltwood Park,park,ottawa,..,abbott,..,..,on
170233,Legacy Skate Park,park,ottawa,101,centrepointe,..,nepean,on
170256,Leitrim Park,park,ottawa,3290,leitrim,..,gloucester,on
170257,Lela Scharf Park,park,ottawa,171,spindrift,..,..,on
170264,Lenida Drive Park,park,ottawa,2405,lenida,..,rideau,on
170281,Leslie Armstrong Park And Bearbrook Community Hall,park,ottawa,8720,russell,..,cumberland,on
170285,Leslie Park,park,ottawa,21,dayton,..,..,on
170311,Lexington Park,park,ottawa,1404,lexington,..,ottawa,on
