Index,Facility_Name,ODRSF_facility_type,Provider,Street_No,Street_Name,Postal_Code,City,Prov_Terr
15249,Richmond Lions Community Park,sports field,ottawa,3302,huntley,..,goulbourn,on
15250,Richmond Lions Community Park,sports field,ottawa,3302,huntley,..,goulbourn,on
15251,Richmond Lions Sports Field,sports field,ottawa,..,..,..,ottawa,on
15253,Richmond Public School,sports field,ottawa,3499,mcbean,..,..,on
15268,Rickey Place Park,sports field,ottawa,..,..,..,..,on
15269,Rideau High School,sports field,ottawa,815,st-laurent,..,ottawa,on
15270,Rideau High School,sports field,ottawa,815,st-laurent,..,ottawa,on
15273,Rideau Sports Centre,sports field,ottawa,1,donald,..,vanier,on
15274,Rideau Tennis Club,sports field,ottawa,..,..,..,ottawa,on
15275,Rideau Tennis Club,sports field,ottawa,..,..,..,ottawa,on
15276,Rideau Valley Middle School,sports field,ottawa,6680,prom dorack,..,..,on
15277,Ridgemont High School,sports field,ottawa,2597,prom alta vista,..,..,on
15314,Riverain Park,sports field,ottawa,400,north-river,..,vanier,on
15315,Riverain Park,sports field,ottawa,400,north-river,..,vanier,on
15364,Riverview Park,sports field,ottawa,256,knox,..,..,on
15369,Robert E. Wilson Public School,sports field,ottawa,373,mcarthur,..,..,on
15370,Robert E. Wilson Public School,sports field,ottawa,373,mcarthur,..,..,on
15383,Robinson Field,sports field,ottawa,..,..,..,..,on
15384,Robinson Field,sports field,ottawa,..,..,..,..,on
15396,Rockcliffe Lawn Tennis Club,sports field,ottawa,465,lawsdowne,..,rockcliffe,on
15397,Rockcliffe Park Public School,sports field,ottawa,350,buena vista,..,..,on
15411,Roland Michener Park,sports field,ottawa,..,..,..,..,on
15412,Roland Michener Park,sports field,ottawa,..,..,..,..,on
15413,Roland Michener Park,sports field,ottawa,..,..,..,..,on
15419,Ron Milks Park,sports field,ottawa,623,smyth,..,..,on
15420,Ron Milks Park Ball Diamond,sports field,ottawa,..,..,..,ottawa,on
15422,Rooney Park,sports field,ottawa,..,..,..,..,on
15423,Rooney Park,sports field,ottawa,15,steeple hill,..,..,on
15472,Roy Park,sports field,ottawa,..,..,..,..,on
15473,Roy Park,sports field,ottawa,6210,meadowglen,..,gloucester,on
15540,Russell Boyd Park,sports field,ottawa,..,..,..,..,on
15541,Russell Boyd Park,sports field,ottawa,1735,st bernard,..,gloucester,on
15547,Ruth Wildgen Park,sports field,ottawa,1099,grenon,..,..,on
15552,Ryan Farm Park,sports field,ottawa,5,parkglen,..,nepean,on
15554,Ryerson Tennis Club,sports field,ottawa,5,ryerson,..,..,on
15606,Sandalwood Park,sports field,ottawa,2850,sandalwood,..,ottawa,on
15613,Sandy Hill Arena,sports field,ottawa,60,mann,..,..,on
15615,Sarsfield Park-Ball Diamond,sports field,ottawa,..,..,..,ottawa,on
15624,Sawmill Creek Pool Park,sports field,ottawa,..,..,..,..,on
15625,Sawmill Creek Pool Park,sports field,ottawa,..,..,..,..,on
15626,Sawmill Creek Pool Park,sports field,ottawa,3380,d'aoust,..,gloucester,on
15631,Sawyer's Meadow Park,sports field,ottawa,..,..,..,..,on
15632,Sawyer's Meadow Park,sports field,ottawa,..,..,..,..,on
15633,Scala Park,sports field,ottawa,..,..,..,..,on
15634,Scala Park,sports field,ottawa,797,scala,..,cumberland,on
15658,Scisson's Park,sports field,ottawa,..,..,..,..,on
15659,Scisson's Park,sports field,ottawa,..,..,..,..,on
15726,Severn Avenue Public School,sports field,ottawa,2553,av severn,..,..,on
15737,Sharel Park,sports field,ottawa,1900,florida,..,..,on
