Index,Facility_Name,ODRSF_facility_type,Provider,Street_No,Street_Name,Postal_Code,City,Prov_Terr
167705,Grammercy Park,park,ottawa,177,whitestone,..,ottawa,on
167735,Grandeur Park,park,ottawa,2915,haughton,..,..,on
167772,Grasshopper Hill/Kilborn Park,park,ottawa,1609,kilborn,..,..,on
167777,Grassy Plains Park,park,ottawa,85,grassy plains,..,kanata,on
167790,Greebriar Park,park,ottawa,1720,dunrobin,..,kanata,on
167792,Greely Village Park,park,ottawa,7292,parkway,..,..,on
167793,Greely West Park,park,ottawa,6485,greely west,..,osgoode,on
167819,Greenbank Park,park,ottawa,895,greenbank,..,nepean,on
167821,Greenboro Park And Community Centre,park,ottawa,363,lorry greenberg,..,..,on
167822,Greenboro Skateboard Park,park,ottawa,3142,conroy,..,ottawa,on
167846,Greenlawn Park,park,ottawa,1145,greenlawn,..,..,on
167848,Greenpointe Park,park,ottawa,29,greenpointe,..,nepean,on
167880,Grenfell Glen Park,park,ottawa,53,avonlea,..,nepean,on
167886,Grey Nuns Park,park,ottawa,1595,grey nuns,..,gloucester,on
167911,Grovehurst Park,park,ottawa,100,grovehurst,..,nepean,on
167915,Grovewoods Park,park,ottawa,13,grovewood,..,goulbourn,on
167935,Guinness Park,park,ottawa,120,ramsgrange,..,..,on
167940,Gus Este Park,park,ottawa,26,brookstone,..,nepean,on
167986,Half Moon Bay District Park,park,ottawa,2565,half moon,..,..,on
167987,Half Moon Bay Park,park,ottawa,3525,cambrian,..,nepean,on
168014,Hampton Park,park,ottawa,645,parkview,..,ottawa,on
168044,Harbour View Park,park,ottawa,150,harbour view,..,nepean,on
168055,Harkness Park,park,ottawa,6020,piperville,..,gloucester,on
168063,Harold Barnhart Park,park,ottawa,5650,scobie,..,osgoode,on
168064,Harold Brown Park,park,ottawa,750,kirkham,..,..,on
168065,Harold Diceman Park,park,ottawa,30,diceman,..,gloucester,on
168089,Harrold Place Park,park,ottawa,1,harrold,..,..,on
168107,Harthill Way Linear Park,park,ottawa,125,harthill,..,nepean,on
168122,Harwick Park,park,ottawa,13,harwick,..,..,on
168124,Harwood Park,park,ottawa,20,mowbray,..,kanata,on
168142,Havencrest Woods Park,park,ottawa,636,barry helman,..,..,on
168160,Hawthorne Park,park,ottawa,2139,tawney,..,ottawa,on
168168,Hayward Park,park,ottawa,79,mccurdy,..,kanata,on
168173,Hazeldean Woods Park (Tamblin Park),park,ottawa,89,kakulu,..,kanata,on
168187,Healey's Heath Park,park,ottawa,25,healey,..,goulbourn,on
168197,Heather Crowe Park,park,ottawa,1902,scott,..,ottawa,on
168204,Heatherington Park,park,ottawa,1560,heatherington,..,ottawa,on
168228,Helen Redpath Thomson Park,park,ottawa,861,cummings,..,..,on
168233,Hemlock Park,park,ottawa,361,meadow park,..,..,on
168257,Henri-Rocque Park,park,ottawa,229,hepatica,..,..,on
168269,Henry Park,park,ottawa,1420,mulligan,..,gloucester,on
168287,Herb Johnston Park,park,ottawa,7035,cosgrove,..,osgoode,on
168320,Heritage Park,park,ottawa,6160,orl√©ans,..,..,on
168343,Heron Park,park,ottawa,999,heron,..,..,on
168346,Heron-Walkley Park,park,ottawa,1430,heron,..,ottawa,on
168357,Hewitt Park,park,ottawa,474,pickford,..,kanata,on
168361,Hiawatha Park,park,ottawa,6218,voyageur,..,gloucester,on
168364,Hibiscus Park,park,ottawa,990,cobble hill,..,nepean,on
168375,Hidden Lake Park,park,ottawa,149,hidden lake,..,carleton,on
