Index,Facility_Name,ODRSF_facility_type,Provider,Street_No,Street_Name,Postal_Code,City,Prov_Terr
3941,Outdoor Rink,rink,ottawa,320,jack purcell,..,..,on
3942,Outdoor Rink,rink,ottawa,1556,forest valley,..,..,on
3943,Outdoor Rink,rink,ottawa,12,ralphpark,..,..,on
3944,Outdoor Rink,rink,ottawa,1825,trim,..,..,on
3945,Outdoor Rink,rink,ottawa,100,brewer,..,..,on
3946,Outdoor Rink,rink,ottawa,28,chanonhouse,..,..,on
3947,Outdoor Rink,rink,ottawa,221,radhika,..,..,on
3948,Outdoor Rink,rink,ottawa,6210,meadowglen,..,..,on
3949,Outdoor Rink,rink,ottawa,1095,morrison,..,..,on
3950,Outdoor Rink,rink,ottawa,3320,paul anka,..,..,on
3951,Outdoor Rink,rink,ottawa,346,kennedy,..,..,on
3952,Outdoor Rink,rink,ottawa,1600,prestwick,..,..,on
3953,Outdoor Rink,rink,ottawa,220,stoneway,..,..,on
3954,Outdoor Rink,rink,ottawa,99,bearbrook,..,..,on
3955,Outdoor Rink,rink,ottawa,1250,ledbury,..,..,on
3956,Outdoor Rink,rink,ottawa,9,parkfield,..,..,on
3957,Outdoor Rink,rink,ottawa,30,woodfield,..,..,on
3958,Outdoor Rink,rink,ottawa,53,avonlea,..,..,on
3959,Outdoor Rink,rink,ottawa,374,kinghorn,..,..,on
3960,Outdoor Rink,rink,ottawa,318,aquaview,..,..,on
3961,Outdoor Rink,rink,ottawa,1665,apeldoorn,..,..,on
3962,Outdoor Rink,rink,ottawa,681,deancourt,..,..,on
3963,Outdoor Rink,rink,ottawa,1015,harkness,..,..,on
3964,Outdoor Rink,rink,ottawa,2095,kingsley,..,..,on
3965,Outdoor Rink,rink,ottawa,270,springfield,..,..,on
3966,Outdoor Rink,rink,ottawa,1099,grenon,..,..,on
3967,Outdoor Rink,rink,ottawa,720,vistapark,..,..,on
3968,Outdoor Rink,rink,ottawa,2890,munster,..,..,on
3969,Outdoor Rink,rink,ottawa,855,lawnsberry,..,..,on
3970,Outdoor Rink,rink,ottawa,1161,blohm,..,..,on
3971,Outdoor Rink,rink,ottawa,670,aquaview,..,..,on
3972,Outdoor Rink,rink,ottawa,955,pleasant park,..,..,on
3973,Outdoor Rink,rink,ottawa,6250,beauséjour,..,..,on
3974,Outdoor Rink,rink,ottawa,210,émerillon,..,..,on
3975,Outdoor Rink,rink,ottawa,625,la vérendrye,..,..,on
3976,Outdoor Rink,rink,ottawa,43,e-cécile,..,..,on
3977,Outdoor Rink,rink,ottawa,2955,michèle,..,..,on
3978,Outdoor Rink,rink,ottawa,300,des-pères-blancs,..,..,on
3979,Outdoor Rink,rink,ottawa,1705,orléans,..,..,on
4520,Petrie Island East Bay Beach,beach,ottawa,777,trim,..,..,on
4545,Pinecrest Pool,pool,ottawa,..,..,..,ottawa,on
4664,Plant Pool,pool,ottawa,..,..,..,ottawa,on
4665,Plant Recreation Centre,community centre,ottawa,930,somerset,K1R 6R9,ottawa,on
5049,R.J. Kennedy Arena,arena,ottawa,..,..,..,ottawa,on
5078,Ray Friel Pool,pool,ottawa,..,..,..,ottawa,on
5128,Richmond Memorial Arena,arena,ottawa,..,..,..,ottawa,on
5136,Rideau River Trail Park,trail,ottawa,..,..,..,ottawa,on
5245,Roving Skateboard Park Location,skate park,ottawa,10,warner colpitts,..,..,on
5246,Roving Skateboard Park Location,skate park,ottawa,100,clifford campbell,..,..,on
