Index,Facility_Name,ODRSF_facility_type,Provider,Street_No,Street_Name,Postal_Code,City,Prov_Terr
14972,Public Tennis Courts,sports field,ottawa,630,cameron harvey,..,..,on
14973,Public Tennis Courts,sports field,ottawa,2300,community,..,rideau,on
14974,Public Tennis Courts,sports field,ottawa,1556,forest valley,..,gloucester,on
14975,Public Tennis Courts,sports field,ottawa,110,mancini,..,nepean,on
14976,Public Tennis Courts,sports field,ottawa,290,meadowbreeze,..,kanata,on
14977,Public Tennis Courts,sports field,ottawa,1349,randal,..,..,on
14978,Public Tennis Courts,sports field,ottawa,950,alpine,..,..,on
14979,Public Tennis Courts,sports field,ottawa,539,wavell,..,..,on
14980,Public Tennis Courts,sports field,ottawa,5,beaverbrook,..,kanata,on
14981,Public Tennis Courts,sports field,ottawa,4386,spratt,..,gloucester,on
14982,Public Tennis Courts,sports field,ottawa,6020,piperville,..,gloucester,on
14983,Public Tennis Courts,sports field,ottawa,320,jack purcell,..,ottawa,on
14984,Public Tennis Courts,sports field,ottawa,1819,stonehenge,..,gloucester,on
14985,Public Tennis Courts,sports field,ottawa,1115,dunning,..,cumberland,on
14986,Public Tennis Courts,sports field,ottawa,300,den haag,..,ottawa,on
14987,Public Tennis Courts,sports field,ottawa,2185,arch,..,ottawa,on
14988,Public Tennis Courts,sports field,ottawa,2320,southvale,..,..,on
14989,Public Tennis Courts,sports field,ottawa,1423,matheson,..,gloucester,on
14990,Public Tennis Courts,sports field,ottawa,1801,playfair,..,ottawa,on
14991,Public Tennis Courts,sports field,ottawa,2330,virginia,..,ottawa,on
14992,Public Tennis Courts,sports field,ottawa,2785,8th line,..,osgoode,on
14993,Public Tennis Courts,sports field,ottawa,5650,scobie,..,osgoode,on
14994,Public Tennis Courts,sports field,ottawa,560,summerhill,..,gloucester,on
14995,Public Tennis Courts,sports field,ottawa,1099,grenon,..,..,on
14996,Public Tennis Courts,sports field,ottawa,1410,henri lauzon,..,gloucester,on
14997,Public Tennis Courts,sports field,ottawa,1270,pebble,..,ottawa,on
14998,Public Tennis Courts,sports field,ottawa,1665,apeldoorn,..,..,on
14999,Public Tennis Courts,sports field,ottawa,265,britannia,..,ottawa,on
15000,Public Tennis Courts,sports field,ottawa,400,north-river,..,vanier,on
15001,Public Tennis Courts,sports field,ottawa,215,owl,..,ottawa,on
15002,Public Tennis Courts,sports field,ottawa,1161,blohm,..,ottawa,on
15003,Public Tennis Courts,sports field,ottawa,3165,uplands,..,ottawa,on
15004,Public Tennis Courts,sports field,ottawa,10,warner colpitts,..,goulbourn,on
15005,Public Tennis Courts,sports field,ottawa,100,braemar,..,ottawa,on
15006,Public Tennis Courts,sports field,ottawa,1,windsor,..,..,on
15007,Public Tennis Courts,sports field,ottawa,2250,torquay,..,..,on
15008,Public Tennis Courts,sports field,ottawa,7292,parkway,..,osgoode,on
15009,Public Tennis Courts,sports field,ottawa,400,goldridge,..,kanata,on
15010,Public Tennis Courts,sports field,ottawa,710,mikinak,..,ottawa,on
15011,Public Tennis Courts,sports field,ottawa,5660,osgoode main,..,osgoode,on
15012,Public Tennis Courts,sports field,ottawa,3560,wyman,..,..,on
15013,Public Tennis Courts,sports field,ottawa,1279,colonial,..,cumberland,on
15014,Public Tennis Courts,sports field,ottawa,11,robert kemp,..,gloucester,on
15015,Public Tennis Courts,sports field,ottawa,3939,albion,..,gloucester,on
15016,Public Tennis Courts,sports field,ottawa,1257,joseph drouin,..,gloucester,on
15017,Public Tennis Courts,sports field,ottawa,1332,n,..,..,on
15018,Public Tennis Courts,sports field,ottawa,6600,bilberry,..,gloucester,on
15019,Public Tennis Courts,sports field,ottawa,38,chimo,..,kanata,on
15020,Public Tennis Courts,sports field,ottawa,11,combermere,..,gloucester,on
