Index,Facility_Name,ODRSF_facility_type,Provider,Street_No,Street_Name,Postal_Code,City,Prov_Terr
8199,Ball Diamond - East,sports field,ottawa,186,crois barrow,..,..,on
8200,Ball Diamond - Main,sports field,ottawa,100,prom penfield,..,..,on
8201,Ball Diamond - North,sports field,ottawa,100,prom penfield,..,..,on
8202,Ball Diamond - North,sports field,ottawa,46,prom centre park,..,..,on
8203,Ball Diamond - North East,sports field,ottawa,20,rossland,..,..,on
8204,Ball Diamond - Softball,sports field,ottawa,68,prom larkin,..,..,on
8205,Ball Diamond - Softball,sports field,ottawa,8,prom redpine,..,..,on
8206,Ball Diamond - Softball,sports field,ottawa,16,carola,..,..,on
8207,Ball Diamond - Softball,sports field,ottawa,2760,cedarview,..,..,on
8208,Ball Diamond - Softball,sports field,ottawa,168,greenbank,..,..,on
8209,Ball Diamond - Softball,sports field,ottawa,2630,greyâ€™s creek,..,..,on
8210,Ball Diamond - Softball East,sports field,ottawa,145,crois,..,woodridge,on
8211,Ball Diamond - Softball South East,sports field,ottawa,60,prom tiverton,..,..,on
8212,Ball Diamond - Softball South West,sports field,ottawa,60,prom tiverton,..,..,on
8213,Ball Diamond - South,sports field,ottawa,46,prom centre park,..,..,on
8214,Ball Diamond - South West,sports field,ottawa,20,rossland,..,..,on
8215,Ball Diamond - West,sports field,ottawa,2011,glenfern,..,..,on
8216,Ball Diamond - West,sports field,ottawa,186,crois barrow,..,..,on
8217,Ball Diamond (Small),sports field,ottawa,2553,av severn,..,..,on
8218,Ball Diamond (Valleystream East Park),sports field,ottawa,30,costello,..,..,on
8219,Ball Diamond 01,sports field,ottawa,25,prom leacock,..,..,on
8220,Ball Diamond 01,sports field,ottawa,182,prom morrena,..,..,on
8221,Ball Diamond 01,sports field,ottawa,2176,prom huntley,..,..,on
8222,Ball Diamond 01,sports field,ottawa,1453,stittsville main,..,..,on
8223,Ball Diamond 01,sports field,ottawa,2129,arch,..,..,on
8224,Ball Diamond 01,sports field,ottawa,564,pleasant park,..,..,on
8225,Ball Diamond 01,sports field,ottawa,745,smyth,..,..,on
8226,Ball Diamond 01 (A.Y. Jackson Softball Diamond),sports field,ottawa,150,prom abbeyhill,..,..,on
8227,Ball Diamond 01 (East),sports field,ottawa,557,queen mary,..,..,on
8228,Ball Diamond 02,sports field,ottawa,689,st laurent,..,..,on
8229,Ball Diamond 02,sports field,ottawa,745,smyth,..,..,on
8230,Ball Diamond 02,sports field,ottawa,25,prom leacock,..,..,on
8231,Ball Diamond 02,sports field,ottawa,182,prom morrena,..,..,on
8232,Ball Diamond 02,sports field,ottawa,1453,stittsville main,..,..,on
8233,Ball Diamond 02,sports field,ottawa,1025,harkness,..,..,on
8234,Ball Diamond 02,sports field,ottawa,2129,arch,..,..,on
8235,Ball Diamond 02,sports field,ottawa,2176,prom huntley,..,..,on
8236,Ball Diamond 02,sports field,ottawa,564,pleasant park,..,..,on
8237,Ball Diamond 02 (Grassy Area),sports field,ottawa,150,prom abbeyhill,..,..,on
8238,Ball Diamond 02 (West),sports field,ottawa,557,queen mary,..,..,on
8239,Ball Diamond 03,sports field,ottawa,2129,arch,..,..,on
8287,Banner Park,sports field,ottawa,..,..,..,..,on
8290,Bannockburn Park,sports field,ottawa,..,..,..,..,on
8301,Barnabe Park,sports field,ottawa,1797,des-epinettes,..,gloucester,on
8303,Barnett Park,sports field,ottawa,..,..,..,..,on
8311,Barrhaven Tennis Club,sports field,ottawa,76,larkin,..,nepean,on
8312,Barrington Park,sports field,ottawa,..,..,..,..,on
8313,Barrington Park Soccer Field,sports field,ottawa,..,..,..,ottawa,on
8314,Barry Mullen Ball Diamond,sports field,ottawa,..,..,..,ottawa,on
