Index,Facility_Name,ODRSF_facility_type,Provider,Street_No,Street_Name,Postal_Code,City,Prov_Terr
172727,Palsen Park,park,ottawa,7,palsen,..,nepean,on
172730,Panda Park,park,ottawa,105,southam,..,..,on
173569,Park - 5671 Watterson Street,park,ottawa,5671,watterson,..,goulbourn,on
173571,Park 2,park,ottawa,100,highgarden,..,..,on
173572,Park 8,park,ottawa,..,ibanez,..,..,on
173573,Park 9,park,ottawa,235,shuttleworth,..,..,on
173603,Parkdale Park,park,ottawa,366,parkdale,..,..,on
173622,Parkland (485 Villeneuve Private),park,ottawa,485,villeneuve,..,..,on
173623,Parkland (650 Lakeridge Drive),park,ottawa,650,lakeridge,..,cumberland,on
173624,Parkland (6977 Viola Street),park,ottawa,6977,viola,..,rideau,on
173625,Parkland (764 Lakeridge Drive),park,ottawa,764,lakeridge,..,cumberland,on
173626,"Parkland (Cedarhill Drive, Nepean)",park,ottawa,..,cedarhill,..,nepean,on
173627,Parkland (Hydro Corridor),park,ottawa,72,medhurst,..,nepean,on
173628,Parkland (Hydro Corridor),park,ottawa,5590,campeau,..,kanata,on
173658,Parkway Park,park,ottawa,2095,kingsley,..,ottawa,on
173664,Par-La-Ville Park,park,ottawa,265,par-la-ville,..,carleton,on
173672,Parthia Park,park,ottawa,16,parthia,..,..,on
173688,Patrick Dugas Park,park,ottawa,550,compass,..,..,on
173696,Patterson's Creek Park,park,ottawa,524,o'connor,..,ottawa,on
173706,Paul Landry Park,park,ottawa,3345,uplands,..,ottawa,on
173707,Paul Lindsay Park,park,ottawa,81,trailway,..,..,on
173717,Pauline Vanier Park,park,ottawa,1015,harkness,..,..,on
173733,Peace Park,park,ottawa,5555,osgoode main,..,osgoode,on
173755,Pebble Trail Park,park,ottawa,6860,pebble trail,..,..,on
173756,Pebble Trail Woods Park,park,ottawa,6850,pebble trail,..,osgoode,on
173771,Pelican Park,park,ottawa,658,pelican,..,cumberland,on
173781,Penfield Parkette,park,ottawa,111,penfield,..,kanata,on
173796,Percy Taverner Park,park,ottawa,130,woodbine,..,..,on
173834,Petrie Island Park,park,ottawa,727,trim,..,cumberland,on
173840,Pheasant Run Park,park,ottawa,18,pheasant run,..,nepean,on
173849,Piazza Dante Park,park,ottawa,470,booth,..,ottawa,on
173857,Pickford Park,park,ottawa,50,pickford,..,..,on
173871,Pierre Rocque Park,park,ottawa,1257,joseph drouin,..,gloucester,on
173879,Pike Park,park,ottawa,131,lorry greenberg,..,ottawa,on
173891,Pine Bluff Park,park,ottawa,46,hesse,..,goulbourn,on
173900,Pine Vista Park,park,ottawa,616,pine vista,..,cumberland,on
173906,Pinecrest Recreation Complex And Park,park,ottawa,2250,torquay,..,..,on
173909,Pineglen Park,park,ottawa,22,brisbane,..,nepean,on
173925,Pineview Park,park,ottawa,1465,ridgebrook,..,gloucester,on
173928,Pinhey's Point Park,park,ottawa,270,pinhey point,..,kanata,on
173953,Pioneer Plains Park,park,ottawa,1018,stittsville main,..,goulbourn,on
173974,Playfair Park,park,ottawa,1801,playfair,..,ottawa,on
173981,Pleasant Park Woods,park,ottawa,1609,kilborn,..,..,on
173987,Plouffe Park,park,ottawa,930,somerset,..,ottawa,on
174031,Pony Park,park,ottawa,246,equestrian,..,kanata,on
174032,Poole Creek Park,park,ottawa,10,jonathan pack,..,..,on
174045,Porcupine Park,park,ottawa,142,porcupine,..,carleton,on
174073,Portobello Park,park,ottawa,670,aquaview,..,cumberland,on
174105,Presland Park,park,ottawa,368,presland,..,ottawa,on
