Index,Facility_Name,ODRSF_facility_type,Provider,Street_No,Street_Name,Postal_Code,City,Prov_Terr
10390,D. Roy Kennedy Public School,sports field,ottawa,919,woodroffe,..,..,on
10391,D. Roy Kennedy Public School,sports field,ottawa,919,woodroffe,..,..,on
10392,D.A.Moodie Sports Fields,sports field,ottawa,..,..,..,ottawa,on
10393,Dale Park,sports field,ottawa,..,..,..,..,on
10409,Davidson Park,sports field,ottawa,5,ryerson,..,..,on
10428,Deevy Pines Park,sports field,ottawa,..,..,..,..,on
10429,Deevy Pines Park,sports field,ottawa,..,..,..,..,on
10430,Deevy Pines Park,sports field,ottawa,65,stonehaven,..,kanata,on
10431,Deevy Pines Park,sports field,ottawa,65,stonehaven,..,kanata,on
10459,Des Pionniers Park,sports field,ottawa,..,..,..,..,on
10460,Des Pionniers Park,sports field,ottawa,1880,carrigan,..,cumberland,on
10471,Diamond 01,sports field,ottawa,5,prom morton,..,..,on
10472,Diamond Jubilee Park,sports field,ottawa,..,..,..,..,on
10473,Diamond Jubilee Skateboard Park,sports field,ottawa,2810,findlay creek,..,..,on
10480,Diefenbunker Baseball Diamond,sports field,ottawa,3911,carp,..,carleton,on
10511,Dogwood Park And Munster Hamlet Community Centre,sports field,ottawa,..,..,..,..,on
10512,Dogwood Park And Munster Hamlet Community Centre,sports field,ottawa,2890,munster,..,goulbourn,on
10549,Doug Frobel Park,sports field,ottawa,16,rowley,..,..,on
10550,Doug Froebel Ball Diamond,sports field,ottawa,..,..,..,ottawa,on
10583,Dr. John Hopps Park,sports field,ottawa,..,..,..,..,on
10618,Dumaurier Ball Diamond,sports field,ottawa,..,..,..,ottawa,on
10619,Dumaurier Park,sports field,ottawa,2850,dumaurier,..,..,on
10620,Dumaurier Park,sports field,ottawa,2850,dumaurier,..,..,on
10650,Dunrobin Community Centre,sports field,ottawa,..,..,..,..,on
10651,Dunrobin Community Centre,sports field,ottawa,..,..,..,..,on
10652,Dunrobin Community Centre,sports field,ottawa,..,..,..,..,on
10653,Dunrobin Community Centre,sports field,ottawa,..,..,..,..,on
10654,Dunrobin Community Centre,sports field,ottawa,1151,thomas a dolan,..,carleton,on
10655,Dunrobin Community Centre,sports field,ottawa,1151,thomas a dolan,..,carleton,on
10674,Earl Of March Secondary School,sports field,ottawa,4,the-parkway,..,ottawa,on
10675,Earl Of March Secondary School,sports field,ottawa,4,the-parkway,..,ottawa,on
10716,Eastvale Park,sports field,ottawa,740,eastvale,..,gloucester,on
10727,Echo Park,sports field,ottawa,..,..,..,..,on
10728,Echo Park,sports field,ottawa,6698,marina,..,rideau,on
10812,Elizabeth Manley Park,sports field,ottawa,..,..,..,..,on
10813,Elizabeth Manley Park,sports field,ottawa,..,..,..,..,on
10814,Elizabeth Manley Park,sports field,ottawa,1161,blohm,..,ottawa,on
10815,Elizabeth Manley Sports Fields,sports field,ottawa,..,..,..,ottawa,on
10842,Elmdale Lawn Bowling Club,sports field,ottawa,40,reid,..,..,on
10843,Elmdale Tennis Club,sports field,ottawa,250,holland,..,..,on
10844,Elmridge Tennis Club,sports field,ottawa,1841,elmridge,..,gloucester,on
10902,Eug√®ne Martineau Park,sports field,ottawa,..,..,..,..,on
10940,Fairlea Park,sports field,ottawa,..,..,..,..,on
10941,Fairlea Park,sports field,ottawa,2989,fairlea,..,..,on
10942,Fairmile View Park,sports field,ottawa,..,..,..,..,on
10943,Fairmile View Park,sports field,ottawa,2429,fairmile,..,rideau,on
10966,Fallingbrook Park,sports field,ottawa,..,..,..,..,on
10967,Fallingbrook Park,sports field,ottawa,681,deancourt,..,cumberland,on
10968,Fallingbrook Sports Fields,sports field,ottawa,..,..,..,ottawa,on
