Index,Facility_Name,ODRSF_facility_type,Provider,Street_No,Street_Name,Postal_Code,City,Prov_Terr
3741,Outdoor Rink,rink,ottawa,1899,du-clairvaux,..,..,on
3742,Outdoor Rink,rink,ottawa,1326,ogilvie,..,..,on
3743,Outdoor Rink,rink,ottawa,6,lisa,..,..,on
3744,Outdoor Rink,rink,ottawa,970,parkhaven,..,..,on
3745,Outdoor Rink,rink,ottawa,193,stanley,..,..,on
3746,Outdoor Rink,rink,ottawa,539,wavell,..,..,on
3747,Outdoor Rink,rink,ottawa,265,fairmont,..,..,on
3748,Outdoor Rink,rink,ottawa,1900,florida,..,..,on
3749,Outdoor Rink,rink,ottawa,691,hartman,..,..,on
3750,Outdoor Rink,rink,ottawa,3580,trapper's,..,..,on
3751,Outdoor Rink,rink,ottawa,300,den haag,..,..,on
3752,Outdoor Rink,rink,ottawa,725,sherbourne,..,..,on
3753,Outdoor Rink,rink,ottawa,550,compass,..,..,on
3754,Outdoor Rink,rink,ottawa,1797,des-epinettes,..,..,on
3755,Outdoor Rink,rink,ottawa,24,shetland,..,..,on
3756,Outdoor Rink,rink,ottawa,1251,halton,..,..,on
3757,Outdoor Rink,rink,ottawa,80,sawyer,..,..,on
3758,Outdoor Rink,rink,ottawa,310,upcountry,..,..,on
3759,Outdoor Rink,rink,ottawa,315,haliburton,..,..,on
3760,Outdoor Rink,rink,ottawa,25,bie,..,..,on
3761,Outdoor Rink,rink,ottawa,420,de-la-famille-laporte,..,..,on
3762,Outdoor Rink,rink,ottawa,30,diceman,..,..,on
3763,Outdoor Rink,rink,ottawa,1018,sittsville main,..,..,on
3764,Outdoor Rink,rink,ottawa,368,presland,..,..,on
3765,Outdoor Rink,rink,ottawa,5058,bluff,..,..,on
3766,Outdoor Rink,rink,ottawa,2193,acres,..,..,on
3767,Outdoor Rink,rink,ottawa,228,bradford,..,..,on
3768,Outdoor Rink,rink,ottawa,53,black tern,..,..,on
3769,Outdoor Rink,rink,ottawa,105,felicity,..,..,on
3770,Outdoor Rink,rink,ottawa,15,rockcliffe,..,..,on
3771,Outdoor Rink,rink,ottawa,230,mistral,..,..,on
3772,Outdoor Rink,rink,ottawa,6591,delorme,..,..,on
3773,Outdoor Rink,rink,ottawa,485,wisteria,..,..,on
3774,Outdoor Rink,rink,ottawa,1,bishops mills,..,..,on
3775,Outdoor Rink,rink,ottawa,1800,city park,..,..,on
3776,Outdoor Rink,rink,ottawa,1245,matheson,..,..,on
3777,Outdoor Rink,rink,ottawa,3740,mountain meadows,..,..,on
3778,Outdoor Rink,rink,ottawa,3795,alderwood,..,..,on
3779,Outdoor Rink,rink,ottawa,6940,bilberry,..,..,on
3780,Outdoor Rink,rink,ottawa,70,foxfield,..,..,on
3781,Outdoor Rink,rink,ottawa,1332,n,..,..,on
3782,Outdoor Rink,rink,ottawa,1735,st bernard,..,..,on
3783,Outdoor Rink,rink,ottawa,434,sparkman,..,..,on
3784,Outdoor Rink,rink,ottawa,125,watershield,..,..,on
3785,Outdoor Rink,rink,ottawa,3900,autumnwood,..,..,on
3786,Outdoor Rink,rink,ottawa,424,chapman mills,..,..,on
3787,Outdoor Rink,rink,ottawa,1913,marquis,..,..,on
3788,Outdoor Rink,rink,ottawa,134,begonia,..,..,on
3789,Outdoor Rink,rink,ottawa,1404,lexington,..,..,on
