Index,Facility_Name,ODRSF_facility_type,Provider,Street_No,Street_Name,Postal_Code,City,Prov_Terr
2235,Howard Darwin Centennial-Merivale Arena,arena,ottawa,1765,merivale,K2G 10,ottawa,on
2356,Innovation Skateboard Park,skate park,ottawa,4101,innovation,..,..,on
2380,J. A. Dulude Arena,arena,ottawa,941,clyde,K1Z 5A6,ottawa,on
2381,J. B. Potvin Arena,arena,ottawa,..,..,..,ottawa,on
2389,Jack Charron Arena,arena,ottawa,..,..,..,ottawa,on
2392,Jack Purcell Pool,pool,ottawa,..,..,..,ottawa,on
2413,Jérémie J. Audette Splash Pad,splash pad,ottawa,670,aquaview,..,cumberland,on
2439,Jim Durrell Arena,arena,ottawa,..,..,..,ottawa,on
2440,Jim Durrell Recreation Centre,community centre,ottawa,1265,walkley,K1V 6P9,ottawa,on
2444,Jim Tubman Chevrolet Sens Rink,rink,ottawa,2185,arch,..,..,on
2463,John G. Mlacak Arena,arena,ottawa,..,..,..,ottawa,on
2478,Johnny Leroux Stittsville Com. Arena,arena,ottawa,10,warner-colpitts,K0A 0A0,ottawa,on
2512,Kanata Leisure Centre And Wave Pool,pool,ottawa,70,aird,K2L 4B1,ottawa,on
2513,Kanata Wave Pool,pool,ottawa,..,..,..,ottawa,on
2517,Katimavik Outdoor Pool,pool,ottawa,38,chimo,..,kanata,on
2518,Katimavik School Outdoor Rink,rink,ottawa,64,chimo,..,..,on
2528,Keith Harris Stadium,arena,ottawa,..,..,..,ottawa,on
2707,Lansdowne Skateboard Park,skate park,ottawa,450,queen,..,..,on
2758,Legacy Skateboard Park,skate park,ottawa,101,centrepointe,..,..,on
2847,Long Island Aquatic Club,pool,ottawa,5495,south-river,..,rideau,on
2950,Lowertown Pool,pool,ottawa,..,..,..,ottawa,on
3024,Manotick Arena,arena,ottawa,..,..,..,ottawa,on
3025,Manotick Skateboard Park,skate park,ottawa,5572,doctor leach,..,..,on
3281,Mcnabb Arena,arena,ottawa,..,..,..,ottawa,on
3282,Mcnabb Recreation Centre,community centre,ottawa,180,percy,K1R 600000,ottawa,on
3325,Merivale Centennial Arena,arena,ottawa,..,..,..,ottawa,on
3415,Mooney's Bay Beach,beach,ottawa,2960,riverside,..,..,on
3503,Navan Memorial Arena,arena,ottawa,..,..,..,ottawa,on
3551,Norman Johnston School Outdoor Rink,rink,ottawa,2401,cleroux,..,..,on
3720,Outdoor Rink,rink,ottawa,1279,colonial,..,..,on
3721,Outdoor Rink,rink,ottawa,2040,jasmine,..,..,on
3722,Outdoor Rink,rink,ottawa,1309,randall,..,..,on
3723,Outdoor Rink,rink,ottawa,89,leopolds,..,..,on
3724,Outdoor Rink,rink,ottawa,5,morton,..,..,on
3725,Outdoor Rink,rink,ottawa,200,central park,..,..,on
3726,Outdoor Rink,rink,ottawa,2139,tawney,..,..,on
3727,Outdoor Rink,rink,ottawa,2554,kaladar,..,..,on
3728,Outdoor Rink,rink,ottawa,2149,berwick,..,..,on
3729,Outdoor Rink,rink,ottawa,1520,caldwell,..,..,on
3730,Outdoor Rink,rink,ottawa,1500,larose,..,..,on
3731,Outdoor Rink,rink,ottawa,711,long point,..,..,on
3732,Outdoor Rink,rink,ottawa,6026,voyageur,..,..,on
3733,Outdoor Rink,rink,ottawa,120,clegg,..,..,on
3734,Outdoor Rink,rink,ottawa,114,saphir,..,..,on
3735,Outdoor Rink,rink,ottawa,75,glendale,..,..,on
3736,Outdoor Rink,rink,ottawa,1423,matheson,..,..,on
3737,Outdoor Rink,rink,ottawa,1205,trenton,..,..,on
3738,Outdoor Rink,rink,ottawa,2599,regina,..,..,on
3739,Outdoor Rink,rink,ottawa,223,iona,..,..,on
