Index,Facility_Name,ODRSF_facility_type,Provider,Street_No,Street_Name,Postal_Code,City,Prov_Terr
5796,Splash Pad,splash pad,ottawa,6210,meadowglen,..,gloucester,on
5797,Splash Pad,splash pad,ottawa,1326,ogilvie,..,gloucester,on
5798,Splash Pad,splash pad,ottawa,4386,spratt,..,gloucester,on
5799,Splash Pad,splash pad,ottawa,2320,southvale,..,..,on
5800,Splash Pad,splash pad,ottawa,1250,southwood,..,ottawa,on
5801,Splash Pad,splash pad,ottawa,100,charlie,..,..,on
5802,Splash Pad,splash pad,ottawa,101,duhamel,..,ottawa,on
5803,Splash Pad,splash pad,ottawa,139,windhurst,..,nepean,on
5804,Splash Pad,splash pad,ottawa,99,bearbrook,..,gloucester,on
5805,Splash Pad,splash pad,ottawa,600,longfields,..,nepean,on
5806,Splash Pad,splash pad,ottawa,1095,morrison,..,ottawa,on
5807,Splash Pad,splash pad,ottawa,930,somerset,..,ottawa,on
5808,Splash Pad,splash pad,ottawa,100,akerson,..,kanata,on
5809,Splash Pad,splash pad,ottawa,2989,fairlea,..,..,on
5810,Splash Pad,splash pad,ottawa,165,meandering,..,gloucester,on
5811,Splash Pad,splash pad,ottawa,205,serra,..,cumberland,on
5812,Splash Pad,splash pad,ottawa,530,strasbourg,..,cumberland,on
5813,Splash Pad,splash pad,ottawa,120,landry,..,vanier,on
5814,Splash Pad,splash pad,ottawa,920,littlerock,..,gloucester,on
5815,Splash Pad,splash pad,ottawa,1602,blohm,..,ottawa,on
5816,Splash Pad,splash pad,ottawa,560,summerhill,..,gloucester,on
5817,Splash Pad,splash pad,ottawa,193,stanley,..,..,on
5818,Splash Pad,splash pad,ottawa,325,st denis,..,vanier,on
5819,Splash Pad,splash pad,ottawa,1560,heatherington,..,ottawa,on
5820,Splash Pad,splash pad,ottawa,2810,findlay,..,gloucester,on
5821,Splash Pad,splash pad,ottawa,150,pennant,..,..,on
5822,Splash Pad,splash pad,ottawa,3740,mountain meadows,..,gloucester,on
5823,Splash Pad,splash pad,ottawa,665,kilbirnie,..,nepean,on
5824,Splash Pad,splash pad,ottawa,720,white,..,gloucester,on
5825,Splash Pad,splash pad,ottawa,200,central park,..,ottawa,on
5826,Splash Pad,splash pad,ottawa,1825,trim,..,cumberland,on
5827,Splash Pad,splash pad,ottawa,470,booth,..,ottawa,on
5828,Splash Pad,splash pad,ottawa,395,levis,..,..,on
5829,Splash Pad,splash pad,ottawa,49,appleford,..,gloucester,on
5830,Splash Pad,splash pad,ottawa,2185,arch,..,ottawa,on
5831,Splash Pad,splash pad,ottawa,52,bayview,..,ottawa,on
5832,Splash Pad,splash pad,ottawa,1,bishops,..,kanata,on
5833,Splash Pad,splash pad,ottawa,199,bridgestone,..,kanata,on
5834,Splash Pad,splash pad,ottawa,100,braemar,..,ottawa,on
5835,Splash Pad,splash pad,ottawa,100,brewer,..,ottawa,on
5836,Splash Pad,splash pad,ottawa,3127,carling,..,..,on
5837,Splash Pad,splash pad,ottawa,260,centrepointe,..,nepean,on
5838,Splash Pad,splash pad,ottawa,6591,delorme,..,gloucester,on
5839,Splash Pad,splash pad,ottawa,681,deancourt,..,cumberland,on
5840,Splash Pad,splash pad,ottawa,1,harrold,..,..,on
5841,Splash Pad,splash pad,ottawa,491,lawson,..,..,on
5842,Splash Pad,splash pad,ottawa,956,loyola,..,..,on
5843,Splash Pad,splash pad,ottawa,3320,paul,..,ottawa,on
5844,Splash Pad,splash pad,ottawa,1705,orl√©ansgloucester,..,..,on
