Index,Facility_Name,ODRSF_facility_type,Provider,Street_No,Street_Name,Postal_Code,City,Prov_Terr
6352,Wading Pool - Pauline Vanier,pool,ottawa,1015,harkness,..,..,on
6353,Wading Pool - Pushman,pool,ottawa,1270,pebble,..,..,on
6354,Wading Pool - Raven,pool,ottawa,1500,larose,..,..,on
6355,Wading Pool - Reid,pool,ottawa,40,reid,..,..,on
6356,Wading Pool - Rideauview,pool,ottawa,960,eiffel,..,..,on
6357,Wading Pool - Ruth Wildgen,pool,ottawa,1099,grenon,..,..,on
6358,Wading Pool - Sandy Hill,pool,ottawa,250,somerset,..,..,on
6359,Wading Pool - St. Luke'S,pool,ottawa,166,frank,..,..,on
6360,Wading Pool - St. Paul'S,pool,ottawa,469,donald,..,..,on
6361,Wading Pool - St-Laurent,pool,ottawa,525,côté,..,..,on
6362,Wading Pool - Strathcona,pool,ottawa,25,range,..,..,on
6363,Wading Pool - Sylvia Holden,pool,ottawa,10,fifth,..,..,on
6364,Wading Pool - Westboro,pool,ottawa,411,dovercourt,..,..,on
6365,Wading Pool - Weston,pool,ottawa,955,pleasant park,..,..,on
6366,Wading Pool - Windsor,pool,ottawa,1,windsor,..,..,on
6367,Wading Pool - Woodroffe,pool,ottawa,180,lockhart,..,..,on
6384,Walter Baker Pool,pool,ottawa,..,..,..,ottawa,on
6385,Walter Baker Skateboard Park,skate park,ottawa,100,charlie rogers,..,..,on
6386,Walter Baker Sports Centre,community centre,ottawa,100,malvern,K2J 2G5,ottawa,on
6474,Westboro Beach,beach,ottawa,234,atlantis,..,..,on
6475,Westboro Beach (Kitchissippi Lookout),beach,ottawa,1,ottawa river,K2A 0,ottawa,on
7004,A.Y. Jackson Secondary School,sports field,ottawa,150,prom abbeyhill,..,..,on
7005,A.Y. Jackson Secondary School,sports field,ottawa,150,prom abbeyhill,..,..,on
7006,A.Y. Jackson Secondary School,sports field,ottawa,150,prom abbeyhill,..,..,on
7007,A.Y. Jackson Secondary School,sports field,ottawa,150,prom abbeyhill,..,..,on
7074,Adult High School,sports field,ottawa,300,rochester,..,..,on
7085,Agincourt Road Public School,sports field,ottawa,1250,agincourt,..,..,on
7095,Ainsley Park,sports field,ottawa,1650,ainsley,..,..,on
7096,Ainsley Park Ball Diamond,sports field,ottawa,..,..,..,ottawa,on
7102,Aladdin Park,sports field,ottawa,3939,albion,..,..,on
7103,Aladdin Park Ball Diamond,sports field,ottawa,..,..,..,ottawa,on
7109,Albert Argue Black Park,sports field,ottawa,..,..,..,..,on
7122,Alcide Trudeau Ball Diamond,sports field,ottawa,..,..,..,ottawa,on
7123,Alcide Trudeau Park (Vars),sports field,ottawa,5715,rockdale,..,cumberland,on
7124,Alcide Trudeau Park (Vars),sports field,ottawa,5715,rockdale,..,cumberland,on
7135,Alexander Grove Ball Diamond,sports field,ottawa,..,..,..,ottawa,on
7136,Alexander Grove Park,sports field,ottawa,10,warner colpitts,..,goulbourn,on
7137,Alexander Grove Park,sports field,ottawa,10,warner colpitts,..,goulbourn,on
7138,Alexander Grove Park,sports field,ottawa,..,..,..,..,on
7139,Alexander Grove Park,sports field,ottawa,..,..,..,..,on
7140,Alexander Grove Park,sports field,ottawa,..,..,..,..,on
7141,Alexander Park,sports field,ottawa,..,..,..,..,on
7142,Alexander Park,sports field,ottawa,..,..,..,..,on
7143,Alexander Park Ball Diamond,sports field,ottawa,..,..,..,ottawa,on
7146,Alfred Taylor Recreation Facility - North Gower,sports field,ottawa,..,..,..,..,on
7147,Alfred Taylor Recreation Facility - North Gower,sports field,ottawa,..,..,..,..,on
7148,Alfred Taylor Recreation Facility - North Gower,sports field,ottawa,2300,community,..,rideau,on
7149,Alfred Taylor Recreation Facility - North Gower,sports field,ottawa,2300,community,..,rideau,on
7153,All Saints High School,sports field,ottawa,5115,av kanata,..,..,on
