Index,Facility_Name,ODRSF_facility_type,Provider,Street_No,Street_Name,Postal_Code,City,Prov_Terr
9274,Britannia Park Ball Diamond,sports field,ottawa,..,..,..,ottawa,on
9275,Britannia Yacht Club (Tennis),sports field,ottawa,2777,cassels,..,ottawa,on
9299,Brookfield High School,sports field,ottawa,824,brookfield,..,..,on
9300,Brookfield High School,sports field,ottawa,824,brookfield,..,..,on
9306,Brookshire Park,sports field,ottawa,..,..,..,..,on
9313,Bruce Pit Sledding Hill,miscellaneous,ottawa,175,cedarview,..,nepean,on
9316,Brucelands Park,sports field,ottawa,..,..,..,..,on
9317,Brucelands Sports Fields,sports field,ottawa,..,..,..,ottawa,on
9318,Bruff Park,sports field,ottawa,250,lorry greenberg,..,ottawa,on
9319,Bruff Park,sports field,ottawa,..,..,..,..,on
9323,Bryanston Gate Park,sports field,ottawa,..,..,..,..,on
9357,Cairine Wilson Secondary School,sports field,ottawa,975,orléans,..,..,on
9358,Cairine Wilson Secondary School,sports field,ottawa,975,orléans,..,..,on
9405,Calzavara Ball Diamond,sports field,ottawa,..,..,..,ottawa,on
9406,Calzavara Family Park,sports field,ottawa,1602,blohm,..,ottawa,on
9436,Canterbury Ball Diamond,sports field,ottawa,..,..,..,ottawa,on
9437,Canterbury High School,sports field,ottawa,900,canterbury,..,..,on
9438,Canterbury High School,sports field,ottawa,900,canterbury,..,..,on
9439,Canterbury Park,sports field,ottawa,2185,arch,..,ottawa,on
9440,Canterbury Park,sports field,ottawa,2185,arch,..,ottawa,on
9459,Cardelrec Recreation Complex (Goulbourn),sports field,ottawa,..,..,..,..,on
9460,Cardelrec Recreation Complex (Goulbourn),sports field,ottawa,..,..,..,..,on
9461,Cardelrec Recreation Complex (Goulbourn),sports field,ottawa,..,..,..,..,on
9462,Cardelrec Recreation Complex (Goulbourn),sports field,ottawa,..,..,..,..,on
9463,Cardelrec Recreation Complex (Goulbourn),sports field,ottawa,1500,shea,..,goulbourn,on
9466,Cardinal Creek Community Park,sports field,ottawa,..,..,..,..,on
9467,Cardinal Farm Park,sports field,ottawa,..,..,..,..,on
9473,Carleton Heights Park,sports field,ottawa,1665,apeldoorn,..,..,on
9475,Carleton Tennis Center,sports field,ottawa,1125,colonel by,..,ottawa,on
9477,Carlington Park,sports field,ottawa,..,..,..,..,on
9478,Carlington Park,sports field,ottawa,937,clyde,..,..,on
9479,Carlington Park,sports field,ottawa,937,clyde,..,..,on
9480,Carlington Park,sports field,ottawa,937,clyde,..,..,on
9481,Carlington Park,sports field,ottawa,937,clyde,..,..,on
9482,Carlington Park Ball Diamond,sports field,ottawa,..,..,..,ottawa,on
9498,Carp Tennis Club,sports field,ottawa,108,juanita,..,carleton,on
9501,Carrière Park,sports field,ottawa,6601,carrière,..,gloucester,on
9516,Carrière Park,sports field,ottawa,..,..,..,..,on
9517,Carriere Sports Field,sports field,ottawa,..,..,..,ottawa,on
9518,Carrol Homestead Community Park / Corkery Community Centre,sports field,ottawa,..,..,..,..,on
9519,Carrol Homestead Community Park / Corkery Community Centre,sports field,ottawa,..,..,..,..,on
9520,Carrol Homestead Community Park / Corkery Community Centre,sports field,ottawa,..,..,..,..,on
9521,Carrol Homestead Community Park / Corkery Community Centre,sports field,ottawa,..,..,..,..,on
9522,Carrol Homestead Community Park / Corkery Community Centre,sports field,ottawa,..,..,..,..,on
9523,Carrol Homestead Community Park / Corkery Community Centre,sports field,ottawa,..,..,..,..,on
9524,Carrol Homestead Community Park / Corkery Community Centre,sports field,ottawa,3447,old almonte,..,carleton,on
9527,Carson Grove Park,sports field,ottawa,1423,matheson,..,gloucester,on
9556,Castlefrank Elementary School,sports field,ottawa,55,prom mccurdy,..,..,on
9563,Castor Valley Elementary School,sports field,ottawa,2630,grey's creek,..,..,on
