Index,Facility_Name,ODRSF_facility_type,Provider,Street_No,Street_Name,Postal_Code,City,Prov_Terr
3891,Outdoor Rink,rink,ottawa,710,mikinak,..,..,on
3892,Outdoor Rink,rink,ottawa,5348,mclean,..,..,on
3893,Outdoor Rink,rink,ottawa,2989,fairlea,..,..,on
3894,Outdoor Rink,rink,ottawa,740,eastvale,..,..,on
3895,Outdoor Rink,rink,ottawa,250,somerset,..,..,on
3896,Outdoor Rink,rink,ottawa,1801,playfair,..,..,on
3897,Outdoor Rink,rink,ottawa,6011,longleaf,..,..,on
3898,Outdoor Rink,rink,ottawa,1270,pebble,..,..,on
3899,Outdoor Rink,rink,ottawa,999,heron,..,..,on
3900,Outdoor Rink,rink,ottawa,1602,blohm,..,..,on
3901,Outdoor Rink,rink,ottawa,980,cummings,..,..,on
3902,Outdoor Rink,rink,ottawa,83,amberwood,..,..,on
3903,Outdoor Rink,rink,ottawa,62,horner,..,..,on
3904,Outdoor Rink,rink,ottawa,950,alpine,..,..,on
3905,Outdoor Rink,rink,ottawa,131,lorry greenberg,..,..,on
3906,Outdoor Rink,rink,ottawa,435,bronson,..,..,on
3907,Outdoor Rink,rink,ottawa,1990,cochrane,..,..,on
3908,Outdoor Rink,rink,ottawa,1155,st moritz,..,..,on
3909,Outdoor Rink,rink,ottawa,1,windsor,..,..,on
3910,Outdoor Rink,rink,ottawa,3151,yorks corners,..,..,on
3911,Outdoor Rink,rink,ottawa,60,knoxdale,..,..,on
3912,Outdoor Rink,rink,ottawa,2074,benjamin,..,..,on
3913,Outdoor Rink,rink,ottawa,1269,albany,..,..,on
3914,Outdoor Rink,rink,ottawa,180,bourbon,..,..,on
3915,Outdoor Rink,rink,ottawa,2850,sandalwood,..,..,on
3916,Outdoor Rink,rink,ottawa,130,preston,..,..,on
3917,Outdoor Rink,rink,ottawa,37,chartwell,..,..,on
3918,Outdoor Rink,rink,ottawa,50,bellman,..,..,on
3919,Outdoor Rink,rink,ottawa,108,beech,..,..,on
3920,Outdoor Rink,rink,ottawa,1604,old wellington,..,..,on
3921,Outdoor Rink,rink,ottawa,140,carleton,..,..,on
3922,Outdoor Rink,rink,ottawa,1485,duford,..,..,on
3923,Outdoor Rink,rink,ottawa,23,alon,..,..,on
3924,Outdoor Rink,rink,ottawa,33,brae,..,..,on
3925,Outdoor Rink,rink,ottawa,107,chesterton,..,..,on
3926,Outdoor Rink,rink,ottawa,1855,simard,..,..,on
3927,Outdoor Rink,rink,ottawa,2320,southvale,..,..,on
3928,Outdoor Rink,rink,ottawa,28,cresthaven,..,..,on
3929,Outdoor Rink,rink,ottawa,180,lockhart,..,..,on
3930,Outdoor Rink,rink,ottawa,49,appleford,..,..,on
3931,Outdoor Rink,rink,ottawa,..,..,..,kanata,on
3932,Outdoor Rink,rink,ottawa,48,nanaimo,..,..,on
3933,Outdoor Rink,rink,ottawa,19,leeming,..,..,on
3934,Outdoor Rink,rink,ottawa,1465,ridgebrook,..,..,on
3935,Outdoor Rink,rink,ottawa,11,combermere,..,..,on
3936,Outdoor Rink,rink,ottawa,7,sycamore,..,..,on
3937,Outdoor Rink,rink,ottawa,1200,cedarcroft,..,..,on
3938,Outdoor Rink,rink,ottawa,4191,spratt,..,..,on
3939,Outdoor Rink,rink,ottawa,36,berry glen,..,..,on
