Index,Facility_Name,ODRSF_facility_type,Provider,Street_No,Street_Name,Postal_Code,City,Prov_Terr
170957,Marier Avenue Park,park,ottawa,239,marier,..,..,on
170984,Mark Yakabuski Park,park,ottawa,315,haliburton,..,..,on
171030,Marlborough Park,park,ottawa,6836,malakoff,..,rideau,on
171033,Marlene Catterall Park,park,ottawa,2955,mich√®le,..,..,on
171037,Marquis Park,park,ottawa,1913,marquis,..,gloucester,on
171047,Marsha Park,park,ottawa,855,lawnsberry,..,cumberland,on
171054,Martin Street Park,park,ottawa,80,martin,..,goulbourn,on
171068,Mary Durling Park,park,ottawa,33,brae,..,..,on
171076,Mary Scott Park,park,ottawa,6024,vineyard,..,gloucester,on
171118,Mattawa Park,park,ottawa,94,steeple chase,..,kanata,on
171141,Maxime Park,park,ottawa,1434,ridgebrook,..,gloucester,on
171154,Mayfair Park,park,ottawa,361,roxdale,..,cumberland,on
171192,Mccann Park,park,ottawa,80,norman,..,ottawa,on
171194,Mccarthy Park,park,ottawa,3320,paul anka,..,ottawa,on
171203,Mccormick Park,park,ottawa,294,carruthers,..,..,on
171237,Mcewen Park,park,ottawa,1145,richmond,..,ottawa,on
171243,Mcgibbon Park,park,ottawa,62,mcgibbon,..,kanata,on
171267,Mckellar Park,park,ottawa,539,wavell,..,..,on
171268,Mckendry Park,park,ottawa,2567,dow,..,osgoode,on
171270,Mckenna Park / Jockvale Heritage Building,park,ottawa,3131,jockvale,..,nepean,on
171286,Mckinley Park,park,ottawa,11,mckinley,..,kanata,on
171324,Mcnabb Park,park,ottawa,435,bronson,..,..,on
171342,Meadowbreeze Park,park,ottawa,98,meadowbreeze,..,kanata,on
171348,Meadowbrook Park (Gloucester),park,ottawa,1485,meadowbrook,..,gloucester,on
171349,Meadowbrook Park (Rideau),park,ottawa,2972,danbury,..,rideau,on
171354,Meadowlands Park,park,ottawa,1025,meadowlands,..,ottawa,on
171372,Meadowvale Terrace Park,park,ottawa,1205,trenton,..,..,on
171385,Medhurst Park,park,ottawa,72,medhurst,..,nepean,on
171417,Memorial Grove Park,park,ottawa,335,memorial,..,..,on
171428,Memorial Park At Fallowfield Station,park,ottawa,3355,fallowfield,..,nepean,on
171445,Merivale Gardens Park,park,ottawa,25,bie,..,nepean,on
171464,Metz Park,park,ottawa,1450,metz,..,..,on
171471,Michael Budd Park,park,ottawa,2359,orient park,..,gloucester,on
171544,Mill Street Parkette,park,ottawa,1140,mill,..,rideau,on
171567,Millers Point Park,park,ottawa,474,lockmaster,..,goulbourn,on
171593,Millstone Park,park,ottawa,420,de-la-famille-laporte,..,..,on
171649,Minto Park,park,ottawa,315,elgin,..,ottawa,on
171720,Moffatt Farm Veterans Park,park,ottawa,591,kochar,..,ottawa,on
171725,Mohawk Park,park,ottawa,90,queensline,..,nepean,on
171737,Moloughney Park,park,ottawa,30,wessex,..,nepean,on
171740,Monaghan Forest Park,park,ottawa,1160,moodie,..,nepean,on
171753,Monk Environmental Park,park,ottawa,3125,solandt,..,kanata,on
171754,Monk Meadow Park,park,ottawa,140,penfield,..,kanata,on
171781,Montgomery Memorial Park / Old Town Hall Community Centre,park,ottawa,61,main,..,ottawa,on
171796,Mooney's Bay Park,park,ottawa,2960,riverside,..,ottawa,on
171827,Morgan's Grant Woods Park,park,ottawa,50,flamborough,..,kanata,on
171847,Morrison Park,park,ottawa,1095,morrison,..,ottawa,on
171862,Mosquito Creek Park,park,ottawa,36,ryeburn,..,gloucester,on
171920,Mountain Meadows Park,park,ottawa,3740,mountain meadows,..,gloucester,on
