Index,Facility_Name,ODRSF_facility_type,Provider,Street_No,Street_Name,Postal_Code,City,Prov_Terr
12989,Leitrim Park,sports field,ottawa,3290,leitrim,..,gloucester,on
13005,Leon Katz Public Tennis Courts,sports field,ottawa,166,frank,..,ottawa,on
13014,Leslie Armstrong Park And Bearbrook Community Hall,sports field,ottawa,8720,russell,..,cumberland,on
13015,Leslie Park,sports field,ottawa,..,..,..,..,on
13016,Leslie Park Public School,sports field,ottawa,20,harrison,..,..,on
13032,Lexington Park,sports field,ottawa,..,..,..,..,on
13033,Lexington Park,sports field,ottawa,..,..,..,..,on
13034,Lexington Park,sports field,ottawa,1404,lexington,..,ottawa,on
13059,Lincoln Heights Park,sports field,ottawa,..,..,..,..,on
13066,Lindenlea Tennis Club,sports field,ottawa,15,rockcliffe,..,ottawa,on
13070,Linton Park,sports field,ottawa,1000,walkley,..,ottawa,on
13138,Logan Lea Park,sports field,ottawa,..,..,..,..,on
13139,Logan Lea Park,sports field,ottawa,..,..,..,..,on
13143,London Terrace Park,sports field,ottawa,..,..,..,..,on
13144,London Terrace Park,sports field,ottawa,..,..,..,..,on
13146,Long Island Locks Soccer Field,sports field,ottawa,..,..,..,ottawa,on
13148,Long Park Tennis Club,sports field,ottawa,1190,deer park,..,nepean,on
13149,Longfields-Davidson Heights Secondary School,sports field,ottawa,149,prom berrigan,..,..,on
13150,Longleaf Park,sports field,ottawa,5831,gladewoods,..,..,on
13171,Louis Perrault Park,sports field,ottawa,6250,beaus√©jour,..,..,on
13181,Luc Major Park,sports field,ottawa,..,..,..,..,on
13182,Ludger Landry Park,sports field,ottawa,..,..,..,..,on
13183,Ludger Landry Park,sports field,ottawa,4825,piperville,..,gloucester,on
13194,Lynda Lane Park,sports field,ottawa,..,..,..,..,on
13195,Lynda Lane Park,sports field,ottawa,..,..,..,..,on
13196,Lynda Lane Park,sports field,ottawa,..,..,..,..,on
13197,Lynda Lane Park,sports field,ottawa,..,..,..,..,on
13198,Lynda Lane Park,sports field,ottawa,..,..,..,..,on
13214,Lynwood Park,sports field,ottawa,..,..,..,..,on
13215,Lynwood Park,sports field,ottawa,..,..,..,..,on
13216,Lynwood Park,sports field,ottawa,7,sycamore,..,nepean,on
13217,Lynwood Tennis Club,sports field,ottawa,7,sycamore,..,nepean,on
13218,Lytle Park (Nepean),sports field,ottawa,..,..,..,..,on
13219,Lytle Park (Nepean),sports field,ottawa,..,..,..,..,on
13220,Lytle Park (Nepean),sports field,ottawa,..,..,..,..,on
13221,Lytle Park (Nepean),sports field,ottawa,..,..,..,..,on
13222,Lytle Park (Nepean),sports field,ottawa,..,..,..,..,on
13223,Lytle Park (Nepean),sports field,ottawa,..,..,..,..,on
13224,Lytle Park (Nepean),sports field,ottawa,..,..,..,..,on
13225,Lytle Park (Nepean),sports field,ottawa,4401,o'keefe,..,..,on
13226,Lytle Park (Nepean),sports field,ottawa,4401,o'keefe,..,..,on
13227,Lytle Park Sports Field - Nepean,sports field,ottawa,..,..,..,ottawa,on
13287,Major W. Ross Chamberlain Park,sports field,ottawa,..,..,..,..,on
13289,Maki Park,sports field,ottawa,..,..,..,..,on
13290,Maki Park,sports field,ottawa,19,leeming,..,nepean,on
13301,Malvern Park,sports field,ottawa,..,..,..,..,on
13313,Manor Park,sports field,ottawa,..,..,..,..,on
13314,Manor Park,sports field,ottawa,..,..,..,..,on
13315,Manor Park,sports field,ottawa,..,..,..,..,on
