Index,Facility_Name,ODRSF_facility_type,Provider,Street_No,Street_Name,Postal_Code,City,Prov_Terr
9583,Cedarview Middle School,sports field,ottawa,2760,cedarview,..,..,on
9585,Celebration Park,sports field,ottawa,..,..,..,..,on
9596,Centennial Park,sports field,ottawa,..,..,..,..,on
9600,Centennial Park,sports field,ottawa,..,..,..,..,on
9603,Centennial Park,sports field,ottawa,5572,doctor leach,..,rideau,on
9604,Centennial Park,sports field,ottawa,5572,doctor leach,..,rideau,on
9676,Centrepointe Park,sports field,ottawa,..,..,..,..,on
9677,Centrepointe Park,sports field,ottawa,..,..,..,..,on
9678,Centrepointe Park,sports field,ottawa,..,..,..,..,on
9679,Centrepointe Park,sports field,ottawa,..,..,..,..,on
9680,Centrepointe Park,sports field,ottawa,..,..,..,..,on
9681,Centrepointe Park,sports field,ottawa,260,centrepointe,..,nepean,on
9682,Centrepointe Park,sports field,ottawa,260,centrepointe,..,nepean,on
9683,Centrepointe Park Ball Diamond,sports field,ottawa,..,..,..,ottawa,on
9694,Century Public School,sports field,ottawa,8,prom redpine,..,..,on
9705,Chamberlain Park,sports field,ottawa,..,..,..,..,on
9708,Champlain Park,sports field,ottawa,..,..,..,..,on
9709,Champlain Park,sports field,ottawa,140,carleton,..,..,on
9716,Chanonhouse Park,sports field,ottawa,..,..,..,..,on
9717,Chapel Hill Park,sports field,ottawa,..,..,..,..,on
9718,Chapel Hill Park,sports field,ottawa,1556,forest valley,..,gloucester,on
9719,Chapel Hill Sports Field,sports field,ottawa,..,..,..,ottawa,on
9720,Chapman Mills Park,sports field,ottawa,..,..,..,..,on
9723,Charing Park,sports field,ottawa,..,..,..,..,on
9724,Charing Park,sports field,ottawa,37,chartwell,..,..,on
9725,Charing Sports Fields,sports field,ottawa,..,..,..,ottawa,on
9726,Charles H. Hulse Public School,sports field,ottawa,2605,prom alta vista,..,..,on
9798,Chris Bracken Park,sports field,ottawa,..,..,..,..,on
9799,Chris Bracken Park,sports field,ottawa,..,..,..,..,on
9800,Chris Bracken Park,sports field,ottawa,..,..,..,..,on
9835,City Centre Park,sports field,ottawa,..,..,..,..,on
9837,City View Ball Diamond,sports field,ottawa,..,..,..,ottawa,on
9840,City View Tennis Club,sports field,ottawa,58,fieldrow,..,nepean,on
9855,Clarence Maheral Park,sports field,ottawa,..,..,..,..,on
9856,Clarence Maheral Park,sports field,ottawa,..,..,..,..,on
9857,Clarence Maheral Park,sports field,ottawa,..,..,..,..,on
9858,Clarence Maheral Park,sports field,ottawa,..,..,..,..,on
9859,Clarence Maheral Park,sports field,ottawa,..,..,..,..,on
9860,Clarence Maheral Park,sports field,ottawa,170,castlefrank,..,kanata,on
9863,Clark Fields Sports Fields,sports field,ottawa,..,..,..,ottawa,on
9869,Clarke Fields Park,sports field,ottawa,..,..,..,..,on
9870,Clarke Fields Park,sports field,ottawa,..,..,..,..,on
9871,Clarke Fields Park,sports field,ottawa,..,..,..,..,on
9872,Clarke Fields Park,sports field,ottawa,93,houlahan,..,nepean,on
9885,Claudette Cain Park,sports field,ottawa,..,..,..,..,on
9886,Claudette Cain Park,sports field,ottawa,..,..,..,..,on
10105,Colonel By Secondary School,sports field,ottawa,2381,ogilvie,..,..,on
10106,Colonel By Secondary School,sports field,ottawa,2381,ogilvie,..,..,on
10108,Colonnade Park,sports field,ottawa,..,..,..,..,on
