Index,Facility_Name,ODRSF_facility_type,Provider,Street_No,Street_Name,Postal_Code,City,Prov_Terr
12403,Kenmore Community Hall,sports field,ottawa,..,..,..,..,on
12432,Kilbirnie Park,sports field,ottawa,..,..,..,..,on
12433,Kilbirnie Park,sports field,ottawa,..,..,..,..,on
12442,Kilreen Park,sports field,ottawa,..,..,..,..,on
12449,Kimmins Court Park,sports field,ottawa,..,..,..,..,on
12453,Kinburn Community Centre,sports field,ottawa,..,..,..,..,on
12454,Kinburn Community Centre,sports field,ottawa,..,..,..,..,on
12455,Kinburn Community Centre,sports field,ottawa,..,..,..,..,on
12456,Kinburn Community Centre,sports field,ottawa,..,..,..,..,on
12457,Kinburn Community Centre,sports field,ottawa,..,..,..,..,on
12458,Kinburn Community Centre,sports field,ottawa,3045,kinburn side,..,carleton,on
12482,Kingsmere Park,sports field,ottawa,2074,benjamin,..,..,on
12497,Kinsella Park,sports field,ottawa,..,..,..,..,on
12498,Kinsella Park,sports field,ottawa,1600,prestwick,..,cumberland,on
12499,Kinsella Park,sports field,ottawa,1600,prestwick,..,cumberland,on
12542,Kittiwake Park,sports field,ottawa,..,..,..,..,on
12558,Klondike Road Park,sports field,ottawa,..,..,..,..,on
12778,Kristina Kiss Park,sports field,ottawa,..,..,..,..,on
12782,La Verendrye Park,sports field,ottawa,..,..,..,..,on
12833,Lakeview Public School,sports field,ottawa,35,corkstown,..,..,on
12834,Lakeview Public School,sports field,ottawa,35,corkstown,..,..,on
12869,Langstaff Drive Soccer Fields,sports field,ottawa,..,..,..,..,on
12870,Langstaff Drive Soccer Fields,sports field,ottawa,..,..,..,..,on
12871,Langstaff Drive Soccer Fields,sports field,ottawa,..,..,..,..,on
12872,Langstaff Drive Soccer Fields,sports field,ottawa,..,..,..,..,on
12873,Langstaff Drive Soccer Fields,sports field,ottawa,..,..,..,..,on
12874,Langstaff Drive Soccer Fields,sports field,ottawa,..,..,..,..,on
12875,Langstaff Drive Soccer Fields,sports field,ottawa,..,..,..,..,on
12897,Larkin Park,sports field,ottawa,..,..,..,..,on
12898,Larkin Park,sports field,ottawa,..,..,..,..,on
12899,Larkin Park,sports field,ottawa,..,..,..,..,on
12900,Larkin Park,sports field,ottawa,76,larkin,..,nepean,on
12903,Laroche Park,sports field,ottawa,52,bayview,..,ottawa,on
12904,Laroche Park,sports field,ottawa,52,bayview,..,ottawa,on
12935,Lawn Bowling,sports field,ottawa,119,darwin,..,carleton,on
12936,Lawn Bowling,sports field,ottawa,300,des-p√®res-blancsvanier,..,ottawa,on
12945,Lawson Park,sports field,ottawa,491,lawson,..,..,on
12950,Le Phare Elementary School,sports field,ottawa,1965,prom naskapi,..,..,on
12963,Ledbury Park And Pavilion,sports field,ottawa,..,..,..,..,on
12964,Ledbury Park And Pavilion,sports field,ottawa,1250,ledbury,..,..,on
12979,Leitrim Ball Diamond,sports field,ottawa,..,..,..,ottawa,on
12980,Leitrim Park,sports field,ottawa,..,..,..,..,on
12981,Leitrim Park,sports field,ottawa,..,..,..,..,on
12982,Leitrim Park,sports field,ottawa,..,..,..,..,on
12983,Leitrim Park,sports field,ottawa,..,..,..,..,on
12984,Leitrim Park,sports field,ottawa,..,..,..,..,on
12985,Leitrim Park,sports field,ottawa,..,..,..,..,on
12986,Leitrim Park,sports field,ottawa,..,..,..,..,on
12987,Leitrim Park,sports field,ottawa,3290,leitrim,..,gloucester,on
