Index,Facility_Name,ODRSF_facility_type,Provider,Street_No,Street_Name,Postal_Code,City,Prov_Terr
17322,Steve Maclean Public School,sports field,ottawa,4175,spratt,..,..,on
17328,Stinson Park,sports field,ottawa,..,..,..,..,on
17333,Stonecrest Elementary School,sports field,ottawa,3791,stonecrest,..,..,on
17334,Stonecrest Park,sports field,ottawa,..,..,..,..,on
17335,Stonecrest Park,sports field,ottawa,..,..,..,..,on
17336,Stonecrest Park,sports field,ottawa,..,..,..,..,on
17337,Stonecrest Park,sports field,ottawa,220,stoneway,..,nepean,on
17338,Stonecrest Park Sports Fields,sports field,ottawa,..,..,..,ottawa,on
17340,Stonemeadow Park,sports field,ottawa,..,..,..,..,on
17369,Strathcona Park,sports field,ottawa,25,range,..,ottawa,on
17395,Summerhill Park,sports field,ottawa,..,..,..,..,on
17456,Sylvia Holden Park,sports field,ottawa,641,o'connor,..,ottawa,on
17457,Sylvia Holden Park,sports field,ottawa,641,o'connor,..,ottawa,on
17474,Tanglewood Park,sports field,ottawa,..,..,..,..,on
17475,Tanglewood Park,sports field,ottawa,30,woodfield,..,nepean,on
17476,Tauvette Park,sports field,ottawa,2436,innes,..,gloucester,on
17477,Tauvette Park,sports field,ottawa,..,..,..,..,on
17478,Tauvette Park,sports field,ottawa,..,..,..,..,on
17479,Tauvette Park,sports field,ottawa,2436,innes,..,gloucester,on
17480,Tauvette Park,sports field,ottawa,2436,innes,..,gloucester,on
17481,Tauvette Park Sports Fields,sports field,ottawa,..,..,..,ottawa,on
17584,Tennis Centre West Ottawa,sports field,ottawa,2805,carling,..,..,on
17597,Tennis Courts - Colonel By Secondary School,sports field,ottawa,2381,ogilvie,..,gloucester,on
17598,Tennis Courts - Hillcrest High School,sports field,ottawa,1900,dauphin,..,ottawa,on
17599,Tennis Courts - Rideau High School,sports field,ottawa,815,st laurent,..,ottawa,on
17600,Tennis Courts - Ridgemont High School,sports field,ottawa,2597,alta vista,..,ottawa,on
17601,Tennis Courts - Woodroffe High School,sports field,ottawa,2410,georgina,..,ottawa,on
17605,Tennis Practice Ball Wall - Medhurst Park,sports field,ottawa,72,medhurst,..,nepean,on
17680,Terry Fox Elementary School,sports field,ottawa,6400,jeanne d'arc,..,..,on
17785,Tom Brown Arena,sports field,ottawa,..,..,..,..,on
17848,Trappers Park,sports field,ottawa,..,..,..,..,on
17849,Trappers Park,sports field,ottawa,..,..,..,..,on
17859,Trend Arlington Tennis Club,sports field,ottawa,50,bellman,..,nepean,on
17860,Trend Park,sports field,ottawa,..,..,..,..,on
17861,Trend Park,sports field,ottawa,36,canfield,..,nepean,on
17862,Trend-Arlington Park,sports field,ottawa,..,..,..,..,on
17863,Trend-Arlington Park,sports field,ottawa,..,..,..,..,on
17864,Trend-Arlington Park,sports field,ottawa,..,..,..,..,on
17865,Trend-Arlington Park,sports field,ottawa,..,..,..,..,on
17866,Trend-Arlington Park,sports field,ottawa,..,..,..,..,on
17867,Trend-Arlington Park,sports field,ottawa,50,bellman,..,nepean,on
17869,Trillium Ball Diamond,sports field,ottawa,..,..,..,ottawa,on
17870,Trillium Park,sports field,ottawa,2030,ogilvie,..,gloucester,on
17871,Trillium Park,sports field,ottawa,..,..,..,..,on
17881,Trustee M. Curry Park,sports field,ottawa,..,..,..,..,on
17882,Trustee M. Curry Park,sports field,ottawa,..,..,..,..,on
17939,Union St. Roundabout Basketball Court,sports field,ottawa,349,bruy√®re,..,ottawa,on
17953,Uplands Park,sports field,ottawa,..,..,..,..,on
17954,Uplands Riverside Park,sports field,ottawa,..,..,..,..,on
