Index,Facility_Name,ODRSF_facility_type,Provider,Street_No,Street_Name,Postal_Code,City,Prov_Terr
5846,Splash Wave Pool,pool,ottawa,..,..,..,ottawa,on
5884,St Laurent Pool,pool,ottawa,..,..,..,ottawa,on
5960,Stephen Leacock Public School Outdoor Rink,rink,ottawa,9,beaverbrook,..,..,on
6054,Ted Hay Rink,rink,ottawa,600,longfields,..,..,on
6114,Tom Brown Arena,arena,ottawa,..,..,..,ottawa,on
6160,Trillium Park Skateboard Park,skate park,ottawa,2030,ogilvie,..,..,on
6166,Trinity Sens Rink,rink,ottawa,33,quill,..,..,on
6300,Vista Skateboard Park,skate park,ottawa,720,vistapark,..,..,on
6305,W Erskine Johnston Arena,arena,ottawa,..,..,..,ottawa,on
6307,W. Erskine Johnston Arena,arena,ottawa,3832,carp,K0A 1L0,ottawa,on
6312,Wading Pool - Agincourt,pool,ottawa,1269,albany,..,..,on
6313,Wading Pool - Alda Burt,pool,ottawa,1816,laurent,..,..,on
6314,Wading Pool - Alexander,pool,ottawa,960,silver,..,..,on
6315,Wading Pool - Alta Vista,pool,ottawa,1309,randall,..,..,on
6316,Wading Pool - Alvin Heights,pool,ottawa,349,claremont,..,..,on
6317,Wading Pool - Balena,pool,ottawa,1640,devon,..,..,on
6318,Wading Pool - Bel Air,pool,ottawa,2149,berwick,..,..,on
6319,Wading Pool - Bellevue Manor,pool,ottawa,1520,caldwell,..,..,on
6320,Wading Pool - Bingham,pool,ottawa,145,cathcart,..,..,on
6321,Wading Pool - Brantwood,pool,ottawa,120,clegg,..,..,on
6322,Wading Pool - Britannia,pool,ottawa,2844,ahern,..,..,on
6323,Wading Pool - Canterbury,pool,ottawa,2185,arch,..,..,on
6324,Wading Pool - Carleton Heights,pool,ottawa,1665,apeldoorn,..,..,on
6325,Wading Pool - Cecil Morrison,pool,ottawa,1332,n,..,..,on
6326,Wading Pool - Champlain,pool,ottawa,140,carleton,..,..,on
6327,Wading Pool - Chaudiere,pool,ottawa,68,elm,..,..,on
6328,Wading Pool - Dutchie's Hole,pool,ottawa,154,mann,..,..,on
6329,Wading Pool - Elizabeth Manley,pool,ottawa,1161,blohm,..,..,on
6330,Wading Pool - Ev Tremblay,pool,ottawa,108,beech,..,..,on
6331,Wading Pool - Frank Licari,pool,ottawa,1990,cochrane,..,..,on
6332,Wading Pool - Frank Ryan,pool,ottawa,950,alpine,..,..,on
6333,Wading Pool - Greenboro,pool,ottawa,363,lorry greenberg,..,..,on
6334,Wading Pool - Hampton,pool,ottawa,645,parkview,..,..,on
6335,Wading Pool - Hawthorne,pool,ottawa,2139,tawney,..,..,on
6336,Wading Pool - Heron,pool,ottawa,999,heron,..,..,on
6337,Wading Pool - Iona,pool,ottawa,223,iona,..,..,on
6338,Wading Pool - Jules Morin,pool,ottawa,400,clarence,..,..,on
6339,Wading Pool - Kingsmere,pool,ottawa,2074,benjamin,..,..,on
6340,Wading Pool - Kiwanis,pool,ottawa,395,levis,..,..,on
6341,Wading Pool - Lions,pool,ottawa,294,elmgrove,..,..,on
6342,Wading Pool - Lisa,pool,ottawa,6,lisa,..,..,on
6343,Wading Pool - Marlene Catterall,pool,ottawa,2955,michéle,..,..,on
6344,Wading Pool - Mckellar,pool,ottawa,539,wavell,..,..,on
6345,Wading Pool - Mcnabb,pool,ottawa,435,bronson,..,..,on
6346,Wading Pool - Meadowvale,pool,ottawa,1205,trenton,..,..,on
6347,Wading Pool - Optimiste,pool,ottawa,43,e-cécile,..,..,on
6348,Wading Pool - Overbrook,pool,ottawa,33,quill,..,..,on
6349,Wading Pool - Owl,pool,ottawa,215,owl,..,..,on
6350,Wading Pool - Parkdale,pool,ottawa,366,parkdale,..,..,on
