Index,Facility_Name,ODRSF_facility_type,Provider,Street_No,Street_Name,Postal_Code,City,Prov_Terr
5746,Splash Pad,splash pad,ottawa,720,vistapark,..,cumberland,on
5747,Splash Pad,splash pad,ottawa,970,parkhaven,..,..,on
5748,Splash Pad,splash pad,ottawa,901,trojan,..,..,on
5749,Splash Pad,splash pad,ottawa,110,mancini,..,nepean,on
5750,Splash Pad,splash pad,ottawa,229,hepatica,..,..,on
5751,Splash Pad,splash pad,ottawa,305,lysander,..,..,on
5752,Splash Pad,splash pad,ottawa,76,inverness,..,..,on
5753,Splash Pad,splash pad,ottawa,11,dunbarton,..,..,on
5754,Splash Pad,splash pad,ottawa,5058,bluff,..,..,on
5755,Splash Pad,splash pad,ottawa,3525,cambrian,..,nepean,on
5756,Splash Pad,splash pad,ottawa,1580,telesat,..,..,on
5757,Splash Pad,splash pad,ottawa,90,banner,..,nepean,on
5758,Splash Pad,splash pad,ottawa,2,beechcliffe,..,nepean,on
5759,Splash Pad,splash pad,ottawa,120,ramsgrange,..,ottawa,on
5760,Splash Pad,splash pad,ottawa,936,lawnsberry,..,cumberland,on
5761,Splash Pad,splash pad,ottawa,180,knoxdale,..,nepean,on
5762,Splash Pad,splash pad,ottawa,660,boothfield,..,gloucester,on
5763,Splash Pad,splash pad,ottawa,272,ridge,..,..,on
5764,Splash Pad,splash pad,ottawa,315,haliburton,..,..,on
5765,Splash Pad,splash pad,ottawa,420,de-la-famille-laporte,..,cumberland,on
5766,Splash Pad,splash pad,ottawa,1800,city park,..,gloucester,on
5767,Splash Pad,splash pad,ottawa,1844,johnston,..,ottawa,on
5768,Splash Pad,splash pad,ottawa,215,owl,..,ottawa,on
5769,Splash Pad,splash pad,ottawa,660,river,..,gloucester,on
5770,Splash Pad,splash pad,ottawa,691,hartman,..,..,on
5771,Splash Pad,splash pad,ottawa,2132,radford,..,..,on
5772,Splash Pad,splash pad,ottawa,230,mistral,..,goulbourn,on
5773,Splash Pad,splash pad,ottawa,130,walden,..,kanata,on
5774,Splash Pad,splash pad,ottawa,50,heritage,..,nepean,on
5775,Splash Pad,splash pad,ottawa,711,long,..,..,on
5776,Splash Pad,splash pad,ottawa,1200,cedarcroft,..,gloucester,on
5777,Splash Pad,splash pad,ottawa,3795,alderwood,..,gloucester,on
5778,Splash Pad,splash pad,ottawa,1556,forest,..,gloucester,on
5779,Splash Pad,splash pad,ottawa,1420,meadowbrook,..,gloucester,on
5780,Splash Pad,splash pad,ottawa,346,kennedy,..,..,on
5781,Splash Pad,splash pad,ottawa,220,stoneway,..,nepean,on
5782,Splash Pad,splash pad,ottawa,2999,sable,..,gloucester,on
5783,Splash Pad,splash pad,ottawa,681,seyton,..,nepean,on
5784,Splash Pad,splash pad,ottawa,1691,sunview,..,gloucester,on
5785,Splash Pad,splash pad,ottawa,100,millennium,..,cumberland,on
5786,Splash Pad,splash pad,ottawa,300,den,..,ottawa,on
5787,Splash Pad,splash pad,ottawa,6011,longleaf,..,gloucester,on
5788,Splash Pad,splash pad,ottawa,310,upcountry,..,goulbourn,on
5789,Splash Pad,splash pad,ottawa,1018,stittsville,..,goulbourn,on
5790,Splash Pad,splash pad,ottawa,221,radhika,..,..,on
5791,Splash Pad,splash pad,ottawa,105,felicity,..,gloucester,on
5792,Splash Pad,splash pad,ottawa,171,escarpment,..,..,on
5793,Splash Pad,splash pad,ottawa,710,mikinak,..,ottawa,on
5794,Splash Pad,splash pad,ottawa,61,main,..,ottawa,on
