Index,Facility_Name,ODRSF_facility_type,Provider,Street_No,Street_Name,Postal_Code,City,Prov_Terr
174686,River Park,park,ottawa,74,creek,..,carleton,on
174702,River Run Park,park,ottawa,3490,river run,..,..,on
174705,Riverain Park,park,ottawa,400,north-river,..,vanier,on
174762,River's Bend Park,park,ottawa,245,riversedge,..,gloucester,on
174774,Riverside Memorial Park,park,ottawa,1063,north-river,..,ottawa,on
174786,Riverside Terrace Park,park,ottawa,225,clearview,..,..,on
174793,Riverview Park,park,ottawa,256,knox,..,..,on
174806,Riverwood Park,park,ottawa,22,kimberwick,..,..,on
174818,Robert Andrew Russell Park,park,ottawa,466,billings,..,..,on
174824,Robert F. Legget Park,park,ottawa,321,main,..,ottawa,on
174829,Robert Gray Park,park,ottawa,147,gray,..,..,on
174843,Robert Park,park,ottawa,760,vinette,..,cumberland,on
174884,Rockcliffe Park Library / Community Hall,park,ottawa,380,springfield,..,rockcliffe,on
174886,Rockhurst Parkette,park,ottawa,..,wellington,..,..,on
174894,Rockway Park,park,ottawa,26,rockway,..,..,on
174904,Rodeo Park,park,ottawa,175,rodeo,..,nepean,on
174934,Roland Michener Park,park,ottawa,989,teron,..,kanata,on
174955,Rooney Park,park,ottawa,15,steeple hill,..,..,on
174964,Rose Park,park,ottawa,310,bruyère,..,..,on
174979,Rosehill Park,park,ottawa,528,rosehill,..,goulbourn,on
174996,Rosetta Park,park,ottawa,31,rosetta,..,..,on
175002,Roslyn Park,park,ottawa,6405,radisson,..,..,on
175014,Rossignol Park,park,ottawa,8426,jeanne d'arc,..,cumberland,on
175238,Rouncey Park,park,ottawa,590,rouncey,..,..,on
175239,Roundhay Park / Starwood Park,park,ottawa,31,roundhay,..,nepean,on
175251,Rowe Park,park,ottawa,341,davis,..,..,on
175268,Roy Duncan Park,park,ottawa,295,churchill,..,..,on
175269,Roy G. Hobbs Community Centre And Park,park,ottawa,109,larch,..,cumberland,on
175275,Roy Park,park,ottawa,6210,meadowglen,..,gloucester,on
175282,Royal 22E Régiment Park,park,ottawa,315,centrum,..,cumberland,on
175304,Royal Ridge Park,park,ottawa,115,challenge,..,..,on
175319,Ruisseau Park,park,ottawa,6116,creek crossing,..,gloucester,on
175336,Russell Boyd Park,park,ottawa,1735,st bernard,..,gloucester,on
175342,Russvern Park,park,ottawa,2334,russvern,..,rideau,on
175349,Ruth Wildgen Park,park,ottawa,1099,grenon,..,..,on
175361,Ryan Farm Park,park,ottawa,5,parkglen,..,nepean,on
175393,Saddlebrook Park,park,ottawa,160,john aselford,..,kanata,on
175469,Sandalwood Park,park,ottawa,2850,sandalwood,..,ottawa,on
175482,Sandpiper Cove Park,park,ottawa,8510,jeanne d'arc,..,cumberland,on
175495,Sandwell Green Park,park,ottawa,60,leacock,..,kanata,on
175501,Sandy Hill Park And Community Centre,park,ottawa,250,somerset,..,ottawa,on
175517,Sarah Mccarthy Park,park,ottawa,38,nixon farm,..,..,on
175537,Sawmill Creek Park Pathway Systems,park,ottawa,1599,goth,..,gloucester,on
175538,Sawmill Creek Pool Park,park,ottawa,3380,d'aoust,..,gloucester,on
175540,Sawyer's Meadow Park,park,ottawa,80,sawyer,..,kanata,on
175543,Scala Park,park,ottawa,797,scala,..,cumberland,on
175607,Scisson's Park,park,ottawa,96,bridle park,..,kanata,on
175647,Seabrooke Park,park,ottawa,90,seabrooke,..,kanata,on
175680,Senator Eugene Forsey Park,park,ottawa,964,bronson,..,..,on
