Index,Facility_Name,ODRSF_facility_type,Provider,Street_No,Street_Name,Postal_Code,City,Prov_Terr
14750,Pierre Rocque Ball Diamond,sports field,ottawa,..,..,..,ottawa,on
14751,Pierre Rocque Park,sports field,ottawa,1257,joseph drouin,..,gloucester,on
14772,Pinecrest Park Sports Fields,sports field,ottawa,..,..,..,ottawa,on
14773,Pinecrest Public School,sports field,ottawa,1281,pinecrest,..,..,on
14774,Pinecrest Public School,sports field,ottawa,1281,pinecrest,..,..,on
14775,Pinecrest Public School,sports field,ottawa,1281,pinecrest,..,..,on
14776,Pinecrest Recreation Complex And Park,sports field,ottawa,2250,torquay,..,..,on
14777,Pinecrest Recreation Complex And Park,sports field,ottawa,2250,torquay,..,..,on
14778,Pinecrest Recreation Complex And Park,sports field,ottawa,2250,torquay,..,..,on
14779,Pinecrest Recreation Complex And Park,sports field,ottawa,..,..,..,..,on
14780,Pinecrest Recreation Complex And Park,sports field,ottawa,2250,torquay,..,..,on
14781,Pinecrest Recreation Complex And Park,sports field,ottawa,2250,torquay,..,..,on
14782,Pinecrest Recreation Complex And Park,sports field,ottawa,2250,torquay,..,..,on
14788,Pineview Golf Course,sports field,ottawa,..,..,..,ottawa,on
14789,Pineview Park,sports field,ottawa,..,..,..,..,on
14790,Pineview Park,sports field,ottawa,1465,ridgebrook,..,gloucester,on
14794,Pioneer Plains Park,sports field,ottawa,..,..,..,..,on
14835,Plant Recreation Centre,sports field,ottawa,..,..,..,ottawa,on
14836,Playfair Park,sports field,ottawa,1801,playfair,..,ottawa,on
14842,Plouffe Park,sports field,ottawa,..,..,..,..,on
14843,Plouffe Park,sports field,ottawa,..,..,..,..,on
14873,Portobello Park,sports field,ottawa,..,..,..,..,on
14874,Portobello Park,sports field,ottawa,..,..,..,..,on
14881,Potvin Park Sports Field,sports field,ottawa,..,..,..,ottawa,on
14886,Presland Park,sports field,ottawa,368,presland,..,ottawa,on
14903,Princess Louise Park,sports field,ottawa,550,princess louise,..,cumberland,on
14919,Provence Park,sports field,ottawa,..,..,..,..,on
14920,Provence Park,sports field,ottawa,..,..,..,..,on
14950,Public Tennis Courts,sports field,ottawa,837,grenon,..,..,on
14951,Public Tennis Courts,sports field,ottawa,250,lorry greenberg,..,ottawa,on
14952,Public Tennis Courts,sports field,ottawa,130,walden,..,kanata,on
14953,Public Tennis Courts,sports field,ottawa,2554,kaladar,..,..,on
14954,Public Tennis Courts,sports field,ottawa,39,onslow,..,..,on
14955,Public Tennis Courts,sports field,ottawa,145,cathcart,..,ottawa,on
14956,Public Tennis Courts,sports field,ottawa,411,dovercourt,..,..,on
14957,Public Tennis Courts,sports field,ottawa,5831,gladewoods,..,..,on
14958,Public Tennis Courts,sports field,ottawa,998,valin,..,cumberland,on
14959,Public Tennis Courts,sports field,ottawa,3,whippoorwill,..,gloucester,on
14960,Public Tennis Courts,sports field,ottawa,80,chamberlain,..,..,on
14961,Public Tennis Courts,sports field,ottawa,1095,morrison,..,ottawa,on
14962,Public Tennis Courts,sports field,ottawa,86,templeton,..,ottawa,on
14963,Public Tennis Courts,sports field,ottawa,1250,southwood,..,ottawa,on
14964,Public Tennis Courts,sports field,ottawa,2031,navaho,..,ottawa,on
14965,Public Tennis Courts,sports field,ottawa,691,hartman,..,..,on
14966,Public Tennis Courts,sports field,ottawa,1590,alta vista,..,ottawa,on
14967,Public Tennis Courts,sports field,ottawa,2960,riverside,..,ottawa,on
14968,Public Tennis Courts,sports field,ottawa,30,woodfield,..,nepean,on
14969,Public Tennis Courts,sports field,ottawa,200,central park,..,ottawa,on
14970,Public Tennis Courts,sports field,ottawa,2890,munster,..,goulbourn,on
