Index,Facility_Name,ODRSF_facility_type,Provider,Street_No,Street_Name,Postal_Code,City,Prov_Terr
8734,Basketball Key,sports field,ottawa,11,totteridge,..,..,on
8735,Basketball Key,sports field,ottawa,1251,halton,..,..,on
8736,Basketball Key,sports field,ottawa,2915,haughton,..,..,on
8737,Basketball Key,sports field,ottawa,1640,devon,..,ottawa,on
8738,Basketball Key,sports field,ottawa,140,carleton,..,..,on
8739,Basketball Key,sports field,ottawa,16,parthia,..,..,on
8740,Basketball Key,sports field,ottawa,1205,trenton,..,..,on
8741,Basketball Key,sports field,ottawa,625,la verendrye,..,gloucester,on
8742,Basketball Key,sports field,ottawa,56,winding,..,nepean,on
8743,Basketball Key,sports field,ottawa,150,harbour view,..,nepean,on
8744,Basketball Key,sports field,ottawa,2350,russell,..,ottawa,on
8745,Basketball Key,sports field,ottawa,3,whippoorwill,..,gloucester,on
8746,Basketball Key,sports field,ottawa,35,overlake,..,nepean,on
8747,Basketball Key,sports field,ottawa,101,duhamel,..,ottawa,on
8748,Basketball Key,sports field,ottawa,70,mountshannon,..,nepean,on
8749,Basketball Key,sports field,ottawa,3345,uplands,..,ottawa,on
8750,Basketball Key,sports field,ottawa,681,seyton,..,nepean,on
8751,Basketball Key,sports field,ottawa,955,pleasant park,..,ottawa,on
8752,Basketball Key,sports field,ottawa,..,..,..,..,on
8753,Basketball Key,sports field,ottawa,100,brewer,..,ottawa,on
8754,Basketball Key,sports field,ottawa,107,chesterton,..,nepean,on
8755,Basketball Key,sports field,ottawa,11,denham,..,goulbourn,on
8756,Basketball Key,sports field,ottawa,14,fringewood,..,goulbourn,on
8757,Basketball Key,sports field,ottawa,352,london,..,..,on
8758,Basketball Key,sports field,ottawa,11,robert kemp,..,gloucester,on
8759,Basketball Key,sports field,ottawa,139,windhurst,..,nepean,on
8760,Basketball Key,sports field,ottawa,3939,albion,..,..,on
8761,Basketball Key,sports field,ottawa,3795,alderwood,..,..,on
8762,Basketball Key,sports field,ottawa,5590,campeau,..,kanata,on
8763,Basketball Key,sports field,ottawa,1420,meadowbrook,..,gloucester,on
8764,Basketball Key,sports field,ottawa,152,grandview,..,nepean,on
8765,Basketball Key,sports field,ottawa,6020,piperville,..,gloucester,on
8766,Basketball Key,sports field,ottawa,6698,marina,..,rideau,on
8767,Basketball Key,sports field,ottawa,1990,cochrane,..,..,on
8768,Basketball Key,sports field,ottawa,3380,d'aoust,..,gloucester,on
8769,Basketball Key,sports field,ottawa,2567,dow,..,osgoode,on
8770,Basketball Key,sports field,ottawa,1861,markwell,..,gloucester,on
8771,Basketball Key,sports field,ottawa,1115,dunning,..,cumberland,on
8772,Basketball Key,sports field,ottawa,25,gesner,..,..,on
8773,Basketball Key,sports field,ottawa,25,gesner,..,..,on
8774,Basketball Key,sports field,ottawa,625,la verendrye,..,gloucester,on
8775,Basketball Key,sports field,ottawa,7950,lawrence,..,osgoode,on
8776,Basketball Key,sports field,ottawa,100,kamloops,..,..,on
8777,Basketball Key,sports field,ottawa,6210,meadowglen,..,gloucester,on
8778,Basketball Key,sports field,ottawa,6499,princiotta,..,osgoode,on
8779,Basketball Key,sports field,ottawa,6836,malakoff,..,rideau,on
8780,Basketball Key,sports field,ottawa,2331,edwin,..,..,on
8781,Basketball Key,sports field,ottawa,930,somerset,..,ottawa,on
8782,Basketball Key,sports field,ottawa,2960,riverside,..,ottawa,on
