Index,Facility_Name,ODRSF_facility_type,Provider,Street_No,Street_Name,Postal_Code,City,Prov_Terr
168499,Hillside Vista Park,park,ottawa,225,eric czapnik,..,..,on
168500,Hilltop Park,park,ottawa,5425,hilltop,..,rideau,on
168508,Hintonburg Park,park,ottawa,101,duhamel,..,ottawa,on
168547,Holly Acres Park,park,ottawa,77,varley,..,kanata,on
168582,Honey Gables Park,park,ottawa,14,ryeburn,..,gloucester,on
168589,Hope Cloutier Park,park,ottawa,159,old colony,..,kanata,on
168592,Hopetown Park,park,ottawa,23,hartsmere,..,goulbourn,on
168596,Horace Park,park,ottawa,15,horace,..,..,on
168597,Horace Seabrook Park,park,ottawa,2346,perkins,..,rideau,on
168600,Hornets Nest Park,park,ottawa,1660,bearbrook,..,gloucester,on
168621,Houlahan Park And West Houlahan Park,park,ottawa,44,tartan,..,nepean,on
168623,Howard A. Maguire Park,park,ottawa,560,parade,..,..,on
168679,Hummingbird Park,park,ottawa,17,upwood,..,ottawa,on
168685,Hunt Club Gate Park,park,ottawa,350,macoun,..,..,on
168706,Huntsman Park,park,ottawa,38,huntsman,..,..,on
168721,Hutton Park,park,ottawa,1830,hutton,..,..,on
168809,Innes Park Woods,park,ottawa,3828,innes,..,gloucester,on
168814,Insmill Park,park,ottawa,67,insmill,..,..,on
168815,Inspiration Park,park,ottawa,38,winthrop private,..,..,on
168831,Inverness Park,park,ottawa,76,inverness,..,..,on
168833,Iona Park,park,ottawa,223,iona,..,ottawa,on
168861,Irwin Gate Park,park,ottawa,345,pickford,..,kanata,on
168867,Isaiah Scharfe Park,park,ottawa,41,bearbrook,..,gloucester,on
168868,Isaie Savage Park,park,ottawa,114,saphir,..,cumberland,on
168890,Ivy And Gordon Scharf Park,park,ottawa,5535,pettapiece,..,goulbourn,on
168908,J.J. Clarke Park,park,ottawa,75,bridlewood,..,kanata,on
168927,Jack Purcell Park,park,ottawa,320,jack purcell,..,ottawa,on
169001,Janeville Park,park,ottawa,355,iberville,..,vanier,on
169006,Jasmine Park,park,ottawa,2040,jasmine,..,gloucester,on
169034,Jeanne D'Arc Park,park,ottawa,1155,st moritz,..,..,on
169042,Jeffrey Armstrong Memorial Park,park,ottawa,449,nicolls island,..,gloucester,on
169051,Jensen Court Park,park,ottawa,224,jensen,..,carleton,on
169066,Jill Brown Park / Old Forge Community Centre,park,ottawa,2730,carling,..,..,on
169074,Jim Malone Park,park,ottawa,400,goldridge,..,kanata,on
169089,Jock River Park,park,ottawa,70,lennox,..,goulbourn,on
169092,Joe Jamieson Park,park,ottawa,6940,bilberry,..,gloucester,on
169093,Joe Lewis Park,park,ottawa,6111,hazeldean,..,..,on
169097,Joe Rowan Park,park,ottawa,2665,glenwood,..,osgoode,on
169105,Joella Park,park,ottawa,5565,joella,..,osgoode,on
169152,John Gooch Park,park,ottawa,161,goldridge,..,kanata,on
169160,John Kemp Park,park,ottawa,2417,cleroux,..,gloucester,on
169175,John Murphy Park,park,ottawa,120,rodney,..,..,on
169250,Joseph Laflamme Park,park,ottawa,121,prestige,..,..,on
169262,Joseph VÃ©zina Park,park,ottawa,205,serra,..,..,on
169275,Joshua Bradley Park,park,ottawa,64,centrepark,..,gloucester,on
169279,Josie Anselmo Memorial Park,park,ottawa,6499,princiotta,..,osgoode,on
169285,Juanita Snelgrove Park,park,ottawa,374,kinghorn,..,..,on
169297,Judge Park,park,ottawa,837,grenon,..,..,on
169300,Judy Laughton Park,park,ottawa,241,goldridge,..,kanata,on
