Index,Facility_Name,ODRSF_facility_type,Provider,Street_No,Street_Name,Postal_Code,City,Prov_Terr
8316,Barry Mullen Park,sports field,ottawa,152,grandview,..,nepean,on
8429,Basketball Court,sports field,ottawa,9,parkfield,..,..,on
8430,Basketball Court,sports field,ottawa,37,chartwell,..,..,on
8431,Basketball Court,sports field,ottawa,1250,southwood,..,ottawa,on
8432,Basketball Court,sports field,ottawa,442,coronation,..,..,on
8433,Basketball Court,sports field,ottawa,539,wavell,..,..,on
8434,Basketball Court,sports field,ottawa,38,chimo,..,kanata,on
8435,Basketball Court,sports field,ottawa,85,grassy plains,..,kanata,on
8436,Basketball Court,sports field,ottawa,65,stonehaven,..,kanata,on
8437,Basketball Court,sports field,ottawa,94,steeple chase,..,kanata,on
8438,Basketball Court,sports field,ottawa,400,goldridge,..,kanata,on
8439,Basketball Court,sports field,ottawa,23,alon,..,..,on
8440,Basketball Court,sports field,ottawa,669,paul,..,..,on
8441,Basketball Court,sports field,ottawa,90,banner,..,nepean,on
8442,Basketball Court,sports field,ottawa,724,bathgate,..,ottawa,on
8443,Basketball Court,sports field,ottawa,855,lawnsberry,..,cumberland,on
8444,Basketball Court,sports field,ottawa,346,kennedy,..,..,on
8445,Basketball Court,sports field,ottawa,50,bellman,..,nepean,on
8446,Basketball Court,sports field,ottawa,1600,prestwick,..,cumberland,on
8447,Basketball Court,sports field,ottawa,76,larkin,..,nepean,on
8448,Basketball Court,sports field,ottawa,397,viewmount,..,nepean,on
8449,Basketball Court,sports field,ottawa,68,elm,..,ottawa,on
8450,Basketball Court,sports field,ottawa,24,brunswick,..,ottawa,on
8451,Basketball Court,sports field,ottawa,39,onslow,..,..,on
8452,Basketball Court,sports field,ottawa,1002,beaverbrook,..,kanata,on
8453,Basketball Court,sports field,ottawa,2193,acres,..,gloucester,on
8454,Basketball Court,sports field,ottawa,2040,jasmine,..,gloucester,on
8455,Basketball Court,sports field,ottawa,1245,matheson,..,gloucester,on
8456,Basketball Court,sports field,ottawa,3580,trapper's,..,gloucester,on
8457,Basketball Court,sports field,ottawa,901,trojan,..,..,on
8458,Basketball Court,sports field,ottawa,5650,scobie,..,osgoode,on
8459,Basketball Court,sports field,ottawa,15,rockcliffe,..,ottawa,on
8460,Basketball Court,sports field,ottawa,5565,joella,..,osgoode,on
8461,Basketball Court,sports field,ottawa,2665,glenwood,..,osgoode,on
8462,Basketball Court,sports field,ottawa,220,stoneway,..,nepean,on
8463,Basketball Court,sports field,ottawa,100,fable,..,nepean,on
8464,Basketball Court,sports field,ottawa,135,sherway,..,nepean,on
8465,Basketball Court,sports field,ottawa,30,wessex,..,nepean,on
8466,Basketball Court,sports field,ottawa,3900,autumnwood,..,gloucester,on
8467,Basketball Court,sports field,ottawa,2040,jasmine,..,gloucester,on
8468,Basketball Court,sports field,ottawa,1161,blohm,..,ottawa,on
8469,Basketball Court,sports field,ottawa,363,lorry greenberg,..,..,on
8470,Basketball Court,sports field,ottawa,1900,florida,..,..,on
8471,Basketball Court,sports field,ottawa,2850,sandalwood,..,ottawa,on
8472,Basketball Court,sports field,ottawa,1332,n,..,..,on
8473,Basketball Court,sports field,ottawa,62,horner,..,nepean,on
8474,Basketball Court,sports field,ottawa,114,saphir,..,cumberland,on
8475,Basketball Court,sports field,ottawa,950,alpine,..,..,on
8476,Basketball Court,sports field,ottawa,1520,caldwell,..,..,on
