Index,Facility_Name,ODRSF_facility_type,Provider,Street_No,Street_Name,Postal_Code,City,Prov_Terr
3791,Outdoor Rink,rink,ottawa,1766,grey nuns,..,..,on
3792,Outdoor Rink,rink,ottawa,205,romina,..,..,on
3793,Outdoor Rink,rink,ottawa,906,denison,..,..,on
3794,Outdoor Rink,rink,ottawa,16,rowley,..,..,on
3795,Outdoor Rink,rink,ottawa,801,springland,..,..,on
3796,Outdoor Rink,rink,ottawa,121,prestige,..,..,on
3797,Outdoor Rink,rink,ottawa,11,robert kemp,..,..,on
3798,Outdoor Rink,rink,ottawa,1163,kenaston,..,..,on
3799,Outdoor Rink,rink,ottawa,96,bridle park,..,..,on
3800,Outdoor Rink,rink,ottawa,367,ridge,..,..,on
3801,Outdoor Rink,rink,ottawa,155,sunshine,..,..,on
3802,Outdoor Rink,rink,ottawa,2130,valin,..,..,on
3803,Outdoor Rink,rink,ottawa,1590,alta vista,..,..,on
3804,Outdoor Rink,rink,ottawa,34,arkose,..,..,on
3805,Outdoor Rink,rink,ottawa,175,third,..,..,on
3806,Outdoor Rink,rink,ottawa,177,mccurdy,..,..,on
3807,Outdoor Rink,rink,ottawa,3560,wyman,..,..,on
3808,Outdoor Rink,rink,ottawa,56,stonemeadow,..,..,on
3809,Outdoor Rink,rink,ottawa,1691,sunview,..,..,on
3810,Outdoor Rink,rink,ottawa,989,teron,..,..,on
3811,Outdoor Rink,rink,ottawa,1250,southwood,..,..,on
3812,Outdoor Rink,rink,ottawa,401,brunskill,..,..,on
3813,Outdoor Rink,rink,ottawa,3525,cambrian,..,..,on
3814,Outdoor Rink,rink,ottawa,1420,meadowbrook,..,..,on
3815,Outdoor Rink,rink,ottawa,330,meilleur,..,..,on
3816,Outdoor Rink,rink,ottawa,2095,provence,..,..,on
3817,Outdoor Rink,rink,ottawa,3025,freshwater,..,..,on
3818,Outdoor Rink,rink,ottawa,428,fosterbrook,..,..,on
3819,Outdoor Rink,rink,ottawa,6020,piperville,..,..,on
3820,Outdoor Rink,rink,ottawa,175,calvington,..,..,on
3821,Outdoor Rink,rink,ottawa,1876,cassia,..,..,on
3822,Outdoor Rink,rink,ottawa,1265,adirondack,..,..,on
3823,Outdoor Rink,rink,ottawa,4879,abbott,..,..,on
3824,Outdoor Rink,rink,ottawa,300,antigonish,..,..,on
3825,Outdoor Rink,rink,ottawa,101,centrepointe,..,..,on
3826,Outdoor Rink,rink,ottawa,7950,lawrence,..,..,on
3827,Outdoor Rink,rink,ottawa,114,centrepointe,..,..,on
3828,Outdoor Rink,rink,ottawa,59,bluegrass,..,..,on
3829,Outdoor Rink,rink,ottawa,1145,thomas a dolan,..,..,on
3830,Outdoor Rink,rink,ottawa,100,clifford campbell,..,..,on
3831,Outdoor Rink,rink,ottawa,30,wessex,..,..,on
3832,Outdoor Rink,rink,ottawa,2001,gardenway,..,..,on
3833,Outdoor Rink,rink,ottawa,630,cameron harvey,..,..,on
3834,Outdoor Rink,rink,ottawa,2567,dow,..,..,on
3835,Outdoor Rink,rink,ottawa,5715,rockdale,..,..,on
3836,Outdoor Rink,rink,ottawa,15,steeple hill,..,..,on
3837,Outdoor Rink,rink,ottawa,27,hobin,..,..,on
3838,Outdoor Rink,rink,ottawa,998,valin,..,..,on
3839,Outdoor Rink,rink,ottawa,1365,halton,..,..,on
