Index,Facility_Name,ODRSF_facility_type,Provider,Street_No,Street_Name,Postal_Code,City,Prov_Terr
18117,W.C. Levesque Fields,sports field,ottawa,..,..,..,..,on
18118,W.C. Levesque Fields,sports field,ottawa,..,..,..,..,on
18119,W.C. Levesque Fields,sports field,ottawa,..,..,..,..,on
18120,W.C. Levesque Fields,sports field,ottawa,..,..,..,..,on
18121,W.C. Levesque Fields,sports field,ottawa,..,..,..,..,on
18123,W.E. Gowling Public School,sports field,ottawa,250,anna,..,..,on
18137,Walden Park,sports field,ottawa,..,..,..,..,on
18138,Walkley Albion Park,sports field,ottawa,2930,albion,..,..,on
18142,Walter Baker Park,sports field,ottawa,100,charlie rogers,..,..,on
18143,Walter Baker Park,sports field,ottawa,100,charlie rogers,..,..,on
18144,Walter Baker Park,sports field,ottawa,100,charlie rogers,..,..,on
18145,Walter Baker Park,sports field,ottawa,..,..,..,..,on
18146,Walter Baker Park,sports field,ottawa,..,..,..,..,on
18147,Walter Baker Park,sports field,ottawa,..,..,..,..,on
18148,Walter Baker Park,sports field,ottawa,..,..,..,..,on
18149,Walter Baker Park,sports field,ottawa,..,..,..,..,on
18150,Walter Baker Park,sports field,ottawa,..,..,..,..,on
18151,Walter Baker Park,sports field,ottawa,..,..,..,..,on
18152,Walter Baker Park,sports field,ottawa,100,charlie rogers,..,..,on
18153,Walter Baker Park,sports field,ottawa,100,charlie rogers,..,..,on
18154,Walter Baker Sports Centre,sports field,ottawa,..,..,..,ottawa,on
18155,Walter Baker Sports Fields,sports field,ottawa,..,..,..,ottawa,on
18157,Walter Upton-Collins Park,sports field,ottawa,894,river,..,gloucester,on
18168,Water Dragon Park,sports field,ottawa,..,..,..,..,on
18176,Watershield Park,sports field,ottawa,..,..,..,..,on
18185,Watters Park,sports field,ottawa,..,..,..,..,on
18221,West Carleton Secondary School,sports field,ottawa,3088,dunrobin,..,..,on
18222,West Carleton Secondary School,sports field,ottawa,3088,dunrobin,..,..,on
18223,West Carleton Secondary School,sports field,ottawa,3088,dunrobin,..,..,on
18224,West Carleton Secondary School,sports field,ottawa,3088,dunrobin,..,..,on
18245,"West Ridge Park ""A""",sports field,ottawa,..,..,..,..,on
18260,Westboro Kiwanis Park,sports field,ottawa,..,..,..,..,on
18261,Westboro Kiwanis Park,sports field,ottawa,..,..,..,..,on
18267,Westcliffe Park,sports field,ottawa,..,..,..,..,on
18268,Westcliffe Park,sports field,ottawa,..,..,..,..,on
18303,Weston Park,sports field,ottawa,955,pleasant park,..,ottawa,on
18319,Westwood Park,sports field,ottawa,2000,saville,..,..,on
18326,Weybridge Park,sports field,ottawa,..,..,..,..,on
18327,Weybridge Park,sports field,ottawa,75,flanders,..,nepean,on
18329,Whalen Park,sports field,ottawa,..,..,..,..,on
18330,Whalen Park,sports field,ottawa,4111,kanata,..,..,on
18348,Whitehaven / George C. Brown Park,sports field,ottawa,970,parkhaven,..,..,on
18349,Whitehaven / George C. Brown Park,sports field,ottawa,970,parkhaven,..,..,on
18358,Whitewood Avenue Park,sports field,ottawa,..,..,..,..,on
18382,Wilfred Murray Park / R.J. Kennedy Community Hall And Arena,sports field,ottawa,1115,dunning,..,cumberland,on
18383,Wilfred Murray Park / R.J. Kennedy Community Hall And Arena,sports field,ottawa,..,..,..,..,on
18384,Wilfred Murray Park / R.J. Kennedy Community Hall And Arena,sports field,ottawa,1115,dunning,..,cumberland,on
18385,Wilfrid Murray Park Ball Diamond,sports field,ottawa,..,..,..,ottawa,on
18392,Williams Park,sports field,ottawa,34,tanglewood,..,nepean,on
