Index,Facility_Name,ODRSF_facility_type,Provider,Street_No,Street_Name,Postal_Code,City,Prov_Terr
15022,Public Tennis Courts,sports field,ottawa,2001,gardenway,..,cumberland,on
15023,Public Tennis Courts,sports field,ottawa,1145,greenlawn,..,..,on
15024,Public Tennis Courts,sports field,ottawa,3302,huntley,..,goulbourn,on
15025,Public Tennis Courts,sports field,ottawa,855,lawnsberry,..,cumberland,on
15026,Public Tennis Courts,sports field,ottawa,1404,lexington,..,ottawa,on
15027,Public Tennis Courts,sports field,ottawa,2999,sable ridge,..,gloucester,on
15028,Public Tennis Courts,sports field,ottawa,3585,sarsfield,..,cumberland,on
15029,Public Tennis Courts,sports field,ottawa,1855,simard,..,gloucester,on
15030,Public Tennis Courts,sports field,ottawa,193,stanley,..,..,on
15031,Public Tennis Courts,sports field,ottawa,3580,trapper's,..,gloucester,on
15032,Public Tennis Courts,sports field,ottawa,2095,provence,..,cumberland,on
15033,Public Tennis Courts,sports field,ottawa,3525,cambrian,..,nepean,on
15034,Public Tennis Courts,sports field,ottawa,349,bruy√®re,..,ottawa,on
15103,Queensway Park,sports field,ottawa,1580,telesat,..,..,on
15105,Queenswood Heights Centennial Park And Community Centre,sports field,ottawa,1485,duford,..,cumberland,on
15106,Queenswood Heights Centennial Park And Community Centre,sports field,ottawa,1485,duford,..,cumberland,on
15107,Queenswood Ridge Park,sports field,ottawa,..,..,..,..,on
15108,Queenswood Ridge Park,sports field,ottawa,346,kennedy,..,..,on
15109,Queenswood/Fallingbrook Tennis Club,sports field,ottawa,1485,duford,..,cumberland,on
15110,Queenswood/Fallingbrook Tennis Club - Kinsella,sports field,ottawa,1600,prestwick,..,cumberland,on
15119,R. George Pushman Park,sports field,ottawa,1270,pebble,..,ottawa,on
15120,R. George Pushman Park,sports field,ottawa,1270,pebble,..,ottawa,on
15129,Rabbi Bulka Kindness Park,sports field,ottawa,..,..,..,..,on
15130,Rabbi Bulka Kindness Park,sports field,ottawa,..,..,..,..,on
15131,Rabbi Bulka Kindness Park,sports field,ottawa,..,..,..,..,on
15132,Rabbi Bulka Kindness Park,sports field,ottawa,..,..,..,..,on
15133,Rabbi Bulka Kindness Park,sports field,ottawa,2330,virginia,..,ottawa,on
15136,Ralph Street Park,sports field,ottawa,12,ralphpark,..,goulbourn,on
15154,Rancourt Park,sports field,ottawa,..,..,..,..,on
15156,Raoul Wallenberg Park,sports field,ottawa,..,..,..,..,on
15157,Raoul Wallenberg Park,sports field,ottawa,..,..,..,..,on
15162,Raven Park,sports field,ottawa,..,..,..,..,on
15163,Ravenscroft Park,sports field,ottawa,..,..,..,..,on
15170,Ravine Park (Cumberland),sports field,ottawa,..,..,..,..,on
15171,Ravine Park (Cumberland),sports field,ottawa,..,..,..,..,on
15172,Ray Friel Recreation Complex And Park,sports field,ottawa,..,..,..,..,on
15173,Ray Friel Recreation Complex And Park,sports field,ottawa,..,..,..,..,on
15179,Raymond Chabot Grant Thorton Park,sports field,ottawa,300,coventry,..,ottawa,on
15236,Richcraft Recreation Complex - Kanata,sports field,ottawa,..,..,..,..,on
15237,Richcraft Recreation Complex - Kanata,sports field,ottawa,..,..,..,..,on
15238,Richcraft Recreation Complex - Kanata,sports field,ottawa,..,..,..,..,on
15239,Richelieu Park,sports field,ottawa,..,..,..,..,on
15241,Richmond Lions Community Park,sports field,ottawa,..,..,..,..,on
15242,Richmond Lions Community Park,sports field,ottawa,..,..,..,..,on
15243,Richmond Lions Community Park,sports field,ottawa,..,..,..,..,on
15244,Richmond Lions Community Park,sports field,ottawa,..,..,..,..,on
15245,Richmond Lions Community Park,sports field,ottawa,..,..,..,..,on
15246,Richmond Lions Community Park,sports field,ottawa,..,..,..,..,on
15247,Richmond Lions Community Park,sports field,ottawa,..,..,..,..,on
