Index,Facility_Name,ODRSF_facility_type,Provider,Street_No,Street_Name,Postal_Code,City,Prov_Terr
15930,Sledding Hill,miscellaneous,ottawa,1485,duford,..,cumberland,on
15931,Sledding Hill,miscellaneous,ottawa,1899,du-clairvaux,..,gloucester,on
15932,Sledding Hill,miscellaneous,ottawa,6210,meadowglen,..,gloucester,on
15933,Sledding Hill,miscellaneous,ottawa,1115,dunning,..,cumberland,on
15934,Sledding Hill,miscellaneous,ottawa,100,charlie rogers,..,..,on
15935,Sledding Hill,miscellaneous,ottawa,411,dovercourt,..,..,on
15936,Sledding Hill,miscellaneous,ottawa,2567,dow,..,osgoode,on
15937,Sledding Hill,miscellaneous,ottawa,61,corkstown,..,nepean,on
15938,Sledding Hill,miscellaneous,ottawa,1157,kenaston,..,gloucester,on
15939,Sledding Hill,miscellaneous,ottawa,280,mountshannon,..,nepean,on
15940,Sledding Hill,miscellaneous,ottawa,5572,doctor leach,..,rideau,on
15941,Sledding Hill,miscellaneous,ottawa,1046,st joseph,..,gloucester,on
15942,Sledding Hill,miscellaneous,ottawa,135,craig henry,..,nepean,on
15943,Sledding Hill,miscellaneous,ottawa,75,bridlewood,..,kanata,on
15944,Sledding Hill,miscellaneous,ottawa,1879,appleford,..,gloucester,on
15945,Sledding Hill,miscellaneous,ottawa,175,woodridge,..,..,on
15946,Sledding Hill,miscellaneous,ottawa,47,rickey,..,..,on
15947,Sledding Hill,miscellaneous,ottawa,346,kennedy,..,..,on
15948,Sledding Hill,miscellaneous,ottawa,21,dayton,..,..,on
15949,Sledding Hill,miscellaneous,ottawa,4386,spratt,..,gloucester,on
15950,Sledding Hill,miscellaneous,ottawa,29,larkspur,..,nepean,on
15951,Sledding Hill,miscellaneous,ottawa,937,clyde,..,..,on
15952,Sledding Hill,miscellaneous,ottawa,6591,delorme,..,gloucester,on
15953,Sledding Hill,miscellaneous,ottawa,1841,elmridge,..,gloucester,on
15954,Sledding Hill,miscellaneous,ottawa,109,larch,..,cumberland,on
15955,Sledding Hill,miscellaneous,ottawa,551,princess louise,..,..,on
15956,Sledding Hill,miscellaneous,ottawa,2130,valin,..,cumberland,on
15957,Sledding Hill,miscellaneous,ottawa,1797,Ã©pinettesgloucester,..,ottawa,on
15958,Sledding Hill - East,miscellaneous,ottawa,220,stoneway,..,nepean,on
15959,Sledding Hill - West,miscellaneous,ottawa,220,stoneway,..,nepean,on
16893,South Carleton High School,sports field,ottawa,3673,mcbean,..,..,on
16894,South Carleton High School,sports field,ottawa,3673,mcbean,..,..,on
16895,South Carleton High School,sports field,ottawa,3673,mcbean,..,..,on
16904,South Nepean Sports Field,sports field,ottawa,..,..,..,ottawa,on
16943,Sports Field Park,sports field,ottawa,..,..,..,ottawa,on
16945,Spratt Park,sports field,ottawa,..,..,..,..,on
17039,St James Tennis Court,sports field,ottawa,..,..,..,ottawa,on
17152,St. George School,sports field,ottawa,130,keyworth,..,..,on
17165,St. James Tennis Club,sports field,ottawa,690,lyon,..,ottawa,on
17177,St. Joseph High School,sports field,ottawa,3333,greenbank,..,..,on
17178,St. Joseph High School,sports field,ottawa,3333,greenbank,..,..,on
17214,St. Patrick's High School,sports field,ottawa,2525,prom alta vista,..,..,on
17216,St. Paul High School,sports field,ottawa,2675,draper,..,..,on
17217,St. Paul High School,sports field,ottawa,2675,draper,..,..,on
17218,St. Paul's Park,sports field,ottawa,..,..,..,..,on
17219,St. Peter High School,sports field,ottawa,750,charlemagne,..,..,on
17243,St. Thomas More School,sports field,ottawa,1620,prom blohm,..,..,on
17276,Stanstead Park,sports field,ottawa,861,stanstead,..,ottawa,on
17320,Steve Maclean Park,sports field,ottawa,..,..,..,..,on
