Index,Facility_Name,ODRSF_facility_type,Provider,Street_No,Street_Name,Postal_Code,City,Prov_Terr
7177,Alta Vista Park,sports field,ottawa,1309,randall,..,..,on
7178,Alta Vista Public School,sports field,ottawa,1349,randall,..,..,on
7179,Alta Vista Public School,sports field,ottawa,1349,randall,..,..,on
7198,Andy Shields Park,sports field,ottawa,..,..,..,..,on
7199,Andy Shields Park,sports field,ottawa,..,..,..,..,on
7200,Andy Shields Park,sports field,ottawa,..,..,..,..,on
7201,Andy Shields Park,sports field,ottawa,1448,meadow,..,osgoode,on
7202,Andy Shields Park,sports field,ottawa,1448,meadow,..,osgoode,on
7203,Andy Shields Park,sports field,ottawa,1448,meadow,..,osgoode,on
7227,Appleford Ball Diamond,sports field,ottawa,..,..,..,ottawa,on
7228,Appleford Park,sports field,ottawa,1879,appleford,..,gloucester,on
7254,Arcadia Park,sports field,ottawa,..,..,..,..,on
7291,Arnott Park,sports field,ottawa,691,hartman,..,..,on
7292,Arnott Park Ball Diamond,sports field,ottawa,..,..,..,ottawa,on
7304,Ashton Ball Diamond,sports field,ottawa,..,..,..,ottawa,on
7305,Ashton Park And Cavanagh Community Centre,sports field,ottawa,8930,flewellyn,..,goulbourn,on
7385,Avalon Public School,sports field,ottawa,2080,portobello,..,..,on
7398,Bairds Park,sports field,ottawa,..,..,..,..,on
7402,Balena Park,sports field,ottawa,..,..,..,..,on
7403,Balena Park,sports field,ottawa,..,..,..,..,on
7404,Balena Sports Fields,sports field,ottawa,..,..,..,ottawa,on
8170,Ball Diamond,sports field,ottawa,2599,regina,..,..,on
8171,Ball Diamond,sports field,ottawa,3673,mcbean,..,..,on
8172,Ball Diamond,sports field,ottawa,235,woodroffe,..,..,on
8173,Ball Diamond,sports field,ottawa,1660,prom prince of wales,..,..,on
8174,Ball Diamond,sports field,ottawa,2401,crois,..,cleroux,on
8175,Ball Diamond,sports field,ottawa,7859,prom decarie,..,..,on
8176,Ball Diamond,sports field,ottawa,614,prom eastvale,..,..,on
8177,Ball Diamond,sports field,ottawa,623,smyth,..,..,on
8178,Ball Diamond,sports field,ottawa,3765,loggers,..,..,on
8179,Ball Diamond,sports field,ottawa,6830,habour,..,..,on
8180,Ball Diamond,sports field,ottawa,75,prom mccurdy,..,..,on
8181,Ball Diamond,sports field,ottawa,2403,church,..,..,on
8182,Ball Diamond,sports field,ottawa,20,prom mckitrick,..,..,on
8183,Ball Diamond,sports field,ottawa,635,prom la verendrye,..,..,on
8184,Ball Diamond,sports field,ottawa,777,prom fielding,..,..,on
8185,Ball Diamond,sports field,ottawa,2158,st laurent,..,..,on
8186,Ball Diamond,sports field,ottawa,2105,av kender,..,..,on
8187,Ball Diamond,sports field,ottawa,101,prom malvern,..,..,on
8188,Ball Diamond,sports field,ottawa,1500,prom beaverpond,..,..,on
8189,Ball Diamond,sports field,ottawa,7816,bleeks,..,..,on
8190,Ball Diamond,sports field,ottawa,79,maitland,..,..,on
8191,Ball Diamond,sports field,ottawa,55,prom mccurdy,..,..,on
8192,Ball Diamond,sports field,ottawa,50,prom varley,..,..,on
8193,Ball Diamond,sports field,ottawa,6400,prom beausejour,..,..,on
8194,Ball Diamond,sports field,ottawa,40,prom varley,..,..,on
8195,Ball Diamond,sports field,ottawa,590,broadview,..,..,on
8196,Ball Diamond,sports field,ottawa,2051,prom bel air,..,..,on
8197,Ball Diamond,sports field,ottawa,3499,mcbean,..,..,on
