Index,Facility_Name,ODRSF_facility_type,Provider,Street_No,Street_Name,Postal_Code,City,Prov_Terr
11339,George C Brown Sports Fields,sports field,ottawa,..,..,..,ottawa,on
11350,George Mclean Park,sports field,ottawa,5348,mclean,..,..,on
11351,George Nelms Sports Park,sports field,ottawa,..,..,..,..,on
11352,George Nelms Sports Park,sports field,ottawa,..,..,..,..,on
11353,George Nelms Sports Park,sports field,ottawa,..,..,..,..,on
11354,George Nelms Sports Park,sports field,ottawa,..,..,..,..,on
11355,George Nelms Sports Park,sports field,ottawa,..,..,..,..,on
11356,George Nelms Sports Park,sports field,ottawa,..,..,..,..,on
11357,George Nelms Sports Park,sports field,ottawa,..,..,..,..,on
11358,George Nelms Sports Park,sports field,ottawa,..,..,..,..,on
11359,George Nelms Sports Park,sports field,ottawa,..,..,..,..,on
11360,George Nelms Sports Park,sports field,ottawa,..,..,..,..,on
11364,George Wilson Park,sports field,ottawa,..,..,..,..,on
11365,George Wilson Park,sports field,ottawa,..,..,..,..,on
11366,George Wilson Park,sports field,ottawa,..,..,..,..,on
11383,Gil-O-Julien Park,sports field,ottawa,201,donald,..,ottawa,on
11384,Gil-O-Julien Park,sports field,ottawa,..,..,..,..,on
11385,Gil-O-Julien Park,sports field,ottawa,201,donald,..,ottawa,on
11386,Gil-O-Julien Sports Fields,sports field,ottawa,..,..,..,ottawa,on
11407,Glen Cairn Tennis Club,sports field,ottawa,70,castlefrank,..,kanata,on
11415,Glen Park,sports field,ottawa,1756,grey nuns,..,gloucester,on
11418,Glen Park Ball Diamond,sports field,ottawa,..,..,..,ottawa,on
11441,Glenfell Glen Sports Fields,sports field,ottawa,..,..,..,ottawa,on
11461,Gloucester High School,sports field,ottawa,2060,ogilvie,..,..,on
11477,Goldridge Sports Fields,sports field,ottawa,..,..,..,ottawa,on
11516,Goulbourn Lawn Bowling Club,sports field,ottawa,2135,huntley,..,goulbourn,on
11517,Goulbourn Middle School,sports field,ottawa,2176,prom huntley,..,..,on
11518,Goulbourn Middle School,sports field,ottawa,2176,prom huntley,..,..,on
11523,Gow Park,sports field,ottawa,..,..,..,..,on
11534,Graham Ball Softball Diamond,sports field,ottawa,89,castlefrank,..,kanata,on
11561,Grasshopper Hill/Kilborn Park,sports field,ottawa,1609,kilborn,..,..,on
11562,Grasshopper Hill/Kilborn Park,sports field,ottawa,1609,kilborn,..,..,on
11564,Grassy Plains Park,sports field,ottawa,..,..,..,..,on
11565,Grassy Plains Park,sports field,ottawa,85,grassy plains,..,kanata,on
11575,Greely Elementary School,sports field,ottawa,7066,parkway,..,..,on
11576,Greely Village Park,sports field,ottawa,..,..,..,..,on
11577,Greely West Park,sports field,ottawa,6485,greely west,..,osgoode,on
11584,Greenbank Middle School,sports field,ottawa,168,greenbank,..,..,on
11585,Greenboro Park And Community Centre,sports field,ottawa,..,..,..,..,on
11586,Greenboro Park And Community Centre,sports field,ottawa,..,..,..,..,on
11587,Greenboro Park And Community Centre,sports field,ottawa,363,lorry greenberg,..,..,on
11588,Greenboro Park Sports Fields,sports field,ottawa,..,..,..,ottawa,on
11614,Grenfell Glen Park,sports field,ottawa,53,avonlea,..,nepean,on
11615,Grenfell Glen Park,sports field,ottawa,..,..,..,..,on
11616,Grenfell Glen Park,sports field,ottawa,..,..,..,..,on
11617,Grenfell Glen Park,sports field,ottawa,..,..,..,..,on
11618,Grenfell Tennis Club - Grenfell Glen Site,sports field,ottawa,53,avonlea,..,nepean,on
11619,Grenfell Tennis Club - Pineglen Site,sports field,ottawa,22,brisbane,..,nepean,on
11623,Grey Nuns Park,sports field,ottawa,..,..,..,..,on
