Index,Facility_Name,ODRSF_facility_type,Provider,Street_No,Street_Name,Postal_Code,City,Prov_Terr
13317,Manor Park,sports field,ottawa,100,braemar,..,ottawa,on
13318,Manordale Park,sports field,ottawa,60,knoxdale,..,nepean,on
13319,Manordale Park,sports field,ottawa,60,knoxdale,..,nepean,on
13320,Manordale Park,sports field,ottawa,60,knoxdale,..,nepean,on
13321,Manotick Tennis Club,sports field,ottawa,5572,doctor leach,..,rideau,on
13349,Marathon Park,sports field,ottawa,..,..,..,..,on
13350,Marathon Park,sports field,ottawa,210,linda,..,..,on
13351,Marcel Lalande Park,sports field,ottawa,..,..,..,..,on
13352,Marcel Lalande Park,sports field,ottawa,2157,northlands,..,cumberland,on
13353,March Central Community Centre And Park,sports field,ottawa,630,cameron harvey,..,kanata,on
13354,March Tennis Club,sports field,ottawa,2500,campeau,..,kanata,on
13368,Mark Yakabuski Park,sports field,ottawa,..,..,..,..,on
13373,Marlborough Park,sports field,ottawa,..,..,..,..,on
13374,Marlborough Park,sports field,ottawa,..,..,..,..,on
13375,Marlborough Park,sports field,ottawa,..,..,..,..,on
13376,Marlborough Park,sports field,ottawa,6836,malakoff,..,rideau,on
13377,Marlene Catterall Park,sports field,ottawa,2955,mich√®le,..,..,on
13378,Marsha Park,sports field,ottawa,..,..,..,..,on
13379,Marshes Golf Club,sports field,ottawa,..,..,..,ottawa,on
13388,Mary Durling Park,sports field,ottawa,..,..,..,..,on
13429,Mattawa Park,sports field,ottawa,..,..,..,..,on
13430,Mattawa Park,sports field,ottawa,94,steeple chase,..,kanata,on
13449,Mccarthy Park,sports field,ottawa,..,..,..,..,on
13450,Mccarthy Park,sports field,ottawa,..,..,..,..,on
13451,Mccarthy Park,sports field,ottawa,3320,paul anka,..,ottawa,on
13452,Mccarthy Park,sports field,ottawa,3320,paul anka,..,ottawa,on
13473,Mcgibbon Park,sports field,ottawa,..,..,..,..,on
13484,Mckellar Park,sports field,ottawa,..,..,..,..,on
13485,Mckellar Park,sports field,ottawa,..,..,..,..,on
13486,Mckellar Park,sports field,ottawa,539,wavell,..,..,on
13487,Mckendry Park,sports field,ottawa,2567,dow,..,osgoode,on
13488,Mckendry Park,sports field,ottawa,..,..,..,..,on
13489,Mckendry Park,sports field,ottawa,2567,dow,..,osgoode,on
13490,Mckendry Park,sports field,ottawa,2567,dow,..,osgoode,on
13498,Mckinley Park,sports field,ottawa,..,..,..,..,on
13517,Mcnabb Park,sports field,ottawa,435,bronson,..,..,on
13539,Meadowbreeze Park,sports field,ottawa,..,..,..,..,on
13540,Meadowbreeze Park,sports field,ottawa,..,..,..,..,on
13542,Meadowbrook Park (Gloucester),sports field,ottawa,1485,meadowbrook,..,gloucester,on
13550,Meadowlands Public School,sports field,ottawa,10,fieldrow,..,..,on
13564,Meadowvale Terrace Park,sports field,ottawa,..,..,..,..,on
13568,Medhurst Park,sports field,ottawa,..,..,..,..,on
13569,Medhurst Park,sports field,ottawa,72,medhurst,..,..,on
13570,Medhurst Park,sports field,ottawa,72,medhurst,..,..,on
13596,Merivale Gardens Park,sports field,ottawa,..,..,..,..,on
13597,Merivale Gardens Park,sports field,ottawa,25,bie,..,nepean,on
13598,Merivale High School,sports field,ottawa,1755,merivale,..,..,on
13599,Merivale High School,sports field,ottawa,1755,merivale,..,..,on
13600,Metcalfe Public School,sports field,ottawa,2701,8th line,..,..,on
