Index,Facility_Name,ODRSF_facility_type,Provider,Street_No,Street_Name,Postal_Code,City,Prov_Terr
166195,Echo Park,park,ottawa,6698,marina,..,rideau,on
166198,Echowoods Park,park,ottawa,66,lloydalex,..,goulbourn,on
166212,Ed Hollyer Park,park,ottawa,55,bellrock,..,..,on
166232,Edgehill Park,park,ottawa,1264,ridgemont,..,..,on
166261,Edward Craig Park,park,ottawa,6480,doctor blair,..,..,on
166266,Edward Kidd Parkette,park,ottawa,2306,edward kidd,..,..,on
166279,Edwards Park,park,ottawa,1081,yorks corners,..,osgoode,on
166284,Egbert Reitsma Parkette,park,ottawa,100,clifford campbell,..,carleton,on
166314,Eldon Craig Park,park,ottawa,2786,eldo,..,osgoode,on
166320,Eleanor Park,park,ottawa,26,eleanor,..,nepean,on
166331,Elisha Scharf Park,park,ottawa,30,penfield,..,kanata,on
166333,Elizabeth Manley Park,park,ottawa,1161,blohm,..,ottawa,on
166378,Elmhurst Park,park,ottawa,900,tavistock,..,ottawa,on
166380,Elmridge Park,park,ottawa,1841,elmridge,..,gloucester,on
166405,Emerald Links Phase Iii Park,park,ottawa,1175,manotick station,..,..,on
166409,Emerald Woods Park,park,ottawa,3795,alderwood,..,gloucester,on
166423,Emond Park,park,ottawa,217,emond,..,vanier,on
166442,Entrance Park,park,ottawa,2,eaton,..,nepean,on
166473,Ernest Smith Park,park,ottawa,43,bishops mills,..,..,on
166476,Ernie Calcutt Park,park,ottawa,759,mooney's bay,..,..,on
166481,Escarpment Park (Chimo),park,ottawa,111,chimo,..,kanata,on
166482,Escarpment Park (Knudson),park,ottawa,98,knudson,..,kanata,on
166532,Eug√®ne Martineau Park,park,ottawa,710,mikinak,..,..,on
166539,Ev Tremblay Park,park,ottawa,108,beech,..,ottawa,on
166558,Evergreen Park,park,ottawa,906,denison,..,..,on
166594,Faircrest Heights Park,park,ottawa,550,smyth,..,ottawa,on
166598,Fairfield Park,park,ottawa,49,appleford,..,gloucester,on
166617,Fairlea Park,park,ottawa,2989,fairlea,..,..,on
166619,Fairmile Estates Park,park,ottawa,2549,donnelly,..,rideau,on
166620,Fairmile View Park,park,ottawa,2429,fairmile,..,rideau,on
166621,Fairmile West Park,park,ottawa,2511,fairmile,..,rideau,on
166625,Fairmont Park,park,ottawa,265,fairmont,..,..,on
166670,Fallingbrook Park,park,ottawa,681,deancourt,..,cumberland,on
166684,Farmstead Ridge Park,park,ottawa,2448,church,..,rideau,on
166707,Father Richard Ward Park,park,ottawa,1073,chablis,..,..,on
166714,Fawn Meadow Park,park,ottawa,165,meandering brook,..,gloucester,on
166721,Feed Mill Creek Park,park,ottawa,1080,carp,..,goulbourn,on
166731,Fentiman Park,park,ottawa,7600,campeau,..,kanata,on
166737,Ferdinand Park Walkway,park,ottawa,5624,ferdinand,..,osgoode,on
166742,Ferguson Pratt Park,park,ottawa,2284,james craig,..,rideau,on
166750,Fern Park,park,ottawa,6462,deer valley,..,..,on
166776,Fielding Park,park,ottawa,591,fielding,..,ottawa,on
166781,Fifth Avenue Parkette,park,ottawa,825,lyon,..,ottawa,on
166799,Finchley Park,park,ottawa,7,finchley,..,nepean,on
166804,Firefly Park,park,ottawa,133,duntroon,..,..,on
166841,Fisher Heights Park,park,ottawa,31,sutton,..,..,on
166842,Fisher Park,park,ottawa,250,holland,..,..,on
166851,Fitzroy Harbour Community Centre And Campbell Bicentennial Park,park,ottawa,100,clifford campbell,..,carleton,on
166852,Fitzroy Pp,park,kingston,..,..,..,..,on
