Index,Facility_Name,ODRSF_facility_type,Provider,Street_No,Street_Name,Postal_Code,City,Prov_Terr
174109,Priam Way Park,park,ottawa,99,priam,..,nepean,on
174116,Primrose Park,park,ottawa,179,primrose,..,..,on
174142,Princess Louise Park,park,ottawa,550,princess louise,..,cumberland,on
174179,Proudmore Romina Park,park,ottawa,205,romina,..,goulbourn,on
174180,Provence Park,park,ottawa,2095,provence,..,cumberland,on
174214,Qualicum Park,park,ottawa,26,qualicum,..,nepean,on
174228,Quarry Park,park,ottawa,51,davidson,..,gloucester,on
174265,Queensway Park,park,ottawa,1580,telesat,..,..,on
174268,Queenswood Heights Centennial Park And Community Centre,park,ottawa,1485,duford,..,cumberland,on
174269,Queenswood Ridge Park,park,ottawa,346,kennedy,..,..,on
174277,Quinpool Park,park,ottawa,22,quinpool,..,..,on
174280,R. George Pushman Park,park,ottawa,1270,pebble,..,ottawa,on
174294,Rabbi Bulka Kindness Park,park,ottawa,2330,virginia,..,ottawa,on
174296,Racette Park,park,ottawa,1410,henri lauzon,..,gloucester,on
174343,Ralph Street Park,park,ottawa,12,ralphpark,..,goulbourn,on
174360,Rancourt Park,park,ottawa,858,scala,..,cumberland,on
174377,Raoul Wallenberg Park,park,ottawa,397,viewmount,..,nepean,on
174378,Raphael Brunet Park,park,ottawa,307,st patrick,..,ottawa,on
174398,Raven Park,park,ottawa,1500,larose,..,..,on
174404,Ravenscroft Park,park,ottawa,126,shirley's brook,..,kanata,on
174412,Ravine Park (Cumberland),park,ottawa,1424,duford,..,cumberland,on
174413,Ravine Park (Kanata),park,ottawa,162,old colony,..,kanata,on
174416,Ray Friel Recreation Complex And Park,park,ottawa,1585,tenth line,..,cumberland,on
174419,Ray Mccaffrey Park,park,ottawa,170,hickstead,..,..,on
174430,Raymond Chabot Grant Thorton Park,park,ottawa,300,coventry,..,ottawa,on
174489,Redpath Park,park,ottawa,155,redpath,..,nepean,on
174491,Redpine Park,park,ottawa,11,redpine,..,nepean,on
174508,Reeve Craig Park,park,ottawa,7747,greenline,..,rideau,on
174512,Reeves Park,park,ottawa,2238,reeves,..,..,on
174516,Regatta Park,park,ottawa,150,pennant,..,..,on
174537,Reid Park,park,ottawa,40,reid,..,..,on
174559,Reston Park,park,ottawa,30,huntersfield,..,ottawa,on
174578,Richard Dagg Park,park,ottawa,5,red maple,..,gloucester,on
174585,Richardson Heritage Park,park,ottawa,34,arkose,..,..,on
174591,Richelieu Park,park,ottawa,300,des-p√®res-blancsvanier,..,..,on
174594,Richmond Lions Community Park,park,ottawa,3302,huntley,..,goulbourn,on
174595,Richmond Memorial Park And Cenotaph,park,ottawa,6126,perth,..,goulbourn,on
174596,Richmond Oaks Park,park,ottawa,43,rochelle,..,goulbourn,on
174606,Rick Lytle Park,park,ottawa,1765,rob lytle's,..,carleton,on
174608,Rickey Place Park,park,ottawa,47,rickey,..,..,on
174612,Rideau Country Estates Centre Park,park,ottawa,7686,settler's,..,rideau,on
174613,Rideau Country Estates North East Park,park,ottawa,7521,settler's,..,rideau,on
174614,Rideau Country Estates South Park,park,ottawa,7630,settler's,..,rideau,on
174619,Rideau Veterans Home Memorial Park,park,ottawa,44,remembrance,..,..,on
174620,Rideau View Park,park,ottawa,910,earl armstrong,..,gloucester,on
174621,Rideauview Community Centre And Park,park,ottawa,4310,shoreline,..,gloucester,on
174622,Rideauview Park,park,ottawa,960,eiffel,..,..,on
174625,Ridge Park,park,ottawa,1943,elmridge,..,gloucester,on
174635,Ridgeview Park,park,ottawa,2331,edwin,..,..,on
