Index,Facility_Name,ODRSF_facility_type,Provider,Street_No,Street_Name,Postal_Code,City,Prov_Terr
15753,Sheffield Glen Park,sports field,ottawa,..,..,..,..,on
15754,Sheffield Glen Park,sports field,ottawa,2320,southvale,..,..,on
15755,Shefford Sports Park,sports field,ottawa,..,..,..,..,on
15756,Shefford Sports Park,sports field,ottawa,..,..,..,..,on
15757,Shefford Sports Park,sports field,ottawa,..,..,..,..,on
15758,Shefford Sports Park,sports field,ottawa,..,..,..,..,on
15759,Shefford Sports Park,sports field,ottawa,..,..,..,..,on
15760,Shefford Sports Park,sports field,ottawa,..,..,..,..,on
15761,Shefford Sports Park,sports field,ottawa,..,..,..,..,on
15762,Shefford Sports Park,sports field,ottawa,..,..,..,..,on
15763,Shefford Sports Park,sports field,ottawa,..,..,..,..,on
15772,Sheperds Grove Park,sports field,ottawa,..,..,..,..,on
15773,Sheperds Grove Park,sports field,ottawa,..,..,..,..,on
15807,Shetland Park,sports field,ottawa,..,..,..,..,on
15821,Sieveright Park,sports field,ottawa,..,..,..,..,on
15841,Silverbirch Park,sports field,ottawa,..,..,..,..,on
15872,Sir Guy Carleton Secondary School,sports field,ottawa,55,prom centrepointe,..,..,on
15873,Sir Guy Carleton Secondary School,sports field,ottawa,55,prom centrepointe,..,..,on
15874,Sir Guy Carleton Secondary School,sports field,ottawa,55,prom centrepointe,..,..,on
15875,Sir Guy Carleton Secondary School,sports field,ottawa,55,prom centrepointe,..,..,on
15879,Sir Robert Borden High School,sports field,ottawa,131,greenbank,..,..,on
15881,Sir Wilfrid Laurier Secondary School,sports field,ottawa,1515,tenth line,..,..,on
15882,Sir Wilfrid Laurier Secondary School,sports field,ottawa,1515,tenth line,..,..,on
15894,Sir Winston Churchill Public School,sports field,ottawa,49,mulvagh,..,..,on
15904,Sledding Hill,miscellaneous,ottawa,1200,cedarcroft,..,gloucester,on
15905,Sledding Hill,miscellaneous,ottawa,1995,naskapi,..,gloucester,on
15906,Sledding Hill,miscellaneous,ottawa,1735,st bernard,..,gloucester,on
15907,Sledding Hill,miscellaneous,ottawa,2001,gardenway,..,cumberland,on
15908,Sledding Hill,miscellaneous,ottawa,28,chanonhouse,..,goulbourn,on
15909,Sledding Hill,miscellaneous,ottawa,70,mountshannon,..,nepean,on
15910,Sledding Hill,miscellaneous,ottawa,1609,kilborn,..,..,on
15911,Sledding Hill,miscellaneous,ottawa,2960,baseline,..,nepean,on
15912,Sledding Hill,miscellaneous,ottawa,1816,st-laurent,..,ottawa,on
15913,Sledding Hill,miscellaneous,ottawa,837,grenon,..,..,on
15914,Sledding Hill,miscellaneous,ottawa,70,foxfield,..,nepean,on
15915,Sledding Hill,miscellaneous,ottawa,681,deancourt,..,cumberland,on
15916,Sledding Hill,miscellaneous,ottawa,2359,orient park,..,gloucester,on
15917,Sledding Hill,miscellaneous,ottawa,1600,prestwick,..,cumberland,on
15918,Sledding Hill,miscellaneous,ottawa,3525,cambrian,..,nepean,on
15919,Sledding Hill,miscellaneous,ottawa,211,hillman marsh,..,gloucester,on
15920,Sledding Hill,miscellaneous,ottawa,2920,findlay creek,..,gloucester,on
15921,Sledding Hill,miscellaneous,ottawa,450,queen,..,..,on
15922,Sledding Hill,miscellaneous,ottawa,205,romina,..,goulbourn,on
15923,Sledding Hill,miscellaneous,ottawa,98,meadowbreeze,..,kanata,on
15924,Sledding Hill,miscellaneous,ottawa,841,clearcrest,..,cumberland,on
15925,Sledding Hill,miscellaneous,ottawa,600,apollo,..,cumberland,on
15926,Sledding Hill,miscellaneous,ottawa,2157,northlands,..,cumberland,on
15927,Sledding Hill,miscellaneous,ottawa,2300,community,..,rideau,on
15928,Sledding Hill,miscellaneous,ottawa,956,loyola,..,gloucester,on
