Index,Facility_Name,ODRSF_facility_type,Provider,Street_No,Street_Name,Postal_Code,City,Prov_Terr
13708,Millers Point Park,sports field,ottawa,..,..,..,..,on
13752,Minto Recreation Complex - Barrhaven,sports field,ottawa,..,..,..,..,on
13753,Minto Recreation Complex - Barrhaven,sports field,ottawa,..,..,..,..,on
13754,Minto Recreation Complex - Barrhaven,sports field,ottawa,..,..,..,..,on
13773,Moffatt Farm Veterans Park,sports field,ottawa,..,..,..,..,on
13777,Mohawk Park,sports field,ottawa,..,..,..,..,on
13781,Moloughney Park,sports field,ottawa,..,..,..,..,on
13782,Moloughney Park,sports field,ottawa,30,wessex,..,nepean,on
13798,Mooney's Bay Park,sports field,ottawa,..,..,..,..,on
13799,Mooney's Bay Park,sports field,ottawa,..,..,..,..,on
13800,Mooney's Bay Park,sports field,ottawa,..,..,..,..,on
13837,Morrison Park,sports field,ottawa,1095,morrison,..,ottawa,on
13848,Mother Teresa High School,sports field,ottawa,440,prom longfields,..,..,on
13868,Mountain Meadows Park,sports field,ottawa,..,..,..,..,on
13869,Mountain Meadows Park,sports field,ottawa,..,..,..,..,on
13870,Mountain Meadows Park,sports field,ottawa,..,..,..,..,on
13871,Mowat Farm Park,sports field,ottawa,..,..,..,..,on
13872,Mowat Farm Park,sports field,ottawa,..,..,..,..,on
13875,Mulligan Park,sports field,ottawa,..,..,..,..,on
13890,Munster Elementary School,sports field,ottawa,7816,bleeks,..,..,on
13891,Munster North Park,sports field,ottawa,..,..,..,..,on
13892,Munster North Park,sports field,ottawa,..,..,..,..,on
13893,Munster North Park,sports field,ottawa,..,..,..,..,on
13894,Munster North Park,sports field,ottawa,..,..,..,..,on
13895,Munster North Park,sports field,ottawa,..,..,..,..,on
13896,Munster North Park,sports field,ottawa,2778,munster,..,goulbourn,on
13898,Mutchmor Public School,sports field,ottawa,185,fifth,..,..,on
13903,Nanaimo Park,sports field,ottawa,..,..,..,..,on
13921,Navan Centennial Park,sports field,ottawa,3591,wickham,..,..,on
13922,Navan Centennial Park,sports field,ottawa,3591,wickham,..,..,on
13923,Ncc Aubrey Moodie Park,sports field,ottawa,..,..,..,..,on
13924,Ncc Aubrey Moodie Park,sports field,ottawa,..,..,..,..,on
13925,Ncc Aubrey Moodie Park,sports field,ottawa,..,..,..,..,on
13926,Ncc Aubrey Moodie Park,sports field,ottawa,..,..,..,..,on
13927,Ncc Aubrey Moodie Park,sports field,ottawa,..,..,..,..,on
13931,Neill Nesbitt Park,sports field,ottawa,..,..,..,..,on
13932,Neill Nesbitt Park,sports field,ottawa,70,foxfield,..,nepean,on
13936,Nepean Creek Park / Charmaine Hooper Fields,sports field,ottawa,..,..,..,..,on
13937,Nepean Creek Park / Charmaine Hooper Fields,sports field,ottawa,..,..,..,..,on
13938,Nepean Creek Park / Charmaine Hooper Fields,sports field,ottawa,..,..,..,..,on
13939,Nepean Creek Park / Charmaine Hooper Fields,sports field,ottawa,..,..,..,..,on
13940,Nepean Creek Park / Charmaine Hooper Fields,sports field,ottawa,..,..,..,..,on
13941,Nepean Creek Park / Charmaine Hooper Fields,sports field,ottawa,..,..,..,..,on
13942,Nepean High School,sports field,ottawa,574,broadview,..,..,on
13943,Nepean Lawn Bowls,sports field,ottawa,1701,woodroffe,..,..,on
13944,Nepean Sportsplex Park,sports field,ottawa,1701,woodroffe,..,..,on
13945,Nepean Sportsplex Park,sports field,ottawa,..,..,..,..,on
13946,Nepean Sportsplex Park,sports field,ottawa,..,..,..,..,on
13947,Nepean Sportsplex Park,sports field,ottawa,..,..,..,..,on
