Index,Facility_Name,ODRSF_facility_type,Provider,Street_No,Street_Name,Postal_Code,City,Prov_Terr
10991,Fawn Meadow Park,sports field,ottawa,..,..,..,..,on
10992,Featherston Drive Public School,sports field,ottawa,1801,prom featherston,..,..,on
10993,Featherstone Sports Fields,sports field,ottawa,..,..,..,ottawa,on
11018,Fielding Drive Public School,sports field,ottawa,777,prom fielding,..,..,on
11030,Fisher Heights Ball Diamond,sports field,ottawa,..,..,..,ottawa,on
11031,Fisher Heights Park,sports field,ottawa,31,sutton,..,..,on
11032,Fisher Park,sports field,ottawa,..,..,..,..,on
11033,Fisher Park,sports field,ottawa,250,holland,..,..,on
11034,Fisher Park,sports field,ottawa,250,holland,..,..,on
11035,Fisher Park Sports Fields,sports field,ottawa,..,..,..,ottawa,on
11041,Fitzroy Harbour Community Centre And Campbell Bicentennial Park,sports field,ottawa,..,..,..,..,on
11042,Fitzroy Harbour Community Centre And Campbell Bicentennial Park,sports field,ottawa,..,..,..,..,on
11043,Fitzroy Harbour Community Centre And Campbell Bicentennial Park,sports field,ottawa,..,..,..,..,on
11044,Fitzroy Harbour Community Centre And Campbell Bicentennial Park,sports field,ottawa,..,..,..,..,on
11045,Fitzroy Harbour Community Centre And Campbell Bicentennial Park,sports field,ottawa,..,..,..,..,on
11046,Fitzroy Harbour Community Centre And Campbell Bicentennial Park,sports field,ottawa,100,clifford campbell,..,carleton,on
11047,Fitzroy Harbour Community Centre And Campbell Bicentennial Park,sports field,ottawa,100,clifford campbell,..,carleton,on
11093,Foot Guards Park,sports field,ottawa,..,..,..,..,on
11131,Forbes Park,sports field,ottawa,..,..,..,..,on
11186,Fosterbrook Park,sports field,ottawa,..,..,..,..,on
11194,Four Seasons Park,sports field,ottawa,4386,spratt,..,gloucester,on
11206,François Dupont Park,sports field,ottawa,755,champlain,..,cumberland,on
11207,François Dupont Park,sports field,ottawa,..,..,..,..,on
11208,François Dupont Park,sports field,ottawa,..,..,..,..,on
11209,François Dupont Park,sports field,ottawa,..,..,..,..,on
11210,François Dupont Park,sports field,ottawa,..,..,..,..,on
11211,Frank Clair Stadium,sports field,ottawa,..,..,..,ottawa,on
11213,Frank J. Licari Park,sports field,ottawa,1990,cochrane,..,..,on
11214,Frank Mcdonald Sports Fields,sports field,ottawa,..,..,..,ottawa,on
11215,Frank Ryan Ball Diamond,sports field,ottawa,..,..,..,ottawa,on
11216,Frank Ryan Catholic Senior Elementary,sports field,ottawa,128,prom chesterton,..,..,on
11217,Frank Ryan Park,sports field,ottawa,950,alpine,..,..,on
11218,Frank Ryan Park,sports field,ottawa,950,alpine,..,..,on
11219,Frank Ryan Park,sports field,ottawa,950,alpine,..,..,on
11266,Fringewood Park And Community Centre,sports field,ottawa,..,..,..,..,on
11267,Fringewood Park And Community Centre,sports field,ottawa,..,..,..,..,on
11268,Fringewood Park And Community Centre,sports field,ottawa,14,fringewood,..,goulbourn,on
11269,Fringewood Sports Fields,sports field,ottawa,..,..,..,ottawa,on
11287,Gabriela Dabrowski Tennis Courts,sports field,ottawa,1735,st bernard,..,gloucester,on
11298,Gardenway Park,sports field,ottawa,2001,gardenway,..,cumberland,on
11299,Gardenway Park,sports field,ottawa,..,..,..,..,on
11300,Gardenway Park,sports field,ottawa,..,..,..,..,on
11301,Gardenway Park,sports field,ottawa,2001,gardenway,..,cumberland,on
11303,Garneau Catholic High School,sports field,ottawa,6588,carrière,..,..,on
11304,Garneau North Ball Diamond,sports field,ottawa,..,..,..,ottawa,on
11305,Garneau Park,sports field,ottawa,1567,champneuf,..,gloucester,on
11306,Garneau Park,sports field,ottawa,1567,champneuf,..,gloucester,on
11328,General Burn Sports Fields,sports field,ottawa,..,..,..,ottawa,on
11329,General Burns Park,sports field,ottawa,107,chesterton,..,nepean,on
