Index,Facility_Name,ODRSF_facility_type,Provider,Street_No,Street_Name,Postal_Code,City,Prov_Terr
8528,Basketball Court,sports field,ottawa,4111,kanata,..,..,on
8529,Basketball Court,sports field,ottawa,170,castlefrank,..,kanata,on
8530,Basketball Court,sports field,ottawa,1800,city park,..,gloucester,on
8531,Basketball Court,sports field,ottawa,45,mcintosh,..,kanata,on
8532,Basketball Court,sports field,ottawa,5572,doctor leach,..,rideau,on
8533,Basketball Court,sports field,ottawa,1485,duford,..,cumberland,on
8534,Basketball Court,sports field,ottawa,1841,elmridge,..,gloucester,on
8535,Basketball Court,sports field,ottawa,2989,fairlea,..,..,on
8536,Basketball Court,sports field,ottawa,681,deancourt,..,cumberland,on
8537,Basketball Court,sports field,ottawa,190,glen park,..,gloucester,on
8538,Basketball Court,sports field,ottawa,1756,grey nuns,..,gloucester,on
8539,Basketball Court,sports field,ottawa,1560,heatherington,..,ottawa,on
8540,Basketball Court,sports field,ottawa,99,bearbrook,..,gloucester,on
8541,Basketball Court,sports field,ottawa,1157,kenaston,..,gloucester,on
8542,Basketball Court,sports field,ottawa,60,knoxdale,..,nepean,on
8543,Basketball Court,sports field,ottawa,29,larkspur,..,nepean,on
8544,Basketball Court,sports field,ottawa,5660,osgoode main,..,osgoode,on
8545,Basketball Court,sports field,ottawa,1423,matheson,..,gloucester,on
8546,Basketball Court,sports field,ottawa,1059,ogilvie,..,gloucester,on
8547,Basketball Court,sports field,ottawa,3447,old almonte,..,carleton,on
8548,Basketball Court,sports field,ottawa,6218,voyageur,..,gloucester,on
8549,Basketball Court,sports field,ottawa,5,parkglen,..,nepean,on
8550,Basketball Court,sports field,ottawa,40,reid,..,..,on
8551,Basketball Court,sports field,ottawa,400,north-river,..,vanier,on
8552,Basketball Court,sports field,ottawa,2999,sable ridge,..,gloucester,on
8553,Basketball Court,sports field,ottawa,2850,sandalwood,..,ottawa,on
8554,Basketball Court,sports field,ottawa,725,sherbourne,..,ottawa,on
8555,Basketball Court,sports field,ottawa,4310,shoreline,..,gloucester,on
8556,Basketball Court,sports field,ottawa,6105,silverbirch,..,gloucester,on
8557,Basketball Court,sports field,ottawa,2320,southvale,..,..,on
8558,Basketball Court,sports field,ottawa,193,stanley,..,..,on
8559,Basketball Court,sports field,ottawa,15,steeple hill,..,..,on
8560,Basketball Court,sports field,ottawa,2250,torquay,..,..,on
8561,Basketball Court,sports field,ottawa,100,clifford campbell,..,carleton,on
8562,Basketball Court,sports field,ottawa,72,medhurst,..,..,on
8563,Basketball Court,sports field,ottawa,175,woodridge,..,..,on
8564,Basketball Court,sports field,ottawa,3151,yorks corners,..,osgoode,on
8565,Basketball Court,sports field,ottawa,1081,yorks corners,..,osgoode,on
8566,Basketball Court,sports field,ottawa,6018,voyageur,..,gloucester,on
8567,Basketball Court,sports field,ottawa,300,den haag,..,ottawa,on
8568,Basketball Court,sports field,ottawa,3860,riverside,..,ottawa,on
8569,Basketball Court,sports field,ottawa,28,cresthaven,..,nepean,on
8570,Basketball Court,sports field,ottawa,797,scala,..,cumberland,on
8571,Basketball Court,sports field,ottawa,4101,innovation,..,kanata,on
8572,Basketball Court,sports field,ottawa,720,vistapark,..,cumberland,on
8573,Basketball Court,sports field,ottawa,2810,findlay creek,..,gloucester,on
8574,Basketball Court,sports field,ottawa,100,akerson,..,kanata,on
8575,Basketball Court,sports field,ottawa,660,boothfield,..,..,on
8576,Basketball Court,sports field,ottawa,740,eastvale,..,gloucester,on
