Index,Facility_Name,ODRSF_facility_type,Provider,Street_No,Street_Name,Postal_Code,City,Prov_Terr
17964,Utman Park,sports field,ottawa,280,mountshannon,..,nepean,on
17967,Valin Park And South Fallingbrook Community Centre,sports field,ottawa,..,..,..,..,on
17979,Valleystream Park,sports field,ottawa,..,..,..,..,on
17980,Valleystream Tennis Club,sports field,ottawa,3412,richmond,..,nepean,on
17988,Varennes Park,sports field,ottawa,..,..,..,..,on
17989,Varley Park,sports field,ottawa,..,..,..,..,on
18005,Vernon Recreation Centre,sports field,ottawa,..,..,..,..,on
18006,Vernon Recreation Centre,sports field,ottawa,7950,lawrence,..,osgoode,on
18039,Village Green Park,sports field,ottawa,270,springfield,..,rockcliffe,on
18046,Vincent Massey Public School,sports field,ottawa,745,smyth,..,..,on
18050,Vista Park,sports field,ottawa,..,..,..,..,on
18062,Volleyball - 1 Court,sports field,ottawa,100,clifford campbell,..,carleton,on
18063,Volleyball - 1 Court,sports field,ottawa,5701,philip,..,osgoode,on
18064,Volleyball - 1 Court,sports field,ottawa,930,somerset,..,ottawa,on
18065,Volleyball - 1 Court,sports field,ottawa,4825,piperville,..,gloucester,on
18066,Volleyball - 1 Court,sports field,ottawa,2359,orient park,..,gloucester,on
18067,Volleyball - 1 Court,sports field,ottawa,1448,meadow,..,osgoode,on
18068,Volleyball - 1 Court,sports field,ottawa,495,billings,..,..,on
18069,Volleyball - 1 Court,sports field,ottawa,51,davidson,..,gloucester,on
18070,Volleyball - 1 Court,sports field,ottawa,2890,munster,..,goulbourn,on
18071,Volleyball - 1 Court,sports field,ottawa,346,kennedy,..,..,on
18072,Volleyball - 1 Court,sports field,ottawa,1463,prince of wales,..,ottawa,on
18073,Volleyball - 1 Court,sports field,ottawa,6485,greely west,..,osgoode,on
18074,Volleyball - 1 Court,sports field,ottawa,1825,trim,..,cumberland,on
18075,Volleyball - 1 Court,sports field,ottawa,1480,heron,..,ottawa,on
18076,Volleyball - 1 Court,sports field,ottawa,1157,kenaston,..,gloucester,on
18077,Volleyball - 1 Court,sports field,ottawa,1899,du-clairvaux,..,gloucester,on
18078,Volleyball - 1 Court,sports field,ottawa,1855,simard,..,gloucester,on
18079,Volleyball - 1 Court,sports field,ottawa,6210,meadowglen,..,gloucester,on
18080,Volleyball - 1 Court,sports field,ottawa,1257,joseph drouin,..,gloucester,on
18081,Volleyball - 1 Court,sports field,ottawa,6218,voyageur,..,gloucester,on
18082,Volleyball - 1 Court,sports field,ottawa,6940,bilberry,..,gloucester,on
18083,Volleyball - 1 Court,sports field,ottawa,936,lawnsberry,..,cumberland,on
18084,Volleyball - 1 Court,sports field,ottawa,223,iona,..,ottawa,on
18085,Volleyball - 1 Court,sports field,ottawa,3560,wyman,..,..,on
18086,Volleyball - 1 Court,sports field,ottawa,1485,meadowbrook,..,gloucester,on
18087,Volleyball - 1 Court,sports field,ottawa,61,corkstown,..,nepean,on
18088,Volleyball - 1 Court,sports field,ottawa,107,chesterton,..,nepean,on
18089,Volleyball - 1 Court,sports field,ottawa,691,hartman,..,..,on
18090,Volleyball - 1 Court,sports field,ottawa,1819,stonehenge,..,gloucester,on
18091,Volleyball - 1 Court,sports field,ottawa,2,eaton,..,nepean,on
18092,Volleyball - 1 Court,sports field,ottawa,3151,yorks corners,..,osgoode,on
18093,Volleyball - 1 Court,sports field,ottawa,1705,orléans,..,ottawa,on
18094,Volleyball - 2 Courts,sports field,ottawa,1410,henri lauzon,..,gloucester,on
18095,Volleyball - 2 Courts,sports field,ottawa,100,charlie rogers,..,..,on
18096,Volleyball - 2 Courts,sports field,ottawa,262,len purcell,..,carleton,on
18097,Volleyball - 2 Courts,sports field,ottawa,525,côté,..,ottawa,on
18098,Volleyball - 24 Courts,sports field,ottawa,815,shefford,..,..,on
18115,W.C. Bowes Park,sports field,ottawa,..,..,..,..,on
