Index,Facility_Name,ODRSF_facility_type,Provider,Street_No,Street_Name,Postal_Code,City,Prov_Terr
8784,Basketball Key,sports field,ottawa,6105,silverbirch,..,gloucester,on
8785,Basketball Key,sports field,ottawa,250,somerset,..,ottawa,on
8786,Basketball Key,sports field,ottawa,44,tartan,..,nepean,on
8787,Basketball Key,sports field,ottawa,72,medhurst,..,..,on
8788,Basketball Key,sports field,ottawa,6018,voyageur,..,gloucester,on
8789,Basketball Key,sports field,ottawa,262,len purcell,..,carleton,on
8790,Basketball Key,sports field,ottawa,30,queenston,..,richmond,on
8791,Basketball Key,sports field,ottawa,6116,creek crossing,..,gloucester,on
8792,Basketball Key,sports field,ottawa,6116,creek crossing,..,gloucester,on
8793,Basketball Key,sports field,ottawa,998,valin,..,cumberland,on
8794,Basketball Key,sports field,ottawa,6011,longleaf,..,gloucester,on
8795,Basketball Key,sports field,ottawa,3740,mountain meadows,..,gloucester,on
8796,Basketball Key,sports field,ottawa,4101,innovation,..,kanata,on
8797,Basketball Key,sports field,ottawa,998,valin,..,cumberland,on
8798,Basketball Key,sports field,ottawa,998,valin,..,cumberland,on
8799,Basketball Key,sports field,ottawa,72,medhurst,..,..,on
8800,Basketball Key,sports field,ottawa,4355,halmont,..,gloucester,on
8801,Basketball Key,sports field,ottawa,6,winfield,..,..,on
8802,Basketball Key,sports field,ottawa,681,deancourt,..,cumberland,on
8803,Basketball Key,sports field,ottawa,1691,sunview,..,gloucester,on
8804,Basketball Key,sports field,ottawa,1861,markwell,..,gloucester,on
8805,Basketball Key,sports field,ottawa,6210,meadowglen,..,gloucester,on
8806,Basketball Key,sports field,ottawa,6210,meadowglen,..,gloucester,on
8807,Basketball Key,sports field,ottawa,1556,forest valley,..,gloucester,on
8808,Basketball Key,sports field,ottawa,1556,forest valley,..,gloucester,on
8809,Basketball Key,sports field,ottawa,226,leamington,..,nepean,on
8810,Basketball Key,sports field,ottawa,16,rowley,..,..,on
8811,Basketball Key,sports field,ottawa,2359,orient park,..,gloucester,on
8812,Basketball Key,sports field,ottawa,59,bluegrass,..,..,on
8813,Basketball Key,sports field,ottawa,530,strasbourg,..,cumberland,on
8814,Basketball Key,sports field,ottawa,130,walden,..,kanata,on
8815,Basketball Key,sports field,ottawa,175,calvington,..,..,on
8816,Basketball Key,sports field,ottawa,305,lysander,..,..,on
8817,Basketball Key,sports field,ottawa,210,Ã©merillon,..,..,on
8848,Bayshore Park,sports field,ottawa,..,..,..,..,on
8849,Bayshore Sports Fields,sports field,ottawa,..,..,..,ottawa,on
8882,Bearbrook Park And Pool,sports field,ottawa,99,bearbrook,..,gloucester,on
8894,Beaverbrook Park,sports field,ottawa,..,..,..,..,on
8895,Beaverbrook Park,sports field,ottawa,..,..,..,..,on
8896,Beaverbrook Park,sports field,ottawa,..,..,..,..,on
8897,Beaverbrook Park,sports field,ottawa,..,..,..,..,on
8898,Beaverbrook Park,sports field,ottawa,2500,campeau,..,kanata,on
8899,Beaverbrook Sports Fields,sports field,ottawa,..,..,..,ottawa,on
8904,Bel-Air Park,sports field,ottawa,2149,berwick,..,..,on
8909,Bell Centennial Arena And Bell Arena Park,sports field,ottawa,..,..,..,..,on
8910,Bell Centennial Arena And Bell Arena Park,sports field,ottawa,50,cassidy,..,nepean,on
8911,Bell Centennial Arena And Bell Arena Park,sports field,ottawa,50,cassidy,..,nepean,on
8914,Bell High School,sports field,ottawa,40,cassidy,..,..,on
8918,Bella Vista Park,sports field,ottawa,1541,carino,..,cumberland,on
