Index,Facility_Name,ODRSF_facility_type,Provider,Street_No,Street_Name,Postal_Code,City,Prov_Terr
164315,Cathcart Park,park,ottawa,219,cathcart,..,ottawa,on
164318,Cathedral Park,park,ottawa,6347,viseneau,..,gloucester,on
164335,Cattail Creek Park,park,ottawa,38,chimo,..,kanata,on
164356,Cecil Morrison Park,park,ottawa,1332,n,..,..,on
164378,Cedar Mills Park,park,ottawa,1620,cedar mills,..,gloucester,on
164396,Cedarcroft Park,park,ottawa,1200,cedarcroft,..,gloucester,on
164397,Cedardale Park,park,ottawa,29,mary,..,gloucester,on
164399,Cedarhill Estates Park,park,ottawa,23,cedarhill,..,nepean,on
164415,Celebration Park,park,ottawa,200,central park,..,ottawa,on
164451,Centennial Park,park,ottawa,5572,doctor leach,..,rideau,on
164491,Central Park,park,ottawa,19,clemow,..,..,on
164510,Centrepointe Park,park,ottawa,260,centrepointe,..,nepean,on
164536,Chamberlain Park,park,ottawa,80,chamberlain,..,..,on
164541,Champagne Park,park,ottawa,1861,markwell,..,gloucester,on
164545,Champlain Park,park,ottawa,140,carleton,..,..,on
164565,Chanonhouse Park,park,ottawa,28,chanonhouse,..,goulbourn,on
164573,Chapel Hill Park,park,ottawa,1556,forest valley,..,gloucester,on
164575,Chapman Mills Park,park,ottawa,139,windhurst,..,nepean,on
164583,Charing Park,park,ottawa,37,chartwell,..,..,on
164585,Charlemagne Park,park,ottawa,1200,charlemagne,..,cumberland,on
164638,Chaudi√®re Park,park,ottawa,68,elm,..,ottawa,on
164728,Chris Bracken Park,park,ottawa,5545,south-river,..,rideau,on
164771,Citiplace Park,park,ottawa,285,citiplace,..,nepean,on
164773,City Centre Park,park,ottawa,1800,city park,..,gloucester,on
164781,City View Park,park,ottawa,7,canter,..,nepean,on
164806,Clare Gardens Park,park,ottawa,269,clare,..,ottawa,on
164814,Clarence Maheral Park,park,ottawa,..,..,..,kanata,on
164820,Clarity Park,park,ottawa,825,clarity,..,..,on
164829,Clarke Fields Park,park,ottawa,93,houlahan,..,nepean,on
164843,Claudette Cain Park,park,ottawa,660,river,..,gloucester,on
164883,Cline Park,park,ottawa,1148,cline,..,..,on
164924,Cobble Hill Park,park,ottawa,200,cobble hill,..,nepean,on
164927,Cobe Parkette,park,ottawa,1490,cobe,..,..,on
164986,Colonnade Park,park,ottawa,2,colonnade,..,nepean,on
165003,Combermere Park,park,ottawa,11,combermere,..,gloucester,on
165043,Confederation Park,park,ottawa,2350,russell,..,ottawa,on
165059,Connaught Park,park,ottawa,993,connaught,..,..,on
165067,Conroy Park,park,ottawa,1300,blohm,..,ottawa,on
165073,Constance Buckham's Bay Community Centre Park,park,ottawa,262,len purcell,..,carleton,on
165092,Copeland Park,park,ottawa,1609,navaho,..,ottawa,on
165095,Copp Park,park,ottawa,750,hillsdale,..,rockcliffe,on
165114,Corkstown Park,park,ottawa,61,corkstown,..,nepean,on
165146,Coronation Park,park,ottawa,442,coronation,..,..,on
165193,Country Estates Parkland,park,ottawa,7821,iveson,..,osgoode,on
165204,Country Place Finger Park,park,ottawa,36,amberwood,..,..,on
165205,Country Place Park,park,ottawa,83,amberwood,..,..,on
165274,Coyote Run Park,park,ottawa,367,ridge,..,goulbourn,on
165276,Coyote Trail Park,park,ottawa,1829,trim,..,..,on
165282,Craig Henry Park,park,ottawa,135,craig henry,..,nepean,on
