Index,Facility_Name,ODRSF_facility_type,Provider,Street_No,Street_Name,Postal_Code,City,Prov_Terr
163616,Bradley Ridge Park,park,ottawa,221,radhika,..,..,on
163633,Bramble Lane Park - Ridgewood Tot Lot,park,ottawa,3366,bramble,..,osgoode,on
163637,Branchwood Park,park,ottawa,23,branchwood,..,nepean,on
163646,Brantwood Park,park,ottawa,39,onslow,..,..,on
163667,Brettonwood Parkette,park,ottawa,332,brettonwood,..,..,on
163670,Brewer Park,park,ottawa,100,brewer,..,ottawa,on
163678,Brian Parsons Park,park,ottawa,53,black tern,..,..,on
163684,Briargreen Park,park,ottawa,9,parkfield,..,..,on
163700,Bridgeport Parkette North,park,ottawa,500,bridgeport,..,..,on
163701,Bridgeport Parkette South,park,ottawa,503,bridgeport,..,..,on
163737,Brigatine Park,park,ottawa,434,brigatine,..,..,on
163738,Brighton Beach Park,park,ottawa,30,brighton,..,..,on
163741,Brigitta Park,park,ottawa,354,brigitta,..,kanata,on
163751,Britannia Park,park,ottawa,2805,carling,..,..,on
163781,Bronson Park,park,ottawa,506,wellington,..,ottawa,on
163804,Brookfield Park,park,ottawa,984,brookfield,..,ottawa,on
163817,Brookshire Park,park,ottawa,1027,klondike,..,kanata,on
163830,Broughton Park,park,ottawa,150,battersea,..,..,on
163839,Brown's Inlet Park,park,ottawa,65,craig,..,ottawa,on
163855,Bruce Timmermans Park,park,ottawa,1497,gilles,..,ottawa,on
163856,Brucelands Park,park,ottawa,2960,baseline,..,nepean,on
163860,Bruff Park,park,ottawa,250,lorry greenberg,..,ottawa,on
163868,Bryanston Gate Park,park,ottawa,23,alon,..,goulbourn,on
163924,Burnett Park,park,ottawa,135,sherway,..,nepean,on
163927,Burnford Park,park,ottawa,28,glencoe,..,nepean,on
163955,Butterfly Park,park,ottawa,711,long point,..,..,on
163979,Byrd Park,park,ottawa,128,chimo,..,kanata,on
163981,Byron Linear Tramway Park,park,ottawa,579,byron,..,..,on
164006,Cahill Park,park,ottawa,206,twyford,..,ottawa,on
164013,Calaveras Park,park,ottawa,213,calaveras,..,..,on
164034,Calwood Park,park,ottawa,6641,calwood,..,..,on
164035,Calzavara Family Park,park,ottawa,1602,blohm,..,ottawa,on
164091,Campobello Park,park,ottawa,800,campobello,..,goulbourn,on
164107,Cancer Survivors Park,park,ottawa,1480,alta vista,..,ottawa,on
164130,Canterbury Park,park,ottawa,2185,arch,..,ottawa,on
164150,Capital Park,park,ottawa,10,ella,..,ottawa,on
164172,Cardinal Creek Community Park,park,ottawa,1825,trim,..,cumberland,on
164173,Cardinal Farm Park,park,ottawa,1921,wildflower,..,cumberland,on
164174,Cardinal Glen Park,park,ottawa,11,dunbarton,..,..,on
164186,Carillon Park,park,ottawa,246,park,..,vanier,on
164192,Carleton Heights Park,park,ottawa,1665,apeldoorn,..,..,on
164200,Carlington Park,park,ottawa,937,clyde,..,..,on
164201,Carlington Park Bike Pump Track,park,ottawa,1599,morisset,..,..,on
164242,Carrière Park,park,ottawa,6601,carrière,..,..,on
164252,Carrol Homestead Community Park / Corkery Community Centre,park,ottawa,3447,old almonte,..,carleton,on
164257,Carson Grove Park,park,ottawa,1423,matheson,..,gloucester,on
164279,Caserta Park,park,ottawa,1369,caserta,..,..,on
164282,Casgrain Park,park,ottawa,78,leacock,..,kanata,on
164288,Cassandra Park,park,ottawa,3000,cassandra,..,..,on
