Index,Facility_Name,ODRSF_facility_type,Provider,Street_No,Street_Name,Postal_Code,City,Prov_Terr
62,Albion Heatherington Recreation Centre,community centre,ottawa,1560,heatherington,K1V 0,ottawa,on
191,Arena Uplands Hangar,arena,ottawa,..,..,..,ottawa,on
257,Barbara Ann Scott Arena,arena,ottawa,..,..,..,ottawa,on
295,Bearbrook Outdoor Pool,pool,ottawa,99,bearbrook,..,gloucester,on
296,Bearbrook Outdoor Pool,pool,ottawa,..,..,..,ottawa,on
297,Bearbrook Outdoor Pool,pool,ottawa,2679,innes,K1B 5N5,ottawa,on
298,Bearbrook Skateboard Park,skate park,ottawa,8720,russell,..,..,on
307,Beaverbrook Outdoor Pool,pool,ottawa,1002,beaverbrook,..,kanata,on
331,Bell Centennial Arena,arena,ottawa,..,..,..,ottawa,on
362,Bernard Grandmaître Arena,arena,ottawa,..,..,..,ottawa,on
368,Berrigan Skateboard Park,skate park,ottawa,51,berrigan,..,..,on
421,Blackburn Arena,arena,ottawa,200,glen park,K1B 5A3,ottawa,on
422,Blackburn Hamlet Arena,arena,ottawa,..,..,..,ottawa,on
423,Blackburn Skateboard Park,skate park,ottawa,190,glen park,..,..,on
450,Bob Macquarrie Skateboard Park (Sk8 Extreme Park),skate park,ottawa,1490,youville,..,..,on
522,Brewer Pool,pool,ottawa,..,..,..,ottawa,on
523,Brewer Pool,pool,ottawa,100,brewer,K1S 2Z5,ottawa,on
524,Brian Kilrea Arena,arena,ottawa,..,..,..,ottawa,on
539,Bridlewood Skateboard Park,skate park,ottawa,65,stonehaven,..,..,on
542,Brighton Beach Park,beach,ottawa,..,..,..,ottawa,on
547,Britannia Beach,beach,ottawa,102,greenview,..,..,on
662,Canterbury Pool,pool,ottawa,..,..,..,ottawa,on
668,Canyon Walk Outdoor Rink,rink,ottawa,4149,canyon walk,..,..,on
684,Carlington Recreation Centre,community centre,ottawa,1520,caldwell,K1Z 5L6,ottawa,on
700,Carp Water Splash Park,splash pad,ottawa,108,juanita,..,carleton,on
710,Carsonby Outdoor Rink,rink,ottawa,6047,prince of wales,..,..,on
748,Cbn Sens Rink,rink,ottawa,960,silver,..,..,on
992,Champagne Pool,pool,ottawa,..,..,..,ottawa,on
1013,Charlie Bowins Skateboard Park,skate park,ottawa,435,bronson,..,..,on
1053,Chris Neil Rink,rink,ottawa,98,meadowbreeze,..,..,on
1054,Chris Phillips Rink,rink,ottawa,100,akerson,..,..,on
1070,Churchill Seniors Recreation Centre,community centre,ottawa,345,richmond,K2E 0,ottawa,on
1174,Constance Bay Skateboard Park,skate park,ottawa,262,len purcell,..,..,on
1187,Corkstown Outdoor Pool,pool,ottawa,61,corkstown,..,nepean,on
1244,Crestview Outdoor Pool,pool,ottawa,58,fieldrow,..,nepean,on
1245,Crestview Outdoor Pool,pool,ottawa,56,fieldrow,K2G 2Y7,ottawa,on
1311,Deborah Anne Kirwan Pool,pool,ottawa,1300,kitchener,K1V 6W2,ottawa,on
1401,Dovercourt Pool,pool,ottawa,..,..,..,ottawa,on
1453,Earl Armstrong Arena,arena,ottawa,..,..,..,ottawa,on
1577,Entrance Outdoor Pool,pool,ottawa,2,eaton,..,nepean,on
1598,Eugène Martineau Skateboard Park,skate park,ottawa,710,mikinak,..,..,on
1776,Fred G. Barrett Arena,arena,ottawa,..,..,..,ottawa,on
1824,General Burns Outdoor Pool,pool,ottawa,107,chesterton,..,nepean,on
1826,Genest Outdoor Pool,pool,ottawa,43,ste-cécilevanier,..,..,on
1874,Glen Cairn Outdoor Pool,pool,ottawa,70,castlefrank,..,kanata,on
1943,Goulbourn Arena,arena,ottawa,..,..,..,ottawa,on
1944,Goulbourn Pool,pool,ottawa,..,..,..,ottawa,on
1945,Goulbourn Skateboard Park,skate park,ottawa,1500,shea,..,..,on
1982,Greely Village Skateboard Park,skate park,ottawa,7292,parkway,..,..,on
