Index,Facility_Name,ODRSF_facility_type,Provider,Street_No,Street_Name,Postal_Code,City,Prov_Terr
169925,La Salle Park,park,kingston,434,mcewen,..,..,on
169948,Lafleur Park,park,kingston,219,van order,..,..,on
169979,Lake Ontario Park,park,kingston,920,king,..,..,on
169981,Lake Street Open Space,park,kingston,..,..,..,..,on
170183,Lawrence Park,park,kingston,693,aylmer,..,..,on
170259,Lemoine Point Conservation Area,park,kingston,1990,front,..,..,on
170322,Lilla Burke Park,park,kingston,52,kenwoods,..,..,on
170415,Lions Civic Gardens,park,kingston,875,gardiners,..,..,on
170453,Little Cataraqui Creek Conservation Area,park,kingston,1641,perth,..,..,on
170513,Lombardy Park,park,kingston,485,boxwood,..,..,on
170710,Macalpine Park,park,kingston,1879,macalpine,..,..,on
170715,Macdonald Memorial Park,park,kingston,1,king,..,..,on
170729,Maclachlan Woodworking Museum,park,kingston,2993,2,..,..,on
170730,Maclean Park,park,kingston,224,gore,..,..,on
170732,Maclean Trails (Pittsburgh Library),park,kingston,914,15,..,..,on
170759,Madoma Park,park,kingston,1805,2,..,..,on
170936,Marclen Open Space,park,kingston,112,marclen,..,..,on
170985,Markers Acres Park,park,kingston,201,conacher,..,..,on
171050,Marshland Conservation Area,park,kingston,1214,trailhead,..,..,on
171139,Max Jackson Memorial Park,park,kingston,15,oak,..,..,on
171155,Mayfair Park,park,kingston,988,mayfair,..,..,on
171169,Mayview Park,park,kingston,1920,mayview,..,..,on
171185,Mcburney Park,park,kingston,151,ordnance,..,..,on
171221,Mccullough Park (Central),park,kingston,480,portsmouth,..,..,on
171222,Mccullough Park (West),park,kingston,480,mccullough park,..,..,on
171345,Meadowbrook Park,park,kingston,444,kingsdale,..,..,on
171350,Meadowcrest Park,park,kingston,360,kingston mills,..,..,on
171391,Megaffin Park & Cook Bros Yc,park,kingston,692,bagot,..,..,on
171498,Midland Park,park,kingston,1476,hanover,..,..,on
171631,Milton Lookout Park,park,kingston,8,riverside,..,..,on
171734,Molly Brant Point,park,kingston,2,cataraqui,..,..,on
171735,Molly Mcglynn Park,park,kingston,..,molly mcglynn,..,..,on
171739,Mona Lookout Park,park,kingston,710,mona,..,..,on
172028,Napier St Parkette,park,kingston,671,brock,..,..,on
172061,Navy Memorial Park,park,kingston,61,ontario,..,..,on
172071,Neil Mcarthur Park,park,kingston,57,wiley,..,..,on
172115,Newcourt Park,park,kingston,50,newcourt,..,..,on
172120,Newmarket Lane Parkette,park,kingston,732,newmarket,..,..,on
172143,Nickle Avenue Park,park,kingston,69,nickle,..,..,on
172308,Norwest Park,park,kingston,860,norwest,..,..,on
172427,Oak Street Park,park,kingston,62,oak,..,..,on
172451,Oakridge Park,park,kingston,2,oakridge,..,..,on
172484,O'Connor Park,park,kingston,268,old quarry,..,..,on
172509,Old Colony Park,park,kingston,975,old colony,..,..,on
172586,Optimist Baseball Field,park,kingston,412,rideau,..,..,on
172686,Paardeburg Park (Cfb),park,kingston,42,paardeburg,..,..,on
173644,Parkside Parkette,park,kingston,718,parkside,..,..,on
173694,Patterson Park,park,kingston,86,sunny acres,..,..,on
173770,Peirson Park,park,kingston,1648,joyceville,..,..,on
