Index,Facility_Name,ODRSF_facility_type,Provider,Street_No,Street_Name,Postal_Code,City,Prov_Terr
133611,..,trail,province of ontario,..,..,..,..,on
133612,..,trail,province of ontario,..,..,..,..,on
133614,..,trail,province of ontario,..,..,..,..,on
133617,..,trail,province of ontario,..,..,..,..,on
133619,..,trail,province of ontario,..,..,..,..,on
133620,..,trail,province of ontario,..,..,..,..,on
133621,..,trail,province of ontario,..,..,..,..,on
133623,..,trail,province of ontario,..,..,..,..,on
133624,..,trail,province of ontario,..,..,..,..,on
138056,..,trail,province of ontario,..,..,..,..,on
138067,..,trail,province of ontario,..,..,..,..,on
138071,..,trail,province of ontario,..,..,..,..,on
138072,..,trail,province of ontario,..,..,..,..,on
138087,..,trail,province of ontario,..,..,..,..,on
138090,..,trail,province of ontario,..,..,..,..,on
138091,..,trail,province of ontario,..,..,..,..,on
138100,..,trail,province of ontario,..,..,..,..,on
138105,..,trail,province of ontario,..,..,..,..,on
138110,..,trail,province of ontario,..,..,..,..,on
138112,..,trail,province of ontario,..,..,..,..,on
138117,..,trail,province of ontario,..,..,..,..,on
138122,..,trail,province of ontario,..,..,..,..,on
138127,..,trail,province of ontario,..,..,..,..,on
138131,..,trail,province of ontario,..,..,..,..,on
138135,..,trail,province of ontario,..,..,..,..,on
138136,..,trail,province of ontario,..,..,..,..,on
138151,..,trail,province of ontario,..,..,..,..,on
138152,..,trail,province of ontario,..,..,..,..,on
161404,100 Foot Park,park,kingston,121,medley,..,..,on
162064,Aberdeen Park (Portsmouth),park,kingston,623,king,..,..,on
162065,Aberfoyle Park,park,kingston,49,aberfoyle,..,..,on
162280,Alwington Place Park,park,kingston,..,alwington,..,..,on
162319,An Gorta Mor Park,park,kingston,11,ontario,..,..,on
162443,Arbour Ridge Park,park,kingston,588,tanner,..,..,on
162528,Arrowhead Beach Recreation Area (Cfb),park,kingston,4,yacht club,..,..,on
162548,Arthur Lower Park,park,kingston,4266,bath,..,..,on
162556,Artillery Park,park,kingston,76,ordnance,..,..,on
162587,Ashton Park,park,kingston,704,milford,..,..,on
162615,Assoro Park (Cfb),park,kingston,15,assoro,..,..,on
162644,Auden Park,park,kingston,585,roosevelt,..,..,on
162651,Augusta Common West Park,park,kingston,..,cataraqui woods,..,..,on
162809,Barriefield Parkette,park,kingston,219,green bay,..,..,on
162810,Barriefield Rock Garden Park,park,kingston,2,main,..,..,on
162851,Battery Park,park,kingston,3,gore,..,..,on
162869,Bayridge Park,park,kingston,701,bayridge,..,..,on
162872,Bayshore Park,park,kingston,602,rankin,..,..,on
163079,Belle Island - Cataraqui Park,park,kingston,348,belle park,..,..,on
163080,Belle Park,park,kingston,731,montreal,..,..,on
163221,Bert Meunier Common,park,kingston,739,augusta,..,..,on
