Index,Facility_Name,ODRSF_facility_type,Provider,Street_No,Street_Name,Postal_Code,City,Prov_Terr
173897,Pine Street Triangle,park,kingston,174,pine,..,..,on
173964,Pittsburgh Place Park,park,kingston,696,maclean,..,..,on
173965,Place D'Armes Walk,park,kingston,..,king,..,..,on
174005,Point St. Mark Park,park,kingston,15,point st mark,..,..,on
174016,Polson Park,park,kingston,153,robert wallace,..,..,on
174038,Poplar Grove Park,park,kingston,590,glenview,..,..,on
174074,Portsmouth Olympic Harbour,park,kingston,53,yonge,..,..,on
174075,Portsmouth Soccer Fields,park,kingston,56,francis,..,..,on
174264,Queenston Heights Park (Cfb),park,kingston,21,queenston,..,..,on
174405,Ravensview Park,park,kingston,807,la salle,..,..,on
174590,Richdale Park,park,kingston,116,grenadier,..,..,on
174618,Rideau School Parkette,park,kingston,375,macdonnell,..,..,on
174639,Ridgewood Park,park,kingston,830,safari,..,..,on
174756,Rivermeade Parkette,park,kingston,648,rivermeade,..,..,on
174764,Rivers Edge Park,park,kingston,1290,waterside,..,..,on
174772,Riverside Central Park,park,kingston,31,faircrest,..,..,on
174788,Riverside Waterside Park,park,kingston,34,faircrest,..,..,on
174794,Riverview Park,park,kingston,140,rideau,..,..,on
174803,Riverwalk Parkette,park,kingston,98,dalgleish,..,..,on
174807,Riverwood Park,park,kingston,1812,macalpine,..,..,on
174872,Rochdale Park,park,kingston,864,rochdale,..,..,on
174903,Rodden Park,park,kingston,111,norman rogers,..,..,on
174953,Ronald Lavallee Memorial Kiwanis Park,park,kingston,53,fourth,..,..,on
174962,Rose Abbey Park,park,kingston,59,rose abbey,..,..,on
174975,Rosedale Park,park,kingston,1985,rosedale,..,..,on
175029,Rotary Park,park,kingston,1280,coverdale,..,..,on
175326,Runnymede Park,park,kingston,83,runnymede,..,..,on
175747,Shane Park,park,kingston,1029,parkland,..,..,on
175751,Shannon Park,park,kingston,199,wilson,..,..,on
175755,Shannons Corners Park,park,kingston,2400,perth,..,..,on
175878,Sibbit Park,park,kingston,941,mcknight,..,..,on
175895,Silas Stevens Parkette,park,kingston,52,notch hill,..,..,on
176035,Smithfield Crescent Park,park,kingston,77,smithfield,..,..,on
176045,Smuggler's Cove Park,park,kingston,241,smuggler's cove,..,..,on
176046,Smuggler's Cove Parkette,park,kingston,283,smuggler's cove,..,..,on
176056,Snider Park,park,kingston,146,guthrie,..,..,on
176269,Springer Park,park,kingston,992,portsmouth,..,..,on
176560,Starr Reid Park,park,kingston,64,drennan,..,..,on
176688,Strathcona Park,park,kingston,81,indian,..,..,on
176811,Sunnyside Park,park,kingston,1745,jesse,..,..,on
176854,Sutherland Drive Park,park,kingston,51,sutherland,..,..,on
176859,Sutton Mills Park,park,kingston,820,somerset,..,..,on
177092,Third Avenue Park,park,kingston,141,third,..,..,on
177335,Trailhead Park,park,kingston,1105,trailhead,..,..,on
177408,Trillium Ridge Park,park,kingston,303,grandtrunk east,..,..,on
177435,Tugwood Park,park,kingston,179,railway,..,..,on
177849,Vicki Keith Parkette,park,kingston,76,ordnance,..,..,on
177862,Victoria Park,park,kingston,487,brock,..,..,on
178014,Walnut Grove Park,park,kingston,56,ellesmeer,..,..,on
