Index,Facility_Name,ODRSF_facility_type,Provider,Street_No,Street_Name,Postal_Code,City,Prov_Terr
163336,Birchwood Park,park,kingston,1340,birchwood,..,..,on
163464,Bluffwood Parkette,park,kingston,1016,bluffwood,..,..,on
163516,Bonny Park,park,kingston,55,windfield,..,..,on
163518,Bonnycastle Park,park,kingston,13,bonnycastle,..,..,on
163553,Boucher Park,park,kingston,68,clarence,..,..,on
163651,Breakwater Park,park,kingston,200,king,..,..,on
163671,Brewer's Mills Open Space,park,kingston,..,brewer's mills,..,..,on
163717,Bridle Path Park,park,kingston,825,lancaster,..,..,on
163776,Brodie Park,park,kingston,905,brodie,..,..,on
163879,Buckingham Park,park,kingston,19,buckingham,..,..,on
163956,Butternut Creek Nature Park,park,kingston,400,gore,..,..,on
164002,Caen Park (Cfb),park,kingston,2,caen,..,..,on
164103,Canal Drive Open Space,park,kingston,428,kingston mills,..,..,on
164292,Castell Park,park,kingston,805,castell,..,..,on
164314,Cataraqui Woods Park,park,kingston,805,cataraqui woods,..,..,on
164354,Cecil & Wilma Graham Park,park,kingston,201,aragon,..,..,on
164523,Chadwick Parkette,park,kingston,602,chadwick,..,..,on
164547,Champlain Park,park,kingston,205,douglas,..,..,on
164563,Channel View Park,park,kingston,2,howe island ferry,..,..,on
164564,Channelview Road Park,park,kingston,1337,channelview,..,..,on
164757,Churchill Park,park,kingston,685,brock,..,..,on
164779,City Park,park,kingston,33,bagot,..,..,on
164904,Cloverdale Park,park,kingston,1030,sunnyside,..,..,on
164966,Collins Bay Boat Launch,park,kingston,4086,bath,..,..,on
164967,Collins Bay Open Space,park,kingston,4140,bath,..,..,on
164970,Colonel By Park,park,kingston,4150,mangan,..,..,on
165029,Compton Park,park,kingston,346,college,..,..,on
165044,Confederation Park,park,kingston,225,ontario,..,..,on
165068,Conservatory Pond Park,park,kingston,506,conservatory,..,..,on
165307,Crca,park,kingston,..,portsmouth,..,..,on
165332,Crerar Park,park,kingston,39,park,..,..,on
165357,Cricket Field,park,kingston,32,bagot,..,..,on
165617,Deerview Open Space,park,kingston,500,deerview,..,..,on
165906,Douglas R. Fluhrer Park,park,kingston,2,north,..,..,on
166051,Dunham Park,park,kingston,1040,mona,..,..,on
166220,Eden Valley Open Space,park,kingston,1440,perradice,..,..,on
166222,Eden Valley South Open Space,park,kingston,742,kingston mills,..,..,on
166228,Edenwood Park,park,kingston,470,maple lawn,..,..,on
166311,Elder Park,park,kingston,388,mack,..,..,on
166322,Elevator Bay Park,park,kingston,1026,king,..,..,on
166385,Elmwood Park,park,kingston,245,elmwood,..,..,on
166390,Elmwood Street East Park,park,kingston,36,elmwood,..,..,on
166406,Emerald Park,park,kingston,331,cavendish,..,..,on
166421,Emma Martin Park,park,kingston,9,orchard,..,..,on
166435,English Landing Park,park,kingston,1200,spinnaker,..,..,on
166511,Esplanade Park,park,kingston,5,rudd,..,..,on
166565,Everitt Park,park,kingston,70,lakeshore,..,..,on
166595,Faircrest Park,park,kingston,70,faircrest,..,..,on
166645,Fairway Hill Park,park,kingston,22,fairway hill,..,..,on
