Index,Facility_Name,ODRSF_facility_type,Provider,Street_No,Street_Name,Postal_Code,City,Prov_Terr
166980,Fort Henry Heights,park,kingston,1,fort henry,..,..,on
167069,Fraser Street Parkette,park,kingston,67,fraser,..,..,on
167118,Friendship Park,park,kingston,21,carlisle,..,..,on
167131,Frontenac School Parkette,park,kingston,32,adelaide,..,..,on
167207,Gardenwalk Park,park,kingston,910,limestone,..,..,on
167222,Garrigan Park,park,kingston,196,yonge,..,..,on
167479,Glenarden Park,park,kingston,73,jane,..,..,on
167771,Grass Creek Park,park,kingston,2991,2,..,..,on
167797,Green Bay Open Space (Cfb),park,kingston,160,james,..,..,on
167799,Green Bay Walkway,park,kingston,215,green bay,..,..,on
167871,Greenwood Park,park,kingston,416,mccallum,..,..,on
167875,Greenwood Park Linear Trail,park,kingston,1139,15,..,..,on
167876,Greenwood Park West Parkette,park,kingston,1330,waterside,..,..,on
167879,Grenadier Park,park,kingston,41,grenadier,..,..,on
167882,Grenville Crescent Parks,park,kingston,1,grenville,..,..,on
167903,Grosvenor Court Park,park,kingston,40,grosvenor,..,..,on
167992,Halifax Dr Park,park,kingston,1170,halifax,..,..,on
168136,Hatter Bay Lookout,park,kingston,..,king,..,..,on
168185,Headway Park,park,kingston,40,compton,..,..,on
168232,Hemlock Downs Park,park,kingston,550,aragon,..,..,on
168243,Henderson Park,park,kingston,792,henderson,..,..,on
168410,Highgate Park,park,kingston,1229,carmil,..,..,on
168427,Highland Heights Open Space,park,kingston,1900,unity,..,..,on
168490,Hillside Park,park,kingston,156,montreal,..,..,on
168501,Hillview Park,park,kingston,715,truman,..,..,on
168556,Holman Drive Park,park,kingston,11,holman,..,..,on
168607,Horsey Bay Parkette,park,kingston,925,old front,..,..,on
168649,Hudson Park,park,kingston,955,hudson,..,..,on
168790,Indian Road Park,park,kingston,32,indian,..,..,on
168791,Indian Road Parkette A,park,kingston,219,indian,..,..,on
168792,Indian Road Parkette B,park,kingston,208,indian,..,..,on
168900,J. K. Tett Centre,park,kingston,370,king,..,..,on
168977,James Nelson Park,park,kingston,14,theresa,..,..,on
168981,James Roe Park,park,kingston,51,strathcona,..,..,on
169000,Janette St Parkette,park,kingston,339,janette,..,..,on
169005,Jarvis Road Open Space,park,kingston,1502,jarvis,..,..,on
169069,Jim Beattie Park,park,kingston,900,henderson,..,..,on
169115,John Brewer Park,park,kingston,3513,brewer's mills,..,..,on
169154,John Grass Creek Park,park,kingston,1211,prince charles,..,..,on
169162,John Machin Fields Park,park,kingston,750,innovation,..,..,on
169239,Jorene Park,park,kingston,5,jorene,..,..,on
169283,Joyceville P.S. Playground,park,kingston,2903,joyceville,..,..,on
169332,K&P Trail,park,kingston,..,..,..,..,on
169333,K&P Trailhead Park,park,kingston,1980,cordukes,..,..,on
169362,Katings(Catons) Soccer Field,park,kingston,412,rideau,..,..,on
169374,Kchc Parkette,park,kingston,263,weller,..,..,on
169412,Ken Matthews Park,park,kingston,423,elliott,..,..,on
169484,Keyes Park,park,kingston,6,keyes,..,..,on
169569,Kingston Memorial Centre,park,kingston,303,york,..,..,on
