Index,Facility_Name,ODRSF_facility_type,Provider,Street_No,Street_Name,Postal_Code,City,Prov_Terr
98290,..,trail,province of ontario,..,..,..,..,on
101915,..,trail,province of ontario,..,..,..,..,on
101919,..,trail,province of ontario,..,..,..,..,on
101980,..,trail,province of ontario,..,..,..,..,on
102028,..,trail,province of ontario,..,..,..,..,on
102065,..,trail,province of ontario,..,..,..,..,on
102070,..,trail,province of ontario,..,..,..,..,on
102071,..,trail,province of ontario,..,..,..,..,on
102073,..,trail,province of ontario,..,..,..,..,on
102077,..,trail,province of ontario,..,..,..,..,on
102083,..,trail,province of ontario,..,..,..,..,on
102086,..,trail,province of ontario,..,..,..,..,on
102126,..,trail,province of ontario,..,..,..,..,on
102132,..,trail,province of ontario,..,..,..,..,on
102158,..,trail,province of ontario,..,..,..,..,on
102213,..,trail,province of ontario,..,..,..,..,on
102218,..,trail,province of ontario,..,..,..,..,on
102298,..,trail,province of ontario,..,..,..,..,on
133228,..,trail,province of ontario,..,..,..,..,on
133231,..,trail,province of ontario,..,..,..,..,on
133234,..,trail,province of ontario,..,..,..,..,on
133238,..,trail,province of ontario,..,..,..,..,on
133242,..,trail,province of ontario,..,..,..,..,on
133245,..,trail,province of ontario,..,..,..,..,on
133249,..,trail,province of ontario,..,..,..,..,on
133250,..,trail,province of ontario,..,..,..,..,on
133253,..,trail,province of ontario,..,..,..,..,on
133259,..,trail,province of ontario,..,..,..,..,on
133261,..,trail,province of ontario,..,..,..,..,on
133265,..,trail,province of ontario,..,..,..,..,on
133268,..,trail,province of ontario,..,..,..,..,on
133275,..,trail,province of ontario,..,..,..,..,on
133276,..,trail,province of ontario,..,..,..,..,on
133278,..,trail,province of ontario,..,..,..,..,on
133282,..,trail,province of ontario,..,..,..,..,on
133287,..,trail,province of ontario,..,..,..,..,on
133289,..,trail,province of ontario,..,..,..,..,on
133291,..,trail,province of ontario,..,..,..,..,on
133293,..,trail,province of ontario,..,..,..,..,on
138186,..,trail,province of ontario,..,..,..,..,on
169977,Lake Of The Mountain Pp,park,kingston,..,..,..,..,on
