Index,Facility_Name,ODRSF_facility_type,Provider,Street_No,Street_Name,Postal_Code,City,Prov_Terr
49,Ajax Community Centre,community centre,region of durham,75,centennial,L1S 4S4,ajax,on
3273,Mclean Community Centre,community centre,region of durham,95,magill,L1T 4M5,ajax,on
3314,Memorial Outdoor Pool,pool,durham,65,harwood,L1S 2H9,ajax,on
5889,St. Andrew's Community Centre,community centre,region of durham,46,exeter,L1S 2J8,ajax,on
6284,Village Arena,arena,durham,100,church,L1T 2W7,ajax,on
6285,Village Community Centre,community centre,region of durham,22,sherwood,..,ajax,on
7215,Annandale Golf And Country Club,sports field,york region,221,church,L1S 0A1,ajax,on
9525,Carruther's Creek Golf Club,sports field,york region,650,lakeridge,L1Z 1W9,ajax,on
10419,Deer Creek Golf Club,sports field,york region,2700,audley,L1Z 1T7,ajax,on
11199,Fox Run Golf Centre,sports field,york region,560,taunton,L1T 4S9,ajax,on
15341,Riverside Golf Course,sports field,york region,837,riverside,L1T 3R9,ajax,on
102062,..,trail,province of ontario,..,..,..,..,on
102198,..,trail,province of ontario,..,..,..,..,on
131460,..,trail,province of ontario,..,..,..,..,on
131624,..,trail,province of ontario,..,..,..,..,on
131749,..,trail,province of ontario,..,..,..,..,on
131943,..,trail,province of ontario,..,..,..,..,on
132127,..,trail,province of ontario,..,..,..,..,on
132236,..,trail,province of ontario,..,..,..,..,on
132365,..,trail,province of ontario,..,..,..,..,on
132470,..,trail,province of ontario,..,..,..,..,on
132865,..,trail,province of ontario,..,..,..,..,on
132883,..,trail,province of ontario,..,..,..,..,on
132887,..,trail,province of ontario,..,..,..,..,on
133175,..,trail,province of ontario,..,..,..,..,on
138270,..,trail,province of ontario,..,..,..,..,on
138271,..,trail,province of ontario,..,..,..,..,on
138293,..,trail,province of ontario,..,..,..,..,on
138316,..,trail,province of ontario,..,..,..,..,on
138324,..,trail,province of ontario,..,..,..,..,on
138353,..,trail,province of ontario,..,..,..,..,on
138380,..,trail,province of ontario,..,..,..,..,on
