Index,Facility_Name,ODRSF_facility_type,Provider,Street_No,Street_Name,Postal_Code,City,Prov_Terr
1932,Goodwood Community Centre,community centre,region of durham,268,47,L0C 1A0,goodwood,on
5318,Sandford Community Centre,community centre,region of durham,433,sandford,L0C 1,sandford,on
6206,Uxbridge Arena And Community Centre,arena,region of durham,291,brock,L9L 1G1,uxbridge,on
10175,Coppinwood,sports field,york region,2320,concession 4,L4B 3K6,uxbridge,on
11203,Foxbridge Golf And Country Club,sports field,york region,274,reach,L9P OC1,uxbridge,on
11495,Goodwood Golf Club,sports field,york region,5356,concession 2,L4A 7X4,whitchurch stouffville,on
11559,Granite Golf Club,sports field,york region,2699,york,L4A 7X4,whitchurch stouffville,on
13677,Mill Run Golf Club,sports field,york region,269,durham,L9P 1R1,uxbridge,on
18521,Wooden Sticks Golf Club,sports field,york region,40,elgin park,L9P 1N2,uxbridge,on
18567,Wyndance Golf Club,sports field,york region,450,21,L9P 1R4,uxbridge,on
96535,..,trail,province of ontario,..,..,..,..,on
96536,..,trail,province of ontario,..,..,..,..,on
96537,..,trail,province of ontario,..,..,..,..,on
96538,..,trail,province of ontario,..,..,..,..,on
96539,..,trail,province of ontario,..,..,..,..,on
96540,..,trail,province of ontario,..,..,..,..,on
96549,..,trail,province of ontario,..,..,..,..,on
96567,..,trail,province of ontario,..,..,..,..,on
96568,..,trail,province of ontario,..,..,..,..,on
96569,..,trail,province of ontario,..,..,..,..,on
96570,..,trail,province of ontario,..,..,..,..,on
96571,..,trail,province of ontario,..,..,..,..,on
96572,..,trail,province of ontario,..,..,..,..,on
96573,..,trail,province of ontario,..,..,..,..,on
96574,..,trail,province of ontario,..,..,..,..,on
96575,..,trail,province of ontario,..,..,..,..,on
96576,..,trail,province of ontario,..,..,..,..,on
96577,..,trail,province of ontario,..,..,..,..,on
96578,..,trail,province of ontario,..,..,..,..,on
96579,..,trail,province of ontario,..,..,..,..,on
96580,..,trail,province of ontario,..,..,..,..,on
96581,..,trail,province of ontario,..,..,..,..,on
96582,..,trail,province of ontario,..,..,..,..,on
97586,..,trail,province of ontario,..,..,..,..,on
97587,..,trail,province of ontario,..,..,..,..,on
97721,..,trail,province of ontario,..,..,..,..,on
97722,..,trail,province of ontario,..,..,..,..,on
97723,..,trail,province of ontario,..,..,..,..,on
97724,..,trail,province of ontario,..,..,..,..,on
97725,..,trail,province of ontario,..,..,..,..,on
97726,..,trail,province of ontario,..,..,..,..,on
97727,..,trail,province of ontario,..,..,..,..,on
97728,..,trail,province of ontario,..,..,..,..,on
97729,..,trail,province of ontario,..,..,..,..,on
97730,..,trail,province of ontario,..,..,..,..,on
97731,..,trail,province of ontario,..,..,..,..,on
97732,..,trail,province of ontario,..,..,..,..,on
97733,..,trail,province of ontario,..,..,..,..,on
97734,..,trail,province of ontario,..,..,..,..,on
