Index,Facility_Name,ODRSF_facility_type,Provider,Street_No,Street_Name,Postal_Code,City,Prov_Terr
206,Art Thompson Arena,arena,durham,1474,bayly,L1W 1L8,pickering,on
289,Beachfront Park / Millennium Square,beach,durham,501,liverpool,..,pickering,on
1092,Claremont Community Centre,community centre,region of durham,4941,old brock,L1Y 1A9,claremont,on
1366,Don Beer Arena,arena,durham,940,dillingham,L1W 1Z6,pickering,on
1483,East Shore Community Centre,community centre,region of durham,910,liverpool,L1W 1S6,pickering,on
1987,Green River Community Centre,community centre,region of durham,190,7,L0H 1J0,green river,on
3462,Mount Zion Community Centre,community centre,region of durham,4230,salem,L1Y 1A1,pickering,on
4521,Petticoat Creek Library & Community Centre,community centre,region of durham,470,kingston,L1V 1A4,pickering,on
6470,West Shore Community Centre,community centre,region of durham,1015,bayly,L1W 1L3,pickering,on
6541,Whitevale Community Centre,community centre,region of durham,405,whitevale,L0H 1M0,whitevale,on
6898,4 Seasons Country Club,sports field,york region,1900,8th concession,L1Y 1A2,claremont,on
9770,Cherry Downs Golf And Country Club,sports field,york region,2110,concession road 7,L1Y 1A2,pickering,on
11408,Glen Cedars Golf Club,sports field,york region,230,7th,L1Y 1A2,pickering,on
11751,Hawthorne Valley Golf Course,sports field,york region,3470,salem,L1V 2R7,pickering,on
11765,Heather Glen Golf Course,sports field,york region,5240,lakeridge,L0B 1A0,ashburn,on
14746,Pickering Golf Club,sports field,york region,2575,william jackson,L1V 2P8,pickering,on
16947,Spring Creek Golf Club,sports field,york region,2425,concession,L1Y 1A2,claremont,on
18184,Watson's Glen Golf Course,sports field,york region,3430,7th concession,L1Y 1C6,pickering,on
18357,Whitevale Golf Club,sports field,york region,2985,golf club,L0C 1A0,whitevale,on
131458,..,trail,province of ontario,..,..,..,..,on
131836,..,trail,province of ontario,..,..,..,..,on
131893,..,trail,province of ontario,..,..,..,..,on
132001,..,trail,province of ontario,..,..,..,..,on
132302,..,trail,province of ontario,..,..,..,..,on
132538,..,trail,province of ontario,..,..,..,..,on
132852,..,trail,province of ontario,..,..,..,..,on
133105,..,trail,province of ontario,..,..,..,..,on
138318,..,trail,province of ontario,..,..,..,..,on
138325,..,trail,province of ontario,..,..,..,..,on
138327,..,trail,province of ontario,..,..,..,..,on
138330,..,trail,province of ontario,..,..,..,..,on
138332,..,trail,province of ontario,..,..,..,..,on
138333,..,trail,province of ontario,..,..,..,..,on
138334,..,trail,province of ontario,..,..,..,..,on
138336,..,trail,province of ontario,..,..,..,..,on
138337,..,trail,province of ontario,..,..,..,..,on
138340,..,trail,province of ontario,..,..,..,..,on
138346,..,trail,province of ontario,..,..,..,..,on
138347,..,trail,province of ontario,..,..,..,..,on
138349,..,trail,province of ontario,..,..,..,..,on
138350,..,trail,province of ontario,..,..,..,..,on
138354,..,trail,province of ontario,..,..,..,..,on
138356,..,trail,province of ontario,..,..,..,..,on
138358,..,trail,province of ontario,..,..,..,..,on
138359,..,trail,province of ontario,..,..,..,..,on
138360,..,trail,province of ontario,..,..,..,..,on
138361,..,trail,province of ontario,..,..,..,..,on
138364,..,trail,province of ontario,..,..,..,..,on
138370,..,trail,province of ontario,..,..,..,..,on
