Index,Facility_Name,ODRSF_facility_type,Provider,Street_No,Street_Name,Postal_Code,City,Prov_Terr
576,Brownsdale Community Centre,community centre,region of durham,2226,golf course,..,clarington,on
1294,Darlington Sports Centre,community centre,durham,2276,taunton,..,clarington,on
2538,Kendal Community Centre,community centre,region of durham,6742,newtonville,..,kendal,on
3528,Newcastle Memorial Arena,arena,durham,103,caroline,L1B 1H1,clarington,on
3696,Orono Arena,arena,durham,2,princess,L0B 1M0,clarington,on
3697,Orono Park Pool,pool,durham,61,princess,L0B 1M0,clarington,on
5648,South Courtice Arena,arena,durham,1595,prestonvale,..,clarington,on
6531,Wheelhouse Community Centre,community centre,region of durham,1,wheelhouse,L1B 1B9,newcastle,on
9139,Bowmanville Indoor Soccer / Lacrosse Bowl,sports field,durham,2375,baseline,..,clarington,on
9140,Bowmanville Indoor Soccer / Lacrosse Bowl,sports field,pickering,2375,baseline,..,bowmanville,on
14712,Pebblestone Golf Course,sports field,york region,1550,pebblestone,L1E 1Z4,courtice,on
21232,Barred Owl Trail,trail,pickering,..,..,..,..,on
22397,Bowmanville Westside Trail,trail,pickering,..,..,..,..,on
24570,Connecting Trail,trail,pickering,..,..,..,..,on
24739,Cottontail Rabbit Trail,trail,pickering,..,..,..,..,on
26265,Eastern Bluebird Trail,trail,pickering,..,..,..,..,on
42815,Maple Trail,trail,pickering,..,..,..,..,on
44366,Moorey's Mill Trail,trail,pickering,..,..,..,..,on
48575,Old Mill Trail,trail,pickering,..,..,..,..,on
62831,Turtle Trail,trail,pickering,..,..,..,..,on
67044,Waterfront Trail,trail,pickering,..,..,..,..,on
67566,White-Tailed Deer Trail,trail,pickering,..,..,..,..,on
67692,Wild Turkey Trail,trail,pickering,..,..,..,..,on
96471,..,trail,province of ontario,..,..,..,..,on
96472,..,trail,province of ontario,..,..,..,..,on
96473,..,trail,province of ontario,..,..,..,..,on
96474,..,trail,province of ontario,..,..,..,..,on
96584,..,trail,province of ontario,..,..,..,..,on
96585,..,trail,province of ontario,..,..,..,..,on
96586,..,trail,province of ontario,..,..,..,..,on
96587,..,trail,province of ontario,..,..,..,..,on
96588,..,trail,province of ontario,..,..,..,..,on
96589,..,trail,province of ontario,..,..,..,..,on
96590,..,trail,province of ontario,..,..,..,..,on
96591,..,trail,province of ontario,..,..,..,..,on
96592,..,trail,province of ontario,..,..,..,..,on
96593,..,trail,province of ontario,..,..,..,..,on
96594,..,trail,province of ontario,..,..,..,..,on
96595,..,trail,province of ontario,..,..,..,..,on
96596,..,trail,province of ontario,..,..,..,..,on
96597,..,trail,province of ontario,..,..,..,..,on
96598,..,trail,province of ontario,..,..,..,..,on
96599,..,trail,province of ontario,..,..,..,..,on
96600,..,trail,province of ontario,..,..,..,..,on
96601,..,trail,province of ontario,..,..,..,..,on
96602,..,trail,province of ontario,..,..,..,..,on
96603,..,trail,province of ontario,..,..,..,..,on
96604,..,trail,province of ontario,..,..,..,..,on
96605,..,trail,province of ontario,..,..,..,..,on
