Index,Facility_Name,ODRSF_facility_type,Provider,Street_No,Street_Name,Postal_Code,City,Prov_Terr
266,Bathe Community Centre,community centre,region of durham,298,eulalie,L1H 2B7,oshawa,on
640,Camp Samac Outdoor Pool,pool,durham,1711,simcoe,..,oshawa,on
1033,Children's Arena & Kinsmen/Valleyview Gardens,arena,durham,155,arena,L1J 40,oshawa,on
1147,Columbus Community Centre,community centre,region of durham,3265,simcoe,..,columbus,on
1168,Connaught Community Centre,community centre,region of durham,435,jarvis,..,oshawa,on
2067,Harman Park Arena,arena,durham,829,douglas,L1H 5C8,oshawa,on
2590,Kingside Community Centre,community centre,region of durham,537,tennyson,..,oshawa,on
2670,Lake Vista Community Centre And Outdoor Pool,pool,region of durham,450,emerald,L1J 1K4,oshawa,on
3574,North Oshawa Community Centre & Park,community centre,region of durham,1139,mary,L1G 5G9,oshawa,on
3592,Northview Community Centre,community centre,region of durham,150,beatrice,L1G 7T6,oshawa,on
5266,Rundle Community Centre,community centre,region of durham,241,park,L1H 4H1,oshawa,on
5657,South Oshawa Community Centre,community centre,region of durham,1455,cedar,L1J 0A8,oshawa,on
5672,Southmead Community Centre & Park,community centre,region of durham,103,kawartha,L1H 3Y7,oshawa,on
5979,Storie Community Centre & Park,community centre,region of durham,101,mill,..,oshawa,on
6021,Sunnyside Community Centre,community centre,region of durham,260,mckim,L1H 2J1,oshawa,on
6100,Thornton Community Centre,community centre,region of durham,210,thornton,L1J 6000000,oshawa,on
6224,Valleyview Community Centre,community centre,region of durham,81,gladstone,L1J 40000,oshawa,on
6643,Woodview Community Centre,community centre,region of durham,151,cadillac,L1G 6C3,oshawa,on
10660,Durham Indoor Soccer Centre,sports field,durham,1255,terwillegar,L1S 7A4,oshawa,on
10661,Durham Indoor Soccer Centre,sports field,pickering,1255,terwillegar,L1S 7A4,oshawa,on
11702,Harmony Creek Golf Club,sports field,york region,1000,bloor,L1H 8S1,oshawa,on
12365,Kedron Dells Golf Course,sports field,york region,2400,ritson,L1H 8L7,oshawa,on
14187,Oshawa Airport Golf Club,sports field,york region,1145,thornton,L1H 7K4,oshawa,on
14188,Oshawa Curling Club,rink,durham,226,bond,L1G 1B5,oshawa,on
14190,Oshawa Golf Club,sports field,york region,160,alexandra,L1G 2C4,oshawa,on
17977,Valleymede Columbus Golf Club,sports field,york region,3622,simcoe,L1H 7K4,oshawa,on
18440,Winchester Golf Club,sports field,york region,750,winchester,L1M 1X6,whitby,on
25624,Discovery Trail,trail,pickering,..,..,..,..,on
48451,Oak Ridges Moraine Trail,trail,pickering,..,..,..,..,on
54449,Sugar Shack Trail,trail,pickering,..,..,..,..,on
96534,..,trail,province of ontario,..,..,..,..,on
96583,..,trail,province of ontario,..,..,..,..,on
98068,..,trail,province of ontario,..,..,..,..,on
98080,..,trail,province of ontario,..,..,..,..,on
98116,..,trail,province of ontario,..,..,..,..,on
98179,..,trail,province of ontario,..,..,..,..,on
98198,..,trail,province of ontario,..,..,..,..,on
98205,..,trail,province of ontario,..,..,..,..,on
98206,..,trail,province of ontario,..,..,..,..,on
98307,..,trail,province of ontario,..,..,..,..,on
98354,..,trail,province of ontario,..,..,..,..,on
100266,..,trail,province of ontario,..,..,..,..,on
130946,..,trail,province of ontario,..,..,..,..,on
130947,..,trail,province of ontario,..,..,..,..,on
130948,..,trail,province of ontario,..,..,..,..,on
130949,..,trail,province of ontario,..,..,..,..,on
130950,..,trail,province of ontario,..,..,..,..,on
138260,..,trail,province of ontario,..,..,..,..,on
138263,..,trail,province of ontario,..,..,..,..,on
