Index,Facility_Name,ODRSF_facility_type,Provider,Street_No,Street_Name,Postal_Code,City,Prov_Terr
2715,Latcham Community Centre,community centre,region of durham,121,queen,L9L 1B8,port perry,on
5354,Scugog Community Recreation Centre,community centre,durham,1655,reach,L9L 1P2,scugog,on
11488,Golfer's Dream,sports field,york region,1000,second,L9L 1B3,port perry,on
14099,Oakridge Golf Club,sports field,york region,35,lauren,L9L 2A7,port perry,on
14868,Port Perry Curling Club,rink,durham,483,bay,L9L 1M7,scugog,on
15674,Scugog Soccer Fields,sports field,durham,16700,old simcoe,L9L 1P3,scugog,on
15675,Scugog Soccer Fields,sports field,pickering,16700,old simcoe,L9L 1P3,port perry,on
17401,Summerlea Golf Course,sports field,york region,10500,russell,L9L IA7,port perry,on
17417,Sunnybrae Golf Course,sports field,york region,1430,king,L9L 1S8,scugog,on
25091,Crow's Pass Trail,trail,pickering,..,..,..,..,on
42814,Maple Trail,trail,pickering,..,..,..,..,on
48450,Oak Ridges Moraine Trail,trail,pickering,..,..,..,..,on
48452,Oak Ridges Moraine/Crow's Pass Trail,trail,pickering,..,..,..,..,on
96533,..,trail,province of ontario,..,..,..,..,on
131974,..,trail,province of ontario,..,..,..,..,on
138460,..,trail,province of ontario,..,..,..,..,on
138517,..,trail,province of ontario,..,..,..,..,on
138621,..,trail,province of ontario,..,..,..,..,on
138662,..,trail,province of ontario,..,..,..,..,on
138668,..,trail,province of ontario,..,..,..,..,on
138788,..,trail,province of ontario,..,..,..,..,on
138795,..,trail,province of ontario,..,..,..,..,on
