Index,Facility_Name,ODRSF_facility_type,Provider,Street_No,Street_Name,Postal_Code,City,Prov_Terr
175930,Simcoe Promenade,park,markham,..,..,..,..,on
175941,Simonston Park,park,markham,..,..,..,..,on
175945,Sinclair Holden Park,park,markham,..,..,..,..,on
175964,Sir John A Macdonald Pes,park,markham,..,..,..,..,on
175973,Sir Richard W Scott Ces,park,markham,..,..,..,..,on
175979,Sir Robert Watson-Watt Park,park,markham,..,..,..,..,on
175987,Sir Wilfrid Laurier Pes,park,markham,..,..,..,..,on
176041,Smoothwater Valley North*,park,markham,..,..,..,..,on
176043,Smoothwater Valley South*,park,markham,..,..,..,..,on
176059,Snowcreek St Parkette,park,markham,..,..,..,..,on
176061,Snowdon Park,park,markham,..,..,..,..,on
176124,South Park Pond,park,markham,..,..,..,..,on
176127,South Pond - Village Of Fairtree Ph 1&2,park,markham,..,..,..,..,on
176139,South Unionville Park West,park,markham,..,..,..,..,on
176141,South Unionville Park*,park,markham,..,..,..,..,on
176143,South Unionville Pond,park,markham,..,..,..,..,on
176208,Sparta Woods Park,park,markham,..,..,..,..,on
176218,Speight Park,park,markham,..,..,..,..,on
176253,Springdale Park And Valley,park,markham,..,..,..,..,on
176293,Sprucewood Park,park,markham,..,..,..,..,on
176304,St Anthony Ces,park,markham,..,..,..,..,on
176306,St Augustine C.H.S.,park,markham,..,..,..,..,on
176313,St Benedict Ces,park,markham,..,..,..,..,on
176318,St Brother André C.H.S.,park,markham,..,..,..,..,on
176328,St Edward Ces,park,markham,..,..,..,..,on
176337,St Francis Xavier Ces,park,markham,..,..,..,..,on
176341,St James Crt Parkette,park,markham,..,..,..,..,on
176349,St Joseph Ces,park,markham,..,..,..,..,on
176358,St Julia Billiart Ces,park,markham,..,..,..,..,on
176360,St Justin Martyr Ces,park,markham,..,..,..,..,on
176362,St Kateri Tekakwitha Ces,park,markham,..,..,..,..,on
176373,St Matthew Ces,park,markham,..,..,..,..,on
176375,St Michael Ca,park,markham,..,..,..,..,on
176377,St Monica Ces,park,markham,..,..,..,..,on
176382,St Patrick Ces,park,markham,..,..,..,..,on
176385,St René Goupil - St Luke Ces,park,markham,..,..,..,..,on
176388,St Robert Chs,park,markham,..,..,..,..,on
176398,St Vincent De Paul Ces,park,markham,..,..,..,..,on
176555,Stargell Park,park,markham,..,..,..,..,on
176615,Stiver Mill,park,markham,..,..,..,..,on
176624,Stonebridge Park*,park,markham,..,..,..,..,on
176626,Stonebridge Pes,park,markham,..,..,..,..,on
176632,Stonefarm Park,park,markham,..,..,..,..,on
176661,Stornoway Crescent Pes,park,markham,..,..,..,..,on
176752,Summerdale Park,park,markham,..,..,..,..,on
176845,Susannah Mclaren Park,park,markham,..,..,..,..,on
176867,Swan Lake Park,park,markham,..,..,..,..,on
176885,Swm 996,park,markham,..,..,..,..,on
176887,Swm Pond #25,park,markham,..,..,..,..,on
