Index,Facility_Name,ODRSF_facility_type,Provider,Street_No,Street_Name,Postal_Code,City,Prov_Terr
9031,Blackwater Golf Course,sports field,york region,21889,48,L0G 1M0,east gwillimbury,on
14743,Pheasant Run Golf Club,sports field,york region,18033,warden,L0G 1V0,east gwillimbury,on
15745,Shawneeki Golf Club,sports field,york region,18543,woodbine,L0G 1V0,east gwillimbury,on
15840,Silver Lakes Golf And Country Club,sports field,york region,21114,yonge,L9N 0J8,east gwillimbury,on
98398,..,trail,province of ontario,..,..,..,..,on
98399,..,trail,province of ontario,..,..,..,..,on
98422,..,trail,province of ontario,..,..,..,..,on
98431,..,trail,province of ontario,..,..,..,..,on
98461,..,trail,province of ontario,..,..,..,..,on
98462,..,trail,province of ontario,..,..,..,..,on
98464,..,trail,province of ontario,..,..,..,..,on
98466,..,trail,province of ontario,..,..,..,..,on
98473,..,trail,province of ontario,..,..,..,..,on
98474,..,trail,province of ontario,..,..,..,..,on
98513,..,trail,province of ontario,..,..,..,..,on
98589,..,trail,province of ontario,..,..,..,..,on
98590,..,trail,province of ontario,..,..,..,..,on
98591,..,trail,province of ontario,..,..,..,..,on
98597,..,trail,province of ontario,..,..,..,..,on
98598,..,trail,province of ontario,..,..,..,..,on
98599,..,trail,province of ontario,..,..,..,..,on
98620,..,trail,province of ontario,..,..,..,..,on
98665,..,trail,province of ontario,..,..,..,..,on
98666,..,trail,province of ontario,..,..,..,..,on
98686,..,trail,province of ontario,..,..,..,..,on
98710,..,trail,province of ontario,..,..,..,..,on
98711,..,trail,province of ontario,..,..,..,..,on
98712,..,trail,province of ontario,..,..,..,..,on
98714,..,trail,province of ontario,..,..,..,..,on
98715,..,trail,province of ontario,..,..,..,..,on
98716,..,trail,province of ontario,..,..,..,..,on
98717,..,trail,province of ontario,..,..,..,..,on
98726,..,trail,province of ontario,..,..,..,..,on
98755,..,trail,province of ontario,..,..,..,..,on
98798,..,trail,province of ontario,..,..,..,..,on
98799,..,trail,province of ontario,..,..,..,..,on
98800,..,trail,province of ontario,..,..,..,..,on
98820,..,trail,province of ontario,..,..,..,..,on
98823,..,trail,province of ontario,..,..,..,..,on
98872,..,trail,province of ontario,..,..,..,..,on
98873,..,trail,province of ontario,..,..,..,..,on
98874,..,trail,province of ontario,..,..,..,..,on
98880,..,trail,province of ontario,..,..,..,..,on
98896,..,trail,province of ontario,..,..,..,..,on
98916,..,trail,province of ontario,..,..,..,..,on
98917,..,trail,province of ontario,..,..,..,..,on
98918,..,trail,province of ontario,..,..,..,..,on
98923,..,trail,province of ontario,..,..,..,..,on
98924,..,trail,province of ontario,..,..,..,..,on
