Index,Facility_Name,ODRSF_facility_type,Provider,Street_No,Street_Name,Postal_Code,City,Prov_Terr
171823,Morgan Park,park,markham,..,..,..,..,on
171831,Morning Dove Dr Parkette,park,markham,..,..,..,..,on
171871,Mother Teresa Ces,park,markham,..,..,..,..,on
171888,Mount Joy C.C. And Park,park,markham,..,..,..,..,on
171894,Mount Joy Lake,park,markham,..,..,..,..,on
171896,Mount Joy Park,park,markham,..,..,..,..,on
171898,Mount Joy Pes,park,markham,..,..,..,..,on
172026,Napier Simpson Park,park,markham,..,..,..,..,on
172135,Nicholas Miller Park,park,markham,..,..,..,..,on
172166,Nordlingen Park,park,markham,..,..,..,..,on
172168,Nordlingen Park Swm,park,markham,..,..,..,..,on
172294,Northumberland Commons,park,markham,..,..,..,..,on
172521,Old Mill Pond Park,park,markham,..,..,..,..,on
172531,Old Unionville Library C.C.,park,markham,..,..,..,..,on
172700,Paddock Park,park,markham,..,..,..,..,on
172739,Panorama Park,park,markham,..,..,..,..,on
172752,Paramount Park,park,markham,..,..,..,..,on
173594,Park Square,park,markham,..,..,..,..,on
173630,Parkland Pes,park,markham,..,..,..,..,on
173652,Parkview Pes,park,markham,..,..,..,..,on
173734,Peace Park*,park,markham,..,..,..,..,on
173788,Peony St Parkette,park,markham,..,..,..,..,on
173808,Personna Park,park,markham,..,..,..,..,on
173810,Personna Valley,park,markham,..,..,..,..,on
173818,Peter Bawden Park,park,markham,..,..,..,..,on
173861,Piera Valley,park,markham,..,..,..,..,on
173865,Pierre Elliott Trudeau H.S.,park,markham,..,..,..,..,on
173948,Pioneer Park,park,markham,..,..,..,..,on
174018,Pomona Mills Park,park,markham,..,..,..,..,on
174024,Pomona Valley Tennis Club,park,markham,..,..,..,..,on
174159,Proctor Park,park,markham,..,..,..,..,on
174208,Quail Hollow Parkette,park,markham,..,..,..,..,on
174217,Quantztown Park,park,markham,..,..,..,..,on
174318,Railside Park,park,markham,..,..,..,..,on
174349,Ramer Wood Pes,park,markham,..,..,..,..,on
174363,Randall Park,park,markham,..,..,..,..,on
174365,Randall Pes,park,markham,..,..,..,..,on
174379,Raspberry Ridge Pond And Valley,trail,markham,..,..,..,..,on
174380,Raspberry Ridge Pond And Valley,trail,markham,..,..,..,..,on
174381,Raspberry Ridge Pond And Valley,trail,markham,..,..,..,..,on
174382,Raspberry Ridge Pond And Valley,trail,markham,..,..,..,..,on
174383,Raspberry Ridge Pond And Valley,trail,markham,..,..,..,..,on
174384,Raspberry Ridge Pond And Valley,trail,markham,..,..,..,..,on
174385,Raspberry Ridge Pond And Valley,trail,markham,..,..,..,..,on
174386,Raspberry Ridge Pond And Valley,trail,markham,..,..,..,..,on
174387,Raspberry Ridge Pond And Valley,trail,york region,..,..,..,markham,on
174388,Raspberry Ridge Pond And Valley,trail,york region,..,..,..,markham,on
174389,Raspberry Ridge Pond And Valley,trail,york region,..,..,..,markham,on
174390,Raspberry Ridge Pond And Valley,trail,york region,..,..,..,markham,on
