Index,Facility_Name,ODRSF_facility_type,Provider,Street_No,Street_Name,Postal_Code,City,Prov_Terr
165134,Cornell Village Pes,park,markham,..,..,..,..,on
165139,Cornwall Dr Parkette,park,markham,..,..,..,..,on
165178,Cottonwood Park,park,markham,..,..,..,..,on
165194,Country Glen Parkette,park,markham,..,..,..,..,on
165196,Country Glen Pond,park,markham,..,..,..,..,on
165209,Countryside St Parkette,park,markham,..,..,..,..,on
165339,Crescent Park,park,markham,..,..,..,..,on
165358,Cricklewood Park,park,markham,..,..,..,..,on
165377,Crosby Memorial Community Centre,park,markham,..,..,..,..,on
165381,Crosby Park,park,markham,..,..,..,..,on
165552,David Suzuki Pes,park,markham,..,..,..,..,on
165652,Denby Valley,park,markham,..,..,..,..,on
165661,Denison Park,park,markham,..,..,..,..,on
165787,Dog Leash Free Area,park,markham,..,..,..,..,on
165798,Dollar Hamlet Park,park,markham,..,..,..,..,on
165829,Don Valley Park,park,markham,..,..,..,..,on
165833,Donald Clark Park,park,markham,..,..,..,..,on
165835,Donald Cousens Pes,park,markham,..,..,..,..,on
165877,Doreen Quirk Park,park,markham,..,..,..,..,on
165964,Drake Park,park,markham,..,..,..,..,on
166029,Duncan Park,park,markham,..,..,..,..,on
166031,Duncan Rd Parkette,park,markham,..,..,..,..,on
166091,E.B.F. Robinson Park,park,markham,..,..,..,..,on
166169,Eastpine Park,park,markham,..,..,..,..,on
166173,Eastvale Parkette,park,markham,..,..,..,..,on
166264,Edward Jeffreys Pond,park,markham,..,..,..,..,on
166271,Edward T Crowle Pes,park,markham,..,..,..,..,on
166301,Ej Sand Pes,park,markham,..,..,..,..,on
166317,Eleanor Casely Park,park,markham,..,..,..,..,on
166347,Ellen Fairclough Pes,park,markham,..,..,..,..,on
166396,Elson Park,park,markham,..,..,..,..,on
166413,Emery Hill Parkette,park,markham,..,..,..,..,on
166536,Eureka St Parkette,park,markham,..,..,..,..,on
166545,Evaridge Dr Parkette,park,markham,..,..,..,..,on
166560,Evergreen Park,park,markham,..,..,..,..,on
166571,Exhibition Creek,park,markham,..,..,..,..,on
166632,Fairtree Pond,park,markham,..,..,..,..,on
166703,Father Michael Mcgivney Ca,park,markham,..,..,..,..,on
166718,Featherstone Park,park,markham,..,..,..,..,on
166724,Felix Opatowski Park,park,markham,..,..,..,..,on
166762,Ferrah Park,park,markham,..,..,..,..,on
166777,Fieldside Parkette*,park,markham,..,..,..,..,on
166790,Fimco Crescent Park,park,markham,..,..,..,..,on
166795,Fincham Park,park,markham,..,..,..,..,on
166946,Forest Manor Parkette*,park,markham,..,..,..,..,on
166973,Forsters Commons,park,markham,..,..,..,..,on
167051,Franklin Carmichael Park,park,markham,..,..,..,..,on
167059,Franklin Street Pes,park,markham,..,..,..,..,on
167087,Fred Varley Public School,park,markham,..,..,..,..,on
