Index,Facility_Name,ODRSF_facility_type,Provider,Street_No,Street_Name,Postal_Code,City,Prov_Terr
163724,Bridle Trail,trail,york region,..,..,..,markham,on
163847,Bruce Boyd Parkette,park,markham,..,..,..,..,on
163857,Bruce's Creek,park,markham,..,..,..,..,on
163899,Bur Oak S.S.,park,markham,..,..,..,..,on
163914,Burndenett Creek North,park,markham,..,..,..,..,on
163966,Buttonville Pes,park,markham,..,..,..,..,on
163970,Buttonville Womens Institute,park,markham,..,..,..,..,on
163993,Caboto Trail Parkette*,trail,markham,..,..,..,..,on
163994,Caboto Trail Parkette*,trail,markham,..,..,..,..,on
163995,Caboto Trail Parkette*,trail,markham,..,..,..,..,on
163996,Caboto Trail Parkette*,trail,york region,..,..,..,markham,on
163997,Caboto Trail Parkette*,trail,york region,..,..,..,markham,on
163998,Caboto Trail Parkette*,trail,york region,..,..,..,markham,on
164009,Cakebread Park,park,markham,..,..,..,..,on
164011,Calafia St Parkette,park,markham,..,..,..,..,on
164032,Calvert Park,park,markham,..,..,..,..,on
164074,Campbell Park,park,markham,..,..,..,..,on
164115,Canning Swm,park,markham,..,..,..,..,on
164152,Capogna St Parkette,park,markham,..,..,..,..,on
164177,Cardrew St Parkette,park,markham,..,..,..,..,on
164209,Carlton Park,park,markham,..,..,..,..,on
164217,Carman Lewis Park,park,markham,..,..,..,..,on
164232,Carolyn Clements Park,park,markham,..,..,..,..,on
164307,Castlemore Pes,park,markham,..,..,..,..,on
164367,Cedar Grove C.C.,park,markham,..,..,..,..,on
164370,Cedar Grove Park,park,markham,..,..,..,..,on
164383,Cedar Valley,park,markham,..,..,..,..,on
164412,Cedarwood Pes,park,markham,..,..,..,..,on
164416,Celebration Park*,park,markham,..,..,..,..,on
164434,Centennial C.C.,park,markham,..,..,..,..,on
164467,Centennial Park,park,markham,..,..,..,..,on
164492,Central Park,park,markham,..,..,..,..,on
164498,Central Park Pes,park,markham,..,..,..,..,on
164500,Central Parks Yard Shop,park,markham,..,..,..,..,on
164613,Charlie Clifford Park,park,markham,..,..,..,..,on
164654,Chelsea Park,park,markham,..,..,..,..,on
164733,Christian Reesor Park,park,markham,..,..,..,..,on
164748,Church Street Parkette,park,markham,..,..,..,..,on
164810,Clarence Chant Park,park,markham,..,..,..,..,on
164825,Clark Young Woods,park,markham,..,..,..,..,on
164847,Clayson St Parkette,park,markham,..,..,..,..,on
164931,Cochrane Pond,park,markham,..,..,..,..,on
164946,Coledale Park,park,markham,..,..,..,..,on
164948,Coledale Pes,park,markham,..,..,..,..,on
164992,Colty Corners,park,markham,..,..,..,..,on
165096,Coppard Glen Pes,park,markham,..,..,..,..,on
165100,Coppard Park,park,markham,..,..,..,..,on
165118,Cornell C.C. And Library,park,markham,..,..,..,..,on
165120,Cornell Community - Tributary C,park,markham,..,..,..,..,on
