Index,Facility_Name,ODRSF_facility_type,Provider,Street_No,Street_Name,Postal_Code,City,Prov_Terr
8269,Ballantrae Golf Club,sports field,york region,1,the-master's,L4A 1M2,whitchurch stouffville,on
10854,Emerald Hills Golf Club,sports field,york region,14001,warden,L4A 3T4,whitchurch stouffville,on
13541,Meadowbrook Golf And Country Club,sports field,york region,11939,warden,L0H 1G0,whitchurch stouffville,on
15416,Rolling Hills Golf Club,sports field,york region,12808,warden,L4A 3X9,whitchurch stouffville,on
15496,Royal Stouffville Golf Course,sports field,york region,14248,48,L4A 7Z4,whitchurch stouffville,on
15960,Sleepy Hollow Country Club,sports field,york region,13242,10th,L4A 3P8,whitchurch stouffville,on
16950,Spring Lakes Golf Club,sports field,york region,4962,stouffville,L4A 7X5,whitchurch stouffville,on
17110,St. Andrew's East Golf Club,sports field,york region,14022,mccowan,L4A 400,whitchurch stouffville,on
17279,Station Creek Golf Course,sports field,york region,12657,woodbine,L0H 1G0,whitchurch stouffville,on
96541,..,trail,province of ontario,..,..,..,..,on
96542,..,trail,province of ontario,..,..,..,..,on
96543,..,trail,province of ontario,..,..,..,..,on
96544,..,trail,province of ontario,..,..,..,..,on
96545,..,trail,province of ontario,..,..,..,..,on
96546,..,trail,province of ontario,..,..,..,..,on
96547,..,trail,province of ontario,..,..,..,..,on
96554,..,trail,province of ontario,..,..,..,..,on
96555,..,trail,province of ontario,..,..,..,..,on
96556,..,trail,province of ontario,..,..,..,..,on
96557,..,trail,province of ontario,..,..,..,..,on
96558,..,trail,province of ontario,..,..,..,..,on
96559,..,trail,province of ontario,..,..,..,..,on
96560,..,trail,province of ontario,..,..,..,..,on
96561,..,trail,province of ontario,..,..,..,..,on
96562,..,trail,province of ontario,..,..,..,..,on
96563,..,trail,province of ontario,..,..,..,..,on
96564,..,trail,province of ontario,..,..,..,..,on
96565,..,trail,province of ontario,..,..,..,..,on
96566,..,trail,province of ontario,..,..,..,..,on
96614,..,trail,province of ontario,..,..,..,..,on
98405,..,trail,province of ontario,..,..,..,..,on
98406,..,trail,province of ontario,..,..,..,..,on
98407,..,trail,province of ontario,..,..,..,..,on
98410,..,trail,province of ontario,..,..,..,..,on
98411,..,trail,province of ontario,..,..,..,..,on
98423,..,trail,province of ontario,..,..,..,..,on
98428,..,trail,province of ontario,..,..,..,..,on
98429,..,trail,province of ontario,..,..,..,..,on
98440,..,trail,province of ontario,..,..,..,..,on
98441,..,trail,province of ontario,..,..,..,..,on
98442,..,trail,province of ontario,..,..,..,..,on
98443,..,trail,province of ontario,..,..,..,..,on
98445,..,trail,province of ontario,..,..,..,..,on
98446,..,trail,province of ontario,..,..,..,..,on
98485,..,trail,province of ontario,..,..,..,..,on
98486,..,trail,province of ontario,..,..,..,..,on
98499,..,trail,province of ontario,..,..,..,..,on
98500,..,trail,province of ontario,..,..,..,..,on
98514,..,trail,province of ontario,..,..,..,..,on
