Index,Facility_Name,ODRSF_facility_type,Provider,Street_No,Street_Name,Postal_Code,City,Prov_Terr
9502,Carrickmacross Golf Centre,sports field,york region,2480,kirby,L6A 1S1,vaughan,on
10173,Copper Creek Golf Club,sports field,york region,11191,27,L0J 1C0,vaughan,on
10670,Eagles Nest Golf Club,sports field,york region,10000,dufferin,L6A 1S3,vaughan,on
13326,Maple Downs Golf And Country Club,sports field,york region,11101,dufferin,L6A 1S2,vaughan,on
13915,National Golf Club Of Canada,sports field,york region,134,clubhouse,L4L 2W2,vaughan,on
17691,The Country Club,sports field,york region,20,lloyd,L4L 2B9,vaughan,on
17703,The Thornhill Club,sports field,york region,7994,yonge,L4J 1W3,vaughan,on
17952,Uplands Golf And Ski Club,sports field,york region,46,uplands,L4J 1K2,vaughan,on
26956,Festival Park Trail,trail,toronto,..,steeles,..,..,on
27702,G Ross Lord Path Trail,trail,toronto,..,steeles,..,..,on
98082,..,trail,province of ontario,..,..,..,..,on
98129,..,trail,province of ontario,..,..,..,..,on
98190,..,trail,province of ontario,..,..,..,..,on
98199,..,trail,province of ontario,..,..,..,..,on
98257,..,trail,province of ontario,..,..,..,..,on
98272,..,trail,province of ontario,..,..,..,..,on
98283,..,trail,province of ontario,..,..,..,..,on
98315,..,trail,province of ontario,..,..,..,..,on
98321,..,trail,province of ontario,..,..,..,..,on
98358,..,trail,province of ontario,..,..,..,..,on
100239,..,trail,province of ontario,..,..,..,..,on
100253,..,trail,province of ontario,..,..,..,..,on
100256,..,trail,province of ontario,..,..,..,..,on
100265,..,trail,province of ontario,..,..,..,..,on
100283,..,trail,province of ontario,..,..,..,..,on
100297,..,trail,province of ontario,..,..,..,..,on
100348,..,trail,province of ontario,..,..,..,..,on
100368,..,trail,province of ontario,..,..,..,..,on
100423,..,trail,province of ontario,..,..,..,..,on
100426,..,trail,province of ontario,..,..,..,..,on
100434,..,trail,province of ontario,..,..,..,..,on
100450,..,trail,province of ontario,..,..,..,..,on
100462,..,trail,province of ontario,..,..,..,..,on
100487,..,trail,province of ontario,..,..,..,..,on
100488,..,trail,province of ontario,..,..,..,..,on
100491,..,trail,province of ontario,..,..,..,..,on
100492,..,trail,province of ontario,..,..,..,..,on
100494,..,trail,province of ontario,..,..,..,..,on
100495,..,trail,province of ontario,..,..,..,..,on
100496,..,trail,province of ontario,..,..,..,..,on
100497,..,trail,province of ontario,..,..,..,..,on
100500,..,trail,province of ontario,..,..,..,..,on
100502,..,trail,province of ontario,..,..,..,..,on
100503,..,trail,province of ontario,..,..,..,..,on
100504,..,trail,province of ontario,..,..,..,..,on
100505,..,trail,province of ontario,..,..,..,..,on
100507,..,trail,province of ontario,..,..,..,..,on
100508,..,trail,province of ontario,..,..,..,..,on
100509,..,trail,province of ontario,..,..,..,..,on
