Index,Facility_Name,ODRSF_facility_type,Provider,Street_No,Street_Name,Postal_Code,City,Prov_Terr
168585,Honsberger Field,park,markham,..,..,..,..,on
168605,Horsetail St Parkette,park,markham,..,..,..,..,on
168657,Hughson Park,park,markham,..,..,..,..,on
168696,Huntington Park,park,markham,..,..,..,..,on
168810,Innis Macdonald Park,park,markham,..,..,..,..,on
168812,Innisvale Dr Parkette,park,markham,..,..,..,..,on
168892,Ivy Stone Crt Parkette,park,markham,..,..,..,..,on
168959,James Edward Park,park,markham,..,..,..,..,on
168970,James Lundy Woods,park,markham,..,..,..,..,on
168979,James Robinson Pes,park,markham,..,..,..,..,on
168986,James Thomas Park,park,markham,..,..,..,..,on
169108,John Baird Woods Park,park,markham,..,..,..,..,on
169119,John Button Park,park,markham,..,..,..,..,on
169121,John Button Waterway North,park,markham,..,..,..,..,on
169123,John Button Waterway South,park,markham,..,..,..,..,on
169128,John Canning Park,park,markham,..,..,..,..,on
169136,John Daniels Park,park,markham,..,..,..,..,on
169164,John Mapes Parkette,park,markham,..,..,..,..,on
169170,John Mccrae Pes,park,markham,..,..,..,..,on
169173,John Morison Park,park,markham,..,..,..,..,on
169180,John Payne Park,park,markham,..,..,..,..,on
169187,John Stegman Woods,park,markham,..,..,..,..,on
169218,Johnsview Park,park,markham,..,..,..,..,on
169220,Johnsview Village,park,markham,..,..,..,..,on
169222,Johnsview Village Pes,park,markham,..,..,..,..,on
169245,Joseph Ellerby Park,park,markham,..,..,..,..,on
169255,Joseph Reid Parkette,park,markham,..,..,..,..,on
169260,Joseph Street Parkette,park,markham,..,..,..,..,on
169357,Kathleen Gormley Mckay Art Centre,park,markham,..,..,..,..,on
170014,Lakeside Vista Pond,park,markham,..,..,..,..,on
170082,Landsdown Meadow,park,markham,..,..,..,..,on
170134,Lasseter - Phase 2 Pond,park,markham,..,..,..,..,on
170229,Legacy Park,park,markham,..,..,..,..,on
170231,Legacy Pes,park,markham,..,..,..,..,on
170241,Leighland Park,park,markham,..,..,..,..,on
170251,Leitchcroft Commons,park,markham,..,..,..,..,on
170253,Leitchcroft Park,park,markham,..,..,..,..,on
170279,Lesley Price Woodlot,park,markham,..,..,..,..,on
170302,Lewis Burkholder Parkette,park,markham,..,..,..,..,on
170336,Lincoln Alexander Pes,park,markham,..,..,..,..,on
170346,Lincoln Park,park,markham,..,..,..,..,on
170470,Little Rouge Pes,park,markham,..,..,..,..,on
170478,Livante Neighbourhood Park*,park,markham,..,..,..,..,on
170490,Lloyd Robertson Park,park,markham,..,..,..,..,on
170646,Lundy Park,park,markham,..,..,..,..,on
170742,Macrill Pond,park,markham,..,..,..,..,on
170782,Main Street Markham North,park,markham,..,..,..,..,on
170785,Main Street Unionville,park,markham,..,..,..,..,on
170841,Manhattan Woods,park,markham,..,..,..,..,on
