Index,Facility_Name,ODRSF_facility_type,Provider,Street_No,Street_Name,Postal_Code,City,Prov_Terr
176891,Swm Pond #55,park,markham,..,..,..,..,on
176955,Tannery Pond,park,markham,..,..,..,..,on
177055,The Arboretum And Heritage Orchard,park,markham,..,..,..,..,on
177071,The Mews Park,park,markham,..,..,..,..,on
177084,The Village Green*,park,markham,..,..,..,..,on
177102,Thomas Frisby Woodlot,park,markham,..,..,..,..,on
177105,Thomas Mcquay Park,park,markham,..,..,..,..,on
177134,Thornhill Community Centre,park,markham,..,..,..,..,on
177139,Thornhill Recycling Depot,park,markham,..,..,..,..,on
177141,Thornhill S.S.,park,markham,..,..,..,..,on
177145,Thornhill Village Library,park,markham,..,..,..,..,on
177147,Thornlea East Valley,park,markham,..,..,..,..,on
177152,Thornlea S.S.,park,markham,..,..,..,..,on
177244,Tomlinson Park,park,markham,..,..,..,..,on
177246,Tomlinson Pond - Minto Markham Partnership,park,markham,..,..,..,..,on
177255,Toogood Park,park,markham,..,..,..,..,on
177257,Toogood Pavilion,park,markham,..,..,..,..,on
177259,Toogood Pond,park,markham,..,..,..,..,on
177309,Tottenham Crt Parkette,park,markham,..,..,..,..,on
177513,Unionville H.S.,park,markham,..,..,..,..,on
177521,Unionville Meadows Pes,park,markham,..,..,..,..,on
177523,Unionville Pes,park,markham,..,..,..,..,on
177529,Unionville Tennis Club,park,markham,..,..,..,..,on
177531,Unionville Train Station,park,markham,..,..,..,..,on
177535,Unity Park*,park,markham,..,..,..,..,on
177700,Upper Cornell Park,park,markham,..,..,..,..,on
177757,Valleyview Park,park,markham,..,..,..,..,on
177781,Vanhorn Park,park,markham,..,..,..,..,on
177783,Vanhorn Pond,park,markham,..,..,..,..,on
177803,Varley Art Gallery,park,markham,..,..,..,..,on
177881,Victoria Square C.C.,park,markham,..,..,..,..,on
177883,Victoria Square Park,park,markham,..,..,..,..,on
177904,Village Park,park,markham,..,..,..,..,on
177919,Vine Cliff Pond,park,markham,..,..,..,..,on
177921,Vinegar Hill Parkette*,park,markham,..,..,..,..,on
177940,Viva Woodlot*,park,markham,..,..,..,..,on
178036,Warden House,park,markham,..,..,..,..,on
178040,Warden Woods Park,park,markham,..,..,..,..,on
178203,West Cathedral Pond E4,park,markham,..,..,..,..,on
178243,West Parks Shop,park,markham,..,..,..,..,on
178251,West Robinson Neighbourhood Park*,park,markham,..,..,..,..,on
178438,Wilclay Park,park,markham,..,..,..,..,on
178440,Wilclay Pes,park,markham,..,..,..,..,on
178478,William Armstrong Pes,park,markham,..,..,..,..,on
178483,William Beebe Parkette,park,markham,..,..,..,..,on
178485,William Berczy Pes,park,markham,..,..,..,..,on
178491,William Calbert Park,park,markham,..,..,..,..,on
178496,William Gaspar Crt Parkette,park,markham,..,..,..,..,on
178511,William Robb Park,park,markham,..,..,..,..,on
