Index,Facility_Name,ODRSF_facility_type,Provider,Street_No,Street_Name,Postal_Code,City,Prov_Terr
21826,Berczy Pond,trail,markham,..,..,..,..,on
21827,Berczy Pond,trail,markham,..,..,..,..,on
21828,Berczy Pond,trail,markham,..,..,..,..,on
21829,Berczy Pond,trail,markham,..,..,..,..,on
21830,Berczy Pond,trail,york region,..,..,..,..,on
21831,Berczy Pond,trail,york region,..,..,..,..,on
21832,Berczy Pond,trail,york region,..,..,..,..,on
21833,Berczy Pond,trail,york region,..,..,..,..,on
21834,Berczy Pond,trail,york region,..,..,..,..,on
21835,Berczy Pond,trail,york region,..,..,..,..,on
21884,Betty Roman Parkette,trail,markham,..,..,..,..,on
21885,Betty Roman Parkette,trail,york region,..,..,..,..,on
21908,Bianca Park,trail,markham,..,..,..,..,on
21909,Bianca Park,trail,markham,..,..,..,..,on
21910,Bianca Park,trail,markham,..,..,..,..,on
21911,Bianca Park,trail,markham,..,..,..,..,on
21912,Bianca Park,trail,markham,..,..,..,..,on
21913,Bianca Park,trail,york region,..,..,..,..,on
21914,Bianca Park,trail,york region,..,..,..,..,on
21915,Bianca Park,trail,york region,..,..,..,..,on
21916,Bianca Park,trail,york region,..,..,..,..,on
21917,Bianca Park,trail,york region,..,..,..,..,on
21939,Billingsley Pond,trail,markham,..,..,..,..,on
21940,Billingsley Pond,trail,markham,..,..,..,..,on
21941,Billingsley Pond,trail,markham,..,..,..,..,on
21942,Billingsley Pond,trail,markham,..,..,..,..,on
21943,Billingsley Pond,trail,markham,..,..,..,..,on
21944,Billingsley Pond,trail,markham,..,..,..,..,on
21945,Billingsley Pond,trail,york region,..,..,..,..,on
21946,Billingsley Pond,trail,york region,..,..,..,..,on
21947,Billingsley Pond,trail,york region,..,..,..,..,on
21948,Billingsley Pond,trail,york region,..,..,..,..,on
21949,Billingsley Pond,trail,york region,..,..,..,..,on
21950,Billingsley Pond,trail,york region,..,..,..,..,on
21963,Bishops Cross Park,trail,markham,..,..,..,..,on
21964,Bishops Cross Park,trail,markham,..,..,..,..,on
21965,Bishops Cross Park,trail,markham,..,..,..,..,on
21966,Bishops Cross Park,trail,markham,..,..,..,..,on
21967,Bishops Cross Park,trail,markham,..,..,..,..,on
21968,Bishops Cross Park,trail,markham,..,..,..,..,on
21969,Bishops Cross Park,trail,markham,..,..,..,..,on
21970,Bishops Cross Park,trail,markham,..,..,..,..,on
21971,Bishops Cross Park,trail,markham,..,..,..,..,on
21972,Bishops Cross Park,trail,markham,..,..,..,..,on
21973,Bishops Cross Park,trail,markham,..,..,..,..,on
21974,Bishops Cross Park,trail,markham,..,..,..,..,on
21975,Bishops Cross Park,trail,markham,..,..,..,..,on
21976,Bishops Cross Park,trail,markham,..,..,..,..,on
21977,Bishops Cross Park,trail,markham,..,..,..,..,on
