Index,Facility_Name,ODRSF_facility_type,Provider,Street_No,Street_Name,Postal_Code,City,Prov_Terr
175196,Rouge Park,trail,york region,..,..,..,..,on
175197,Rouge Park,trail,york region,..,..,..,..,on
175198,Rouge Park,trail,york region,..,..,..,..,on
175199,Rouge Park,trail,york region,..,..,..,..,on
175200,Rouge Park,trail,york region,..,..,..,..,on
175201,Rouge Park,trail,york region,..,..,..,..,on
175202,Rouge Park,trail,york region,..,..,..,..,on
175203,Rouge Park,trail,york region,..,..,..,..,on
175204,Rouge Park,trail,york region,..,..,..,..,on
175205,Rouge Park,trail,york region,..,..,..,..,on
175206,Rouge Park,trail,york region,..,..,..,..,on
175211,Rouge River C.C. And Pool,park,markham,..,..,..,..,on
175213,Rouge Valley,trail,markham,..,..,..,..,on
175214,Rouge Valley,trail,markham,..,..,..,..,on
175215,Rouge Valley,trail,markham,..,..,..,..,on
175216,Rouge Valley,trail,markham,..,..,..,..,on
175217,Rouge Valley,trail,markham,..,..,..,..,on
175218,Rouge Valley,trail,markham,..,..,..,..,on
175219,Rouge Valley,trail,markham,..,..,..,..,on
175220,Rouge Valley,trail,markham,..,..,..,..,on
175221,Rouge Valley,trail,markham,..,..,..,..,on
175222,Rouge Valley,trail,york region,..,..,..,markham,on
175223,Rouge Valley,trail,york region,..,..,..,markham,on
175224,Rouge Valley,trail,york region,..,..,..,markham,on
175225,Rouge Valley,trail,york region,..,..,..,markham,on
175226,Rouge Valley,trail,york region,..,..,..,markham,on
175227,Rouge Valley,trail,york region,..,..,..,markham,on
175228,Rouge Valley,trail,york region,..,..,..,markham,on
175229,Rouge Valley,trail,york region,..,..,..,..,on
175230,Rouge Valley,trail,york region,..,..,..,markham,on
175231,Rougecrest Pumping Station,park,markham,..,..,..,..,on
175233,Rougehaven Parkette,park,markham,..,..,..,..,on
175261,Roxbury Park,park,markham,..,..,..,..,on
175270,Roy H Crosby Pes,park,markham,..,..,..,..,on
175278,Roy Rainey Pond,park,markham,..,..,..,..,on
175280,Roy Walker Parkette,park,markham,..,..,..,..,on
175293,Royal Orchard Park,park,markham,..,..,..,..,on
175307,Royal Troon Pond,park,markham,..,..,..,..,on
175338,Russell Dawson Park*,park,markham,..,..,..,..,on
175378,Sablewood Park,park,markham,..,..,..,..,on
175394,Saddlecreek Park*,park,markham,..,..,..,..,on
175403,Sage Brush St Parkette,park,markham,..,..,..,..,on
175447,Sam Chapman Pes,park,markham,..,..,..,..,on
175462,San Lorenzo Ruiz Ces,park,markham,..,..,..,..,on
175472,Sanders Pond,park,markham,..,..,..,..,on
175622,Scottsbury Creek Country Estates,park,markham,..,..,..,..,on
175636,Se Quadrant Browns Corners,park,markham,..,..,..,..,on
175748,Shania Johnston Parkette,park,markham,..,..,..,..,on
175822,Sheridan Swm Pond,park,markham,..,..,..,..,on
