Index,Facility_Name,ODRSF_facility_type,Provider,Street_No,Street_Name,Postal_Code,City,Prov_Terr
178555,Willowbrook Pes,park,markham,..,..,..,..,on
178582,Wilmot Parkette,park,markham,..,..,..,..,on
178614,Windfields Park,park,markham,..,..,..,..,on
178637,Windy Hill Park,park,markham,..,..,..,..,on
178667,Wismer Park,park,markham,..,..,..,..,on
178673,Wismer Percy Reesor St Parkette,park,markham,..,..,..,..,on
178675,Wismer Pes,park,markham,..,..,..,..,on
178743,Woodland Pes,park,markham,..,..,..,..,on
178782,Works Yard,park,markham,..,..,..,..,on
178809,Yarl Cedarwood Park,park,markham,..,..,..,..,on
178826,Yonge Street,park,markham,..,..,..,..,on
178848,Yorkton Parkette,park,markham,..,..,..,..,on
182014,..,park,markham,..,..,..,..,on
182015,..,park,markham,..,..,..,..,on
182016,..,park,markham,..,..,..,..,on
182017,..,park,markham,..,..,..,..,on
182018,..,park,markham,..,..,..,..,on
182019,..,park,markham,..,..,..,..,on
182020,..,park,markham,..,..,..,..,on
182021,..,park,markham,..,..,..,..,on
182022,..,park,markham,..,..,..,..,on
182023,..,park,markham,..,..,..,..,on
182024,..,park,markham,..,..,..,..,on
182025,..,park,markham,..,..,..,..,on
182026,..,park,markham,..,..,..,..,on
182027,..,park,markham,..,..,..,..,on
182028,..,park,markham,..,..,..,..,on
182029,..,park,markham,..,..,..,..,on
182030,..,park,markham,..,..,..,..,on
182031,..,park,markham,..,..,..,..,on
182032,..,park,markham,..,..,..,..,on
182033,..,park,markham,..,..,..,..,on
182034,..,park,markham,..,..,..,..,on
182035,..,park,markham,..,..,..,..,on
182036,..,park,markham,..,..,..,..,on
182037,..,park,markham,..,..,..,..,on
182038,..,park,markham,..,..,..,..,on
182039,..,park,markham,..,..,..,..,on
182040,..,park,markham,..,..,..,..,on
182041,..,park,markham,..,..,..,..,on
182042,..,park,markham,..,..,..,..,on
182043,..,park,markham,..,..,..,..,on
182044,..,park,markham,..,..,..,..,on
182045,..,park,markham,..,..,..,..,on
182046,..,park,markham,..,..,..,..,on
182047,..,park,markham,..,..,..,..,on
182048,..,park,markham,..,..,..,..,on
182049,..,park,markham,..,..,..,..,on
182050,..,park,markham,..,..,..,..,on
