Index,Facility_Name,ODRSF_facility_type,Provider,Street_No,Street_Name,Postal_Code,City,Prov_Terr
167574,Golden Jubilee Greenway,trail,markham,..,..,..,..,on
167575,Golden Jubilee Greenway,trail,markham,..,..,..,..,on
167576,Golden Jubilee Greenway,trail,markham,..,..,..,..,on
167577,Golden Jubilee Greenway,trail,markham,..,..,..,..,on
167578,Golden Jubilee Greenway,trail,york region,..,..,..,markham,on
167579,Golden Jubilee Greenway,trail,york region,..,..,..,markham,on
167580,Golden Jubilee Greenway,trail,york region,..,..,..,markham,on
167581,Golden Jubilee Greenway,trail,york region,..,..,..,markham,on
167582,Golden Jubilee Greenway,trail,york region,..,..,..,markham,on
167583,Golden Jubilee Greenway,trail,york region,..,..,..,markham,on
167584,Golden Jubilee Greenway,trail,york region,..,..,..,markham,on
167585,Golden Jubilee Greenway,trail,york region,..,..,..,markham,on
167586,Golden Jubilee Greenway,trail,york region,..,..,..,markham,on
167587,Golden Jubilee Greenway,trail,york region,..,..,..,markham,on
167588,Golden Jubilee Greenway,trail,york region,..,..,..,markham,on
167589,Golden Jubilee Greenway,trail,york region,..,..,..,markham,on
167590,Golden Jubilee Greenway,trail,york region,..,..,..,markham,on
167591,Golden Jubilee Greenway,trail,york region,..,..,..,markham,on
167592,Golden Jubilee Greenway,trail,york region,..,..,..,markham,on
167593,Golden Jubilee Greenway,trail,york region,..,..,..,markham,on
167594,Golden Jubilee Greenway,trail,york region,..,..,..,markham,on
167598,Golden Meadow Pond,park,markham,..,..,..,..,on
167633,Gord Weeden Park,park,markham,..,..,..,..,on
167651,Gordon Stollery Park,park,markham,..,..,..,..,on
167710,Grand Cornell Park,park,markham,..,..,..,..,on
167742,Grandview Park,park,markham,..,..,..,..,on
167803,Green Lane Park,park,markham,..,..,..,..,on
167850,Greensborough Pes,park,markham,..,..,..,..,on
167852,Greensborough Pond,park,markham,..,..,..,..,on
167854,Greensborough Town Centre,park,markham,..,..,..,..,on
167858,Greensborough Williamson Neighbourhood Park*,park,markham,..,..,..,..,on
167969,Hagerman Diamond Lift Station,park,markham,..,..,..,..,on
168068,Harold Humphreys Park,park,markham,..,..,..,..,on
168114,Harvest Gate Park,park,markham,..,..,..,..,on
168152,Hawkins Parkette,park,markham,..,..,..,..,on
168213,Heintzman House,park,markham,..,..,..,..,on
168216,Heisey Trail,trail,markham,..,..,..,..,on
168217,Heisey Trail,trail,markham,..,..,..,..,on
168218,Heisey Trail,trail,markham,..,..,..,..,on
168219,Heisey Trail,trail,york region,..,..,..,markham,on
168220,Heisey Trail,trail,york region,..,..,..,markham,on
168221,Heisey Trail,trail,york region,..,..,..,markham,on
168238,Henderson Ave Pes,park,markham,..,..,..,..,on
168279,Henry White Park,park,markham,..,..,..,..,on
168302,Heritage Estates Parkette,park,markham,..,..,..,..,on
168330,Heritage Woods,park,markham,..,..,..,..,on
168337,Heritage Woods Pond,park,markham,..,..,..,..,on
168411,Highgate Park,park,markham,..,..,..,..,on
168415,Highgate Pes,park,markham,..,..,..,..,on
