Index,Facility_Name,ODRSF_facility_type,Provider,Street_No,Street_Name,Postal_Code,City,Prov_Terr
142374,..,trail,province of ontario,..,..,..,..,on
142376,..,trail,province of ontario,..,..,..,..,on
142378,..,trail,province of ontario,..,..,..,..,on
142379,..,trail,province of ontario,..,..,..,..,on
142380,..,trail,province of ontario,..,..,..,..,on
142381,..,trail,province of ontario,..,..,..,..,on
142383,..,trail,province of ontario,..,..,..,..,on
142384,..,trail,province of ontario,..,..,..,..,on
142386,..,trail,province of ontario,..,..,..,..,on
142387,..,trail,province of ontario,..,..,..,..,on
142389,..,trail,province of ontario,..,..,..,..,on
142390,..,trail,province of ontario,..,..,..,..,on
142391,..,trail,province of ontario,..,..,..,..,on
142392,..,trail,province of ontario,..,..,..,..,on
142393,..,trail,province of ontario,..,..,..,..,on
142394,..,trail,province of ontario,..,..,..,..,on
142395,..,trail,province of ontario,..,..,..,..,on
142396,..,trail,province of ontario,..,..,..,..,on
142397,..,trail,province of ontario,..,..,..,..,on
142399,..,trail,province of ontario,..,..,..,..,on
142400,..,trail,province of ontario,..,..,..,..,on
142401,..,trail,province of ontario,..,..,..,..,on
142402,..,trail,province of ontario,..,..,..,..,on
142403,..,trail,province of ontario,..,..,..,..,on
142404,..,trail,province of ontario,..,..,..,..,on
142405,..,trail,province of ontario,..,..,..,..,on
162229,All Our Kids Playpark,park,newmarket,535,timothy,..,..,on
162514,Armstrong Family Park,park,newmarket,860,joe persechini,..,..,on
162520,Arnhem Park,park,newmarket,595,mulock,..,..,on
162536,Art Ferguson Park,park,newmarket,16195,brooker,..,..,on
162648,Audrie Sanderson Park,park,newmarket,620,mcbean,..,..,on
162700,Bailey Ecological Park,park,newmarket,360,mulock,..,..,on
162811,Barrington Park,park,newmarket,329,prospect,..,..,on
163235,Best Family Parkette,park,newmarket,819,best,..,..,on
163237,Beswick Park,park,newmarket,243,hodgson,..,..,on
163521,Bonshaw Avenue Park,park,newmarket,130,bonshaw,..,..,on
163652,Breathing Space,park,newmarket,230,davis,..,..,on
164176,Cardinal Parkette,park,newmarket,105,george,..,..,on
164592,Charles Boyd Park,park,newmarket,295,crowder,..,..,on
164807,Clare Salisbury Park,park,newmarket,270,clearmeadow,..,..,on
164957,College Manor Park,park,newmarket,705,college manor,..,..,on
165004,Comfort Lane Park,park,newmarket,845,comfort,..,..,on
165010,Community Centre & Riverwalk Commons,park,newmarket,200,doug duncan,..,..,on
165014,Community Garden,park,newmarket,..,main,..,..,on
165668,Dennis Park,park,newmarket,525,cane,..,..,on
165942,Dr Margaret Arkinstall Park,park,newmarket,205,sawmill valley,..,..,on
165967,Drew Doak Park,park,newmarket,80,carlson,..,..,on
166446,Environmental Park,park,newmarket,325,woodspring,..,..,on
166544,Evanslea Park,park,newmarket,955,elgin,..,..,on
