Index,Facility_Name,ODRSF_facility_type,Provider,Street_No,Street_Name,Postal_Code,City,Prov_Terr
166650,Fairy Lake,park,newmarket,580,cane,..,..,on
167018,Foxtail Ridge Parkette,park,newmarket,110,foxtail,..,..,on
167049,Frank Stronach Park,park,newmarket,850,memorial,..,..,on
167299,George Luesby Park,park,newmarket,385,rita's,..,..,on
167309,George Richardson Park,park,newmarket,395,bayview,..,..,on
167537,Global Pet Foods Dog Park Presented By Snapd,park,newmarket,220,bayview,..,..,on
168127,Haskett Park,park,newmarket,145,millard,..,..,on
168306,Heritage Farm & Community Garden,park,newmarket,605,fernbank,..,..,on
168913,Jacarandah Park,park,newmarket,945,janette,..,..,on
169070,Jim Bond Park,park,newmarket,160,jordanray,..,..,on
169096,Joe Persechini Park,park,newmarket,385,mccaffrey,..,..,on
169151,John Georgas Parkette,park,newmarket,685,allan,..,..,on
169386,Keffer Parkette,park,newmarket,110,keffer,..,..,on
169419,Ken Sturgeon Park,park,newmarket,1035,lockwood,..,..,on
169610,Kirby Crescent Park,park,newmarket,325,alex doner,..,..,on
170124,Larry 'Bubba' Blight Parkette,park,newmarket,250,penn,..,..,on
170155,Laurelwood Parkette,park,newmarket,900,shadrach,..,..,on
170194,Lawton Bros Parkette,park,newmarket,320,crowder,..,..,on
170290,Leslie Valley Park,park,newmarket,860,leslie valley,..,..,on
170425,Lions Park,park,newmarket,230,church,..,..,on
170697,M J Stiles Park,park,newmarket,355,main,..,..,on
170705,Mabel Davis Conservation Area,park,newmarket,0,davis,..,..,on
170766,Magna Centre,park,newmarket,..,..,..,..,on
170965,Marilyn Powell Park,park,newmarket,435,london,..,..,on
171046,Marsh Sports Field,park,newmarket,10,crusader,..,..,on
171860,Mosaik Park,park,newmarket,650,mcgregor farm,..,..,on
173711,Paul Semple Park,park,newmarket,145,savage,..,..,on
173845,Philmore Hamilton Park,park,newmarket,100,howard,..,..,on
174042,Poppy Lane Park,park,newmarket,0,poppy,..,..,on
174158,Proctor Park,park,newmarket,277,primrose,..,..,on
174212,Quaker Hill Park,park,newmarket,100,william roe,..,..,on
174422,Ray Twinney Recreation Complex,arena,newmarket,100,eagle,..,..,on
174423,Ray Twinney Recreation Complex,park,newmarket,100,eagle,..,..,on
174546,Rene Bray Park,park,newmarket,1030,ivsbridge,..,..,on
174799,Riverwalk Commons,park,newmarket,200,doug duncan,..,..,on
174933,Rogers Park,park,newmarket,195,cherrywood,..,..,on
175476,Sandford Parkette,park,newmarket,315,sandfort,..,..,on
175688,Seneca Cook Parkette,park,newmarket,325,clearmeadow,..,..,on
176804,Sunnyhill Park,park,newmarket,665,queen,..,..,on
177650,Unnamed Park,park,newmarket,0,hilton byrne,..,..,on
178385,Whipper Billy Watson Park,park,newmarket,475,clearmeadow,..,..,on
178565,Willowick Park,park,newmarket,615,carberry,..,..,on
178735,Woodland Hills Labyrinth Park,park,newmarket,45,ford wilson,..,..,on
