Index,Facility_Name,ODRSF_facility_type,Provider,Street_No,Street_Name,Postal_Code,City,Prov_Terr
11,Aaniin C.C. And Library,community centre,york region,..,..,..,..,on
135,Angus Glen C.C. And Library,community centre,york region,..,..,..,..,on
136,Angus Glen Community Centre And Library,community centre,markham,3990,major mackenzie,..,markham,on
197,Armadale C.C.,community centre,york region,..,..,..,..,on
482,Box Grove C.C.,community centre,york region,..,..,..,..,on
483,Box Grove Community Centre,community centre,markham,7651,ninth,..,markham,on
750,Cedar Grove C.C.,community centre,york region,..,..,..,..,on
769,Centennial C.C.,community centre,york region,..,..,..,..,on
1188,Cornell C.C. And Library,community centre,york region,..,..,..,..,on
1189,Cornell Cc Parking Garage,community centre,markham,3211,bur oak,..,markham,on
1190,Cornell Community Centre And Library,community centre,markham,3201,bur oak,..,markham,on
1254,Crosby Memorial Community Centre,community centre,york region,..,..,..,..,on
1688,Flato Markham Theatre,community centre,york region,..,..,..,..,on
1847,German Mills Community Centre,community centre,york region,..,..,..,..,on
2109,Heintzman House,community centre,york region,..,..,..,..,on
2481,Johnsview Village,community centre,york region,..,..,..,..,on
2516,Kathleen Gormley Mckay Art Centre,community centre,york region,..,..,..,..,on
3198,Markham Pan Am Centre,community centre,york region,..,..,..,..,on
3199,Markham Seniors Activity Centre,community centre,york region,..,..,..,..,on
3200,Markham Village C.C. And Library,community centre,york region,..,..,..,..,on
3201,Markham Village Community Centre,community centre,markham,6031,7,..,markham,on
3202,Markham Village Train Station,community centre,york region,..,..,..,..,on
3360,Milliken Mills C.C. And Library,community centre,york region,..,..,..,..,on
3361,Milliken Mills Community Centre And Library,community centre,markham,7600,kennedy,..,milliken,on
3452,Mount Joy C.C. And Park,community centre,york region,..,..,..,..,on
3453,Mount Joy Community Centre,community centre,markham,6096,16th,..,markham,on
3665,Old Unionville Library C.C.,community centre,york region,..,..,..,..,on
3666,Old Unionville Library Community Centre,community centre,markham,221,main,..,unionville,on
4000,Pan Am Centre,community centre,markham,16,main,..,unionville,on
5187,Rj Clatworthy Arena,arena,york region,..,..,..,..,on
5243,Rouge River C.C. And Pool,pool,york region,..,..,..,..,on
5244,Rouge River Community Centre,community centre,markham,120,rouge bank,..,box grove,on
5667,Southeast Community Centre And Library,community centre,markham,5659,14th,..,markham,on
6096,Thornhill Community Centre,community centre,york region,..,..,..,..,on
6190,Unionville Train Station,community centre,york region,..,..,..,..,on
6242,Varley Art Gallery,community centre,york region,..,..,..,..,on
6274,Victoria Square C.C.,community centre,york region,..,..,..,..,on
6275,Victoria Square Community Centre,community centre,markham,2929,elgin mills,..,markham,on
6393,Warden House,community centre,york region,..,..,..,..,on
6692,..,community centre,york region,..,..,..,..,on
7209,Angus Glen Golf Club,sports field,york region,10080,kennedy,L6C 1N9,markham,on
7210,Angus Glen Tennis Centre,sports field,markham,3990,major mackenzie,..,markham,on
7211,Angus Glen Tennis Centre,sports field,york region,..,..,..,..,on
8851,Bayview Country Club,sports field,york region,25,fairway heights,L3T 3X1,markham,on
9348,Bushwood Golf Club,sports field,york region,10905,reesor,L6B 1A8,markham,on
12789,Ladies' Golf Club Of Toronto,sports field,york region,7859,yonge,L3T 2C4,markham,on
13371,Markham Green Golf Club,sports field,york region,120,rouge bank,L3S 4B7,markham,on
15217,Remington Parkview Golf And Country Club,sports field,york region,6400,steeles,L3S 3J5,markham,on
17962,Upper Unionville Golf Club,sports field,york region,11207,kennedy,L6C 1P2,markham,on
