Index,Facility_Name,ODRSF_facility_type,Provider,Street_No,Street_Name,Postal_Code,City,Prov_Terr
161392,..,trail,york region,..,..,..,..,on
161432,11142 Mccowan Rd,park,markham,..,..,..,..,on
161583,14Th Ave Trail,park,markham,..,..,..,..,on
161610,20 Chimenti Crt,park,markham,..,..,..,..,on
161771,4408 16Th Ave,park,markham,..,..,..,..,on
161880,6418 Major Mackenzie Dr - Pitter-Cooney House,park,markham,..,..,..,..,on
161959,75 Clegg Rd,park,markham,..,..,..,..,on
161987,8100 Warden Ave,park,markham,..,..,..,..,on
161991,8290 Warden Ave,park,markham,..,..,..,..,on
162006,9413 Mccowan Rd,park,markham,..,..,..,..,on
162022,Ééc Sainte-Marguerite-Bourgeoys,park,york region,..,..,..,..,on
162036,Aaniin C.C. And Library,park,markham,..,..,..,..,on
162066,Abraham Iredell Park,park,markham,..,..,..,..,on
162170,Aldergrove Park,park,markham,..,..,..,..,on
162176,Aldergrove Parkette*,park,markham,..,..,..,..,on
162178,Aldergrove Pes,park,markham,..,..,..,..,on
162222,Alfred Paterson Pond,park,markham,..,..,..,..,on
162230,All Saints Ces,park,markham,..,..,..,..,on
162257,Alma Walker Park,park,markham,..,..,..,..,on
162260,Almond Park,park,markham,..,..,..,..,on
162291,Amber Glen Park,park,markham,..,..,..,..,on
162355,Angus Glen C.C. And Library,park,markham,..,..,..,..,on
162359,Angus Glen Tennis Centre,park,markham,..,..,..,..,on
162361,Angus Glen Village Green,park,markham,..,..,..,..,on
162381,Annina Valley,park,markham,..,..,..,..,on
162387,Annswell Park,park,markham,..,..,..,..,on
162392,Anthony Roman Centre,park,markham,..,..,..,..,on
162404,Apple Creek North,park,markham,..,..,..,..,on
162406,Apple Creek Park,park,markham,..,..,..,..,on
162408,Apple Creek South,park,markham,..,..,..,..,on
162495,Armadale C.C.,park,markham,..,..,..,..,on
162497,Armadale Park,park,markham,..,..,..,..,on
162501,Armadale Pes,park,markham,..,..,..,..,on
162503,Armadale Tennis Club,park,markham,..,..,..,..,on
162516,Armstrong Park,park,markham,..,..,..,..,on
162537,Art Latcham Park,park,markham,..,..,..,..,on
162546,Arthur Lismer Park,park,markham,..,..,..,..,on
162551,Arthur Stollery Common,park,markham,..,..,..,..,on
162557,Artisan Trail,trail,markham,..,..,..,..,on
162558,Artisan Trail,trail,markham,..,..,..,..,on
162559,Artisan Trail,trail,york region,..,..,..,markham,on
162560,Artisan Trail,trail,york region,..,..,..,markham,on
162575,Ashton Meadows Park,park,markham,..,..,..,..,on
162579,Ashton Meadows Pes,park,markham,..,..,..,..,on
162583,Ashton Meadows Waterway,park,markham,..,..,..,..,on
162655,Austin Drive Park,park,markham,..,..,..,..,on
162661,Austin Drive Rugby,park,markham,..,..,..,..,on
162677,Avida Pond,park,markham,..,..,..,..,on
162679,Avoca Park,park,markham,..,..,..,..,on
