Index,Facility_Name,ODRSF_facility_type,Provider,Street_No,Street_Name,Postal_Code,City,Prov_Terr
162882,Bayview Fairways Pes,park,markham,..,..,..,..,on
162887,Bayview Glen Park,park,markham,..,..,..,..,on
162889,Bayview Glen Pes,park,markham,..,..,..,..,on
162893,Bayview Lane Park,park,markham,..,..,..,..,on
162900,Bayview Reservoir,park,markham,..,..,..,..,on
162985,Beaupre Park,park,markham,..,..,..,..,on
162997,Beaver Creek Mdp Pond 1,park,markham,..,..,..,..,on
163015,Beckett Farm Pes,park,markham,..,..,..,..,on
163134,Benjamin Marr Park,park,markham,..,..,..,..,on
163136,Benjamin Marr Park North,park,markham,..,..,..,..,on
163138,Benjamin Thorne Park,park,markham,..,..,..,..,on
163153,Berczy Beckett - East Parkette,park,markham,..,..,..,..,on
163155,Berczy Beckett - Ne Parkette,park,markham,..,..,..,..,on
163157,Berczy Beckett - Nw Parkette,park,markham,..,..,..,..,on
163159,Berczy Beckett Neighbourhood Park*,park,markham,..,..,..,..,on
163162,Berczy Park North,park,markham,..,..,..,..,on
163164,Berczy Park South,park,markham,..,..,..,..,on
163168,Berczy Pond,park,markham,..,..,..,..,on
163170,Berczy Square*,park,markham,..,..,..,..,on
163173,Berczy Village Link Park,park,markham,..,..,..,..,on
163200,Berkshire Parkette,park,markham,..,..,..,..,on
163205,Bernadotte Woods Parkway,park,markham,..,..,..,..,on
163209,Bernbridge Parkette,park,markham,..,..,..,..,on
163256,Betty Roman Blvd East,park,markham,..,..,..,..,on
163258,Betty Roman Blvd West,park,markham,..,..,..,..,on
163271,Bianca Park*,park,markham,..,..,..,..,on
163300,Bill Crothers S.S.,park,markham,..,..,..,..,on
163355,Bishops Cross Park,park,markham,..,..,..,..,on
163377,Black Walnut Parkette,park,markham,..,..,..,..,on
163379,Black Walnut Pes,park,markham,..,..,..,..,on
163408,Blake Lazenby Park,park,markham,..,..,..,..,on
163418,Blessed John Xxiii Ces,park,markham,..,..,..,..,on
163540,Boswell Valley North*,park,markham,..,..,..,..,on
163544,Boswell Valley South,park,markham,..,..,..,..,on
163578,Box Elder Parkette,park,markham,..,..,..,..,on
163580,Box Grove C.C.,park,markham,..,..,..,..,on
163586,Box Grove Park*,park,markham,..,..,..,..,on
163588,Box Grove Pond 1 (M Midget Pond A),park,markham,..,..,..,..,on
163590,Box Grove Pond 3,park,markham,..,..,..,..,on
163592,Box Grove Pond 4,park,markham,..,..,..,..,on
163594,Box Grove Pond 5,park,markham,..,..,..,..,on
163596,Boxwood Pes,park,markham,..,..,..,..,on
163608,Boynton Woods,park,markham,..,..,..,..,on
163676,Brian Chatland Park,park,markham,..,..,..,..,on
163690,Briarwood Park,park,markham,..,..,..,..,on
163719,Bridle Trail,trail,markham,..,..,..,..,on
163720,Bridle Trail,trail,markham,..,..,..,..,on
163721,Bridle Trail,trail,markham,..,..,..,..,on
163722,Bridle Trail,trail,york region,..,..,..,markham,on
