Index,Facility_Name,ODRSF_facility_type,Provider,Street_No,Street_Name,Postal_Code,City,Prov_Terr
172146,Nightstar Park,park,toronto,..,..,..,..,on
172155,Noble Park,park,toronto,..,..,..,..,on
172176,Norman Jewison Park,park,toronto,..,..,..,..,on
172184,Norseman Heights Park,park,toronto,..,..,..,..,on
172186,North Agincourt Park,park,toronto,..,..,..,..,on
172189,North Bendale Park,park,toronto,..,..,..,..,on
172191,North Bridlewood Park,park,toronto,..,..,..,..,on
172206,North Humber Park,park,toronto,..,..,..,..,on
172207,North Keelesdale Park,park,toronto,..,..,..,..,on
172210,North Kipling Park,park,toronto,..,..,..,..,on
172216,North Mimico Valley Park,park,toronto,..,..,..,..,on
172222,North Park,park,toronto,..,..,..,..,on
172254,Northend Parkette,park,toronto,..,..,..,..,on
172255,Northern Linear Park,park,toronto,..,..,..,..,on
172264,Northline Parks Yard - Building Grounds,park,toronto,..,..,..,..,on
172293,Northtown Park,park,toronto,..,..,..,..,on
172305,Northwood Park,park,toronto,..,..,..,..,on
172312,Norwood Park,park,toronto,..,..,..,..,on
172429,Oak Street Park,park,toronto,..,..,..,..,on
172430,Oak Street Parkette,park,toronto,..,..,..,..,on
172432,Oakcrest Parkette,park,toronto,..,..,..,..,on
172435,Oakdale Park,park,toronto,..,..,..,..,on
172436,Oakdale Village Park,park,toronto,..,..,..,..,on
172452,Oakridge Park,park,toronto,..,..,..,..,on
172470,Oates Park,park,toronto,..,..,..,..,on
172512,Old Forest Hill Parkette,park,toronto,..,..,..,..,on
172520,Old Mill Parkette,park,toronto,..,..,..,..,on
172525,Old Mill Site Park,park,toronto,..,..,..,..,on
172526,Old Orchard Park,park,toronto,..,..,..,..,on
172527,Old Park Road Traffic Island,park,toronto,..,..,..,..,on
172530,Old Sheppard Park,park,toronto,..,..,..,..,on
172534,Old Yonge Parkette,park,toronto,..,..,..,..,on
172542,Olive Square Park,park,toronto,..,..,..,..,on
172551,Olympia Park,park,toronto,..,..,..,..,on
172554,Olympic Park,park,toronto,..,..,..,..,on
172574,Ontario Street Parkette,park,toronto,..,..,..,..,on
172609,Orchard Park,park,toronto,..,..,..,..,on
172619,Orford Place Parkette,park,toronto,..,..,..,..,on
172621,Oriole Park - North York,park,toronto,..,..,..,..,on
172622,Oriole Park - Toronto,park,toronto,..,..,..,..,on
172626,Ormskirk Park,park,toronto,..,..,..,..,on
172659,Ourland Park,park,toronto,..,..,..,..,on
172668,Owen Park,park,toronto,..,..,..,..,on
172702,Page Parkette,park,toronto,..,..,..,..,on
172713,Palace Pier Park,park,toronto,..,..,..,..,on
172741,Panorama Park,park,toronto,..,..,..,..,on
172745,Pantry Park,park,toronto,..,..,..,..,on
173570,Park - Rosedale Traffic Island,park,toronto,..,..,..,..,on
173579,Park Drive Reservation Lands,park,toronto,..,..,..,..,on
