Index,Facility_Name,ODRSF_facility_type,Provider,Street_No,Street_Name,Postal_Code,City,Prov_Terr
169244,Joseph Burr Tyrrell Park,park,toronto,..,..,..,..,on
169259,Joseph Sheard Parkette,park,toronto,..,..,..,..,on
169265,Joseph Workman Park,park,toronto,..,..,..,..,on
169276,Joshua Cronkwright Parkette,park,toronto,..,..,..,..,on
169281,Joyce Park,park,toronto,..,..,..,..,on
169282,Joyce Trimmer Park,park,toronto,..,..,..,..,on
169305,Julius Deutsch Park,park,toronto,..,..,..,..,on
169322,June Callwood Park,park,toronto,..,..,..,..,on
169323,June Rowlands Park,park,toronto,..,..,..,..,on
169370,Kay Gardner Beltline Park,park,toronto,..,..,..,..,on
169371,Kay Park,park,toronto,..,..,..,..,on
169378,Keele - Mulock Parkette,park,toronto,..,..,..,..,on
169380,Keelesdale Park,park,toronto,..,..,..,..,on
169381,Keelesdale South Park,park,toronto,..,..,..,..,on
169402,Kelsonia Parkette,park,toronto,..,..,..,..,on
169406,Kempford Parkette,park,toronto,..,..,..,..,on
169408,Kempton Howard Park,park,toronto,..,..,..,..,on
169421,Kenaston Gardens Parkette,park,toronto,..,..,..,..,on
169422,Kenaston Park,park,toronto,..,..,..,..,on
169434,Kennard Parkette,park,toronto,..,..,..,..,on
169436,Kennedy - Lawrence Parkette,park,toronto,..,..,..,..,on
169437,Kennedy - Margdon Parkette,park,toronto,..,..,..,..,on
169442,Kennedy Parkette,park,toronto,..,..,..,..,on
169445,Kenneth Park,park,toronto,..,..,..,..,on
169458,Kenway Park,park,toronto,..,..,..,..,on
169461,Kenworthy Park,park,toronto,..,..,..,..,on
169502,Kildonan Park,park,toronto,..,..,..,..,on
169504,Kilgour Parkette,park,toronto,..,..,..,..,on
169534,King George West Parkette,park,toronto,..,..,..,..,on
169535,King Georges - Keele Parkette,park,toronto,..,..,..,..,on
169547,King's Mill Park,park,toronto,..,..,..,..,on
169572,Kingsview Park,park,toronto,..,..,..,..,on
169573,Kingsway Gate Parkette,park,toronto,..,..,..,..,on
169583,Kinsdale Park,park,toronto,..,..,..,..,on
169613,Kirkdene Park,park,toronto,..,..,..,..,on
169618,Kirkwood Park,park,toronto,..,..,..,..,on
169624,Kitchener Park,park,toronto,..,..,..,..,on
169647,Kiwanis Parkette,park,toronto,..,..,..,..,on
169867,Knights Of Columbus Park,park,toronto,..,..,..,..,on
169873,Knightswood Rd Park,park,toronto,..,..,..,..,on
169876,Knob Hill Park,park,toronto,..,..,..,..,on
169880,Knott Park,park,toronto,..,..,..,..,on
169882,Knotwood Park,park,toronto,..,..,..,..,on
169924,La Rose Park,park,toronto,..,..,..,..,on
169935,Laburnham Park,park,toronto,..,..,..,..,on
169971,Lake Crescent Park,park,toronto,..,..,..,..,on
169972,Lake Crescent Road End Parkette,park,toronto,..,..,..,..,on
169999,Lakeridge Parkette,park,toronto,..,..,..,..,on
170001,Lakeshore Boulevard Parklands,park,toronto,..,..,..,..,on
