Index,Facility_Name,ODRSF_facility_type,Provider,Street_No,Street_Name,Postal_Code,City,Prov_Terr
13362,Marilyn Bell Park - Outdoor Tennis Court ( 2),sports field,toronto,1095,lake shore,..,..,on
13372,Markland Wood Golf Club,sports field,york region,245,markland,M9C 1R1,toronto,on
13380,Martin Grove Gardens Park,sports field,toronto,31,livingston,M9R 2H2,..,on
13381,Martin Grove Gardens Park - Outdoor Tennis Court ( 1),sports field,toronto,31,lavington,..,..,on
13382,Martin Grove Gardens Park - Outdoor Tennis Court ( 2),sports field,toronto,31,lavington,..,..,on
13383,Martin Grove Gardens Park - Outdoor Tennis Court ( 3),sports field,toronto,31,lavington,..,..,on
13397,Maryland Park - Outdoor Tennis Court ( 1),sports field,toronto,19,maryland,..,..,on
13398,Maryland Park - Outdoor Tennis Court ( 2),sports field,toronto,19,maryland,..,..,on
13399,Maryland Park - Outdoor Tennis Court ( 3),sports field,toronto,19,maryland,..,..,on
13400,Maryland Park - Outdoor Tennis Court ( 4),sports field,toronto,19,maryland,..,..,on
13401,Maryland Park Tennis Clubhouse,sports field,toronto,19,maryland,..,..,on
13407,Maryvale Park,sports field,toronto,5,trestleside,M1R 5A9,..,on
13408,Maryvale Park - Outdoor Tennis Court ( 1),sports field,toronto,5,trestleside,..,..,on
13409,Maryvale Park - Outdoor Tennis Court ( 2),sports field,toronto,5,trestleside,..,..,on
13410,Maryvale Park - Outdoor Tennis Court ( 3),sports field,toronto,5,trestleside,..,..,on
13420,Mastercard Centre For Hockey Excellence - Indoor Ice Pad ( 1),rink,toronto,290,birmingham,..,..,on
13421,Mastercard Centre For Hockey Excellence - Indoor Ice Pad ( 2),rink,toronto,290,birmingham,..,..,on
13422,Mastercard Centre For Hockey Excellence - Indoor Ice Pad ( 3),rink,toronto,290,birmingham,..,..,on
13423,Mastercard Centre For Hockey Excellence - Indoor Ice Pad ( 4),rink,toronto,290,birmingham,..,..,on
13454,Mccleary Park,sports field,toronto,755,lake shore,M4M 1A9,..,on
13455,Mccleary Park,sports field,toronto,755,lake shore,M4M 1A9,..,on
13456,Mccormick Playground,sports field,toronto,66,sheridan,M1P 4N7,..,on
13461,Mcdairmid Woods Park - Outdoor Tennis Court ( 1),sports field,toronto,51,rubic,..,..,on
13462,Mcdairmid Woods Park - Outdoor Tennis Court ( 2),sports field,toronto,51,rubic,..,..,on
13463,Mcdairmid Woods Park - Outdoor Tennis Court ( 3),sports field,toronto,51,rubic,..,..,on
13474,Mcgregor Park - Outdoor Tennis Court ( 1),sports field,toronto,2231,lawrence,..,..,on
13475,Mcgregor Park - Outdoor Tennis Court ( 2),sports field,toronto,2231,lawrence,..,..,on
13476,Mcgregor Park - Outdoor Tennis Court ( 3),sports field,toronto,2231,lawrence,..,..,on
13477,Mcgregor Park Rc,sports field,toronto,2231,lawrence,M1P 2P5,..,on
13478,Mcgregor Park Rc,sports field,toronto,2231,lawrence,M1P 2P5,..,on
13521,Mcnicoll Park - Outdoor Tennis Court ( 1),sports field,toronto,215,mcnicoll,..,..,on
13522,Mcnicoll Park - Outdoor Tennis Court ( 2),sports field,toronto,215,mcnicoll,..,..,on
13523,Mcnicoll Park - Outdoor Tennis Court ( 3),sports field,toronto,215,mcnicoll,..,..,on
13579,Memorial Park,sports field,toronto,340,chaplin,M5N 2N3,..,on
13678,Mill Valley Park - Outdoor Tennis Court ( 1),sports field,toronto,412,mill,..,..,on
13679,Mill Valley Park - Outdoor Tennis Court ( 2),sports field,toronto,412,mill,..,..,on
13720,Millwood Park,sports field,toronto,222,mill,M9C 1Y2,..,on
13721,Millwood Park,sports field,toronto,222,mill,M9C 1Y2,..,on
13722,Millwood Park - Outdoor Tennis Court ( 1),sports field,toronto,4370,bloor,..,..,on
13723,Millwood Park - Outdoor Tennis Court ( 2),sports field,toronto,4370,bloor,..,..,on
13724,Millwood Park - Outdoor Tennis Court ( 3),sports field,toronto,4370,bloor,..,..,on
13731,Mimico Memorial Park,sports field,toronto,74,hillside,M4K 2M6,..,on
13732,Mimico Memorial Park - Outdoor Tennis Court ( 1),sports field,toronto,75,hillside,..,..,on
13733,Mimico Memorial Park - Outdoor Tennis Court ( 2),sports field,toronto,75,hillside,..,..,on
13734,Mimico Memorial Park - Outdoor Tennis Court ( 3),sports field,toronto,75,hillside,..,..,on
13735,Mimico Memorial Park Tennis Clubhouse,sports field,toronto,29,george,..,..,on
13783,Moncur Playground,sports field,toronto,10,gainsborough,M1P 4N7,..,on
13802,Moore Park - Outdoor Tennis Court ( 1),sports field,toronto,110,cactus,..,..,on
13803,Moore Park - Outdoor Tennis Court ( 2),sports field,toronto,110,cactus,..,..,on
