Index,Facility_Name,ODRSF_facility_type,Provider,Street_No,Street_Name,Postal_Code,City,Prov_Terr
168125,Harwood Park,park,toronto,..,..,..,..,on
168141,Havenbrook Park,park,toronto,..,..,..,..,on
168143,Havendale Park,park,toronto,..,..,..,..,on
168144,Haverson Park,park,toronto,..,..,..,..,on
168156,Hawksbury Park,park,toronto,..,..,..,..,on
168186,Healey Willan Park,park,toronto,..,..,..,..,on
168189,Hearst Circle Parkette,park,toronto,..,..,..,..,on
168190,Heart Park,park,toronto,..,..,..,..,on
168198,Heather Heights Park,park,toronto,..,..,..,..,on
168202,Heathercrest Park,park,toronto,..,..,..,..,on
168206,Heathrow Park,park,toronto,..,..,..,..,on
168249,Hendon Park,park,toronto,..,..,..,..,on
168256,Henrietta Park,park,toronto,..,..,..,..,on
168345,Heron Park,park,toronto,..,..,..,..,on
168372,Hickorynut Parkette,park,toronto,..,..,..,..,on
168377,Hidden Trail Park,park,toronto,..,..,..,..,on
168386,Hideaway Park,park,toronto,..,..,..,..,on
168392,High Level Pumping Station And Park,park,toronto,..,..,..,..,on
168396,High Park,park,toronto,..,..,..,..,on
168397,High Park Public Library - Building Grounds,park,toronto,..,..,..,..,on
168409,Highfield Park,park,toronto,..,..,..,..,on
168423,Highland Creek Community Park,park,toronto,..,..,..,..,on
168424,Highland Creek Parkette,park,toronto,..,..,..,..,on
168428,Highland Heights Park,park,toronto,..,..,..,..,on
168442,Highview Park,park,toronto,..,..,..,..,on
168469,Hillcrest Park,park,toronto,..,..,..,..,on
168472,Hilldowntree Parkette,park,toronto,..,..,..,..,on
168474,Hillhurst Parkette,park,toronto,..,..,..,..,on
168478,Hillingdon - Woodrow Parkette,park,toronto,..,..,..,..,on
168485,Hillmount Parkette,park,toronto,..,..,..,..,on
168486,Hillsborough Park,park,toronto,..,..,..,..,on
168487,Hillsdale Avenue Parkette,park,toronto,..,..,..,..,on
168495,Hillside Park,park,toronto,..,..,..,..,on
168516,Hobart Park,park,toronto,..,..,..,..,on
168539,Holley Park,park,toronto,..,..,..,..,on
168541,Hollis - Kalmar Park,park,toronto,..,..,..,..,on
168542,Hollis Kalmar Park,park,toronto,..,..,..,..,on
168563,Holy Blossom Memorial Park,park,toronto,..,..,..,..,on
168570,Home Smith Park,park,toronto,..,..,..,..,on
168595,Hoptree Park,park,toronto,..,..,..,..,on
168601,Horseley Hill Park,park,toronto,..,..,..,..,on
168608,Horsham Parkette,park,toronto,..,..,..,..,on
168611,Horton Park,park,toronto,..,..,..,..,on
168629,Howard Talbot Park,park,toronto,..,..,..,..,on
168636,Hto Park,park,toronto,..,..,..,..,on
168637,Hto Park West,park,toronto,..,..,..,..,on
168643,Hubbard Park,park,toronto,..,..,..,..,on
168660,Hullmar Park,park,toronto,..,..,..,..,on
168661,Humber Bay Park East,park,toronto,..,..,..,..,on
