Index,Facility_Name,ODRSF_facility_type,Provider,Street_No,Street_Name,Postal_Code,City,Prov_Terr
26364,Elizabeth Simcoe Park Trail,trail,toronto,..,sylvan,..,..,on
26365,Elizabeth Simcoe Park Trail,trail,toronto,..,sonneck,..,..,on
26366,Elizabeth Simcoe Park Trail,trail,toronto,..,catalina,..,..,on
26384,Elmcrest Creek Trail,trail,toronto,..,cosway,..,..,on
26385,Elmcrest Creek Trail,trail,toronto,..,bloor,..,..,on
26386,Elmcrest Creek Trail,trail,toronto,..,burnhamthorpe,..,..,on
26387,Elmcrest Creek Trail,trail,toronto,..,renforth,..,..,on
26388,Elmcrest Creek Trail,trail,toronto,..,toledo,..,..,on
26389,Elmcrest Creek Trail,trail,toronto,..,burnhamthorpe,..,..,on
26390,Elmcrest Creektrail,trail,toronto,..,rathburn,..,..,on
26597,Etobicoke Creek Recreational Trail,trail,peel region,..,..,..,..,on
26598,Etobicoke Creek Recreational Trail,trail,peel region,..,..,..,..,on
26664,Etobicoke Creek Recreational Trail,trail,peel region,..,..,..,..,on
26682,Etobicoke Creek Recreational Trail,trail,peel region,..,..,..,..,on
26683,Etobicoke Creek Recreational Trail,trail,peel region,..,..,..,..,on
26717,Etobicoke Creek Trail,trail,toronto,..,forty third,..,..,on
26718,Etobicoke Creek Trail,trail,toronto,..,westhead,..,..,on
26719,Etobicoke Creek Trail,trail,toronto,..,enfield,..,..,on
26720,Etobicoke Creek Trail,trail,toronto,..,westhead,..,..,on
26957,Festival Park Trail,trail,toronto,..,carnival,..,..,on
26958,Festival Park Trail,trail,toronto,..,fisherville,..,..,on
26969,Finch Trail,trail,toronto,..,driftwood,..,..,on
26970,Finch Trail,trail,toronto,..,jane,..,..,on
26971,Finch Trail,trail,toronto,..,norfinch,..,..,on
26972,Finch Trail,trail,toronto,..,sentinel,..,..,on
26973,Finch Trail,trail,toronto,..,tangiers,..,..,on
26974,Finch Trail,trail,toronto,..,torresdale,..,..,on
26975,Finch Trail,trail,toronto,..,torresdale,..,..,on
26976,Finch Trail,trail,toronto,..,devondale,..,..,on
26977,Finch Trail,trail,toronto,..,kenton,..,..,on
26978,Finch Trail,trail,toronto,..,hendon,..,..,on
26979,Finch Trail,trail,toronto,..,willowdale,..,..,on
26980,Finch Trail,trail,toronto,..,mcnicoll,..,..,on
26981,Finch Trail,trail,toronto,..,brimley,..,..,on
26982,Finch Trail,trail,toronto,..,whiteheather,..,..,on
26983,Finch Trail,trail,toronto,..,sliver star,..,..,on
26984,Finch Trail,trail,toronto,..,kennedy,..,..,on
26985,Finch Trail,trail,toronto,..,mcnicoll,..,..,on
26986,Finch Trail,trail,toronto,..,bathurst,..,..,on
26987,Finch Trail,trail,toronto,..,york gate,..,..,on
26988,Finch Trail,trail,toronto,..,keele,..,..,on
26989,Finch Trail,trail,toronto,..,grantbrook,..,..,on
26990,Finch Trail,trail,toronto,..,maxome,..,..,on
26991,Finch Trail,trail,toronto,..,mccowan,..,..,on
26992,Finch Trail,trail,toronto,..,midland,..,..,on
26993,Finch Trail,trail,toronto,..,columbia gt,..,columbia,on
26994,Finch Trail,trail,toronto,..,alness,..,..,on
26995,Finch Trail,trail,toronto,..,talbot,..,..,on
26996,Finch Trail,trail,toronto,..,dufferin,..,..,on
