Index,Facility_Name,ODRSF_facility_type,Provider,Street_No,Street_Name,Postal_Code,City,Prov_Terr
1764,Frank Oke Secondary School,gym,toronto,500,alliance,M6N 2H8,..,on
1765,Frankel - Lambert Park,playground,toronto,340,christie,M6G 3C3,..,on
1766,Frankland Cc,gym,toronto,816,logan,M4K 30,..,on
1767,Frankland Cc,pool,toronto,816,logan,M4K 30,..,on
1768,Franklin Park,playground,toronto,138,franklin,M6P 3Y8,..,on
1778,Fred Hamilton Playground,playground,toronto,155,roxton,M1P 4N7,..,on
1779,Fred Hamilton Playground,pool,toronto,155,roxton,M1P 4N7,..,on
1789,Fundy Bay Park,playground,toronto,190,fundy bay,M1W 3G1,..,on
1801,Gamble Park,playground,toronto,150,gamble,M1K 3T8,..,on
1822,Geary Ave Parkette,playground,toronto,15,geary,M6H 2B3,..,on
1823,Geary Ave Parkette,pool,toronto,15,geary,M6H 2B3,..,on
1825,General Mercer School,pool,toronto,30,turnberry,M6N 1P8,..,on
1832,George Harvey Ci,pool,toronto,1700,keele,M6M 3W5,..,on
1840,George Webster Park,playground,toronto,30,chapman,M9P 100000,..,on
1843,Georges Vanier Ss,pool,toronto,3000,don mills,M2J 3B6,..,on
1849,Gibraltar Point Beach,beach,toronto,443,lakeshore,M5J 2W2,..,on
1851,Gihon Spring Outdoor Pool,pool,toronto,75,gihon spring,M9V 4X6,..,on
1855,Giltspur Park,playground,toronto,85,magellan,M3L 1T3,..,on
1856,Giovanni Caboto,pool,toronto,1369,st clair,M6E 1C5,..,on
1857,Giovanni Caboto,rink,toronto,1369,st clair,M6E 1C5,..,on
1858,Giovanni Caboto - Outdoor Artificial Ice Rink,rink,toronto,1367,st-clair,..,..,on
1862,Glamorgan Park,playground,toronto,50,antrim,M1P 4N4,..,on
1875,Glen Cedar Park,playground,toronto,50,glen cedar,M5J 2C4,..,on
1877,Glen Edyth Drive Parkette,playground,toronto,5,glen edyth,M4V 2V7,..,on
1882,Glen Long Cc,gym,toronto,35,glen long,M6B 2M1,..,on
1883,Glen Long Cc,pool,toronto,35,glen long,M6B 2M1,..,on
1884,Glen Long Community Centre - Outdoor Artificial Ice Rink,rink,toronto,35,glen long,..,..,on
1889,Glen Rouge Park,playground,toronto,7450,kingston,M1B 5S3,..,on
1897,Glendora Park,playground,toronto,201,glendora,M2N 2W5,..,on
1898,Glendora Park,splash pad,toronto,201,glendora,M2N 2W5,..,on
1907,Glenn Gould Park,playground,toronto,480,avenue,M4V 2J4,..,on
1917,Godstone Park,playground,toronto,45,godstone,M2J 3C7,..,on
1933,Gord & Irene Risk Cc,pool,toronto,2650,finch,M9M 3A3,..,on
1934,Gord And Irene Risk Community Centre - Indoor Ice Pad,rink,toronto,2650,finch,..,..,on
1946,Goulding Cc,gym,toronto,45,goulding,M2M 1K8,..,on
1947,Goulding Cc,pool,toronto,45,goulding,M2M 1K8,..,on
1949,Goulding Community Centre - Indoor Ice Pad,rink,toronto,80,patricia,..,..,on
1952,Gracedale Park,playground,toronto,186,gracedale,M9C 2Y2,..,on
1953,Gracedale Park,splash pad,toronto,186,gracedale,M9C 2Y2,..,on
1964,Grandravine Cc,pool,toronto,23,grandravine,M3J 1B3,..,on
1965,Grandravine Cc,rink,toronto,23,grandravine,M3J 1B3,..,on
1966,Grandravine Park,playground,toronto,23,grandravine,M3J 1B1,..,on
1971,Grange Park,pool,toronto,317,dundas,M5T 1G4,..,on
1976,Grattan Park,playground,toronto,38,grattan,M9N 3J5,..,on
1978,Graydon Hall Park,playground,toronto,150,graydon hall,M3A 3B2,..,on
1999,Greenvale Park,playground,toronto,10,greenvale,M1E 2B7,..,on
2002,Greenwood Park,playground,toronto,150,greenwood,M4L 2P8,..,on
2006,Greenwood Park - Outdoor Artificial Ice Rink,rink,toronto,150,greenwood,..,..,on
2007,Greenwood Park - Skate Trail,trail,toronto,150,greenwood,..,..,on
