Index,Facility_Name,ODRSF_facility_type,Provider,Street_No,Street_Name,Postal_Code,City,Prov_Terr
51992,Scarborough Railpath Trail,trail,toronto,..,staines,..,..,on
51993,Scarborough Railpath Trail,trail,toronto,..,morningside,..,..,on
51994,Scarborough Railpath Trail,trail,toronto,..,finch,..,..,on
51995,Scarborough Railpath Trail,trail,toronto,..,upper rouge,..,..,on
53368,Sherwood Park Trail,trail,toronto,..,sherwood,..,..,on
53369,Sherwood Park Trail,trail,toronto,..,blythwood,..,..,on
53863,Sir W. Churchill Park Trail,trail,toronto,..,russell hill,..,..,on
53907,Smithfield Park Trail,trail,toronto,..,mount olive,..,..,on
54493,Sunnybrook Park Trail,trail,toronto,..,bayview,..,..,on
54494,Sunnydene Park Trail,trail,toronto,..,bayview,..,..,on
54683,Talwood Park Trail,trail,toronto,..,talwood,..,..,on
54767,Taylor Creek Trail,trail,toronto,..,victoria park,..,..,on
54768,Taylor Creek Trail,trail,toronto,..,eastdale,..,..,on
54769,Taylor Creek Trail,trail,toronto,..,rumney,..,..,on
54770,Taylor Creek Trail,trail,toronto,..,oconnor,..,..,on
54771,Taylor Creek Trail,trail,toronto,..,birchmount,..,..,on
54772,Taylor Creek Trail,trail,toronto,..,anaconda,..,..,on
54773,Taylor Creek Trail,trail,toronto,..,st clair,..,..,on
54774,Taylor Creek Trail,trail,toronto,..,st clair,..,..,on
54775,Taylor Creek Trail,trail,toronto,..,pharmacy,..,..,on
54776,Taylor Creek Trail,trail,toronto,..,dawes,..,..,on
54777,Taylor Creek Trail,trail,toronto,..,notely,..,..,on
54778,Taylor Creek Trail,trail,toronto,..,st clair,..,..,on
54779,Taylor Creek Trail,trail,toronto,..,rexleigh,..,..,on
54780,Taylor Creek Trail,trail,toronto,..,notely,..,..,on
54781,Taylor Creek Trail,trail,toronto,..,halsey,..,..,on
54782,Taylor Creek Trail,trail,toronto,..,alder,..,..,on
54783,Taylor Creek Trail,trail,toronto,..,glenwood,..,..,on
54906,Terry Fox Park Trail,trail,toronto,..,bellinda,..,..,on
54907,Terry Fox Park Trail,trail,toronto,..,bamburgh,..,..,on
54908,Terry Fox Park Trail,trail,toronto,..,triangle villas,..,..,on
62766,Trinity Bellwoods Park Trail,trail,toronto,..,shaw,..,..,on
62767,Trinity Bellwoods Park Trail,trail,toronto,..,crawford,..,..,on
65227,Viewmount Park Trail,trail,toronto,..,shermount,..,..,on
65228,Viewmount Park Trail,trail,toronto,..,marwood,..,..,on
67046,Waterfront Trail,trail,toronto,..,lake,..,..,on
67047,Waterfront Trail,trail,toronto,..,lake,..,..,on
67048,Waterfront Trail,trail,toronto,..,lake shore,..,..,on
67049,Waterfront Trail,trail,toronto,..,island,..,..,on
67050,Waterfront Trail,trail,toronto,..,lake,..,..,on
67051,Waterfront Trail,trail,toronto,..,lawrence,..,..,on
67052,Waterfront Trail,trail,toronto,..,heathfield,..,..,on
67053,Waterfront Trail,trail,toronto,..,sliver birch,..,..,on
67054,Waterfront Trail,trail,toronto,..,port union,..,..,on
67055,Waterfront Trail,trail,toronto,..,queens quay,..,..,on
67056,Waterfront Trail,trail,toronto,..,bridgend,..,..,on
67057,Waterfront Trail,trail,toronto,..,hill,..,..,on
67058,Waterfront Trail,trail,toronto,..,fernwood park,..,..,on
67059,Waterfront Trail,trail,toronto,..,lawrence,..,..,on
