Index,Facility_Name,ODRSF_facility_type,Provider,Street_No,Street_Name,Postal_Code,City,Prov_Terr
170494,Lochleven Park,park,toronto,..,..,..,..,on
170506,Logan Avenue Parkette,park,toronto,..,..,..,..,on
170524,Long Branch Park,park,toronto,..,..,..,..,on
170525,Long Branch Park & Cenotaph,park,toronto,..,..,..,..,on
170535,Longmore Park,park,toronto,..,..,..,..,on
170538,Longwood Park,park,toronto,..,..,..,..,on
170541,Lora Hill Park,park,toronto,..,..,..,..,on
170546,Lord Seaton Park,park,toronto,..,..,..,..,on
170553,Loring - Wyle Parkette,park,toronto,..,..,..,..,on
170563,Lorraine Drive Park,park,toronto,..,..,..,..,on
170584,Louise Russo Park,park,toronto,..,..,..,..,on
170587,Love Crescent Parkette,park,toronto,..,..,..,..,on
170590,Lower Don Parklands,trail,toronto,..,..,..,..,on
170591,Lower Don Parklands,trail,toronto,..,..,..,..,on
170592,Lower Don Parklands,trail,toronto,..,..,..,..,on
170593,Lower Don Parklands,trail,toronto,..,..,..,..,on
170594,Lower Don Parklands,trail,toronto,..,..,..,..,on
170595,Lower Don Parklands,trail,toronto,..,..,..,..,on
170596,Lower Don Parklands,trail,toronto,..,..,..,..,on
170597,Lower Don Parklands,trail,toronto,..,..,..,..,on
170598,Lower Don Parklands,trail,toronto,..,..,..,..,on
170599,Lower Don Parklands,trail,toronto,..,..,..,..,on
170600,Lower Don Parklands,trail,toronto,..,..,..,..,on
170601,Lower Don Parklands,trail,toronto,..,..,..,..,on
170602,Lower Don Parklands,trail,toronto,..,..,..,..,on
170603,Lower Don Parklands,trail,toronto,..,..,..,..,on
170604,Lower Don Parklands,trail,toronto,..,..,..,..,on
170605,Lower Don Parklands,trail,toronto,..,..,..,..,on
170606,Lower Don Parklands,trail,toronto,..,..,..,..,on
170607,Lower Don Parklands,trail,toronto,..,..,..,..,on
170608,Lower Don Parklands,trail,toronto,..,..,..,..,on
170638,Lucy Maud Montgomery Park,park,toronto,..,..,..,..,on
170656,Lusted Park,park,toronto,..,..,..,..,on
170674,Lynedock Park,park,toronto,..,..,..,..,on
170679,Lynndale Parkette,park,toronto,..,..,..,..,on
170682,Lynngate Park,park,toronto,..,..,..,..,on
170696,Lytton Park,park,toronto,..,..,..,..,on
170706,Maberley Parkette,park,toronto,..,..,..,..,on
170728,Macklin Hancock Park,park,toronto,..,..,..,..,on
170740,Macpherson Avenue Parkette,park,toronto,..,..,..,..,on
170752,Madelaine Park,park,toronto,..,..,..,..,on
170772,Magwood Park,park,toronto,..,..,..,..,on
170775,Maher Circle Parkette,park,toronto,..,..,..,..,on
170780,Maidavale Park,park,toronto,..,..,..,..,on
170796,Major Abbas Ali Park,park,toronto,..,..,..,..,on
170818,Mallaby Park,park,toronto,..,..,..,..,on
170820,Mallow Park,park,toronto,..,..,..,..,on
170823,Malta Park,park,toronto,..,..,..,..,on
170830,Malvern Park,park,toronto,..,..,..,..,on
