Index,Facility_Name,ODRSF_facility_type,Provider,Street_No,Street_Name,Postal_Code,City,Prov_Terr
173583,Park Lawn Park,park,toronto,..,..,..,..,on
173600,Parkdale Community Recreation Centre - Building Grounds,park,toronto,..,..,..,..,on
173601,Parkdale Health Centre - Building Grounds,park,toronto,..,..,..,..,on
173643,Parkside Elementary School - Building Grounds,park,toronto,..,..,..,..,on
173648,Parkview Gardens,park,toronto,..,..,..,..,on
173649,Parkview Gardens Parkette,park,toronto,..,..,..,..,on
173651,Parkview Park,park,toronto,..,..,..,..,on
173656,Parkway Forest Park,park,toronto,..,..,..,..,on
173667,Parliament Square Park,park,toronto,..,..,..,..,on
173668,Parma Park,park,toronto,..,..,..,..,on
173701,Paul Garfinkel Parkette,park,toronto,..,..,..,..,on
173704,Paul Kane House Parkette,park,toronto,..,..,..,..,on
173708,Paul Martel Park,park,toronto,..,..,..,..,on
173746,Pearen Park,park,toronto,..,..,..,..,on
173772,Pellatt Parkette,park,toronto,..,..,..,..,on
173773,Pelmo Park,park,toronto,..,..,..,..,on
173776,Pemberton Parkette,park,toronto,..,..,..,..,on
173794,Percy Park,park,toronto,..,..,..,..,on
173814,Perth Avenue Parkette,park,toronto,..,..,..,..,on
173817,Perth Square Park,park,toronto,..,..,..,..,on
173828,Peter Secor Park,park,toronto,..,..,..,..,on
173829,Peter Street Basin Park,park,toronto,..,..,..,..,on
173841,Phil Givens Park,park,toronto,..,..,..,..,on
173846,Phin Park,park,toronto,..,..,..,..,on
173853,Picasso Park,park,toronto,..,..,..,..,on
173894,Pine Point Park,park,toronto,..,..,..,..,on
173921,Pinery Park,park,toronto,..,..,..,..,on
173924,Pinetree Park,park,toronto,..,..,..,..,on
173927,Pineway Park,park,toronto,..,..,..,..,on
173936,Pinto Park,park,toronto,..,..,..,..,on
173985,Pleasantview Park,park,toronto,..,..,..,..,on
173989,Plowshare Park,park,toronto,..,..,..,..,on
173990,Plunkett Park,park,toronto,..,..,..,..,on
174004,Point Rouge Trail Park,park,toronto,..,..,..,..,on
174040,Poplar Park,park,toronto,..,..,..,..,on
174041,Poplar Plains Parkette,park,toronto,..,..,..,..,on
174059,Port Royal Park,park,toronto,..,..,..,..,on
174060,Port Union Village Common Park,park,toronto,..,..,..,..,on
174061,Port Union Waterfront Park,park,toronto,..,..,..,..,on
174064,Portage Gardens Park,park,toronto,..,..,..,..,on
174094,Prairie Drive Park,park,toronto,..,..,..,..,on
174101,Prescott Parkette,park,toronto,..,..,..,..,on
174115,Primrose Avenue Parkette,park,toronto,..,..,..,..,on
174120,Primula Parkette,park,toronto,..,..,..,..,on
174125,Prince Charles Park,park,toronto,..,..,..,..,on
174129,Prince Edward Viaduct Parkette,park,toronto,..,..,..,..,on
174134,Prince Of Wales Park,park,toronto,..,..,..,..,on
174141,Princess Anne Park,park,toronto,..,..,..,..,on
174144,Princess Margaret Park,park,toronto,..,..,..,..,on
