Index,Facility_Name,ODRSF_facility_type,Provider,Street_No,Street_Name,Postal_Code,City,Prov_Terr
16,Acacia Park,playground,toronto,68,lilac,M9C 2Y2,..,on
35,Adam Beck Cc,gym,toronto,79,lawlor,M4E 3L8,..,on
38,Adams Park,playground,toronto,2,rozell,M1C 2L1,..,on
46,Agincourt Rc,pool,toronto,31,glen watford,M1S 2B7,..,on
48,Agincourt Recreation Centre - Indoor Ice Pad ( 1),rink,toronto,27,glen watford,..,..,on
50,Alamosa Park,playground,toronto,11,alamosa,M2J 2N6,..,on
52,Albert Campbell Ci,pool,toronto,1550,sandhurst,M1V 1S6,..,on
53,Albert Campbell Square - Outdoor Artificial Ice Rink,rink,toronto,150,borough,..,..,on
54,Albert Crosland Parkette,playground,toronto,14,fuller,M6R 2C3,..,on
55,Albert Crosland Parkette,pool,toronto,14,fuller,M6R 2C3,..,on
59,Albion Arena - Indoor Ice Pad,rink,toronto,1501,albion,..,..,on
61,Albion Gardens Park,playground,toronto,23,deanlea,M9C 2Y2,..,on
65,Albion Pool & Health Club,pool,toronto,1485,albion,M9V 1B2,..,on
74,Alderwood Pool,pool,toronto,2,orianna,M8W 4Y1,..,on
76,Alex Duff Outdoor Pool,pool,toronto,779,crawford,M6G 3K4,..,on
77,Alexander Park,playground,toronto,33,alexander,M8V 2K7,..,on
81,Alexandra Park,pool,toronto,275,bathurst,M5T 2S4,..,on
89,Allan A. Lamport Stadium,stadium,toronto,1155,king,M6K 1000000000,..,on
106,Ames Park,playground,toronto,272,banbury,M3B 3C7,..,on
107,Amesbury Cc,gym,toronto,1507,lawrence,M6L 1A8,..,on
110,Amesbury Sports Complex,pool,toronto,155,culford,M6M 4K6,..,on
111,Amesbury Sports Complex,rink,toronto,155,culford,M6M 4K6,..,on
112,Amesbury Sports Complex - Indoor Ice Pad,rink,toronto,151,culford,..,..,on
114,Amos Waites Outdoor Pool,pool,toronto,2445,lake shore,M8V 1C5,..,on
115,Amos Waites Park,playground,toronto,2445,lake shore,M8V 1C5,..,on
119,Ancaster Cc,gym,toronto,41,ancaster,M3K 1S7,..,on
122,Ancaster Park,playground,toronto,43,ancaster,M3K 1S7,..,on
130,Angela James Arena - Indoor Ice Pad,rink,toronto,165,grenoble,..,..,on
142,Annette Crc,gym,toronto,333,annette,M6P 1B3,..,on
143,Annette Crc,pool,toronto,333,annette,M6P 1B3,..,on
144,Antibes Cc,gym,toronto,140,antibes,M2R 3J3,..,on
145,Antibes Cc,pool,toronto,140,antibes,M2R 3J3,..,on
154,Apted Park,playground,toronto,50,apted,M9L 2P3,..,on
200,Armour Heights Cc,gym,toronto,2140,avenue,M5M 4M7,..,on
203,Art Eggleton Park,playground,toronto,323,harbord,M6G 1G9,..,on
204,Art Eggleton Park,pool,toronto,323,harbord,M6G 1G9,..,on
238,Baird Park,playground,toronto,275,keele,M6P 2K4,..,on
240,Balmoral Park,playground,toronto,170,faywood,M3H 2Y1,..,on
241,Balmoral Park,splash pad,toronto,170,faywood,M3H 2Y1,..,on
245,Balmy Beach Cc,gym,toronto,14,pine,M4E 1L6,..,on
247,Bamburgh Park,playground,toronto,70,bamburgh,M1V 1S4,..,on
255,Banting Park,playground,toronto,40,banting,M3H 5T3,..,on
258,Barbara Ann Scott/College Park - Outdoor Artificial Ice Rink,rink,toronto,444,yonge,..,..,on
267,Battery Park,playground,toronto,781,lake shore,M5V 3T7,..,on
268,Battery Park,splash pad,toronto,781,lake shore,M5V 3T7,..,on
269,Baycrest Arena - Indoor Ice Pad,rink,toronto,160,neptune,..,..,on
270,Baycrest Park,playground,toronto,160,neptune,M6A 1K4,..,on
280,Bayview Arena,rink,toronto,3230,bayview,M2M 3R7,..,on
281,Bayview Arena - Indoor Ice Pad,rink,toronto,3240,bayview,..,..,on
