Index,Facility_Name,ODRSF_facility_type,Provider,Street_No,Street_Name,Postal_Code,City,Prov_Terr
177903,Village Of Yorkville Park,park,toronto,..,..,..,..,on
177909,Villaways Park,park,toronto,..,..,..,..,on
177914,Vimy Ridge Parkette,park,toronto,..,..,..,..,on
177925,Viola Desmond Park,park,toronto,..,..,..,..,on
177958,Vrandenburgh Park,park,toronto,..,..,..,..,on
177976,Wadsworth Park,park,toronto,..,..,..,..,on
178001,Wallace C. Swanek Park,park,toronto,..,..,..,..,on
178002,Wallace Emerson Park,park,toronto,..,..,..,..,on
178011,Walmer Rd Parkette,park,toronto,..,..,..,..,on
178025,Walter Saunders Memorial Park,park,toronto,..,..,..,..,on
178030,Wanita Park,park,toronto,..,..,..,..,on
178031,Wanless Park,park,toronto,..,..,..,..,on
178038,Warden Park,park,toronto,..,..,..,..,on
178041,Warden Woods Park,park,toronto,..,..,..,..,on
178049,Warner Park,park,toronto,..,..,..,..,on
178056,Warrender Park,park,toronto,..,..,..,..,on
178123,Wayne Parkette,park,toronto,..,..,..,..,on
178150,Wedgewood Park - Etobicoke,park,toronto,..,..,..,..,on
178151,Wedgewood Park - North York,park,toronto,..,..,..,..,on
178164,Wellesley - Magill Park,park,toronto,..,..,..,..,on
178165,Wellesley Park,park,toronto,..,..,..,..,on
178166,Wellesworth Park,park,toronto,..,..,..,..,on
178179,Wells Hill Park,park,toronto,..,..,..,..,on
178182,Wembley Parkette,park,toronto,..,..,..,..,on
178184,Wenderly Park,park,toronto,..,..,..,..,on
178199,West Birkdale Park,park,toronto,..,..,..,..,on
178211,West Deane Park,park,toronto,..,..,..,..,on
178213,West Don Parkland,park,toronto,..,..,..,..,on
178220,West Hill Park,park,toronto,..,..,..,..,on
178222,West Humber Parkland,park,toronto,..,..,..,..,on
178223,West Humber Parkland,park,toronto,..,..,..,..,on
178224,West Humber Parkland,park,toronto,..,..,..,..,on
178225,West Humber Parkland,park,toronto,..,..,..,..,on
178226,West Humber Parkland,park,toronto,..,..,..,..,on
178227,West Humber Parkland,park,toronto,..,..,..,..,on
178228,West Humber Parkland,park,toronto,..,..,..,..,on
178232,West Lodge Park,park,toronto,..,..,..,..,on
178253,West Rouge Park,park,toronto,..,..,..,..,on
178299,Westgrove Park,park,toronto,..,..,..,..,on
178305,Westlake Park,park,toronto,..,..,..,..,on
178319,Westmoreland Avenue Parkette,park,toronto,..,..,..,..,on
178328,Westmount Park,park,toronto,..,..,..,..,on
178330,Weston - St. Phillips Parkette,park,toronto,..,..,..,..,on
178331,Weston Lions Park,park,toronto,..,..,..,..,on
178336,Weston Village Park,park,toronto,..,..,..,..,on
178337,Weston Village Parkette,park,toronto,..,..,..,..,on
178349,Westway Park,park,toronto,..,..,..,..,on
178362,Westwood Park,park,toronto,..,..,..,..,on
178371,Wexford Park,park,toronto,..,..,..,..,on
