Index,Facility_Name,ODRSF_facility_type,Provider,Street_No,Street_Name,Postal_Code,City,Prov_Terr
2264,Hupfield Park,playground,toronto,85,hupfield,M1B 4S3,..,on
2272,Huron Street Playground,playground,toronto,495,huron,M5R 2R3,..,on
2273,Huron-Washington Playground,playground,toronto,420,huron,M5S 2G5,..,on
2353,Inglewood Hts Park,playground,toronto,91,allanford,M1T 2N6,..,on
2359,Irene Avenue Parkette,playground,toronto,760,shaw,M6G 3L9,..,on
2363,Iroquois Park,playground,toronto,295,chartland,M1S 3L7,..,on
2367,Irving W Chapley Cc,pool,toronto,205,wilmington,M3H 6B3,..,on
2370,Irving W. Chapley Community Centre - Outdoor Artificial Ice Rink,rink,toronto,205,wilmington,..,..,on
2378,Islington Cs,gym,toronto,44,cordova,M9A 2H5,..,on
2409,James S. Bell Cs,gym,toronto,90,thirty-first,M8W 3000000000,..,on
2418,Jean Sibelius Square,playground,toronto,50,kendal,M5R 1L8,..,on
2420,Jeff Healey (Woodford) Park,playground,toronto,16,daniels,M8Y 1L7,..,on
2423,Jenner Jean-Marie Cc,gym,toronto,48,thorncliffe park,M4H 1J7,..,on
2426,Jesse Ketchum Park,playground,toronto,1310,bay,M5R 2C4,..,on
2442,Jim Mcpherson Pk (Formerly Stamford Pk ),playground,toronto,1255,victoria park,M4B 1K9,..,on
2445,Jimmie Simpson Park,playground,toronto,870,queen,M1P 4N7,..,on
2447,Jimmie Simpson Park - Outdoor Artificial Ice Rink,rink,toronto,870,queen,..,..,on
2448,Jimmie Simpson Rc,gym,toronto,870,queen,M4M 3G9,..,on
2451,Joel Weeks Parkette,playground,toronto,5,matilda,M4M 1L9,..,on
2455,John Booth Memorial Arena - Indoor Ice Pad,rink,toronto,230,gosford,..,..,on
2462,John English Cs,gym,toronto,95,mimico,M8V 1R4,..,on
2464,John Innes Crc,gym,toronto,150,sherbourne,M5A 2R6,..,on
2472,John Tabor Park,playground,toronto,240,john tabor,M1B 2R4,..,on
2482,Jonathan Ashbridge Park,playground,toronto,20,woodward,M4L 2Y5,..,on
2483,Jonathan Ashbridge Park,pool,toronto,20,woodward,M4L 2Y5,..,on
2492,Joseph Bannon Park - Outdoor Artificial Ice Rink,rink,toronto,65,mary chapman,..,..,on
2493,Joseph Brant Senior Es,gym,toronto,270,manse,M1E 3V4,..,on
2494,Joseph Burr Tyrrell Park,playground,toronto,10,dalton,M5R 2Y7,..,on
2495,Joseph J. Piccininni Crc,gym,toronto,1369,st clair,M6E 1C5,..,on
2496,Joseph J. Piccininni Crc,pool,toronto,1369,st clair,M6E 1C5,..,on
2498,Joseph Workman Park,playground,toronto,90,shank,M6J 3T9,..,on
2500,Joshua Crockwright Parkette,playground,toronto,500,dawes,M4B 2G1,..,on
2502,Joyce Trimmer Park/Mcasphalt Pk,playground,toronto,8450,sheppard,M1B 5R4,..,on
2508,June Rowlands Park,playground,toronto,220,davisville,M5J 3J5,..,on
2520,Kay Park,playground,toronto,32,cathy jean,M9C 2Y2,..,on
2522,Keele Cc,gym,toronto,181,glenlake,M6P 4B6,..,on
2523,Keele-Mulock Parkette,playground,toronto,595,keele,M6N 300,..,on
2533,Kempton Howard Park,playground,toronto,86,blake,M4J 3C9,..,on
2535,Ken Cox Cc,gym,toronto,28,colonel samuel smith park,M8V 4B7,..,on
2543,Kennedy Park - Margdon Parkette,playground,toronto,40,margdon,M6P 3H4,..,on
2549,Kew Gardens,playground,toronto,2075,queen,M4L 1J1,..,on
2551,Kew Gardens - Outdoor Artificial Ice Rink,rink,toronto,2075,queen,..,..,on
2552,Kew-Balmy Beach,beach,toronto,2075,queen,M4L 1J1,..,on
2556,Kidstown,pool,toronto,3159,birchmount,M1W 3K3,..,on
2592,Kingston Road Playground,playground,toronto,137,kingston,M4L 1T3,..,on
2595,Kingsview Village Cs,gym,toronto,1,york,M9R 3C8,..,on
2621,Kirkwood Park,playground,toronto,25,kirkwood,M2L 2X7,..,on
2626,Kiwanis Outdoor Pool,pool,toronto,373,cedarvale,M4C 4K7,..,on
2637,Knob Hill Park,playground,toronto,..,brimley,M1H 2W5,..,on
