Index,Facility_Name,ODRSF_facility_type,Provider,Street_No,Street_Name,Postal_Code,City,Prov_Terr
29505,High Park Trail,trail,toronto,..,deer pen,..,..,on
29506,High Park Trail,trail,toronto,..,howard park,..,..,on
29507,High Park Trail,trail,toronto,..,the queensway,..,..,on
29508,High Park Trail,trail,toronto,..,colborne lodge,..,..,on
29509,High Park Trail,trail,toronto,..,colborne lodge,..,..,on
29510,High Park Trail,trail,toronto,..,howard park,..,..,on
29511,High Parktrail,trail,toronto,..,the queensway,..,..,on
29550,Highland Creek Trail,trail,toronto,..,morningside,..,..,on
29551,Highland Creek Trail,trail,toronto,..,old kingston,..,..,on
29552,Highland Creek Trail,trail,toronto,..,old kingston,..,..,on
29553,Highland Creek Trail,trail,toronto,..,highland creek,..,..,on
29554,Highland Creek Trail,trail,toronto,..,lawrence,..,..,on
29555,Highland Creek Trail,trail,toronto,..,celeste,..,..,on
29556,Highland Creek Trail,trail,toronto,..,greenvale,..,..,on
29557,Highland Creek Trail,trail,toronto,..,highland creek,..,..,on
29558,Highland Creek Trail,trail,toronto,..,beechgrove,..,..,on
29731,Humber Bay Park East Trail,trail,toronto,..,humber bay park,..,..,on
29732,Humber Bay Park East Trail,trail,toronto,..,lake shore,..,..,on
29733,Humber Bay Park East Trail,trail,toronto,..,humber bay park,..,..,on
29734,Humber Bay Park West Trail,trail,toronto,..,humber bay park,..,..,on
29735,Humber Bay Park West Trail,trail,toronto,..,lake shore,..,..,on
29736,Humber Creek Trail,trail,toronto,..,wincott,..,..,on
29737,Humber Creek Trail,trail,toronto,..,poynter,..,..,on
29738,Humber Creek Trail,trail,toronto,..,islington,..,..,on
29739,Humber Creek Trail,trail,toronto,..,mcmanus,..,..,on
29740,Humber Creek Trail,trail,toronto,..,the westway,..,..,on
29741,Humber Creek Trail,trail,toronto,..,dixington,..,..,on
29742,Humber Creek Trail,trail,toronto,..,royal york,..,..,on
29743,Humber Creek Trail,trail,toronto,..,emery,..,..,on
29744,Humber Creek Trail,trail,toronto,..,sun row,..,..,on
29745,Humber Creek Trail,trail,toronto,..,moline,..,..,on
29746,Humber River Trail,trail,toronto,..,kingsway,..,..,on
29747,Humber River Trail,trail,toronto,..,kingsway,..,..,on
29748,Humber River Trail,trail,toronto,..,hadrian,..,..,on
29749,Humber River Trail,trail,toronto,..,arcot,..,..,on
29750,Humber River Trail,trail,toronto,..,coral gable,..,..,on
29751,Humber River Trail,trail,toronto,..,weston,..,..,on
29752,Humber River Trail,trail,toronto,..,caulfield,..,..,on
29753,Humber River Trail,trail,toronto,..,ringway,..,..,on
29754,Humber River Trail,trail,toronto,..,albion,..,..,on
29755,Humber River Trail,trail,toronto,..,lawrence,..,..,on
29756,Humber River Trail,trail,toronto,..,lawrence,..,..,on
29757,Humber River Trail,trail,toronto,..,eglinton,..,..,on
29758,Humber River Trail,trail,toronto,..,scarlett,..,..,on
29759,Humber River Trail,trail,toronto,..,lundy,..,..,on
29760,Humber River Trail,trail,toronto,..,pasadena gnds,..,..,on
29761,Humber River Trail,trail,toronto,..,riverwood,..,..,on
29762,Humber River Trail,trail,toronto,..,riverwood,..,..,on
29763,Humber River Trail,trail,toronto,..,stephen,..,..,on
