Index,Facility_Name,ODRSF_facility_type,Provider,Street_No,Street_Name,Postal_Code,City,Prov_Terr
10378,Cummer Park - Outdoor Tennis Court ( 4),sports field,toronto,823,cummer,..,..,on
10406,David Crombie Park,sports field,toronto,131,the-esplanade,M1P 4N7,..,on
10410,Davisville Tennis Clubhouse,sports field,toronto,220,davisville,..,..,on
10412,Dean Park,sports field,toronto,80,dean park,M1B 2X3,..,on
10448,Densgrove Park,sports field,toronto,75,hiscock,M1G 1T1,..,on
10449,Densgrove Park,sports field,toronto,75,hiscock,M1G 1T1,..,on
10450,Dentonia Park Golf Course,sports field,york region,781,victoria park,M4C 5S8,scarborough,on
10451,Dentonia Park Sports Complex,sports field,toronto,80,thyra,M4C 5G5,..,on
10481,Dieppe Park,sports field,toronto,455,cosburn,M4J 2N2,..,on
10521,Don Valley Golf Course,sports field,york region,4200,yonge,M2P 1N9,toronto,on
10528,Donalda Club,sports field,york region,12,bushbury,M3A 2Z7,toronto,on
10536,Donwood Park,sports field,toronto,35,highbrook,M1P 3L2,..,on
10548,Dorset Park,sports field,toronto,5,glaive,M1P 1X6,..,on
10559,Dovercourt Park,sports field,toronto,155,bartlett,M6H 3G2,..,on
10560,Dovercourt Park - Outdoor Tennis Court ( 1),sports field,toronto,155,bartlett,..,..,on
10561,Dovercourt Park - Outdoor Tennis Court ( 2),sports field,toronto,155,bartlett,..,..,on
10590,Driftwood Park,sports field,toronto,44,tobermory,M3N 2R7,..,on
10636,Dunlace Park - Outdoor Tennis Court ( 1),sports field,toronto,28,dunlace,..,..,on
10637,Dunlace Park - Outdoor Tennis Court ( 2),sports field,toronto,28,dunlace,..,..,on
10638,Dunlace Park - Outdoor Tennis Court ( 3),sports field,toronto,28,dunlace,..,..,on
10639,Dunlace Park Tennis And Bocce Clubhouse,sports field,toronto,28,dunlace,..,..,on
10678,Earlscourt Park,sports field,toronto,1200,lansdowne,M6H 3Z8,..,on
10700,East Mall Park - Outdoor Tennis Court ( 1),sports field,toronto,355,the-east,..,..,on
10701,East Mall Park - Outdoor Tennis Court ( 2),sports field,toronto,355,the-east,..,..,on
10702,East Mall Park - Outdoor Tennis Court ( 3),sports field,toronto,355,the-east,..,..,on
10705,East Toronto Athletic Field,sports field,toronto,175,main,M1P 4N7,..,on
10706,East York Curling Club,rink,toronto,901,cosburn,M4C 2W7,..,on
10707,East York Tennis Club,sports field,toronto,115,roosevelt,..,..,on
10765,Edithvale Park - Tdsb,sports field,toronto,10,santa barbara,M2N 2C1,..,on
10788,Eglinton Flats - Outdoor Tennis Court ( 1),sports field,toronto,101,emmett,..,..,on
10789,Eglinton Flats - Outdoor Tennis Court ( 10),sports field,toronto,101,emmett,..,..,on
10790,Eglinton Flats - Outdoor Tennis Court ( 11),sports field,toronto,101,emmett,..,..,on
10791,Eglinton Flats - Outdoor Tennis Court ( 12),sports field,toronto,101,emmett,..,..,on
10792,Eglinton Flats - Outdoor Tennis Court ( 13),sports field,toronto,101,emmett,..,..,on
10793,Eglinton Flats - Outdoor Tennis Court ( 2),sports field,toronto,101,emmett,..,..,on
10794,Eglinton Flats - Outdoor Tennis Court ( 3),sports field,toronto,101,emmett,..,..,on
10795,Eglinton Flats - Outdoor Tennis Court ( 4),sports field,toronto,101,emmett,..,..,on
10796,Eglinton Flats - Outdoor Tennis Court ( 5),sports field,toronto,101,emmett,..,..,on
10797,Eglinton Flats - Outdoor Tennis Court ( 6),sports field,toronto,101,emmett,..,..,on
10798,Eglinton Flats - Outdoor Tennis Court ( 7),sports field,toronto,101,emmett,..,..,on
10799,Eglinton Flats - Outdoor Tennis Court ( 8),sports field,toronto,101,emmett,..,..,on
10800,Eglinton Flats - Outdoor Tennis Court ( 9),sports field,toronto,101,emmett,..,..,on
10801,Eglinton Park - Outdoor Tennis Court ( 1),sports field,toronto,200,eglinton,..,..,on
10802,Eglinton Park - Outdoor Tennis Court ( 2),sports field,toronto,200,eglinton,..,..,on
10817,Elizabeth Simcoe Park - Outdoor Tennis Court ( 1),sports field,toronto,180,sylvan,..,..,on
10818,Elizabeth Simcoe Park - Outdoor Tennis Court ( 2),sports field,toronto,180,sylvan,..,..,on
10819,Elizabeth Simcoe Park - Outdoor Tennis Court ( 3),sports field,toronto,180,sylvan,..,..,on
10820,Elizabeth Simcoe Park - Outdoor Tennis Court ( 4),sports field,toronto,180,sylvan,..,..,on
10875,Eringate Park,sports field,toronto,121,wellesworth,M9C 4R8,..,on
