Index,Facility_Name,ODRSF_facility_type,Provider,Street_No,Street_Name,Postal_Code,City,Prov_Terr
16891,Sorauren Park,sports field,toronto,289,sorauren,M6R 2G6,..,on
16940,Spenvalley Park,sports field,toronto,130,spenvalley,M3L 1Z4,..,on
17111,St. Andrews Park,sports field,toronto,11,knollwood,M2P 1Y4,..,on
17153,St. George's Golf And Country Club,sports field,york region,1668,islington,M9A 3M9,etobicoke,on
17260,Stan Wadlow Park,sports field,toronto,373,cedarvale,M4C 4K7,..,on
17261,Stan Wadlow Park,sports field,toronto,373,cedarvale,M4C 4K7,..,on
17265,Stanley Park - Outdoor Tennis Court ( 1),sports field,toronto,27,stanley,..,..,on
17266,Stanley Park - Outdoor Tennis Court ( 2),sports field,toronto,27,stanley,..,..,on
17267,Stanley Park - Outdoor Tennis Court ( 3),sports field,toronto,27,stanley,..,..,on
17268,Stanley Park (Etobicoke/York),sports field,toronto,25,stanley,M3N 1C2,..,on
17269,Stanley Park (Toronto & East York),sports field,toronto,845,king,M5V 1P1,..,on
17274,Stanley Park South - Toronto - Outdoor Tennis Court ( 1),sports field,toronto,700,wellington,..,..,on
17275,Stanley Park South - Toronto - Outdoor Tennis Court ( 2),sports field,toronto,700,wellington,..,..,on
17313,Stephen Leacock Park - Outdoor Tennis Court ( 1),sports field,toronto,2530,birchmount,..,..,on
17314,Stephen Leacock Park - Outdoor Tennis Court ( 2),sports field,toronto,2530,birchmount,..,..,on
17315,Stephen Leacock Park - Outdoor Tennis Court ( 3),sports field,toronto,2530,birchmount,..,..,on
17316,Stephen Leacock Park - Outdoor Tennis Court ( 4),sports field,toronto,2530,birchmount,..,..,on
17319,Stephenson Park,sports field,toronto,61,stephenson,M1P 4N7,..,on
17347,Strathburn Park,sports field,toronto,55,strathburn,M9C 2Y2,..,on
17348,Strathburn Park - Outdoor Tennis Court ( 1),sports field,toronto,55,strathburn,..,..,on
17349,Strathburn Park - Outdoor Tennis Court ( 2),sports field,toronto,55,strathburn,..,..,on
17402,Summerlea Park,sports field,toronto,2,arcot,M9W 2N6,..,on
17403,Summerlea Park - Outdoor Tennis Court ( 1),sports field,toronto,2,arcot,..,..,on
17404,Summerlea Park - Outdoor Tennis Court ( 2),sports field,toronto,2,arcot,..,..,on
17418,Sunnydale Acres Park,sports field,toronto,50,amoro,M9W 4S3,..,on
17419,Sunnydale Acres Park - Outdoor Tennis Court ( 1),sports field,toronto,50,amoro,..,..,on
17420,Sunnydale Acres Park - Outdoor Tennis Court ( 2),sports field,toronto,50,amoro,..,..,on
17421,Sunnydale Acres Park - Outdoor Tennis Court ( 3),sports field,toronto,50,amoro,..,..,on
17422,Sunnydale Acres Park - Outdoor Tennis Court ( 4),sports field,toronto,50,amoro,..,..,on
17423,Sunnylea Park - Outdoor Tennis Court ( 1),sports field,toronto,195,prince edward,..,..,on
17424,Sunnylea Park - Outdoor Tennis Court ( 2),sports field,toronto,195,prince edward,..,..,on
17446,Sweeney Park,sports field,toronto,110,sweeney,M4A 1T8,..,on
17447,Sweeney Park - Outdoor Tennis Court ( 1),sports field,toronto,110,sweeney,..,..,on
17448,Sweeney Park - Outdoor Tennis Court ( 2),sports field,toronto,110,sweeney,..,..,on
17449,Sweeney Park - Outdoor Tennis Court ( 3),sports field,toronto,110,sweeney,..,..,on
17458,Symington Avenue Playground - Outdoor Tennis Court ( 1),sports field,toronto,431,perth,..,..,on
17459,Symington Avenue Playground - Outdoor Tennis Court ( 2),sports field,toronto,431,perth,..,..,on
17466,Tam Heather Country Club - Outdoor Tennis Court ( 1),sports field,toronto,50,bonspiel,..,..,on
17467,Tam Heather Country Club - Outdoor Tennis Court ( 2),sports field,toronto,50,bonspiel,..,..,on
17468,Tam Heather Country Club - Outdoor Tennis Court ( 3),sports field,toronto,50,bonspiel,..,..,on
17469,Tam Heather Country Club - Outdoor Tennis Court ( 4),sports field,toronto,50,bonspiel,..,..,on
17470,Tam Heather Curling & Tennis Club,sports field,toronto,730,military,M1E 4P7,..,on
17471,Tam O'Shanter Municipal Golf Course,sports field,york region,2481,birchmount,M1T 2M6,toronto,on
17472,Tam O'Shanter Park,sports field,toronto,140,bonis,M1T 2V2,..,on
17705,The Toronto Hunt Club,sports field,york region,1355,kingston,M1N 1R1,scarborough,on
17719,Thomson Memorial Park,sports field,toronto,1005,brimley,M1P 300000000,..,on
17720,Thomson Memorial Park - Outdoor Tennis Court ( 1),sports field,toronto,1005,brimley,..,..,on
17721,Thomson Memorial Park - Outdoor Tennis Court ( 2),sports field,toronto,1005,brimley,..,..,on
17722,Thomson Memorial Park - Outdoor Tennis Court ( 3),sports field,toronto,1005,brimley,..,..,on
