Index,Facility_Name,ODRSF_facility_type,Provider,Street_No,Street_Name,Postal_Code,City,Prov_Terr
9710,Champlain Parkette - Outdoor Tennis Court ( 1),sports field,toronto,50,champlain,..,..,on
9711,Champlain Parkette - Outdoor Tennis Court ( 2),sports field,toronto,50,champlain,..,..,on
9730,Charlottetown Park,sports field,toronto,65,charlottetown,M1C 2C6,..,on
9731,Charlottetown Park - Outdoor Tennis Court ( 1),sports field,toronto,65,charlottetown,..,..,on
9732,Charlottetown Park - Outdoor Tennis Court ( 2),sports field,toronto,65,charlottetown,..,..,on
9733,Charlottetown Park - Outdoor Tennis Court ( 3),sports field,toronto,65,charlottetown,..,..,on
9734,Chartwell Park,sports field,toronto,99,kenhatch,M1S 4B3,..,on
9739,Cheltenham Park,sports field,toronto,43,mildenhall,M4N 3G7,..,on
9817,Churchill Heights Park,sports field,toronto,60,mountland,M1H 2W5,..,on
9842,Clairlea Park - Outdoor Tennis Court ( 1),sports field,toronto,45,fairfax,..,..,on
9843,Clairlea Park - Outdoor Tennis Court ( 2),sports field,toronto,45,fairfax,..,..,on
9847,Clanton Park - Outdoor Tennis Court ( 1),sports field,toronto,30,palm,..,..,on
9848,Clanton Park - Outdoor Tennis Court ( 2),sports field,toronto,30,palm,..,..,on
9849,Clanton Park - Outdoor Tennis Court ( 3),sports field,toronto,30,palm,..,..,on
9850,Clanton Park Tennis Clubhouse,sports field,toronto,30,palm,..,..,on
9899,Cliffwood Park,sports field,toronto,280,cliffwood,M2H 200000,..,on
9900,Cliffwood Park - Outdoor Tennis Court ( 1),sports field,toronto,280,cliffwood,..,..,on
9901,Cliffwood Park - Outdoor Tennis Court ( 2),sports field,toronto,280,cliffwood,..,..,on
9902,Cliffwood Park - Outdoor Tennis Court ( 3),sports field,toronto,280,cliffwood,..,..,on
9931,Cloverdale Park - Outdoor Tennis Court ( 1),sports field,toronto,85,shaver,..,..,on
9932,Cloverdale Park - Outdoor Tennis Court ( 2),sports field,toronto,85,shaver,..,..,on
9933,Cloverdale Park - Outdoor Tennis Court ( 3),sports field,toronto,85,shaver,..,..,on
10081,Clydesdale Park,sports field,toronto,116,clydesdale,M2J 3N2,..,on
10082,Clydesdale Park - Outdoor Tennis Court ( 1),sports field,toronto,116,clydesdale,..,..,on
10083,Clydesdale Park - Outdoor Tennis Court ( 2),sports field,toronto,116,clydesdale,..,..,on
10084,Clydesdale Park - Outdoor Tennis Court ( 3),sports field,toronto,116,clydesdale,..,..,on
10085,Clydesdale Park - Outdoor Tennis Court ( 4),sports field,toronto,116,clydesdale,..,..,on
10086,Clydesdale Park Tennis Clubhouse,sports field,toronto,116,clydesdale,..,..,on
10098,Coleman Park - Outdoor Tennis Court ( 1),sports field,toronto,19,coleman,..,..,on
10099,Coleman Park - Outdoor Tennis Court ( 2),sports field,toronto,19,coleman,..,..,on
10139,Confederation Park - Outdoor Tennis Court ( 1),sports field,toronto,250,dolly varden,..,..,on
10140,Confederation Park - Outdoor Tennis Court ( 2),sports field,toronto,250,dolly varden,..,..,on
10141,Confederation Park - Outdoor Tennis Court ( 3),sports field,toronto,250,dolly varden,..,..,on
10155,Connorvale Park,sports field,toronto,281,rimilton,M8W 4X6,..,on
10186,Coronation Park By Princess Gates,sports field,toronto,711,lake shore,M5V 3T7,..,on
10188,Coronation Park -West-E Keele & Eglinton,sports field,toronto,2700,eglinton,M6M 1V1,..,on
10200,Corvette Park,sports field,toronto,40,corvette,M1K 3G2,..,on
10201,Cosburn Park - Outdoor Tennis Court ( 1),sports field,toronto,115,roosevelt,..,..,on
10202,Cosburn Park - Outdoor Tennis Court ( 2),sports field,toronto,115,roosevelt,..,..,on
10203,Cosburn Park - Outdoor Tennis Court ( 3),sports field,toronto,115,roosevelt,..,..,on
10204,Cosburn Park - Outdoor Tennis Court ( 4),sports field,toronto,115,roosevelt,..,..,on
10205,Cosburn Park - Outdoor Tennis Court ( 5),sports field,toronto,115,roosevelt,..,..,on
10296,Cresthaven Park - Outdoor Tennis Court ( 1),sports field,toronto,37,cresthaven,..,..,on
10297,Cresthaven Park - Outdoor Tennis Court ( 2),sports field,toronto,37,cresthaven,..,..,on
10298,Cresthaven Park - Outdoor Tennis Court ( 3),sports field,toronto,37,cresthaven,..,..,on
10299,Cresthaven Park - Outdoor Tennis Court ( 4),sports field,toronto,37,cresthaven,..,..,on
10374,Cummer Park,sports field,toronto,6000,leslie,M2H 1J9,..,on
10375,Cummer Park - Outdoor Tennis Court ( 1),sports field,toronto,823,cummer,..,..,on
10376,Cummer Park - Outdoor Tennis Court ( 2),sports field,toronto,823,cummer,..,..,on
