Index,Facility_Name,ODRSF_facility_type,Provider,Street_No,Street_Name,Postal_Code,City,Prov_Terr
6234,Van Horne Park,playground,toronto,561,van horne,M2J 4S8,..,on
6236,Van Horne Park - Outdoor Artificial Ice Rink,rink,toronto,561,van horne,..,..,on
6247,Vaughan Road Academy,pool,toronto,529,vaughan,M6C 2R1,..,on
6252,Vermont Square,playground,toronto,819,palmerston,M6G 2R9,..,on
6253,Vermont Square,pool,toronto,819,palmerston,M6G 2R9,..,on
6262,Victoria Memorial Park,playground,toronto,10,niagara,M5V 1C2,..,on
6271,Victoria Park Ss,pool,toronto,15,wallingford,M3A 2V1,..,on
6278,Victoria Village Arena,arena,toronto,190,bermondsey,M4A 1Y1,..,on
6279,Victoria Village Arena - Indoor Ice Pad,rink,toronto,190,bermondsey,..,..,on
6283,Viewmount Park,playground,toronto,169,viewmount,M6B 1T5,..,on
6290,Villaways Park,playground,toronto,..,leslie,..,..,on
6296,Vine Avenue Playground,playground,toronto,200,vine,M6P 1V9,..,on
6297,Vine Avenue Playground,pool,toronto,200,vine,M6P 1V9,..,on
6304,Vradenburg Park,playground,toronto,40,vradenburg,M1T 1M6,..,on
6310,W.C. Swanek,playground,toronto,241,gary,M9N 2M9,..,on
6368,Wadsworth Park,playground,toronto,120,connolly,M6N 10000000,..,on
6369,Wadsworth Park,pool,toronto,120,connolly,M6N 10000000,..,on
6375,Wallace Emerson Cc,gym,toronto,1260,dufferin,M6H 4C3,..,on
6376,Wallace Emerson Cc,pool,toronto,1260,dufferin,M6H 4C3,..,on
6378,Wallace Emerson Park - Outdoor Artificial Ice Rink,rink,toronto,1260,dufferin,..,..,on
6387,Walter Saunders Memorial Park,playground,toronto,426,hopewell,M6E 2S4,..,on
6388,Walter Saunders Memorial Park,splash pad,toronto,426,hopewell,M6E 2S4,..,on
6390,Wanless Park,playground,toronto,250,wanless,M4N 1W5,..,on
6392,Warden Hilltop Community Centre,gym,toronto,25,mendelssohn,M1L 0G6,..,on
6394,Ward's Island Beach,beach,toronto,40,lakeshore,M5J 1X8,..,on
6428,Wedgewood Outdoor Pool,pool,toronto,17,swan,M9B 1V1,..,on
6429,Wedgewood Park,playground,toronto,15,swan,M2M 2H7,..,on
6430,Wedgewood Park - Outdoor Artificial Ice Rink,rink,toronto,15,swan,..,..,on
6435,Wellesley Cc,gym,toronto,495,sherbourne,M4X 1K7,..,on
6436,Wellesley Park,playground,toronto,500,wellesley,M4X 1H9,..,on
6437,Wellesley Park,pool,toronto,500,wellesley,M4X 1H9,..,on
6439,Wellesworth Park,playground,toronto,55,dixfield,M9C 4J2,..,on
6441,Wells Hill Park,playground,toronto,145,hilton,M5R 3000000000,..,on
6442,Wells Hill Park,pool,toronto,145,hilton,M5R 3000000000,..,on
6443,Wenderly Park,playground,toronto,89,wenderly,M6B 2P4,..,on
6446,West Deane Outdoor Pool,pool,toronto,19,sedgebrook,M9B 2X2,..,on
6449,West Deane Park - Outdoor Artificial Ice Rink,rink,toronto,400,martin grove,..,..,on
6450,West Hill Ci,pool,toronto,350,morningside,M1E 3G3,..,on
6453,West Humber Trail,playground,toronto,447,albion,M9W 3P7,..,on
6461,West Lodge Park,playground,toronto,165,lansdowne,M6K 2W1,..,on
6462,West Lodge Park,pool,toronto,165,lansdowne,M6K 2W1,..,on
6463,West Mall Outdoor Pool,pool,toronto,376,the-west,M9C 10000,..,on
6464,West Mall Rink - Outdoor Artificial Ice Rink ( 1),rink,toronto,370,the-west,..,..,on
6469,West Rouge Park,playground,toronto,240,rouge hills,M1C 2Z1,..,on
6486,Westgrove Outdoor Pool,pool,toronto,15,redgrave,M9R 3T9,..,on
6487,Westgrove Park,playground,toronto,15,redgrave,M9R 3T9,..,on
6488,Westgrove Rink - Outdoor Artificial Ice Rink,rink,toronto,15,redgrave,..,..,on
6493,Westmoreland Avenue Parkette,playground,toronto,760,dovercourt,M6H 2X2,..,on
6496,Westmount Outdoor Pool,pool,toronto,22,arcade,M1P 4N7,..,on
