Index,Facility_Name,ODRSF_facility_type,Provider,Street_No,Street_Name,Postal_Code,City,Prov_Terr
163539,Boswell Parkette,park,toronto,..,..,..,..,on
163546,Botany Hill Park,park,toronto,..,..,..,..,on
163558,Boulton Drive Parkette,park,toronto,..,..,..,..,on
163567,Bowan Court Parkette,park,toronto,..,..,..,..,on
163631,Bramber Woods Park,park,toronto,..,..,..,..,on
163639,Brandon Avenue Parkette,park,toronto,..,..,..,..,on
163648,Bratty Park,park,toronto,..,..,..,..,on
163649,Breadalbane Park,park,toronto,..,..,..,..,on
163658,Brendwin Circle Parkette,park,toronto,..,..,..,..,on
163679,Briar Crest Park,park,toronto,..,..,..,..,on
163680,Briar Hill - Chaplin Park,park,toronto,..,..,..,..,on
163725,Bridletowne Park,park,toronto,..,..,..,..,on
163728,Bridlewood Park,park,toronto,..,..,..,..,on
163746,Bristol Avenue Parkette East,park,toronto,..,..,..,..,on
163747,Bristol Avenue Parkette West,park,toronto,..,..,..,..,on
163759,Broadacres Park,park,toronto,..,..,..,..,on
163760,Broadlands Park,park,toronto,..,..,..,..,on
163764,Broadview Subway Station Parkette,park,toronto,..,..,..,..,on
163796,Brookbanks Park,park,toronto,..,..,..,..,on
163800,Brookdale Park,park,toronto,..,..,..,..,on
163805,Brookfield Parkette,park,toronto,..,..,..,..,on
163816,Brooks Road Park,park,toronto,..,..,..,..,on
163827,Brookwell Park,park,toronto,..,..,..,..,on
163840,Browns Line-Lakeshore Parkette,park,toronto,..,..,..,..,on
163851,Bruce Mackey Park,park,toronto,..,..,..,..,on
163881,Budapest Park,park,toronto,..,..,..,..,on
163885,Budd Sugarman Park,park,toronto,..,..,..,..,on
163925,Burnett Park,park,toronto,..,..,..,..,on
163929,Burnhamill Park,park,toronto,..,..,..,..,on
163942,Burrows Hall Park,park,toronto,..,..,..,..,on
163972,Buttonwood Park,park,toronto,..,..,..,..,on
163978,Byng Park,park,toronto,..,..,..,..,on
164008,Cairns Avenue Parkette,park,toronto,..,..,..,..,on
164020,Caledonia Park,park,toronto,..,..,..,..,on
164040,Camborne Parkette,park,toronto,..,..,..,..,on
164099,Canadian Ukrainian Memorial Park,park,toronto,..,..,..,..,on
164108,Candlebrook Crescent Park,park,toronto,..,..,..,..,on
164111,Canmore Park,park,toronto,..,..,..,..,on
164159,Capri Park,park,toronto,..,..,..,..,on
164190,Carlaw Avenue Parkette,park,toronto,..,..,..,..,on
164211,Carlton Park,park,toronto,..,..,..,..,on
164225,Carney Park,park,toronto,..,..,..,..,on
164256,Carsbrooke Park,park,toronto,..,..,..,..,on
164270,Cartwright School Park,park,toronto,..,..,..,..,on
164272,Casa Loma Parkette,park,toronto,..,..,..,..,on
164285,Cashman Park,park,toronto,..,..,..,..,on
164286,Cashman Park Island,park,toronto,..,..,..,..,on
164289,Cassandra Park,park,toronto,..,..,..,..,on
164304,Castlefield Parkette,park,toronto,..,..,..,..,on
