Index,Facility_Name,ODRSF_facility_type,Provider,Street_No,Street_Name,Postal_Code,City,Prov_Terr
170017,Lakeview Avenue Parkette,park,toronto,..,..,..,..,on
170043,Lambeth Crescent Parkette,park,toronto,..,..,..,..,on
170047,Lambton - Kingsway Park,park,toronto,..,..,..,..,on
170048,Lambton Park,park,toronto,..,..,..,..,on
170050,L'Amoreaux North Park,park,toronto,..,..,..,..,on
170057,Lamport Stadium Park,park,toronto,..,..,..,..,on
170091,Langford Parkette,park,toronto,..,..,..,..,on
170092,Langholm Park,park,toronto,..,..,..,..,on
170108,Lanyard Park,park,toronto,..,..,..,..,on
170114,Laredo Park,park,toronto,..,..,..,..,on
170122,Larratt Parkette,park,toronto,..,..,..,..,on
170126,Larry Sefton Park,park,toronto,..,..,..,..,on
170142,Laughlin Park,park,toronto,..,..,..,..,on
170147,Laura Ellis Park,park,toronto,..,..,..,..,on
170160,Laurentide Park,park,toronto,..,..,..,..,on
170173,Lavery Trail Park,park,toronto,..,..,..,..,on
170179,Lawren Harris Park,park,toronto,..,..,..,..,on
170181,Lawrence Heights Park,park,toronto,..,..,..,..,on
170185,Lawrence Park Ravine,park,toronto,..,..,..,..,on
170195,Lawton Parkette,park,toronto,..,..,..,..,on
170207,Leaside Park,park,toronto,..,..,..,..,on
170209,Leavenworth Parkette,park,toronto,..,..,..,..,on
170213,Ledbury Park,park,toronto,..,..,..,..,on
170216,Lee Centre Park,park,toronto,..,..,..,..,on
170217,Lee Lifeson Art Park,park,toronto,..,..,..,..,on
170260,Len Braithwaite Park,park,toronto,..,..,..,..,on
170263,Lenford Park,park,toronto,..,..,..,..,on
170270,Leonard Linton Park,park,toronto,..,..,..,..,on
170274,Les Anthony Parkette,park,toronto,..,..,..,..,on
170278,Lescon Park,park,toronto,..,..,..,..,on
170283,Leslie Grove Park,park,toronto,..,..,..,..,on
170287,Leslie Park,park,toronto,..,..,..,..,on
170291,Lessard Park,park,toronto,..,..,..,..,on
170314,Liberty Village Park,park,toronto,..,..,..,..,on
170323,Lillian H. Smith Park,park,toronto,..,..,..,..,on
170324,Lillian Park,park,toronto,..,..,..,..,on
170390,Lindylou Park,park,toronto,..,..,..,..,on
170396,Linkwood Lane Park,park,toronto,..,..,..,..,on
170397,Linkwood Lane Parkette,park,toronto,..,..,..,..,on
170404,Linus Park,park,toronto,..,..,..,..,on
170407,Lionel Conacher Park,park,toronto,..,..,..,..,on
170417,Lion's Gate Park,park,toronto,..,..,..,..,on
170441,Lisgar Park,park,toronto,..,..,..,..,on
170448,Lissom Park,park,toronto,..,..,..,..,on
170451,Lithuania Park,park,toronto,..,..,..,..,on
170464,Little Norway Park,park,toronto,..,..,..,..,on
170473,Little York Parkette,park,toronto,..,..,..,..,on
170475,Littles Park,park,toronto,..,..,..,..,on
170487,Livingstone Park,park,toronto,..,..,..,..,on
