Index,Facility_Name,ODRSF_facility_type,Provider,Street_No,Street_Name,Postal_Code,City,Prov_Terr
164313,Cataraqui Park,park,toronto,..,..,..,..,on
164316,Cathedral Bluffs Park,park,toronto,..,..,..,..,on
164348,Cayuga Park,park,toronto,..,..,..,..,on
164358,Cedar Brook Park,park,toronto,..,..,..,..,on
164382,Cedar Ridge Park,park,toronto,..,..,..,..,on
164398,Cedargrove Park,park,toronto,..,..,..,..,on
164404,Cedarvale Park,park,toronto,..,..,..,..,on
164472,Centennial Park - Etobicoke,park,toronto,..,..,..,..,on
164473,Centennial Park - Scarborough,park,toronto,..,..,..,..,on
164502,Central Services Park Yard,park,toronto,..,..,..,..,on
164509,Centre Park,park,toronto,..,..,..,..,on
164530,Chalkfarm Park,park,toronto,..,..,..,..,on
164548,Champlain Parkette,park,toronto,..,..,..,..,on
164559,Chandos Park North,park,toronto,..,..,..,..,on
164560,Chandos Park South,park,toronto,..,..,..,..,on
164574,Chaplin Parkette,park,toronto,..,..,..,..,on
164578,Chapman Valley Park,park,toronto,..,..,..,..,on
164593,Charles Brereton Park,park,toronto,..,..,..,..,on
164594,Charles Caccia Park,park,toronto,..,..,..,..,on
164596,Charles G. Williams Park,park,toronto,..,..,..,..,on
164603,Charles Sauriol Parkette,park,toronto,..,..,..,..,on
164605,Charles Street Parkette,park,toronto,..,..,..,..,on
164619,Charlotte Maher Park,park,toronto,..,..,..,..,on
164621,Charlottetown Park,park,toronto,..,..,..,..,on
164625,Charlton Park,park,toronto,..,..,..,..,on
164628,Chartland Park,park,toronto,..,..,..,..,on
164630,Chartwell Park,park,toronto,..,..,..,..,on
164634,Chater Court Park,park,toronto,..,..,..,..,on
164639,Chauncey - Islington Parkette,park,toronto,..,..,..,..,on
164659,Cheltenham Park,park,toronto,..,..,..,..,on
164669,Cherry Beach Clarke Beach Park,park,toronto,..,..,..,..,on
164680,Chester Le Park,park,toronto,..,..,..,..,on
164683,Chestnut Hills Park,park,toronto,..,..,..,..,on
164684,Chestnut Park Traffic Island,park,toronto,..,..,..,..,on
164715,Chipping Park,park,toronto,..,..,..,..,on
164725,Chorley Park,park,toronto,..,..,..,..,on
164731,Christ The King Park,park,toronto,..,..,..,..,on
164736,Christie Pits Park,park,toronto,..,..,..,..,on
164755,Churchill Heights Park,park,toronto,..,..,..,..,on
164798,Clairlea Park,park,toronto,..,..,..,..,on
164800,Clanton Park,park,toronto,..,..,..,..,on
164816,Clarence Square Park,park,toronto,..,..,..,..,on
164819,Clarinda Park,park,toronto,..,..,..,..,on
164862,Clement Road Parkette,park,toronto,..,..,..,..,on
164868,Cliff Lumsdon Park,park,toronto,..,..,..,..,on
164876,Cliffwood Park,park,toronto,..,..,..,..,on
164887,Close - Springhurst Parkette,park,toronto,..,..,..,..,on
164888,Close Avenue Parkette,park,toronto,..,..,..,..,on
164899,Clovercrest Parkette,park,toronto,..,..,..,..,on
