Index,Facility_Name,ODRSF_facility_type,Provider,Street_No,Street_Name,Postal_Code,City,Prov_Terr
12149,Iroquois Park - Outdoor Tennis Court ( 3),sports field,toronto,295,chartland,..,..,on
12152,Irving W. Chapley Park - Outdoor Tennis Court ( 1),sports field,toronto,205,wilmington,..,..,on
12153,Irving W. Chapley Park - Outdoor Tennis Court ( 2),sports field,toronto,205,wilmington,..,..,on
12158,Islington Golf Club,sports field,york region,45,riverbank,M9A 5B8,islington,on
12180,Jack Goodlad Centre,sports field,toronto,929,kennedy,M1K 200000000,..,on
12232,Jeff Healey (Woodford) Park,sports field,toronto,16,daniels,M8Y 1L7,..,on
12233,Jeff Healey Park - Outdoor Tennis Court ( 1),sports field,toronto,19,delroy,..,..,on
12234,Jeff Healey Park - Outdoor Tennis Court ( 2),sports field,toronto,19,delroy,..,..,on
12249,Jimmie Simpson Park,sports field,toronto,870,queen,M1P 4N7,..,on
12250,Jimmie Simpson Park - Outdoor Tennis Court ( 1),sports field,toronto,870,queen,..,..,on
12251,Jimmie Simpson Park - Outdoor Tennis Court ( 2),sports field,toronto,870,queen,..,..,on
12277,John Innes Crc,sports field,toronto,150,sherbourne,M5A 2R6,..,on
12290,John Tabor Park,sports field,toronto,240,john tabor,M1B 2R4,..,on
12301,Jonathan Ashbridge Park - Outdoor Tennis Court ( 1),sports field,toronto,1515,queen,..,..,on
12302,Jonathan Ashbridge Park - Outdoor Tennis Court ( 2),sports field,toronto,1515,queen,..,..,on
12322,June Rowlands Park,sports field,toronto,220,davisville,M5J 3J5,..,on
12323,June Rowlands Park - Outdoor Tennis Court ( 1),sports field,toronto,220,davisville,..,..,on
12324,June Rowlands Park - Outdoor Tennis Court ( 2),sports field,toronto,220,davisville,..,..,on
12325,June Rowlands Park - Outdoor Tennis Court ( 3),sports field,toronto,220,davisville,..,..,on
12326,June Rowlands Park - Outdoor Tennis Court ( 4),sports field,toronto,220,davisville,..,..,on
12327,June Rowlands Park - Outdoor Tennis Court ( 5),sports field,toronto,220,davisville,..,..,on
12328,June Rowlands Park - Outdoor Tennis Court ( 6),sports field,toronto,220,davisville,..,..,on
12366,Keelesdale North Park,sports field,toronto,2801,eglinton,M6M 5B4,..,on
12367,Keelesdale Park,sports field,toronto,2801,eglinton,M6M 5B4,..,on
12385,Kempton Howard Park,sports field,toronto,86,blake,M4J 3C9,..,on
12387,Ken Morrish Softball Complex,sports field,toronto,101,copperfield,M1E 5G7,..,on
12427,Kew Gardens,sports field,toronto,2075,queen,M4L 1J1,..,on
12428,Kew Gardens Tennis Club,sports field,toronto,2075,queen,..,..,on
12483,Kingsview Park - Outdoor Tennis Court ( 1),sports field,toronto,46,kingsview,..,..,on
12484,Kingsview Park - Outdoor Tennis Court ( 2),sports field,toronto,46,kingsview,..,..,on
12528,Kirkwood Park - Outdoor Tennis Court ( 1),sports field,toronto,25,kirkwood,..,..,on
12529,Kirkwood Park - Outdoor Tennis Court ( 2),sports field,toronto,25,kirkwood,..,..,on
12530,Kirkwood Park - Outdoor Tennis Court ( 3),sports field,toronto,25,kirkwood,..,..,on
12531,Kirkwood Park - Outdoor Tennis Court ( 4),sports field,toronto,25,kirkwood,..,..,on
12783,Laburnham Park - Outdoor Tennis Court ( 1),sports field,toronto,60,laburnham,..,..,on
12784,Laburnham Park - Outdoor Tennis Court ( 2),sports field,toronto,60,laburnham,..,..,on
12807,Lakeshore Boulevard Parklands - Outdoor Tennis Court ( 1),sports field,toronto,1389,lake shore,..,..,on
12808,Lakeshore Boulevard Parklands - Outdoor Tennis Court ( 2),sports field,toronto,1389,lake shore,..,..,on
12809,Lakeshore Boulevard Parklands - Outdoor Tennis Court ( 3),sports field,toronto,1389,lake shore,..,..,on
12810,Lakeshore Boulevard Parklands - Outdoor Tennis Court ( 4),sports field,toronto,1389,lake shore,..,..,on
12851,Lambton - Kingsway Park - Outdoor Tennis Court ( 1),sports field,toronto,37,marquis,..,..,on
12852,Lambton - Kingsway Park - Outdoor Tennis Court ( 2),sports field,toronto,37,marquis,..,..,on
12853,Lambton Golf And Country Club,sports field,york region,100,scarlett,M6N 4K2,toronto,on
12854,Lambton-Kingsway Park,sports field,toronto,525,prince edward,M8X 2M6,..,on
12855,L'Amoreaux Sports Centre,sports field,toronto,60,silver springs,M1V 1S4,..,on
12856,L'Amoreaux Sports Centre,sports field,toronto,60,silver springs,M1V 1S4,..,on
12858,L'Amoreaux Sports Complex - Outdoor Tennis Court ( 1),sports field,toronto,300,silver springs,..,..,on
12859,L'Amoreaux Sports Complex - Outdoor Tennis Court ( 2),sports field,toronto,300,silver springs,..,..,on
12860,L'Amoreaux Sports Complex - Outdoor Tennis Court ( 3),sports field,toronto,300,silver springs,..,..,on
