Index,Facility_Name,ODRSF_facility_type,Provider,Street_No,Street_Name,Postal_Code,City,Prov_Terr
178399,Whitehall Parkette,park,toronto,..,..,..,..,on
178414,Whitfield Parkette,park,toronto,..,..,..,..,on
178417,Whitney Park,park,toronto,..,..,..,..,on
178428,Wickson Trail Park,park,toronto,..,..,..,..,on
178429,Widdicombe Hill Park,park,toronto,..,..,..,..,on
178437,Wigmore Park,park,toronto,..,..,..,..,on
178467,Wilket Creek Park,park,toronto,..,..,..,..,on
178471,Willard Gardens Parkette,park,toronto,..,..,..,..,on
178474,Willesden Park,park,toronto,..,..,..,..,on
178532,Williamson Park Ravine,park,toronto,..,..,..,..,on
178538,Willis Blair Parkette,park,toronto,..,..,..,..,on
178561,Willowdale Park,park,toronto,..,..,..,..,on
178562,Willowfield Gardens Park,park,toronto,..,..,..,..,on
178571,Willowridge Park,park,toronto,..,..,..,..,on
178587,Wilson Heights Park,park,toronto,..,..,..,..,on
178588,Wilson Heights Parkette,park,toronto,..,..,..,..,on
178598,Wimbleton Road North Parkette,park,toronto,..,..,..,..,on
178599,Wimbleton Road South Parkette,park,toronto,..,..,..,..,on
178603,Winchester Park,park,toronto,..,..,..,..,on
178604,Winchester Square Park,park,toronto,..,..,..,..,on
178605,Wincott Park,park,toronto,..,..,..,..,on
178609,Windermere Avenue Parkette,park,toronto,..,..,..,..,on
178616,Windfields Park,park,toronto,..,..,..,..,on
178636,Windwood Park,park,toronto,..,..,..,..,on
178652,Winslow - Dalesford Parkette,park,toronto,..,..,..,..,on
178666,Wishing Well Park,park,toronto,..,..,..,..,on
178680,Withrow Park,park,toronto,..,..,..,..,on
178685,Woburn Park - North York,park,toronto,..,..,..,..,on
178687,Woburn Park - Scarborough,park,toronto,..,..,..,..,on
178699,Woodbine Beach Park,park,toronto,..,..,..,..,on
178704,Woodbine Park,park,toronto,..,..,..,..,on
178705,Woodborough Park,park,toronto,..,..,..,..,on
178718,Woodgrove Ravine Park,park,toronto,..,..,..,..,on
178750,Woodlands Park,park,toronto,..,..,..,..,on
178758,Woodrow Park,park,toronto,..,..,..,..,on
178768,Woodsworth Park,park,toronto,..,..,..,..,on
178769,Woodsworth Parkette,park,toronto,..,..,..,..,on
178774,Woolenscote Parkette,park,toronto,..,..,..,..,on
178775,Woolner Park,park,toronto,..,..,..,..,on
178796,Wychwood Barns Park,park,toronto,..,..,..,..,on
178797,Wychwood Parkette,park,toronto,..,..,..,..,on
178825,Yonge Boulevard Parkette,park,toronto,..,..,..,..,on
178835,York Mills Park,park,toronto,..,..,..,..,on
178836,York Mills Valley Park,park,toronto,..,..,..,..,on
178842,York Street Off Ramp Park,park,toronto,..,..,..,..,on
178843,Yorkdale Park,park,toronto,..,..,..,..,on
178844,Yorkminster Park,park,toronto,..,..,..,..,on
178845,Yorkminster Park Baptist Church Park,park,toronto,..,..,..,..,on
178851,Yorkwoods Park,park,toronto,..,..,..,..,on
