Index,Facility_Name,ODRSF_facility_type,Provider,Street_No,Street_Name,Postal_Code,City,Prov_Terr
11883,High Park,sports field,toronto,1873,bloor,M8Z 3R3,..,on
11884,High Park,sports field,toronto,1873,bloor,M8Z 3R3,..,on
11886,High Park - Outdoor Tennis Court ( 1),sports field,toronto,1873,bloor,..,..,on
11887,High Park - Outdoor Tennis Court ( 1),sports field,toronto,1873,bloor,..,..,on
11888,High Park - Outdoor Tennis Court ( 1),sports field,toronto,1873,bloor,..,..,on
11889,High Park - Outdoor Tennis Court ( 1),sports field,toronto,1873,bloor,..,..,on
11890,High Park - Outdoor Tennis Court ( 1),sports field,toronto,1873,bloor,..,..,on
11891,High Park - Outdoor Tennis Court ( 2),sports field,toronto,1873,bloor,..,..,on
11892,High Park - Outdoor Tennis Court ( 2),sports field,toronto,1873,bloor,..,..,on
11893,High Park - Outdoor Tennis Court ( 2),sports field,toronto,1873,bloor,..,..,on
11894,High Park - Outdoor Tennis Court ( 2),sports field,toronto,1873,bloor,..,..,on
11895,High Park - Outdoor Tennis Court ( 2),sports field,toronto,1873,bloor,..,..,on
11896,High Park - Outdoor Tennis Court ( 3),sports field,toronto,1873,bloor,..,..,on
11897,High Park - Outdoor Tennis Court ( 3),sports field,toronto,1873,bloor,..,..,on
11898,High Park - Outdoor Tennis Court ( 3),sports field,toronto,1873,bloor,..,..,on
11899,High Park - Outdoor Tennis Court ( 4),sports field,toronto,1873,bloor,..,..,on
11901,High Park Howard Park Tennis Clubhouse - Building 56,sports field,toronto,430,parkside,..,..,on
11906,Highland Creek Park,sports field,toronto,3500,ellesmere,M1C 3Z2,..,on
11908,Highland Heights Park,sports field,toronto,50,castle hill,M1T 2Y3,..,on
11914,Highview Park,sports field,toronto,150,highview,M1N 2H7,..,on
11922,Hillcrest Park,sports field,toronto,950,davenport,M6G 2B9,..,on
11923,Hillcrest Park - Outdoor Tennis Court ( 1),sports field,toronto,950,davenport,..,..,on
11924,Hillcrest Park - Outdoor Tennis Court ( 2),sports field,toronto,950,davenport,..,..,on
11925,Hillcrest Park - Outdoor Tennis Court ( 3),sports field,toronto,950,davenport,..,..,on
11926,Hillcrest Park - Outdoor Tennis Court ( 4),sports field,toronto,950,davenport,..,..,on
11938,Hobart Park,sports field,toronto,39,hobart,M2J 3J8,..,on
11940,Hockey Hall Of Fame,rink,toronto,30,yonge,M5E 1X8,..,on
12023,Horseley Hill Park,sports field,toronto,145,horseley hill,M1B 1W4,..,on
12045,Howard Talbot Park,sports field,toronto,635,eglinton,M5N 1C5,..,on
12046,Howard Talbot Park,sports field,toronto,635,eglinton,M5N 1C5,..,on
12047,Howard Talbot Park - Outdoor Tennis Court ( 1),sports field,toronto,635,eglinton,..,..,on
12048,Howard Talbot Park - Outdoor Tennis Court ( 2),sports field,toronto,635,eglinton,..,..,on
12057,Hullmar Park,sports field,toronto,97,hullmar,M3N 200,..,on
12058,Hullmar Park - Outdoor Tennis Court ( 1),sports field,toronto,97,hullmar,..,..,on
12059,Hullmar Park - Outdoor Tennis Court ( 2),sports field,toronto,97,hullmar,..,..,on
12060,Hullmar Park - Outdoor Tennis Court ( 3),sports field,toronto,97,hullmar,..,..,on
12061,Humber Valley Golf Club,sports field,york region,40,beattie,M9W 2M3,etobicoke,on
12062,Humber Valley Park - Outdoor Tennis Court ( 1),sports field,toronto,54,anglesey,..,..,on
12063,Humber Valley Park - Outdoor Tennis Court ( 2),sports field,toronto,54,anglesey,..,..,on
12064,Humber Valley Park - Outdoor Tennis Court ( 3),sports field,toronto,54,anglesey,..,..,on
12065,Humber Valley Park - Outdoor Tennis Court ( 4),sports field,toronto,54,anglesey,..,..,on
12071,Humberwood Cc,sports field,toronto,850,humberwood,M9W 7A6,..,on
12085,Huntsmill Park,sports field,toronto,201,huntsmill,M1W 2Y2,..,on
12086,Hupfield Park,sports field,toronto,85,hupfield,M1B 4S3,..,on
12120,Indian Line Park - Outdoor Tennis Court ( 1),sports field,toronto,655,humberwood,..,..,on
12121,Indian Line Park - Outdoor Tennis Court ( 2),sports field,toronto,655,humberwood,..,..,on
12134,Inglewood Hts Park,sports field,toronto,91,allanford,M1T 2N6,..,on
12146,Iroquois Park,sports field,toronto,295,chartland,M1S 3L7,..,on
12147,Iroquois Park - Outdoor Tennis Court ( 1),sports field,toronto,295,chartland,..,..,on
