Index,Facility_Name,ODRSF_facility_type,Provider,Street_No,Street_Name,Postal_Code,City,Prov_Terr
174850,Robertson Davies Park,park,toronto,..,..,..,..,on
174853,Robertson Parkette,park,toronto,..,..,..,..,on
174885,Rockford Park,park,toronto,..,..,..,..,on
174925,Roding Park,park,toronto,..,..,..,..,on
174950,Ron Watson Park,park,toronto,..,..,..,..,on
174959,Rosa And Spencer Clark Parkette,park,toronto,..,..,..,..,on
174965,Rose Valley Park,park,toronto,..,..,..,..,on
174966,Rosebank Park,park,toronto,..,..,..,..,on
174978,Rosedale Park,park,toronto,..,..,..,..,on
174983,Rosemary Parkette,park,toronto,..,..,..,..,on
174988,Rosemount Gardens Parkette,park,toronto,..,..,..,..,on
174993,Roseneath Park,park,toronto,..,..,..,..,on
174995,Rosethorn Park,park,toronto,..,..,..,..,on
175041,Rotary Peace Park,park,toronto,..,..,..,..,on
175047,Rouge Neighbourhood Park,park,toronto,..,..,..,..,on
175092,Rouge Park,trail,toronto,..,..,..,..,on
175093,Rouge Park,trail,toronto,..,..,..,..,on
175094,Rouge Park,trail,toronto,..,..,..,..,on
175095,Rouge Park,trail,toronto,..,..,..,..,on
175096,Rouge Park,trail,toronto,..,..,..,..,on
175097,Rouge Park,trail,toronto,..,..,..,..,on
175098,Rouge Park,trail,toronto,..,..,..,..,on
175099,Rouge Park,trail,toronto,..,..,..,..,on
175100,Rouge Park,trail,toronto,..,..,..,..,on
175101,Rouge Park,trail,toronto,..,..,..,..,on
175102,Rouge Park,trail,toronto,..,..,..,..,on
175103,Rouge Park,trail,toronto,..,..,..,..,on
175104,Rouge Park,trail,toronto,..,..,..,..,on
175105,Rouge Park,trail,toronto,..,..,..,..,on
175106,Rouge Park,trail,toronto,..,..,..,..,on
175107,Rouge Park,trail,toronto,..,..,..,..,on
175108,Rouge Park,trail,toronto,..,..,..,..,on
175109,Rouge Park,trail,toronto,..,..,..,..,on
175110,Rouge Park,trail,toronto,..,..,..,..,on
175111,Rouge Park,trail,toronto,..,..,..,..,on
175112,Rouge Park,trail,toronto,..,..,..,..,on
175113,Rouge Park,trail,toronto,..,..,..,..,on
175114,Rouge Park,trail,toronto,..,..,..,..,on
175115,Rouge Park,trail,toronto,..,..,..,..,on
175116,Rouge Park,trail,toronto,..,..,..,..,on
175117,Rouge Park,trail,toronto,..,..,..,..,on
175118,Rouge Park,trail,toronto,..,..,..,..,on
175119,Rouge Park,trail,toronto,..,..,..,..,on
175120,Rouge Park,trail,toronto,..,..,..,..,on
175122,Rouge Park,trail,toronto,..,..,..,..,on
175123,Rouge Park,trail,toronto,..,..,..,..,on
175124,Rouge Park,trail,toronto,..,..,..,..,on
175125,Rouge Park,trail,toronto,..,..,..,..,on
175126,Rouge Park,trail,toronto,..,..,..,..,on
