Index,Facility_Name,ODRSF_facility_type,Provider,Street_No,Street_Name,Postal_Code,City,Prov_Terr
2967,Lytton Park,playground,toronto,200,lytton,M4R 1L4,..,on
2971,Macgregor Playground,playground,toronto,346,lansdowne,M6H 3Y2,..,on
2980,Madelaine Park,playground,toronto,20,madelaine,M1L 2X4,..,on
2989,Magwood Park,playground,toronto,1,pasadena,M6S 4B3,..,on
2990,Maidavale Park,playground,toronto,1031,birchmount,M1K 1S1,..,on
2993,Main Square Cc,pool,toronto,245,main,M4C 5T3,..,on
3008,Malta Park,playground,toronto,3179,dundas,M6P 2A2,..,on
3017,Malvern Rc,gym,toronto,30,sewells,M1B 3G5,..,on
3018,Malvern Recreation Centre - Indoor Ice Pad ( 1),rink,toronto,30,sewells,..,..,on
3019,Manchester Park,playground,toronto,75,manchester,M8V 3V7,..,on
3020,Manhattan Park,playground,toronto,90,manhattan,M1B 3V8,..,on
3162,Maple Leaf Park,playground,toronto,320,culford,M1P 4N7,..,on
3177,Margaret Fairley Park,playground,toronto,100,brunswick,M5S 2M2,..,on
3178,Margaret Fairley Park,pool,toronto,100,brunswick,M5S 2M2,..,on
3183,Maria Street Parkette,playground,toronto,272,maria,M6P 1W4,..,on
3184,Marian Engel Park,playground,toronto,285,melita,M6G 3W7,..,on
3185,Marian Engel Park,pool,toronto,285,melita,M6G 3W7,..,on
3186,Marie Curtis Park,playground,toronto,2,forty second,M8W 3P2,..,on
3187,Marie Curtis Park,pool,toronto,2,forty second,M8W 3P2,..,on
3188,Marie Curtis Park East Beach,beach,toronto,2,forty second,..,..,on
3204,Martin Grove Gardens Park,playground,toronto,31,livingston,M9R 2H2,..,on
3214,Mary Mccormick Rc,gym,toronto,66,sheridan,M6K 2G9,..,on
3215,Mary Mccormick Rc,pool,toronto,66,sheridan,M6K 2G9,..,on
3217,Maryvale Park,playground,toronto,5,trestleside,M1R 5A9,..,on
3219,Masaryk Park,playground,toronto,212,cowan,M6K 2N6,..,on
3220,Masaryk Park,pool,toronto,212,cowan,M6K 2N6,..,on
3221,Masaryk-Cowan Crc,gym,toronto,220,cowan,M6K 2N6,..,on
3224,Masseygrove Park,playground,toronto,10,rampart,M9V 4L9,..,on
3228,Matty Eckler Crc,gym,toronto,953,gerrard,M4M 1Z4,..,on
3229,Matty Eckler Crc,pool,toronto,953,gerrard,M4M 1Z4,..,on
3231,Maurice Cody Cc,gym,toronto,181,cleveland,M4S 3C1,..,on
3250,Mccormick Arena - Indoor Ice Pad ( 1),rink,toronto,66,sheridan,..,..,on
3251,Mccormick Playground,playground,toronto,66,sheridan,M1P 4N7,..,on
3252,Mccowan District Park - Outdoor Artificial Ice Rink,rink,toronto,150,mccowan,..,..,on
3253,Mccowan District Park - Skate Trail,trail,toronto,150,mccowan,..,..,on
3254,Mccowan Park,playground,toronto,431,mccowan,M1J 1J1,..,on
3257,Mcdairmid Woods Park,playground,toronto,51,rubic,M1S 4Y2,..,on
3262,Mcgregor Park Community Centre - Indoor Ice Pad ( 1),rink,toronto,2231,lawrence,..,..,on
3283,Mcnicoll Cc,gym,toronto,155,mcnicoll,M2H 2C1,..,on
3284,Mcnicoll Park,playground,toronto,215,mcnicoll,M2H 2C4,..,on
3285,Mcnicoll Park,splash pad,toronto,215,mcnicoll,M2H 2C4,..,on
3307,Megan Park,playground,toronto,4667,kingston,M1E 2P8,..,on
3309,Mel Lastman Square - Outdoor Artificial Ice Rink,rink,toronto,5100,yonge,..,..,on
3311,Melody Park,playground,toronto,520,silverstone,M9V 3L5,..,on
3318,Memorial Pool & Health Club,pool,toronto,44,montgomery,M8X 1Z4,..,on
3362,Milliken Park (Scarborough),playground,toronto,5555,steeles,M9L 1S7,..,on
3363,Milliken Park (Scarborough),splash pad,toronto,5555,steeles,M9L 1S7,..,on
3364,Milliken Park Crc,gym,toronto,4325,mccowan,M1V 4P1,..,on
3371,Mimico Arena - Indoor Ice Pad,rink,toronto,31,drummond,..,..,on
