Index,Facility_Name,ODRSF_facility_type,Provider,Street_No,Street_Name,Postal_Code,City,Prov_Terr
5270,Runnymede Ci,pool,toronto,569,jane,M6S 4A3,..,on
5271,Runnymede Park,playground,toronto,221,ryding,M6N 1H6,..,on
5283,Ryerson Community Park,rink,toronto,50,gould,M1P 4N7,..,on
5284,Ryerson Community Park - Outdoor Artificial Ice Rink,rink,toronto,25,gould,..,..,on
5286,S.A.D.R.A. Park West,playground,toronto,425,old weston,M6N 3A9,..,on
5287,S.H. Armstrong Crc,gym,toronto,56,woodfield,M4L 2W6,..,on
5288,S.H. Armstrong Crc,pool,toronto,56,woodfield,M4L 2W6,..,on
5291,Sackville Playground,playground,toronto,420,king,M5A 1L4,..,on
5292,Sackville Playground,pool,toronto,420,king,M5A 1L4,..,on
5304,Salem Parkette,playground,toronto,9,salem,M6H 3C2,..,on
5306,Sally Bird Park,playground,toronto,194,brunswick,M5S 2M5,..,on
5323,Sandown Park,playground,toronto,50,natal,M1N 3V3,..,on
5324,Sandown Park,splash pad,toronto,50,natal,M1N 3V3,..,on
5329,Sanwood Park,playground,toronto,20,sanwood,M1V 3L7,..,on
5330,Sanwood Park,splash pad,toronto,20,sanwood,M1V 3L7,..,on
5341,Scadding Court Cc,pool,toronto,707,dundas,M5T 2W6,..,on
5343,Scarborough Civic Centre,rink,toronto,150,borough,M1P 4N7,..,on
5344,Scarborough Gardens Arena - Indoor Ice Pad,rink,toronto,95,birchmount,..,..,on
5346,Scarborough Village Recreation Centre - Indoor Ice Pad,rink,toronto,3600,kingston,..,..,on
5347,Scarden Park,playground,toronto,1649,warden,M1R 5B3,..,on
5348,Scarlett Heights Park,playground,toronto,24,fontenay,M9A 4W7,..,on
5365,Seneca Hill Park,playground,toronto,620,seneca hill,M1P 4N7,..,on
5366,Seneca Village Cc,gym,toronto,1700,finch,M2J 4X8,..,on
5381,Seven Oaks Park,playground,toronto,372,military,M1E 400,..,on
5393,Shaun Blu Rose Park,playground,toronto,30,empringham,M1B 3Y9,..,on
5403,Sheppard East Park,playground,toronto,229,glendora,M2N 2W6,..,on
5404,Sherbourne Common,rink,toronto,61,dockside,M5A 1B4,..,on
5415,Sherwood Park,playground,toronto,190,sherwood,M4P 2A8,..,on
5422,Shoreham Park,playground,toronto,2,shoreham,M3N 1T4,..,on
5423,Shoreham Park,splash pad,toronto,2,shoreham,M3N 1T4,..,on
5434,Silvercreek Park,playground,toronto,44,strathdee,M9R 1A4,..,on
5435,Silverstone Park,playground,toronto,174,silverstone,M9C 2Y2,..,on
5438,Silverview Park,playground,toronto,23,silverview,M2M 2B4,..,on
5439,Silvio Colella Park,playground,toronto,20,laura,M3N 1Z6,..,on
5445,Sir Adam Beck Rink,rink,toronto,10,orianna,M8W 2C2,..,on
5446,Sir Adam Beck Rink - Outdoor Artificial Ice Rink,rink,toronto,55,eltham,..,..,on
5448,Sir Casimir Gzowski Park,playground,toronto,1751,lake shore,M6S 5A3,..,on
5449,Sir Casimir Gzowski Park,pool,toronto,1751,lake shore,M6S 5A3,..,on
5453,Sir Oliver Mowat Ci,pool,toronto,5400,lawrence,M1C 2C6,..,on
5454,Sir Wilfrid Laurier Ci,pool,toronto,145,guildwood,MIE 1P5,..,on
5618,Skymark Park,playground,toronto,3500,don mills,M2H 3N3,..,on
5624,Smithfield Outdoor Pool,pool,toronto,175,mount olive,M9V 2000,..,on
5625,Smithfield Park,playground,toronto,173,mount olive,M9V 2000,..,on
5627,Smithwood Park,playground,toronto,79,smithwood,M9B 4R9,..,on
5631,Snider Parkette,playground,toronto,2,lytton,M4R 1L1,..,on
5683,Spencer/Cowen Parkette,playground,toronto,80,spencer,M6K 2J6,..,on
5684,Spencer/Cowen Parkette,pool,toronto,80,spencer,M6K 2J6,..,on
5685,Spenvalley Park,playground,toronto,130,spenvalley,M3L 1Z4,..,on
5881,St Antoine Daniel Catholic School,gym,toronto,160,finch,M2N 2J2,..,on
