Index,Facility_Name,ODRSF_facility_type,Provider,Street_No,Street_Name,Postal_Code,City,Prov_Terr
166355,Ellesmere Reservoir Park,park,toronto,..,..,..,..,on
166365,Ellison Park,park,toronto,..,..,..,..,on
166367,Elm Park - North York,park,toronto,..,..,..,..,on
166368,Elm Park - York,park,toronto,..,..,..,..,on
166374,Elmbrook Park,park,toronto,..,..,..,..,on
166376,Elmcrest Park,park,toronto,..,..,..,..,on
166401,Elward - Mansion Parkette,park,toronto,..,..,..,..,on
166415,Emery Parks Yard,park,toronto,..,..,..,..,on
166428,Empress Parkette,park,toronto,..,..,..,..,on
166430,Enfield Park,park,toronto,..,..,..,..,on
166453,Erica Stark Parkette,park,toronto,..,..,..,..,on
166465,Eringate Park,park,toronto,..,..,..,..,on
166478,Erwin Krickhahn Park,park,toronto,..,..,..,..,on
166523,Esther Lorrie Park,park,toronto,..,..,..,..,on
166524,Etienne Brule Park,park,toronto,..,..,..,..,on
166526,Etobicoke Valley Park,park,toronto,..,..,..,..,on
166531,Euclid Avenue Parkette,park,toronto,..,..,..,..,on
166553,Everett Park,park,toronto,..,..,..,..,on
166556,Evergreen Gardens Park,park,toronto,..,..,..,..,on
166569,Exbury Park,park,toronto,..,..,..,..,on
166586,Fairbank Memorial Park,park,toronto,..,..,..,..,on
166592,Fairchild Parkette,park,toronto,..,..,..,..,on
166601,Fairfield Park,park,toronto,..,..,..,..,on
166604,Fairford Avenue Parkette,park,toronto,..,..,..,..,on
166605,Fairglen Park,park,toronto,..,..,..,..,on
166613,Fairhaven Park,park,toronto,..,..,..,..,on
166618,Fairmeadow Parkette,park,toronto,..,..,..,..,on
166631,Fairmount Park,park,toronto,..,..,..,..,on
166676,Falstaff Park,park,toronto,..,..,..,..,on
166677,Fanfare Park,park,toronto,..,..,..,..,on
166682,Farmcrest Parkette,park,toronto,..,..,..,..,on
166688,Farquharson Park,park,toronto,..,..,..,..,on
166696,Father Caulfield Park,park,toronto,..,..,..,..,on
166729,Fennimore Park,park,toronto,..,..,..,..,on
166730,Fenside Park,park,toronto,..,..,..,..,on
166744,Fergy Brown Park,park,toronto,..,..,..,..,on
166764,Ferrand Drive Park,park,toronto,..,..,..,..,on
166770,Festival Park,park,toronto,..,..,..,..,on
166779,Fieldway Parkette,park,toronto,..,..,..,..,on
166792,Finch - Islington Park,park,toronto,..,..,..,..,on
166794,Finch Parkette,park,toronto,..,..,..,..,on
166803,Fiona Nelson Parkette,park,toronto,..,..,..,..,on
166826,Firgrove Park,park,toronto,..,..,..,..,on
166856,Flagstaff Park,park,toronto,..,..,..,..,on
166876,Flemingdon Park,park,toronto,..,..,..,..,on
166877,Flemingdon Park Golf Club,park,toronto,..,..,..,..,on
166878,Flemington Park,park,toronto,..,..,..,..,on
166886,Flora Voisey Park,park,toronto,..,..,..,..,on
166890,Florence Gell Park,park,toronto,..,..,..,..,on
