Index,Facility_Name,ODRSF_facility_type,Provider,Street_No,Street_Name,Postal_Code,City,Prov_Terr
174150,Princess Street Park,park,toronto,..,..,..,..,on
174163,Progress Avenue Park,park,toronto,..,..,..,..,on
174248,Queens Avenue Parkette,park,toronto,..,..,..,..,on
174255,Queen's Park,park,toronto,..,..,..,..,on
174261,Queensland Park,park,toronto,..,..,..,..,on
174267,Queensway Park,park,toronto,..,..,..,..,on
174289,R.V. Burgess Park,park,toronto,..,..,..,..,on
174330,Rainbow Park,park,toronto,..,..,..,..,on
174344,Rambert Crescent Parkette,park,toronto,..,..,..,..,on
174356,Ramsden Park,park,toronto,..,..,..,..,on
174358,Ranchdale Park,park,toronto,..,..,..,..,on
174372,Randy Padmore Park,park,toronto,..,..,..,..,on
174373,Ranee Park,park,toronto,..,..,..,..,on
174403,Ravenscrest Park,park,toronto,..,..,..,..,on
174435,Raymore Park,park,toronto,..,..,..,..,on
174450,Rean Drive Parkette,park,toronto,..,..,..,..,on
174451,Rean Park,park,toronto,..,..,..,..,on
174476,Redgrave Park,park,toronto,..,..,..,..,on
174488,Redpath Avenue Parkette,park,toronto,..,..,..,..,on
174496,Rees Street Parkette,park,toronto,..,..,..,..,on
174514,Regan Park,park,toronto,..,..,..,..,on
174521,Regent Park,park,toronto,..,..,..,..,on
174522,Regent Park - Etobicoke,park,toronto,..,..,..,..,on
174523,Regent Park Athletic Grounds,park,toronto,..,..,..,..,on
174524,Regent Park Boulevard Park,park,toronto,..,..,..,..,on
174525,Regent Park Community Centre - Building Grounds,park,toronto,..,..,..,..,on
174530,Regents Park,park,toronto,..,..,..,..,on
174536,Reid Manor Park,park,toronto,..,..,..,..,on
174540,Rekai Family Parkette,park,toronto,..,..,..,..,on
174554,Rennie Park,park,toronto,..,..,..,..,on
174563,Rexdale Park,park,toronto,..,..,..,..,on
174564,Rexlington Park,park,toronto,..,..,..,..,on
174571,Ricardo Parkette,park,toronto,..,..,..,..,on
174599,Richmond Park,park,toronto,..,..,..,..,on
174601,Richview Park,park,toronto,..,..,..,..,on
174627,Ridge Park,park,toronto,..,..,..,..,on
174628,Ridge Park Retention Pond,park,toronto,..,..,..,..,on
174642,Ridgewood Parkette,park,toronto,..,..,..,..,on
174654,Ring Road Linear Park,park,toronto,..,..,..,..,on
174657,Rippleton Park,park,toronto,..,..,..,..,on
174662,Rita Cox Park,park,toronto,..,..,..,..,on
174664,Ritchie Avenue Parkette,park,toronto,..,..,..,..,on
174723,Riverdale Park East,park,toronto,..,..,..,..,on
174724,Riverdale Park West,park,toronto,..,..,..,..,on
174755,Riverlea Park,park,toronto,..,..,..,..,on
174773,Riverside Drive Parkette,park,toronto,..,..,..,..,on
174819,Robert Bateman Parkette,park,toronto,..,..,..,..,on
174828,Robert Grasett Park,park,toronto,..,..,..,..,on
174833,Robert Hicks Park,park,toronto,..,..,..,..,on
