Index,Facility_Name,ODRSF_facility_type,Provider,Street_No,Street_Name,Postal_Code,City,Prov_Terr
18230,West Deane Park,sports field,toronto,400,martingrove,M9B 4M1,..,on
18231,West Deane Park - Outdoor Tennis Court ( 1),sports field,toronto,19,sedgebrook,..,..,on
18232,West Deane Park - Outdoor Tennis Court ( 2),sports field,toronto,19,sedgebrook,..,..,on
18233,West Deane Park - Outdoor Tennis Court ( 3),sports field,toronto,19,sedgebrook,..,..,on
18234,West Deane Park - Outdoor Tennis Court ( 4),sports field,toronto,19,sedgebrook,..,..,on
18236,West Hill Park,sports field,toronto,145,hilton,M1H 3W5,..,on
18238,West Mall - Outdoor Tennis Court ( 1),sports field,toronto,370,the-west,..,..,on
18239,West Mall - Outdoor Tennis Court ( 2),sports field,toronto,370,the-west,..,..,on
18240,West Mall - Outdoor Tennis Court ( 3),sports field,toronto,370,the-west,..,..,on
18247,West Rouge Park - Outdoor Tennis Court ( 1),sports field,toronto,270,rouge hills,..,..,on
18248,West Rouge Park - Outdoor Tennis Court ( 2),sports field,toronto,270,rouge hills,..,..,on
18249,West Rouge Park - Outdoor Tennis Court ( 3),sports field,toronto,270,rouge hills,..,..,on
18271,Westgrove Park - Outdoor Tennis Court ( 1),sports field,toronto,15,redgrave,..,..,on
18272,Westgrove Park - Outdoor Tennis Court ( 2),sports field,toronto,15,redgrave,..,..,on
18273,Westgrove Park - Outdoor Tennis Court ( 3),sports field,toronto,15,redgrave,..,..,on
18292,Westmount Park - Outdoor Tennis Court ( 1),sports field,toronto,22,arcade,..,..,on
18293,Westmount Park - Outdoor Tennis Court ( 2),sports field,toronto,22,arcade,..,..,on
18294,Westmount Park - Outdoor Tennis Court ( 3),sports field,toronto,22,arcade,..,..,on
18296,Weston Golf And Country Club,sports field,york region,50,phillip's,M9P 2N6,etobicoke,on
18297,Weston Lions Park,sports field,toronto,2125,lawrence,M9N 1H7,..,on
18298,Weston Lions Park,sports field,toronto,2125,lawrence,M9N 1H7,..,on
18299,Weston Lions Park - Outdoor Tennis Court ( 1),sports field,toronto,2125,lawrence,..,..,on
18300,Weston Lions Park - Outdoor Tennis Court ( 2),sports field,toronto,2125,lawrence,..,..,on
18301,Weston Lions Park - Outdoor Tennis Court ( 3),sports field,toronto,2125,lawrence,..,..,on
18302,Weston Lions Park - Outdoor Tennis Court ( 4),sports field,toronto,2125,lawrence,..,..,on
18313,Westway Park,sports field,toronto,175,the-westway,M9P 2C2,..,on
18314,Westway Park - Outdoor Tennis Court ( 1),sports field,toronto,175,the-westway,..,..,on
18315,Westway Park - Outdoor Tennis Court ( 2),sports field,toronto,175,the-westway,..,..,on
18316,Westway Park - Outdoor Tennis Court ( 3),sports field,toronto,175,the-westway,..,..,on
18317,Westway Park - Outdoor Tennis Court ( 4),sports field,toronto,175,the-westway,..,..,on
18323,Wexford Park,sports field,toronto,55,elm bank,M1B 1J4,..,on
18363,Wigmore Park,sports field,toronto,106,wigmore,M4A 200000000,..,on
18406,Willowdale Park - Outdoor Tennis Court ( 1),sports field,toronto,75,hollywood,..,..,on
18407,Willowdale Park - Outdoor Tennis Court ( 2),sports field,toronto,75,hollywood,..,..,on
18408,Willowdale Park - Outdoor Tennis Court ( 3),sports field,toronto,75,hollywood,..,..,on
18409,Willowdale Park - Outdoor Tennis Court ( 4),sports field,toronto,75,hollywood,..,..,on
18474,Wishing Well Park,sports field,toronto,1801,pharmacy,M1T 1H7,..,on
18475,Wishing Well Park,sports field,toronto,1801,pharmacy,M1T 1H7,..,on
18476,Wishing Well Park - Outdoor Tennis Court ( 1),sports field,toronto,1700,pharmacy,..,..,on
18477,Wishing Well Park - Outdoor Tennis Court ( 2),sports field,toronto,1700,pharmacy,..,..,on
18478,Wishing Well Park - Outdoor Tennis Court ( 3),sports field,toronto,1700,pharmacy,..,..,on
18479,Withrow Park,sports field,toronto,725,logan,M4K 3B9,..,on
18480,Withrow Park,sports field,toronto,725,logan,M4K 3B9,..,on
18481,Withrow Park - Outdoor Tennis Court ( 1),sports field,toronto,725,logan,..,..,on
18482,Withrow Park - Outdoor Tennis Court ( 2),sports field,toronto,725,logan,..,..,on
18550,Woodsworth Park,sports field,toronto,122,sedgemount,M1H 1X9,..,on
18559,Wychwood Tennis Club,sports field,toronto,950,davenport,..,..,on
18583,York Mills Park (Irving Paisley Park),sports field,toronto,2539,bayview,M2L 1B1,..,on
18584,York Mills Valley Park - Outdoor Tennis Court ( 1),sports field,toronto,3865,yonge,..,..,on
