Index,Facility_Name,ODRSF_facility_type,Provider,Street_No,Street_Name,Postal_Code,City,Prov_Terr
175400,Sadler Parkette,park,toronto,..,..,..,..,on
175428,Salem Parkette,park,toronto,..,..,..,..,on
175435,Sally Bird Park,park,toronto,..,..,..,..,on
175466,Sanctuary Park Cemetery,park,toronto,..,..,..,..,on
175468,Sand Beach Road Parkette,park,toronto,..,..,..,..,on
175480,Sandover Park,park,toronto,..,..,..,..,on
175481,Sandown Park,park,toronto,..,..,..,..,on
175500,Sandy Bruce Park,park,toronto,..,..,..,..,on
175510,Santa Chiara Parkette,park,toronto,..,..,..,..,on
175514,Sanwood Park,park,toronto,..,..,..,..,on
175528,Saulter Street Parkette,park,toronto,..,..,..,..,on
175529,Saunders Crescent Parkette,park,toronto,..,..,..,..,on
175545,Scarboro Crescent Park,park,toronto,..,..,..,..,on
175546,Scarborough Bluffs Park,park,toronto,..,..,..,..,on
175547,Scarborough Heights Park,park,toronto,..,..,..,..,on
175549,Scarborough Village Park,park,toronto,..,..,..,..,on
175550,Scarden Park,park,toronto,..,..,..,..,on
175551,Scarlett - St. Clair Parkette,park,toronto,..,..,..,..,on
175552,Scarlett Bridge Parkette,park,toronto,..,..,..,..,on
175553,Scarlett Heights Park,park,toronto,..,..,..,..,on
175554,Scarlett Mills Park,park,toronto,..,..,..,..,on
175608,Scotia Parkette,park,toronto,..,..,..,..,on
175653,Seasons Park,park,toronto,..,..,..,..,on
175654,Seaton Park,park,toronto,..,..,..,..,on
175664,Secor Memorial Park,park,toronto,..,..,..,..,on
175684,Senator Peter Bosa Parkette,park,toronto,..,..,..,..,on
175689,Seneca Hill Park,park,toronto,..,..,..,..,on
175690,Seneca Village Park,park,toronto,..,..,..,..,on
175692,Sentinel Park,park,toronto,..,..,..,..,on
175697,Serena Gundy Park,park,toronto,..,..,..,..,on
175701,Sergeant Ryan Russell Parkette,park,toronto,..,..,..,..,on
175715,Seven Oaks Park,park,toronto,..,..,..,..,on
175718,Severn Creek Park,park,toronto,..,..,..,..,on
175721,Seville Avenue Parkette,park,toronto,..,..,..,..,on
175741,Shallmar Parkette,park,toronto,..,..,..,..,on
175770,"Shawn ""Blu"" Rose Park",park,toronto,..,..,..,..,on
175771,Shawnee Park,park,toronto,..,..,..,..,on
175805,Sheppard East Park,park,toronto,..,..,..,..,on
175810,Shepton Way Park,park,toronto,..,..,..,..,on
175846,Sherwood Park,park,toronto,..,..,..,..,on
175866,Shoreham Park,park,toronto,..,..,..,..,on
175897,Silver Creek Park,park,toronto,..,..,..,..,on
175911,Silverhill Park,park,toronto,..,..,..,..,on
175917,Silverstone Park,park,toronto,..,..,..,..,on
175919,Silverthorn Parkette,park,toronto,..,..,..,..,on
175920,Silverview Park,park,toronto,..,..,..,..,on
175926,Silvio Colella Park,park,toronto,..,..,..,..,on
175929,Simcoe Park,park,toronto,..,..,..,..,on
175959,Sir Adam Beck Park,park,toronto,..,..,..,..,on
