Index,Facility_Name,ODRSF_facility_type,Provider,Street_No,Street_Name,Postal_Code,City,Prov_Terr
4812,Prince Of Wales Park,playground,toronto,1,third,M8V 2X5,..,on
4813,Prince Of Wales Park,pool,toronto,1,third,M8V 2X5,..,on
4815,Prince Of Wales Rink - Outdoor Artificial Ice Rink,rink,toronto,1,third,..,..,on
4817,Princess Anne Park,playground,toronto,18,prince george,M9A 1Y1,..,on
4821,Princess Margaret Park,playground,toronto,1297,kipling,M9B 3N7,..,on
4823,Princess Street Parkette,playground,toronto,15,scadding,M5A 4000000000,..,on
5041,Queensway Rink - Outdoor Artificial Ice Rink,rink,toronto,8,avon park,..,..,on
5047,R.H. King Ci,pool,toronto,3800,st-clair,M1M 1V3,..,on
5054,R.V. Burgess Park,playground,toronto,48,thorncliffe park,M4H 1J7,..,on
5055,R.V. Burgess Park,splash pad,toronto,48,thorncliffe park,M4H 1J7,..,on
5067,Ramsden Park,playground,toronto,1020,yonge,M4W 2K1,..,on
5069,Ramsden Park - Outdoor Artificial Ice Rink,rink,toronto,1020,yonge,..,..,on
5071,Ranee Park,playground,toronto,326,ranee,M6A 1N8,..,on
5074,Ravina Gardens,playground,toronto,290,clendenan,M1P 4N7,..,on
5093,Redpath Avenue Parkette,playground,toronto,130,erskine,M4P 1Z2,..,on
5098,Regent Park - Outdoor Artificial Ice Rink,rink,toronto,480,shuter,..,..,on
5099,Regent Park (North Park),playground,toronto,620,dundas,M1P 4N7,..,on
5100,Regent Park (North Park),rink,toronto,620,dundas,M1P 4N7,..,on
5101,Regent Park (South Park),rink,toronto,..,parliament,M1P 4N7,..,on
5102,Regent Park North Rc,gym,toronto,415,gerrard,M5A 2H4,..,on
5103,Regent Park South Crc,gym,toronto,203,sackville,M5A 3H1,..,on
5104,Regents Park,playground,toronto,115,westbourne,M1L 2Y7,..,on
5111,Rennie Park - Outdoor Artificial Ice Rink,rink,toronto,1,rennie,..,..,on
5112,Rennie Park - Skate Trail,trail,toronto,1,rennie,..,..,on
5116,Rexdale Park,playground,toronto,143,elmhurst,M9W 2K5,..,on
5119,Rexlington Park,playground,toronto,70,bergamot,M9W 1V9,..,on
5124,Richmond Gardens Outdoor Pool,pool,toronto,44,strathdee,M9R 1A4,..,on
5129,Richmond Park,playground,toronto,75,richmond park,M5C 1N9,..,on
5133,Richview Reservoir,playground,toronto,59,clement,M9R 1Y5,..,on
5149,Ritchie Avenue Parkette,playground,toronto,77,ritchie,M6R 2K1,..,on
5168,Rivercrest Rink - Outdoor Artificial Ice Rink,rink,toronto,30,harefield,..,..,on
5169,Riverdale Park East,playground,toronto,550,broadview,M4K 2P1,..,on
5176,Riverlea Park,playground,toronto,919,scarlett,M9P 2V3,..,on
5193,Robert Street Playground,playground,toronto,60,sussex,M1P 4N7,..,on
5199,Rockford Park,playground,toronto,70,rockford,M2R 3A7,..,on
5206,Roding Cc,gym,toronto,600,roding,M3M 2A5,..,on
5207,Roding Cc,pool,toronto,600,roding,M3M 2A5,..,on
5208,Roding Community Centre - Indoor Ice Pad,rink,toronto,600,roding,..,..,on
5210,Roehampton Park,playground,toronto,550,roehampton,M4P 1S5,..,on
5216,Rosebank Park,playground,toronto,1081,progress,M1B 5Z6,..,on
5219,Rosedale Park,playground,toronto,20,scholfield,M9W 2Y3,..,on
5220,Rosedale Park - Outdoor Artificial Ice Rink,rink,toronto,20,scholfield,..,..,on
5226,Rosethorn Park,playground,toronto,26,remington,M9C 2Y2,..,on
5236,Rotary Outdoor Pool/Wading Pool,pool,toronto,25,eleventh,M8V 3G2,..,on
5238,Rotary Peace Park,playground,toronto,25,eleventh,M8V 3G3,..,on
5242,Rouge Beach,beach,toronto,195,rouge hills,M1C 2Y9,..,on
5258,Royalcrest Park,playground,toronto,50,cabernet,M9V 5A3,..,on
5259,Royalcrest Rink - Outdoor Artificial Ice Rink,rink,toronto,50,cabernet,..,..,on
5260,Roywood Park,playground,toronto,2,roywood,M3A 2C6,..,on
