Index,Facility_Name,ODRSF_facility_type,Provider,Street_No,Street_Name,Postal_Code,City,Prov_Terr
24484,Colonel Sam Smith Park Trail,trail,toronto,..,lake shore,..,..,on
24492,Colony Park Trail,trail,toronto,..,furness,..,..,on
24493,Colony Park Trail,trail,toronto,..,martin grove,..,..,on
24704,Coronation Park Trail,trail,toronto,..,lake shore,..,..,on
25288,David A Balfour Park Trail,trail,toronto,..,rosehill,..,..,on
25289,David A Balfour Park Trail,trail,toronto,..,summerhill,..,..,on
25290,David A Balfour Park Trail,trail,toronto,..,summerhill gnds,..,..,on
25291,David Balfour Park Trail,trail,toronto,..,avoca,..,..,on
25625,Dixon Park Trail,trail,toronto,..,windsor,..,..,on
25626,Dixon Park Trail,trail,toronto,..,dixon,..,..,on
25996,Dufferin Grove Park Trail,trail,toronto,..,sylvan,..,..,on
25997,Dufferin Grove Park Trail,trail,toronto,..,dufferin park,..,..,on
26035,Duncairn Park Trail,trail,toronto,..,duncairn,..,..,on
26036,Duncairn Park Trail,trail,toronto,..,berkinshaw,..,..,on
26037,Duncairn Park Trail,trail,toronto,..,duncairn,..,..,on
26038,Duncairn Park Trail,trail,toronto,..,the donway,..,..,on
26039,Duncairn Park Trail,trail,toronto,..,langbourne,..,..,on
26040,Duncairn Park Trail,trail,toronto,..,langbourne,..,..,on
26041,Duncairn Park Trail,trail,toronto,..,don mills,..,..,on
26042,Duncairn Park Trail,trail,toronto,..,langbourne,..,..,on
26043,Duncairn Park Trail,trail,toronto,..,langbourne,..,..,on
26044,Duncan Creek Trail,trail,toronto,..,aspenwood,..,..,on
26045,Duncan Creek Trail,trail,toronto,..,cliffwood,..,..,on
26046,Duncan Creek Trail,trail,toronto,..,cliffwood,..,..,on
26047,Duncan Creek Trail,trail,toronto,..,loganberry,..,..,on
26048,Duncan Creek Trail,trail,toronto,..,don mills,..,..,on
26049,Duncan Creek Trail,trail,toronto,..,wellesbourne,..,..,on
26050,Duncan Creek Trail,trail,toronto,..,cliffwood,..,..,on
26051,Duncan Creek Trail,trail,toronto,..,francine,..,..,on
26134,Earl Bales Park Trail,trail,toronto,..,raoul wallenberg,..,..,on
26135,Earl Bales Park Trail,trail,toronto,..,westgate,..,..,on
26136,Earl Bales Park Trail,trail,toronto,..,timberlane,..,..,on
26142,Easrt Humber River Trail,trail,toronto,..,rowntree,..,..,on
26146,East Don River Trail,trail,toronto,..,wynford heights,..,..,on
26147,East Don River Trail,trail,toronto,..,bayview,..,..,on
26148,East Don River Trail,trail,toronto,..,clarinda,..,..,on
26149,East Don River Trail,trail,toronto,..,adra viillaway,..,..,on
26150,East Don River Trail,trail,toronto,..,alamosa,..,..,on
26151,East Don River Trail,trail,toronto,..,finch,..,..,on
26152,East Don River Trail,trail,toronto,..,codeco,..,..,on
26153,East Don River Trail,trail,toronto,..,bayberry,..,..,on
26154,East Don River Trail,trail,toronto,..,glentworth,..,..,on
26155,East Don River Trail,trail,toronto,..,van hrone,..,..,on
26156,East Don River Trail,trail,toronto,..,sheppard,..,..,on
26157,East Don River Trail,trail,toronto,..,grove,..,..,on
26158,East Don River Trail,trail,toronto,..,nymark,..,..,on
26159,East Don River Trail,trail,toronto,..,bestview,..,..,on
26160,East Don River Trail,trail,toronto,..,garnier,..,..,on
26161,East Don River Trail,trail,toronto,..,bellbury,..,..,on
