Index,Facility_Name,ODRSF_facility_type,Provider,Street_No,Street_Name,Postal_Code,City,Prov_Terr
162386,Anniversary Park,park,toronto,..,..,..,..,on
162391,Anson Park,park,toronto,..,..,..,..,on
162397,Antibes Park,park,toronto,..,..,..,..,on
162430,Apted Park,park,toronto,..,..,..,..,on
162458,Arc Park,park,toronto,..,..,..,..,on
162490,Arlington Parkette,park,toronto,..,..,..,..,on
162534,Arsandco Park,park,toronto,..,..,..,..,on
162535,Art Eggleton Park,park,toronto,..,..,..,..,on
162543,Arthur Dyson Parkette,park,toronto,..,..,..,..,on
162570,Ashbridges Bay Park,park,toronto,..,..,..,..,on
162590,Ashtonbee Reservoir Park,park,toronto,..,..,..,..,on
162602,Asquith Green Park,park,toronto,..,..,..,..,on
162617,Asterfield - Plumrose Blvd Parkette,park,toronto,..,..,..,..,on
162633,Atria Park,park,toronto,..,..,..,..,on
162637,Attwell Drive Parkland,park,toronto,..,..,..,..,on
162645,Audrelane Park,park,toronto,..,..,..,..,on
162674,Avalon Parkette,park,toronto,..,..,..,..,on
162682,Avondale Park,park,toronto,..,..,..,..,on
162687,Avonshire Park,park,toronto,..,..,..,..,on
162688,Avonshire Parkette,park,toronto,..,..,..,..,on
162689,Avro Park,park,toronto,..,..,..,..,on
162703,Baird Park,park,toronto,..,..,..,..,on
162710,Bakerton Parkette,park,toronto,..,..,..,..,on
162714,Balcarra Park,park,toronto,..,..,..,..,on
162736,Balmoral Park,park,toronto,..,..,..,..,on
162737,Balmy Beach Park,park,toronto,..,..,..,..,on
162746,Bamburgh Park,park,toronto,..,..,..,..,on
162748,Banbury Park,park,toronto,..,..,..,..,on
162768,Banting Park,park,toronto,..,..,..,..,on
162774,Barbara Hall Park,park,toronto,..,..,..,..,on
162788,Barkdene Park,park,toronto,..,..,..,..,on
162819,Bartlett Parkette,park,toronto,..,..,..,..,on
162820,Bartley Park,park,toronto,..,..,..,..,on
162830,Basswood Parkette,park,toronto,..,..,..,..,on
162843,Bathurst - Wilson Parkette,park,toronto,..,..,..,..,on
162844,Bathurst Lawn Memorial Park,park,toronto,..,..,..,..,on
162847,Bathurst Quay Parks Yard - Building Grounds,park,toronto,..,..,..,..,on
162864,Baycrest Park,park,toronto,..,..,..,..,on
162868,Bayhampton Parkette,park,toronto,..,..,..,..,on
162880,Bayview - York Mills Parkette,park,toronto,..,..,..,..,on
162881,Bayview Arena Park,park,toronto,..,..,..,..,on
162898,Bayview Parkette,park,toronto,..,..,..,..,on
162906,Bayview Village Park,park,toronto,..,..,..,..,on
162937,Beach Skatepark,park,toronto,..,..,..,..,on
162941,Beaches Park,park,toronto,..,..,..,..,on
162963,Beaty Avenue Parkette,park,toronto,..,..,..,..,on
162964,Beaty Boulevard Parkette,park,toronto,..,..,..,..,on
162976,Beaumonde Heights Park,park,toronto,..,..,..,..,on
162982,Beaumont Park,park,toronto,..,..,..,..,on
