Index,Facility_Name,ODRSF_facility_type,Provider,Street_No,Street_Name,Postal_Code,City,Prov_Terr
22018,Black Creek Trail,trail,toronto,..,langholm,..,..,on
22019,Black Creek Trail,trail,toronto,..,grandravine,..,..,on
22020,Black Creek Trail,trail,toronto,..,finch,..,..,on
22021,Black Creek Trail,trail,toronto,..,finch,..,..,on
22022,Black Creek Trail,trail,toronto,..,tobermory,..,..,on
22023,Black Creek Trail,trail,toronto,..,shoreham,..,..,on
22024,Black Creek Trail,trail,toronto,..,mayall,..,..,on
22025,Black Creek Trail,trail,toronto,..,gravenhurst,..,..,on
22026,Black Creek Trail,trail,toronto,..,heavitree,..,..,on
22027,Black Creek Trail,trail,toronto,..,heathrow,..,..,on
22028,Black Creek Trail,trail,toronto,..,jane,..,..,on
22029,Black Creek Trail,trail,toronto,..,driftwood,..,..,on
22030,Black Creek Trail,trail,toronto,..,exbury,..,..,on
22031,Black Creek Trail,trail,toronto,..,london green,..,..,on
22046,Blackcreek Trail,trail,toronto,..,stilecroft,..,..,on
22149,Bluffer's Park Trail,trail,toronto,..,brimley,..,..,on
22150,Bluffer's Park Trail,trail,toronto,..,undercliff,..,..,on
22159,Blythwood Ravine Park Trail,trail,toronto,..,alexander muir,..,..,on
22160,Blythwood Ravine Park Trail,trail,toronto,..,strathgowan,..,..,on
22161,Blythwood Ravine Park Trail,trail,toronto,..,glengowan,..,..,on
22313,Bond Park Trail,trail,toronto,..,duncairn,..,..,on
22314,Bond Park Trail,trail,toronto,..,bond,..,..,on
22760,Brookbanks Park Trail,trail,toronto,..,brooksbanks,..,..,on
22761,Brookbanks Park Trail,trail,toronto,..,brooksbanks,..,..,on
22762,Brookbanks Park Trail,trail,toronto,..,valley woods,..,..,on
22763,Brookbanks Park Trail,trail,toronto,..,brookbanks,..,..,on
22764,Brookbanks Park Trail,trail,toronto,..,gailong,..,..,on
22765,Brookbanks Park Trail,trail,toronto,..,treadgold,..,..,on
22766,Brookbanks Park Trail,trail,toronto,..,cassandra,..,..,on
22767,Brookbanks Park Trail,trail,toronto,..,brookbanks,..,..,on
22768,Brookbanks Park Trail,trail,toronto,..,combermere,..,..,on
22769,Brookbanks Park Trail,trail,toronto,..,brookbanks,..,..,on
22770,Brookbanks Park Trail,trail,toronto,..,parkwoods village,..,..,on
22771,Brookbanks Parktrail,trail,toronto,..,valley woods,..,..,on
22777,Brooksbanks Park Trail,trail,toronto,..,cassandra,..,..,on
22778,Brooksbanks Park Trail,trail,toronto,..,yorkmills,..,..,on
23084,Burnett Park Trail,trail,toronto,..,burnett,..,..,on
23085,Burnett Park Trail,trail,toronto,..,don river,..,..,on
23354,Canoe Landing Park Trail,trail,toronto,..,dan leckie,..,..,on
23355,Canoe Landing Park Trail,trail,toronto,..,lake shore,..,..,on
23356,Canoe Landing Park Trail,trail,toronto,..,fort york,..,..,on
24021,Chipping Greenbelt Trail,trail,toronto,..,chipping,..,..,on
24022,Chipping Grenbelt Trail,trail,toronto,..,footbridge,..,..,on
24477,Colonel Sam Smith Park Trail,trail,toronto,..,colonel samuel smith park,..,..,on
24478,Colonel Sam Smith Park Trail,trail,toronto,..,lake shore,..,..,on
24479,Colonel Sam Smith Park Trail,trail,toronto,..,colonel samuel smith park,..,..,on
24480,Colonel Sam Smith Park Trail,trail,toronto,..,..,..,..,on
24481,Colonel Sam Smith Park Trail,trail,toronto,..,thirteenth,..,..,on
24482,Colonel Sam Smith Park Trail,trail,toronto,..,lake,..,..,on
