Index,Facility_Name,ODRSF_facility_type,Provider,Street_No,Street_Name,Postal_Code,City,Prov_Terr
36100,Lower Don River Trail,trail,toronto,..,queen,..,..,on
36101,Lower Don River Trail,trail,toronto,..,beechwood,..,..,on
36102,Lower Don River Trail,trail,toronto,..,parliament,..,..,on
36103,Lower Don River Trail,trail,toronto,..,gravel,..,..,on
36104,Lower Don River Trail,trail,toronto,..,pottery,..,..,on
36105,Lower Don Rivertrail,trail,toronto,..,cherry,..,..,on
43047,Martin Goodman Trail,trail,toronto,..,lake shore,..,..,on
43048,Martin Goodman Trail,trail,toronto,..,cherry,..,..,on
43049,Martin Goodman Trail,trail,toronto,..,cherry,..,..,on
43050,Martin Goodman Trail,trail,toronto,..,tommy thompson pk,..,..,on
43051,Martin Goodman Trail,trail,toronto,..,lesile,..,..,on
43052,Martin Goodman Trail,trail,toronto,..,lee,..,..,on
43053,Martin Goodman Trail,trail,toronto,..,regatta,..,..,on
43054,Martin Goodman Trail,trail,toronto,..,lake shore,..,..,on
43055,Martin Goodman Trail,trail,toronto,..,the queensway,..,..,on
43056,Martin Goodman Trail,trail,toronto,..,net,..,..,on
43057,Martin Goodman Trail,trail,toronto,..,jameson,..,..,on
43058,Martin Goodman Trail,trail,toronto,..,prince edward island,..,..,on
43059,Martin Goodman Trail,trail,toronto,..,remembrance,..,..,on
43060,Martin Goodman Trail,trail,toronto,..,stadium,..,..,on
43061,Martin Goodman Trail,trail,toronto,..,lake shore,..,..,on
43062,Martin Goodman Trail,trail,toronto,..,ontario,..,..,on
43063,Martin Goodman Trail,trail,toronto,..,cherry,..,..,on
43064,Martin Goodman Trail,trail,toronto,..,lake shore,..,..,on
43065,Martin Goodman Trail,trail,toronto,..,lake shore,..,..,on
43066,Martin Goodman Trail,trail,toronto,..,british-columbia,..,..,on
43067,Martin Goodman Trail,trail,toronto,..,lesile,..,..,on
43068,Martin Goodman Trail,trail,toronto,..,ashbridges bay park,..,..,on
43069,Martin Goodmantrail,trail,toronto,..,saskatchewan,..,..,on
43070,Martin Goodmantrail,trail,toronto,..,yukon,..,..,on
43147,Mccowan District Park Trail,trail,toronto,..,eglinton,..,..,on
43148,Mccowan District Park Trail,trail,toronto,..,adanac,..,..,on
43149,Mccowan District Park Trail,trail,toronto,..,mccowan,..,..,on
43150,Mccowan District Park Trail,trail,toronto,..,mccowan,..,..,on
43151,Mccowan District Park Trail,trail,toronto,..,brimley,..,..,on
43152,Mccowan District Park Trail,trail,toronto,..,bellamy,..,..,on
43153,Mccowan District Park Trail,trail,toronto,..,skagway,..,..,on
43419,Meadowvale Road Trail,trail,toronto,..,zoo,..,..,on
43420,Meadowvale Road Trail,trail,toronto,..,zoo,..,..,on
43421,Meadowvale Road Trail,trail,toronto,..,sheppard,..,..,on
43422,Meadowvale Road Trail,trail,toronto,..,finch,..,..,on
43423,Meadowvale Road Trail,trail,toronto,..,meadowvale,..,..,on
43424,Meadowvale Road Trail,trail,toronto,..,hedge end,..,..,on
43978,Milliken Park Trail,trail,toronto,..,alton towers,..,..,on
43979,Millliken Park Trail,trail,toronto,..,alton towers,..,..,on
44037,Mimico Creek Trail,trail,toronto,..,bonnyview,..,..,on
44038,Mimico Creek Trail,trail,toronto,..,bloor,..,..,on
44039,Mimico Creek Trail,trail,toronto,..,dundas,..,..,on
44040,Mimico Creek Trail,trail,toronto,..,wingrove hill,..,..,on
