Index,Facility_Name,ODRSF_facility_type,Provider,Street_No,Street_Name,Postal_Code,City,Prov_Terr
165507,Dane Parkette,park,toronto,..,..,..,..,on
165509,Danforth - Birchmount Parkette,park,toronto,..,..,..,..,on
165510,Danforth Gardens Park,park,toronto,..,..,..,..,on
165538,Davenport Village Park,park,toronto,..,..,..,..,on
165540,David A. Balfour Park,park,toronto,..,..,..,..,on
165545,David Crombie Park,park,toronto,..,..,..,..,on
165574,De Grassi St Parkette,park,toronto,..,..,..,..,on
165575,De Havilland 'Mossie' Park,park,toronto,..,..,..,..,on
165586,Dean Park,park,toronto,..,..,..,..,on
165589,Dean Park Walkway,park,toronto,..,..,..,..,on
165592,Deanvar Parkette,park,toronto,..,..,..,..,on
165594,Debell Lane Parkette,park,toronto,..,..,..,..,on
165600,Deekshill Park,park,toronto,..,..,..,..,on
165621,Delahaye Parkette,park,toronto,..,..,..,..,on
165630,Dell Park,park,toronto,..,..,..,..,on
165633,Delma Park,park,toronto,..,..,..,..,on
165634,Delo Park,park,toronto,..,..,..,..,on
165648,Dempsey Park,park,toronto,..,..,..,..,on
165658,Denfield Park,park,toronto,..,..,..,..,on
165662,Denison Park,park,toronto,..,..,..,..,on
165667,Dennis Flynn Park,park,toronto,..,..,..,..,on
165670,Densgrove Park,park,toronto,..,..,..,..,on
165671,Dentonia Park,park,toronto,..,..,..,..,on
165672,Dentonia Park Golf Course,park,toronto,..,..,..,..,on
165686,Derrydowns Park,park,toronto,..,..,..,..,on
165741,Diana Park,park,toronto,..,..,..,..,on
165751,Dieppe Park,park,toronto,..,..,..,..,on
165773,Dixington Parkette,park,toronto,..,..,..,..,on
165776,Dixon Park,park,toronto,..,..,..,..,on
165820,Don Lake Parkette,park,toronto,..,..,..,..,on
165821,Don Mills Local Park,park,toronto,..,..,..,..,on
165823,Don Panos Parkette,park,toronto,..,..,..,..,on
165825,Don Russell Memorial Park,park,toronto,..,..,..,..,on
165841,Donalda Park,park,toronto,..,..,..,..,on
165852,Donnybrook Park,park,toronto,..,..,..,..,on
165854,Donora Park,park,toronto,..,..,..,..,on
165859,Donwood Park,park,toronto,..,..,..,..,on
165883,Doris - Norton Park,park,toronto,..,..,..,..,on
165888,Dorset Park,park,toronto,..,..,..,..,on
165897,Douglas B. Ford Park,park,toronto,..,..,..,..,on
165903,Douglas Park,park,toronto,..,..,..,..,on
165921,Dovercourt Park,park,toronto,..,..,..,..,on
165925,Downsview Dells Park,park,toronto,..,..,..,..,on
165926,Downsview Memorial Parkette,park,toronto,..,..,..,..,on
165927,Downsview Park,park,toronto,..,..,..,..,on
165935,Downsview Park And Lawn Bowling Greens,park,toronto,..,..,..,..,on
165973,Driftwood Park,park,toronto,..,..,..,..,on
165975,Driftwood Parkette,park,toronto,..,..,..,..,on
165978,Drumoak Road Parkette,park,toronto,..,..,..,..,on
