Index,Facility_Name,ODRSF_facility_type,Provider,Street_No,Street_Name,Postal_Code,City,Prov_Terr
165991,Dubray Parkette,park,toronto,..,..,..,..,on
166002,Dufferin - King Park,park,toronto,..,..,..,..,on
166003,Dufferin Grove Park,park,toronto,..,..,..,..,on
166004,Dufferin Hill Park,park,toronto,..,..,..,..,on
166022,Duncairn Park,park,toronto,..,..,..,..,on
166023,Duncan C. Little Park,park,toronto,..,..,..,..,on
166024,Duncan Creek Park,park,toronto,..,..,..,..,on
166035,Dundas - St.Clarens Parkette,park,toronto,..,..,..,..,on
166036,Dundas - Watkinson Parkette,park,toronto,..,..,..,..,on
166043,Dundas Parkette,park,toronto,..,..,..,..,on
166050,Dunfield Park,park,toronto,..,..,..,..,on
166057,Dunlace Park,park,toronto,..,..,..,..,on
166060,Dunlop Park,park,toronto,..,..,..,..,on
166062,Dunn Avenue Parkette,park,toronto,..,..,..,..,on
166071,Dunvegan Parkette,park,toronto,..,..,..,..,on
166072,Duplex Parkette,park,toronto,..,..,..,..,on
166094,E.T. Seton Park,park,toronto,..,..,..,..,on
166106,Earl Bales Park,park,toronto,..,..,..,..,on
166116,Earlscourt Park,park,toronto,..,..,..,..,on
166126,East Don Parkland,trail,toronto,..,..,..,..,on
166127,East Don Parkland,trail,toronto,..,..,..,..,on
166128,East Don Parkland,trail,toronto,..,..,..,..,on
166129,East Don Parkland,trail,toronto,..,..,..,..,on
166130,East Don Parkland,trail,toronto,..,..,..,..,on
166131,East Don Parkland,trail,toronto,..,..,..,..,on
166143,East Lynn Park,park,toronto,..,..,..,..,on
166144,East Mall Park,park,toronto,..,..,..,..,on
166148,East Point Park,park,toronto,..,..,..,..,on
166156,Eastdale Parkette,park,toronto,..,..,..,..,on
166178,Eastview Park,park,toronto,..,..,..,..,on
166197,Echo Valley Park,park,toronto,..,..,..,..,on
166210,Ed And Anne Mirvish Parkette,park,toronto,..,..,..,..,on
166221,Eden Valley Park,park,toronto,..,..,..,..,on
166224,Edenbrook Park,park,toronto,..,..,..,..,on
166231,Edge Park,park,toronto,..,..,..,..,on
166234,Edgeley Park,park,toronto,..,..,..,..,on
166247,Edgewood Park,park,toronto,..,..,..,..,on
166250,Edgewood Parkette,park,toronto,..,..,..,..,on
166252,Edinborough Park,park,toronto,..,..,..,..,on
166257,Edithvale Park,park,toronto,..,..,..,..,on
166295,Eglinton - Gilbert Parkette,park,toronto,..,..,..,..,on
166296,Eglinton Park,park,toronto,..,..,..,..,on
166298,Eglinton Ravine Park,park,toronto,..,..,..,..,on
166299,Eighth Street Park,park,toronto,..,..,..,..,on
166330,Elijah Park,park,toronto,..,..,..,..,on
166336,Elizabeth Simcoe Park,park,toronto,..,..,..,..,on
166342,Elkhorn Parkette,park,toronto,..,..,..,..,on
166352,Ellerslie Park,park,toronto,..,..,..,..,on
166353,Ellesmere Park,park,toronto,..,..,..,..,on
