Index,Facility_Name,ODRSF_facility_type,Provider,Street_No,Street_Name,Postal_Code,City,Prov_Terr
168663,Humber Bay Promenade Park,park,toronto,..,..,..,..,on
168665,Humber Bay Shores Park,park,toronto,..,..,..,..,on
168666,Humber Gate Park,park,toronto,..,..,..,..,on
168671,Humber Sheppard Park,park,toronto,..,..,..,..,on
168672,Humber Valley Park,park,toronto,..,..,..,..,on
168673,Humberline Park,park,toronto,..,..,..,..,on
168674,Humbertown Park,park,toronto,..,..,..,..,on
168675,Humberview Park,park,toronto,..,..,..,..,on
168676,Humberwood Park,park,toronto,..,..,..,..,on
168677,Humewood Park,park,toronto,..,..,..,..,on
168681,Hummingbird Park,park,toronto,..,..,..,..,on
168691,Hunters Glen Park,park,toronto,..,..,..,..,on
168707,Huntsmill Park,park,toronto,..,..,..,..,on
168709,Huron - Washington Parkette,park,toronto,..,..,..,..,on
168787,Indian Line Park,park,toronto,..,..,..,..,on
168801,Inglewood Heights Park,park,toronto,..,..,..,..,on
168804,Inglewood Parkette,park,toronto,..,..,..,..,on
168835,Ionview Park,park,toronto,..,..,..,..,on
168839,Ireland Park,park,toronto,..,..,..,..,on
168840,Irene Avenue Parkette,park,toronto,..,..,..,..,on
168843,Irma Burman Greenbelt Park,park,toronto,..,..,..,..,on
168852,Iroquois Park,park,toronto,..,..,..,..,on
168856,Irving Paisley Park,park,toronto,..,..,..,..,on
168860,Irving W. Chapley Park,park,toronto,..,..,..,..,on
168864,Isabella Valancy Crawford Park,park,toronto,..,..,..,..,on
168882,Islington Heights Park,park,toronto,..,..,..,..,on
168883,Islington Park,park,toronto,..,..,..,..,on
168911,J.T. Watson Parkette,park,toronto,..,..,..,..,on
168919,Jack Evelyn Wiggins Park,park,toronto,..,..,..,..,on
168921,Jack Goodlad Park,park,toronto,..,..,..,..,on
168938,Jackson Parkette,park,toronto,..,..,..,..,on
168988,James Trimbee Park,park,toronto,..,..,..,..,on
168990,Janda Park,park,toronto,..,..,..,..,on
168991,Jane Osler Park,park,toronto,..,..,..,..,on
168995,Janellan Ravine Park,park,toronto,..,..,..,..,on
169014,Jean Augustine Park,park,toronto,..,..,..,..,on
169025,Jeanette Park,park,toronto,..,..,..,..,on
169037,Jeff Healey Park,park,toronto,..,..,..,..,on
169046,Jennifer Kateryna Koval'S'Kyj Park,park,toronto,..,..,..,..,on
169060,Jesse Ketchum Park,park,toronto,..,..,..,..,on
169075,Jim Mcpherson Park,park,toronto,..,..,..,..,on
169078,Jimmie Simpson Park,park,toronto,..,..,..,..,on
169103,Joel Swirsky Parkette,park,toronto,..,..,..,..,on
169104,Joel Weeks Park,park,toronto,..,..,..,..,on
169134,John Chang Neighbourhood Park,park,toronto,..,..,..,..,on
169191,John Street Parkette,park,toronto,..,..,..,..,on
169192,John Tabor Park,park,toronto,..,..,..,..,on
169227,Jolly Miller Park,park,toronto,..,..,..,..,on
169230,Jonathan Ashbridge Park,park,toronto,..,..,..,..,on
