Index,Facility_Name,ODRSF_facility_type,Provider,Street_No,Street_Name,Postal_Code,City,Prov_Terr
67061,Waterfront Trail,trail,toronto,..,lawrence,..,..,on
67312,Wesr Highland Creek Trail,trail,toronto,..,lamoreaux,..,..,on
67338,West Don River Trail,trail,toronto,..,broadway,..,..,on
67339,West Don River Trail,trail,toronto,..,sutherland,..,..,on
67340,West Don River Trail,trail,toronto,..,bathrust,..,..,on
67341,West Don River Trail,trail,toronto,..,don river,..,..,on
67342,West Don River Trail,trail,toronto,..,thorncliffe park,..,..,on
67343,West Highland Creek Trail,trail,toronto,..,mccowan,..,..,on
67344,West Highland Creek Trail,trail,toronto,..,danforth,..,..,on
67345,West Highland Creek Trail,trail,toronto,..,brimley,..,..,on
67346,West Highland Creek Trail,trail,toronto,..,brimley,..,..,on
67347,West Highland Creek Trail,trail,toronto,..,perivale,..,..,on
67348,West Highland Creek Trail,trail,toronto,..,rossander,..,..,on
67349,West Highland Creek Trail,trail,toronto,..,park,..,..,on
67350,West Highland Creek Trail,trail,toronto,..,mccowan,..,..,on
67351,West Highland Creek Trail,trail,toronto,..,brimley,..,..,on
67352,West Highland Creek Trail,trail,toronto,..,standrews,..,..,on
67353,West Highland Creek Trail,trail,toronto,..,brimley,..,..,on
67354,West Highland Creek Trail,trail,toronto,..,applefield,..,..,on
67355,West Highland Creek Trail,trail,toronto,..,waterfield,..,..,on
67356,West Highland Creek Trail,trail,toronto,..,mcnicoll,..,..,on
67357,West Highland Creek Trail,trail,toronto,..,sliversprings,..,..,on
67358,West Highland Creek Trail,trail,toronto,..,brookmill,..,..,on
67359,West Highland Creek Trail,trail,toronto,..,finch,..,..,on
67360,West Highland Creek Trail,trail,toronto,..,finch,..,..,on
67361,West Highland Creek Trail,trail,toronto,..,birchmount,..,..,on
67362,West Highland Creek Trail,trail,toronto,..,garrybrook,..,..,on
67363,West Highland Creek Trail,trail,toronto,..,huntingwood,..,..,on
67364,West Highland Creek Trail,trail,toronto,..,timberbank,..,..,on
67365,West Highland Creek Trail,trail,toronto,..,kennedy,..,..,on
67366,West Highland Creek Trail,trail,toronto,..,eastpark,..,..,on
67367,West Highland Creek Trail,trail,toronto,..,st andrews,..,..,on
67368,West Highland Creek Trail,trail,toronto,..,pomeroy,..,..,on
67369,West Highland Creek Trail,trail,toronto,..,ellesmere,..,..,on
67370,West Highland Creek Trail,trail,toronto,..,warden,..,..,on
67371,West Highland Creek Trail,trail,toronto,..,birchmount,..,..,on
67372,West Highland Creek Trail,trail,toronto,..,bellamy,..,..,on
67373,West Highland Creek Trail,trail,toronto,..,mccowan,..,..,on
67374,West Highland Creek Trail,trail,toronto,..,banmoor,..,..,on
67375,West Highland Creek Trail,trail,toronto,..,brimley,..,..,on
67376,West Highland Creek Trail,trail,toronto,..,bridletowne,..,..,on
67377,West Highland Creek Trail,trail,toronto,..,birchmount,..,..,on
67378,West Highland Creek Trail,trail,toronto,..,pomeroy,..,..,on
67379,West Highland Creek Trail,trail,toronto,..,sliversprings,..,..,on
67380,West Highland Creektrail,trail,toronto,..,lawrence,..,..,on
67381,West Humber River Trail,trail,toronto,..,humberwood,..,..,on
67382,West Humber River Trail,trail,toronto,..,triple crown,..,..,on
67383,West Humber River Trail,trail,toronto,..,turnvale,..,..,on
67384,West Humber River Trail,trail,toronto,..,mercury,..,..,on
