Index,Facility_Name,ODRSF_facility_type,Provider,Street_No,Street_Name,Postal_Code,City,Prov_Terr
9036,Blantyre Park,sports field,toronto,180,fallingbrook,M1N 2T6,..,on
9050,Bloordale Park South - Outdoor Tennis Court ( 1),sports field,toronto,230,renforth,..,..,on
9051,Bloordale Park South - Outdoor Tennis Court ( 2),sports field,toronto,230,renforth,..,..,on
9085,Bob Hunter Green Space (Rouge Community),sports field,toronto,205,generation,M1B 2V1,..,on
9112,Bond Park,sports field,toronto,120,bond,M5B 1X8,..,on
9113,Bond Park - Outdoor Tennis Court ( 1),sports field,toronto,120,bond,..,..,on
9114,Bond Park - Outdoor Tennis Court ( 2),sports field,toronto,120,bond,..,..,on
9115,Bond Park - Outdoor Tennis Court ( 3),sports field,toronto,120,bond,..,..,on
9116,Bond Park - Outdoor Tennis Court ( 4),sports field,toronto,120,bond,..,..,on
9117,Bond Park - Outdoor Tennis Court ( 5),sports field,toronto,120,bond,..,..,on
9118,Bond Park - Outdoor Tennis Court ( 6),sports field,toronto,120,bond,..,..,on
9119,Bond Park Tennis Clubhouse,sports field,toronto,120,bond,..,..,on
9130,Botany Hill Park - Outdoor Tennis Court ( 1),sports field,toronto,277,orton park,..,..,on
9131,Botany Hill Park - Outdoor Tennis Court ( 2),sports field,toronto,277,orton park,..,..,on
9132,Botany Hill Park - Outdoor Tennis Court ( 3),sports field,toronto,277,orton park,..,..,on
9133,Botany Hill Park - Outdoor Tennis Court ( 4),sports field,toronto,277,orton park,..,..,on
9253,Bridlewood Park,sports field,toronto,445,huntingwood,M1W 1G3,..,on
9254,Bridlewood Park - Outdoor Tennis Court ( 1),sports field,toronto,445,huntingwood,..,..,on
9255,Bridlewood Park - Outdoor Tennis Court ( 2),sports field,toronto,445,huntingwood,..,..,on
9256,Bridlewood Park - Outdoor Tennis Court ( 3),sports field,toronto,445,huntingwood,..,..,on
9278,Broadacres Park,sports field,toronto,115,wareside,M9C 3B7,..,on
9279,Broadlands Park,sports field,toronto,19,castlegrove,M3A 2L3,..,on
9280,Broadlands Park - Outdoor Tennis Court ( 1),sports field,toronto,19,castlegrove,..,..,on
9281,Broadlands Park - Outdoor Tennis Court ( 2),sports field,toronto,19,castlegrove,..,..,on
9282,Broadlands Park - Outdoor Tennis Court ( 3),sports field,toronto,19,castlegrove,..,..,on
9283,Broadlands Park - Outdoor Tennis Court ( 4),sports field,toronto,19,castlegrove,..,..,on
9345,Burrows Hall Park,sports field,toronto,239,burrows hall,M1B 1N1,..,on
9349,Buttonwood Park - Outdoor Tennis Court ( 1),sports field,toronto,30,mulham,..,..,on
9350,Buttonwood Park - Outdoor Tennis Court ( 2),sports field,toronto,30,mulham,..,..,on
9351,Buttonwood Park - Outdoor Tennis Court ( 3),sports field,toronto,30,mulham,..,..,on
9395,Caledonia Park,sports field,toronto,1141,caledonia,M6A 2W9,..,on
9432,Canmore Park,sports field,toronto,101,canmore,M1C 3W3,..,on
9528,Cartwright School Park - Outdoor Tennis Court ( 1),sports field,toronto,100,bentworth,..,..,on
9529,Cartwright School Park - Outdoor Tennis Court ( 2),sports field,toronto,100,bentworth,..,..,on
9535,Cassandra Park - Outdoor Tennis Court ( 1),sports field,toronto,230,cassandra,..,..,on
9536,Cassandra Park - Outdoor Tennis Court ( 2),sports field,toronto,230,cassandra,..,..,on
9537,Cassandra Park - Outdoor Tennis Court ( 3),sports field,toronto,230,cassandra,..,..,on
9538,Cassandra Park - Outdoor Tennis Court ( 4),sports field,toronto,230,cassandra,..,..,on
9573,Cedar Brae Golf Club,sports field,york region,55,mac frost,M1X 1N6,scarborough,on
9578,Cedarvale Park,sports field,toronto,443,arlington,M6C 3A4,..,on
9579,Cedarvale Park - Outdoor Tennis Court ( 1),sports field,toronto,443,arlington,..,..,on
9580,Cedarvale Park - Outdoor Tennis Court ( 2),sports field,toronto,443,arlington,..,..,on
9581,Cedarvale Park - Outdoor Tennis Court ( 3),sports field,toronto,443,arlington,..,..,on
9582,Cedarvale Park - Outdoor Tennis Court ( 4),sports field,toronto,443,arlington,..,..,on
9615,Centennial Park (Etobicoke/York),sports field,toronto,256,centennial park,M9C 5N3,..,on
9617,Centennial Park Golf Club,sports field,york region,550,centennial park,M9C 5R5,etobicoke,on
9668,Centre Park,sports field,toronto,15,centre,M2M 2L3,..,on
9697,Ch Best East,sports field,toronto,285,wilmington,M3H 5K8,..,on
9703,Chalkfarm Park - Outdoor Tennis Court ( 1),sports field,toronto,2230,jane,..,..,on
