Index,Facility_Name,ODRSF_facility_type,Provider,Street_No,Street_Name,Postal_Code,City,Prov_Terr
170840,Manhattan Park,park,toronto,..,..,..,..,on
170848,Manor Park,park,toronto,..,..,..,..,on
170853,Manse Road Park,park,toronto,..,..,..,..,on
170862,Maple Claire Park,park,toronto,..,..,..,..,on
170877,Maple Leaf Forever Park,park,toronto,..,..,..,..,on
170881,Maple Leaf Park,park,toronto,..,..,..,..,on
170906,Maplehurst Park,park,toronto,..,..,..,..,on
170926,Marble Hill Parkette,park,toronto,..,..,..,..,on
170940,Margaret Fairley Park,park,toronto,..,..,..,..,on
170949,Maria Street Parkette,park,toronto,..,..,..,..,on
170951,Marian Engel Park,park,toronto,..,..,..,..,on
170953,Marie Baldwin Park,park,toronto,..,..,..,..,on
170955,Marie Curtis Park,park,toronto,..,..,..,..,on
170964,Marilyn Bell Park,park,toronto,..,..,..,..,on
170989,Market Lane Park,park,toronto,..,..,..,..,on
171031,Marlborough Place Parkette,park,toronto,..,..,..,..,on
171059,Martingrove Gardens Park,park,toronto,..,..,..,..,on
171072,Mary Harker Park,park,toronto,..,..,..,..,on
171081,Maryland Park,park,toronto,..,..,..,..,on
171085,Maryvale Park,park,toronto,..,..,..,..,on
171087,Masaryk Park,park,toronto,..,..,..,..,on
171090,Mason Road Park,park,toronto,..,..,..,..,on
171095,Massey Harris Park,park,toronto,..,..,..,..,on
171099,Masseygrove Park,park,toronto,..,..,..,..,on
171112,Matt Cohen Park,park,toronto,..,..,..,..,on
171126,Maughan Crescent Parkette,park,toronto,..,..,..,..,on
171127,Maureen Parkette,park,toronto,..,..,..,..,on
171128,Maurice J. Breen Park,park,toronto,..,..,..,..,on
171142,Maxome Park,park,toronto,..,..,..,..,on
171144,Maxwell Park,park,toronto,..,..,..,..,on
171177,Mcallister Park,park,toronto,..,..,..,..,on
171196,Mccaul - Orde Parkette,park,toronto,..,..,..,..,on
171198,Mccleary Park,park,toronto,..,..,..,..,on
171205,Mccormick Park,park,toronto,..,..,..,..,on
171207,Mccowan District Park,park,toronto,..,..,..,..,on
171212,Mccowan Park,park,toronto,..,..,..,..,on
171224,Mcdairmid Woods Park,park,toronto,..,..,..,..,on
171246,Mcgill Parkette,park,toronto,..,..,..,..,on
171255,Mcgregor Park,park,toronto,..,..,..,..,on
171266,Mckee Parkette,park,toronto,..,..,..,..,on
171275,Mckenzie Parkette,park,toronto,..,..,..,..,on
171307,Mclevin Woods Park,park,toronto,..,..,..,..,on
171327,Mcnicoll Park,park,toronto,..,..,..,..,on
171383,Measurement Park,park,toronto,..,..,..,..,on
171392,Megan Park,park,toronto,..,..,..,..,on
171402,Melbourne Avenue Parkette,park,toronto,..,..,..,..,on
171426,Memorial Park - North York,park,toronto,..,..,..,..,on
171427,Memorial Park - York,park,toronto,..,..,..,..,on
171450,Merrill Bridge Road Park,park,toronto,..,..,..,..,on
