Index,Facility_Name,ODRSF_facility_type,Provider,Street_No,Street_Name,Postal_Code,City,Prov_Terr
163024,Bedford Park Community Centre - Building Grounds,park,toronto,..,..,..,..,on
163025,Bedford Parkette,park,toronto,..,..,..,..,on
163036,Beechgrove Park,park,toronto,..,..,..,..,on
163043,Beecroft Linear Park,park,toronto,..,..,..,..,on
163044,Beecroft Park,park,toronto,..,..,..,..,on
163069,Bell Manor Park,park,toronto,..,..,..,..,on
163076,Bellamy Park,park,toronto,..,..,..,..,on
163077,Bellbury Park,park,toronto,..,..,..,..,on
163089,Bellevue Square Park,park,toronto,..,..,..,..,on
163096,Belmar Park,park,toronto,..,..,..,..,on
163109,Belmont Parkette,park,toronto,..,..,..,..,on
163126,Ben Nobleman Park,park,toronto,..,..,..,..,on
163129,Bendale Park,park,toronto,..,..,..,..,on
163142,Benner Park,park,toronto,..,..,..,..,on
163147,Bennett Park,park,toronto,..,..,..,..,on
163148,Bennington Heights Park,park,toronto,..,..,..,..,on
163161,Berczy Park,park,toronto,..,..,..,..,on
163187,Beresford Park,park,toronto,..,..,..,..,on
163211,Berner Trail Park,park,toronto,..,..,..,..,on
163217,Berry Road Park,park,toronto,..,..,..,..,on
163222,Bert Robinson Park,park,toronto,..,..,..,..,on
163231,Bessarion Parkette,park,toronto,..,..,..,..,on
163236,Bestview Park,park,toronto,..,..,..,..,on
163240,Beth Tzedec Memorial Park,park,toronto,..,..,..,..,on
163254,Bethune Park,park,toronto,..,..,..,..,on
163261,Betty Sutherland Trail Park,park,toronto,..,..,..,..,on
163267,Beverly Glen Park,park,toronto,..,..,..,..,on
163276,Bickford Park,park,toronto,..,..,..,..,on
163306,Bill Hancox Park,park,toronto,..,..,..,..,on
163307,Bill Johnston Park,park,toronto,..,..,..,..,on
163328,Birch Park,park,toronto,..,..,..,..,on
163330,Birchcrest Park,park,toronto,..,..,..,..,on
163332,Birchmount Park,park,toronto,..,..,..,..,on
163334,Birchview Boulevard Parkette,park,toronto,..,..,..,..,on
163346,Birunthan Park,park,toronto,..,..,..,..,on
163352,Bishop Park,park,toronto,..,..,..,..,on
163366,Bisset Park,park,toronto,..,..,..,..,on
163370,Black Creek Parkland,park,toronto,..,..,..,..,on
163387,Blackfriar Park,park,toronto,..,..,..,..,on
163413,Blantyre Park,park,toronto,..,..,..,..,on
163431,Bloor - Bedford Parkette,park,toronto,..,..,..,..,on
163433,Bloordale Park North,park,toronto,..,..,..,..,on
163444,Blue Ridge Park,park,toronto,..,..,..,..,on
163456,Bluehaven Park,park,toronto,..,..,..,..,on
163462,Bluffer's Park,park,toronto,..,..,..,..,on
163468,Bob Acton Park,park,toronto,..,..,..,..,on
163469,Bob Hunter Park,park,toronto,..,..,..,..,on
163474,Bobbie Rosenfeld Park,park,toronto,..,..,..,..,on
163508,Bond Park,park,toronto,..,..,..,..,on
