Index,Facility_Name,ODRSF_facility_type,Provider,Street_No,Street_Name,Postal_Code,City,Prov_Terr
26998,Finch Trail,trail,toronto,..,blake,..,..,on
26999,Finch Trail,trail,toronto,..,sliver star,..,..,on
27000,Finch Trail,trail,toronto,..,flint,..,..,on
27698,Fundy Bay Park Trail,trail,toronto,..,fundy bay,..,..,on
27699,Fundy Bay Park Trail,trail,toronto,..,hood,..,..,on
27701,G Ross Lord Park Trail,trail,toronto,..,torresdale,..,..,on
27703,G Ross Lord Path Trail,trail,toronto,..,hidden trial,..,..,on
27747,Gaffney Park Trail,trail,toronto,..,rockcliffe,..,..,on
27748,Gaffney Park Trail,trail,toronto,..,runnymede,..,..,on
27749,Gaffney Park Trail,trail,toronto,..,norval,..,..,on
27750,Gaffney Park Trail,trail,toronto,..,criscoe,..,..,on
27751,Gaffney Park Trail,trail,toronto,..,blakley,..,..,on
27752,Gaffney Park Trail,trail,toronto,..,ravenal,..,..,on
27862,Gatineau Trail,trail,toronto,..,brimley,..,..,on
27863,Gatineau Trail,trail,toronto,..,brimley,..,..,on
27864,Gatineau Trail,trail,toronto,..,mccowan,..,..,on
27865,Gatineau Trail,trail,toronto,..,bellamy,..,..,on
27866,Gatineau Trail,trail,toronto,..,daventry,..,..,on
27867,Gatineau Trail,trail,toronto,..,markham,..,..,on
27868,Gatineau Trail,trail,toronto,..,birmorton,..,..,on
27869,Gatineau Trail,trail,toronto,..,scarborough golf club,..,..,on
27870,Gatineau Trail,trail,toronto,..,military,..,..,on
27871,Gatineau Trail,trail,toronto,..,victoria park,..,..,on
27872,Gatineau Trail,trail,toronto,..,crockford,..,..,on
27873,Gatineau Trail,trail,toronto,..,givendale,..,..,on
27874,Gatineau Trail,trail,toronto,..,mooregate,..,..,on
27875,Gatineau Trail,trail,toronto,..,tara,..,..,on
27876,Gatineau Trail,trail,toronto,..,eglinton,..,..,on
27877,Gatineau Trail,trail,toronto,..,shepparrd,..,..,on
27878,Gatineau Trail,trail,toronto,..,conlins,..,..,on
27879,Gatineau Trail,trail,toronto,..,pharmacy,..,..,on
27880,Gatineau Trail,trail,toronto,..,birchmount,..,..,on
27881,Gatineau Trail,trail,toronto,..,marcos,..,..,on
27882,Gatineau Trail,trail,toronto,..,benshire,..,..,on
27883,Gatineau Trail,trail,toronto,..,markham,..,..,on
27884,Gatineau Trail,trail,toronto,..,warden,..,..,on
27885,Gatineau Trail,trail,toronto,..,helicon gt,..,helicon,on
27886,Gatineau Trail,trail,toronto,..,kennedy,..,..,on
27887,Gatineau Trail,trail,toronto,..,kennedy,..,..,on
27888,Gatineau Trail,trail,toronto,..,pharmacy,..,..,on
28118,Glendora Park Trail,trail,toronto,..,sheppard,..,..,on
28119,Glendora Park Trail,trail,toronto,..,willowdale,..,..,on
28699,Grey Abbey Park Trail,trail,toronto,..,greyabbey,..,..,on
28700,Grey Abbey Park Trail,trail,toronto,..,manse,..,..,on
28759,Gulidwood Park Trail,trail,toronto,..,gulidwood,..,..,on
28760,Gulidwood Park Trail,trail,toronto,..,livingston,..,..,on
29016,Harrison Park Trail,trail,toronto,..,wimpole,..,..,on
29017,Harrison Park Trail,trail,toronto,..,truman,..,..,on
29018,Harrison Properties Trail,trail,toronto,..,lakehurst,..,..,on
