Index,Facility_Name,ODRSF_facility_type,Provider,Street_No,Street_Name,Postal_Code,City,Prov_Terr
176676,Stratford Park,park,toronto,..,..,..,..,on
176678,Strathburn Park,park,toronto,..,..,..,..,on
176731,Sugar Beach Park,park,toronto,..,..,..,..,on
176742,Sumach - Shuter Parkette,park,toronto,..,..,..,..,on
176760,Summerlea Park,park,toronto,..,..,..,..,on
176787,Sunfield Park,park,toronto,..,..,..,..,on
176798,Sunnybrook Park,park,toronto,..,..,..,..,on
176801,Sunnybrook Parkette,park,toronto,..,..,..,..,on
176802,Sunnydale Acres Park,park,toronto,..,..,..,..,on
176803,Sunnydene Park,park,toronto,..,..,..,..,on
176805,Sunnylea Park,park,toronto,..,..,..,..,on
176806,Sunnypoint - Neilson Park,park,toronto,..,..,..,..,on
176808,Sunnyside Bike Park,park,toronto,..,..,..,..,on
176813,Sunnyside Park,park,toronto,..,..,..,..,on
176836,Superior Park,park,toronto,..,..,..,..,on
176844,Susan Tibaldi Parkette,park,toronto,..,..,..,..,on
176860,Suydam Park,park,toronto,..,..,..,..,on
176876,Sweeney Park,park,toronto,..,..,..,..,on
176899,Syd Cole Park,park,toronto,..,..,..,..,on
176901,Sylvan Park - Gate Gully,park,toronto,..,..,..,..,on
176902,Sylvan Park - Gates Gully,park,toronto,..,..,..,..,on
176913,Symes - Viella Parkette,park,toronto,..,..,..,..,on
176923,Tabor Hill Memorial Park,park,toronto,..,..,..,..,on
176925,Taddle Creek Park,park,toronto,..,..,..,..,on
176928,Talara Park,park,toronto,..,..,..,..,on
176936,Tall Pines Park,park,toronto,..,..,..,..,on
176943,Talwood Park,park,toronto,..,..,..,..,on
176948,Tamarisk Park,park,toronto,..,..,..,..,on
176977,Taylor Creek Park,park,toronto,..,..,..,..,on
177010,Teddington Park Road Traffic Island,park,toronto,..,..,..,..,on
177014,Telfer Park,park,toronto,..,..,..,..,on
177034,Terraview Park,park,toronto,..,..,..,..,on
177040,Terry Fox Park,park,toronto,..,..,..,..,on
177050,Thackeray Park,park,toronto,..,..,..,..,on
177059,The Doctors' Parkette,park,toronto,..,..,..,..,on
177060,The Elms Park,park,toronto,..,..,..,..,on
177073,The Mission Ground Parkette,park,toronto,..,..,..,..,on
177082,The Tollkeeper's Park,park,toronto,..,..,..,..,on
177096,Thirty-Eighth Street Park,park,toronto,..,..,..,..,on
177100,Thistletown Park,park,toronto,..,..,..,..,on
177121,Thompson Street Parkette,park,toronto,..,..,..,..,on
177126,Thomson Memorial Park,park,toronto,..,..,..,..,on
177165,Three Valleys Park,park,toronto,..,..,..,..,on
177171,Tichester Park,park,toronto,..,..,..,..,on
177192,Timberbank Park,park,toronto,..,..,..,..,on
177211,Tiverton Avenue Parkette,park,toronto,..,..,..,..,on
177219,Todmorden Mills Park,park,toronto,..,..,..,..,on
177233,Tom Riley Park,park,toronto,..,..,..,..,on
177250,Tommy Thompson Park,park,toronto,..,..,..,..,on
