Index,Facility_Name,ODRSF_facility_type,Provider,Street_No,Street_Name,Postal_Code,City,Prov_Terr
3386,Mitchell Field Cc,gym,toronto,89,church,M2N 6C9,..,on
3387,Mitchell Field Cc,pool,toronto,89,church,M2N 6C9,..,on
3388,Mitchell Field Community Centre - Indoor Ice Pad,rink,toronto,89,church,..,..,on
3395,Monarch Park,playground,toronto,115,felstead,M4J 1G3,..,on
3396,Monarch Park,pool,toronto,115,felstead,M4J 1G3,..,on
3397,Monarch Park - Outdoor Artificial Ice Rink,rink,toronto,115,felstead,..,..,on
3399,Moncur Playground,playground,toronto,10,gainsborough,M1P 4N7,..,on
3400,Mondeo Parkette,playground,toronto,..,mondeo,M1P 5B6,..,on
3417,Moore Park,playground,toronto,110,cactus,M2R 2V1,..,on
3424,Morevale Park,pool,toronto,175,moore,M4T 1V8,..,on
3431,Morningside Park,playground,toronto,390,morningside,M1C 1B9,..,on
3439,Morse Street Playground,playground,toronto,76,morse,M4M 2P6,..,on
3440,Morse Street Playground,pool,toronto,76,morse,M4M 2P6,..,on
3444,Moss Park,playground,toronto,150,sherbourne,M5A 2R6,..,on
3446,Mossgrove Park,playground,toronto,57,mossgrove,M2L 2W2,..,on
3461,Mount Royal Parkette,playground,toronto,49,mount royal,M6H 2S4,..,on
3474,Muirhead Park,playground,toronto,65,muirhead,M2J 3W4,..,on
3475,Muirlands Park,playground,toronto,40,muirlands,M1V 2B4,..,on
3483,Murison Park,playground,toronto,99,murison,M1B 2L6,..,on
3490,Nairn Park,playground,toronto,337,harvie,M6E 4L4,..,on
3496,Natal Park,playground,toronto,110,natal,M1K 3T8,..,on
3499,Nathan Phillips Square - Outdoor Artificial Ice Rink,rink,toronto,100,queen,..,..,on
3509,Neil Mclellan Park,playground,toronto,263,beresford,M6S 3B4,..,on
3510,Neilson Park (Etobicoke York District),playground,toronto,56,neilson,M9C 1V7,..,on
3513,Neilson Park Creative Centre,playground,toronto,56,neilson,M9C 1V7,..,on
3537,Newtonbrook Ss,pool,toronto,155,hilda,M2M 1V6,..,on
3555,Norseman Cs,gym,toronto,105,norseman,M8Z 2R1,..,on
3556,Norseman Cs,pool,toronto,105,norseman,M8Z 2R1,..,on
3557,Norseman Heights Park,playground,toronto,38,velma,M8Z 2N3,..,on
3558,North Bendale Park,playground,toronto,40,erinlea,M1H 2S9,..,on
3559,North Bridlewood Park,playground,toronto,11,adencliff,M1W 1M8,..,on
3568,North Humber Park,playground,toronto,2901,kipling,M9C 2Y2,..,on
3571,North Kipling Cc,gym,toronto,2,rowntree,M9V 5C7,..,on
3580,North Toronto Memorial - Outdoor Artificial Ice Rink,rink,toronto,200,eglinton,..,..,on
3581,North Toronto Memorial Crc,gym,toronto,200,eglinton,M4R 1A7,..,on
3582,North Toronto Memorial Crc,pool,toronto,200,eglinton,M4R 1A7,..,on
3590,Northumberland Playground,playground,toronto,770,ossington,M6G 3T9,..,on
3591,Northumberland Playground,pool,toronto,770,ossington,M6G 3T9,..,on
3593,Northview Heights Ss,pool,toronto,550,finch,M2R 1N6,..,on
3598,Northwood Cc,gym,toronto,15,clubhouse,M3L 2L7,..,on
3599,Northwood Cc,pool,toronto,15,clubhouse,M3L 2L7,..,on
3602,Northwood Park,playground,toronto,140,stilecroft,M3J 1A9,..,on
3608,Norwood Park,pool,toronto,16,norwood,M4E 2R8,..,on
3619,Oak Street Park,playground,toronto,165,river,M5A 3P7,..,on
3620,Oakcrest Park,playground,toronto,30,oakcrest,M4C 1B4,..,on
3621,Oakcrest Park,pool,toronto,30,oakcrest,M4C 1B4,..,on
3622,Oakdale Cc,gym,toronto,350,grandravine,M3N 1J4,..,on
3623,Oakdale Cc,pool,toronto,350,grandravine,M3N 1J4,..,on
3643,O'Connor Cc,gym,toronto,1386,victoria park,M4A 2L8,..,on
