Index,Facility_Name,ODRSF_facility_type,Provider,Street_No,Street_Name,Postal_Code,City,Prov_Terr
17742,Three Valleys Park - Outdoor Tennis Court ( 2),sports field,toronto,82,three valleys,..,..,on
17790,Tom Riley Park,sports field,toronto,3216,bloor,M8X 10,..,on
17791,Tom Riley Park - Outdoor Tennis Court ( 1),sports field,toronto,4725,dundas,..,..,on
17792,Tom Riley Park - Outdoor Tennis Court ( 2),sports field,toronto,4725,dundas,..,..,on
17793,Tom Riley Park - Outdoor Tennis Court ( 3),sports field,toronto,4725,dundas,..,..,on
17801,Topham Park,sports field,toronto,181,westview,M4B 3J3,..,on
17802,Topham Park,sports field,toronto,181,westview,M4B 3J3,..,on
17804,Topham Park - Outdoor Tennis Court ( 1),sports field,toronto,181,westview,..,..,on
17805,Topham Park - Outdoor Tennis Court ( 2),sports field,toronto,181,westview,..,..,on
17809,Toronto Zoo,miscellaneous,toronto,2000,meadowvale,..,..,on
17816,Totts Tots Lot,sports field,toronto,2,gradwell,M1M 2M9,..,on
17818,Tournament Park - Outdoor Tennis Court ( 1),sports field,toronto,40,tournament,..,..,on
17819,Tournament Park - Outdoor Tennis Court ( 2),sports field,toronto,40,tournament,..,..,on
17820,Tournament Park - Outdoor Tennis Court ( 3),sports field,toronto,40,tournament,..,..,on
17821,Tournament Park - Outdoor Tennis Court ( 4),sports field,toronto,40,tournament,..,..,on
17822,Tournament Park Tennis Clubhouse,sports field,toronto,40,tournament,..,..,on
17826,Trace Manes Park,sports field,toronto,110,rumsey,M4G 1P2,..,on
17827,Trace Manes Park - Outdoor Tennis Court ( 1),sports field,toronto,110,rumsey,..,..,on
17828,Trace Manes Park - Outdoor Tennis Court ( 1),sports field,toronto,110,rumsey,..,..,on
17829,Trace Manes Park - Outdoor Tennis Court ( 2),sports field,toronto,110,rumsey,..,..,on
17830,Trace Manes Park - Outdoor Tennis Court ( 2),sports field,toronto,110,rumsey,..,..,on
17831,Trace Manes Park - Outdoor Tennis Court ( 3),sports field,toronto,110,rumsey,..,..,on
17832,Trace Manes Park - Outdoor Tennis Court ( 4),sports field,toronto,110,rumsey,..,..,on
17875,Trinity Bellwoods Park,sports field,toronto,790,queen,M6J 1G3,..,on
17876,Trinity Bellwoods Park,sports field,toronto,790,queen,M6J 1G3,..,on
17877,Trinity Bellwoods Park - Outdoor Tennis Court ( 1),sports field,toronto,790,queen,..,..,on
17878,Trinity Bellwoods Park - Outdoor Tennis Court ( 2),sports field,toronto,790,queen,..,..,on
17879,Trinity Bellwoods Park - Outdoor Tennis Court ( 3),sports field,toronto,790,queen,..,..,on
17880,Trinity Bellwoods Park - Outdoor Tennis Court ( 4),sports field,toronto,790,queen,..,..,on
17976,Valleyfield Park - Outdoor Tennis Court,sports field,toronto,35,the-westway,..,..,on
18034,Viewmount Park,sports field,toronto,169,viewmount,M6B 1T5,..,on
18035,Viewmount Park - Outdoor Tennis Court ( 1),sports field,toronto,169,viewmount,..,..,on
18036,Viewmount Park - Outdoor Tennis Court ( 2),sports field,toronto,169,viewmount,..,..,on
18037,Viewmount Park - Outdoor Tennis Court ( 3),sports field,toronto,169,viewmount,..,..,on
18038,Viewmount Park - Outdoor Tennis Court ( 4),sports field,toronto,169,viewmount,..,..,on
18122,W.C. Swanek,sports field,toronto,241,gary,M9N 2M9,..,on
18158,Wanless Park,sports field,toronto,250,wanless,M4N 1W5,..,on
18159,Wanless Park - Outdoor Tennis Court ( 1),sports field,toronto,250,wanless,..,..,on
18160,Wanless Park - Outdoor Tennis Court ( 2),sports field,toronto,250,wanless,..,..,on
18161,Wanless Park - Outdoor Tennis Court ( 3),sports field,toronto,250,wanless,..,..,on
18162,Wanless Park - Outdoor Tennis Court ( 4),sports field,toronto,250,wanless,..,..,on
18163,Wanless Park - Outdoor Tennis Court ( 5),sports field,toronto,250,wanless,..,..,on
18164,Warden Avenue Park,sports field,toronto,2851,warden,M1W 1Y2,..,on
18165,Warden Mcnicoll Hyrdo Fields,sports field,toronto,2851,warden,M1W 1Y2,..,on
18199,Wedgewood Park - Outdoor Tennis Court,sports field,toronto,15,swan,..,..,on
18200,Wedgewood Park - Outdoor Tennis Court ( 1),sports field,toronto,145,wedgewood,..,..,on
18201,Wedgewood Park - Outdoor Tennis Court ( 2),sports field,toronto,145,wedgewood,..,..,on
18213,Wellesworth Park,sports field,toronto,55,dixfield,M9C 4J2,..,on
18215,Wenderly Park,sports field,toronto,89,wenderly,M6B 2P4,..,on
