Index,Facility_Name,ODRSF_facility_type,Provider,Street_No,Street_Name,Postal_Code,City,Prov_Terr
10899,Esther Lorrie Park,sports field,toronto,21,moon valley,M9W 3N5,..,on
10900,Etobicoke Valley Park,sports field,toronto,18,dunning,M8W 4S8,..,on
10901,Etobicoke Valley Park,sports field,toronto,18,dunning,M8W 4S8,..,on
10934,Fairbank Park,sports field,toronto,4,keywest,M6E 2A8,..,on
10946,Fairmount Park,sports field,toronto,1725,gerrard,M4L 2B3,..,on
10947,Fairmount Park - Outdoor Tennis Court ( 1),sports field,toronto,1725,gerrard,..,..,on
10948,Fairmount Park - Outdoor Tennis Court ( 2),sports field,toronto,1725,gerrard,..,..,on
10949,Fairmount Park - Outdoor Tennis Court ( 3),sports field,toronto,1725,gerrard,..,..,on
10950,Fairmount Park - Outdoor Tennis Court ( 4),sports field,toronto,1725,gerrard,..,..,on
10951,Fairmount Park - Outdoor Tennis Court ( 5),sports field,toronto,1725,gerrard,..,..,on
10975,Farquharson Park,sports field,toronto,250,pitfield,M1S 1Y7,..,on
10994,Felstead Avenue Playground,sports field,toronto,60,felstead,M1P 4N7,..,on
10995,Fennimore Park,sports field,toronto,78,fennimore,M9C 2Y2,..,on
10996,Fenside Park,sports field,toronto,30,slidell,M3A 2C4,..,on
10997,Fenside Park - Outdoor Tennis Court ( 1),sports field,toronto,30,slidell,..,..,on
10998,Fenside Park - Outdoor Tennis Court ( 2),sports field,toronto,30,slidell,..,..,on
10999,Fenside Park - Outdoor Tennis Court ( 3),sports field,toronto,30,slidell,..,..,on
11000,Fenside Park - Outdoor Tennis Court ( 4),sports field,toronto,30,slidell,..,..,on
11021,Firgrove Park - Outdoor Tennis Court ( 1),sports field,toronto,254,firgrove,..,..,on
11022,Firgrove Park - Outdoor Tennis Court ( 2),sports field,toronto,254,firgrove,..,..,on
11023,Firgrove Park - Outdoor Tennis Court ( 3),sports field,toronto,254,firgrove,..,..,on
11048,Flagstaff Park - Outdoor Tennis Court ( 1),sports field,toronto,42,mercury,..,..,on
11049,Flagstaff Park - Outdoor Tennis Court ( 2),sports field,toronto,42,mercury,..,..,on
11065,Flemingdon Park,sports field,toronto,150,grenoble,M3C 1000,..,on
11066,Flemingdon Park Golf Club,sports field,york region,155,dennis,M3C 1H2,don mills,on
11067,Flemington Park,sports field,toronto,10,flemington,M6A 2N4,..,on
11190,Fountainhead Park - Outdoor Tennis Court ( 1),sports field,toronto,445,sentinel,..,..,on
11191,Fountainhead Park - Outdoor Tennis Court ( 2),sports field,toronto,445,sentinel,..,..,on
11192,Fountainhead Park - Outdoor Tennis Court ( 3),sports field,toronto,445,sentinel,..,..,on
11193,Fountainhead Park Tennis Clubhouse,sports field,toronto,445,sentinel,..,..,on
11283,Fundy Bay Park,sports field,toronto,190,fundy bay,M1W 3G1,..,on
11338,George Ben Park,sports field,toronto,120,roxton,M1P 4N7,..,on
11363,George Webster Park,sports field,toronto,30,chapman,M9P 100000,..,on
11375,Gihon Spring Park - Outdoor Tennis Court ( 1),sports field,toronto,75,gihon spring,..,..,on
11376,Gihon Spring Park - Outdoor Tennis Court ( 2),sports field,toronto,75,gihon spring,..,..,on
11377,Gihon Springs Park,sports field,toronto,75,gihon spring,M9V 4X6,..,on
11387,Giltspur Park,sports field,toronto,85,magellan,M3L 1T3,..,on
11391,Giovanni Caboto - Outdoor Tennis Court,sports field,toronto,1367,st-clair,..,..,on
11394,Glamorgan Park,sports field,toronto,50,antrim,M1P 4N4,..,on
11416,Glen Park - Outdoor Tennis Court ( 1),sports field,toronto,44,eastglen,..,..,on
11417,Glen Park - Outdoor Tennis Court ( 2),sports field,toronto,44,eastglen,..,..,on
11439,Glendora Park - Outdoor Tennis Court ( 1),sports field,toronto,201,glendora,..,..,on
11440,Glendora Park - Outdoor Tennis Court ( 2),sports field,toronto,201,glendora,..,..,on
11474,Goldhawk Park,sports field,toronto,295,alton towers,M1V 4H5,..,on
11475,Goldhawk Park,sports field,toronto,295,alton towers,M1V 4H5,..,on
11520,Goulding Park - Outdoor Tennis Court ( 1),sports field,toronto,80,patricia,..,..,on
11521,Goulding Park - Outdoor Tennis Court ( 2),sports field,toronto,80,patricia,..,..,on
11522,Goulding Park - Outdoor Tennis Court ( 3),sports field,toronto,80,patricia,..,..,on
11530,Gracedale Park - Outdoor Tennis Court ( 1),sports field,toronto,176,gracedale,..,..,on
