Index,Facility_Name,ODRSF_facility_type,Provider,Street_No,Street_Name,Postal_Code,City,Prov_Terr
5893,St. Augustine Css,gym,toronto,98,shoreham,M3N 1S9,..,on
5902,St. Gaspar Css,gym,toronto,135,plunkett,M9L 2J7,..,on
5908,St. James Park,playground,toronto,120,king,M5C 1G6,..,on
5917,St. Lawrence Crc,gym,toronto,230,esplanade,M5A 4J6,..,on
5918,St. Lawrence Crc,pool,toronto,230,esplanade,M5A 4J6,..,on
5921,St. Lucie Park,playground,toronto,3300,weston,M9M 2V1,..,on
5923,St. Mary Parkette,playground,toronto,..,yonge,M4Y 2R4,..,on
5941,Stafford Park,playground,toronto,..,stafford,M2N 5V7,..,on
5948,Stanley Park (Etobicoke/York),playground,toronto,25,stanley,M3N 1C2,..,on
5949,Stanley Park (Toronto & East York),playground,toronto,845,king,M5V 1P1,..,on
5961,Stephenson Park,playground,toronto,61,stephenson,M1P 4N7,..,on
5970,Stilecroft Ps,gym,toronto,50,stilecroft,M3J 1A7,..,on
5981,Strathburn Park,playground,toronto,55,strathburn,M9C 2Y2,..,on
5997,Sugar Beach Park,beach,toronto,11,dockside,..,..,on
5999,Sumach-Shuter Parkette,playground,toronto,485,shuter,M5A 1X9,..,on
6000,Sumach-Shuter Parkette,pool,toronto,485,shuter,M5A 1X9,..,on
6002,Summerlea Park,playground,toronto,2,arcot,M9W 2N6,..,on
6004,Summerlea Rink - Outdoor Artificial Ice Rink,rink,toronto,2,arcot,..,..,on
6014,Sunnydale Acres Park,playground,toronto,50,amoro,M9W 4S3,..,on
6016,Sunnydale Acres Rink - Outdoor Artificial Ice Rink,rink,toronto,50,amoro,..,..,on
6019,Sunnyside - Gus Ryder Outdoor Pool,pool,toronto,1755,lake shore,M6S 5A3,..,on
6020,Sunnyside Beach,beach,toronto,1755,lake shore,M6S 5A3,..,on
6031,Susan Tibaldi Park (Margueretta),playground,toronto,353,margueretta,M1T 3B4,..,on
6032,Suydam Park,playground,toronto,22,relmar,M5P 2Y4,..,on
6033,Swansea Crc,gym,toronto,15,waller,M6S 4Z9,..,on
6034,Swansea Crc,pool,toronto,15,waller,M6S 4Z9,..,on
6042,Taddle Creek Park,playground,toronto,40,bedford,M5R 2K1,..,on
6047,Tamarisk Park,playground,toronto,47,kiskadee,M9C 2Y2,..,on
6061,Terraview Park,playground,toronto,1625,pharmacy,M1R 2K9,..,on
6062,Terraview Park,splash pad,toronto,1625,pharmacy,M1R 2K9,..,on
6063,Terry Fox Park,playground,toronto,300,bamburgh,M1W 3Y1,..,on
6072,The Elms Cs & Pool,pool,toronto,45,golfdown,M9W 2H8,..,on
6083,Thirty Eighth Street Parkette,playground,toronto,..,thirty,M9C 2Y2,..,on
6084,Thistletown Cc,gym,toronto,925,albion,M9V 1A6,..,on
6086,Thomas Wells Jps,gym,toronto,69,nightstar,M1X 1V6,..,on
6087,Thomson Memorial Park,playground,toronto,1005,brimley,M1P 300000000,..,on
6102,Three Valleys Park,playground,toronto,82,three valleys,M3A 3B8,..,on
6105,Timberbank Park,playground,toronto,240,timberbank,M1W 2A3,..,on
6111,Tiverton Avenue Parkette,playground,toronto,45,tiverton,M4M 2M1,..,on
6116,Tom Riley Park,playground,toronto,3216,bloor,M8X 10,..,on
6124,Topcliff Park,playground,toronto,75,topcliff,M3N 1L6,..,on
6131,Totts Tots Lot,playground,toronto,2,gradwell,M1M 2M9,..,on
6132,Tournament Park,playground,toronto,40,tournament,M2P 1K2,..,on
6134,Trace Manes Park,playground,toronto,110,rumsey,M4G 1P2,..,on
6157,Trethewey Park,playground,toronto,109,trethewey,M6M 2J9,..,on
6158,Treverton Park,playground,toronto,..,kennedy,M1K 3T8,..,on
6164,Trinity Bellwoods Park - Outdoor Artificial Ice Rink,rink,toronto,790,queen,..,..,on
6165,Trinity Crc,pool,toronto,155,crawford,M6J 2V5,..,on
6203,Upwood Greenbelt,playground,toronto,44,marshlynn,M6L 1J5,..,on
