Index,Facility_Name,ODRSF_facility_type,Provider,Street_No,Street_Name,Postal_Code,City,Prov_Terr
166998,Fountainhead Park,park,toronto,..,..,..,..,on
167000,Four Oaks Gate Park,park,toronto,..,..,..,..,on
167003,Fourth Street Parkette,park,toronto,..,..,..,..,on
167048,Frank Stollery Parkette,park,toronto,..,..,..,..,on
167050,Frankel - Lambert Park,park,toronto,..,..,..,..,on
167057,Franklin Park,park,toronto,..,..,..,..,on
167076,Fraserwood Park,park,toronto,..,..,..,..,on
167082,Fred Johnson Park,park,toronto,..,..,..,..,on
167089,Fred Young Park,park,toronto,..,..,..,..,on
167132,Frost Park,park,toronto,..,..,..,..,on
167141,Fundy Bay Park,park,toronto,..,..,..,..,on
167145,Futura Parkette,park,toronto,..,..,..,..,on
167147,G. Ross Lord Park,park,toronto,..,..,..,..,on
167163,Gaffney Park,park,toronto,..,..,..,..,on
167181,Galloway Park,park,toronto,..,..,..,..,on
167187,Gamble Park,park,toronto,..,..,..,..,on
167193,Garden Avenue Parkette,park,toronto,..,..,..,..,on
167215,Garland Park,park,toronto,..,..,..,..,on
167220,Garnier Park,park,toronto,..,..,..,..,on
167223,Garrison Creek Park,park,toronto,..,..,..,..,on
167233,Garthdale Parkette,park,toronto,..,..,..,..,on
167254,Gateway Park,park,toronto,..,..,..,..,on
167266,Geary Avenue Parkette,park,toronto,..,..,..,..,on
167280,George Ben Park,park,toronto,..,..,..,..,on
167282,George Chater Parkette,park,toronto,..,..,..,..,on
167296,George Hislop Park,park,toronto,..,..,..,..,on
167302,George Milbrandt Parkette,park,toronto,..,..,..,..,on
167318,George Webster Park,park,toronto,..,..,..,..,on
167367,Gerrard - Carlaw Parkette,park,toronto,..,..,..,..,on
167377,Gibson Park,park,toronto,..,..,..,..,on
167384,Gideon Parkette,park,toronto,..,..,..,..,on
167387,Gihon Spring Park,park,toronto,..,..,..,..,on
167401,Giltspur Park,park,toronto,..,..,..,..,on
167403,Giovanni Caboto Park,park,toronto,..,..,..,..,on
167408,Gladhurst Park,park,toronto,..,..,..,..,on
167418,Glamorgan Park,park,toronto,..,..,..,..,on
167425,Glasgow Parkette,park,toronto,..,..,..,..,on
167426,Glasgow Street Parkette,park,toronto,..,..,..,..,on
167431,Gledhill Park,park,toronto,..,..,..,..,on
167438,Glen Agar Park,park,toronto,..,..,..,..,on
167452,Glen Cedar Park,park,toronto,..,..,..,..,on
167454,Glen Edyth Drive Parkette,park,toronto,..,..,..,..,on
167460,Glen Long Park,park,toronto,..,..,..,..,on
167469,Glen Park,park,toronto,..,..,..,..,on
167472,Glen Park Parkette,park,toronto,..,..,..,..,on
167473,Glen Ravine Park,park,toronto,..,..,..,..,on
167474,Glen Sheppard Park,park,toronto,..,..,..,..,on
167476,Glen Stewart Park,park,toronto,..,..,..,..,on
167503,Glendora Park,park,toronto,..,..,..,..,on
