Index,Facility_Name,ODRSF_facility_type,Provider,Street_No,Street_Name,Postal_Code,City,Prov_Terr
7219,Antibes Community Centre - Outdoor Tennis Court,sports field,toronto,140,antibes,..,..,on
7233,Apted Park,sports field,toronto,50,apted,M9L 2P3,..,on
7293,Arsandco Park,sports field,toronto,151,prudential,M1P 4S5,..,on
7397,Badminton Ontario,sports field,oakville,1,concorde,M3C 3N6,toronto,on
8272,Balmoral Park - Outdoor Tennis Court ( 1),sports field,toronto,170,faywood,..,..,on
8273,Balmoral Park - Outdoor Tennis Court ( 2),sports field,toronto,170,faywood,..,..,on
8274,Balmoral Park - Outdoor Tennis Court ( 3),sports field,toronto,170,faywood,..,..,on
8280,Banbury Park - Outdoor Tennis Court ( 1),sports field,toronto,120,banbury,..,..,on
8281,Banbury Park - Outdoor Tennis Court ( 2),sports field,toronto,120,banbury,..,..,on
8282,Banbury Park - Outdoor Tennis Court ( 3),sports field,toronto,120,banbury,..,..,on
8283,Banbury Park - Outdoor Tennis Court ( 4),sports field,toronto,120,banbury,..,..,on
8842,Baycrest Park,sports field,toronto,160,neptune,M6A 1K4,..,on
8843,Baycrest Park - Outdoor Tennis Court ( 1),sports field,toronto,160,neptune,..,..,on
8844,Baycrest Park - Outdoor Tennis Court ( 2),sports field,toronto,160,neptune,..,..,on
8854,Bayview Village Park,sports field,toronto,2945,bayview,M2K 1000000000,..,on
8855,Bayview Village Park - Outdoor Tennis Court ( 1),sports field,toronto,2945,bayview,..,..,on
8856,Bayview Village Park - Outdoor Tennis Court ( 2),sports field,toronto,2945,bayview,..,..,on
8857,Bayview Village Park - Outdoor Tennis Court ( 3),sports field,toronto,2945,bayview,..,..,on
8862,Beaches Park - Outdoor Tennis Court ( 1),sports field,toronto,2075,queen,..,..,on
8863,Beaches Park - Outdoor Tennis Court ( 10),sports field,toronto,2075,queen,..,..,on
8864,Beaches Park - Outdoor Tennis Court ( 2),sports field,toronto,2075,queen,..,..,on
8865,Beaches Park - Outdoor Tennis Court ( 3),sports field,toronto,2075,queen,..,..,on
8866,Beaches Park - Outdoor Tennis Court ( 4),sports field,toronto,2075,queen,..,..,on
8867,Beaches Park - Outdoor Tennis Court ( 5),sports field,toronto,2075,queen,..,..,on
8868,Beaches Park - Outdoor Tennis Court ( 6),sports field,toronto,2075,queen,..,..,on
8869,Beaches Park - Outdoor Tennis Court ( 7),sports field,toronto,2075,queen,..,..,on
8870,Beaches Park - Outdoor Tennis Court ( 8),sports field,toronto,2075,queen,..,..,on
8871,Beaches Park - Outdoor Tennis Court ( 9),sports field,toronto,2075,queen,..,..,on
8890,Beaumonde Heights Park,sports field,toronto,17,waltham,M9V 1S6,..,on
8891,Beaumonde Heights Park - Outdoor Tennis Court ( 1),sports field,toronto,44,amaron,..,..,on
8892,Beaumonde Heights Park - Outdoor Tennis Court ( 2),sports field,toronto,44,amaron,..,..,on
8893,Beaumonde Heights Park - Outdoor Tennis Court ( 3),sports field,toronto,44,amaron,..,..,on
8919,Bellbury Park - Outdoor Tennis Court ( 1),sports field,toronto,55,van horne,..,..,on
8920,Bellbury Park - Outdoor Tennis Court ( 2),sports field,toronto,55,van horne,..,..,on
8921,Bellbury Park - Outdoor Tennis Court ( 3),sports field,toronto,55,van horne,..,..,on
8922,Bellbury Park - Outdoor Tennis Court ( 4),sports field,toronto,55,van horne,..,..,on
8923,Bellbury Park - Outdoor Tennis Court ( 5),sports field,toronto,55,van horne,..,..,on
8924,Bellbury Park Tennis Club,sports field,toronto,55,van horne,..,..,on
8962,Bennington Heights Park - Outdoor Tennis Court ( 1),sports field,toronto,465,heath,..,..,on
8963,Bennington Heights Park - Outdoor Tennis Court ( 2),sports field,toronto,465,heath,..,..,on
8969,Bestview Park,sports field,toronto,115,bestview,M2M 2Y1,..,on
8970,Bestview Park - Outdoor Tennis Court ( 1),sports field,toronto,115,bestview,..,..,on
8971,Bestview Park - Outdoor Tennis Court ( 2),sports field,toronto,115,bestview,..,..,on
8972,Bestview Park - Outdoor Tennis Court ( 3),sports field,toronto,115,bestview,..,..,on
8977,Bickford Park,sports field,toronto,400,grace,M6G 3A8,..,on
8994,Birch Park,sports field,toronto,75,arcadian,M8Y 2Z5,..,on
8995,Birch Park - Outdoor Tennis Court ( 1),sports field,toronto,75,arcadian,..,..,on
8996,Birch Park - Outdoor Tennis Court ( 2),sports field,toronto,75,arcadian,..,..,on
9000,Birchmount Park - Outdoor Tennis Court ( 1),sports field,toronto,95,birchmount,..,..,on
