Index,Facility_Name,ODRSF_facility_type,Provider,Street_No,Street_Name,Postal_Code,City,Prov_Terr
3662,Old Orchard Park,playground,toronto,465,old orchard grove,M5M 2G3,..,on
3682,Ontario Street Parkette,playground,toronto,227,ontario,M5A 2V6,..,on
3688,Oriole Cc,gym,toronto,2975,don mills,M2J 3B7,..,on
3689,Oriole Cc,pool,toronto,2975,don mills,M2J 3B7,..,on
3691,Oriole Community Centre - Indoor Ice Pad,rink,toronto,2955,don mills,..,..,on
3692,Oriole Park,playground,toronto,201,oriole,M5P 2H4,..,on
3694,Oriole Park - North York,playground,toronto,2975,don mills,M1P 4N7,..,on
3695,Ormskirk Park,playground,toronto,33,ormskirk,M6S 1B1,..,on
3703,Osler Playground,playground,toronto,123,argyle,M6J 1N7,..,on
3704,Osler Playground,pool,toronto,123,argyle,M6J 1N7,..,on
3707,Otter Creek Centre - Outdoor Artificial Ice Rink,rink,toronto,140,cheritan,..,..,on
3710,Ourland Cc,gym,toronto,18,ourland,M8Z 4C9,..,on
3711,Ourland Outdoor Pool,pool,toronto,36,ourland,M8Z 4C9,..,on
3712,Ourland Park,playground,toronto,36,ourland,M8Z 40,..,on
4005,Pape Avenue Playground,playground,toronto,953,gerrard,M4M 1Z4,..,on
4313,Park Lawn Bubble Rink - Indoor Ice Pad,rink,toronto,340,park lawn,..,..,on
4314,Park Lawn Outdoor Pool,pool,toronto,340,park lawn,M8Y 3K3,..,on
4315,Park Lawn Park,playground,toronto,340,park lawn,M8Y 3K4,..,on
4455,Parkdale Crc,gym,toronto,75,lansdowne,M6K 2W1,..,on
4456,Parkdale Crc,pool,toronto,75,lansdowne,M6K 2W1,..,on
4466,Parkway Forest Park,playground,toronto,80,parkway forest,M6R 1T5,..,on
4489,Paul Quarrington - Outdoor Artificial Ice Rink,rink,toronto,61,dockside,..,..,on
4504,Pelham Avenue Playground,playground,toronto,20,pelham,M6N 2W9,..,on
4505,Pelham Avenue Playground,pool,toronto,20,pelham,M6N 2W9,..,on
4506,Pelmo Park,playground,toronto,171,pellatt,M9N 2P5,..,on
4513,Perth Square,playground,toronto,350,perth,M6P 3X3,..,on
4514,Perth Square,splash pad,toronto,350,perth,M6P 3X3,..,on
4519,Peter Secor Park,playground,toronto,235,coronation,M1E 2J3,..,on
4524,Phil White Arena - Indoor Ice Pad,rink,toronto,443,arlington,..,..,on
4525,Phin Avenue Parkette,playground,toronto,115,condor,M4J 3H4,..,on
4536,Pine Point Arena,rink,toronto,15,grierson,M9W 3R2,..,on
4537,Pine Point Arena - Indoor Ice Pad,rink,toronto,4,conan,..,..,on
4538,Pine Point Outdoor Pool,pool,toronto,15,grierson,M9W 3R2,..,on
4539,Pine Point Park,playground,toronto,4,conan,M9W 3S7,..,on
4552,Pinto Park,playground,toronto,21,pinto,M3J 3T9,..,on
4757,Pleasant View Community Centre - Indoor Ice Pad,rink,toronto,561,van horne,..,..,on
4758,Pleasantview Cc,pool,toronto,545,van horne,M2J 4S8,..,on
4759,Pleasantview Cc,rink,toronto,545,van horne,M2J 4S8,..,on
4760,Plowshare Park,playground,toronto,54,plowshare,M9C 2Y2,..,on
4782,Port Union Village Common Park,playground,toronto,105,bridgend,M9C 2Y2,..,on
4783,Port Union Waterfront Trail,splash pad,toronto,5450,lawrence,M1C 3B2,..,on
4790,Pottery Playground,playground,toronto,601,merton,M4S 1B4,..,on
4791,Pottery Playground,splash pad,toronto,601,merton,M4S 1B4,..,on
4794,Prairie Drive Park,playground,toronto,70,prairie,M1L 1L5,..,on
4795,Prairie Drive Park,pool,toronto,70,prairie,M1L 1L5,..,on
4802,Pricefield Playground,playground,toronto,50,pricefield,M4W 1Z8,..,on
4804,Primrose Avenue Parkette,playground,toronto,120,primrose,M6H 3V3,..,on
4805,Primrose Avenue Parkette,pool,toronto,120,primrose,M6H 3V3,..,on
4806,Primula Parkette,playground,toronto,86,primula,M9C 2Y2,..,on
