Index,Facility_Name,ODRSF_facility_type,Provider,Street_No,Street_Name,Postal_Code,City,Prov_Terr
696,Carmine Stefano Cc,gym,toronto,3100,weston,M9M 2S7,..,on
701,Carr Street Parkette,playground,toronto,47,denison,M5T 2M7,..,on
702,Carr Street Parkette,pool,toronto,47,denison,M5T 2M7,..,on
724,Cassandra Park,playground,toronto,230,cassandra,M3A 1T6,..,on
725,Cassels Avenue Playground,playground,toronto,69,cassels,M4E 1Y3,..,on
726,Cassels Avenue Playground,splash pad,toronto,69,cassels,M4E 1Y3,..,on
742,Cawthra Playground,playground,toronto,355,albany,M5R 300,..,on
744,Cawthra Square,playground,toronto,519,church,M4Y 2C9,..,on
745,Cawthra Square,pool,toronto,519,church,M4Y 2C9,..,on
747,Cayuga Park,playground,toronto,120,cayuga,M6N 2G4,..,on
754,Cedarbrae Ci,pool,toronto,550,markham,M1H 2A2,..,on
757,Cedarbrook Park,playground,toronto,91,eastpark,M1H 1C6,..,on
761,Cedarvale Park,playground,toronto,443,arlington,M6C 3A4,..,on
762,Cedarvale Park - Outdoor Artificial Ice Rink,rink,toronto,443,arlington,..,..,on
767,Centennial Arena (Etobicoke/York),rink,toronto,256,centennial park,M9C 5N3,..,on
777,Centennial Park Arena - Indoor Ice Pad ( 1),rink,toronto,156,centennial park,..,..,on
781,Centennial Park Stadium,stadium,toronto,56,centennial park,M9C 5N3,..,on
785,Centennial Rc - Etobicoke York,gym,toronto,2694,eglinton,M6M 1T9,..,on
786,Centennial Rc - Etobicoke York,pool,toronto,2694,eglinton,M6M 1T9,..,on
787,Centennial Rc - Scarborough,pool,toronto,1967,ellesmere,M1H 2W5,..,on
788,Centennial Rc - Scarborough,rink,toronto,1967,ellesmere,M1H 2W5,..,on
789,Centennial Recreation Centre - Scarborough - Indoor Ice Pad ( 1),rink,toronto,250,dolly varden,..,..,on
793,Central Arena,rink,toronto,50,montgomery,M8X 1Z4,..,on
794,Central Arena - Indoor Ice Pad,rink,toronto,4725,dundas,..,..,on
950,Centre Island Beach,beach,toronto,..,..,..,..,on
953,Centre Park,playground,toronto,15,centre,M2M 2L3,..,on
985,Chalkfarm Cc,gym,toronto,180,chalkfarm,M3L 2H8,..,on
986,Chalkfarm Park,playground,toronto,..,heavitree,M9C 2Y2,..,on
987,Chalkfarm Park,splash pad,toronto,..,heavitree,M9C 2Y2,..,on
1014,Charlottetown Park,playground,toronto,65,charlottetown,M1C 2C6,..,on
1017,Chartwell Park,playground,toronto,99,kenhatch,M1S 4B3,..,on
1021,Chelsea Avenue Playground,playground,toronto,103,chelsea,M6P 1C3,..,on
1022,Chelsea Avenue Playground,pool,toronto,103,chelsea,M6P 1C3,..,on
1025,Cherry Beach/Clarke Beach,beach,toronto,275,unwin,..,..,on
1030,Chestnut Hills Park,playground,toronto,1391,islington,M9A 3K5,..,on
1055,Chris Tonks Arena,rink,toronto,2801,eglinton,M6M 5B4,..,on
1056,Chris Tonks Arena - Indoor Ice Pad,rink,toronto,95,black creek,..,..,on
1062,Christie Pits Park - Outdoor Artificial Ice Rink,rink,toronto,750,bloor,..,..,on
1065,Churchill Heights Park,playground,toronto,60,mountland,M1H 2W5,..,on
1109,Cliffwood Park,playground,toronto,280,cliffwood,M2H 200000,..,on
1113,Close Avenue Parkette,playground,toronto,116,close,M6K 1H6,..,on
1114,Close Avenue Parkette,pool,toronto,116,close,M6K 1H6,..,on
1125,Clydesdale Park,playground,toronto,116,clydesdale,M2J 3N2,..,on
1133,Coleman Park,playground,toronto,19,coleman,M4C 1P8,..,on
1134,Coleman Park,pool,toronto,19,coleman,M4C 1P8,..,on
1139,Colonel Samuel Smith Park,rink,toronto,3131,lake shore,M8V 1L4,..,on
1140,Colonel Samuel Smith Park - Skate Trail,rink,toronto,3145,lake shore,..,..,on
1143,Colony Park,playground,toronto,366,silverstone,M9C 2Y2,..,on
1148,Columbus Parkette,playground,toronto,1985,dundas,M6R 1W7,..,on
