Index,Facility_Name,ODRSF_facility_type,Provider,Street_No,Street_Name,Postal_Code,City,Prov_Terr
18586,York Mills Valley Park - Outdoor Tennis Court ( 2),sports field,toronto,3865,yonge,..,..,on
18587,York Mills Valley Park - Outdoor Tennis Court ( 2),sports field,toronto,3865,yonge,..,..,on
18588,York Mills Valley Park - Outdoor Tennis Court ( 3),sports field,toronto,3865,yonge,..,..,on
18589,York Mills Valley Park Tennis Building,sports field,toronto,1,mill,..,..,on
21570,Beltline Trail,trail,toronto,..,bayview,..,..,on
21571,Beltline Trail,trail,toronto,..,lascelles,..,..,on
21572,Beltline Trail,trail,toronto,..,avenue,..,..,on
21573,Beltline Trail,trail,toronto,..,chaplin,..,..,on
21574,Beltline Trail,trail,toronto,..,chaplin,..,..,on
21575,Beltline Trail,trail,toronto,..,aldburn,..,..,on
21576,Beltline Trail,trail,toronto,..,elm ridge,..,..,on
21577,Beltline Trail,trail,toronto,..,boulton,..,..,on
21578,Beltline Trail,trail,toronto,..,heath,..,..,on
21579,Beltline Trail,trail,toronto,..,durham,..,..,on
21580,Beltline Trail,trail,toronto,..,ava,..,..,on
21581,Beltline Trail,trail,toronto,..,bowie,..,..,on
21582,Beltline Trail,trail,toronto,..,roland,..,..,on
21583,Beltline Trail,trail,toronto,..,hopewell,..,..,on
21584,Beltline Trail,trail,toronto,..,hopewell,..,..,on
21585,Beltline Trail,trail,toronto,..,south,..,..,on
21586,Beltline Trail,trail,toronto,..,mount pleasant,..,..,on
21587,Beltline Trail,trail,toronto,..,oriole,..,..,on
21588,Beltline Trail,trail,toronto,..,hill,..,..,on
21589,Beltline Trail,trail,toronto,..,bathurst,..,..,on
21590,Beltline Trail,trail,toronto,..,markdale,..,..,on
21591,Beltline Trail,trail,toronto,..,caledonia,..,..,on
21592,Beltline Trail,trail,toronto,..,salinas,..,..,on
21593,Beltline Trail,trail,toronto,..,moore,..,..,on
21594,Beltline Trail,trail,toronto,..,st clair,..,..,on
21595,Beltline Trail,trail,toronto,..,bayview,..,..,on
21596,Beltline Trail,trail,toronto,..,mount pleasant,..,..,on
21597,Beltline Trail,trail,toronto,..,old park,..,..,on
21598,Beltline Trail,trail,toronto,..,bayview,..,..,on
21599,Beltline Trail,trail,toronto,..,shallmar,..,..,on
21600,Beltline Trail,trail,toronto,..,glenayr,..,..,on
21840,Berner Trail Park Trail,trail,toronto,..,nahanni,..,..,on
21841,Berner Trail Park Trail,trail,toronto,..,cheatham,..,..,on
21842,Berner Trail Park Trail,trail,toronto,..,tapscott,..,..,on
21843,Berner Trail Park Trail,trail,toronto,..,osterhout,..,..,on
21844,Berner Trail Park Trail,trail,toronto,..,sachems,..,..,on
21886,Betty Sutherland Trail,trail,toronto,..,manorpark,..,..,on
21887,Betty Sutherland Trail,trail,toronto,..,havenbrook,..,..,on
21888,Betty Sutherland Trail,trail,toronto,..,sheppard,..,..,on
21889,Betty Sutherland Trail,trail,toronto,..,duncan mill,..,..,on
22012,Black Creek Trail,trail,toronto,..,jane,..,..,on
22013,Black Creek Trail,trail,toronto,..,rockcliffe,..,..,on
22014,Black Creek Trail,trail,toronto,..,tavistock,..,..,on
22015,Black Creek Trail,trail,toronto,..,exbury,..,..,on
22016,Black Creek Trail,trail,toronto,..,tavistock,..,..,on
