Index,Facility_Name,ODRSF_facility_type,Provider,Street_No,Street_Name,Postal_Code,City,Prov_Terr
167514,Glengrove / Marlee Parkette,park,toronto,..,..,..,..,on
167526,Glenn Gould Park,park,toronto,..,..,..,..,on
167530,Glenview Parkette,park,toronto,..,..,..,..,on
167550,Godstone Park,park,toronto,..,..,..,..,on
167605,Goldhawk Park,park,toronto,..,..,..,..,on
167612,Golf Club Parkette,park,toronto,..,..,..,..,on
167631,Gord And Irene Risk Park,park,toronto,..,..,..,..,on
167671,Goulding Park,park,toronto,..,..,..,..,on
167683,Gower Park Place - Building Grounds,park,toronto,..,..,..,..,on
167688,Grace - College Parkette,park,toronto,..,..,..,..,on
167693,Gracedale Park,park,toronto,..,..,..,..,on
167695,Gracefield Park,park,toronto,..,..,..,..,on
167696,Grafton Avenue Park,park,toronto,..,..,..,..,on
167700,Graham Park,park,toronto,..,..,..,..,on
167708,Grand Avenue Park,park,toronto,..,..,..,..,on
167738,Grandravine Park,park,toronto,..,..,..,..,on
167749,Grange Park,park,toronto,..,..,..,..,on
167779,Grattan Park,park,toronto,..,..,..,..,on
167783,Graydon Hall Park,park,toronto,..,..,..,..,on
167801,Green Hills Park,park,toronto,..,..,..,..,on
167808,Green Meadows Park - Etobicoke York,park,toronto,..,..,..,..,on
167809,Green Meadows Park - North York,park,toronto,..,..,..,..,on
167820,Greenbelt Park,park,toronto,..,..,..,..,on
167823,Greenbrae Parkette,park,toronto,..,..,..,..,on
167835,Greenfield Park,park,toronto,..,..,..,..,on
167862,Greenvale Park,park,toronto,..,..,..,..,on
167874,Greenwood Park,park,toronto,..,..,..,..,on
167885,Grey Abbey Park,park,toronto,..,..,..,..,on
167887,Grey Parkette,park,toronto,..,..,..,..,on
167891,Greystone Park,park,toronto,..,..,..,..,on
167928,Guild Park And Gardens,park,toronto,..,..,..,..,on
167932,Guildwood Village Park,park,toronto,..,..,..,..,on
167938,Gulliver Park,park,toronto,..,..,..,..,on
167941,Gustav Parkette,park,toronto,..,..,..,..,on
167951,Gwendolen Park,park,toronto,..,..,..,..,on
167952,Gwendolyn Macewen Parkette,park,toronto,..,..,..,..,on
167962,Habitant Park,park,toronto,..,..,..,..,on
167976,Hague Park,park,toronto,..,..,..,..,on
167980,Haimer Park,park,toronto,..,..,..,..,on
167984,Halbert Park,park,toronto,..,..,..,..,on
168010,Hampshire Heights Park,park,toronto,..,..,..,..,on
168022,Haney Park,park,toronto,..,..,..,..,on
168042,Harbour Square Park Lands,park,toronto,..,..,..,..,on
168050,Harding Park,park,toronto,..,..,..,..,on
168051,Harding Parkette,park,toronto,..,..,..,..,on
168057,Harlandale Parkette,park,toronto,..,..,..,..,on
168074,Harold Town Park,park,toronto,..,..,..,..,on
168087,Harrison Park,park,toronto,..,..,..,..,on
168106,Hartfield Court Parkette,park,toronto,..,..,..,..,on
