Index,Facility_Name,ODRSF_facility_type,Provider,Street_No,Street_Name,Postal_Code,City,Prov_Terr
11532,Gracedale Park - Outdoor Tennis Court ( 3),sports field,toronto,176,gracedale,..,..,on
11551,Grandravine Park,sports field,toronto,23,grandravine,M3J 1B1,..,on
11552,Grandravine Park - Outdoor Tennis Court ( 1),sports field,toronto,23,grandravine,..,..,on
11553,Grandravine Park - Outdoor Tennis Court ( 2),sports field,toronto,23,grandravine,..,..,on
11554,Grandravine Park - Outdoor Tennis Court ( 3),sports field,toronto,23,grandravine,..,..,on
11567,Graydon Hall Park - Outdoor Tennis Court ( 1),sports field,toronto,215,graydon hall,..,..,on
11568,Graydon Hall Park - Outdoor Tennis Court ( 2),sports field,toronto,215,graydon hall,..,..,on
11569,Graydon Hall Park - Outdoor Tennis Court ( 3),sports field,toronto,215,graydon hall,..,..,on
11607,Greenvale Park,sports field,toronto,10,greenvale,M1E 2B7,..,on
11613,Greenwood Park,sports field,toronto,150,greenwood,M4L 2P8,..,on
11647,Gulliver Park,sports field,toronto,55,gulliver,M6M 2M3,..,on
11651,Gwendolen Park,sports field,toronto,3,gwendolen,M2N 1A1,..,on
11652,Gwendolen Park - Outdoor Tennis Court,sports field,toronto,3,gwendolen,..,..,on
11653,Gwendolen Park - Outdoor Tennis Court ( 1),sports field,toronto,3,gwendolen,..,..,on
11654,Gwendolen Park - Outdoor Tennis Court ( 2),sports field,toronto,3,gwendolen,..,..,on
11655,Gwendolen Park - Outdoor Tennis Court ( 3),sports field,toronto,3,gwendolen,..,..,on
11656,Gwendolen Park Tennis Clubhouse,sports field,toronto,3,gwendolen,..,..,on
11678,Hanlan's Point Park - Outdoor Tennis Court ( 1),sports field,toronto,9,queens,..,..,on
11679,Hanlan's Point Park - Outdoor Tennis Court ( 2),sports field,toronto,9,queens,..,..,on
11680,Hanlan's Point Park - Outdoor Tennis Court ( 3),sports field,toronto,9,queens,..,..,on
11681,Hanlan's Point Park - Outdoor Tennis Court ( 4),sports field,toronto,9,queens,..,..,on
11682,Hanlan's Point Park - Outdoor Tennis Court ( 5),sports field,toronto,9,queens,..,..,on
11683,Hanlan's Point Park - Outdoor Tennis Court ( 6),sports field,toronto,9,queens,..,..,on
11693,Harding Park - Etobicoke York District,sports field,toronto,59,hearst,M6M 2T9,..,on
11730,Havenbrook Park,sports field,toronto,15,havenbrook,M2J 1A3,..,on
11731,Havenbrook Park - Outdoor Tennis Court ( 1),sports field,toronto,15,havenbrook,..,..,on
11732,Havenbrook Park - Outdoor Tennis Court ( 2),sports field,toronto,15,havenbrook,..,..,on
11733,Havenbrook Park - Outdoor Tennis Court ( 3),sports field,toronto,15,havenbrook,..,..,on
11734,Havenbrook Park - Outdoor Tennis Court ( 4),sports field,toronto,15,havenbrook,..,..,on
11735,Havenbrook Park Tennis Clubhouse,sports field,toronto,15,havenbrook,..,..,on
11738,Hawksbury Park - Outdoor Tennis Court ( 1),sports field,toronto,1,hawksbury,..,..,on
11739,Hawksbury Park - Outdoor Tennis Court ( 2),sports field,toronto,1,hawksbury,..,..,on
11740,Hawksbury Park - Outdoor Tennis Court ( 3),sports field,toronto,1,hawksbury,..,..,on
11741,Hawksbury Park - Outdoor Tennis Court ( 4),sports field,toronto,1,hawksbury,..,..,on
11742,Hawksbury Park - Outdoor Tennis Court ( 5),sports field,toronto,1,hawksbury,..,..,on
11743,Hawksbury Park - Outdoor Tennis Court ( 6),sports field,toronto,1,hawksbury,..,..,on
11744,Hawksbury Park Tennis Clubhouse,sports field,toronto,1,hawksbury,..,..,on
11784,Hendon Park,sports field,toronto,40,eldora,M2M 1R4,..,on
11785,Hendon Park - Outdoor Tennis Court ( 1),sports field,toronto,50,hendon,..,..,on
11786,Hendon Park - Outdoor Tennis Court ( 2),sports field,toronto,50,hendon,..,..,on
11787,Hendon Park - Outdoor Tennis Court ( 3),sports field,toronto,50,hendon,..,..,on
11788,Hendon Park - Outdoor Tennis Court ( 4),sports field,toronto,50,hendon,..,..,on
11789,Hendon Park Tennis Clubhouse,sports field,toronto,50,hendon,..,..,on
11846,Heron Park - Outdoor Tennis Court ( 1),sports field,toronto,292,manse,..,..,on
11847,Heron Park - Outdoor Tennis Court ( 2),sports field,toronto,292,manse,..,..,on
11848,Heron Park - Outdoor Tennis Court ( 3),sports field,toronto,292,manse,..,..,on
11849,Heron Park - Outdoor Tennis Court ( 4),sports field,toronto,292,manse,..,..,on
11850,Heron Park - Outdoor Tennis Court ( 5),sports field,toronto,292,manse,..,..,on
11851,Heron Park Rc,sports field,toronto,292,manse,M1E 3V4,..,on
