Index,Facility_Name,ODRSF_facility_type,Provider,Street_No,Street_Name,Postal_Code,City,Prov_Terr
164913,Clydesdale Park,park,toronto,..,..,..,..,on
164925,Cobble Hills Parkette,park,toronto,..,..,..,..,on
164934,Coe Hill Drive Parkette,park,toronto,..,..,..,..,on
164951,Coleman Park,park,toronto,..,..,..,..,on
164962,Collingsbrook Parkette,park,toronto,..,..,..,..,on
164964,Collingwood Park,park,toronto,..,..,..,..,on
164971,Colonel Danforth Park,park,toronto,..,..,..,..,on
164975,Colonel Samuel Smith Park,park,toronto,..,..,..,..,on
164985,Colonial Park,park,toronto,..,..,..,..,on
164987,Colony Park,park,toronto,..,..,..,..,on
165000,Columbus Parkette,park,toronto,..,..,..,..,on
165005,Commander Park,park,toronto,..,..,..,..,on
165031,Conacher Park,park,toronto,..,..,..,..,on
165047,Confederation Park,park,toronto,..,..,..,..,on
165055,Conlands Parkette,park,toronto,..,..,..,..,on
165057,Connaught Circle Parkette,park,toronto,..,..,..,..,on
165064,Connorvale Park,park,toronto,..,..,..,..,on
165071,Constable Percy Cummins Parkette,park,toronto,..,..,..,..,on
165123,Cornell Park,park,toronto,..,..,..,..,on
165154,Coronation Park - Etobicoke,park,toronto,..,..,..,..,on
165155,Coronation Park - Toronto,park,toronto,..,..,..,..,on
165156,Coronation Park - York,park,toronto,..,..,..,..,on
165166,Cortleigh Parkette,park,toronto,..,..,..,..,on
165167,Corvette Park,park,toronto,..,..,..,..,on
165169,Cosburn Park,park,toronto,..,..,..,..,on
165172,Cotswold Park,park,toronto,..,..,..,..,on
165186,Coulter Ave Parkette,park,toronto,..,..,..,..,on
165245,Courthouse Square Park,park,toronto,..,..,..,..,on
165268,Coxwell Avenue Parkette,park,toronto,..,..,..,..,on
165269,Coxwell Ravine Park,park,toronto,..,..,..,..,on
165300,Crawford - Jones Memorial Park,park,toronto,..,..,..,..,on
165325,Creekside Park,park,toronto,..,..,..,..,on
165343,Crescentwood Park,park,toronto,..,..,..,..,on
165348,Cresthaven Park,park,toronto,..,..,..,..,on
165372,Crocus Park,park,toronto,..,..,..,..,on
165375,Cronin Park,park,toronto,..,..,..,..,on
165414,Cruickshank Park,park,toronto,..,..,..,..,on
165422,Cudia Park,park,toronto,..,..,..,..,on
165424,Cudmore Creek Park,park,toronto,..,..,..,..,on
165425,Cullen Bryant Park,park,toronto,..,..,..,..,on
165436,Cummer Park,park,toronto,..,..,..,..,on
165437,Cummer Parkette,park,toronto,..,..,..,..,on
165444,Curran Hall Ravine Park,park,toronto,..,..,..,..,on
165445,Curtin Park,park,toronto,..,..,..,..,on
165452,Cy Townsend Park,park,toronto,..,..,..,..,on
165453,Cynthia - Frimette Parkette,park,toronto,..,..,..,..,on
165475,Dalesford Park,park,toronto,..,..,..,..,on
165494,Dallington Park,park,toronto,..,..,..,..,on
165496,Dalrymple Park,park,toronto,..,..,..,..,on
