Index,Facility_Name,ODRSF_facility_type,Provider,Street_No,Street_Name,Postal_Code,City,Prov_Terr
67386,West Humber River Trail,trail,toronto,..,albion,..,..,on
67387,West Humber River Trail,trail,toronto,..,arboretum,..,..,on
67388,West Humber River Trail,trail,toronto,..,alicewood,..,..,on
67389,West Humber River Trail,trail,toronto,..,finch,..,..,on
67390,West Humber River Trail,trail,toronto,..,checkendon,..,..,on
67391,West Humber River Trail,trail,toronto,..,westhumber,..,..,on
67433,West Toronto Rail Path Trail,trail,toronto,..,dundas,..,..,on
67434,West Toronto Rail Path Trail,trail,toronto,..,wallace,..,..,on
67435,West Toronto Rail Path Trail,trail,toronto,..,dupont,..,..,on
67436,West Toronto Rail Path Trail,trail,toronto,..,bloor,..,..,on
67437,West Toronto Rail Path Trail,trail,toronto,..,cariboo,..,..,on
67660,Wickson Trail Park Trail,trail,toronto,..,quantrell,..,..,on
67661,Wickson Trail Park Trail,trail,toronto,..,sewells,..,..,on
67662,Wicksontrail Park Trail,trail,toronto,..,silverbell,..,..,on
67718,Wilket Creek Trail,trail,toronto,..,lesile,..,..,on
67719,Wilket Creek Trail,trail,toronto,..,york mills,..,..,on
67720,Wilket Creek Trail,trail,toronto,..,tudor gt,..,tudor,on
67721,Wilket Creek Trail,trail,toronto,..,bayview,..,..,on
67722,Wilket Creek Trail,trail,toronto,..,penwood,..,..,on
67723,Wilket Creek Trail,trail,toronto,..,lesile,..,..,on
67724,Wilket Creek Trail,trail,toronto,..,misty,..,..,on
67725,Wilket Creek Trail,trail,toronto,..,banbury,..,..,on
67726,Wilket Creek Trail,trail,toronto,..,salonica,..,..,on
67727,Wilket Creek Trail,trail,toronto,..,wilket,..,..,on
67728,Wilket Creektrail,trail,toronto,..,the bridle,..,..,on
68146,Withrow Park Trail,trail,toronto,..,carlaw,..,..,on
68147,Withrow Park Trail,trail,toronto,..,logan,..,..,on
68263,Woodbine Park Trail,trail,toronto,..,lake shore,..,..,on
68264,Woodbine Park Trail,trail,toronto,..,queen,..,..,on
70016,York Mills Circle Trail,trail,toronto,..,colvestone,..,..,on
70017,York Mills Circletrail,trail,toronto,..,york mills,..,..,on
70018,York Mills Valley Park Trail,trail,toronto,..,old york mills,..,..,on
70019,York Mills Valley Park Trail,trail,toronto,..,donino,..,..,on
70020,York Mills Valley Park Trail,trail,toronto,..,yonge,..,..,on
70021,York Mills Valley Park Trail,trail,toronto,..,mill,..,..,on
73352,..,trail,brampton,..,..,..,..,on
75685,..,trail,brampton,..,..,..,..,on
98197,..,trail,province of ontario,..,..,..,..,on
98293,..,trail,province of ontario,..,..,..,..,on
98324,..,trail,province of ontario,..,..,..,..,on
98325,..,trail,province of ontario,..,..,..,..,on
98326,..,trail,province of ontario,..,..,..,..,on
98332,..,trail,province of ontario,..,..,..,..,on
98377,..,trail,province of ontario,..,..,..,..,on
100066,..,trail,province of ontario,..,..,..,..,on
100067,..,trail,province of ontario,..,..,..,..,on
100068,..,trail,province of ontario,..,..,..,..,on
100069,..,trail,province of ontario,..,..,..,..,on
100070,..,trail,province of ontario,..,..,..,..,on
