Index,Facility_Name,ODRSF_facility_type,Provider,Street_No,Street_Name,Postal_Code,City,Prov_Terr
153046,..,trail,peel region,..,..,..,..,on
153047,..,trail,peel region,..,..,..,..,on
153338,..,trail,peel region,..,..,..,..,on
153339,..,trail,peel region,..,..,..,..,on
153340,..,trail,peel region,..,..,..,..,on
153341,..,trail,peel region,..,..,..,..,on
153342,..,trail,peel region,..,..,..,..,on
153343,..,trail,peel region,..,..,..,..,on
153344,..,trail,peel region,..,..,..,..,on
153345,..,trail,peel region,..,..,..,..,on
153346,..,trail,peel region,..,..,..,..,on
153827,..,trail,peel region,..,..,..,..,on
153828,..,trail,peel region,..,..,..,..,on
155063,..,trail,peel region,..,..,..,..,on
155064,..,trail,peel region,..,..,..,..,on
155065,..,trail,peel region,..,..,..,..,on
155989,..,trail,peel region,..,..,..,..,on
156082,..,trail,peel region,..,..,..,..,on
156086,..,trail,peel region,..,..,..,..,on
161779,4560 Eglinton Ave W Park,park,toronto,..,..,..,..,on
162051,Abbotsford Park,park,toronto,..,..,..,..,on
162072,Acacia Park,park,toronto,..,..,..,..,on
162087,Adams Park,park,toronto,..,..,..,..,on
162093,Adanac Park,park,toronto,..,..,..,..,on
162113,Agincourt Park,park,toronto,..,..,..,..,on
162119,Ailsa Craig Parkette,park,toronto,..,..,..,..,on
162131,Alamosa Park,park,toronto,..,..,..,..,on
162132,Alan - Oxford Parkette,park,toronto,..,..,..,..,on
162139,Albert Crosland Park,park,toronto,..,..,..,..,on
162148,Albert Standing Park,park,toronto,..,..,..,..,on
162157,Albion Gardens Park,park,toronto,..,..,..,..,on
162187,Alderwood Memorial Park,park,toronto,..,..,..,..,on
162189,Aldwych Park,park,toronto,..,..,..,..,on
162193,Alex Marchetti Park,park,toronto,..,..,..,..,on
162195,Alex Murray Parkette,park,toronto,..,..,..,..,on
162205,Alexander Park,park,toronto,..,..,..,..,on
162211,Alexander Street Parkette,park,toronto,..,..,..,..,on
162212,Alexander The Great Parkette,park,toronto,..,..,..,..,on
162215,Alexandra Park,park,toronto,..,..,..,..,on
162219,Alexmuir Park,park,toronto,..,..,..,..,on
162228,Alicewood Court Parkette,park,toronto,..,..,..,..,on
162243,Allanhurst Park,park,toronto,..,..,..,..,on
162298,Amberdale Ravine Park,park,toronto,..,..,..,..,on
162308,Ambrose Parkette,park,toronto,..,..,..,..,on
162310,Ames Park,park,toronto,..,..,..,..,on
162314,Amesbury Park,park,toronto,..,..,..,..,on
162317,Amos Waites Park,park,toronto,..,..,..,..,on
162327,Ancaster Park,park,toronto,..,..,..,..,on
162332,Ancona Park,park,toronto,..,..,..,..,on
