Index,Facility_Name,ODRSF_facility_type,Provider,Street_No,Street_Name,Postal_Code,City,Prov_Terr
2013,Greystone Park,splash pad,toronto,845,danforth,M4J 1L2,..,on
2022,Guildwood Village Park,playground,toronto,219,livingston,M1G 300000,..,on
2023,Gulliver Park,playground,toronto,55,gulliver,M6M 2M3,..,on
2025,Gus Ryder Pool & Health Club,pool,toronto,1,faustina,M8V 3L9,..,on
2026,Gwendolen Park,playground,toronto,3,gwendolen,M2N 1A1,..,on
2034,H.A. Halbert Park,playground,toronto,24,rockwood,M1M 3N1,..,on
2035,H.A. Halbert Park,pool,toronto,24,rockwood,M1M 3N1,..,on
2042,Habitant Arena - Indoor Ice Pad,rink,toronto,3383,weston,..,..,on
2046,Haimer Park,playground,toronto,17,pumfrey,M9C 2Y2,..,on
2054,Hanlan's Point Beach,beach,toronto,695,lakeshore,..,..,on
2063,Harding Park - Etobicoke York District,playground,toronto,59,hearst,M6M 2T9,..,on
2071,Harrison Pool,pool,toronto,15,stephanie,M5T 1B1,..,on
2077,Harry Gairey - Alexandra Park - Outdoor Artificial Ice Rink,rink,toronto,275,bathurst,..,..,on
2079,Harryetta Gardens,playground,toronto,170,torresdale,M2R 3000,..,on
2080,Harwood Park,playground,toronto,..,mccormack,M6N 3X3,..,on
2086,Havenbrook Park,playground,toronto,15,havenbrook,M2J 1A3,..,on
2087,Havendale Park,playground,toronto,5,belgreen,M1S 1G3,..,on
2098,Healey Willan Park,playground,toronto,504,euclid,M6G 2T1,..,on
2099,Healey Willan Park,pool,toronto,504,euclid,M6G 2T1,..,on
2106,Heathrow Park,playground,toronto,69,heathrow,M3M 1X2,..,on
2107,Heathrow Park,splash pad,toronto,69,heathrow,M3M 1X2,..,on
2117,Hendon Park,playground,toronto,40,eldora,M2M 1R4,..,on
2127,Herbert H. Carnegie Centennial Centre - Indoor Ice Pad,rink,toronto,580,finch,..,..,on
2136,Heron Park Community Recreation Centre - Indoor Ice Pad ( 1),rink,toronto,292,manse,..,..,on
2137,Heron Park Rc,gym,toronto,292,manse,M1E 3V4,..,on
2153,Hidden Trail Park,playground,toronto,506,hidden,M2R 3R8,..,on
2155,Hideaway Park,playground,toronto,23,audley,M4M 1P5,..,on
2156,Hideaway Park,pool,toronto,23,audley,M4M 1P5,..,on
2160,High Park - Outdoor Artificial Ice Rink,rink,toronto,1873,bloor,..,..,on
2166,Highland Creek Park,playground,toronto,3500,ellesmere,M1C 3Z2,..,on
2167,Highland Heights Park,playground,toronto,50,castle hill,M1T 2Y3,..,on
2172,Highview Park,playground,toronto,150,highview,M1N 2H7,..,on
2181,Hillcrest Cc,gym,toronto,1339,bathurst,M5R 3H6,..,on
2182,Hillcrest Cc,pool,toronto,1339,bathurst,M5R 3H6,..,on
2184,Hillcrest Park,playground,toronto,950,davenport,M6G 2B9,..,on
2200,Hobart Park,playground,toronto,39,hobart,M2J 3J8,..,on
2202,Hodgson Public School - Outdoor Artificial Ice Rink,rink,toronto,276,davisville,..,..,on
2203,Hodgson Public School Grounds,rink,toronto,282,davisville,M4S 1H2,..,on
2214,Holy Name Css,gym,toronto,71,gough,M4K 3N9,..,on
2225,Horseley Hill Park,playground,toronto,145,horseley hill,M1B 1W4,..,on
2228,Horton Park,playground,toronto,15,oswego,M1P 4N7,..,on
2244,Hullmar Park,playground,toronto,97,hullmar,M3N 200,..,on
2245,Humber Community Pool,pool,toronto,205,humber college,M9W 5L7,..,on
2247,Humber Gate Park,playground,toronto,37,alicewood,M9C 2Y2,..,on
2249,Humber Sheppard Park,playground,toronto,3100,weston,M9M 2S7,..,on
2251,Humber Valley Rink - Outdoor Artificial Ice Rink,rink,toronto,50,anglesey,..,..,on
2252,Humbertown Park,playground,toronto,7,wimbleton,M9A 3X5,..,on
2253,Humberview Park,playground,toronto,41,panorama,M9C 2Y2,..,on
2254,Humberwood Cc,gym,toronto,850,humberwood,M9W 7A6,..,on
