Index,Facility_Name,ODRSF_facility_type,Provider,Street_No,Street_Name,Postal_Code,City,Prov_Terr
2641,Knott Park,playground,toronto,1,deblyn,M1S 1J4,..,on
2652,La Rose Park,playground,toronto,55,la rose,M9C 2Y2,..,on
2655,Laburnham Park,playground,toronto,23,evergreen,M8W 3A3,..,on
2679,Lakeshore Village Park,playground,toronto,46,garnett janes,M8V 4G6,..,on
2680,Lakeshore Village Park,splash pad,toronto,46,garnett janes,M8V 4G6,..,on
2689,Lambton - Kingsway Park - Outdoor Artificial Ice Rink,rink,toronto,37,marquis,..,..,on
2690,Lambton Arena - Indoor Ice Pad,rink,toronto,4100,dundas,..,..,on
2691,Lambton Woods Park,playground,toronto,1185,royal york,M9A 4B4,..,on
2692,Lambton-Kingsway Outdoor Pool,pool,toronto,37,marquis,M8X 1V3,..,on
2693,Lambton-Kingsway Park,playground,toronto,525,prince edward,M8X 2M6,..,on
2694,L'Amoreaux Ci,pool,toronto,2501,bridletowne,M1W 2K1,..,on
2695,L'Amoreaux Crc,gym,toronto,2000,mcnicoll,M1V 5000000000,..,on
2700,Langford Parkette,playground,toronto,13,woodycrest,M4J 3A5,..,on
2708,Lanyard Park,playground,toronto,138,lanyard,M9C 2Y2,..,on
2721,Laughlin Park,playground,toronto,476,atlas,M6C 3R2,..,on
2723,Laura Hill Park,playground,toronto,36,fernalroy,M8Z 3V8,..,on
2734,Lawrence Heights Cc,gym,toronto,5,replin,M6A 2M8,..,on
2735,Lawrence Heights Cc,pool,toronto,5,replin,M6A 2M8,..,on
2736,Lawrence Park,playground,toronto,3055,yonge,M4N 2J9,..,on
2744,Leaside Memorial Gardens Pool,pool,toronto,1073,millwood,M4G 1X6,..,on
2745,Leaside Outdoor Pool,pool,toronto,5,leaside park,M4H 1A1,..,on
2746,Leaside Park,playground,toronto,1073,millwood,M4G 1X6,..,on
2747,Leaside Park,splash pad,toronto,1073,millwood,M4G 1X6,..,on
2748,Ledbury Park,pool,toronto,146,ledbury,M5M 4J1,..,on
2749,Ledbury Park,rink,toronto,146,ledbury,M5M 4J1,..,on
2751,Ledbury Park - Outdoor Artificial Ice Rink,rink,toronto,160,ledbury,..,..,on
2764,Leslie Grove,playground,toronto,1158,queen,M1P 4N7,..,on
2765,Leslie Grove,pool,toronto,1158,queen,M1P 4N7,..,on
2766,Lessard Park,playground,toronto,52,lessard,M6S 1X6,..,on
2767,Lester B. Pearson Ci,pool,toronto,150,tapscott,M1B 2L2,..,on
2777,Lillian Park,playground,toronto,227,otonabee,M2M 2S9,..,on
2790,Lindy Lou Park,playground,toronto,14,lanyard,M9C 2Y2,..,on
2791,Linus Park,playground,toronto,125,seneca hill,M2J 2W3,..,on
2793,Lionel Conacher Park,playground,toronto,80,cottingham,M1P 4N7,..,on
2811,Lissom Park,playground,toronto,25,lissom,M2R 2P1,..,on
2813,Lithuania Park,playground,toronto,155,oakmount,M1P 4N7,..,on
2814,Lithuania Park,pool,toronto,155,oakmount,M1P 4N7,..,on
2815,Little Norway Park,playground,toronto,659,queen's,M5V 3G3,..,on
2819,Little Trinity Church Lands,playground,toronto,417,king,M5A 1L3,..,on
2820,Littles Road Park,playground,toronto,30,littles,M1B 5B8,..,on
2823,Livingstone Parkette,playground,toronto,21,woodville,M4K 2J5,..,on
2824,Livingstone Parkette,pool,toronto,21,woodville,M4K 2J5,..,on
2827,Lloyd Manor Park,playground,toronto,139,lloyd manor,M9B 5K2,..,on
2845,Long Branch Arena - Indoor Ice Pad,rink,toronto,75,arcadian,..,..,on
2849,Longwood Park,playground,toronto,38,longwood,M3B 1T8,..,on
2853,Lord Roberts Park Woods,playground,toronto,155,lord roberts,M1K 3W5,..,on
2856,Loretto College Wading Pool,pool,toronto,151,rosemount,M6H 2N1,..,on
2954,Lusted Park,playground,toronto,75,painted post,M1H 1T3,..,on
2964,Lynmont Park,playground,toronto,10,four leaf,M9C 2Y2,..,on
