Index,Facility_Name,ODRSF_facility_type,Provider,Street_No,Street_Name,Postal_Code,City,Prov_Terr
6517,Westway Outdoor Rink - Outdoor Artificial Ice Rink,rink,toronto,175,the-westway,..,..,on
6527,Wexford Ci,pool,toronto,1176,pharmacy,M1R 2H7,..,on
6528,Wexford Park,playground,toronto,55,elm bank,M1B 1J4,..,on
6534,White Haven Park,playground,toronto,63,invergordon,M1S 2Z1,..,on
6547,Wigmore Park,playground,toronto,106,wigmore,M4A 200000000,..,on
6551,Wildwood Crescent Parkette,playground,toronto,110,wildwood,M4L 2K7,..,on
6573,Willowdale Park,playground,toronto,75,hollywood,M2N 3K1,..,on
6574,Willowdale Park,splash pad,toronto,75,hollywood,M2N 3K1,..,on
6591,Winchester Park,pool,toronto,149,bleecker,M4X 1L9,..,on
6592,Wincott Park,playground,toronto,86,northcrest,M9R 1R3,..,on
6594,Windfields Park,playground,toronto,120,banbury,M3B 2L3,..,on
6600,Windwood Park,playground,toronto,38,windwood,M9C 2Y2,..,on
6605,Winslow Dalesford Park,playground,toronto,107,wesley,M9C 2Y2,..,on
6611,Withrow Park - Outdoor Artificial Ice Rink,rink,toronto,725,logan,..,..,on
6613,Woburn Avenue Playground,playground,toronto,75,woburn,M5M 1K5,..,on
6614,Woburn Park,playground,toronto,75,woburn,M5M 1K5,..,on
6619,Woodbine Beach,beach,toronto,1675,lake shore,M4L 3W6,..,on
6620,Woodbine Park,playground,toronto,1695,queen,M4L 1G5,..,on
6621,Woodbine Park,splash pad,toronto,1695,queen,M4L 1G5,..,on
6622,Woodborough Park,playground,toronto,1486,castlefield,M6M 1V4,..,on
6681,York Mills Arena - Indoor Ice Pad,rink,toronto,2539,bayview,..,..,on
6682,York Mills Ci,pool,toronto,490,york mills,M3B 1W6,..,on
6683,York Mills Park (Irving Paisley Park),playground,toronto,2539,bayview,M2L 1B1,..,on
6684,Yorkwoods Gate Park,playground,toronto,20,yorkwoods,M3N 1J8,..,on
7023,Acacia Park,sports field,toronto,68,lilac,M9C 2Y2,..,on
7069,Adams Park,sports field,toronto,2,rozell,M1C 2L1,..,on
7079,Agincourt Park - Outdoor Tennis Court ( 1),sports field,toronto,27,glen watford,..,..,on
7080,Agincourt Park - Outdoor Tennis Court ( 2),sports field,toronto,27,glen watford,..,..,on
7081,Agincourt Park - Outdoor Tennis Court ( 3),sports field,toronto,27,glen watford,..,..,on
7082,Agincourt Park - Outdoor Tennis Court ( 4),sports field,toronto,27,glen watford,..,..,on
7083,Agincourt Park Tennis Clubhouse,sports field,toronto,27,glen watford,..,..,on
7084,Agincourt Rc,sports field,toronto,31,glen watford,M1S 2B7,..,on
7104,Alamosa Park - Outdoor Tennis Court ( 1),sports field,toronto,111,alamosa,..,..,on
7105,Alamosa Park - Outdoor Tennis Court ( 2),sports field,toronto,111,alamosa,..,..,on
7106,Alamosa Park - Outdoor Tennis Court ( 3),sports field,toronto,111,alamosa,..,..,on
7118,Albion Gardens Park - Outdoor Tennis Court ( 1),sports field,toronto,41,deanlea,..,..,on
7119,Albion Gardens Park - Outdoor Tennis Court ( 2),sports field,toronto,41,deanlea,..,..,on
7120,Albion Gardens Park - Outdoor Tennis Court ( 3),sports field,toronto,41,deanlea,..,..,on
7145,Alexandra Park,sports field,toronto,275,bathurst,M5T 2S4,..,on
7185,Amesbury Park,sports field,toronto,1507,lawrence,M6L 1A8,..,on
7187,Amesbury Park - Outdoor Tennis Court ( 1),sports field,toronto,151,culford,..,..,on
7188,Amesbury Park - Outdoor Tennis Court ( 2),sports field,toronto,151,culford,..,..,on
7191,Ancaster Park,sports field,toronto,43,ancaster,M3K 1S7,..,on
7192,Ancaster Park - Outdoor Tennis Court ( 1),sports field,toronto,41,ancaster,..,..,on
7193,Ancaster Park - Outdoor Tennis Court ( 2),sports field,toronto,41,ancaster,..,..,on
7194,Ancaster Park - Outdoor Tennis Court ( 3),sports field,toronto,41,ancaster,..,..,on
7204,Angela James Arena - Outdoor Tennis Court ( 1),sports field,toronto,165,grenoble,..,..,on
7205,Angela James Arena - Outdoor Tennis Court ( 2),sports field,toronto,165,grenoble,..,..,on
7206,Angela James Arena - Outdoor Tennis Court ( 3),sports field,toronto,165,grenoble,..,..,on
