Index,Facility_Name,ODRSF_facility_type,Provider,Street_No,Street_Name,Postal_Code,City,Prov_Terr
177273,Topham Park,park,toronto,..,..,..,..,on
177278,Toronto Inukshuk Park,park,toronto,..,..,..,..,on
177279,Toronto Islands - Algonquin Island Park,park,toronto,..,..,..,..,on
177280,Toronto Islands - Centre Island Park,park,toronto,..,..,..,..,on
177281,Toronto Islands - Forestry Island Park,park,toronto,..,..,..,..,on
177282,Toronto Islands - Hanlan's Point Park,park,toronto,..,..,..,..,on
177283,Toronto Islands - Island Park,park,toronto,..,..,..,..,on
177291,Toronto Islands - Muggs Island Park,park,toronto,..,..,..,..,on
177293,Toronto Islands - North Island Park,park,toronto,..,..,..,..,on
177297,Toronto Islands - Olympic Island Park,park,toronto,..,..,..,..,on
177298,Toronto Islands - Snake Island Park,park,toronto,..,..,..,..,on
177299,Toronto Islands - South Island Park,park,toronto,..,..,..,..,on
177303,Toronto Islands - Ward's Island Park,park,toronto,..,..,..,..,on
177304,Toronto Waterfront Park,park,toronto,..,..,..,..,on
177311,Tottenham Parkette,park,toronto,..,..,..,..,on
177314,Touraine Parkette,park,toronto,..,..,..,..,on
177316,Tournament Park,park,toronto,..,..,..,..,on
177326,Trace Manes Park,park,toronto,..,..,..,..,on
177374,Traymore Park,park,toronto,..,..,..,..,on
177389,Trethewey Park East,park,toronto,..,..,..,..,on
177390,Trethewey Park West,park,toronto,..,..,..,..,on
177391,Treverton Park,park,toronto,..,..,..,..,on
177410,Trinity Bellwoods Park,park,toronto,..,..,..,..,on
177412,Triple Crown Parkette,park,toronto,..,..,..,..,on
177421,Trudelle Park,park,toronto,..,..,..,..,on
177424,Trudelle Street Park,park,toronto,..,..,..,..,on
177425,True Davidson Park,park,toronto,..,..,..,..,on
177428,Trumpeter Park,park,toronto,..,..,..,..,on
177443,Turnberry North Park,park,toronto,..,..,..,..,on
177444,Turnberry South Park,park,toronto,..,..,..,..,on
177450,Turpin Avenue Park,park,toronto,..,..,..,..,on
177471,Twelfth Street Parkette,park,toronto,..,..,..,..,on
177476,Twenty Eighth Street Park,park,toronto,..,..,..,..,on
177477,Twenty Fifth Street Parkette,park,toronto,..,..,..,..,on
177478,Twenty Third Street Parkette,park,toronto,..,..,..,..,on
177505,Underhill Park,park,toronto,..,..,..,..,on
177506,Underpass Park,park,toronto,..,..,..,..,on
177705,Upper Junction Park,park,toronto,..,..,..,..,on
177713,Upper Rouge Trail Park,trail,toronto,..,..,..,..,on
177714,Upper Rouge Trail Park,trail,toronto,..,..,..,..,on
177722,Valecrest Park,park,toronto,..,..,..,..,on
177748,Valleyfield Park,park,toronto,..,..,..,..,on
177769,Van Horne Park,park,toronto,..,..,..,..,on
177824,Vermont Square Park,park,toronto,..,..,..,..,on
177826,Verobeach Parkette,park,toronto,..,..,..,..,on
177830,Vesta Parkette,park,toronto,..,..,..,..,on
177861,Victoria Memorial Square Park,park,toronto,..,..,..,..,on
177878,Victoria Park - Eglinton Parkette,park,toronto,..,..,..,..,on
177893,Viewmount Park,park,toronto,..,..,..,..,on
