Index,Facility_Name,ODRSF_facility_type,Provider,Street_No,Street_Name,Postal_Code,City,Prov_Terr
44042,Mimico Creek Trail,trail,toronto,..,puckeridge,..,..,on
44043,Mimico Creek Trail,trail,toronto,..,deanewood,..,..,on
44044,Mimico Creek Trail,trail,toronto,..,sedgebrook,..,..,on
44045,Mimico Creek Trail,trail,toronto,..,montgomery,..,..,on
44046,Mimico Creek Trail,trail,toronto,..,antioch,..,..,on
44047,Mimico Creektrail,trail,toronto,..,legion,..,..,on
44048,Mimico Creektrail,trail,toronto,..,echo valley,..,..,on
44049,Mimico Creektrail,trail,toronto,..,deane valley,..,..,on
44050,Mimico Creektrail,trail,toronto,..,cordova,..,..,on
44164,Moccasin Trail,trail,toronto,..,greenbelt,..,..,on
44165,Moccasin Trail,trail,toronto,..,the donway,..,..,on
44259,Monarch Park Trail,trail,toronto,..,..,..,..,on
44260,Monarch Park Trail,trail,toronto,..,felstead,..,..,on
44261,Monarch Park Trail,trail,toronto,..,woodfield,..,..,on
44767,Natal Park Trail,trail,toronto,..,natal,..,..,on
44768,Natal Park Trail,trail,toronto,..,aylesworth,..,..,on
45368,Newtonbrook Park Trail,trail,toronto,..,cummer,..,..,on
45369,Newtonbrook Park Trail,trail,toronto,..,willowdale,..,..,on
48311,North Park Trail,trail,toronto,..,keele,..,..,on
48312,North Park Trail,trail,toronto,..,park,..,..,on
48313,North Park Trail,trail,toronto,..,treelawn,..,..,on
48314,North Park Trail,trail,toronto,..,cornelius,..,..,on
48315,North Park Trail,trail,toronto,..,rustic,..,..,on
48504,Oakvale Trail,trail,toronto,..,queen victoria,..,..,on
48505,Oakvale Trail,trail,toronto,..,oakvale,..,..,on
49384,Parliament Square Park Trail,trail,toronto,..,hahn,..,..,on
49385,Parliament Square Park Trail,trail,toronto,..,parliament,..,..,on
49717,Pelmo Park Trail,trail,toronto,..,pellatt,..,..,on
49718,Pelmo Park Trail,trail,toronto,..,gary,..,..,on
50236,Port Union Trail,trail,toronto,..,port union,..,..,on
50387,Prince Of Wales Park Trail,trail,toronto,..,second,..,..,on
50388,Prince Of Wales Park Trail,trail,toronto,..,lake shore,..,..,on
50452,Queen's Greenbelt Trail,trail,toronto,..,queens,..,..,on
50453,Queen's Greenbelt Trail,trail,toronto,..,donofree,..,..,on
50454,Queen's Greenbelt Trail,trail,toronto,..,culford,..,..,on
50465,Queen's Park Trail,trail,toronto,..,queens park,..,..,on
50466,Queen's Park Trail,trail,toronto,..,wellesley,..,..,on
50560,Ramsden Park Trail,trail,toronto,..,avenue,..,..,on
50561,Ramsden Park Trail,trail,toronto,..,yonge,..,..,on
51031,Rippleton Park Trail,trail,toronto,..,lesile,..,..,on
51032,Rippleton Park Trail,trail,toronto,..,larkfield,..,..,on
51033,Rippleton Park Trail,trail,toronto,..,banbury,..,..,on
51059,Riverdale Park East Trail,trail,toronto,..,broadview,..,..,on
51060,Riverdale Park West Trail,trail,toronto,..,carlton,..,..,on
51347,Rosedale Valley Trail,trail,toronto,..,bayview,..,..,on
51348,Rosedale Valley Trail,trail,toronto,..,park,..,..,on
51349,Rosedale Valley Trail,trail,toronto,..,wellesley,..,..,on
51464,Rouge Valley Park Trail,trail,toronto,..,morningview,..,..,on
51838,Sandwood Park Trail,trail,toronto,..,canongate,..,..,on
