Index,Facility_Name,ODRSF_facility_type,Provider,Street_No,Street_Name,Postal_Code,City,Prov_Terr
171477,Michael Power Park,park,toronto,..,..,..,..,on
171504,Midvale Parkette,park,toronto,..,..,..,..,on
171508,Mike Bela Park,park,toronto,..,..,..,..,on
171533,Miles Road End Parkette,park,toronto,..,..,..,..,on
171545,Mill Valley Park,park,toronto,..,..,..,..,on
171590,Milliken Park,park,toronto,..,..,..,..,on
171599,Millstone Parkette,park,toronto,..,..,..,..,on
171607,Millwood Park,park,toronto,..,..,..,..,on
171625,Milner Parkette,park,toronto,..,..,..,..,on
171632,Mimico Memorial Park,park,toronto,..,..,..,..,on
171633,Mimico Waterfront Park,park,toronto,..,..,..,..,on
171666,Misty Hills Park,park,toronto,..,..,..,..,on
171669,Mitchell Field Park,park,toronto,..,..,..,..,on
171710,Moatfield Farm Park,park,toronto,..,..,..,..,on
171714,Moccasin Trail Park,trail,toronto,..,..,..,..,on
171715,Moccasin Trail Park,trail,toronto,..,..,..,..,on
171716,Moccasin Trail Park,trail,toronto,..,..,..,..,on
171717,Moccasin Trail Park,trail,toronto,..,..,..,..,on
171744,Monarch Park,park,toronto,..,..,..,..,on
171751,Mondeo Park,park,toronto,..,..,..,..,on
171770,Montague Parkette,park,toronto,..,..,..,..,on
171775,Montclair Avenue Parkette,park,toronto,..,..,..,..,on
171800,Moore Park,park,toronto,..,..,..,..,on
171801,Moore Park Ravine,park,toronto,..,..,..,..,on
171802,Mooregate Park,park,toronto,..,..,..,..,on
171806,Moorevale Park,park,toronto,..,..,..,..,on
171816,Moreau Trail Park,park,toronto,..,..,..,..,on
171837,Morningside Park,park,toronto,..,..,..,..,on
171863,Moss Park,park,toronto,..,..,..,..,on
171867,Mossgrove Park,park,toronto,..,..,..,..,on
171903,Mount Pleasant Parkette,park,toronto,..,..,..,..,on
171908,Mount Royal Parkette,park,toronto,..,..,..,..,on
171910,Mount Sinai Memorial Park,park,toronto,..,..,..,..,on
171937,Mourning Dove Park,park,toronto,..,..,..,..,on
171960,Muir Park,park,toronto,..,..,..,..,on
171962,Muirhead Park,park,toronto,..,..,..,..,on
171963,Muirlands Park,park,toronto,..,..,..,..,on
171973,Municipal Park,park,toronto,..,..,..,..,on
171989,Murison Park,park,toronto,..,..,..,..,on
172047,Natal Park,park,toronto,..,..,..,..,on
172072,Neil Mclellan Park,park,toronto,..,..,..,..,on
172076,Neilson Park - Etobicoke,park,toronto,..,..,..,..,on
172078,Neilson Park - Scarborough,park,toronto,..,..,..,..,on
172097,Nesbitt Park,park,toronto,..,..,..,..,on
172099,Neville Park Blvd Ravine,park,toronto,..,..,..,..,on
172100,Neville Park Circle Traffic Island,park,toronto,..,..,..,..,on
172117,Newgate Parkette,park,toronto,..,..,..,..,on
172126,Newton Parkette,park,toronto,..,..,..,..,on
172129,Newtonbrook Park,park,toronto,..,..,..,..,on
