Index,Facility_Name,ODRSF_facility_type,Provider,Street_No,Street_Name,Postal_Code,City,Prov_Terr
1440,Dunlace Park,playground,toronto,28,dunlace,M2L 2S1,..,on
1454,Earl Bales Park,playground,toronto,4169,bathurst,M3H 3P7,..,on
1455,Earl Beatty Cc,pool,toronto,455,glebeholme,M4C 1V3,..,on
1460,Earlscourt Park,playground,toronto,1200,lansdowne,M6H 3Z8,..,on
1480,East Lynn Park,playground,toronto,1949,danforth,M4C 1J4,..,on
1481,East Lynn Park,pool,toronto,1949,danforth,M4C 1J4,..,on
1482,East Mall Park,playground,toronto,355,the-east,M9B 4V6,..,on
1484,East Toronto Athletic Field,playground,toronto,175,main,M1P 4N7,..,on
1486,East York Cc,gym,toronto,1081,pape,M4K 3W4,..,on
1487,East York Cc,pool,toronto,1081,pape,M4K 3W4,..,on
1488,East York Memorial Arena - Indoor Ice Pad,rink,toronto,888,cosburn,..,..,on
1492,Eastdale Playground,playground,toronto,160,boulton,M4M 2J9,..,on
1518,Edgeley Park,playground,toronto,4401,jane,M3N 2K3,..,on
1520,Edgewood Park,playground,toronto,107,oakley,M1P 3P8,..,on
1521,Edgewood Park South,playground,toronto,1987,dundas,M4L 1M7,..,on
1522,Edgewood Park South,splash pad,toronto,1987,dundas,M4L 1M7,..,on
1524,Edithvale Cc,gym,toronto,131,finch,M2N 2H8,..,on
1527,Eglinton Flats Sports Facility,playground,toronto,3601,eglinton,M6M 1V7,..,on
1528,Eglinton Park,playground,toronto,200,eglinton,M1P 4N7,..,on
1529,Eglinton Park,pool,toronto,200,eglinton,M1P 4N7,..,on
1542,Elizabeth Simcoe Park,playground,toronto,180,sylvan,M1G 30,..,on
1549,Ellesmere Cc,gym,toronto,20,canadian,M1R 4B4,..,on
1551,Elm Park (Etobicoke/York),playground,toronto,54,elm,M9N 3C9,..,on
1552,Elm Park (North York),playground,toronto,230,gosford,M3N 2H1,..,on
1556,Elmbank Cc,gym,toronto,10,rampart,M9V 4L9,..,on
1570,Emery Collegiate Ss,pool,toronto,3395,weston,M9M 2V9,..,on
1594,Esther Lorrie Park,playground,toronto,21,moon valley,M9W 3N5,..,on
1595,Esther Shiner Stadium,stadium,toronto,5720,bathurst,M2R 3W2,..,on
1596,Etobicoke Olympium,gym,toronto,590,rathburn,M9C 3T3,..,on
1597,Etobicoke Olympium,pool,toronto,590,rathburn,M9C 3T3,..,on
1603,Evergreen Gardens Park,playground,toronto,24,evergreen,M4G 1C5,..,on
1613,Fairbank Memorial Cc,gym,toronto,2213,dufferin,M6E 3S2,..,on
1614,Fairbank Park,playground,toronto,4,keywest,M6E 2A8,..,on
1618,Fairfield Seniors' Centre,gym,toronto,80,lothian,M8Z 4K5,..,on
1621,Fairhaven Outdoor Pool,pool,toronto,100,golfwood,M9P 3M2,..,on
1622,Fairhaven Park,playground,toronto,100,golfwood,M9P 3L8,..,on
1625,Fairmount Park,playground,toronto,1725,gerrard,M4L 2B3,..,on
1648,Falstaff Cc,gym,toronto,50,falstaff,M6L 2C7,..,on
1651,Farquharson Park,playground,toronto,250,pitfield,M1S 1Y7,..,on
1657,Fennimore Park,playground,toronto,78,fennimore,M9C 2Y2,..,on
1659,Fenside Arena - Indoor Ice Pad,rink,toronto,30,slidell,..,..,on
1660,Fenside Park,playground,toronto,30,slidell,M3A 2C4,..,on
1676,Firgrove Park,playground,toronto,254,firgrove,M9C 2Y2,..,on
1685,Flagstaff Outdoor Pool,pool,toronto,42,mercury,M9W 3H5,..,on
1686,Flagstaff Park,playground,toronto,42,mercury,M9C 2Y2,..,on
1692,Flemingdon Park,playground,toronto,150,grenoble,M3C 1000,..,on
1696,Flindon Park,playground,toronto,20,flaxman,M9M 2R3,..,on
1724,Forest Hill Road Park,playground,toronto,179,forest hill,M5P 2N4,..,on
1748,Fountainhead Park,playground,toronto,445,sentinel,M3J 2T6,..,on
