Index,Facility_Name,ODRSF_facility_type,Provider,Street_No,Street_Name,Postal_Code,City,Prov_Terr
1150,Commander Park Rc,rink,toronto,140,commander,M1S 3H7,..,on
1151,Commander Recreation Centre - Indoor Ice Pad ( 1),rink,toronto,140,commander,..,..,on
1170,Connorvale Park,playground,toronto,281,rimilton,M8W 4X6,..,on
1191,Cornell Junior Ps,gym,toronto,61,holmfirth,M1G 1G1,..,on
1198,Coronation Park - West-S Etobicoke,playground,toronto,10,judson,M8Z 1A4,..,on
1200,Coronation Park By Princess Gates,playground,toronto,711,lake shore,M5V 3T7,..,on
1205,Corvette Park,playground,toronto,40,corvette,M1K 3G2,..,on
1242,Cresthaven Park,playground,toronto,37,cresthaven,M2H 1L9,..,on
1263,Cruickshank Park,playground,toronto,..,lawrence/little,M9N 1K3,..,on
1274,Cummer Park,playground,toronto,6000,leslie,M2H 1J9,..,on
1277,Cummer Park Community Centre - Indoor Ice Pad,rink,toronto,823,cummer,..,..,on
1282,Cw Jefferys Ci,pool,toronto,340,sentinel,M3J 1T9,..,on
1283,D.D.Summerville Outdoor Pool,pool,toronto,1867,lake shore,M1P 4N7,..,on
1284,Da Morrison Jhs,pool,toronto,271,gledhill,M4C 4L2,..,on
1292,Danforth Gardens Park,playground,toronto,498,birchmount,M1K 1N8,..,on
1298,David Balfour Park,playground,toronto,240,mount pleasant,M4T 2C4,..,on
1300,David Crombie Park,playground,toronto,131,the-esplanade,M1P 4N7,..,on
1309,Dean Park,playground,toronto,80,dean park,M1B 2X3,..,on
1328,Dempsey Park,playground,toronto,250,beecroft,M2N 6W3,..,on
1332,Dennis R Timbrell Rc,gym,toronto,29,st dennis,M3C 3J3,..,on
1333,Dennis R Timbrell Rc,pool,toronto,29,st dennis,M3C 3J3,..,on
1335,Dentonia Park Sports Complex,playground,toronto,80,thyra,M4C 5G5,..,on
1337,Derrydown Ps,gym,toronto,120,derrydown,M3J 1R7,..,on
1345,Diana Park,playground,toronto,46,diana,M3M 2W4,..,on
1347,Dieppe Park,playground,toronto,455,cosburn,M4J 2N2,..,on
1350,Dieppe Park - Outdoor Artificial Ice Rink,rink,toronto,455,cosburn,..,..,on
1351,Dieppe Park - Skate Trail,trail,toronto,455,cosburn,..,..,on
1357,Dixon Park,playground,toronto,350,dixon,M9R 1T1,..,on
1361,Domenico Diluca Cc,gym,toronto,25,stanley,M3N 1C2,..,on
1362,Domenico Diluca Cc,pool,toronto,25,stanley,M3N 1C2,..,on
1373,Don Mills Ci,pool,toronto,15,the-donway,M3C 1X6,..,on
1374,Don Mills Civitan Arena - Indoor Ice Pad,rink,toronto,1030,don mills,..,..,on
1375,Don Montgomery Community Recreation Centre - Indoor Ice Pad ( 1),rink,toronto,2467,eglinton,..,..,on
1376,Don Montgomery Crc,gym,toronto,2467,eglinton,M1K 2R1,..,on
1377,Don Russell Park,pool,toronto,400,kipling,M8V 3K8,..,on
1382,Donmount Park,playground,toronto,46,hamilton,M4M 2C6,..,on
1393,Dorset Park,playground,toronto,5,glaive,M1P 1X6,..,on
1397,Douglas Snow Aquatic Centre,pool,toronto,5100,yonge,M2N 5V7,..,on
1399,Dovercourt Park,playground,toronto,155,bartlett,M6H 3G2,..,on
1404,Downsview Arena,rink,toronto,1633,wilson,M3L 1A5,..,on
1405,Downsview Arena - Indoor Ice Pad,rink,toronto,1629,wilson,..,..,on
1415,Driftwood Cc,gym,toronto,4401,jane,M3N 2K3,..,on
1416,Driftwood Leisure Centre,pool,toronto,4401,jane,M3N 2K3,..,on
1417,Driftwood Park,playground,toronto,44,tobermory,M3N 2R7,..,on
1419,Driftwood Parkette,playground,toronto,359,driftwood,M3N 2P2,..,on
1423,Dufferin Grove Park,playground,toronto,875,dufferin,M6H 4J3,..,on
1424,Dufferin Grove Park,pool,toronto,875,dufferin,M6H 4J3,..,on
1425,Dufferin Grove Park - Outdoor Artificial Ice Rink,rink,toronto,875,dufferin,..,..,on
1435,Dundas - St. Clarens Parkette,playground,toronto,1717,dundas,M6K 1V4,..,on
