Index,Facility_Name,ODRSF_facility_type,Provider,Street_No,Street_Name,Postal_Code,City,Prov_Terr
288,Beaches Rc,beach,toronto,6,williamson,M4E 1K5,..,on
302,Beaty Avenue Parkette,playground,toronto,66,beaty,M6K 3B4,..,on
303,Beaumonde Heights Park,playground,toronto,17,waltham,M9V 1S6,..,on
315,Bedford Park Cc,gym,toronto,81,ranleigh,M4N 1X2,..,on
316,Bedford Park Cc,pool,toronto,81,ranleigh,M4N 1X2,..,on
339,Bellevue Square,playground,toronto,5,bellevue,M5T 2N4,..,on
340,Bellevue Square,pool,toronto,5,bellevue,M5T 2N4,..,on
345,Belmar Parkette,playground,toronto,70,monclova,M3M 1N5,..,on
351,Ben Nobleman Park,playground,toronto,1075,eglinton,M6C 20,..,on
352,Bendale Bti,pool,toronto,1555,midland,M1P 3C1,..,on
353,Benner Park,playground,toronto,25,benner,M6B 3G9,..,on
355,Bennington Heights Park,playground,toronto,173,bayview heights,M4G 2Y7,..,on
357,Beresford Park,playground,toronto,401,beresford,M6S 3B5,..,on
358,Beresford Park,pool,toronto,401,beresford,M6S 3B5,..,on
364,Berner Trail Park,playground,toronto,45,nahanni,M1B 1B7,..,on
365,Berner Trail Park,splash pad,toronto,45,nahanni,M1B 1B7,..,on
370,Bert Robinson Park,playground,toronto,400,caledonia,M6C 200,..,on
378,Bestview Park,playground,toronto,115,bestview,M2M 2Y1,..,on
385,Bickford Park,playground,toronto,400,grace,M6G 3A8,..,on
399,Bill Hancox Park,playground,toronto,5421,lawrence,M1C 5000000000,..,on
409,Birch Park,playground,toronto,75,arcadian,M8Y 2Z5,..,on
412,Birchmount Cc,pool,toronto,93,birchmount,M1N 3J7,..,on
413,Birchmount Cc,rink,toronto,93,birchmount,M1N 3J7,..,on
415,Birchmount Stadium,stadium,toronto,..,birchmount,M1N 3J7,..,on
427,Blantyre Park,playground,toronto,180,fallingbrook,M1N 2T6,..,on
444,Bluffer's Park And Beach (Scarborough Bluffs),beach,toronto,1,brimley,..,..,on
448,Bob Abate Crc,gym,toronto,485,montrose,M6G 3H2,..,on
469,Botany Hill Park,playground,toronto,277,orton park,M1G 3T4,..,on
488,Boylen Ci,pool,toronto,155,falstaff,M6L 200000,..,on
537,Bridlewood Park,playground,toronto,445,huntingwood,M1W 1G3,..,on
545,Brimley Woods Park,playground,toronto,2755,brimley,M1V 1K2,..,on
548,Broadacres Park,playground,toronto,115,wareside,M9C 3B7,..,on
549,Broadlands Cc,pool,toronto,19,castlegrove,M3A 1K9,..,on
550,Broadlands Community Centre - Outdoor Artificial Ice Rink,rink,toronto,19,castlegrove,..,..,on
551,Broadlands Park,playground,toronto,19,castlegrove,M3A 2L3,..,on
571,Brooks Road Park,playground,toronto,85,keeler,M1E 4K6,..,on
573,Brown Cc,gym,toronto,454,454,M4V 2J1,..,on
574,Brown Cc,pool,toronto,454,454,M4V 2J1,..,on
584,Budapest Park,playground,toronto,1755,lake shore,M6S 5A3,..,on
585,Budapest Park,pool,toronto,1755,lake shore,M6S 5A3,..,on
602,Burrows Hall Park,playground,toronto,239,burrows hall,M1B 1N1,..,on
608,Buttonwood Park,playground,toronto,30,mulham,M9A 4W1,..,on
609,Buttonwood Park,rink,toronto,30,mulham,M9A 4W1,..,on
610,Buttonwood Park - Outdoor Artificial Ice Rink,rink,toronto,30,mulham,..,..,on
644,Campbell Avenue Playground,playground,toronto,255,campbell,M1P 4N7,..,on
645,Campbell Avenue Playground,pool,toronto,255,campbell,M1P 4N7,..,on
647,Campbell Avenue Playground - Outdoor Artificial Ice Rink,rink,toronto,225,campbell,..,..,on
680,Caribou Park,playground,toronto,99,caribou,M3M 4N4,..,on
688,Carlton Park,playground,toronto,20,edith,M6P 3T5,..,on
