Index,Facility_Name,ODRSF_facility_type,Provider,Street_No,Street_Name,Postal_Code,City,Prov_Terr
175992,Sir Winston Churchill Park,park,toronto,..,..,..,..,on
175995,Sisken Trail Park,park,toronto,..,..,..,..,on
176000,Six Points Park,park,toronto,..,..,..,..,on
176007,Sixth Street Park,park,toronto,..,..,..,..,on
176011,Skeens Lane Parkette,park,toronto,..,..,..,..,on
176018,Skymark Park,park,toronto,..,..,..,..,on
176036,Smithfield Park,park,toronto,..,..,..,..,on
176037,Smithwood Park,park,toronto,..,..,..,..,on
176048,Smythe Park,park,toronto,..,..,..,..,on
176057,Snider Parkette,park,toronto,..,..,..,..,on
176064,Snowellen Avenue Parkette,park,toronto,..,..,..,..,on
176065,Snowhill Park,park,toronto,..,..,..,..,on
176088,Sonya's Park,park,toronto,..,..,..,..,on
176092,Sorauren Avenue Park,park,toronto,..,..,..,..,on
176109,South Humber Park,park,toronto,..,..,..,..,on
176113,South Kingsway Parkette,park,toronto,..,..,..,..,on
176115,South Marine Drive Park,park,toronto,..,..,..,..,on
176176,Southern Linear Park,park,toronto,..,..,..,..,on
176191,Southwell Park,park,toronto,..,..,..,..,on
176203,Spadina Park,park,toronto,..,..,..,..,on
176204,Spadina Road Park,park,toronto,..,..,..,..,on
176222,Spencer - Cowan Parkette,park,toronto,..,..,..,..,on
176226,Spenvalley Park,park,toronto,..,..,..,..,on
176241,Spring Garden Park,park,toronto,..,..,..,..,on
176242,Spring Garden Parkette,park,toronto,..,..,..,..,on
176277,Springhurst Parkette,park,toronto,..,..,..,..,on
176407,St. Andrews Park - North York,park,toronto,..,..,..,..,on
176408,St. Andrews Park - Scarborough,park,toronto,..,..,..,..,on
176433,St. Clements - Yonge Parkette,park,toronto,..,..,..,..,on
176456,St. James Park,park,toronto,..,..,..,..,on
176459,St. James Town West Park,park,toronto,..,..,..,..,on
176473,St. Lucie Park,park,toronto,..,..,..,..,on
176481,St. Margarets Parkette,park,toronto,..,..,..,..,on
176488,St. Mary Street Parkette,park,toronto,..,..,..,..,on
176499,St. Phillips Road Parkette,park,toronto,..,..,..,..,on
176503,St. Stevens Court Parkette,park,toronto,..,..,..,..,on
176520,Stadium Road Park,park,toronto,..,..,..,..,on
176523,Stafford Park,park,toronto,..,..,..,..,on
176530,Staines Parkette,park,toronto,..,..,..,..,on
176532,Stan Wadlow Park,park,toronto,..,..,..,..,on
176535,Stanley Avenue Park,park,toronto,..,..,..,..,on
176536,Stanley G. Grizzle Park,park,toronto,..,..,..,..,on
176543,Stanley Park,park,toronto,..,..,..,..,on
176546,Stanley Park North - Toronto,park,toronto,..,..,..,..,on
176548,Stanley Park South - Toronto,park,toronto,..,..,..,..,on
176561,Starry Park,park,toronto,..,..,..,..,on
176585,Stephen Leacock Park,park,toronto,..,..,..,..,on
176588,Stephenson Park,park,toronto,..,..,..,..,on
176595,Stewart A. Mcgregor Parkette,park,toronto,..,..,..,..,on
