Index,Facility_Name,ODRSF_facility_type,Provider,Street_No,Street_Name,Postal_Code,City,Prov_Terr
9782,Ching And Queen Community Park,sports field,peel region,..,chingcuacousy,..,brampton,on
9783,Ching And Queen Community Park,sports field,peel region,..,chingcuacousy,..,brampton,on
9784,Chinguacousy,sports field,peel region,1370,williams,L6S 1V3,brampton,on
9785,Chinguacousy,sports field,peel region,1370,williams,L6S 1V3,brampton,on
9786,Chinguacousy,sports field,peel region,1370,williams,L6S 1V3,brampton,on
9787,Chinguacousy,sports field,peel region,1370,williams,L6S 1V3,brampton,on
9788,Chinguacousy Curling & Tennis & Optimist Community Centre,sports field,brampton,9050,bramalea,L6S 6G7,brampton,on
9789,Chinguacousy Curling & Tennis/Ski & Optimist Community Centre,sports field,peel region,9050,bramalea,L6S 6G7,brampton,on
9790,Chinguacousy Sandalwood Community Park,sports field,peel region,..,chinguacousy,..,brampton,on
9791,Chinguacousy Sandalwood Community Park,sports field,peel region,..,chinguacousy,..,brampton,on
9792,Chinguacousy Sandalwood Community Park,sports field,peel region,..,chinguacousy,..,brampton,on
9793,Chinguacousy Sandalwood Community Park,sports field,peel region,..,chinguacousy,..,brampton,on
9794,Chinguacousy Sandalwood Community Park,sports field,peel region,..,chinguacousy,..,brampton,on
9795,Chinguacousy Sandalwood Community Park,sports field,peel region,..,chinguacousy,..,brampton,on
9801,Chris Gibson Park,sports field,peel region,..,..,..,brampton,on
9802,Chris Gibson Park,sports field,peel region,..,..,..,brampton,on
9803,Chris Gibson Park,sports field,peel region,..,..,..,brampton,on
9804,Chris Gibson Park,sports field,peel region,..,..,..,brampton,on
9805,Chris Gibson Park,sports field,peel region,..,..,..,brampton,on
9806,Chris Gibson Park,sports field,peel region,..,..,..,brampton,on
9807,Chris Gibson Park,sports field,peel region,..,..,..,brampton,on
9808,Chris Gibson Park,sports field,peel region,..,..,..,brampton,on
9862,Clark Boulevard,sports field,peel region,201,clark,L6T 2C9,brampton,on
9864,Clark Park,sports field,peel region,..,..,..,brampton,on
10121,Conestoga,sports field,peel region,300,conestoga,L6Z 3M1,brampton,on
10157,Conservation Drive Park,sports field,peel region,290,conservation,..,brampton,on
10158,Conservation Drive Park,sports field,peel region,290,conservation,..,brampton,on
10168,Copeland,sports field,peel region,5,young,L6Y 0P4,brampton,on
10229,County Court Park,sports field,peel region,..,county,..,brampton,on
10230,County Court Park,sports field,peel region,..,county,..,brampton,on
10231,County Court Park,sports field,peel region,..,county,..,brampton,on
10232,County Court Park,sports field,peel region,..,county,..,brampton,on
10271,Creditview Sandalwood Park,sports field,peel region,..,creditview,..,brampton,on
10272,Creditview Sandalwood Park,sports field,peel region,..,creditview,..,brampton,on
10273,Creditview Sandalwood Park,sports field,peel region,..,creditview,..,brampton,on
10274,Creditview Sandalwood Park,sports field,peel region,..,creditview,..,brampton,on
10275,Creditview Sandalwood Park,sports field,peel region,..,creditview,..,brampton,on
10276,Creditview Sandalwood Park,sports field,peel region,..,creditview,..,brampton,on
10277,Creditview Sandalwood Park,sports field,peel region,..,creditview,..,brampton,on
10278,Creditview Sandalwood Park,sports field,peel region,..,creditview,..,brampton,on
10279,Creditview Sandalwood Park,sports field,peel region,..,creditview,..,brampton,on
10280,Creditview Sandalwood Park,sports field,peel region,..,creditview,..,brampton,on
10281,Creditview Sandalwood Park,sports field,peel region,..,creditview,..,brampton,on
10282,Creditview Sandalwood Park,sports field,peel region,..,creditview,..,brampton,on
10283,Creditview Sandalwood Park,sports field,peel region,..,creditview,..,brampton,on
10284,Creditview Sandalwood Park,sports field,peel region,..,creditview,..,brampton,on
10285,Creditview Sandalwood Park,sports field,peel region,..,creditview,..,brampton,on
10407,David Suzuki Ss,sports field,peel region,45,daviselm,L6X 0Z3,brampton,on
10413,Dearbourne Park,sports field,peel region,..,..,..,brampton,on
