Index,Facility_Name,ODRSF_facility_type,Provider,Street_No,Street_Name,Postal_Code,City,Prov_Terr
6917,7V7 City View Park,sports field,mississauga,565,central,..,mississauga,on
6918,7V7 Clover Meadows,sports field,mississauga,1090,white clover,..,mississauga,on
6919,7V7 Deer Wood Park,sports field,mississauga,1100,rathburn,..,mississauga,on
6920,7V7 Duncairn Downs,sports field,mississauga,2860,duncairn,..,mississauga,on
6921,7V7 East Courtneypark Athletic Fields,sports field,mississauga,..,..,..,..,on
6922,7V7 F.B. Mcfarren Memorial Park,sports field,mississauga,5255,mcfarren,..,mississauga,on
6923,7V7 Fairview Park,sports field,mississauga,3300,palgrave,..,mississauga,on
6924,7V7 Forest Hill Park,sports field,mississauga,4995,hill,..,mississauga,on
6925,7V7 Four Winds Hollow,sports field,mississauga,636,avonwick,..,mississauga,on
6926,7V7 Golder Community Park,sports field,mississauga,3200,destination,..,mississauga,on
6927,7V7 Gordon Lummiss Park,sports field,mississauga,236,paisley,..,mississauga,on
6928,7V7 Hawthorne Valley,sports field,mississauga,5165,fairwind,..,mississauga,on
6929,7V7 Heritage Hills Park,sports field,mississauga,315,huntington,..,mississauga,on
6930,7V7 Huron Park,sports field,mississauga,830,paisley,..,mississauga,on
6931,7V7 Iroquois Flats,sports field,mississauga,520,fergo,..,mississauga,on
6932,7V7 John Cleary Park,sports field,mississauga,450,webb,..,mississauga,on
6933,7V7 King's Masting Park,sports field,mississauga,3389,martins,..,mississauga,on
6934,7V7 Meadow Glen,sports field,mississauga,535,rathburn,..,mississauga,on
6935,7V7 N Paul Coffey Park,sports field,mississauga,3430,derry,..,mississauga,on
6936,7V7 North West (Field 1) Garcia Park,sports field,mississauga,5900,whitehorn,..,mississauga,on
6937,7V7 Nw Huron Heights,sports field,mississauga,4500,central,..,mississauga,on
6938,7V7 Pheasant Run,sports field,mississauga,4175,pheasant,..,mississauga,on
6939,7V7 Rayfield Park,sports field,mississauga,530,rathburn,..,mississauga,on
6940,7V7 Red Brush Park,sports field,mississauga,5139,red brush,..,mississauga,on
6941,7V7 Ridgewood Park,sports field,mississauga,7239,cambrett,..,mississauga,on
6942,7V7 Rosebush Common,sports field,mississauga,4890,creditview,..,mississauga,on
6943,7V7 S Paul Coffey Park,sports field,mississauga,3430,derry,..,mississauga,on
6944,7V7 Samuelson Park,sports field,mississauga,..,..,..,..,on
6945,7V7 Samuelson Park,sports field,mississauga,..,..,..,..,on
6946,7V7 Samuelson Park,sports field,mississauga,..,..,..,..,on
6947,7V7 Samuelson Park,sports field,mississauga,..,..,..,..,on
6948,7V7 Se (Part Of A Multi Use Cricket) Petro Canada Park,sports field,mississauga,670,southdown,..,mississauga,on
6949,7V7 Se Huron Heights,sports field,mississauga,4500,central,..,mississauga,on
6950,7V7 Sonoma Park,sports field,mississauga,5565,terry fox,..,mississauga,on
6951,7V7 South East (Field 2) Garcia Park,sports field,mississauga,5900,whitehorn,..,mississauga,on
6952,7V7 Streetsville Memorial Park,sports field,mississauga,335,church,..,mississauga,on
6953,7V7 Sw (Part Of A Multi Use Cricket) Petro Canada Park,sports field,mississauga,670,southdown,..,mississauga,on
6954,7V7 Thornlodge Park,sports field,mississauga,2405,homelands,..,mississauga,on
6955,7V7 Trafalgar Common,sports field,mississauga,3110,mcdowell,..,mississauga,on
6956,7V7 W Middlebury Green,sports field,mississauga,5510,middlebury,..,mississauga,on
6957,7V7 West Courtneypark Athletic Fields,sports field,mississauga,..,..,..,..,on
6958,7V7 Westwood Park,sports field,mississauga,6941,darcel,..,mississauga,on
6959,"7V7 Whiteoaks (K-5, Fi) (Ps)",sports field,mississauga,1690,mazo,..,mississauga,on
6960,7V7 Willowvale Fields,sports field,mississauga,1340,willowvale,..,mississauga,on
6961,7V7 Woodhurst Heights,sports field,mississauga,3475,ash row,..,mississauga,on
6962,7V7 Woodington Green,sports field,mississauga,4175,woodington,..,mississauga,on
6963,7V7 Woodland Chase,sports field,mississauga,2042,kempton park,..,mississauga,on
6964,7V7 Zonta Meadows,sports field,mississauga,410,rathburn,..,mississauga,on
6966,9V9 1 S Crawford Green,sports field,mississauga,4565,glen,..,mississauga,on
