Index,Facility_Name,ODRSF_facility_type,Provider,Street_No,Street_Name,Postal_Code,City,Prov_Terr
166471,Ernest And Edith Parr Parkette,park,brampton,..,..,..,..,on
166550,Evening Stars Park,park,brampton,..,..,..,..,on
166580,Ezard Park,park,brampton,..,..,..,..,on
166614,Fairhill Parkette,park,brampton,..,..,..,..,on
166616,Fairlawn Park,park,brampton,..,..,..,..,on
166668,Fallen Oak Park,park,brampton,..,..,..,..,on
166680,Fanshawe Parkette,park,brampton,..,..,..,..,on
166698,Father Eugene Oreilly Park,park,brampton,..,..,..,..,on
166736,Fenwick Park,park,brampton,..,..,..,..,on
166756,Fern Valley Parkette,park,brampton,..,..,..,..,on
166765,Ferri Parkette,park,brampton,..,..,..,..,on
166772,Fiddlers Parkette,park,brampton,..,..,..,..,on
166862,Flamingo Parkette,park,brampton,..,..,..,..,on
166883,Fletchers Parkette,park,brampton,..,..,..,..,on
166898,Folkstone Park,park,brampton,..,..,..,..,on
167012,Foxacre Parkette,park,brampton,..,..,..,..,on
167029,Francis H Taylor Park,park,brampton,..,..,..,..,on
167041,Frank Harkema Parkette,park,brampton,..,..,..,..,on
167083,Fred Kee Park,park,brampton,..,..,..,..,on
167191,Garbutt Parkette,park,brampton,..,..,..,..,on
167246,Gatesgill Park,park,brampton,..,..,..,..,on
167300,George M. Lee Park,park,brampton,..,..,..,..,on
167307,George Ransier Park,park,brampton,..,..,..,..,on
167386,Giffen Family Park,park,brampton,..,..,..,..,on
167415,Gladstone-Shaw Park,park,brampton,..,..,..,..,on
167416,Gladys And George Gray Park,park,brampton,..,..,..,..,on
167510,Glenforest Park South,park,brampton,..,..,..,..,on
167523,Glenmanor Park,park,brampton,..,..,..,..,on
167557,Gold Parkette,park,brampton,..,..,..,..,on
167558,Goldcrest Park,park,brampton,..,..,..,..,on
167789,Great Lakes Park,park,brampton,..,..,..,..,on
167888,Grey Whale Park,park,brampton,..,..,..,..,on
167913,Groveland Parkette,park,brampton,..,..,..,..,on
167995,Halldorson Park,park,brampton,..,..,..,..,on
168031,Hanover Park,park,brampton,..,..,..,..,on
168033,Hansen Parkette,park,brampton,..,..,..,..,on
168091,Harry A Shields Parkette,park,brampton,..,..,..,..,on
168139,Havanna Park,park,brampton,..,..,..,..,on
168140,Havelock Park,park,brampton,..,..,..,..,on
168179,Hazelwood Parkette,park,brampton,..,..,..,..,on
168203,Heatherglen Park,park,brampton,..,..,..,..,on
168211,Hedgeline Parkette,park,brampton,..,..,..,..,on
168278,Henry Verschuren Park,park,brampton,..,..,..,..,on
168370,Hickory Wood Park,park,brampton,..,..,..,..,on
168519,Hockley Path Parkette,park,brampton,..,..,..,..,on
168545,Hollowtree Parkette,park,brampton,..,..,..,..,on
168578,Homestead Park,park,brampton,..,..,..,..,on
168618,Hoskins Parkette,park,brampton,..,..,..,..,on
168628,Howard Stewart Park,park,brampton,..,..,..,..,on
