Index,Facility_Name,ODRSF_facility_type,Provider,Street_No,Street_Name,Postal_Code,City,Prov_Terr
15603,Sandalwood Park,sports field,peel region,..,sandalwood,..,brampton,on
15605,Sandalwood Park,sports field,peel region,..,sandalwood,..,brampton,on
15676,Seaborn Park,sports field,peel region,..,herkley,..,brampton,on
15677,Seaborn Park,sports field,peel region,..,herkley,..,brampton,on
15712,Sesquicentennial Park,sports field,peel region,11333,bramalea,..,brampton,on
15713,Sesquicentennial Park,sports field,peel region,11333,bramalea,..,brampton,on
15714,Sesquicentennial Park,sports field,peel region,11333,bramalea,..,brampton,on
15715,Sesquicentennial Park,sports field,peel region,11333,bramalea,..,brampton,on
15716,Sesquicentennial Park,sports field,peel region,11333,bramalea,..,brampton,on
15717,Sesquicentennial Park,sports field,peel region,11333,bramalea,..,brampton,on
15718,Sesquicentennial Park,sports field,peel region,11333,bramalea,..,brampton,on
15719,Sesquicentennial Park,sports field,peel region,11333,bramalea,..,brampton,on
15739,Shaw,sports field,peel region,10,father tobin,L6R 3K2,brampton,on
15778,Sheridan College - Davis Campus,sports field,peel region,7899,mclauglin,L4Y 2B8,brampton,on
15779,Sheridan College - Davis Campus,sports field,peel region,7899,mclauglin,L4Y 2B8,brampton,on
15791,Sheridan Woodlands,sports field,peel region,..,duggan,..,brampton,on
15808,Shiloh Christian Institute,sports field,peel region,11613,bramalea,L6T 3S1,brampton,on
15809,Shiloh Christian Institute,sports field,peel region,11613,bramalea,L6T 3S1,brampton,on
15876,Sir John A. Macdonald Sr.,sports field,peel region,250,centre,L6V 2R4,brampton,on
15877,Sir John A. Macdonald Sr.,sports field,peel region,250,centre,L6V 2R4,brampton,on
15878,Sir John A. Macdonald Sr.,sports field,peel region,250,centre,L6V 2R4,brampton,on
15880,Sir Wilfrid Laurier,sports field,peel region,364,bartley bull,L6W 2L8,brampton,on
15883,Sir William Gage,sports field,peel region,635,queen,L6Y 5L6,brampton,on
15884,Sir Winston Churchill,sports field,peel region,89,ardglen,L6W 1V1,brampton,on
15885,Sir Winston Churchill,sports field,peel region,89,ardglen,L6W 1V1,brampton,on
16881,Somerset Drive,sports field,peel region,50,somerset,L6Z 1C7,brampton,on
16882,Somerset Drive,sports field,peel region,50,somerset,L6Z 1C7,brampton,on
16951,Springdale,sports field,peel region,100,dewside,L6R 3B6,brampton,on
16952,Springdale Central Community Park,sports field,peel region,..,..,..,brampton,on
17103,St. Agnes,sports field,peel region,103,richvale,L6Z 4G6,brampton,on
17104,St. Aidan,sports field,peel region,34,buick,L7A 3B9,brampton,on
17109,St. Andre Bessette,sports field,peel region,25,riverstone,L6P 2V7,brampton,on
17113,St. Angela Merici,sports field,peel region,83,edenbrook hill,L7A 2N7,brampton,on
17114,St. Anthony,sports field,peel region,950,park,L6S 3L5,brampton,on
17115,St. Augustine,sports field,peel region,27,drinkwater,L6Y 4T6,brampton,on
17122,St. Bonaventure,sports field,peel region,35,mcbrimmon,L7A 2Z5,brampton,on
17123,St. Brigid,sports field,peel region,81,torrance,L6Y 2X4,brampton,on
17124,St. Brigid,sports field,peel region,81,torrance,L6Y 2X4,brampton,on
17127,St. Cecilia,sports field,peel region,10,brickyard,L6V 4L5,brampton,on
17128,St. Cecilia,sports field,peel region,10,brickyard,L6V 4L5,brampton,on
17129,St. Cecilia,sports field,peel region,10,brickyard,L6V 4L5,brampton,on
17147,St. Edmund Campion,sports field,peel region,275,brisdale,L7A 3C7,brampton,on
17150,St. Francis Xavier,sports field,peel region,111,bartley bull,L6W 2J8,brampton,on
17162,St. Isaac Jogues,sports field,peel region,300,great lakes,L6R 2W7,brampton,on
17166,St. Jean Brebeuf,sports field,peel region,63,glenforest,L6S 1L8,brampton,on
17167,St. Jean Brebeuf,sports field,peel region,63,glenforest,L6S 1L8,brampton,on
17168,St. Jean-Marie Vianney,sports field,peel region,75,jordensen,L6X 0S1,brampton,on
17171,St. Joachim,sports field,peel region,435,rutherford,L6V 3V9,brampton,on
17173,St. John Bosco,sports field,peel region,1025,park,L6S 40,brampton,on
