Index,Facility_Name,ODRSF_facility_type,Provider,Street_No,Street_Name,Postal_Code,City,Prov_Terr
13755,Mississauga,sports field,peel region,550,courtney park,L5W 1L9,mississauga,on
13756,Mississauga,sports field,peel region,550,courtney park,L5W 1L9,mississauga,on
13757,Mississauga,sports field,peel region,550,courtney park,L5W 1L9,mississauga,on
13758,Mississauga - Meadowvale Rotary Park,sports field,peel region,3302,tacc,..,mississauga,on
13759,Mississauga - Meadowvale Rotary Park,sports field,peel region,3302,tacc,..,mississauga,on
13760,Mississauga - Meadowvale Rotary Park,sports field,peel region,3302,tacc,..,mississauga,on
13761,Mississauga - Meadowvale Rotary Park,sports field,peel region,3302,tacc,..,mississauga,on
13762,Mississauga Field Office - Phase Ii,sports field,peel region,2180,harvest,..,mississauga,on
13763,Mississauga Hockey League,rink,mississauga,3615,laird,L5L 5Z8,..,on
13764,Mississauga Valley,sports field,peel region,1275,mississauga valley,L5A 3R8,mississauga,on
13765,Mississauga Valley,sports field,peel region,1275,mississauga valley,L5A 3R8,mississauga,on
13766,Mississauga Valley,sports field,peel region,1275,mississauga valley,L5A 3R8,mississauga,on
13767,Mississauga Valley,sports field,peel region,1275,mississauga valley,L5A 3R8,mississauga,on
13768,Mississauga Valley,sports field,peel region,1275,mississauga valley,L5A 3R8,mississauga,on
13769,Mississauga Valley,sports field,peel region,1275,mississauga valley,L5A 3R8,mississauga,on
13770,Mississaugua Golf And Country Club,sports field,peel region,1725,mississauga,L5H 2K4,mississauga,on
13776,Mohawk Park,sports field,peel region,2409,delkus,L5A 1K8,mississauga,on
13826,Morning Star Middle,sports field,peel region,3131,morning star,L4T 1X3,mississauga,on
13827,Morning Star Middle,sports field,peel region,3131,morning star,L4T 1X3,mississauga,on
13851,Mount Charles Park,sports field,peel region,1265,cardiff,..,mississauga,on
13852,Mount Charles Park,sports field,peel region,1265,cardiff,..,mississauga,on
13885,Munden Park,sports field,peel region,515,tedwyn,L5A 1J8,mississauga,on
13886,Munden Park,sports field,peel region,515,tedwyn,L5A 1J8,mississauga,on
13899,My Tabletennis Club,sports field,mississauga,2436,haines,L4Y 1Y6,..,on
13901,Nahani Way,sports field,peel region,235,nahani,L4Z 3J6,mississauga,on
13902,Nahani Way,sports field,peel region,235,nahani,L4Z 3J6,mississauga,on
13930,Neebin Park,sports field,peel region,635,kaiser,..,mississauga,on
13989,Ninth Line Sports Park,sports field,peel region,3115,ninth,..,mississauga,on
13990,Ninth Line Sports Park,sports field,peel region,3115,ninth,..,mississauga,on
14011,North Mississauga Soccer Club,sports field,mississauga,10,falconer,L5N 3L8,..,on
14034,Northwood Park,sports field,peel region,3830,brandon gate,..,mississauga,on
14035,Northwood Park,sports field,peel region,3830,brandon gate,..,mississauga,on
14036,Northwood Park,sports field,peel region,3830,brandon gate,..,mississauga,on
14067,Novo Star Park,sports field,peel region,640,novo star,..,mississauga,on
14068,Novo Star Park,sports field,peel region,640,novo star,..,mississauga,on
14095,Oakridge,sports field,peel region,2060,stonehouse,L5H 3J1,mississauga,on
14096,Oakridge,sports field,peel region,2060,stonehouse,L5H 3J1,mississauga,on
14097,Oakridge,sports field,peel region,2060,stonehouse,L5H 3J1,mississauga,on
14098,Oakridge,sports field,peel region,2060,stonehouse,L5H 3J1,mississauga,on
14115,O'Connor Park,sports field,peel region,3570,bala,..,mississauga,on
14116,O'Connor Park,sports field,peel region,3570,bala,..,mississauga,on
14132,Old Ridge Park,sports field,peel region,6965,historic,..,mississauga,on
14143,Ontario Women's Hockey Association,rink,mississauga,225,watline,L4Z 1P3,..,on
14195,Osprey Woods,sports field,peel region,6135,lisgar,L5N 7V2,mississauga,on
14222,Our Lady Of Good Voyage,sports field,peel region,5850,river grove,L5M 4W2,mississauga,on
14228,Our Lady Of Mercy,sports field,peel region,5820,glen erin,L5M 5J9,mississauga,on
14229,Our Lady Of Mercy,sports field,peel region,5820,glen erin,L5M 5J9,mississauga,on
14230,Our Lady Of Mt. Carmel,sports field,peel region,3700,trelawny,L5N 5J7,mississauga,on
14243,Owenwood,sports field,peel region,930,owenwood,L5H 3J2,mississauga,on
