Index,Facility_Name,ODRSF_facility_type,Provider,Street_No,Street_Name,Postal_Code,City,Prov_Terr
164893,Clover Meadows,park,mississauga,1090,white clover,..,mississauga,on
165011,Community Common Park,park,mississauga,355,princess royal,..,mississauga,on
165075,Constitution Park,park,mississauga,3025,constitution,..,mississauga,on
165083,Cooksville Common,park,mississauga,2326,park towers,..,mississauga,on
165084,Cooksville Four Corners,park,mississauga,10,dundas,..,mississauga,on
165085,Cooksville Park,park,mississauga,106,king,..,mississauga,on
165088,Coopers Common,park,mississauga,7120,appletree,..,mississauga,on
165105,Coppersmith Grove,park,mississauga,2430,coppersmith,..,mississauga,on
165106,Coram Park,park,mississauga,1795,coram,..,mississauga,on
165108,Cordingley Park,park,mississauga,6530,saratoga,..,mississauga,on
165248,Courtneypark Athletic Fields,park,mississauga,600,courtneypark,..,mississauga,on
165303,Crawford Green,park,mississauga,4565,glen,..,mississauga,on
165306,Crawford Walk,park,mississauga,2430,credit,..,mississauga,on
165308,Credit Meadows,park,mississauga,6545,creditview,..,mississauga,on
165309,Credit Pointe Village,park,mississauga,4635,credit pointe,..,mississauga,on
165310,Credit River Flats,park,mississauga,350,mineola,..,mississauga,on
165311,Creditview Wetlands,park,mississauga,1360,willowvale,..,mississauga,on
165312,Creditview Woods,park,mississauga,899,rathburn,..,mississauga,on
165516,Danville Park,park,mississauga,6525,danville,..,mississauga,on
165585,Dean Henderson Memorial Park,park,mississauga,2909,hammond,..,mississauga,on
165610,Deer Wood Park,park,mississauga,1100,rathburn,..,mississauga,on
165632,Dellwood Park,park,mississauga,598,arbor,..,mississauga,on
165683,Derry Greenway,park,mississauga,7044,goreway,..,mississauga,on
165684,Derry Side Green,park,mississauga,7889,tranmere,..,mississauga,on
165685,Derry West Greenbelt,park,mississauga,200,derry,..,mississauga,on
165770,Diviner's Way,park,mississauga,5715,ninth line,..,mississauga,on
165772,Dixie Woods,park,mississauga,1385,winding,..,mississauga,on
165819,Don Gould Park,park,mississauga,2441,line,..,mississauga,on
165899,Douglas Kennedy Park,park,mississauga,810,lakefront,..,mississauga,on
165957,Dr. Martin L. Dobkin Community Park,park,mississauga,395,fairview,..,mississauga,on
166021,Duncairn Downs,park,mississauga,2860,duncairn,..,mississauga,on
166063,Dunn Park,park,mississauga,4066,erin,..,mississauga,on
166069,Dunton Athletic Fields,park,mississauga,6180,kennedy,..,mississauga,on
166163,Eastgate Park,park,mississauga,320,nahani,..,mississauga,on
166223,Eden Woods,park,mississauga,6647,line,..,mississauga,on
166225,Edengrove,park,mississauga,3071,tours,..,mississauga,on
166267,Edward L. Scarlett Park,park,mississauga,1995,courtneypark,..,mississauga,on
166360,Ellis Leuschner Challenge Park,park,mississauga,4321,wellsborough,..,mississauga,on
166375,Elmcreek Park,park,mississauga,7320,darcel,..,mississauga,on
166454,Erin Centre Trail,park,mississauga,3145,artesian,..,mississauga,on
166455,Erin Meadows,park,mississauga,2800,erin,..,mississauga,on
166456,Erin Mills Athletic Fields,park,mississauga,4419,haydock park,..,mississauga,on
166457,Erin Mills Twin Arena Grounds,park,mississauga,3205,unity,..,mississauga,on
166458,Erin Woods,park,mississauga,5303,erin,..,mississauga,on
166463,Erindale Park,park,mississauga,1695,dundas,..,mississauga,on
166525,Etobicoke Valley,park,mississauga,1810,mattawa,..,mississauga,on
166582,F.B. Mcfarren Memorial Park,park,mississauga,5255,mcfarren,..,mississauga,on
166587,Fairbirch Park,park,mississauga,975,fair birch,..,mississauga,on
166643,Fairview Park,park,mississauga,3300,palgrave,..,mississauga,on
