Index,Facility_Name,ODRSF_facility_type,Provider,Street_No,Street_Name,Postal_Code,City,Prov_Terr
18228,West Credit Secondary School,sports field,peel region,6325,montevideo,L5N 4G7,mississauga,on
18251,Westacres,sports field,peel region,2165,breezy brae,L4Y 1N3,mississauga,on
18252,Westacres,sports field,peel region,2165,breezy brae,L4Y 1N3,mississauga,on
18253,Westacres Park,sports field,peel region,2166,westfield,L4Y 1P7,mississauga,on
18254,Westacres Park,sports field,peel region,2166,westfield,L4Y 1P7,mississauga,on
18318,Westwood Park,sports field,peel region,6941,darcel,L4T 2W7,mississauga,on
18350,Whitehorn,sports field,peel region,5785,whitehorn,L5V 2A9,mississauga,on
18351,Whiteoaks,sports field,peel region,1690,mazo,L5J 1Y8,mississauga,on
18352,Whiteoaks,sports field,peel region,1690,mazo,L5J 1Y8,mississauga,on
18353,Whiteoaks,sports field,peel region,1690,mazo,L5J 1Y8,mississauga,on
18354,Whiteoaks Park,sports field,peel region,1450,truscott,..,mississauga,on
18355,Whiteoaks Park,sports field,peel region,1450,truscott,..,mississauga,on
18356,Whiteoaks Park,sports field,peel region,1450,truscott,..,mississauga,on
18376,Wildwood Park,sports field,peel region,3430,derry,L4T 1A9,mississauga,on
18377,Wildwood Park,sports field,peel region,3430,derry,L4T 1A9,mississauga,on
18378,Wildwood Park,sports field,peel region,3430,derry,L4T 1A9,mississauga,on
18379,Wildwood Park,sports field,peel region,3430,derry,L4T 1A9,mississauga,on
18380,Wildwood Park,sports field,peel region,3430,derry,L4T 1A9,mississauga,on
18381,Wildwood Park,sports field,peel region,3430,derry,L4T 1A9,mississauga,on
18400,Willow Glen,sports field,peel region,1301,epton,L5J 1R9,mississauga,on
18401,Willow Glen,sports field,peel region,1301,epton,L5J 1R9,mississauga,on
18404,Willow Way,sports field,peel region,1715,willow,L5M 3W5,mississauga,on
18405,Willow Way,sports field,peel region,1715,willow,L5M 3W5,mississauga,on
18415,Willowvale Fields,sports field,peel region,1340,willowvale,L5V 1V1,mississauga,on
18416,Willowvale Fields,sports field,peel region,1340,willowvale,L5V 1V1,mississauga,on
18417,Willowvale Fields,sports field,peel region,1340,willowvale,L5V 1V1,mississauga,on
18451,Windwood Park,sports field,peel region,2795,windwood,..,mississauga,on
18452,Windwood Park,sports field,peel region,2795,windwood,..,mississauga,on
18453,Windwood Park,sports field,peel region,2795,windwood,..,mississauga,on
18454,Windwood Park,sports field,peel region,2795,windwood,..,mississauga,on
18455,Windwood Park,sports field,peel region,2795,windwood,..,mississauga,on
18456,Windwood Park,sports field,peel region,2795,windwood,..,mississauga,on
18457,Windwood Park,sports field,peel region,2795,windwood,..,mississauga,on
18458,Windwood Park,sports field,peel region,2795,windwood,..,mississauga,on
18516,Woodchuck Green,sports field,peel region,3980,woodchuck,..,mississauga,on
18520,Woodeden Park,sports field,peel region,1538,woodeden,L5H 2V3,mississauga,on
18523,Woodhurst Heights,sports field,peel region,3475,ash row,L5L 1K3,mississauga,on
18524,Woodhurst Heights,sports field,peel region,3475,ash row,L5L 1K3,mississauga,on
18525,Woodhurst Heights,sports field,peel region,3475,ash row,L5L 1K3,mississauga,on
18526,Woodhurst Heights,sports field,peel region,3475,ash row,L5L 1K3,mississauga,on
18527,Woodington Green,sports field,peel region,4175,woodington,L4Z 1K2,mississauga,on
18529,Woodland Chase,sports field,peel region,2042,kempton park,L5M 2Z4,mississauga,on
18530,Woodland Chase,sports field,peel region,2042,kempton park,L5M 2Z4,mississauga,on
18531,Woodland Chase,sports field,peel region,2042,kempton park,L5M 2Z4,mississauga,on
18533,Woodland Park,sports field,peel region,3500,ellengale,L5C 1Z7,mississauga,on
18534,Woodlands Ss,sports field,peel region,3225,erindale station,L5C 1Y5,mississauga,on
18535,Woodlands Ss,sports field,peel region,3225,erindale station,L5C 1Y5,mississauga,on
18536,Woodlands Ss,sports field,peel region,3225,erindale station,L5C 1Y5,mississauga,on
18537,Woodlands Ss,sports field,peel region,3225,erindale station,L5C 1Y5,mississauga,on
