Index,Facility_Name,ODRSF_facility_type,Provider,Street_No,Street_Name,Postal_Code,City,Prov_Terr
17107,St. Aloysius Gonzaga,sports field,peel region,2800,erin centre,L5M 6R5,mississauga,on
17108,St. Aloysius Gonzaga,sports field,peel region,2800,erin centre,L5M 6R5,mississauga,on
17117,St. Basil,sports field,peel region,4235,golden orchard,L4W 3G1,mississauga,on
17121,St. Bernard Of Clairvaux,sports field,peel region,3345,escada,L5M 7V5,mississauga,on
17126,St. Catherine Of Siena,sports field,peel region,2350,hurontario,L5B 1N1,mississauga,on
17133,St. Charles Garnier,sports field,peel region,4233,central,L4Z 1M7,mississauga,on
17134,St. Christopher,sports field,peel region,1195,clarkson,L5J 2W1,mississauga,on
17135,St. Christopher,sports field,peel region,1195,clarkson,L5J 2W1,mississauga,on
17136,St. Clare,sports field,peel region,4140,glen erin,L5L 2Z3,mississauga,on
17141,St. David Of Wales,sports field,peel region,4200,beacon,L5C 3V9,mississauga,on
17143,St. Dunstan,sports field,peel region,1525,cuthbert,L5M 3R6,mississauga,on
17144,St. Dunstan,sports field,peel region,1525,cuthbert,L5M 3R6,mississauga,on
17145,St. Edith Stein,sports field,peel region,6234,osprey,L5N 5V5,mississauga,on
17146,St. Edith Stein,sports field,peel region,6234,osprey,L5N 5V5,mississauga,on
17148,St. Faustina,sports field,peel region,3420,mcdowell,L5M 6R7,mississauga,on
17151,St. Francis Xavier Ss,sports field,peel region,50,bristol,L5R 3K3,mississauga,on
17154,St. Gertrude,sports field,peel region,815,ceremonial,L5R 3S2,mississauga,on
17155,St. Gregory,sports field,peel region,1075,swinbourne,L5V 1B9,mississauga,on
17156,St. Helen,sports field,peel region,1325,bodley,L5J 3X1,brampton,on
17157,St. Herbert,sports field,peel region,5180,fallingbrook,L5V 2C6,mississauga,on
17158,St. Hilary,sports field,peel region,5070,fairwind,L5R 2N4,mississauga,on
17159,St. Hilary,sports field,peel region,5070,fairwind,L5R 2N4,mississauga,on
17160,St. Hilary,sports field,peel region,5070,fairwind,L5R 2N4,mississauga,on
17163,St. James,sports field,peel region,98,wanita,L5G 1B8,mississauga,on
17164,St. James,sports field,peel region,98,wanita,L5G 1B8,mississauga,on
17169,St. Jerome,sports field,peel region,790,paisley,L5C 3P5,mississauga,on
17170,St. Jerome,sports field,peel region,790,paisley,L5C 3P5,mississauga,on
17172,St. Joan Of Arc,sports field,peel region,3801,thomas,L5M 7G2,mississauga,on
17179,St. Joseph Ss,sports field,peel region,5555,creditview,L5V 2B9,mississauga,on
17180,St. Joseph Ss,sports field,peel region,5555,creditview,L5V 2B9,mississauga,on
17182,St. Jude,sports field,peel region,175,nahani,L4Z 3J6,mississauga,on
17183,St. Julia,sports field,peel region,6770,historic,L5W 1J3,mississauga,on
17184,St. Julia,sports field,peel region,6770,historic,L5W 1J3,mississauga,on
17193,St. Louis,sports field,peel region,1450,lewisham,L5J 3R3,mississauga,on
17195,St. Luke,sports field,peel region,1280,cobalt,L5H 4L8,mississauga,on
17204,St. Mark,sports field,peel region,3675,sawmill valley,L5L 2Z5,mississauga,on
17205,St. Mark,sports field,peel region,3675,sawmill valley,L5L 2Z5,mississauga,on
17206,St. Martin,sports field,peel region,2470,rosemary,L5C 1X2,mississauga,on
17215,St. Paul,sports field,peel region,815,atwater,L5E 1L8,mississauga,on
17221,St. Philip,sports field,peel region,345,fairview,L5B 3W5,mississauga,on
17222,St. Pio Of Pietrelcina,sports field,peel region,4765,huron heights,L4Z 4G9,mississauga,on
17223,St. Raymond,sports field,peel region,5735,whitehorn,L5V 2A9,mississauga,on
17224,St. Richard,sports field,peel region,7270,copenhagen,L5N 2C3,mississauga,on
17228,St. Sebastian,sports field,peel region,3460,aquinas,L5M 7L2,mississauga,on
17229,St. Simon Stock,sports field,peel region,6440,lisgar,L5N 6X3,mississauga,on
17233,St. Teresa Of Avila,sports field,peel region,6675,montevideo,L5N 400000000,mississauga,on
17234,St. Teresa Of Avila,sports field,peel region,6675,montevideo,L5N 400000000,mississauga,on
17235,St. Teresa Of Avila,sports field,peel region,6675,montevideo,L5N 400000000,mississauga,on
17239,St. Therese Of The Child Jesus,sports field,peel region,6930,forest park,L5N 6X7,mississauga,on
