Index,Facility_Name,ODRSF_facility_type,Provider,Street_No,Street_Name,Postal_Code,City,Prov_Terr
3459,Mount Pleasant Square,playground,peel region,..,commuter,..,brampton,on
3467,Mountainash Park East,playground,peel region,..,..,..,brampton,on
3485,Murray Street Park,playground,peel region,..,..,..,brampton,on
3491,Nancy Mccredie Park,playground,peel region,..,..,..,brampton,on
3492,Nasmith Park,playground,peel region,38,nasmith,..,brampton,on
3501,Native Landing Parkette,playground,peel region,..,native,..,brampton,on
3535,Newton Park,playground,peel region,..,skelton,..,brampton,on
3585,Northampton Park,playground,peel region,..,..,..,brampton,on
3604,Northwood Park,playground,peel region,..,..,..,brampton,on
3605,Norton Place Park,playground,peel region,..,..,..,brampton,on
3612,Notre Dame Park,playground,peel region,..,richvale,..,brampton,on
3660,Old Fairgrounds Park,playground,peel region,61,elliott,..,brampton,on
3678,Omega Parkette,playground,peel region,..,omega,..,brampton,on
3708,Our Lady Of Fatima,playground,peel region,39,sunset,L6X 1X1,brampton,on
4486,Patrick O'Leary Park,playground,peel region,..,don minaker,..,brampton,on
4496,Peddle Woodlot,playground,peel region,..,berries,..,brampton,on
4498,Peel Village Park,playground,peel region,..,..,..,brampton,on
4499,Peel Village Park,splash pad,peel region,..,..,..,brampton,on
4526,Piane Park,playground,peel region,..,lockwood,..,brampton,on
4527,Picasso Park,playground,peel region,..,..,..,brampton,on
4528,Pickard Park,playground,peel region,..,..,..,brampton,on
4793,Powerade Centre Ice Skating Centre,rink,peel region,7575,kennedy,L6W 4T2,brampton,on
4826,Professor's Lake Park,playground,peel region,..,park,..,brampton,on
4828,Professor's Lake Park,beach,peel region,..,park,..,brampton,on
4829,Professor's Lake Recreation Centre,community centre,peel region,1660,park,L6S 4B4,brampton,on
5022,Purple Lilac Park,playground,peel region,..,..,..,brampton,on
5046,R.C. Charlton Park,playground,peel region,..,..,..,brampton,on
5053,R.M. Wells Park,playground,peel region,..,..,..,brampton,on
5073,Ravenscliffe Parkette,playground,peel region,..,castlehill,..,brampton,on
5091,Red Willow Park,playground,peel region,..,..,..,brampton,on
5095,Reed Parkette,playground,peel region,..,..,..,brampton,on
5131,Richvale Park,playground,peel region,..,..,..,brampton,on
5139,Ridgehill Park,playground,peel region,..,..,..,brampton,on
5159,River Heights Park,playground,peel region,..,skyvalley,..,brampton,on
5178,Riversedge Park,playground,peel region,..,..,..,brampton,on
5192,Robert Post Park,playground,peel region,295,veterans,..,brampton,on
5211,Roehampton Park,playground,peel region,..,keystone,..,brampton,on
5212,Rollingwood Park,playground,peel region,..,..,..,brampton,on
5225,Rosepac Park,playground,peel region,..,rosepac,..,brampton,on
5257,Royal Salisbury Parkette,playground,peel region,..,..,..,brampton,on
5274,Rushmore Parkette,playground,peel region,..,berkshire,..,brampton,on
5278,Russell D. Barber,playground,peel region,255,park,L6S 6A5,brampton,on
5302,Sainte Jeanne D'Arc,playground,peel region,25,laurelcrest,L6S 4C4,brampton,on
5305,Salisbury Circle Parkette,playground,peel region,..,salisbury,..,brampton,on
5353,Scottsdale Parkette South,playground,peel region,..,..,..,brampton,on
5355,Seaborn Park,playground,peel region,..,herkley,..,brampton,on
5407,Sheridan Parkette,playground,peel region,..,church,..,brampton,on
5410,Sheridan Woodlands,playground,peel region,..,duggan,..,brampton,on
5426,Sid Manser Park,playground,peel region,..,nova,..,brampton,on
