Index,Facility_Name,ODRSF_facility_type,Provider,Street_No,Street_Name,Postal_Code,City,Prov_Terr
36,Adam Wallace Memorial Park,playground,peel region,128,cedargrove,..,caledon,on
37,Adam Wallace Memorial Park,pool,peel region,128,cedargrove,..,caledon,on
60,Albion Bolton Community Centre,community centre,peel region(caledon),150,queen,L7E 1000,caledon,on
63,Albion Hills Conservation Area,playground,peel region,16500,50,..,caledon,on
64,Albion Hills Conservation Area,splash pad,peel region,16500,50,..,caledon,on
96,Alloa,playground,peel region,1248,mayfield,L7C 0Y7,brampton,on
104,Alton Library & Community Room,community centre,peel region,35,station,L7K 0,caledon,on
221,Atchison Drive,playground,peel region,..,..,..,caledon,on
329,Belfountain,playground,peel region,17247,shaws creek,L7K 0,caledon,on
330,Belfountain Community Centre,community centre,peel region(caledon),17204,old main,L0N 1B0,caledon,on
401,Bill Whitbread Park,playground,peel region,139,victoria,..,caledon,on
463,Bonnie Glen Park,playground,peel region,45,twistleton,..,caledon,on
615,Caledon Central Pool,pool,peel region,18355,kennedy,L7K 1V7,caledon,on
616,Caledon Centre For Recreation And Wellness,pool,peel region,14111,50,L7E 2V2,caledon,on
617,Caledon Centre For Recreation And Wellness,community centre,peel region,14111,50,L7E 2V2,caledon,on
618,Caledon Community Complex,community centre,peel region(caledon),6215,old church,L0N 1,caledon,on
619,Caledon Community Complex Arena,arena,peel region(caledon),6215,old church,L7C 1J7,caledon,on
620,Caledon East,playground,peel region,15738,airport,L7C 2W8,caledon,on
621,Caledon East Park,playground,peel region,6097,old church,L7C 1J6,caledon,on
622,Caledon Village Place,community centre,peel region(caledon),18313,hurontario,L0N 1C0,caledon,on
1008,Charles Haines Park,playground,peel region,14190,creditview,L7C 1Y4,caledon,on
1232,Credit View,playground,peel region,13990,mississauga,L0P 1C0,caledon,on
1323,Dell'Unto Parkette,playground,peel region,1,carriage house,..,caledon,on
1378,Don Sheardown Arena (Albion Bolton Community Centre),arena,brampton,150,queen,L7E 1000,caledon,on
1544,Elizabeth Tarbox Park,playground,peel region,37,borland,L7C 3M4,caledon,on
1550,Ellwood Memorial,playground,peel region,35,ellwood,L7E 2A7,caledon,on
1567,Emeline Parkette,playground,peel region,30,emeline,..,caledon,on
1732,Foresters Park,playground,peel region,555,river,..,caledon,on
1746,Foundry Park,playground,peel region,230,foundry,..,caledon,on
1747,Fountainbridge Park,playground,peel region,66,fountainbridge,..,caledon,on
1931,Goodfellow Parkette,playground,peel region,17,goodfellow,..,caledon,on
2091,Hawthorn Park,playground,peel region,20,maple grove,..,caledon,on
2126,Herb Campbell,playground,peel region,3749,king,L0N 1K0,caledon,on
2129,Heritage Hills Parkette,playground,peel region,..,rolling,..,caledon,on
2212,Holy Family,playground,peel region,61,allan,L7E 1P7,caledon,on
2246,Humber Corless Park,playground,peel region,30,hubert,..,caledon,on
2248,Humber Grove Terrace,playground,peel region,21,shangrila,..,caledon,on
2351,Inglewood Community Centre,community centre,peel region(caledon),15825,mclaughlin,L7C 1H4,caledon,on
2352,Inglewood Community Centre,playground,peel region,15825,mclaughlin,L7C 1H4,caledon,on
2354,Inglewood Park,playground,peel region,15551,mclaughlin,L7C 1J5,caledon,on
2407,James Bolton,playground,peel region,225,kingsview,L7E 3X8,caledon,on
2453,John Alexander Park,playground,peel region,16,giles,..,caledon,on
2474,John W. Nichols Park,playground,peel region,10,simcoe,..,caledon,on
2507,Jullie's Park,playground,peel region,66,hanton,..,caledon,on
2529,Keith Mccreary Park,playground,peel region,59,silvervalley,..,caledon,on
2780,Lina Marino Park,playground,peel region,105,valleywood,L7C 1B5,caledon,on
2801,Lions Park,playground,peel region,..,simcoe,..,caledon,on
2829,Lloyd Wilson Centennial Arena,arena,peel region,15549,mclaughlin,L7C 1J5,caledon,on
2979,Macville,playground,peel region,7280,king,L7C 0S3,caledon,on
