Index,Facility_Name,ODRSF_facility_type,Provider,Street_No,Street_Name,Postal_Code,City,Prov_Terr
4708,Play Site Rathwood District Park,playground,mississauga,1095,rathburn,..,mississauga,on
4709,Play Site Rayfield Park,playground,mississauga,530,rathburn,..,mississauga,on
4710,Play Site Red Brush Park,playground,mississauga,5139,red brush,..,mississauga,on
4711,Play Site Richard F.C. Mortensen Park,playground,mississauga,1665,burnhamthorpe,..,mississauga,on
4712,Play Site Richard's Memorial Park,playground,mississauga,804,lakeshore,..,mississauga,on
4713,Play Site Rockwood Glen,playground,mississauga,4247,hartfield,..,mississauga,on
4714,Play Site Rosebush Common,playground,mississauga,4890,creditview,..,mississauga,on
4715,Play Site Samuel Common,playground,mississauga,6893,golden,..,mississauga,on
4716,Play Site Sandalwood Park,playground,mississauga,205,nahani,..,mississauga,on
4717,Play Site Sandford Farm,playground,mississauga,845,white clover,..,mississauga,on
4718,Play Site Sawgrass Park,playground,mississauga,1075,rathburn,..,mississauga,on
4719,Play Site Scott's Brae,playground,mississauga,855,brass winds,..,mississauga,on
4720,Play Site Serson Park,playground,mississauga,1100,pelham,..,mississauga,on
4721,Play Site Settler's Green,playground,mississauga,6440,glen,..,mississauga,on
4722,Play Site Sgt. David Yakichuk Park,playground,mississauga,3100,confederation,..,mississauga,on
4723,Play Site Shawnmarr Park,playground,mississauga,770,queen,..,mississauga,on
4724,Play Site Sheridan Park,playground,mississauga,2200,sheridan park,..,mississauga,on
4725,Play Site Sherwood Green,playground,mississauga,1864,deers wold,..,mississauga,on
4726,Play Site Sonoma Park,playground,mississauga,5565,terry fox,..,mississauga,on
4727,Play Site South Common,playground,mississauga,3555,glen,..,mississauga,on
4728,Play Site South Millway Green,playground,mississauga,3465,millway,..,mississauga,on
4729,Play Site Springfield Park,playground,mississauga,3325,the credit woodlands,..,mississauga,on
4730,Play Site Spruce Park,playground,mississauga,280,angelene,..,mississauga,on
4731,Play Site St. Lawrence Park,playground,mississauga,75,st lawrence,..,mississauga,on
4732,Play Site Staghorn Woods,playground,mississauga,855,ceremonial,..,mississauga,on
4733,Play Site Streetsville Memorial Park,playground,mississauga,335,church,..,mississauga,on
4734,Play Site Streetsville Rotary Park,playground,mississauga,108,queen,..,mississauga,on
4735,Play Site Swinbourne Meadows,playground,mississauga,1129,swinbourne,..,mississauga,on
4736,Play Site Syed Jallaluddin Park,playground,mississauga,490,mississauga valley,..,mississauga,on
4737,Play Site The Village Green,playground,mississauga,780,village,..,mississauga,on
4738,Play Site Thorncrest Park,playground,mississauga,3295,thorncrest,..,mississauga,on
4739,Play Site Thornlodge Park,playground,mississauga,2405,homelands,..,mississauga,on
4740,Play Site Tillsdown Park,playground,mississauga,1620,sir montys,..,mississauga,on
4741,Play Site Tobias Mason Park,playground,mississauga,3274,cactus,..,mississauga,on
4742,Play Site Trapper's Green,playground,mississauga,2390,folkway,..,mississauga,on
4743,Play Site Trelawny Woods,playground,mississauga,3500,trelawny,..,mississauga,on
4744,Play Site Trooper Marc Diab Memorial Park,playground,mississauga,5514,whitehorn,..,mississauga,on
4745,Play Site Twin Oaks Park,playground,mississauga,1265,twin oaks dell,..,mississauga,on
4746,Play Site Union Park,playground,mississauga,6627,tenth,..,mississauga,on
4747,Play Site Vanessa Park,playground,mississauga,1365,wateska,..,mississauga,on
4748,Play Site Wakefield Common,playground,mississauga,795,rathburn,..,mississauga,on
4749,Play Site White Willow Common,playground,mississauga,6425,spinnaker,..,mississauga,on
4750,Play Site Willowcreek Park,playground,mississauga,3115,sunnyhill,..,mississauga,on
4751,Play Site Windrush Woods,playground,mississauga,2780,gulfstream,..,mississauga,on
4752,Play Site Windwood Park,playground,mississauga,2795,windwood,..,mississauga,on
4753,Play Site Woodhurst Heights,playground,mississauga,3475,ash row,..,mississauga,on
4754,Play Site Woodland Chase,playground,mississauga,2042,kempton park,..,mississauga,on
4762,Pool Man Mississauga,pool,mississauga,3150,ridgeway,L5L 5R5,mississauga,on
4771,Port Credit Arena,arena,peel region,40,stavebank,L5G 2T8,mississauga,on
