Index,Facility_Name,ODRSF_facility_type,Provider,Street_No,Street_Name,Postal_Code,City,Prov_Terr
9106,Bocce Court Unlit - North Heritage Hills Park,sports field,mississauga,315,huntington,..,mississauga,on
9107,Bocce Court Unlit - South Heritage Hills Park,sports field,mississauga,315,huntington,..,mississauga,on
9108,Bocce Court Unlit Streetsville Memorial Park,sports field,mississauga,335,church,..,mississauga,on
9145,Braeben Golf Course,sports field,peel region,5700,terry fox,L6T 4B9,mississauga,on
9146,Braeben Golf Course,sports field,mississauga,5700,terry fox,L5V 2W2,..,on
9147,Braeben Golf Course,sports field,mississauga,5750,terry fox,L5V 2N7,..,on
9148,Braeben Golf Course,sports field,york region,5700,terry fox,L5M 2G6,mississauga,on
9149,Braeben Golf Course - Clubhouse,sports field,peel region,5700,terry fox,L6T 4B9,mississauga,on
9150,Braeben Golf Course - The Academy,sports field,mississauga,5625,terry fox,L5V 30000,..,on
9185,Brandon Gate,sports field,peel region,3800,brandon gate,L4T 3V9,mississauga,on
9218,Brian W. Fleming,sports field,peel region,3255,havenwood,L4X 2M2,mississauga,on
9219,Brian W. Fleming,sports field,peel region,3255,havenwood,L4X 2M2,mississauga,on
9226,Briarwood,sports field,peel region,1065,mississauga valley,L5A 2A1,mississauga,on
9227,Briarwood,sports field,peel region,1065,mississauga valley,L5A 2A1,mississauga,on
9228,Briarwood,sports field,peel region,1065,mississauga valley,L5A 2A1,mississauga,on
9235,Brickyard Park,sports field,peel region,3061,clayhill,..,mississauga,on
9236,Brickyard Park,sports field,peel region,3061,clayhill,..,mississauga,on
9237,Brickyard Park,sports field,peel region,3061,clayhill,..,mississauga,on
9265,Bristol Road Middle,sports field,peel region,210,bristol,L4Z 3V5,mississauga,on
9266,Britannia,sports field,peel region,1145,swinbourne,L5V 1C2,mississauga,on
9303,Brookmede,sports field,peel region,2250,council ring,L5L 1B7,mississauga,on
9304,Brookmede,sports field,peel region,2250,council ring,L5L 1B7,mississauga,on
9305,Brookmede Park,sports field,peel region,2254,council ring,L5L 1B7,mississauga,on
9312,Brown's Heights,sports field,peel region,1600,bristol,..,mississauga,on
9314,Bruce Reynolds Park,sports field,peel region,2173,springbank,L5H 3N5,mississauga,on
9315,Bruce Reynolds Park,sports field,peel region,2173,springbank,L5H 3N5,mississauga,on
9339,Burnhamdale Park,sports field,peel region,3316,cardross,L4X 2N2,mississauga,on
9340,Burnhamdale Park,sports field,peel region,3316,cardross,L4X 2N2,mississauga,on
9341,Burnhamdale Park,sports field,peel region,3316,cardross,L4X 2N2,mississauga,on
9342,Burnhamthorpe,sports field,peel region,3465,golden orchard,L4Y 3H7,mississauga,on
9409,Camden Park,sports field,peel region,495,camden,..,mississauga,on
9411,Camilla Park,sports field,peel region,2180,camilla,L5A 2J6,mississauga,on
9412,Camilla Road Sr.,sports field,peel region,201,cherry post,L5A 1J1,mississauga,on
9413,Camilla Road Sr.,sports field,peel region,201,cherry post,L5A 1J1,mississauga,on
9414,Camilla Road Sr.,sports field,peel region,201,cherry post,L5A 1J1,mississauga,on
9415,Camilla Road Sr.,sports field,peel region,201,cherry post,L5A 1J1,mississauga,on
9425,Canadian Elite Table Tennis Training Centre,sports field,mississauga,130,mathesone,L4Z 1Y6,..,on
9426,Canadian Martyrs,sports field,peel region,1185,mississauga valley,L5A 3R7,mississauga,on
9428,Canadian Soccer League,sports field,mississauga,3150,ridgeway,L5L 5R5,..,on
9533,Cashmere Avenue,sports field,peel region,2455,cashmere,L5B 2M7,mississauga,on
9534,Cashmere Avenue,sports field,peel region,2455,cashmere,L5B 2M7,mississauga,on
9541,Castlebridge,sports field,peel region,2801,castlebridge,L5M 5J9,mississauga,on
9542,Castlebridge Common,sports field,peel region,2636,castlebridge,..,mississauga,on
9543,Castlebridge Common,sports field,peel region,2636,castlebridge,..,mississauga,on
9557,Castlegreen Meadows,sports field,peel region,2829,castlebridge,..,mississauga,on
9558,Castlegreen Meadows,sports field,peel region,2829,castlebridge,..,mississauga,on
9559,Castlegreen Meadows,sports field,peel region,2829,castlebridge,..,mississauga,on
9560,Castlegreen Meadows,sports field,peel region,2829,castlebridge,..,mississauga,on
9561,Castlegreen Meadows,sports field,peel region,2829,castlebridge,..,mississauga,on
