Index,Facility_Name,ODRSF_facility_type,Provider,Street_No,Street_Name,Postal_Code,City,Prov_Terr
5972,Stonebrook Park,playground,peel region,305,mississauga valley,L5A 1Y6,mississauga,on
5974,Stonewood Park,playground,peel region,7348,sandhurst,L5N 7G7,mississauga,on
5988,Streetsville Arena,arena,brampton,335,church,L5M 1N1,mississauga,on
5989,Streetsville Pool,pool,peel region,335,church,L5M 2C2,mississauga,on
6050,Tecumseh,playground,peel region,1480,chriseden,L5H 1V4,mississauga,on
6064,Terry Fox Pool,pool,mississauga,1275,mississauga valley,..,mississauga,on
6076,The Mollie Searle Playground Ron Searle Park,playground,mississauga,1494,parkridge,..,mississauga,on
6090,Thorn Lodge,playground,peel region,2730,thorn lodge,L5K 1L2,mississauga,on
6103,Tillsdown Park,playground,peel region,1620,sir monty's,..,mississauga,on
6115,Tom Chater Memorial Park,playground,peel region,3195,the-collegeway,L5L 4Z6,mississauga,on
6118,Tomken Twin Arena,arena,brampton,4495,tomken,L4W 1J9,mississauga,on
6119,Tomken Twin Rinks,rink,peel region,4495,tomken,L4W 1J9,mississauga,on
6137,Trafalgar Common,playground,peel region,3110,mcdowell,L5M 6J4,mississauga,on
6180,Twin Oaks Park,playground,peel region,1265,twin,..,mississauga,on
6189,Union Park,playground,peel region,6627,tenth,L5N 5L5,mississauga,on
6281,Victory Park,playground,peel region,3055,victory,L4T 1L5,mississauga,on
6299,Vista Heights,playground,peel region,5779,turney,L5M 2P7,mississauga,on
6396,Warren Marshall Arena & Ron Searle Arena,arena,brampton,1399,cawthra,L5G 4L1,mississauga,on
6472,Westacres Park,playground,peel region,2166,westfield,L4Y 1P7,mississauga,on
6523,Westwood Park,playground,peel region,6941,darcel,L4T 2W7,mississauga,on
6525,Westwood Pool,pool,mississauga,3545,morning star,L4T 1Y3,mississauga,on
6540,Whiteoaks,playground,peel region,1690,mazo,L5J 1Y8,mississauga,on
6552,Wildwood Park,playground,peel region,3430,derry,L4T 1A9,mississauga,on
6571,Willow Glen,playground,peel region,1301,epton,L5J 1R9,mississauga,on
6577,Willowvale Fields,playground,peel region,1340,willowvale,L5V 1V1,mississauga,on
6627,Woodeden Park,playground,peel region,1538,woodeden,L5H 2V3,mississauga,on
6629,Woodgreen,playground,peel region,3325,twilight,L4T 1Z8,mississauga,on
6633,Woodhurst Heights,playground,peel region,3475,ash row,L5L 1K3,mississauga,on
6634,Woodhurst Heights Park Outdoor Skating Rink,rink,peel region,3499,ash row,L5L 1K3,mississauga,on
6635,Woodington Green,playground,peel region,4175,woodington,L4Z 1K2,mississauga,on
6636,Woodland Chase,playground,peel region,2042,kempton park,L5M 2Z4,mississauga,on
6637,Woodland Park,playground,peel region,3500,ellengale,L5C 1Z7,mississauga,on
6689,Zonta Meadows,playground,peel region,410,rathburn,..,mississauga,on
6817,11V11 - Field 1 - West Churchill Meadows Community Common,sports field,mississauga,3370,mcdowell,..,mississauga,on
6818,11V11 - Field 2 - West Central Churchill Meadows Community Common,sports field,mississauga,3370,mcdowell,..,mississauga,on
6819,11V11 - Field 3 - East Churchill Meadows Community Common,sports field,mississauga,3370,mcdowell,..,mississauga,on
6820,11V11 - Field 4 - South Churchill Meadows Community Common,sports field,mississauga,3370,mcdowell,..,mississauga,on
6821,11V11 - South East Aquinas Park,sports field,mississauga,3400,aquinas,..,mississauga,on
6822,11V11 - South West Aquinas Park,sports field,mississauga,3400,aquinas,..,mississauga,on
6823,11V11 2 E Erin Mills Athletic Fields,sports field,mississauga,4419,haydock park,..,mississauga,on
6824,11V11 Allison's Park,sports field,mississauga,575,willowbank,..,mississauga,on
6825,11V11 Anaka Park,sports field,mississauga,7666,anaka,..,mississauga,on
6826,11V11 Bell Harbour Park,sports field,mississauga,5820,bell harbour,..,mississauga,on
6827,11V11 Burnhamdale Park,sports field,mississauga,3316,cardross,..,mississauga,on
6828,11V11 Cawthra Park,sports field,mississauga,1399,cawthra,..,mississauga,on
6829,11V11 Clover Meadows,sports field,mississauga,1090,white clover,..,mississauga,on
6830,11V11 E Sandford Farm,sports field,mississauga,845,white clover,..,mississauga,on
6831,11V11 Eden Woods,sports field,mississauga,6647,tenth line,..,mississauga,on
6832,11V11 Fallingbrook Community Park,sports field,mississauga,5135,fallingbrook,..,mississauga,on
