Index,Facility_Name,ODRSF_facility_type,Provider,Street_No,Street_Name,Postal_Code,City,Prov_Terr
172321,Not To Be Named (P-234) * (Between Knareswood Dr And Pine Tree Cres),park,mississauga,1527,knareswood,..,mississauga,on
172322,Not To Be Named (P-235) *(Ne Of Dundas And Winston Churchill),park,mississauga,3060,woodchester,..,mississauga,on
172323,"Not To Be Named (P-237) *(Se Of Elaine Tr, Nw Of Claredale Rd)",park,mississauga,360,orano,..,mississauga,on
172324,Not To Be Named (P-240) *(North Of Autumn Breeze Dr N),park,mississauga,2159,autumn breeze,..,mississauga,on
172325,Not To Be Named (P-241) *(Ne Of Shawanaga Tr),park,mississauga,2199,shawanaga,..,mississauga,on
172326,Not To Be Named (P-243) *(East Of Antigua Rd),park,mississauga,170,paisley,..,mississauga,on
172327,Not To Be Named (P-246) *(East Of Tomken Rd Between Ambler Dr And Eastgate Pkwy),park,mississauga,1115,brevik,..,mississauga,on
172328,Not To Be Named (P-249) *(Between 410 And Dixie North Of Ordan Rd),park,mississauga,6616,dixie,..,mississauga,on
172329,"Not To Be Named (P-252) *(Sw Of Ontario Crt, 2 Seperate Parcels)",park,mississauga,44,ontario,..,mississauga,on
172330,"Not To Be Named (P-253) *(East Of Parkerhill Rd, Between Dundas And Hillcrest)",park,mississauga,2615,mason,..,mississauga,on
172331,Not To Be Named (P-255) *(Between Albertson Cres And Verou Crt),park,mississauga,970,albertson,..,mississauga,on
172332,"Not To Be Named (P-258) *(Se Of Derry And 410, Along Tomken)",park,mississauga,6870,tomken,..,mississauga,on
172333,Not To Be Named (P-259) *(Ne Of Tomken And Eglington),park,mississauga,1083,matheson,..,mississauga,on
172334,Not To Be Named (P-260) *(Sw Of Derry Rd W And Arentia),park,mississauga,2413,derry,..,mississauga,on
172335,Not To Be Named (P-262) *(East Of Britannia Rd E And Tomken),park,mississauga,1070,britannia,..,mississauga,on
172336,"Not To Be Named (P-271) *(N,S, And East Of Oneida Crt)",park,mississauga,2230,oneida,..,mississauga,on
172337,"Not To Be Named (P-274) *(Between Huron Heights And Central Pkwy E, South Of Eglington)",park,mississauga,333,bud gregory,..,mississauga,on
172338,Not To Be Named (P-275) *(Between Dundas And Hammond),park,mississauga,2637,hammond,..,mississauga,on
172339,Not To Be Named (P-289) *(Ne Of Qew And Winston Churchill),park,mississauga,2700,credit,..,mississauga,on
172340,Not To Be Named (P-303) *(Sw Of Poets Walk And Durie Rd),park,mississauga,5444,durie,..,mississauga,on
172341,"Not To Be Named (P-306) *(Between Barbertown And Eglington, East Of Royal Mills Ct)",park,mississauga,1750,barbertown,..,mississauga,on
172342,Not To Be Named (P-343) *(South Of And Adjacent To Glen Rd),park,mississauga,1180,glen,..,mississauga,on
172343,"Not To Be Named (P-349) *(Between Loyalist Dr And Winston Churchill, South Of The Collegeway)",park,mississauga,3445,loyalist,..,mississauga,on
172344,Not To Be Named (P-354) *(South Of Drenkelly Crt And West Of Durie Rd),park,mississauga,5286,drenkelly,..,mississauga,on
172345,Not To Be Named (P-363) *(Between Speakman Dr And North Sheridan Way),park,mississauga,2610,speakman,..,mississauga,on
172346,"Not To Be Named (P-425) *(Between Erin Mills Pkwy And Fifth Line W, North Of Sheridan Park Dr)",park,mississauga,2400,erin,..,mississauga,on
172347,Not To Be Named (P-482)* (East Of Artesian And Colombo Cres),park,mississauga,3080,artesian,..,mississauga,on
172348,Not To Be Named (P-491)* (Ne Of Dundas St E And Southcreek Rd),park,mississauga,2275,dundas,..,mississauga,on
172349,Not To Be Named (P-511)*,park,mississauga,0,lorne park,..,mississauga,on
172350,Not To Be Named (P-515)*,park,mississauga,1677,sunningdale,..,mississauga,on
172351,Not Yet Named (P-236) *(East Of Creebank Rd Between Eglington And 401),park,mississauga,1920,sismet,..,mississauga,on
172352,Not Yet Named (P-314) *(Sw Of Stavebank And Qew),park,mississauga,2140,stavebank,..,mississauga,on
172353,Not Yet Named (P-353) *(Se Of Eglington And 403),park,mississauga,4555,cawthra,..,mississauga,on
172354,Not Yet Named (P-358) *(South Of Lakeshore Rd E And Dixie Rd),park,mississauga,1440,lakeshore,..,mississauga,on
172355,Not Yet Named (P-361) *(Between Queensway West And Mississauga Heights),park,mississauga,970,queensway,..,mississauga,on
172356,Not Yet Named (P-388) *(Se Of Blackheath Ridge),park,mississauga,6688,second line,..,mississauga,on
172357,"Not Yet Named (P-403) *(Between Tenth Line And Oscar Peterson Blvd, South Of Thomas)",park,mississauga,5515,line,..,mississauga,on
172358,"Not Yet Named (P-434) *(Between Derry Rd W And Old Derry, South Of Gazette Gate)",park,mississauga,1455,old derry,..,mississauga,on
172359,"Not Yet Named (P-436) *(Between St Lawrence Dr And Elmwood Ave South, Sw Of Lakeshore Rd E)",park,mississauga,165,lawrence,..,mississauga,on
172360,"Not Yet Named (P-438) *(East Of Clarkson Rd N, Se Of The Pines)",park,mississauga,1233,clarkson,..,mississauga,on
172361,Not Yet Named (P-448) *(Se Of Loreland Dr),park,mississauga,2385,loreland,..,mississauga,on
172362,Not Yet Named (P-452) *(Bussel House),park,mississauga,7430,ninth line,..,mississauga,on
172363,"Not Yet Named (P-453) *(Between Ninth Line And 407, North Of Derry Rd)",park,mississauga,7238,ninth line,..,mississauga,on
172364,Not Yet Named (P-454) *(South Of Derry Rd W And Ninth Line),park,mississauga,6980,ninth line,..,mississauga,on
172365,Not Yet Named (P-455) *(West Of Doug Leavens Blvd And Ninth Line),park,mississauga,6500,ninth line,..,mississauga,on
172366,Not Yet Named (P-456) *(South Of Doug Leavens Blvd And Ninth Line),park,mississauga,6400,ninth line,..,mississauga,on
172367,Not Yet Named (P-457) *(West Of Saratoga Way On Ninth Line),park,mississauga,6376,ninth line,..,mississauga,on
172368,Not Yet Named (P-458) *(West Of Osprey Blvd On Ninth Line),park,mississauga,6168,ninth line,..,mississauga,on
172369,Not Yet Named (P-459) *(Churchill Meadows Community Park),park,mississauga,5320,ninth line,..,mississauga,on
