Index,Facility_Name,ODRSF_facility_type,Provider,Street_No,Street_Name,Postal_Code,City,Prov_Terr
170549,Lorenzo Park,park,brampton,..,..,..,..,on
170573,Lougheed Park,park,brampton,..,..,..,..,on
170616,Lower Thames Park,park,brampton,..,..,..,..,on
170617,Lowes Avenue Parkette North,park,brampton,..,..,..,..,on
170618,Lowes Avenue Parkette South,park,brampton,..,..,..,..,on
170631,Lucas Holtom Childrens Park,park,brampton,..,..,..,..,on
170654,Lundy Parkette,park,brampton,..,..,..,..,on
170655,Luongo Park,park,brampton,..,..,..,..,on
170664,Lynch-Petroni Parkette,park,brampton,..,..,..,..,on
170758,Madoc Park,park,brampton,..,..,..,..,on
170773,Mahaffy Park,park,brampton,..,..,..,..,on
170798,Major Oaks Park,park,brampton,..,..,..,..,on
170802,Major William Sharpe Park,park,brampton,..,..,..,..,on
170824,Malta Parkette,park,brampton,..,..,..,..,on
170849,Manorcrest Park,park,brampton,..,..,..,..,on
170907,Maplehurst Parkette,park,brampton,..,..,..,..,on
170923,Maraboo Parkette,park,brampton,..,..,..,..,on
171056,Martindale Parkette,park,brampton,..,..,..,..,on
171061,Martins Green Parkette,park,brampton,..,..,..,..,on
171071,Mary Goodwillie Young Park,park,brampton,..,..,..,..,on
171120,Matthew Cation Park,park,brampton,..,..,..,..,on
171143,Maxwell And Lois Rice Park,park,brampton,..,..,..,..,on
171151,Maybeck Parkette,park,brampton,..,..,..,..,on
171287,Mckinney Parkette,park,brampton,..,..,..,..,on
171308,Mcloughlin Parkette,park,brampton,..,..,..,..,on
171315,Mcmicking Park,park,brampton,..,..,..,..,on
171362,Meadowlark Parkette,park,brampton,..,..,..,..,on
171440,Merganser Parkette,park,brampton,..,..,..,..,on
171475,Michael Murphy Park,park,brampton,..,..,..,..,on
171502,Midsummer Park,park,brampton,..,..,..,..,on
171598,Millstone Parkette,park,brampton,..,..,..,..,on
171795,Moody Family Park,park,brampton,..,..,..,..,on
171803,Moorehead Park,park,brampton,..,..,..,..,on
171852,Morrow Park,park,brampton,..,..,..,..,on
171868,Mosswood Park,park,brampton,..,..,..,..,on
171906,Mount Pleasant Square,park,brampton,..,..,..,..,on
171925,Mountainash Park E,park,brampton,..,..,..,..,on
171926,Mountainash Park West,park,brampton,..,..,..,..,on
172001,Murray Street Park,park,brampton,..,..,..,..,on
172024,Nancy Mccredie Park,park,brampton,..,..,..,..,on
172044,Nasmith Park,park,brampton,..,..,..,..,on
172052,Native Landing Parkette,park,brampton,..,..,..,..,on
172102,Neville-Lake Park,park,brampton,..,..,..,..,on
172124,Newton Park,park,brampton,..,..,..,..,on
172215,North Mill Parkette,park,brampton,..,..,..,..,on
172243,Northampton Park,park,brampton,..,..,..,..,on
172303,Northwood Park,park,brampton,..,..,..,..,on
172400,Notre Dame Park,park,brampton,..,..,..,..,on
172563,Omega Parkette,park,brampton,..,..,..,..,on
