Index,Facility_Name,ODRSF_facility_type,Provider,Street_No,Street_Name,Postal_Code,City,Prov_Terr
3242,Mayfield Recreation Complex,pool,peel region,12087,bramalea,L7C 2P9,caledon,on
3243,Mayfield Recreation Complex,community centre,peel region,12087,bramalea,L7C 2P9,caledon,on
3244,Mayfield Recreation Complex Arena,arena,peel region,12087,bramalea,L7C 2P9,caledon,on
3383,Mistywood,playground,peel region,11,hayleyvale,..,caledon,on
3410,Montrose Farm Park,playground,peel region,1,castelli,..,caledon,on
3481,Munro Street Parkette,playground,peel region,42,munro,..,caledon,on
3529,Newhouse Park,playground,peel region,16,cliffview,..,caledon,on
3567,North Hill Park,playground,peel region,14051,50,L7E 2V2,caledon,on
3997,Palgrave,playground,peel region,8962,patterson,L0N 1P0,caledon,on
3998,Palgrave Park,playground,peel region,17261,mount hope,L7E 3L9,caledon,on
4515,Peter Eben Memorial Park,playground,peel region,12,prescott,..,caledon,on
5051,R.J.A. Potts Memorial Park,playground,peel region,125,pembrook,..,caledon,on
5052,R.J.A. Potts Memorial Park,splash pad,peel region,125,pembrook,..,caledon,on
5064,Ralph's Rink & John's Rink,rink,brampton,14111,50,L7E 2V2,caledon,on
5276,Russel & Joan Robertson Park,playground,peel region,15,sunkist valley,..,caledon,on
5328,Sant Farm Parkette,playground,peel region,33,sant farm,..,caledon,on
5630,Snell Park,playground,peel region,4,enoch,..,caledon,on
5669,Southfields Village Community Park,playground,peel region,70,learmont,L7C 3N5,caledon,on
5670,Southfields Village Community Park,splash pad,peel region,70,learmont,L7C 3N5,caledon,on
5899,St. Cornelius,playground,peel region,16066,innis lake,L7C 2Z2,caledon,on
5959,Stephen Drive Parkette,playground,peel region,150,stephen,..,caledon,on
6056,Teen Ranch Canada,arena,peel region,20682,hurontario,L7K 1X1,caledon,on
6126,Topham Park,playground,peel region,40,learmont,..,caledon,on
6130,Tormina Parkette,playground,peel region,35,royalton,..,caledon,on
6273,Victoria Parks Community Centre,community centre,peel region(caledon),35,victoria,L7K 0A1,caledon,on
6295,Vincos Parkette,playground,peel region,81,tarquini,..,caledon,on
6373,Wakely Memorial Parkette,playground,peel region,51,wakely,..,caledon,on
6515,Westview Park,playground,peel region,19,brawton,..,caledon,on
6532,Whitbread Parkette,playground,peel region,27,whitbread,..,caledon,on
7068,Adam Wallace Memorial Park,sports field,peel region,128,cedargrove,..,caledon,on
7121,Albion Hills Conservation Area,sports field,peel region,16500,50,..,caledon,on
7157,Allan Drive Middle,sports field,peel region,254,allan,L7E 1R9,caledon,on
7168,Alloa,sports field,peel region,1248,mayfield,L7C 0Y7,brampton,on
7169,Alloa,sports field,peel region,1248,mayfield,L7C 0Y7,brampton,on
7170,Alloa,sports field,peel region,1248,mayfield,L7C 0Y7,brampton,on
7171,Alloa,sports field,peel region,1248,mayfield,L7C 0Y7,brampton,on
7180,Alton Park,sports field,peel region,31,station,L7K 0,caledon,on
7366,Atchison Drive,sports field,peel region,..,..,..,caledon,on
8291,Banty's Roost Golf And Country Club,sports field,peel region,12600,bramalea,L7C 2P3,caledon,on
8292,Banty's Roost Golf And Country Club,sports field,york region,12600,bramalea,L7C 2P3,caledon east,on
8293,Banty's Roost Golf And Country Club - Clubhouse,sports field,peel region,12600,bramalea,L7C 2P3,caledon,on
8905,Belfountain,sports field,peel region,17247,shaws creek,L7K 0,caledon,on
8906,Belfountain Tennis Courts,sports field,peel region,591,bush,L7K 0,caledon,on
8990,Bill Whitbread Park,sports field,peel region,139,victoria,..,caledon,on
9125,Bonnie Glen Park,sports field,peel region,45,twistleton,..,caledon,on
9126,Bonnie Glen Park,sports field,peel region,45,twistleton,..,caledon,on
9164,Brampton Christian School,sports field,peel region,12480,hurontario,L6V 1A1,brampton,on
9165,Brampton Christian School,sports field,peel region,12480,hurontario,L6V 1A1,brampton,on
9166,Brampton Christian School,sports field,peel region,12480,hurontario,L6V 1A1,caledon,on
