Index,Facility_Name,ODRSF_facility_type,Provider,Street_No,Street_Name,Postal_Code,City,Prov_Terr
1463,Earnscliffe Park,playground,peel region,..,..,..,brampton,on
1464,Earnscliffe Recreation Centre,pool,peel region,44,eastbourne,L6T 3M2,brampton,on
1465,Earnscliffe Recreation Centre,community centre,peel region,44,eastbourne,L6T 3M2,brampton,on
1466,Earnscliffe Recreation Centre Arena,arena,peel region,44,eastbourne,L6T 3M2,brampton,on
1489,Eastbourne Park,playground,peel region,2,basketball,..,brampton,on
1505,Ebenezer Community Centre,community centre,peel region(caledon),4494,the-gore,L6P 0R8,brampton,on
1534,Eldorado Park,playground,peel region,..,creditview,..,brampton,on
1536,Eldorado Park & Outdoor Pool,pool,peel region,8520,creditview,L6V 1A1,brampton,on
1546,Ellen Mitchell Recreation Centre,pool,peel region,922,park,L6S 3Y5,brampton,on
1547,Ellen Mitchell Recreation Centre,community centre,peel region,922,park,L6S 3Y5,brampton,on
1558,Elmcrest Park,playground,peel region,..,emcrest,..,brampton,on
1575,English Street Park,playground,peel region,..,english,..,brampton,on
1588,Ernest And Edith Parr Parkette,playground,peel region,..,summershade,..,brampton,on
1589,Ernest Majury Park,playground,peel region,..,brentwood,..,brampton,on
1601,Evening Stars Park,playground,peel region,..,..,..,brampton,on
1623,Fairhill Parkette,playground,peel region,..,..,..,brampton,on
1624,Fairlawn Park,playground,peel region,..,mistymorning,..,brampton,on
1638,Fallen Oak Park,playground,peel region,..,..,..,brampton,on
1642,Fallingdale,playground,peel region,510,clark,L6T 20000,brampton,on
1643,Fallingdale Park,playground,peel region,..,..,..,brampton,on
1649,Fanshawe Parkette,playground,peel region,..,..,..,brampton,on
1654,Father Eugene O'Reilly Park,playground,peel region,20,leo austin,..,brampton,on
1663,Fern Valley Parkette,playground,peel region,..,fern,..,brampton,on
1664,Fernforest Way West,playground,peel region,..,fernforest,..,brampton,on
1667,Ferri Parkette,playground,peel region,..,..,..,brampton,on
1672,Fiddlers Parkette,playground,peel region,..,..,..,brampton,on
1695,Fletcher's Parkette,playground,peel region,..,springhurst,..,brampton,on
1702,Flower City Seniors Recreation Centre,community centre,brampton,8870,mclaughlin,L6Y 5T1,brampton,on
1703,Folkstone,playground,peel region,104,folkstone,L6T 3M5,brampton,on
1704,Folkstone Park,playground,peel region,..,clark,..,brampton,on
1754,Francis H. Taylor Park,playground,peel region,..,ashby fields,..,brampton,on
1759,Frank Harkema Parkette,playground,peel region,..,beavervalley,..,brampton,on
1780,Fred Kee Park,playground,peel region,..,royal,..,brampton,on
1781,Fred Kline Park,playground,peel region,9445,mclaughlin,..,brampton,on
1796,Gage Park,playground,peel region,..,wellington,..,brampton,on
1797,Gage Park,splash pad,peel region,..,wellington,..,brampton,on
1812,Gatesgill Park,playground,peel region,..,gatesgill,..,brampton,on
1835,George M Lee Park,playground,peel region,..,..,..,brampton,on
1838,George Ransier Park,playground,peel region,..,tournament,..,brampton,on
1842,Georges Vanier,playground,peel region,28,finchgate,L6T 3H9,brampton,on
1850,Giffen Family Park,playground,peel region,..,..,..,brampton,on
1859,Gladys And George Gray Park,playground,peel region,..,..,..,brampton,on
1900,Glenforest Park South,playground,peel region,..,glenforest,..,brampton,on
1905,Glenmanor Park,playground,peel region,..,glenmanor,..,brampton,on
1920,Gold Parkette,playground,peel region,..,..,..,brampton,on
1921,Goldcrest Park,playground,peel region,..,..,..,brampton,on
1941,Gore Meadows Community Park East,community centre,peel region(caledon),10150,the-gore,L6P 0A6,brampton,on
1942,Gore Meadows Community Park East,playground,peel region,10150,the-gore,L6P 0A6,brampton,on
1979,Great Lakes Park,playground,peel region,..,..,..,brampton,on
