Index,Facility_Name,ODRSF_facility_type,Provider,Street_No,Street_Name,Postal_Code,City,Prov_Terr
4774,Port Credit Memorial Park,playground,peel region,32,stavebank,..,mississauga,on
4775,Port Credit Pool,pool,peel region,20,rosewood,L5G 3H9,mississauga,on
4836,Prps Winding Trail Station,trail,brampton,1355,winding,L4Y 2T7,mississauga,on
5042,Quenippenon Meadows,pool,peel region,2625,erin centre,..,mississauga,on
5079,Ray Underhill,playground,peel region,32,suburban,L5N 1G6,mississauga,on
5088,Red Brush Park,playground,peel region,5139,red brush,..,mississauga,on
5089,Red Oaks Park,playground,peel region,260,king,L5A 1S9,mississauga,on
5143,Ridgewood Park,playground,peel region,7239,cambrett,L4T 2R3,mississauga,on
5144,Ridgewood Park,splash pad,peel region,7239,cambrett,L4T 2R3,mississauga,on
5153,River Grove,playground,peel region,5800,river grove,L5M 4R9,mississauga,on
5154,River Grove Community Centre,community centre,peel region(caledon),5800,river grove,L5M 4R8,mississauga,on
5155,River Grove Pool,pool,brampton,5800,river grove,L5M 4R8,mississauga,on
5179,Riverside,playground,peel region,30,john,L5H 200000000,mississauga,on
5213,Ron Searle Park,playground,peel region,1494,parkridge,..,mississauga,on
5316,Samuelson Park,playground,peel region,1815,samuelson,L5N 7Z6,mississauga,on
5319,Sandford Farm,playground,peel region,845,white clover,..,mississauga,on
5320,Sandgate Park,playground,peel region,1650,sandgate,L5J 2000000,mississauga,on
5352,Scott's Brae,playground,peel region,855,brass winds,..,mississauga,on
5376,Serson Park,splash pad,peel region,1100,pelham,..,mississauga,on
5378,Settler's Green,playground,peel region,5800,montevideo,L5N 2S1,mississauga,on
5385,Sgt. David Yakichuk Park,playground,peel region,3111,confederation,..,mississauga,on
5401,Shelby Park,playground,peel region,4220,shelby,L4W 3N5,mississauga,on
5406,Sheridan Park,playground,peel region,2280,perran,L5K 1M1,mississauga,on
5412,Sherwood Green,playground,peel region,1864,deer's,..,mississauga,on
5428,Silver Fox Forest,playground,peel region,1711,danthorpe,L5N 7L2,mississauga,on
5436,Silverthorn,playground,peel region,3535,cedar creek,L4Y 2Y4,mississauga,on
5437,Silverthorn Park,playground,peel region,3377,cawthra,L5A 2X8,mississauga,on
5635,Sonoma Park,playground,peel region,5565,terry fox,..,mississauga,on
5644,South Common,splash pad,peel region,3555,glen erin,..,mississauga,on
5645,South Common Community Centre,community centre,peel region(caledon),2233,millway,L5L 3H7,mississauga,on
5646,South Common Pool,pool,brampton,2233,millway,L5L 3H7,mississauga,on
5852,Spray Pad (Douglas Kennedy Headland) Lakefront Promenade,splash pad,mississauga,800,lakefront,..,mississauga,on
5853,Spray Pad A.E. Crookes Park,splash pad,mississauga,140,lakefront,..,mississauga,on
5854,Spray Pad Elmcreek Park,splash pad,mississauga,7320,darcel,..,mississauga,on
5855,Spray Pad Forest Glen,splash pad,mississauga,3545,fieldgate,..,mississauga,on
5856,Spray Pad Huron Heights,splash pad,mississauga,4500,central,..,mississauga,on
5857,Spray Pad Lake Aquitaine Park,splash pad,mississauga,2750,aquitaine,..,mississauga,on
5858,Spray Pad Lakeside Park,splash pad,mississauga,2266,lakeshore,..,mississauga,on
5859,Spray Pad Lisgar Fields,splash pad,mississauga,3805,doug leavens,..,mississauga,on
5860,Spray Pad Mississauga Celebration Square (North),splash pad,mississauga,300,city centre,..,mississauga,on
5861,Spray Pad Quenippenon Meadows,splash pad,mississauga,2625,erin centre,..,mississauga,on
5862,Spray Pad Tobias Mason Park,splash pad,mississauga,3274,cactus,..,mississauga,on
5872,Springfield,playground,peel region,3251,the-credit,L5C 2J7,mississauga,on
5873,Springfield Park,playground,peel region,3325,the-credit,..,mississauga,on
5900,St. Dominic,playground,peel region,515,hartsdale,L5G 2G7,mississauga,on
5919,St. Lawrence Park,playground,peel region,75,lawrence,..,mississauga,on
5920,St. Louis,playground,peel region,1450,lewisham,L5J 3R3,mississauga,on
5934,St. Sofia,playground,peel region,3540,havenwood,L4X 2M9,mississauga,on
5935,St. Teresa Of Avila,playground,peel region,6675,montevideo,L5N 400000000,mississauga,on
