Index,Facility_Name,ODRSF_facility_type,Provider,Street_No,Street_Name,Postal_Code,City,Prov_Terr
10267,Credit Valley Lawn Tennis Club,sports field,brampton,830,paisley,L5C 3P5,mississauga,on
10286,Creditview Woods,sports field,peel region,899,rathburn,..,mississauga,on
10287,Creditview Woods,sports field,peel region,899,rathburn,..,mississauga,on
10321,Cricket Pitch Aquinas Park,sports field,mississauga,3400,aquinas,..,mississauga,on
10322,Cricket Pitch Huron Heights,sports field,mississauga,4500,central,..,mississauga,on
10323,Cricket Pitch Major Courtneypark Athletic Fields,sports field,mississauga,600,courtneypark,..,mississauga,on
10324,Cricket Pitch Major Not Yet Named (Formerly Hershey Centre Sportzone South),sports field,mississauga,715,matheson,..,mississauga,on
10325,Cricket Pitch Major Paul Coffey Park,sports field,mississauga,3430,derry,..,mississauga,on
10326,Cricket Pitch Sandford Farm,sports field,mississauga,..,..,..,..,on
10327,Cricket Unlit Major/Multi-Purpose Petro Canada Park,sports field,mississauga,670,southdown,..,mississauga,on
10400,Darcel Avenue Sr.,sports field,peel region,7635,darcel,L4T 2Y2,brampton,on
10401,Darcel Avenue Sr.,sports field,peel region,7635,darcel,L4T 2Y2,mississauga,on
10402,Darcel Avenue Sr.,sports field,peel region,7635,darcel,L4T 2Y2,mississauga,on
10411,Dean Henderson Memorial Park,sports field,peel region,2909,hammond,L5K 2M5,mississauga,on
10425,Deer Wood Park,sports field,peel region,1100,rathburn,..,mississauga,on
10426,Deer Wood Park,sports field,peel region,1100,rathburn,..,mississauga,on
10439,Dellwood Park,sports field,peel region,598,arbor,..,mississauga,on
10440,Dellwood Park,sports field,peel region,598,arbor,..,mississauga,on
10452,Derry Side Green,sports field,peel region,7889,tranmere,..,mississauga,on
10453,Derry Side Green,sports field,peel region,7889,tranmere,..,mississauga,on
10454,Derry West Village,sports field,peel region,620,twain,L5W 1M1,mississauga,on
10455,Derrydale Golf Club,sports field,peel region,185,derry,L5M 2B5,mississauga,on
10456,Derrydale Golf Club - Clubhouse,sports field,peel region,185,derry,L5M 2B5,mississauga,on
10457,Derrydale Golf Course,sports field,york region,185,derry,L5W 1G3,mississauga,on
10458,Derrydale Golf Course Ltd.,sports field,mississauga,185,derry,L5W 1G3,..,on
10485,Divine Mercy,sports field,peel region,2840,duncairn,L5M 5C6,mississauga,on
10486,Dixie,sports field,peel region,1120,flagship,L4Y 2K1,mississauga,on
10487,Dixie,sports field,peel region,1120,flagship,L4Y 2K1,mississauga,on
10488,Dixie,sports field,peel region,1120,flagship,L4Y 2K1,mississauga,on
10489,Dixie Athletics Soccer Club,sports field,mississauga,1200,kamato,L4W 1Y1,..,on
10490,Dixie Curling Club Ltd.,rink,mississauga,3071,palstan,L4Y 2Z7,..,on
10513,Dolphin Sr.,sports field,peel region,18,brookside,L5M 1H3,mississauga,on
10551,Douglas Kennedy Park,sports field,peel region,810,lakefront,L5E 3G9,mississauga,on
10584,Dr. Martin L. Dobkin Park,sports field,peel region,395,fairview,..,mississauga,on
10585,Dr. Martin L. Dobkin Park,sports field,peel region,395,fairview,..,mississauga,on
10586,Dr. Martin L. Dobkin Park,sports field,peel region,395,fairview,..,mississauga,on
10587,Dr. Martin L. Dobkin Park,sports field,peel region,395,fairview,..,mississauga,on
10621,Duncairn Downs,sports field,peel region,2860,duncairn,..,mississauga,on
10622,Duncairn Downs,sports field,peel region,2860,duncairn,..,mississauga,on
10648,Dunrankin Drive,sports field,peel region,3700,dunrankin,L4T 1V9,brampton,on
10649,Dunrankin Drive,sports field,peel region,3700,dunrankin,L4T 1V9,mississauga,on
10656,Dunton Athletic Fields,sports field,peel region,6180,kennedy,..,mississauga,on
10657,Dunton Athletic Fields,sports field,peel region,6180,kennedy,..,mississauga,on
10658,Dunton Athletic Fields,sports field,peel region,6180,kennedy,..,mississauga,on
10659,Dunton Athletic Fields,sports field,peel region,6180,kennedy,..,mississauga,on
10712,Eastgate Park,sports field,peel region,320,nahani,L4Z 3B4,mississauga,on
10758,Eden Woods,sports field,peel region,6647,tenth,L5N 5L5,mississauga,on
10759,Eden Woods,sports field,peel region,6647,tenth,L5N 5L5,mississauga,on
10760,Edenrose,sports field,peel region,1342,edenrose,L5V 1K9,mississauga,on
