Index,Facility_Name,ODRSF_facility_type,Provider,Street_No,Street_Name,Postal_Code,City,Prov_Terr
166701,Father Joseph A. Nolan Park,park,mississauga,7385,finery,..,mississauga,on
166873,Fleetwood Park,park,mississauga,2000,burnhamthorpe,..,mississauga,on
166882,Fletcher's Flats,park,mississauga,6798,mavis,..,mississauga,on
166887,Floradale Park,park,mississauga,2424,confederation,..,mississauga,on
166900,Folkway Park,park,mississauga,1902,folkway,..,mississauga,on
166924,Forest Glen,park,mississauga,3545,fieldgate,..,mississauga,on
166935,Forest Hill Park,park,mississauga,4995,hill,..,mississauga,on
166949,Forest Park,park,mississauga,6810,forest park,..,mississauga,on
166960,Forestview Park,park,mississauga,2021,barsuda,..,mississauga,on
167002,Four Winds Hollow,park,mississauga,636,avonwick,..,mississauga,on
167039,Frank Dowling Park,park,mississauga,16,brookside,..,mississauga,on
167045,Frank Mckechnie Park,park,mississauga,2,hull,..,mississauga,on
167080,Fred Halliday Memorial Park,park,mississauga,2187,stir,..,mississauga,on
167112,Fresco Way,park,mississauga,600,canyon,..,mississauga,on
167192,Garcia Park,park,mississauga,5900,whitehorn,..,mississauga,on
167219,Garnetwood Park,park,mississauga,1996,rathburn,..,mississauga,on
167234,Garthwood Park,park,mississauga,3170,garthwood,..,mississauga,on
167255,Gatineau Green,park,mississauga,116,falconer,..,mississauga,on
167453,Glen Eden Park,park,mississauga,7230,copenhagen,..,mississauga,on
167456,Glen Erin Trail,park,mississauga,1640,the collegeway,..,mississauga,on
167457,Glen Erin Woodlands,park,mississauga,925,mcbride,..,mississauga,on
167502,Glendenning Park,park,mississauga,50,falconer,..,mississauga,on
167521,Glenleven Park,park,mississauga,929,silver birch,..,mississauga,on
167551,Godwick Green,park,mississauga,1371,godwick,..,mississauga,on
167600,Golden Orchard Park,park,mississauga,1261,scottsburg,..,mississauga,on
167604,Golder Community Park,park,mississauga,3200,destination,..,mississauga,on
167627,Gooderham Park,park,mississauga,6938,gooderham,..,mississauga,on
167645,Gordon Lummiss Park,park,mississauga,236,paisley,..,mississauga,on
167650,Gordon S. Shipp Memorial Park,park,mississauga,84,robert speck,..,mississauga,on
167717,Grand Park Woods,park,mississauga,3350,grand park,..,mississauga,on
167834,Greenfield Park,park,mississauga,1165,mississauga,..,mississauga,on
167889,Greyshale Park,park,mississauga,5065,heritage hills,..,mississauga,on
167937,Gulleden Park,park,mississauga,1500,gulleden,..,mississauga,on
168021,Hancock Woodlands,park,mississauga,2171,camilla,..,mississauga,on
168052,Harding Waterfront Estate,park,mississauga,2700,lakeshore,..,mississauga,on
168066,Harold E. Kennedy Park,park,mississauga,20,rosewood,..,mississauga,on
168150,Hawkins Glen,park,mississauga,2970,rymal,..,mississauga,on
168164,Hawthorne Valley,park,mississauga,5165,fairwind,..,mississauga,on
168165,Hawthorne Valley Trail,park,mississauga,159,ceremonial,..,mississauga,on
168205,Heatherleigh Park,park,mississauga,5284,heatherleigh,..,mississauga,on
168223,Helen Molasy Memorial Park,park,mississauga,528,richey,..,mississauga,on
168311,Heritage Hills Park,park,mississauga,315,huntington,..,mississauga,on
168356,Hewick Meadows,park,mississauga,4420,credit pointe,..,mississauga,on
168362,Hiawatha Park,park,mississauga,76,cumberland,..,mississauga,on
168368,Hickory Green,park,mississauga,4252,hickory,..,mississauga,on
168434,Highland View Park,park,mississauga,5742,heatherleigh,..,mississauga,on
168494,Hillside Park,park,mississauga,1311,kelly,..,mississauga,on
168506,Hindhead Park,park,mississauga,1944,hindhead,..,mississauga,on
168604,Horseshoe Park,park,mississauga,7150,saint barbara,..,mississauga,on
