Index,Facility_Name,ODRSF_facility_type,Provider,Street_No,Street_Name,Postal_Code,City,Prov_Terr
3996,Palette Park,playground,peel region,615,renshaw,..,mississauga,on
4006,Paramount Fine Foods Centre - Community Rinks,rink,brampton,5500,rose cherry,L4Z 4B6,mississauga,on
4467,Parkway Green,playground,peel region,4215,central,..,mississauga,on
4488,Paul Coffey Arena,arena,brampton,3430,derry,L4T 1A9,mississauga,on
4497,Peel District School Board South Field Office,playground,peel region,498,hartsdale,L5G 2G6,mississauga,on
4522,Pheasant Run,playground,peel region,4175,pheasant,..,mississauga,on
4529,Pickwick Green,playground,peel region,1335,pickwick,..,mississauga,on
4544,Pinecliff Park,playground,peel region,20,pine cliff,..,mississauga,on
4666,Play Site - North Glen Erin Trail,playground,mississauga,1640,the collegeway,..,mississauga,on
4667,Play Site (Douglas Kennedy Headland) Lakefront Promenade,playground,mississauga,800,lakefront,..,mississauga,on
4668,Play Site Bell Harbour Park,playground,mississauga,5820,bell harbour,..,mississauga,on
4669,Play Site Ben Machree Park,playground,mississauga,0,ben machree,..,mississauga,on
4670,Play Site Brandon Gate Park,playground,mississauga,3545,brandon gate,..,mississauga,on
4671,Play Site Brentwood Park,playground,mississauga,496,karen park,..,mississauga,on
4672,Play Site Brookmede Park,playground,mississauga,2254,council ring,..,mississauga,on
4673,Play Site Buttonbush Park,playground,mississauga,7457,russian olive close,..,mississauga,on
4674,Play Site Carriage Way,playground,mississauga,2544,old carriage,..,mississauga,on
4675,"Play Site Charles ""Bud"" Brennan Park",playground,mississauga,6181,edenwood,..,mississauga,on
4676,Play Site City View Park,playground,mississauga,565,central,..,mississauga,on
4677,Play Site Clarkson Park,playground,mississauga,1125,winston churchill,..,mississauga,on
4678,Play Site Clover Meadows,playground,mississauga,1090,white clover,..,mississauga,on
4679,Play Site Credit Pointe Village,playground,mississauga,4635,credit pointe,..,mississauga,on
4680,Play Site Don Gould Park,playground,mississauga,2441,fifth,..,mississauga,on
4681,Play Site East Tom Chater Memorial Park,playground,mississauga,3195,the collegeway,..,mississauga,on
4682,Play Site Eden Woods,playground,mississauga,6647,tenth,..,mississauga,on
4683,Play Site Forest Hill Park,playground,mississauga,4995,hill,..,mississauga,on
4684,Play Site Forest Park,playground,mississauga,6810,forest park,..,mississauga,on
4685,Play Site Glenleven Park,playground,mississauga,929,silver birch,..,mississauga,on
4686,Play Site Greyshale Park,playground,mississauga,5065,heritage hills,..,mississauga,on
4687,Play Site Hawkins Glen,playground,mississauga,2970,rymal,..,mississauga,on
4688,Play Site Jim Murray Community Park,playground,mississauga,5225,tenth,..,mississauga,on
4689,Play Site King's Masting Park,playground,mississauga,3389,martins,..,mississauga,on
4690,Play Site Lakeside Park,playground,mississauga,2266,lakeshore,..,mississauga,on
4691,Play Site Lisgar Fields,playground,mississauga,3805,doug leavens,..,mississauga,on
4692,Play Site Malton Village Park,playground,mississauga,39,beverley,..,mississauga,on
4693,Play Site Manor Hill,playground,mississauga,2225,hill,..,mississauga,on
4694,Play Site N (Beside Hillcrest Ave) Brickyard Park,playground,mississauga,3061,clayhill,..,mississauga,on
4695,Play Site North Applewood Hills,playground,mississauga,1204,bloor,..,mississauga,on
4696,Play Site North Paul Coffey Park,playground,mississauga,3430,derry,..,mississauga,on
4697,Play Site North Whiteoaks Park,playground,mississauga,1450,truscott,..,mississauga,on
4698,Play Site Northwood Park,playground,mississauga,3830,brandon gate,..,mississauga,on
4699,Play Site Novo Star Park,playground,mississauga,640,novo star,..,mississauga,on
4700,Play Site Parkerhill Park,playground,mississauga,3033,parkerhill,..,mississauga,on
4701,Play Site Petrescue Park,playground,mississauga,1000,halliday,..,mississauga,on
4702,Play Site Pheasant Run,playground,mississauga,4160,pheasant,..,mississauga,on
4703,Play Site Pinecliff Park,playground,mississauga,20,pine cliff,..,mississauga,on
4704,Play Site Plowman's Park,playground,mississauga,6411,glen,..,mississauga,on
4705,Play Site Promenade Meadows,playground,mississauga,7099,danton,..,mississauga,on
4706,Play Site Promontory Woods,playground,mississauga,3870,promontory,..,mississauga,on
