Index,Facility_Name,ODRSF_facility_type,Provider,Street_No,Street_Name,Postal_Code,City,Prov_Terr
11310,Garnetwood Park,sports field,peel region,1996,rathburn,..,mississauga,on
11311,Garnetwood Park,sports field,peel region,1996,rathburn,..,mississauga,on
11314,Garthwood Park,sports field,peel region,3170,garthwood,..,mississauga,on
11315,Garthwood Park,sports field,peel region,3245,colonial,L5L 5G2,mississauga,on
11316,Garthwood Park,sports field,peel region,3170,garthwood,..,mississauga,on
11317,Garthwood Park,sports field,peel region,3170,garthwood,..,mississauga,on
11411,Glen Eden Park,sports field,peel region,7230,copenhagen,L5N 2C3,mississauga,on
11412,Glen Eden Park,sports field,peel region,7230,copenhagen,L5N 2C3,mississauga,on
11413,Glen Eden Park,sports field,peel region,7230,copenhagen,L5N 2C3,mississauga,on
11442,Glenforest,sports field,peel region,3575,fieldgate,L4X 2J6,mississauga,on
11465,Godwick Green,sports field,peel region,1371,godwick,..,mississauga,on
11494,Gooderham Park,sports field,peel region,6938,gooderham estate,..,mississauga,on
11504,Gordon Graydon Memorial,sports field,peel region,1490,ogden,L5E 2H8,mississauga,on
11505,Gordon Graydon Memorial,sports field,peel region,1490,ogden,L5E 2H8,mississauga,on
11506,Gordon Graydon Memorial,sports field,peel region,1490,ogden,L5E 2H8,mississauga,on
11510,Gordon Lummiss Park,sports field,peel region,236,paisley,L5B 2A4,mississauga,on
11535,Grand Highland Golf Club,sports field,peel region,376,barondale,L4Z 3V1,mississauga,on
11536,Grand Highland Golf Club,sports field,mississauga,376,barondale,L4Z 3V1,..,on
11537,Grand Highland Golf Club,sports field,york region,376,barondale,L4Z 3V1,mississauga,on
11538,Grand Highland Golf Club - Clubhouse,sports field,peel region,376,barondale,L4Z 3V1,mississauga,on
11581,Green Glade Sr.,sports field,peel region,1550,green,L5J 1B5,mississauga,on
11602,Greenfield Park,sports field,peel region,1165,mississauga valley,..,mississauga,on
11603,Greenfield Park,sports field,peel region,1165,mississauga valley,..,mississauga,on
11625,Greyshale Park,sports field,peel region,5065,heritage hills,..,mississauga,on
11642,Gulleden Park,sports field,peel region,1500,gulleden,L4X 2T7,mississauga,on
11643,Gulleden Park,sports field,peel region,1500,gulleden,L4X 2T7,mississauga,on
11644,Gulleden Park,sports field,peel region,1500,gulleden,L4X 2T7,mississauga,on
11645,Gulleden Park,sports field,peel region,1500,gulleden,L4X 2T7,mississauga,on
11646,Gulleden Park,sports field,peel region,1500,gulleden,L4X 2T7,mississauga,on
11736,Hawkins Glen,sports field,peel region,2970,rymal,..,mississauga,on
11737,Hawkins Glen,sports field,peel region,2970,rymal,..,mississauga,on
11745,Hawthorn,sports field,peel region,2473,rosemary,L5C 1X1,mississauga,on
11746,Hawthorn,sports field,peel region,2473,rosemary,L5C 1X1,mississauga,on
11747,Hawthorn,sports field,peel region,2473,rosemary,L5C 1X1,mississauga,on
11749,Hawthorne Valley,sports field,peel region,5165,fairwind,..,mississauga,on
11750,Hawthorne Valley,sports field,peel region,5165,fairwind,..,mississauga,on
11755,Hazel Mccallion Sr.,sports field,peel region,5750,river grove,L5M 4R5,mississauga,on
11756,Hazel Mccallion Sr.,sports field,peel region,5750,river grove,L5M 4R5,mississauga,on
11769,Heatherleigh Park,sports field,peel region,5284,heatherleigh,..,mississauga,on
11770,Heatherleigh Park,sports field,peel region,5284,heatherleigh,..,mississauga,on
11771,Heatherleigh Park,sports field,peel region,5284,heatherleigh,..,mississauga,on
11831,Heritage Hills Park,sports field,peel region,315,huntington ridge,..,mississauga,on
11832,Heritage Hills Park,sports field,peel region,315,huntington ridge,..,mississauga,on
11833,Heritage Hills Park,sports field,peel region,315,huntington ridge,..,mississauga,on
11854,Hershey Centre Sportzone North,sports field,peel region,5500,rose cherry,L4Z 4B6,mississauga,on
11855,Hershey Centre Sportzone North,sports field,peel region,5500,rose cherry,L4Z 4B6,mississauga,on
11856,Hershey Centre Sportzone South,sports field,peel region,715,matheson,..,mississauga,on
11857,Hershey Centre Sportzone South,sports field,peel region,715,matheson,..,mississauga,on
11858,Hershey Centre Sportzone South,sports field,peel region,715,matheson,..,mississauga,on
