Index,Facility_Name,ODRSF_facility_type,Provider,Street_No,Street_Name,Postal_Code,City,Prov_Terr
23689,Cedar Path,trail,peel region,..,..,..,..,on
23691,Cedar Trail,trail,peel region,..,..,..,..,on
24907,Credit Valley Trail Link,trail,peel region,..,..,..,..,on
25089,Crow's Nest Side Trail,trail,peel region,..,..,..,..,on
25090,Crow's Nest Side Trail,trail,peel region,..,..,..,..,on
25856,Dorothy Medhurst Side Trail,trail,peel region,..,..,..,..,on
25961,Dragon Park Trail,trail,peel region,..,..,..,..,on
25964,Dragonfly Park Trail,trail,peel region,..,..,..,..,on
26433,Elora Cataract Trailway,trail,peel region,..,..,..,..,on
26434,Elora Cataract Trailway,trail,peel region,..,..,..,..,on
26487,Entrance Trail,trail,peel region,..,..,..,..,on
26488,Entrance Trail,trail,peel region,..,..,..,..,on
26639,Etobicoke Creek Recreational Trail,trail,peel region,..,..,..,..,on
26640,Etobicoke Creek Recreational Trail,trail,peel region,..,..,..,..,on
26652,Etobicoke Creek Recreational Trail,trail,peel region,..,..,..,..,on
26684,Etobicoke Creek Recreational Trail,trail,peel region,..,..,..,..,on
26685,Etobicoke Creek Recreational Trail,trail,peel region,..,..,..,..,on
26686,Etobicoke Creek Recreational Trail,trail,peel region,..,..,..,..,on
26687,Etobicoke Creek Recreational Trail,trail,peel region,..,..,..,..,on
26688,Etobicoke Creek Recreational Trail,trail,peel region,..,..,..,..,on
26689,Etobicoke Creek Recreational Trail,trail,peel region,..,..,..,..,on
26690,Etobicoke Creek Recreational Trail,trail,peel region,..,..,..,..,on
26691,Etobicoke Creek Recreational Trail,trail,peel region,..,..,..,..,on
26693,Etobicoke Creek Recreational Trail,trail,peel region,..,..,..,..,on
27070,Fisherman's Walk,trail,peel region,..,..,..,..,on
28079,Glen Haffy Side Trail,trail,peel region,..,..,..,..,on
28080,Glen Haffy Side Trail,trail,peel region,..,..,..,..,on
28082,Glen Haffy Side Trail (On Road),trail,peel region,..,..,..,..,on
28265,Gorge Loop,trail,peel region,..,..,..,..,on
28528,Grand Valley Trail,trail,peel region,..,..,..,..,on
28529,Grand Valley Trail (On Road),trail,peel region,..,..,..,..,on
28530,Grand Valley Trail (On Road),trail,peel region,..,..,..,..,on
28531,Grand Valley Trail (On Road),trail,peel region,..,..,..,..,on
28532,Grand Valley Trail (On Road),trail,peel region,..,..,..,..,on
28620,Greenbelt Route (Caution - No Facility),trail,peel region,..,..,..,..,on
28622,Greenbelt Route (Caution - No Facility),trail,peel region,..,..,..,..,on
28623,Greenbelt Route (Caution - No Facility),trail,peel region,..,..,..,..,on
28624,Greenbelt Route (Caution - No Facility),trail,peel region,..,..,..,..,on
28625,Greenbelt Route (Caution - No Facility),trail,peel region,..,..,..,..,on
28630,Greenbelt Route (On Road With Paved Shoulder),trail,peel region,..,..,..,..,on
28631,Greenbelt Route (On Road With Paved Shoulder),trail,peel region,..,..,..,..,on
28632,Greenbelt Route (On Road With Paved Shoulder),trail,peel region,..,..,..,..,on
28633,Greenbelt Route (On Road With Paved Shoulder),trail,peel region,..,..,..,..,on
29074,Harvest Trail,trail,peel region,..,..,..,..,on
29075,Harvest Trail,trail,peel region,..,..,..,..,on
29781,Humber Valley Heritage Trail,trail,peel region,..,..,..,..,on
29782,Humber Valley Heritage Trail,trail,peel region,..,..,..,..,on
29783,Humber Valley Heritage Trail,trail,peel region,..,..,..,..,on
29784,Humber Valley Heritage Trail,trail,peel region,..,..,..,..,on
