Index,Facility_Name,ODRSF_facility_type,Provider,Street_No,Street_Name,Postal_Code,City,Prov_Terr
10415,Dearbourne Park,sports field,peel region,..,..,..,brampton,on
10416,Dearbourne Park,sports field,peel region,..,..,..,brampton,on
10417,Dearbourne Park,sports field,peel region,..,..,..,brampton,on
10491,Dixie Hwy 407 Park,sports field,peel region,..,dixie,..,brampton,on
10492,Dixie Hwy 407 Park,sports field,peel region,..,dixie,..,brampton,on
10493,Dixie Hwy 407 Park,sports field,peel region,..,dixie,..,brampton,on
10494,Dixie Hwy 407 Park,sports field,peel region,..,dixie,..,brampton,on
10495,Dixie Hwy 407 Park,sports field,peel region,..,dixie,..,brampton,on
10496,Dixie Hwy 407 Park,sports field,peel region,..,dixie,..,brampton,on
10497,Dixie Hwy 407 Park,sports field,peel region,..,dixie,..,brampton,on
10498,Dixie Hwy 407 Park,sports field,peel region,..,dixie,..,brampton,on
10499,Dixie Hwy 407 Park,sports field,peel region,..,dixie,..,brampton,on
10500,Dixie Hwy 407 Park,sports field,peel region,..,dixie,..,brampton,on
10501,Dixie Hwy 407 Park,sports field,peel region,..,dixie,..,brampton,on
10502,Dixie Hwy 407 Park,sports field,peel region,..,dixie,..,brampton,on
10503,Dixie Hwy 407 Park,sports field,peel region,..,dixie,..,brampton,on
10504,Dixie Sandalwood Park,sports field,peel region,..,sandalwood,..,brampton,on
10505,Dixie Sandalwood Park,sports field,peel region,..,sandalwood,..,brampton,on
10506,Dixie Sandalwood Park,sports field,peel region,..,sandalwood,..,brampton,on
10507,Dixie Sandalwood Park,sports field,peel region,..,sandalwood,..,brampton,on
10508,Dixie Sandalwood Park,sports field,peel region,..,sandalwood,..,brampton,on
10509,Dixie Sandalwood Park,sports field,peel region,..,sandalwood,..,brampton,on
10522,Donald M. Gordon Chinguacousy Park,sports field,peel region,9050,bramalea,L6S 6G7,brampton,on
10523,Donald M. Gordon Chinguacousy Park,sports field,peel region,9050,bramalea,L6S 6G7,brampton,on
10524,Donald M. Gordon Chinguacousy Park,sports field,peel region,9050,bramalea,L6S 6G7,brampton,on
10525,Donald M. Gordon Chinguacousy Park,sports field,peel region,9050,bramalea,L6S 6G7,brampton,on
10526,Donald M. Gordon Chinguacousy Park,sports field,peel region,9050,bramalea,L6S 6G7,brampton,on
10527,Donald M. Gordon Chinguacousy Park,sports field,peel region,9050,bramalea,L6S 6G7,brampton,on
10535,Donnelly East Park,sports field,peel region,..,sandalwood,..,brampton,on
10546,Dorset Drive,sports field,peel region,100,dorset,L6T 2Y9,brampton,on
10547,Dorset Drive,sports field,peel region,100,dorset,L6T 2Y9,brampton,on
10595,Drinkwater Community Park,sports field,peel region,17,drinkwater,L6Y 4T6,brampton,on
10596,Drinkwater Community Park,sports field,peel region,17,drinkwater,L6Y 4T6,brampton,on
10597,Drinkwater Community Park,sports field,peel region,17,drinkwater,L6Y 4T6,brampton,on
10615,Duggan Park,sports field,peel region,..,centre,..,brampton,on
10616,Duggan Park,sports field,peel region,..,centre,..,brampton,on
10617,Duggan Park,sports field,peel region,..,centre,..,brampton,on
10679,Earnscliffe Park,sports field,peel region,..,..,..,brampton,on
10680,Earnscliffe Park,sports field,peel region,..,..,..,brampton,on
10681,Earnscliffe Park,sports field,peel region,..,..,..,brampton,on
10682,Earnscliffe Park,sports field,peel region,..,..,..,brampton,on
10683,Earnscliffe Park,sports field,peel region,..,..,..,brampton,on
10684,Earnscliffe Park,sports field,peel region,..,..,..,brampton,on
10685,Earnscliffe Park,sports field,peel region,..,..,..,brampton,on
10686,Earnscliffe Sr.,sports field,peel region,50,earnscliffe,L6T 2B2,brampton,on
10687,Earnscliffe Sr.,sports field,peel region,50,earnscliffe,L6T 2B2,brampton,on
10688,Earnscliffe Sr.,sports field,peel region,50,earnscliffe,L6T 2B2,brampton,on
10689,Earnscliffe Sr.,sports field,peel region,50,earnscliffe,L6T 2B2,brampton,on
10690,Earnscliffe Sr.,sports field,peel region,50,earnscliffe,L6T 2B2,brampton,on
