Index,Facility_Name,ODRSF_facility_type,Provider,Street_No,Street_Name,Postal_Code,City,Prov_Terr
8340,"Baseball Zone, The",sports field,mississauga,1081,brevik,L4W 3R7,..,on
8341,Basket Ball Hoop Laughton Heights,sports field,mississauga,1519,sherway,..,mississauga,on
8658,Basketball Hoop - East Applewood Heights,sports field,mississauga,3119,constitution,..,mississauga,on
8659,Basketball Hoop - East Elmcreek Park,sports field,mississauga,7320,darcel,..,mississauga,on
8660,Basketball Hoop - East Erin Meadows,sports field,mississauga,2800,erin,..,mississauga,on
8661,Basketball Hoop - East Garnetwood Park,sports field,mississauga,1996,rathburn,..,mississauga,on
8662,Basketball Hoop - East Huron Park,sports field,mississauga,830,paisley,..,mississauga,on
8663,Basketball Hoop - East Lisgar Fields,sports field,mississauga,3805,doug leavens,..,mississauga,on
8664,Basketball Hoop - East Mckechnie Woods,sports field,mississauga,310,bristol,..,mississauga,on
8665,Basketball Hoop - Furthest From Tennis Courts Malton Village Park,sports field,mississauga,39,beverley,..,mississauga,on
8666,Basketball Hoop - North Applewood Heights,sports field,mississauga,3119,constitution,..,mississauga,on
8667,"Basketball Hoop - North Central Court, East Paul Coffey Park",sports field,mississauga,3430,derry,..,mississauga,on
8668,"Basketball Hoop - North Central Court, West Paul Coffey Park",sports field,mississauga,3430,derry,..,mississauga,on
8669,Basketball Hoop - North Central Courtneypark Athletic Fields,sports field,mississauga,600,courtneypark,..,mississauga,on
8670,Basketball Hoop - North Central Erin Meadows,sports field,mississauga,2800,erin,..,mississauga,on
8671,"Basketball Hoop - North Court, East Paul Coffey Park",sports field,mississauga,3430,derry,..,mississauga,on
8672,"Basketball Hoop - North Court, West Paul Coffey Park",sports field,mississauga,3430,derry,..,mississauga,on
8673,Basketball Hoop - North Courtneypark Athletic Fields,sports field,mississauga,600,courtneypark,..,mississauga,on
8674,Basketball Hoop - North Erin Meadows,sports field,mississauga,2800,erin,..,mississauga,on
8675,Basketball Hoop - North Shawnmarr Park,sports field,mississauga,770,queen,..,mississauga,on
8676,Basketball Hoop - South Applewood Heights,sports field,mississauga,3119,constitution,..,mississauga,on
8677,"Basketball Hoop - South Central Court, East Paul Coffey Park",sports field,mississauga,3430,derry,..,mississauga,on
8678,"Basketball Hoop - South Central Court, West Paul Coffey Park",sports field,mississauga,3430,derry,..,mississauga,on
8679,Basketball Hoop - South Central Courtneypark Athletic Fields,sports field,mississauga,600,courtneypark,..,mississauga,on
8680,Basketball Hoop - South Central Erin Meadows,sports field,mississauga,2800,erin,..,mississauga,on
8681,"Basketball Hoop - South Court, East Paul Coffey Park",sports field,mississauga,3430,derry,..,mississauga,on
8682,"Basketball Hoop - South Court, West Paul Coffey Park",sports field,mississauga,3430,derry,..,mississauga,on
8683,Basketball Hoop - South Courtneypark Athletic Fields,sports field,mississauga,600,courtneypark,..,mississauga,on
8684,Basketball Hoop - South Elmcreek Park,sports field,mississauga,7320,darcel,..,mississauga,on
8685,Basketball Hoop - South Erin Meadows,sports field,mississauga,2800,erin,..,mississauga,on
8686,Basketball Hoop - South Huron Park,sports field,mississauga,830,paisley,..,mississauga,on
8687,Basketball Hoop - South Lisgar Fields,sports field,mississauga,3805,doug leavens,..,mississauga,on
8688,Basketball Hoop - South Mckechnie Woods,sports field,mississauga,310,bristol,..,mississauga,on
8689,Basketball Hoop - South Shawnmarr Park,sports field,mississauga,770,queen,..,mississauga,on
8690,Basketball Hoop - West Applewood Heights,sports field,mississauga,3119,constitution,..,mississauga,on
8691,Basketball Hoop - West Elmcreek Park,sports field,mississauga,7320,darcel,..,mississauga,on
8692,Basketball Hoop - West Erin Meadows,sports field,mississauga,2800,erin,..,mississauga,on
8693,Basketball Hoop - West Garnetwood Park,sports field,mississauga,1996,rathburn,..,mississauga,on
8694,Basketball Hoop - West Huron Park,sports field,mississauga,830,paisley,..,mississauga,on
8695,Basketball Hoop - West Lisgar Fields,sports field,mississauga,3805,doug leavens,..,mississauga,on
8696,Basketball Hoop - West Mckechnie Woods,sports field,mississauga,310,bristol,..,mississauga,on
8697,Basketball Hoop (Closest To Building Corner) Lake Aquitaine Park,sports field,mississauga,2750,aquitaine,..,mississauga,on
8698,Basketball Hoop (Closest To Tracks) Birchwood Park,sports field,mississauga,1547,lakeshore,..,mississauga,on
8699,Basketball Hoop (Closest To Volleyball Beside Skate Board Facilty) Huron Park,sports field,mississauga,830,paisley,..,mississauga,on
8700,Basketball Hoop (East) Dellwood Park,sports field,mississauga,598,arbor,..,mississauga,on
8701,Basketball Hoop (East) Spruce Park,sports field,mississauga,280,angelene,..,mississauga,on
8702,Basketball Hoop (Furthest From Building Corner) Lake Aquitaine Park,sports field,mississauga,2750,aquitaine,..,mississauga,on
8703,Basketball Hoop (Furthest From Tracks) Birchwood Park,sports field,mississauga,1547,lakeshore,..,mississauga,on
8704,Basketball Hoop (North) Serson Park,sports field,mississauga,1100,pelham,..,mississauga,on
