Index,Facility_Name,ODRSF_facility_type,Provider,Street_No,Street_Name,Postal_Code,City,Prov_Terr
168692,Hunter's Green,park,mississauga,2780,gananoque,..,mississauga,on
168710,Huron Heights,park,mississauga,4500,central,..,mississauga,on
168713,Huron Park,park,mississauga,830,paisley,..,mississauga,on
168731,Hyde's Mill Hollow,park,mississauga,1630,sir montys,..,mississauga,on
168765,Iceland Arena & Sports Park,park,mississauga,715,matheson,..,mississauga,on
168786,Indian Gate,park,mississauga,1415,indian,..,mississauga,on
168846,Iroquois Flats,park,mississauga,520,fergo,..,mississauga,on
168907,J.C. Saddington Park,park,mississauga,53,lake,..,mississauga,on
168909,J.J. Plaus Park,park,mississauga,18,stavebank,..,mississauga,on
168917,Jack Darling Memorial Park,park,mississauga,1180,lakeshore,..,mississauga,on
169011,Jaycee Park,park,mississauga,1520,gulleden,..,mississauga,on
169076,Jim Murray Community Park,park,mississauga,5225,line,..,mississauga,on
169125,John C. Pallett Park,park,mississauga,4550,glen,..,mississauga,on
169126,John C. Price Park,park,mississauga,3077,littlejohn,..,mississauga,on
169135,John Cleary Park,park,mississauga,450,webb,..,mississauga,on
169203,Johnny Bower Park,park,mississauga,3919,parkgate,..,mississauga,on
169229,Jon Clipperton Park,park,mississauga,190,church,..,mississauga,on
169349,Kariya Park,park,mississauga,3620,kariya,..,mississauga,on
169440,Kennedy Park,park,mississauga,3505,golden,..,mississauga,on
169447,Kenollie Park,park,mississauga,292,pinetree,..,mississauga,on
169525,Kindree Gate,park,mississauga,6252,kindree,..,mississauga,on
169545,King's Masting Park,park,mississauga,3389,martins,..,mississauga,on
169553,King's Park,park,mississauga,7185,dixie,..,mississauga,on
169558,Kingsbridge Common,park,mississauga,4611,regents,..,mississauga,on
169868,Knights Of Columbus Place,park,mississauga,2450,mavis,..,mississauga,on
169881,Knotty Pine Park,park,mississauga,835,knotty,..,mississauga,on
169889,Kogaydiwin Park,park,mississauga,1585,finfar,..,mississauga,on
169890,Kogaydiwin Trail,park,mississauga,2560,benedet,..,mississauga,on
169964,Lake Aquitaine Park,park,mississauga,2750,aquitaine,..,mississauga,on
169965,Lake Aquitaine Trail,park,mississauga,2688,aquitaine,..,mississauga,on
169983,Lake Wabukayne,park,mississauga,2610,inlake,..,mississauga,on
169984,Lake Wabukayne Trail,park,mississauga,2788,windwood,..,mississauga,on
169990,Lakefront Promenade,park,mississauga,800,lakefront,..,mississauga,on
170011,Lakeside Park,park,mississauga,2268,lakeshore,..,mississauga,on
170019,Lakeview Golf Course,park,mississauga,1190,dixie,..,mississauga,on
170027,Lakeview Park,park,mississauga,811,lakefront,..,mississauga,on
170143,Laughton Heights,park,mississauga,1519,sherway,..,mississauga,on
170289,Leslie Trail,park,mississauga,2199,meadowvale,..,mississauga,on
170299,Levi's Valley,park,mississauga,1575,westbridge,..,mississauga,on
170301,Lewis Bradley Park,park,mississauga,750,inverhouse,..,mississauga,on
170343,Lincoln Hollow,park,mississauga,2475,lincoln green,..,mississauga,on
170437,Lisgar Fields,park,mississauga,3805,doug leavens,..,mississauga,on
170438,Lisgar Green,park,mississauga,6140,osprey,..,mississauga,on
170439,Lisgar Meadow Brook,park,mississauga,3805,doug leavens,..,mississauga,on
170482,Living Arts Centre Grounds,park,mississauga,4141,living arts,..,mississauga,on
170495,Lochlin Green,park,mississauga,1577,lochlin,..,mississauga,on
170559,Lorne Park Community Centre,park,mississauga,1288,lorne park,..,mississauga,on
170560,Lorne Park Prairie,park,mississauga,1070,queen,..,mississauga,on
170562,Lornewood Creek Trail,park,mississauga,880,queen,..,mississauga,on
