Index,Facility_Name,ODRSF_facility_type,Provider,Street_No,Street_Name,Postal_Code,City,Prov_Terr
3011,Malton Community Centre,community centre,peel region(caledon),3540,morning star,L4T 1Y2,mississauga,on
3012,Malton Community Centre (Elmcreek Park),splash pad,peel region,7320,darcel,..,mississauga,on
3013,Malton Community Centre (Elmcreek Park),pool,peel region,7320,darcel,..,mississauga,on
3014,Malton Pool,pool,mississauga,3540,morning star,..,mississauga,on
3015,Malton Swimming An Therapeutic Pool,pool,brampton,3545,morning star,L4T 1Y3,mississauga,on
3016,Malton Village Park,playground,peel region,9,beverley,..,mississauga,on
3022,Manor Hill,playground,peel region,2225,manor hill,..,mississauga,on
3166,Maple Wood,playground,peel region,2650,gananoque,L5N 2R2,mississauga,on
3174,Marco Muzzo Memorial Woods & Park,playground,peel region,5098,perennial,..,mississauga,on
3209,Marvin Heights,playground,peel region,7363,redstone,..,mississauga,on
3238,May Meadow,playground,peel region,3925,mcdowell,..,mississauga,on
3247,Mccarron Park,playground,peel region,5420,longford,..,mississauga,on
3248,Mccauley Green,playground,peel region,2815,folkway,..,mississauga,on
3255,Mccracken Community Park,playground,peel region,5510,velda,..,mississauga,on
3265,Mckechnie Woods,playground,peel region,310,bristol,L4Z 3V5,mississauga,on
3266,Mckechnie Woods,splash pad,peel region,310,bristol,L4Z 3V5,mississauga,on
3268,Mckenzie Park,playground,peel region,575,mississauga valley,..,mississauga,on
3279,Mcleod Park,playground,peel region,3860,candlelight,..,mississauga,on
3287,Meadow Glen,playground,peel region,535,rathburn,..,mississauga,on
3288,Meadow Green,playground,peel region,6595,falconer,..,mississauga,on
3289,Meadow Park,playground,peel region,2203,truscott,L5J 2A7,mississauga,on
3295,Meadowood Park,playground,peel region,1620,orr,L5J 4T2,mississauga,on
3297,Meadowvale 4 Rinks,rink,peel region,2160,torquay,L5M 1M1,mississauga,on
3298,Meadowvale Community Centre,community centre,peel region(caledon),6655,glen erin,L5N 3L4,mississauga,on
3299,Meadowvale Community Centre Pool,pool,mississauga,6655,glen,..,mississauga,on
3300,Meadowvale Pool And Therapeutic Pool,pool,brampton,6655,glen erin,L5N 3L4,mississauga,on
3301,Meadowvale Rotary Park,playground,peel region,3302,tacc,..,mississauga,on
3302,Meadowvale Village,playground,peel region,890,old derry,L5W 1A1,mississauga,on
3320,Mentor College,playground,peel region,40,forest,L5G 1L1,mississauga,on
3334,Middlebury Green,playground,peel region,5510,middlebury,L5M 5G7,mississauga,on
3351,Millgrove,playground,peel region,6181,edenwood,..,mississauga,on
3353,Millgrove Trail,playground,peel region,6030,edenwood,..,mississauga,on
3374,Mineola,playground,peel region,145,windy oaks,L5G 1Z4,mississauga,on
3377,Missinihe Park,playground,peel region,7225,waldorf,L5N 7P8,mississauga,on
3379,Mississauga Valley,playground,peel region,1275,mississauga valley,L5A 3R8,mississauga,on
3380,Mississauga Valley,splash pad,peel region,1275,mississauga valley,L5A 3R8,mississauga,on
3381,Mississauga Valley Arena,arena,peel region,1275,mississauga valley,L5A 3R8,mississauga,on
3382,Mississauga Valley Community Centre,community centre,peel region(caledon),1275,mississauga valley,L5A 3R8,mississauga,on
3391,Mohawk Park,playground,peel region,2409,delkus,L5A 1K8,mississauga,on
3477,Munden Park,playground,peel region,499,service,L5A 1B2,mississauga,on
3507,Neebin Park,playground,peel region,635,kaiser,..,mississauga,on
3508,Neebin Park,splash pad,peel region,635,kaiser,..,mississauga,on
3603,Northwood Park,playground,peel region,3830,brandon gate,..,mississauga,on
3610,Not Yet Named (P-490),playground,peel region,5335,oscar peterson,..,mississauga,on
3616,Novo Star Park,playground,peel region,640,novo star,..,mississauga,on
3627,Oakridge,playground,peel region,2060,stonehouse,L5H 3J1,mississauga,on
3645,O'Connor Park,playground,peel region,3570,bala,..,mississauga,on
3652,O'Harra Park,playground,peel region,5600,longford,..,mississauga,on
3664,Old Ridge Park,playground,peel region,6965,historic,..,mississauga,on
