Index,Facility_Name,ODRSF_facility_type,Provider,Street_No,Street_Name,Postal_Code,City,Prov_Terr
17181,St. Josephine Bakhita,sports field,peel region,430,van kirk,L7A 0J2,brampton,on
17189,St. Kevin,sports field,peel region,103,malta,L6Y 4C8,brampton,on
17190,St. Kevin,sports field,peel region,103,malta,L6Y 4C8,brampton,on
17191,St. Leonard,sports field,peel region,185,conestoga,L6Z 2Z7,brampton,on
17192,St. Leonard,sports field,peel region,185,conestoga,L6Z 2Z7,brampton,on
17194,St. Lucy,sports field,peel region,25,kanata,L7A 3R2,brampton,on
17202,St. Marguerite D'Youville,sports field,peel region,10815,dixie,L6R 2W5,brampton,on
17203,St. Maria Goretti,sports field,peel region,121,royal orchard,L6X 4K9,brampton,on
17208,St. Monica,sports field,peel region,60,sterritt,L6Y 5B6,brampton,on
17211,St. Patrick,sports field,peel region,11948,the-gore,L6P 0A2,brampton,on
17212,St. Patrick,sports field,peel region,11948,the-gore,L6P 0A2,brampton,on
17225,St. Rita,sports field,peel region,30,summer valley,L6Z 4V6,brampton,on
17226,St. Roch,sports field,peel region,200,valleyway,L6X 0N3,brampton,on
17227,St. Roch,sports field,peel region,200,valleyway,L6X 0N3,brampton,on
17230,St. Stephen,sports field,peel region,17,colonel bertram,L6Z 4N8,brampton,on
17231,St. Stephen,sports field,peel region,17,colonel bertram,L6Z 4N8,brampton,on
17240,St. Thomas Aquinas,sports field,peel region,25,corporation,L6S 6A2,brampton,on
17241,St. Thomas Aquinas,sports field,peel region,25,corporation,L6S 6A2,brampton,on
17245,St. Ursula,sports field,peel region,11,dwellers,L6X 5C1,brampton,on
17264,Stanley Mills,sports field,peel region,286,sunny meadow,L6R 3C3,brampton,on
17381,Streetsville Glen Golf Club,sports field,peel region,1876,hallstone,L6V 3N2,mississauga,on
17416,Sunny View Middle,sports field,peel region,30,chapparal,L6R 3C4,brampton,on
17464,Tall Pines School,sports field,peel region,8525,torbram,L6T 5K4,brampton,on
17678,Terry Fox,sports field,peel region,95,richvale,L6Z 1Y6,brampton,on
17679,Terry Fox,sports field,peel region,95,richvale,L6Z 1Y6,brampton,on
17731,Thorndale Ps,sports field,peel region,133,thorndale,L6P 1K5,brampton,on
17750,Timberlane Park,sports field,peel region,..,timberlane,..,brampton,on
17806,Torbram Sandalwood Community Park (Unofficial Name),sports field,peel region,..,torbram,..,brampton,on
17851,Treeline,sports field,peel region,145,treeline,L6P 10000000,brampton,on
17852,Treeline,sports field,peel region,145,treeline,L6P 10000000,brampton,on
17853,Treeline Park,sports field,peel region,..,treeline,..,brampton,on
17887,Turnberry Gc,sports field,york region,10100,heart lake,L6Z 0B4,brampton,on
17889,Turner Fenton,sports field,peel region,7935,kennedy,L6V 3N2,brampton,on
17890,Turner Fenton,sports field,peel region,7935,kennedy,L6V 3N2,brampton,on
17891,Turner Fenton,sports field,peel region,7935,kennedy,L6V 3N2,brampton,on
17892,Turner Fenton,sports field,peel region,7935,kennedy,L6V 3N2,brampton,on
17971,Valleybrook Park,sports field,peel region,..,williams,..,brampton,on
17972,Valleybrook Park,sports field,peel region,..,williams,..,brampton,on
17975,Valleydown Park,sports field,peel region,..,valonia,..,brampton,on
17984,Van Scott Parkette,sports field,peel region,..,..,..,brampton,on
17985,Vanier Park,sports field,peel region,..,elgin,..,brampton,on
17999,Venerable Michael J. Mcgiveny,sports field,peel region,450,fernforest,L6R 2P7,brampton,on
18015,Victoria Park,sports field,peel region,..,..,..,brampton,on
18016,Victoria Park,sports field,peel region,..,..,..,brampton,on
18017,Victoria Park,sports field,peel region,..,..,..,brampton,on
18141,Walnut Grove,sports field,peel region,10,pinestaff,L6P 3X8,brampton,on
18324,Weybridge Park,sports field,peel region,..,..,..,brampton,on
18325,Weybridge Park,sports field,peel region,..,..,..,brampton,on
18345,White Spruce Park,sports field,peel region,..,..,..,brampton,on
