Index,Facility_Name,ODRSF_facility_type,Provider,Street_No,Street_Name,Postal_Code,City,Prov_Terr
5620,Sled Dog Park,playground,peel region,..,sled,..,brampton,on
5621,Sleightholme Park,playground,peel region,..,..,..,brampton,on
5623,Smirle 'Big Train' Lawson Park,playground,peel region,..,pannahill,..,brampton,on
5629,Snelgrove Community Centre,community centre,peel region(caledon),11692,hurontario,L7A 1000000,brampton,on
5632,Snowcap Park,playground,peel region,..,snowcap,..,brampton,on
5633,Softneedle Parkette,playground,peel region,..,seclusion,..,brampton,on
5634,Somerset Drive,playground,peel region,50,somerset,L6Z 1C7,brampton,on
5650,South Fletcher's Sportsplex,arena,peel region,500,ray lawson,L6Y 5B3,brampton,on
5651,South Fletcher's Sportsplex,pool,peel region,500,ray lawson,L6Y 5B3,brampton,on
5652,South Fletcher's Sportsplex,community centre,peel region,500,ray lawson,L6Y 5B3,brampton,on
5675,Southwell Parkette,playground,peel region,..,southwell,..,brampton,on
5680,Sparrow Park,playground,peel region,..,cherrytree,..,brampton,on
5870,Springdale Central Community Park,playground,peel region,..,..,..,brampton,on
5871,Springdale Central Community Park,splash pad,peel region,..,..,..,brampton,on
5915,St. Joseph (Brampton),playground,peel region,8,parkway,L6X 2G4,brampton,on
5929,St. Patrick,playground,peel region,11948,the-gore,L6P 0A2,brampton,on
5945,Stanley Mills,playground,peel region,286,sunny meadow,L6R 3C3,brampton,on
5958,Stemford Parkette,playground,peel region,..,..,..,brampton,on
6001,Summer Valley Parkette,playground,peel region,..,summer,..,brampton,on
6008,Suncrest Parkette,playground,peel region,..,suncrest,..,brampton,on
6011,Sunforest Parkette,playground,peel region,..,sunforest,..,brampton,on
6013,Sunny Meadow Parkette,playground,peel region,..,..,..,brampton,on
6044,Talbot Park,playground,peel region,..,talbot,..,brampton,on
6049,Tara Park,playground,peel region,..,main,..,brampton,on
6065,Terry Miller Recreation Centre,community centre,peel region,1295,williams,L6S 3J8,brampton,on
6066,Terry Miller Recreation Centre Arena,arena,peel region,1295,williams,L6S 3J8,brampton,on
6093,Thorndale Park,playground,peel region,..,eastbrook,..,brampton,on
6106,Timberlane Park,playground,peel region,..,timberlane,..,brampton,on
6112,Todd Edward Baylis Park,playground,peel region,..,aurora,..,brampton,on
6122,Tony Rinomato Park,playground,peel region,..,..,..,brampton,on
6129,Torbram Sandalwood Community Park (Unofficial Name),playground,peel region,..,torbram,..,brampton,on
6144,Trailside Park,playground,peel region,..,pennyroyal,..,brampton,on
6151,Treeline Park,playground,peel region,..,treeline,..,brampton,on
6153,Treleaven Park,playground,peel region,..,gregory,..,brampton,on
6169,Trudelle Parkette,playground,peel region,..,trudelle,..,brampton,on
6170,Tumbleweed Parkette,playground,peel region,..,..,..,brampton,on
6174,Turtlecreek Park,playground,peel region,..,..,..,brampton,on
6179,Twin Falls Park,playground,peel region,..,twin,..,brampton,on
6195,Unnamed Park 35 Block 45-3,playground,peel region,..,begonia,..,brampton,on
6202,Upperlink Park (Unofficial Name),playground,peel region,..,vintonridge,..,brampton,on
6204,Upwood Park,playground,peel region,..,..,..,brampton,on
6217,Valleybrook Park,playground,peel region,..,williams,..,brampton,on
6220,Valleydown Park,playground,peel region,..,valonia,..,brampton,on
6237,Van Scott Parkette,playground,peel region,..,van scott,..,brampton,on
6238,Vanier Park,playground,peel region,..,elgin,..,brampton,on
6256,Via Romano Parkette,playground,peel region,..,..,..,brampton,on
6303,Vontress Park,playground,peel region,..,..,..,brampton,on
6308,W.A. Russell Parkette,playground,peel region,..,royal,..,brampton,on
6401,Watchman Park,playground,peel region,..,newcroft,..,brampton,on
