Index,Facility_Name,ODRSF_facility_type,Provider,Street_No,Street_Name,Postal_Code,City,Prov_Terr
1641,Fallingbrook Community Park,splash pad,peel region,5135,fallingbrook,L5N 0C7,mississauga,on
1655,Father Joseph A. Nolan Park,playground,peel region,7385,finery,L4T 3Z5,mississauga,on
1690,Fleetwood Park,playground,peel region,2000,burnhamthorpe,..,mississauga,on
1697,Floradale,playground,peel region,210,paisley,L5B 2A4,mississauga,on
1698,Floradale Park,playground,peel region,2424,confederation,..,mississauga,on
1699,Floradale Park,splash pad,peel region,2424,confederation,..,mississauga,on
1710,Forest Avenue,playground,peel region,20,forest,L5G 1K7,mississauga,on
1713,Forest Glen,playground,peel region,3545,fieldgate,..,mississauga,on
1714,Forest Glen,pool,peel region,3545,fieldgate,..,mississauga,on
1721,Forest Hill Park,playground,peel region,4995,forest hill,..,mississauga,on
1730,Forest Park,playground,peel region,6810,forest park,..,mississauga,on
1733,Forestview Park,playground,peel region,2021,barsuda,..,mississauga,on
1750,Four Winds Hollow,playground,peel region,636,avonwick,..,mississauga,on
1758,Frank Dowling Park,playground,peel region,16,brookside,L5M 1H3,mississauga,on
1762,Frank Mckechnie Community Centre,community centre,peel region(caledon),310,bristol,L4Z 3V5,mississauga,on
1763,Frank Mckechnie Pool,pool,brampton,310,bristol,L4Z 3V5,mississauga,on
1777,Fred Halliday Memorial Park,playground,peel region,2187,stir,L4Y 3V2,mississauga,on
1802,Garcia Park,playground,peel region,5900,whitehorn,..,mississauga,on
1808,Garthwood Park,playground,peel region,3170,garthwood,..,mississauga,on
1820,Gatineau Green,playground,peel region,116,falconer,..,mississauga,on
1876,Glen Eden Park,playground,peel region,7230,copenhagen,L5N 2C3,mississauga,on
1878,Glen Erin Trail,playground,peel region,1640,the-collegeway,..,mississauga,on
1879,Glen Erin Woodlands,playground,peel region,925,mcbride,L5C 1M1,mississauga,on
1901,Glenforest Pool,pool,brampton,3575,fieldgate,L4X 2T7,mississauga,on
1904,Glenleven Park,playground,peel region,929,silver,..,mississauga,on
1918,Godwick Green,playground,peel region,1371,godwick,..,mississauga,on
1924,Golden Orchard Park,playground,peel region,1261,scottsburg,L4W 2Z9,mississauga,on
1925,Golder Community Park,playground,peel region,3200,destination,..,mississauga,on
1930,Gooderham Park,playground,peel region,6938,gooderham estate,..,mississauga,on
1936,Gordon Graydon Memorial,playground,peel region,1490,ogden,L5E 2H8,mississauga,on
1938,Gordon Lummiss Park,playground,peel region,236,paisley,L5B 2A4,mississauga,on
1994,Greenfield Park,playground,peel region,1165,mississauga valley,..,mississauga,on
2011,Greyshale Park,playground,peel region,5065,heritage hills,..,mississauga,on
2069,Harold E. Kennedy Park,playground,peel region,20,rosewood,..,mississauga,on
2090,Hawthorn,playground,peel region,2473,rosemary,L5C 1X1,mississauga,on
2092,Hawthorne Valley,playground,peel region,5165,fairwind,..,mississauga,on
2105,Heatherleigh Park,playground,peel region,5284,heatherleigh,..,mississauga,on
2128,Heritage Hills Park,playground,peel region,315,huntington ridge,..,mississauga,on
2139,Hershey Centre,arena,peel region,5500,rose cherry,L4Z 4B6,mississauga,on
2140,Hershey Centre Community Rinks,rink,mississauga,5500,rose cherry,..,mississauga,on
2141,Hershey Centre Sportzone South,playground,peel region,715,matheson,..,mississauga,on
2142,Hershey Centre Sportzone South,splash pad,peel region,715,matheson,L4Z 3X9,mississauga,on
2146,Hiawatha Park,playground,peel region,76,cumberland,L5G 3M8,mississauga,on
2150,Hickory Green,playground,peel region,4252,hickory,L4W 1L2,mississauga,on
2170,Highland View Park,playground,peel region,5742,heatherleigh,..,mississauga,on
2183,Hillcrest Middle,playground,peel region,1530,springwell,L5J 3H6,mississauga,on
2191,Hillside Park,playground,peel region,1311,kelly,L5J 3V1,mississauga,on
2198,Hindhead Park,playground,peel region,1944,hindhead,..,mississauga,on
2227,Horseshoe Park,playground,peel region,7150,saint-barbara,..,mississauga,on
