Index,Facility_Name,ODRSF_facility_type,Provider,Street_No,Street_Name,Postal_Code,City,Prov_Terr
20263,Albion Hills Conservation Area - R - Hot August Nights,trail,peel region,..,..,..,..,on
20264,Albion Hills Conservation Area - Red Trail,trail,peel region,..,..,..,..,on
20265,Albion Hills Conservation Area - Red Trail,trail,peel region,..,..,..,..,on
20266,Albion Hills Conservation Area - Red Trail,trail,peel region,..,..,..,..,on
20267,Albion Hills Conservation Area - Red Trail,trail,peel region,..,..,..,..,on
20268,Albion Hills Conservation Area - Red Trail,trail,peel region,..,..,..,..,on
20269,Albion Hills Conservation Area - Red Trail,trail,peel region,..,..,..,..,on
20270,Albion Hills Conservation Area - Red Trail,trail,peel region,..,..,..,..,on
20271,Albion Hills Conservation Area - Red Trail,trail,peel region,..,..,..,..,on
20272,Albion Hills Conservation Area - Red Trail,trail,peel region,..,..,..,..,on
20273,Albion Hills Conservation Area - Red Trail,trail,peel region,..,..,..,..,on
20274,Albion Hills Conservation Area - Red/Blue/Yellow Trails,trail,peel region,..,..,..,..,on
20275,Albion Hills Conservation Area - S - Ridge Run,trail,peel region,..,..,..,..,on
20276,Albion Hills Conservation Area - T - In Speed We Trust,trail,peel region,..,..,..,..,on
20277,Albion Hills Conservation Area - U - Speed-O-Rama,trail,peel region,..,..,..,..,on
20278,Albion Hills Conservation Area - V - Summer Solstice,trail,peel region,..,..,..,..,on
20279,Albion Hills Conservation Area - Yellow Trail,trail,peel region,..,..,..,..,on
20280,Albion Hills Conservation Area - Yellow Trail,trail,peel region,..,..,..,..,on
20281,Albion Hills Conservation Area - Yellow Trail,trail,peel region,..,..,..,..,on
20282,Albion Hills Conservation Area - Yellow Trail,trail,peel region,..,..,..,..,on
20283,Albion Hills Conservation Area - Yellow/Blue Trails,trail,peel region,..,..,..,..,on
20284,Albion Hills Conservation Area - Yellow/Blue Trails,trail,peel region,..,..,..,..,on
22286,Bobolink Trail,trail,peel region,..,..,..,..,on
22793,Bruce Trail,trail,peel region,..,..,..,..,on
22794,Bruce Trail,trail,peel region,..,..,..,..,on
22795,Bruce Trail,trail,peel region,..,..,..,..,on
22796,Bruce Trail,trail,peel region,..,..,..,..,on
22797,Bruce Trail,trail,peel region,..,..,..,..,on
22798,Bruce Trail,trail,peel region,..,..,..,..,on
22799,Bruce Trail,trail,peel region,..,..,..,..,on
22800,Bruce Trail,trail,peel region,..,..,..,..,on
22801,Bruce Trail,trail,peel region,..,..,..,..,on
22802,Bruce Trail,trail,peel region,..,..,..,..,on
22803,Bruce Trail,trail,peel region,..,..,..,..,on
22804,Bruce Trail,trail,peel region,..,..,..,..,on
22805,Bruce Trail,trail,peel region,..,..,..,..,on
22806,Bruce Trail,trail,peel region,..,..,..,..,on
22807,Bruce Trail,trail,peel region,..,..,..,..,on
22808,Bruce Trail,trail,peel region,..,..,..,..,on
22811,Bruce Trail,trail,peel region,..,..,..,..,on
22812,Bruce Trail,trail,peel region,..,..,..,..,on
22813,Bruce Trail,trail,peel region,..,..,..,..,on
22814,Bruce Trail,trail,peel region,..,..,..,..,on
22815,Bruce Trail,trail,peel region,..,..,..,..,on
22816,Bruce Trail,trail,peel region,..,..,..,..,on
22817,Bruce Trail,trail,peel region,..,..,..,..,on
22818,Bruce Trail,trail,peel region,..,..,..,..,on
22819,Bruce Trail,trail,peel region,..,..,..,..,on
22820,Bruce Trail,trail,peel region,..,..,..,..,on
