Index,Facility_Name,ODRSF_facility_type,Provider,Street_No,Street_Name,Postal_Code,City,Prov_Terr
2320,Ice Rink Natural Serson Park,rink,mississauga,1100,pelham,..,mississauga,on
2321,Ice Rink Natural Sherwood Green,rink,mississauga,1864,deers wold,..,mississauga,on
2322,Ice Rink Natural Silverthorn Park,rink,mississauga,3377,cawthra,..,mississauga,on
2323,Ice Rink Natural Spruce Park,rink,mississauga,280,angelene,..,mississauga,on
2324,Ice Rink Natural Staghorn Woods,rink,mississauga,855,ceremonial,..,mississauga,on
2325,Ice Rink Natural Syed Jallaluddin Park,rink,mississauga,490,mississauga valley,..,mississauga,on
2326,Ice Rink Natural Thornlodge Park,rink,mississauga,2405,homelands,..,mississauga,on
2327,Ice Rink Natural Trapper's Green,rink,mississauga,2390,folkway,..,mississauga,on
2328,Ice Rink Natural Vanessa Park,rink,mississauga,1365,wateska,..,mississauga,on
2329,Ice Rink Natural Vista Heights Park,rink,mississauga,5779,turney,..,mississauga,on
2330,Ice Rink Natural Westacres Park,rink,mississauga,2166,westfield,..,mississauga,on
2331,Ice Rink Natural Whiteoaks Park,rink,mississauga,1450,truscott,..,mississauga,on
2332,Ice Rink Natural Windwood Park,rink,mississauga,2795,windwood,..,mississauga,on
2333,Ice Rink Natural Woodgreen,rink,mississauga,3325,twilight,..,mississauga,on
2334,Ice Rink Natural Woodland Chase,rink,mississauga,2042,kempton park,..,mississauga,on
2335,Iceland Mississauga,arena,mississauga,705,matheson,..,mississauga,on
2362,Iroquois Flats,playground,peel region,520,fergo,L5B 2J3,mississauga,on
2382,J.C. Saddington Park,playground,peel region,53,lake,..,mississauga,on
2390,Jack Darling Memorial Park,playground,peel region,1180,lakeshore,..,mississauga,on
2391,Jack Darling Memorial Park,splash pad,peel region,1180,lakeshore,..,mississauga,on
2416,Jaycee Park,playground,peel region,1520,gulleden,..,mississauga,on
2443,Jim Murray Community Park,playground,peel region,5225,tenth,..,mississauga,on
2456,John C. Pallett Park,playground,peel region,4550,glen erin,..,mississauga,on
2457,John C. Price Park,playground,peel region,3077,littlejohn,..,mississauga,on
2458,John Cleary Park,playground,peel region,450,webb,..,mississauga,on
2459,John Clipperton Park,playground,peel region,170,church,L5M 2M3,mississauga,on
2477,Johnny Bower Park,playground,peel region,3919,parkgate,L5N 7B4,mississauga,on
2542,Kennedy Park,playground,peel region,3505,golden orchard,L4Y 3H7,mississauga,on
2545,Kenollie,playground,peel region,1376,glenwood,L5G 2X1,mississauga,on
2581,King's Masting Park,playground,peel region,3389,martin's pine,..,mississauga,on
2582,Kingsbridge Common,playground,peel region,4611,regents,..,mississauga,on
2642,Knotty Pine Park,playground,peel region,835,knotty,..,mississauga,on
2644,Kogaydiwin Park,playground,peel region,1585,finfar,..,mississauga,on
2664,Lake Aquitaine Park,playground,peel region,2750,aquitaine,..,mississauga,on
2671,Lake Wabukayne,playground,peel region,2610,inlake,L5N 2A7,mississauga,on
2673,Lakefront Promenade,playground,peel region,800,lakefront,L5E 3G9,mississauga,on
2674,Lakefront Promenade,splash pad,peel region,800,lakefront,L5E 3G9,mississauga,on
2675,Lakefront Promenade Marina,marina,brampton,135,lakefront,L5E 1A1,mississauga,on
2681,Lakeside Park,playground,peel region,2268,lakeshore,..,mississauga,on
2722,Laughton Heights,playground,peel region,1519,sherway,L4X 1C5,mississauga,on
2771,Lewis Bradley Outdoor Pool,pool,brampton,745,inverhouse,L5J 4B5,mississauga,on
2772,Lewis Bradley Park,playground,peel region,1901,orr,..,mississauga,on
2798,Lions Club Of Credit Valley Outdoor Pool,pool,brampton,20,rosewood,L5G 3H9,mississauga,on
2808,Lisgar Fields,playground,peel region,3805,doug leavens,..,mississauga,on
2809,Lisgar Green,playground,peel region,6140,osprey,L5N 5W5,mississauga,on
2963,Lyndwood Park,playground,peel region,495,atwater,L5G 2A4,mississauga,on
2982,Madill Common,playground,peel region,525,huntington ridge,..,mississauga,on
2983,Madill Common,splash pad,peel region,525,huntington ridge,..,mississauga,on
2988,Magrath Park,playground,peel region,4206,melia,L5C 4J5,mississauga,on
