Index,Facility_Name,ODRSF_facility_type,Provider,Street_No,Street_Name,Postal_Code,City,Prov_Terr
6834,11V11 Hawkins Glen,sports field,mississauga,2970,rymal,..,mississauga,on
6835,11V11 Heritage Hills Park,sports field,mississauga,315,huntington,..,mississauga,on
6836,11V11 Horseshoe Park,sports field,mississauga,7150,saint barbara,..,mississauga,on
6837,11V11 Jim Murray Community Park,sports field,mississauga,5225,tenth line,..,mississauga,on
6838,11V11 John C. Pallett Park,sports field,mississauga,4550,glen,..,mississauga,on
6839,11V11 Kingsbridge Common,sports field,mississauga,4611,regents,..,mississauga,on
6840,11V11 Kogaydiwin Park,sports field,mississauga,1585,finfar,..,mississauga,on
6841,11V11 Madill Common,sports field,mississauga,525,huntington,..,mississauga,on
6842,11V11 Major Trelawny Woods,sports field,mississauga,3500,trelawny,..,mississauga,on
6843,11V11 Major Unlit E Derry Side Green,sports field,mississauga,7889,tranmere,..,mississauga,on
6844,11V11 Major Unlit N Lisgar Fields,sports field,mississauga,3805,doug leavens,..,mississauga,on
6845,11V11 Major Unlit S Lisgar Fields,sports field,mississauga,3805,doug leavens,..,mississauga,on
6846,11V11 Major Unlit W Derry Side Green,sports field,mississauga,7889,tranmere,..,mississauga,on
6847,11V11 Manor Hill,sports field,mississauga,2225,hill,..,mississauga,on
6848,11V11 Marvin Heights,sports field,mississauga,7363,redstone,..,mississauga,on
6849,11V11 Meadow Park,sports field,mississauga,2203,truscott,..,mississauga,on
6850,11V11 Mississauga - Meadowvale Rotary Park,sports field,mississauga,3315,escada,..,mississauga,on
6851,11V11 Mississauga - Meadowvale Rotary Park,sports field,mississauga,3315,escada,..,mississauga,on
6852,11V11 Mississauga - Meadowvale Rotary Park,sports field,mississauga,3315,escada,..,mississauga,on
6853,11V11 N (Half Of A Multi Use Cricket) Petro Canada Park,sports field,mississauga,670,southdown,..,mississauga,on
6854,11V11 Ne Northwood Park,sports field,mississauga,3830,brandon gate,..,mississauga,on
6855,11V11 Neebin Park,sports field,mississauga,635,kaiser,..,mississauga,on
6856,11V11 North Marco Muzzo Senior Memorial Woods & Park,sports field,mississauga,5098,perennial,..,mississauga,on
6857,11V11 Quenippenon Meadows,sports field,mississauga,2625,erin,..,mississauga,on
6858,11V11 Rathwood District Park,sports field,mississauga,1095,rathburn,..,mississauga,on
6859,11V11 Sandalwood Park,sports field,mississauga,205,nahani,..,mississauga,on
6860,11V11 South Marco Muzzo Senior Memorial Woods & Park,sports field,mississauga,5098,perennial,..,mississauga,on
6861,11V11 Staghorn Woods,sports field,mississauga,855,ceremonial,..,mississauga,on
6862,11V11 Stonewood Park,sports field,mississauga,7348,sandhurst,..,mississauga,on
6863,11V11 Sw Northwood Park,sports field,mississauga,3830,brandon gate,..,mississauga,on
6864,11V11 Swinbourne Meadows,sports field,mississauga,1129,swinbourne,..,mississauga,on
6865,11V11 Tom Chater Memorial Park,sports field,mississauga,3195,the collegeway,..,mississauga,on
6866,11V11 W Erin Mills Athletic Fields,sports field,mississauga,4419,haydock park,..,mississauga,on
6867,11V11 W Sandford Farm,sports field,mississauga,845,white clover,..,mississauga,on
6868,11V11 Willowvale Fields,sports field,mississauga,1340,willowvale,..,mississauga,on
6869,11V11 Woodhurst Heights,sports field,mississauga,3475,ash row,..,mississauga,on
6870,11V11 Woodland Park,sports field,mississauga,3500,ellengale,..,mississauga,on
6904,7V7 - East Castlegreen Meadows,sports field,mississauga,2829,castlebridge,..,mississauga,on
6905,7V7 - North Aquinas Park,sports field,mississauga,3400,aquinas,..,mississauga,on
6906,7V7 1 E Century City,sports field,mississauga,933,focal,..,mississauga,on
6907,7V7 1 W Greenfield Park,sports field,mississauga,1165,mississauga valley,..,mississauga,on
6908,7V7 2 E Greenfield Park,sports field,mississauga,1165,mississauga valley,..,mississauga,on
6909,7V7 2 W Century City,sports field,mississauga,933,focal,..,mississauga,on
6910,7V7 Applewood Heights,sports field,mississauga,3119,constitution,..,mississauga,on
6911,7V7 Barondale Green,sports field,mississauga,150,barondale,..,mississauga,on
6912,7V7 Brookmede Park,sports field,mississauga,2254,council ring,..,mississauga,on
6913,7V7 Brown's Heights,sports field,mississauga,1600,bristol,..,mississauga,on
6914,7V7 Bruce Reynolds Park,sports field,mississauga,2173,springbank,..,mississauga,on
6915,7V7 Buttonbush Park,sports field,mississauga,7457,russian olive close,..,mississauga,on
