Index,Facility_Name,ODRSF_facility_type,Provider,Street_No,Street_Name,Postal_Code,City,Prov_Terr
170673,Lyndwood Park,park,mississauga,495,atwater,..,mississauga,on
170754,Madill Common,park,mississauga,525,huntington,..,mississauga,on
170770,Magrath Park,park,mississauga,4206,melia,..,mississauga,on
170825,Malton Greenway,park,mississauga,3555,etude,..,mississauga,on
170826,Malton Village Park,park,mississauga,39,beverley,..,mississauga,on
170845,Manor Hill,park,mississauga,2225,hill,..,mississauga,on
170868,Maple Grove,park,mississauga,7075,millcreek,..,mississauga,on
170919,Maplewood Park,park,mississauga,6835,glen,..,mississauga,on
170937,Marco Muzzo Senior Memorial Woods & Park,park,mississauga,5098,perennial,..,mississauga,on
170954,Marie Curtis Park,park,toronto,..,..,..,..,on
170969,Marina Park,park,mississauga,15,front,..,mississauga,on
171063,Marvin Heights,park,mississauga,7363,redstone,..,mississauga,on
171070,Mary Fix Park,park,mississauga,76,pinetree,..,mississauga,on
171140,Max Ward Park,park,mississauga,2380,matheson,..,mississauga,on
171148,May Meadow,park,mississauga,3925,mcdowell,..,mississauga,on
171193,Mccarron Park,park,mississauga,5420,longford,..,mississauga,on
171195,Mccaugherty Green,park,mississauga,1629,bristol,..,mississauga,on
171197,Mccauley Green,park,mississauga,2815,folkway,..,mississauga,on
171217,Mccracken Community Park,park,mississauga,5510,velda,..,mississauga,on
171265,Mckechnie Woods,park,mississauga,310,bristol,..,mississauga,on
171273,Mckenzie Park,park,mississauga,575,mississauga,..,mississauga,on
171305,Mcleod Park,park,mississauga,3860,candlelight,..,mississauga,on
171337,Meadow Glen,park,mississauga,535,rathburn,..,mississauga,on
171338,Meadow Green,park,mississauga,6595,falconer,..,mississauga,on
171340,Meadow Park,park,mississauga,2203,truscott,..,mississauga,on
171368,Meadowvale Conservation Area,park,mississauga,1081,old derry,..,mississauga,on
171369,Meadowvale Four Rinks Grounds,park,mississauga,2160,torquay,..,mississauga,on
171370,Meadowvale Hall Grounds,park,mississauga,6970,second line,..,mississauga,on
171371,Meadowvale Sports Park,park,mississauga,2255,meadowvale,..,mississauga,on
171373,Meadowvale Trail,park,mississauga,2833,aquitaine,..,mississauga,on
171374,Meadowvale Village Green,park,mississauga,985,old derry,..,mississauga,on
171377,Meadowwood Park,park,mississauga,484,apple,..,mississauga,on
171489,Middlebury Green,park,mississauga,5510,middlebury,..,mississauga,on
171506,Mighty Oak Park,park,mississauga,6015,douguy,..,mississauga,on
171570,Millgrove Trail,park,mississauga,6030,edenwood,..,mississauga,on
171595,Millstone Park,park,mississauga,7010,old mill,..,mississauga,on
171601,Millway Gate Park,park,mississauga,2136,millway,..,mississauga,on
171651,Missinihe Park,park,mississauga,7225,waldorf,..,mississauga,on
171662,Mississauga - Meadowvale Rotary Park,park,mississauga,3302,tacc,..,mississauga,on
171663,Mississauga Celebration Square (North),park,mississauga,300,city,..,mississauga,on
171664,Mississauga Celebration Square (South),park,mississauga,301,burnhamthorpe,..,mississauga,on
171665,Mississauga Valley,park,mississauga,1275,mississauga,..,mississauga,on
171728,Mohawk Park,park,mississauga,2409,delkus,..,mississauga,on
171881,Mount Charles Park,park,mississauga,1265,cardiff,..,mississauga,on
171965,Mullet Creek Park,park,mississauga,6720,century,..,mississauga,on
171966,Mullet's Walk,park,mississauga,5469,mcfarren,..,mississauga,on
171969,Munden Park,park,mississauga,499,service,..,mississauga,on
172067,Neebin Park,park,mississauga,635,kaiser,..,mississauga,on
172150,Ninth Line Sports Park,park,mississauga,3115,ninth line,..,mississauga,on
