Index,Facility_Name,ODRSF_facility_type,Provider,Street_No,Street_Name,Postal_Code,City,Prov_Terr
11910,Highland View Park,sports field,peel region,5742,heatherleigh,..,mississauga,on
11915,Hillcrest,sports field,peel region,1530,springwell,L5J 3H6,mississauga,on
11916,Hillcrest,sports field,peel region,1530,springwell,L5J 3H6,mississauga,on
11917,Hillcrest,sports field,peel region,1530,springwell,L5J 3H6,mississauga,on
11918,Hillcrest,sports field,peel region,1530,springwell,L5J 3H6,mississauga,on
11929,Hillside Park,sports field,peel region,1311,kelly,L5J 3V1,mississauga,on
11947,Hockeystick Man,rink,mississauga,5155,spectrum,L4W 5A1,..,on
11983,Holy Name Of Mary College School,sports field,peel region,2241,mississauga,L5H 2K8,mississauga,on
11988,Homelands Sr.,sports field,peel region,2420,homelands,L5K 1H2,mississauga,on
11989,Homelands Sr.,sports field,peel region,2420,homelands,L5K 1H2,mississauga,on
11990,Homelands Sr.,sports field,peel region,2420,homelands,L5K 1H2,mississauga,on
12004,Horizon Jeunesse,sports field,peel region,1445,lewisham,L5J 3R2,mississauga,on
12024,Horseshoe Park,sports field,peel region,7150,saint-barbara,..,mississauga,on
12077,Hunter's Green,sports field,peel region,2780,gananoque,..,mississauga,on
12078,Hunter's Green,sports field,peel region,2780,gananoque,..,mississauga,on
12079,Hunter's Green,sports field,peel region,2780,gananoque,..,mississauga,on
12080,Huntington Ridge,sports field,peel region,345,huntington ridge,L5R 1R6,mississauga,on
12096,Huron Heights,sports field,peel region,4500,central,..,mississauga,on
12097,Huron Heights,sports field,peel region,4500,central,..,mississauga,on
12098,Huron Heights,sports field,peel region,4500,central,..,mississauga,on
12101,Huron Park,sports field,peel region,830,paisley,L5C 3P5,mississauga,on
12102,Huron Park,sports field,peel region,830,paisley,L5C 3P5,mississauga,on
12103,Huron Park,sports field,peel region,830,paisley,L5C 3P5,mississauga,on
12104,Huron Park,sports field,peel region,830,paisley,L5C 3P5,mississauga,on
12105,Huron Park,sports field,peel region,830,paisley,L5C 3P5,mississauga,on
12106,Huron Park,sports field,peel region,830,paisley,L5C 3P5,mississauga,on
12107,Huron Park,sports field,peel region,830,paisley,L5C 3P5,mississauga,on
12140,Iona,sports field,peel region,2170,sheridan,L5J 2M4,mississauga,on
12144,Iroquois Flats,sports field,peel region,520,fergo,L5B 2J3,mississauga,on
12145,Iroquois Flats,sports field,peel region,520,fergo,L5B 2J3,mississauga,on
12176,Jack Darling Memorial Park,sports field,peel region,1180,lakeshore,..,mississauga,on
12213,Janet I. Mcdougald,sports field,peel region,498,hartsdale,L5G 2G6,mississauga,on
12248,Jim Murray Community Park,sports field,peel region,5225,tenth,..,mississauga,on
12264,John C. Pallett Park,sports field,peel region,4550,glen erin,..,mississauga,on
12265,John C. Pallett Park,rink,peel region,4550,glen erin,..,mississauga,on
12266,John C. Pallett Park,sports field,peel region,4550,glen erin,..,mississauga,on
12267,John Cabot,sports field,peel region,795,rathburn,L4W 3L6,mississauga,on
12268,John Cleary Park,sports field,peel region,450,webb,..,mississauga,on
12269,John Cleary Park,sports field,peel region,450,webb,..,mississauga,on
12272,John Fraser,sports field,peel region,2665,erin centre,L5M 5H6,mississauga,on
12273,John Fraser,sports field,peel region,2665,erin centre,L5M 5H6,mississauga,on
12329,Just Shoot It Hockey Instruction Centre,rink,mississauga,600,orwell,L5A 3R9,..,on
12404,Kennedy Park,sports field,peel region,3505,golden orchard,L4Y 3H7,mississauga,on
12405,Kennedy Park,sports field,peel region,3505,golden orchard,L4Y 3H7,mississauga,on
12406,Kennedy Park,sports field,peel region,3505,golden orchard,L4Y 3H7,mississauga,on
12414,Kenollie,sports field,peel region,1376,glenwood,L5G 2X1,mississauga,on
12459,Kindree,sports field,peel region,7370,terragar,L5N 7L8,mississauga,on
12467,King's Masting,sports field,peel region,3351,king's,L5L 1G5,mississauga,on
12468,King's Masting,sports field,peel region,3351,king's,L5L 1G5,mississauga,on
