Index,Facility_Name,ODRSF_facility_type,Provider,Street_No,Street_Name,Postal_Code,City,Prov_Terr
8706,Basketball Hoop (West) Dellwood Park,sports field,mississauga,598,arbor,..,mississauga,on
8707,Basketball Hoop (West) Spruce Park,sports field,mississauga,280,angelene,..,mississauga,on
8708,Basketball Hoop Century City,sports field,mississauga,933,focal,..,mississauga,on
8709,Basketball Hoop N Union Park,sports field,mississauga,6627,tenth line,..,mississauga,on
8710,Basketball Hoop North Churchill Meadows Community Common,sports field,mississauga,3370,mcdowell,..,mississauga,on
8711,Basketball Hoop North Clarkson Community Centre & Library Grounds,sports field,mississauga,2475,truscott,..,mississauga,on
8712,Basketball Hoop North Port Credit Memorial Park,sports field,mississauga,32,stavebank,..,mississauga,on
8713,Basketball Hoop S Union Park,sports field,mississauga,6627,tenth line,..,mississauga,on
8714,Basketball Hoop Sherwood Green,sports field,mississauga,1864,deers wold,..,mississauga,on
8715,Basketball Hoop South Churchill Meadows Community Common,sports field,mississauga,3370,mcdowell,..,mississauga,on
8716,Basketball Hoop South Clarkson Community Centre & Library Grounds,sports field,mississauga,2475,truscott,..,mississauga,on
8717,Basketball Hoop South Port Credit Memorial Park,sports field,mississauga,32,stavebank,..,mississauga,on
8718,Basketball Hoop Tillsdown Park,sports field,mississauga,1620,sir montys,..,mississauga,on
8839,Bauer Hockey Ltd.,rink,mississauga,6925,century,L5N 0,..,on
8903,Beechwood Park,sports field,peel region,4139,ottewell,L4W 4A4,mississauga,on
8912,Bell Harbour Park,sports field,peel region,5820,bell harbour,..,mississauga,on
8913,Bell Harbour Park,sports field,peel region,5820,bell harbour,..,mississauga,on
8917,Bella Vista,sports field,peel region,26,hanson,..,mississauga,on
8978,Bidwell Trail Common,sports field,peel region,6075,bidwell,..,mississauga,on
9002,Birchwood Park,sports field,peel region,1547,lakeshore,..,mississauga,on
9003,Birchwood Park,sports field,peel region,1547,lakeshore,..,mississauga,on
9004,Birchwood Park,sports field,peel region,1547,lakeshore,..,mississauga,on
9005,Birchwood Park,sports field,peel region,1547,lakeshore,..,mississauga,on
9006,Birchwood Park,sports field,peel region,1547,lakeshore,..,mississauga,on
9007,Birchwood Park,sports field,peel region,1547,lakeshore,..,mississauga,on
9008,Birchwood Park,sports field,peel region,1547,lakeshore,..,mississauga,on
9020,Bishop Scalabrini,sports field,peel region,225,central,L5B 3J5,mississauga,on
9021,Bishop Scalabrini,sports field,peel region,225,central,L5B 3J5,mississauga,on
9037,Blessed John Xxiii,sports field,peel region,915,mcbride,L5C 1M1,mississauga,on
9038,Blessed John Xxiii,sports field,peel region,915,mcbride,L5C 1M1,mississauga,on
9040,Blessed Mother Teresa,sports field,peel region,1120,runningbrook,L4Y 2T2,mississauga,on
9048,Bloor Athletic Field,sports field,peel region,830,lexicon,L4Y 2P8,mississauga,on
9049,Bloor Athletic Field,sports field,peel region,830,lexicon,L4Y 2P8,mississauga,on
9089,Bocce Court Lit - Centre Huron Park,sports field,mississauga,830,paisley,..,mississauga,on
9090,Bocce Court Lit - East Central Paul Coffey Park,sports field,mississauga,3430,derry,..,mississauga,on
9091,Bocce Court Lit - East Centre Mississauga Valley,sports field,mississauga,1275,mississauga valley,..,mississauga,on
9092,Bocce Court Lit - East Huron Park,sports field,mississauga,830,paisley,..,mississauga,on
9093,Bocce Court Lit - East Mississauga Valley,sports field,mississauga,1275,mississauga valley,..,mississauga,on
9094,Bocce Court Lit - East Paul Coffey Park,sports field,mississauga,3430,derry,..,mississauga,on
9095,Bocce Court Lit - West Central Paul Coffey Park,sports field,mississauga,3430,derry,..,mississauga,on
9096,Bocce Court Lit - West Centre Mississauga Valley,sports field,mississauga,1275,mississauga valley,..,mississauga,on
9097,Bocce Court Lit - West Huron Park,sports field,mississauga,830,paisley,..,mississauga,on
9098,Bocce Court Lit - West Mississauga Valley,sports field,mississauga,1275,mississauga valley,..,mississauga,on
9099,Bocce Court Lit - West Paul Coffey Park,sports field,mississauga,3430,derry,..,mississauga,on
9100,Bocce Court Lit East Rayfield Park,sports field,mississauga,530,rathburn,..,mississauga,on
9101,Bocce Court Lit East Woodington Green,sports field,mississauga,4175,woodington,..,mississauga,on
9102,Bocce Court Lit North Rathwood District Park,sports field,mississauga,1095,rathburn,..,mississauga,on
9103,Bocce Court Lit South Rathwood District Park,sports field,mississauga,1095,rathburn,..,mississauga,on
9104,Bocce Court Lit West Rayfield Park,sports field,mississauga,530,rathburn,..,mississauga,on
