Index,Facility_Name,ODRSF_facility_type,Provider,Street_No,Street_Name,Postal_Code,City,Prov_Terr
6968,9V9 2 E Bruce Reynolds Park,sports field,mississauga,2173,springbank,..,mississauga,on
6969,9V9 2 N Crawford Green,sports field,mississauga,4565,glen,..,mississauga,on
6970,9V9 Albert Mcbride Park,sports field,mississauga,..,..,..,..,on
6971,9V9 Arbour Green,sports field,mississauga,4145,treetop,..,mississauga,on
6972,9V9 Aspen Ridge,sports field,mississauga,7290,aspen,..,mississauga,on
6973,9V9 Bancroft Park,sports field,mississauga,955,bancroft,..,mississauga,on
6974,9V9 E Middlebury Green,sports field,mississauga,5510,middlebury,..,mississauga,on
6975,9V9 East Tobias Mason Park,sports field,mississauga,3274,cactus,..,mississauga,on
6976,9V9 Forest Park,sports field,mississauga,6810,forest park,..,mississauga,on
6977,9V9 Hunter's Green,sports field,mississauga,2780,gananoque,..,mississauga,on
6978,9V9 John C. Pallett Park,sports field,mississauga,4550,glen,..,mississauga,on
6979,9V9 Kennedy Park,sports field,mississauga,3505,golden,..,mississauga,on
6980,9V9 Knotty Pine Park,sports field,mississauga,835,knotty,..,mississauga,on
6981,9V9 Mckenzie Park,sports field,mississauga,575,mississauga valley,..,mississauga,on
6982,9V9 N Garthwood Park,sports field,mississauga,3170,garthwood,..,mississauga,on
6983,9V9 Novo Star Park,sports field,mississauga,640,novo star,..,mississauga,on
6984,9V9 Old Ridge Park,sports field,mississauga,6965,historic,..,mississauga,on
6985,9V9 Rockwood Glen,sports field,mississauga,4247,hartfield,..,mississauga,on
6986,9V9 S Garthwood Park,sports field,mississauga,3170,garthwood,..,mississauga,on
6987,9V9 Samuel Common,sports field,mississauga,6893,golden,..,mississauga,on
6988,9V9 Scott's Brae,sports field,mississauga,855,brass winds,..,mississauga,on
6989,9V9 Settler's Green,sports field,mississauga,6440,glen,..,mississauga,on
6990,9V9 Sw Northwood Park,sports field,mississauga,3830,brandon gate,..,mississauga,on
6991,9V9 Tobias Mason Park,sports field,mississauga,3274,cactus,..,mississauga,on
6992,9V9 Totoredaca Park,sports field,mississauga,2715,meadowvale,..,mississauga,on
6993,9V9 Totoredaca Park,sports field,mississauga,2715,meadowvale,..,mississauga,on
6994,9V9 Unlit Gooderham Park,sports field,mississauga,6938,gooderham,..,mississauga,on
6995,9V9 Woodland Chase,sports field,mississauga,2042,kempton park,..,mississauga,on
7001,A.E. Crookes Park,sports field,peel region,140,lakefront,L5E 3G9,mississauga,on
7151,All Saints,sports field,peel region,4105,colonial,L5L 400000000,mississauga,on
7152,All Saints,sports field,peel region,4105,colonial,L5L 400000000,mississauga,on
7155,Allan A Martin Sr.,sports field,peel region,1390,ogden,L5E 2H8,mississauga,on
7156,Allan A Martin Sr.,sports field,peel region,1390,ogden,L5E 2H8,mississauga,on
7166,Allison's Park,sports field,peel region,575,willowbank,..,mississauga,on
7167,Allison's Park,sports field,peel region,575,willowbank,..,mississauga,on
7189,Anaka Park,sports field,peel region,7666,anaka,L4T 3H7,mississauga,on
7229,Applewood Heights,sports field,peel region,3119,constitution,L4Y 2Z1,mississauga,on
7230,Applewood Heights,sports field,peel region,3119,constitution,L4Y 2Z1,mississauga,on
7231,Applewood Heights,sports field,peel region,945,bloor,L4Y 2M8,mississauga,on
7232,Applewood North Park,sports field,peel region,1280,melton,L4Y 1L5,mississauga,on
7234,Aquinas Park,sports field,peel region,3400,aquinas,L5M 7L2,mississauga,on
7235,Aquinas Park,rink,peel region,3400,aquinas,L5M 7L2,mississauga,on
7252,Arbour Green,sports field,peel region,4145,treetop,..,mississauga,on
7253,Arbour Green,sports field,peel region,4145,treetop,..,mississauga,on
7294,Artesian Drive,sports field,peel region,3325,artesian,L5M 7J8,mississauga,on
7300,Ashgate Park,sports field,peel region,846,rathburn,..,mississauga,on
7301,Ashgrove,sports field,peel region,3215,thorncrest,L5L 4K7,mississauga,on
7302,Ashgrove,sports field,peel region,3215,thorncrest,L5L 4K7,mississauga,on
7318,Aspen Ridge,sports field,peel region,7290,aspen,L5N 6P3,mississauga,on
