Index,Facility_Name,ODRSF_facility_type,Provider,Street_No,Street_Name,Postal_Code,City,Prov_Terr
164271,Caruso Park,park,brampton,..,..,..,..,on
164306,Castlehill Park,park,brampton,..,..,..,..,on
164342,Cavendish Park,park,brampton,..,..,..,..,on
164514,Century Parkette,park,brampton,..,..,..,..,on
164539,Chamney Court Parkette,park,brampton,..,..,..,..,on
164595,Charles F Watson And Family Gardens,park,brampton,..,..,..,..,on
164627,Charters Road Park,park,brampton,..,..,..,..,on
164678,Cherrytree Park,park,brampton,..,..,..,..,on
164686,Cheval Parkette,park,brampton,..,..,..,..,on
164708,Chinguacousy Lions Club Water Tower Park,park,brampton,..,..,..,..,on
164735,Christie Park,park,brampton,..,..,..,..,on
164745,Chudleigh Park,park,brampton,..,..,..,..,on
164821,Clark Park,park,brampton,..,..,..,..,on
164846,Claypine Park,park,brampton,..,..,..,..,on
164892,Clover Bloom Parkette,park,brampton,..,..,..,..,on
164926,Cobblehill Park,park,brampton,..,..,..,..,on
164990,Colt Parkette,park,brampton,..,..,..,..,on
165039,Conestoga Parkette,park,brampton,..,..,..,..,on
165247,Courtleigh Parkette,park,brampton,..,..,..,..,on
165294,Cranbrooke Court,park,brampton,..,..,..,..,on
165329,Crenshaw Parkette,park,brampton,..,..,..,..,on
165347,Cresthaven Park,park,brampton,..,..,..,..,on
165412,Crown Victoria Parkette,park,brampton,..,..,..,..,on
165420,Crystalview Park,park,brampton,..,..,..,..,on
165442,Cunnington Parkette,park,brampton,..,..,..,..,on
165446,Curtis Park,park,brampton,..,..,..,..,on
165451,Cutters Parkette,park,brampton,..,..,..,..,on
165463,Dafoe Parkette,park,brampton,..,..,..,..,on
165500,Damatta Park,park,brampton,..,..,..,..,on
165511,Daniel Boyle Park,park,brampton,..,..,..,..,on
165527,Darwin Parkette,park,brampton,..,..,..,..,on
165536,Davenport Park,park,brampton,..,..,..,..,on
165593,Dearbourne Park,park,brampton,..,..,..,..,on
165704,Desert Garden Park,park,brampton,..,..,..,..,on
165735,Dexfield Park,park,brampton,..,..,..,..,on
165771,Dixie Parkette,park,brampton,..,..,..,..,on
165822,Don Minaker Park,park,brampton,..,..,..,..,on
165846,Donn Reynolds Parkette,park,brampton,..,..,..,..,on
165850,Donnelly East Park,park,brampton,..,..,..,..,on
165851,Donnelly Park,park,brampton,..,..,..,..,on
165860,Donwoods Parkette,park,brampton,..,..,..,..,on
165872,Dopp Park,park,brampton,..,..,..,..,on
165875,Dorchester Park,park,brampton,..,..,..,..,on
165887,Dorset Park,park,brampton,..,..,..,..,on
165974,Driftwood Parkette,park,brampton,..,..,..,..,on
166017,Dumfries Parkette,park,brampton,..,..,..,..,on
166075,Durham Park,park,brampton,..,..,..,..,on
166108,Earl Cook Parkette,park,brampton,..,..,..,..,on
166118,Earnie Mitchell Park,park,brampton,..,..,..,..,on
