Index,Facility_Name,ODRSF_facility_type,Provider,Street_No,Street_Name,Postal_Code,City,Prov_Terr
10709,Eastbourne Drive,sports field,peel region,702,balmoral,L6T 1X3,brampton,on
10805,Eldorado,sports field,peel region,25,wardsville,L6Y 0T7,brampton,on
10862,English Street Park,sports field,peel region,..,english,..,brampton,on
10893,Esker Lake,sports field,peel region,10420,heart lake,L6Z 4S2,brampton,on
10894,Esker Lake,sports field,peel region,10420,heart lake,L6Z 4S2,brampton,on
10938,Fairlawn Park,sports field,peel region,..,mistymorning,..,brampton,on
10939,Fairlawn Park,rink,peel region,..,mistymorning,..,brampton,on
10962,Fallen Oak Park,sports field,peel region,..,..,..,brampton,on
10969,Fallingdale,sports field,peel region,510,clark,L6T 20000,brampton,on
10970,Fallingdale Park,sports field,peel region,..,..,..,brampton,on
10971,Fallingdale Park,sports field,peel region,..,..,..,brampton,on
10981,Father Clair Tipping,sports field,peel region,25,mountainberry,L6R 1J3,brampton,on
10984,Father Francis Mcspiritt,sports field,peel region,55,lexington,L6P 2B1,brampton,on
11008,Fernforest,sports field,peel region,275,fernforest,L6R 1L9,brampton,on
11068,Fletcher's Creek Sr.,sports field,peel region,92,malta,L6Y 4C8,brampton,on
11069,Fletcher's Green Community Park,sports field,peel region,..,mclaughlin,..,brampton,on
11070,Fletcher's Green Community Park,sports field,peel region,..,mclaughlin,..,brampton,on
11071,Fletcher's Meadow,sports field,peel region,10750,chinguacousy,L7A 2Z7,brampton,on
11072,Fletcher's Meadow,sports field,peel region,10750,chinguacousy,L7A 2Z7,brampton,on
11078,Flower City Community Campus,sports field,peel region,..,mclaughlin,..,brampton,on
11079,Flower City Community Campus,rink,peel region,..,mclaughlin,..,brampton,on
11080,Flower City Community Campus,sports field,peel region,..,mclaughlin,..,brampton,on
11081,Flower City Community Campus,sports field,peel region,..,mclaughlin,..,brampton,on
11082,Flower City Community Campus,sports field,peel region,..,mclaughlin,..,brampton,on
11083,Flower City Community Campus,sports field,peel region,..,mclaughlin,..,brampton,on
11084,Flower City Community Campus,sports field,peel region,..,mclaughlin,..,brampton,on
11085,Flower City Community Campus,sports field,peel region,..,mclaughlin,..,brampton,on
11086,Flower City Community Campus,sports field,peel region,..,mclaughlin,..,brampton,on
11087,Flower City Community Campus,sports field,peel region,..,mclaughlin,..,brampton,on
11090,Folkstone,sports field,peel region,104,folkstone,L6T 3M5,brampton,on
11091,Folkstone,sports field,peel region,104,folkstone,L6T 3M5,brampton,on
11244,Fred Kee Park,sports field,peel region,..,royal,..,brampton,on
11245,Fred Kee Park,sports field,peel region,..,royal,..,brampton,on
11246,Fred Kee Park,sports field,peel region,..,royal,..,brampton,on
11247,Fred Kline Park,sports field,peel region,9445,mclaughlin,..,brampton,on
11248,Fred Kline Park,sports field,peel region,9445,mclaughlin,..,brampton,on
11249,Fred Kline Park,sports field,peel region,9445,mclaughlin,..,brampton,on
11250,Fred Kline Park,sports field,peel region,9445,mclaughlin,..,brampton,on
11251,Fred Kline Park,sports field,peel region,9445,mclaughlin,..,brampton,on
11318,Gatesgill Park,sports field,peel region,..,gatesgill,..,brampton,on
11368,Georges Vanier,sports field,peel region,28,finchgate,L6T 3H9,brampton,on
11369,Georges Vanier,sports field,peel region,28,finchgate,L6T 3H9,brampton,on
11429,Glendale,sports field,peel region,35,sunset,L6X 1X1,brampton,on
11430,Glendale,sports field,peel region,35,sunset,L6X 1X1,brampton,on
11469,Goldcrest,sports field,peel region,24,goldcrest,L6S 1G3,brampton,on
11470,Goldcrest,sports field,peel region,24,goldcrest,L6S 1G3,brampton,on
11471,Goldcrest,sports field,peel region,24,goldcrest,L6S 1G3,brampton,on
11472,Goldcrest,sports field,peel region,24,goldcrest,L6S 1G3,brampton,on
11491,Good Shepherd,sports field,peel region,28,red river,L6R 2H9,brampton,on
