Index,Facility_Name,ODRSF_facility_type,Provider,Street_No,Street_Name,Postal_Code,City,Prov_Terr
26705,Etobicoke Creek Recreational Trail,trail,peel region,..,..,..,..,on
26707,Etobicoke Creek Recreational Trail,trail,peel region,..,..,..,..,on
28076,Glassford Trail,trail,peel region,..,..,..,..,on
28609,Green Glade Trail,trail,peel region,..,..,..,..,on
30805,Jan's Trail,trail,peel region,..,..,..,..,on
30806,Jan's Trail,trail,peel region,..,..,..,..,on
30807,Jan's Trail,trail,peel region,..,..,..,..,on
30808,Jan's Trail,trail,peel region,..,..,..,..,on
30809,Jan's Trail,trail,peel region,..,..,..,..,on
30810,Jan's Trail,trail,peel region,..,..,..,..,on
30811,Jan's Trail,trail,peel region,..,..,..,..,on
30812,Jan's Trail,trail,peel region,..,..,..,..,on
34825,Knoll Trail,trail,peel region,..,..,..,..,on
34912,Lake Aquitaine Trail,trail,peel region,..,..,..,..,on
34913,Lake Aquitaine Trail,trail,peel region,..,..,..,..,on
34914,Lake Aquitaine Trail,trail,peel region,..,..,..,..,on
34915,Lake Aquitaine Trail,trail,peel region,..,..,..,..,on
34916,Lake Aquitaine Trail,trail,peel region,..,..,..,..,on
34917,Lake Aquitaine Trail,trail,peel region,..,..,..,..,on
34918,Lake Aquitaine Trail,trail,peel region,..,..,..,..,on
34919,Lake Aquitaine Trail,trail,peel region,..,..,..,..,on
34920,Lake Aquitaine Trail,trail,peel region,..,..,..,..,on
34921,Lake Aquitaine Trail,trail,peel region,..,..,..,..,on
34922,Lake Aquitaine Trail,trail,peel region,..,..,..,..,on
34923,Lake Aquitaine Trail,trail,peel region,..,..,..,..,on
34924,Lake Aquitaine Trail,trail,peel region,..,..,..,..,on
34925,Lake Aquitaine Trail,trail,peel region,..,..,..,..,on
34926,Lake Aquitaine Trail,trail,peel region,..,..,..,..,on
34927,Lake Aquitaine Trail,trail,peel region,..,..,..,..,on
34928,Lake Aquitaine Trail,trail,peel region,..,..,..,..,on
34929,Lake Aquitaine Trail,trail,peel region,..,..,..,..,on
34930,Lake Aquitaine Trail,trail,peel region,..,..,..,..,on
34949,Lake Wabukayne Trail,trail,peel region,..,..,..,..,on
34950,Lake Wabukayne Trail,trail,peel region,..,..,..,..,on
34951,Lake Wabukayne Trail,trail,peel region,..,..,..,..,on
34952,Lake Wabukayne Trail,trail,peel region,..,..,..,..,on
34953,Lake Wabukayne Trail,trail,peel region,..,..,..,..,on
34954,Lake Wabukayne Trail,trail,peel region,..,..,..,..,on
34955,Lake Wabukayne Trail,trail,peel region,..,..,..,..,on
34956,Lake Wabukayne Trail,trail,peel region,..,..,..,..,on
34957,Lake Wabukayne Trail,trail,peel region,..,..,..,..,on
34958,Lake Wabukayne Trail,trail,peel region,..,..,..,..,on
34959,Lake Wabukayne Trail,trail,peel region,..,..,..,..,on
34960,Lake Wabukayne Trail,trail,peel region,..,..,..,..,on
34961,Lake Wabukayne Trail,trail,peel region,..,..,..,..,on
34962,Lake Wabukayne Trail,trail,peel region,..,..,..,..,on
34963,Lake Wabukayne Trail,trail,peel region,..,..,..,..,on
34964,Lake Wabukayne Trail,trail,peel region,..,..,..,..,on
34965,Lake Wabukayne Trail,trail,peel region,..,..,..,..,on
