Index,Facility_Name,ODRSF_facility_type,Provider,Street_No,Street_Name,Postal_Code,City,Prov_Terr
974,Century Gardens,playground,peel region,342,vodden,..,brampton,on
975,Century Gardens,splash pad,peel region,342,vodden,..,brampton,on
976,Century Gardens Recreation Centre,pool,peel region,340,vodden,L6V 2N2,brampton,on
977,Century Gardens Recreation Centre,community centre,peel region,340,vodden,L6V 2N2,brampton,on
978,Century Gardens Recreation Centre Arena,arena,peel region,340,vodden,L6V 2N2,brampton,on
990,Chamney Court Parkette,playground,peel region,..,..,..,brampton,on
1034,Ching And Queen Community Park,playground,peel region,..,chingcuacousy,..,brampton,on
1035,Ching And Queen Community Park,splash pad,peel region,..,chingcuacousy,..,brampton,on
1036,Chinguacousy Lions Club Water Tower Park,playground,peel region,..,mayfield,..,brampton,on
1037,Chinguacousy Sandalwood Community Park,playground,peel region,..,chinguacousy,..,brampton,on
1038,Chinguacousy Wellness Centre,pool,peel region,995,peter robertson,L6R 2000000000,brampton,on
1039,Chinguacousy Wellness Centre,community centre,peel region,995,peter robertson,L6R 2000000000,brampton,on
1048,Chris Gibson Park,playground,peel region,..,..,..,brampton,on
1050,Chris Gibson Recreation Centre,community centre,brampton,125,mclaughlin,L6X 1Y9,brampton,on
1051,Chris Gibson Recreation Centre Arena,arena,peel region,125,mclaughlin,L6X 1Y9,brampton,on
1052,Chris Gibson Recreation Centre Pool,pool,brampton,125,mclaughlin,L6X 1Y9,brampton,on
1064,Chudleigh Park,playground,peel region,..,..,..,brampton,on
1071,Churchville Park South,playground,peel region,..,martin,..,brampton,on
1079,Civic Centre,community centre,peel region(caledon),150,central park,L6T 1B4,brampton,on
1095,Clark Park,playground,peel region,..,..,..,brampton,on
1117,Clover Bloom Parkette,playground,peel region,..,..,..,brampton,on
1127,Cobblehill Park,playground,peel region,..,..,..,brampton,on
1171,Conservation Drive Park,playground,peel region,290,conservation,..,brampton,on
1221,County Court Park,playground,peel region,..,county court,..,brampton,on
1238,Crenshaw Parkette,playground,peel region,..,..,..,brampton,on
1240,Crescent Hill Park,playground,peel region,..,..,..,brampton,on
1243,Cresthaven Park,playground,peel region,..,cresthaven,..,brampton,on
1261,Crown Victoria Parkette,playground,peel region,..,..,..,brampton,on
1271,Crystalview Park (Unofficial Name),playground,peel region,..,..,..,brampton,on
1278,Cunnington Parkette,playground,peel region,..,bushberry,..,brampton,on
1279,Curtis Park,playground,peel region,..,curtis,..,brampton,on
1281,Cutters Park,playground,peel region,..,chinguacousy,..,brampton,on
1285,Dafoe Parkette,playground,peel region,..,..,..,brampton,on
1291,Damatta Park,playground,peel region,..,creditview,..,brampton,on
1293,Daniel Boyle Park,playground,peel region,25,herringbone,L6P 4B9,brampton,on
1310,Dearbourne Park,playground,peel region,..,..,..,brampton,on
1344,Dexfield Park,playground,peel region,..,burnley,..,brampton,on
1356,Dixie Sandalwood Park,playground,peel region,..,sandalwood,..,brampton,on
1379,Donald M. Gordon Chinguacousy Park,playground,peel region,9050,bramalea,L6S 6G7,brampton,on
1380,Donald M. Gordon Chinguacousy Park,splash pad,peel region,9050,bramalea,L6S 6G7,brampton,on
1383,Donn Reynolds Parkette,playground,peel region,..,royal,..,brampton,on
1385,Donnelly Park,playground,peel region,..,esker,..,brampton,on
1388,Donwoods Parkette,playground,peel region,..,..,..,brampton,on
1392,Dorchester Park,playground,peel region,..,dorchester,..,brampton,on
1394,Dorset Park,playground,peel region,..,doncaster,..,brampton,on
1420,Drinkwater Community Park,rink,peel region,17,drinkwater,L6Y 4T6,brampton,on
1429,Duggan Park,playground,peel region,..,centre,..,brampton,on
1431,Dumfries Parkette,playground,peel region,..,dumfries,..,brampton,on
1446,Durham Park,playground,peel region,..,..,..,brampton,on
