Index,Facility_Name,ODRSF_facility_type,Provider,Street_No,Street_Name,Postal_Code,City,Prov_Terr
175918,Silverthorn Park,park,mississauga,3377,cawthra,..,mississauga,on
176086,Sonoma Park,park,mississauga,5565,terry fox,..,mississauga,on
176097,South Common,park,mississauga,3555,glen,..,mississauga,on
176119,South Millway Green,park,mississauga,3465,millway,..,mississauga,on
176206,Sparling Woods,park,mississauga,3800,erin,..,mississauga,on
176248,Springbank Meadows,park,mississauga,2210,springbank,..,mississauga,on
176290,Spruce Park,park,mississauga,280,angelene,..,mississauga,on
176472,St. Lawrence Park,park,mississauga,75,lawrence,..,mississauga,on
176529,Staghorn Woods,park,mississauga,855,ceremonial,..,mississauga,on
176567,Station Way,park,mississauga,26,york,..,mississauga,on
176603,Stillmeadow Park,park,mississauga,2275,stillmeadow,..,mississauga,on
176628,Stonebrook Park,park,mississauga,305,mississauga,..,mississauga,on
176641,Stonewood Park,park,mississauga,7348,sandhurst,..,mississauga,on
176701,Streetsville Memorial Park,park,mississauga,335,church,..,mississauga,on
176702,Streetsville Rotary Park,park,mississauga,108,queen,..,mississauga,on
176703,Streetsville Village Hall,park,mississauga,280,queen,..,mississauga,on
176704,Streetsville Village Square,park,mississauga,7,main,..,mississauga,on
176733,Sugar Maple Woods,park,mississauga,5510,glen,..,mississauga,on
176882,Swinbourne Meadows,park,mississauga,1129,swinbourne,..,mississauga,on
176900,Syed Jalaluddin Memorial Park,park,mississauga,490,mississauga,..,mississauga,on
176916,Syntex Green,park,mississauga,2180,syntex,..,mississauga,on
176926,Taffey Park,park,mississauga,2936,remea,..,mississauga,on
176935,Tall Oaks Park,park,mississauga,44,elmwood,..,mississauga,on
177004,Tecumseh Park,park,mississauga,1115,tecumseh park,..,mississauga,on
177083,The Village Green,park,mississauga,780,village,..,mississauga,on
177128,Thorncrest Park,park,mississauga,3295,thorncrest,..,mississauga,on
177156,Thornlodge Park,park,mississauga,2405,homelands,..,mississauga,on
177181,Tillsdown Park,park,mississauga,1620,sir montys,..,mississauga,on
177203,Timothy Street Park,park,mississauga,50,main,..,mississauga,on
177213,Tobias Mason Park,park,mississauga,3274,cactus,..,mississauga,on
177228,Tom Chater Memorial Park,park,mississauga,3195,the collegeway,..,mississauga,on
177240,Tomken Twin Arena Grounds,park,mississauga,4495,tomken,..,mississauga,on
177308,Totoredaca Park,park,mississauga,2715,meadowvale,..,mississauga,on
177328,Trafalgar Common,park,mississauga,3110,mcdowell,..,mississauga,on
177365,Trapper's Green,park,mississauga,2390,folkway,..,mississauga,on
177380,Trelawny Woods,park,mississauga,3500,trelawny,..,mississauga,on
177382,Trellis Trail,park,mississauga,2535,folkway,..,mississauga,on
177414,Trooper Marc Diab Memorial Park,park,mississauga,5514,whitehorn,..,mississauga,on
177448,Turney Woods,park,mississauga,5898,turney,..,mississauga,on
177452,Turtle Glen,park,mississauga,1093,feeley,..,mississauga,on
177485,Twin Oaks Park,park,mississauga,1265,twin oaks dell,..,mississauga,on
177487,Twin Spruce Park,park,mississauga,2013,lakeshore,..,mississauga,on
177511,Union Park,park,mississauga,6627,line,..,mississauga,on
177733,Valley Park,park,mississauga,1666,tarn,..,mississauga,on
177780,Vanessa Park,park,mississauga,1365,wateska,..,mississauga,on
177889,Victory Park,park,mississauga,3055,victory,..,mississauga,on
177912,Vimy Park,park,mississauga,29,stavebank,..,mississauga,on
177932,Vista Heights Park,park,mississauga,5779,turney,..,mississauga,on
177977,Wakefield Common,park,mississauga,795,rathburn,..,mississauga,on
