Index,Facility_Name,ODRSF_facility_type,Provider,Street_No,Street_Name,Postal_Code,City,Prov_Terr
178265,Westacres Park,park,mississauga,2166,westfield,..,mississauga,on
178361,Westwood Park,park,mississauga,6941,darcel,..,mississauga,on
178397,White Willow Common,park,mississauga,6425,spinnaker,..,mississauga,on
178409,Whiteoaks Park,park,mississauga,1450,truscott,..,mississauga,on
178449,Wildfield Park,park,mississauga,7389,bramalea,..,mississauga,on
178560,Willowcreek Park,park,mississauga,3115,sunnyhill,..,mississauga,on
178574,Willowvale Fields,park,mississauga,1340,willowvale,..,mississauga,on
178625,Windrush Woods,park,mississauga,2780,gulfstream,..,mississauga,on
178635,Windwood Park,park,mississauga,2795,windwood,..,mississauga,on
178639,Windy Hollow,park,mississauga,3271,millway,..,mississauga,on
178694,Wood Creek,park,mississauga,4333,garnetwood chase,..,mississauga,on
178711,Woodchuck Green,park,mississauga,3980,woodchuck,..,mississauga,on
178713,Woodeden Park,park,mississauga,1538,woodeden,..,mississauga,on
178717,Woodgreen,park,mississauga,3325,twilight,..,mississauga,on
178728,Woodhurst Heights,park,mississauga,3475,ash row,..,mississauga,on
178729,Woodington Green,park,mississauga,4175,woodington,..,mississauga,on
178730,Woodland Chase,park,mississauga,2042,kempton park,..,mississauga,on
178731,Woodland Chase Trail,park,mississauga,1760,the chase,..,mississauga,on
178736,Woodland Meadows,park,mississauga,910,mcbride,..,mississauga,on
178739,Woodland Park,park,mississauga,3500,ellengale,..,mississauga,on
178866,Zonta Meadows,park,mississauga,410,rathburn,..,mississauga,on
