Index,Facility_Name,ODRSF_facility_type,Provider,Street_No,Street_Name,Postal_Code,City,Prov_Terr
41,Adamsville Park,playground,peel region,..,..,..,brampton,on
51,Albert Callaghan Memorial Park,playground,peel region,..,namao,..,brampton,on
97,Almond Park,playground,peel region,..,..,..,brampton,on
98,Aloma Park,playground,peel region,..,..,..,brampton,on
126,Anderson Family Park,playground,peel region,2,watsonbrook,..,brampton,on
137,Angus Morrison Park,playground,peel region,..,aylesbury,..,brampton,on
199,Armbro Park,playground,peel region,..,harridine,..,brampton,on
207,Asa Hall Parkette,playground,peel region,6,seapiness,..,brampton,on
230,Bach Park,playground,peel region,..,..,..,brampton,on
231,Baffin Park,playground,peel region,..,..,..,brampton,on
242,Balmoral Recreation Centre,pool,peel region,225,balmoral,L6T 1V6,brampton,on
243,Balmoral Recreation Centre,community centre,peel region,225,balmoral,L6T 1V6,brampton,on
256,Banting Park,playground,peel region,..,mclaughlin,..,brampton,on
260,Barbreh Brown Park,playground,peel region,..,leparc,..,brampton,on
277,Bayridge Park,playground,peel region,..,..,..,brampton,on
292,Beaconsfield Park,playground,peel region,..,beaconsfield,..,brampton,on
301,Beatty-Fleming Park,playground,peel region,..,mcglaughlin,..,brampton,on
337,Bellcrest Park,playground,peel region,..,bellcrest,..,brampton,on
359,Berisford Park,playground,peel region,..,farnham,..,brampton,on
411,Birchbank,playground,peel region,52,birchbank,L6T 1L7,brampton,on
419,Black Forest Park South,playground,peel region,..,willow park,..,brampton,on
425,Blackmere Parkette,playground,peel region,..,blackmere,..,brampton,on
433,Bloomingdale Park,playground,peel region,..,amantine,..,brampton,on
437,Blue Lake Parkette,playground,peel region,..,..,..,brampton,on
438,Blue Oak Park,playground,peel region,..,..,..,brampton,on
451,Bob Reid Park And Trail,playground,peel region,..,steeles,..,brampton,on
460,Bonnie Braes Park,playground,peel region,..,..,..,brampton,on
468,Boreham Park,playground,peel region,..,..,..,brampton,on
472,Bottomwood Park,playground,peel region,..,..,..,brampton,on
495,Bramalea Ltd. Community Park,playground,peel region,..,..,..,brampton,on
497,Brampton-Marikina Friendship Park,playground,peel region,..,vanderbrink,..,brampton,on
527,Bridekirk Park,playground,peel region,..,mclaughlin,..,brampton,on
544,Brighton Parkette,playground,peel region,..,..,..,brampton,on
565,Brookbank Parkette,playground,peel region,..,..,..,brampton,on
578,Bruce Beer Park,playground,peel region,..,bruce beer,..,brampton,on
588,Buick Park,playground,peel region,..,brisdale,..,brampton,on
601,Burnt Elm Park,playground,peel region,..,burnt elm,..,brampton,on
605,Burton Park,playground,peel region,..,burton,..,brampton,on
614,Calderstone Park,playground,peel region,..,..,..,brampton,on
631,Camden Park East,playground,peel region,..,..,..,brampton,on
664,Cantrill Park,playground,peel region,..,..,..,brampton,on
678,Carabram Park,playground,peel region,..,eagleridge,..,brampton,on
682,Carleton Park,playground,peel region,..,..,..,brampton,on
712,Caruso Park,playground,peel region,..,mill,..,brampton,on
727,Cassie Campbell Community Centre,community centre,peel region(caledon),1050,sandalwood,L6W 4T2,brampton,on
728,Cassie Campbell Community Centre,splash pad,peel region,1050,sandalwood,L6W 4T2,brampton,on
729,Cassie Campbell Community Centre Arena,arena,peel region,1050,sandalwood,L6W 4T2,brampton,on
737,Castlehill Park,playground,peel region,..,kirk,..,brampton,on
773,Centennial Park,playground,peel region,..,..,..,brampton,on
