Index,Facility_Name,ODRSF_facility_type,Provider,Street_No,Street_Name,Postal_Code,City,Prov_Terr
173690,Patrick Oleary Park,park,brampton,..,..,..,..,on
173691,Patrick Trainor Park,park,brampton,..,..,..,..,on
173767,Peel Village Park,park,brampton,..,..,..,..,on
173852,Picasso Park,park,brampton,..,..,..,..,on
173855,Pickard Park,park,brampton,..,..,..,..,on
174118,Primrose Parkette,park,brampton,..,..,..,..,on
174198,Purple Lilac Park,park,brampton,..,..,..,..,on
174401,Ravenscliffe Parkette,park,brampton,..,..,..,..,on
174440,Rc Charlton Park,park,brampton,..,..,..,..,on
174495,Reed Parkette,park,brampton,..,..,..,..,on
174511,Reeve Parkette,park,brampton,..,..,..,..,on
174566,Reynier Parkette North,park,brampton,..,..,..,..,on
174567,Reynier Parkette South,park,brampton,..,..,..,..,on
174570,Rhoda Begley Park,park,brampton,..,..,..,..,on
174814,Rm Wells Park,park,brampton,..,..,..,..,on
174844,Robert Post Park,park,brampton,..,..,..,..,on
174870,Robwill Parkette,park,brampton,..,..,..,..,on
174901,Rocky Point Parkette,park,brampton,..,..,..,..,on
174927,Roehampton Park,park,brampton,..,..,..,..,on
174941,Rollingwood Park,park,brampton,..,..,..,..,on
174994,Rosepac Park,park,brampton,..,..,..,..,on
175303,Royal Palm Parkette,park,brampton,..,..,..,..,on
175306,Royal Salisbury Parkette,park,brampton,..,..,..,..,on
175324,Runians Park,park,brampton,..,..,..,..,on
175332,Rushmore Parkette,park,brampton,..,..,..,..,on
175430,Salisbury Circle Parkette,park,brampton,..,..,..,..,on
175470,Sandalwood Park,park,brampton,..,..,..,..,on
175624,Scottsdale Parkette,park,brampton,..,..,..,..,on
175625,Scottsdale Parkette North,park,brampton,..,..,..,..,on
175626,Scottsdale Parkette South,park,brampton,..,..,..,..,on
175629,Scribner Parkette,park,brampton,..,..,..,..,on
175640,Seaborn Park,park,brampton,..,..,..,..,on
175652,Seapines Park,park,brampton,..,..,..,..,on
175821,Sheridan Parkette,park,brampton,..,..,..,..,on
175880,Sid Manser Park,park,brampton,..,..,..,..,on
176019,Skyvalley Park,park,brampton,..,..,..,..,on
176025,Sled Dog Park,park,brampton,..,..,..,..,on
176028,Sleightholme Park,park,brampton,..,..,..,..,on
176032,Smirle Big Train Lawson Park,park,brampton,..,..,..,..,on
176055,Snell Parkette,park,brampton,..,..,..,..,on
176058,Snowcap Park,park,brampton,..,..,..,..,on
176067,Snuretown Park East,park,brampton,..,..,..,..,on
176068,Softneedle Parkette,park,brampton,..,..,..,..,on
176076,Somerset Parkette,park,brampton,..,..,..,..,on
176192,Southwell Parkette,park,brampton,..,..,..,..,on
176207,Sparrow Park,park,brampton,..,..,..,..,on
176250,Springdale Branch Library And Komagata Maru Park,park,brampton,..,..,..,..,on
176572,Steacy Park,park,brampton,..,..,..,..,on
176602,Stillman Park,park,brampton,..,..,..,..,on
