Index,Facility_Name,ODRSF_facility_type,Provider,Street_No,Street_Name,Postal_Code,City,Prov_Terr
172371,Not Yet Named (P-462) *(North Of 403 Along Mississauga Rd) (Pinchin Farm),park,mississauga,4415,mississauga,..,mississauga,on
172372,Not Yet Named (P-469) *(East Of Langport Crt Along Mclaughlin Rd),park,mississauga,5605,mclaughlin,..,mississauga,on
172373,Not Yet Named (P-472) *(West Of Brinwood Gate Along Ninth Line),park,mississauga,5640,ninth line,..,mississauga,on
172374,Not Yet Named (P-473)* (West Of Thomas St Along Ninth Line),park,mississauga,5570,ninth line,..,mississauga,on
172375,Not Yet Named (P-479)* (Se Of Millcreek Dr And Southfield Rd),park,mississauga,6351,millcreek,..,mississauga,on
172376,Not Yet Named (P-481)* (Se Of Rena Rd And Slough St Up To And East Of Drew Rd),park,mississauga,2805,drew,..,mississauga,on
172377,Not Yet Named (P-486)*,park,mississauga,70,mississauga,..,mississauga,on
172378,Not Yet Named (P-492)* (Ne Of Saint Babara Blvd And Panhellenic Dr),park,mississauga,7339,saint barbara,..,mississauga,on
172379,Not Yet Named (P-494)* (West Of Rexwood Rd And Derry Rd E),park,mississauga,7020,rexwood,..,mississauga,on
172380,Not Yet Named (P-495)* (West Of Spring Rd And Whiteoaks Ave Along Ravine Dr),park,mississauga,1201,ravine,..,mississauga,on
172381,Not Yet Named (P-496)* (North Of Clarkson Rd N And Birchwood Dr),park,mississauga,1325,clarkson,..,mississauga,on
172382,Not Yet Named (P-498)* (East Of Camilla And Pathfinder Dr),park,mississauga,2081,camilla,..,mississauga,on
172383,Not Yet Named (P-499)* (Sw Of Mineola Rd W And Minaki Rd),park,mississauga,264,mineola,..,mississauga,on
172384,Not Yet Named (P-500)* (West Of Dickson And Stavebank Rd),park,mississauga,425,premium,..,mississauga,on
172385,"Not Yet Named (P-507)* (Between Living Arts Dr And Duke Of York Blvd, South Of Rathburn Rd W)",park,mississauga,300,rathburn,..,mississauga,on
172386,Not Yet Named (P-509)* (West Of Confederation And Princes Royal Dr),park,mississauga,4114,confederation,..,mississauga,on
172387,"Not Yet Named (P-510)* (Between Indian Valley Trail And Kenollie Ave, East Of Stavebank Rd)",park,mississauga,330,indian,..,mississauga,on
172388,Not Yet Named (P-513)*,park,mississauga,0,zahavy,..,mississauga,on
172389,Not Yet Named (P-514)*,park,mississauga,0,osprey,..,mississauga,on
172390,Not Yet Named (P-516)*,park,mississauga,0,derry,..,mississauga,on
172391,Not Yet Named (P-517)*,park,mississauga,0,ninth line,..,mississauga,on
172392,Not Yet Named (P-522)*,park,mississauga,0,sheridan,..,mississauga,on
172393,Not Yet Named (P-524)*,park,mississauga,99,little creek,..,mississauga,on
172394,Not Yet Named (P-525) *,park,mississauga,0,eglinton,..,mississauga,on
172395,Not Yet Named (P-526) *,park,mississauga,0,dundas,..,mississauga,on
172396,Not Yet Named (P-527)*,park,mississauga,0,central,..,mississauga,on
172397,Not Yet Named (P-528)*,park,mississauga,1184,shagbark,..,mississauga,on
172413,Novo Star Park,park,mississauga,640,novo star,..,mississauga,on
172431,Oak Tree Park,park,mississauga,1760,hollow oak,..,mississauga,on
172485,O'Connor Park,park,mississauga,3570,bala,..,mississauga,on
172498,O'Harra Park,park,mississauga,5600,longford,..,mississauga,on
172499,O'Harra Way,park,mississauga,5633,ninth line,..,mississauga,on
172529,Old Ridge Park,park,mississauga,6965,historic,..,mississauga,on
172599,Orchard Heights,park,mississauga,1704,lincolnshire,..,mississauga,on
172600,Orchard Hill,park,mississauga,1055,deta,..,mississauga,on
172639,Osprey Marsh,park,mississauga,6123,ninth line,..,mississauga,on
172642,Osprey Woods,park,mississauga,6076,osprey,..,mississauga,on
172710,Painters Green,park,mississauga,1305,cobalt,..,mississauga,on
172718,Palette Park,park,mississauga,615,renshaw,..,mississauga,on
172720,Pallett Green,park,mississauga,1576,dundas,..,mississauga,on
172750,Paramount Fine Foods Centre,park,mississauga,5500,rose cherry,..,mississauga,on
173616,Parkerhill Park,park,mississauga,3033,parkerhill,..,mississauga,on
173657,Parkway Green,park,mississauga,4215,central,..,mississauga,on
173683,Pathfinder Way,park,mississauga,1510,argentia,..,mississauga,on
173700,Paul Coffey Park,park,mississauga,3430,derry,..,mississauga,on
173766,Peel Gardens,park,mississauga,1220,hurontario,..,mississauga,on
173833,Petrescue Park,park,mississauga,1000,halliday,..,mississauga,on
173836,Petro Canada Park,park,mississauga,670,southdown,..,mississauga,on
173839,Pheasant Run,park,mississauga,4175,pheasant,..,mississauga,on
