Index,Facility_Name,ODRSF_facility_type,Provider,Street_No,Street_Name,Postal_Code,City,Prov_Terr
17244,St. Timothy,sports field,peel region,2214,cliff,L5A 2N9,mississauga,on
17246,St. Valentine,sports field,peel region,5610,heatherleigh,L5V 2V7,mississauga,on
17247,St. Veronica,sports field,peel region,680,novo star,L5W 1C7,mississauga,on
17248,St. Vincent De Paul,sports field,peel region,665,willowbank,L4W 3L6,mississauga,on
17256,Staghorn Woods,sports field,peel region,855,ceremonial,..,mississauga,on
17257,Staghorn Woods,sports field,peel region,855,ceremonial,..,mississauga,on
17317,Stephen Lewis Ss,sports field,peel region,3675,thomas,L5M 7000000,mississauga,on
17318,Stephen Lewis Ss,sports field,peel region,3675,thomas,L5M 7000000,mississauga,on
17332,Stonebrook Park,sports field,peel region,305,mississauga valley,L5A 1Y6,mississauga,on
17341,Stonewood Park,sports field,peel region,7348,sandhurst,L5N 7G7,mississauga,on
17342,Stonewood Park,sports field,peel region,7348,sandhurst,L5N 7G7,mississauga,on
17379,Streetsville,sports field,peel region,72,joymar,L5M 1G3,mississauga,on
17380,Streetsville,sports field,peel region,72,joymar,L5M 1G3,mississauga,on
17382,Streetsville Memorial Park,sports field,peel region,335,church,..,mississauga,on
17383,Streetsville Memorial Park,sports field,peel region,335,church,..,mississauga,on
17385,Sts. Martha & Mary,sports field,peel region,1760,bough beeches,L4W 2B9,mississauga,on
17453,Swinbourne Meadows,sports field,peel region,1129,swinbourne,..,mississauga,on
17454,Swinbourne Meadows,sports field,peel region,1129,swinbourne,..,mississauga,on
17460,Syntex Green,sports field,peel region,2180,syntex,..,mississauga,on
17463,T.L. Kennedy,sports field,peel region,3100,hurontario,L5B 1N7,mississauga,on
17482,Tecumseh,sports field,peel region,1480,chriseden,L5H 1V4,mississauga,on
17483,Tecumseh,sports field,peel region,1480,chriseden,L5H 1V4,mississauga,on
17484,Tecumseh,sports field,peel region,1480,chriseden,L5H 1V4,mississauga,on
17592,Tennis Court - North Centre Churchill Meadows Community Common,sports field,mississauga,3370,mcdowell,..,mississauga,on
17593,Tennis Court - North Churchill Meadows Community Common,sports field,mississauga,3370,mcdowell,..,mississauga,on
17594,Tennis Court - South Centre Churchill Meadows Community Common,sports field,mississauga,3370,mcdowell,..,mississauga,on
17595,Tennis Court South Churchill Meadows Community Common,sports field,mississauga,3370,mcdowell,..,mississauga,on
17606,Tennis Public Lit 1 E Mississauga Valley,sports field,mississauga,1275,mississauga valley,..,mississauga,on
17607,Tennis Public Lit 1St From School Port Credit Secondary (9-12) (Ps),sports field,mississauga,70,mineola,..,mississauga,on
17608,Tennis Public Lit 2 E Central Mississauga Valley,sports field,mississauga,1275,mississauga valley,..,mississauga,on
17609,Tennis Public Lit 2Nd From School Port Credit Secondary (9-12) (Ps),sports field,mississauga,70,mineola,..,mississauga,on
17610,Tennis Public Lit 3 W Central Mississauga Valley,sports field,mississauga,1275,mississauga valley,..,mississauga,on
17611,Tennis Public Lit 3Rd From School Port Credit Secondary (9-12) (Ps),sports field,mississauga,70,mineola,..,mississauga,on
17612,Tennis Public Lit 4 W Mississauga Valley,sports field,mississauga,1275,mississauga valley,..,mississauga,on
17613,Tennis Public Lit 4Th From School Port Credit Secondary (9-12) (Ps),sports field,mississauga,70,mineola,..,mississauga,on
17614,Tennis Public Lit E Century City,sports field,mississauga,933,focal,..,mississauga,on
17615,Tennis Public Lit E Gulleden Park,sports field,mississauga,1500,gulleden,..,mississauga,on
17616,Tennis Public Lit E Laughton Heights,sports field,mississauga,1519,sherway,..,mississauga,on
17617,Tennis Public Lit Meadowvale Hall Grounds,sports field,mississauga,6970,second line,..,mississauga,on
17618,Tennis Public Lit N Brookmede Park,sports field,mississauga,2254,council ring,..,mississauga,on
17619,Tennis Public Lit Nw Woodhurst Heights,sports field,mississauga,3475,ash row,..,mississauga,on
17620,Tennis Public Lit S Brookmede Park,sports field,mississauga,2254,council ring,..,mississauga,on
17621,Tennis Public Lit Se Woodhurst Heights,sports field,mississauga,3475,ash row,..,mississauga,on
17622,Tennis Public Lit W Century City,sports field,mississauga,933,focal,..,mississauga,on
17623,Tennis Public Lit W Gulleden Park,sports field,mississauga,1500,gulleden,..,mississauga,on
17624,Tennis Public Lit W Laughton Heights,sports field,mississauga,1519,sherway,..,mississauga,on
17625,Tennis Public Unlit - North Central Courtneypark Athletic Fields,sports field,mississauga,600,courtneypark,..,mississauga,on
17626,Tennis Public Unlit - North Courtneypark Athletic Fields,sports field,mississauga,600,courtneypark,..,mississauga,on
17627,Tennis Public Unlit - South Central Courtneypark Athletic Fields,sports field,mississauga,600,courtneypark,..,mississauga,on
