Index,Facility_Name,ODRSF_facility_type,Provider,Street_No,Street_Name,Postal_Code,City,Prov_Terr
1990,Greenbriar Recreation Centre Arena,arena,peel region,1100,central park,L6S 2C9,brampton,on
1991,Greenbriar Sr.,playground,peel region,1140,central park,L6S 2C9,brampton,on
1997,Greenmount Park North,playground,peel region,..,..,..,brampton,on
2010,Grey Whale Park,playground,peel region,..,..,..,brampton,on
2047,Halldorson Park,playground,peel region,..,..,..,brampton,on
2074,Harry A. Shields Parkette,playground,peel region,..,riverbank,..,brampton,on
2082,Havanna Park,playground,peel region,..,..,..,brampton,on
2085,Havelock Park,playground,peel region,171,havelock,..,brampton,on
2088,Haverty Parkette,playground,peel region,..,..,..,brampton,on
2094,Hazelwood Park South,playground,peel region,..,..,..,brampton,on
2100,Heart Lake Conservation Area,pool,peel region,10818,heart lake,..,brampton,on
2101,Heart Lake Conservation Area,splash pad,peel region,10818,heart lake,..,brampton,on
2102,Heartview Marsh,playground,peel region,..,..,..,brampton,on
2104,Heatherglen Park,playground,peel region,..,..,..,brampton,on
2108,Hedgeline Parkette,playground,peel region,..,..,..,brampton,on
2110,Helen Wilson,playground,peel region,9,abbey,L6W 2T7,brampton,on
2152,Hickory Wood Park,playground,peel region,658,ray lawson,..,brampton,on
2188,Hilldale Park North,playground,peel region,..,..,..,brampton,on
2189,Hilldale Park South,playground,peel region,..,..,..,brampton,on
2217,Homestead Park,playground,peel region,83,fletcher's creek,..,brampton,on
2239,Howden Park,playground,peel region,..,howden,..,brampton,on
2240,Howden Recreation Centre,pool,peel region,150,howden,L6S 2G1,brampton,on
2241,Howden Recreation Centre,community centre,peel region,150,howden,L6S 2G1,brampton,on
2274,Huttonville Community Centre,community centre,peel region(caledon),2322,embleton,L6V 3N2,brampton,on
2336,Iceland Parkette (Unofficial Name),playground,peel region,..,freesia,..,brampton,on
2340,Inder Heights Park,playground,peel region,..,inder,..,brampton,on
2360,Iron Block Park,playground,peel region,..,windswept,..,brampton,on
2396,Jacksonville Park,playground,peel region,50,jacksonville,L6P 2Z2,brampton,on
2400,Jacob Shook Park,playground,peel region,..,devonsleigh,..,brampton,on
2403,James And Edna Davis Park,playground,peel region,..,sugarberry,..,brampton,on
2404,James And Margaret Mcgie Park,playground,peel region,..,..,..,brampton,on
2408,James F. Mccurry Victoria Park Arena,arena,brampton,20,victoria,L6T 10000,brampton,on
2411,James William Hewson Park,playground,peel region,..,..,..,brampton,on
2421,Jefferson Park,playground,peel region,..,..,..,brampton,on
2422,Jellicoe Parkette,playground,peel region,..,..,..,brampton,on
2436,Jim Archdekin Recreation Centre,pool,peel region,292,conestoga,L6Z 3M1,brampton,on
2437,Jim Archdekin Recreation Centre,community centre,peel region,292,conestoga,L6Z 3M1,brampton,on
2438,Jim Archdekin Recreation Centre Arena,arena,peel region,292,conestoga,L6Z 3M1,brampton,on
2480,Johnstone Park,playground,peel region,..,tianalee,..,brampton,on
2490,Jordan Park,playground,peel region,..,..,..,brampton,on
2491,Jordanas Rainbow Park,playground,peel region,65,altura,..,brampton,on
2497,Joseph Lawson Park,playground,peel region,..,swales,..,brampton,on
2503,Jp Hutton Park,playground,peel region,..,..,..,brampton,on
2511,Kanashiro Parkette,playground,peel region,..,ange,..,brampton,on
2526,Keirstead Park,playground,peel region,..,vincent,..,brampton,on
2536,Ken Giles Recreation Centre,community centre,brampton,364,bartley bull,L6W 2L8,brampton,on
2537,Ken Park,playground,peel region,..,..,..,brampton,on
2566,Kincaid Parkette,playground,peel region,..,..,..,brampton,on
2567,Kindle Parkette,playground,peel region,..,..,..,brampton,on
