Index,Facility_Name,ODRSF_facility_type,Provider,Street_No,Street_Name,Postal_Code,City,Prov_Terr
163066,Bell Harbour Park,park,mississauga,5820,bell harbour,..,mississauga,on
163073,Bella Vista,park,mississauga,26,hanson,..,mississauga,on
163125,Ben Machree Park,park,mississauga,61,ben machree,..,mississauga,on
163128,Benares Museum Grounds,park,mississauga,1503,clarkson,..,mississauga,on
163220,Bert Fleming Park,park,mississauga,3345,the credit woodlands,..,mississauga,on
163252,Bethesda Common,park,mississauga,3311,fieldgate,..,mississauga,on
163278,Bidwell Trail Common,park,mississauga,6075,bidwell,..,mississauga,on
163325,Birch Glen,park,mississauga,1406,bramblewood,..,mississauga,on
163339,Birchwood Park,park,mississauga,1547,lakeshore,..,mississauga,on
163359,Bishopstoke Park,park,mississauga,4160,bishopstoke,..,mississauga,on
163360,Bishopstoke Walk,park,mississauga,..,robert speck,..,mississauga,on
163432,Bloor Athletic Field,park,mississauga,830,lexicon,..,mississauga,on
163510,Bonnie Brae,park,mississauga,2144,erin,..,mississauga,on
163554,Bough Beeches Park,park,mississauga,1780,bough beeches,..,mississauga,on
163615,Bradley Museum Grounds,park,mississauga,1620,orr,..,mississauga,on
163618,Braeben Golf Course,park,mississauga,5650,terry fox,..,mississauga,on
163641,Brandon Gate Park,park,mississauga,3545,brandon gate,..,mississauga,on
163664,Brentwood Park,park,mississauga,496,karen park,..,mississauga,on
163693,Brickyard Park,park,mississauga,3061,clayhill,..,mississauga,on
163752,Britannia Woods Community Forest,park,mississauga,5495,kennedy,..,mississauga,on
163779,Bromsgrove Park,park,mississauga,2299,bromsgrove,..,mississauga,on
163814,Brookmede Park,park,mississauga,2254,council ring,..,mississauga,on
163838,Brown's Heights,park,mississauga,1600,bristol,..,mississauga,on
163854,Bruce Reynolds Park,park,mississauga,2173,springbank,..,mississauga,on
163859,Brueckner Rhododendron Gardens,park,mississauga,660,lakeshore,..,mississauga,on
163928,Burnhamdale Park,park,mississauga,3316,cardross,..,mississauga,on
163930,Burnhamthorpe Library Grounds,park,mississauga,3650,dixie,..,mississauga,on
163962,Buttonbush Park,park,mississauga,7457,russian olive close,..,mississauga,on
163990,Cabano Hill Park,park,mississauga,5335,oscar peterson,..,mississauga,on
164052,Camden Park,park,mississauga,495,camden,..,mississauga,on
164062,Camilla Park,park,mississauga,2180,camilla,..,mississauga,on
164234,Carolyn Creek,park,mississauga,5240,charnwood,..,mississauga,on
164244,Carriage Way,park,mississauga,2544,old carriage,..,mississauga,on
164296,Castlebridge Common,park,mississauga,2636,castlebridge,..,mississauga,on
164305,Castlegreen Meadows,park,mississauga,2829,castlebridge,..,mississauga,on
164336,Cattrick Boulevard Park,park,mississauga,53,cattrick,..,mississauga,on
164346,Cawthra Park,park,mississauga,1399,cawthra,..,mississauga,on
164394,Cedarbrae Park,park,mississauga,565,lolita,..,mississauga,on
164395,Cedarbrook Park,park,mississauga,1095,runningbrook,..,mississauga,on
164511,Century City,park,mississauga,933,focal,..,mississauga,on
164518,Ceremonial Green,park,mississauga,600,ceremonial,..,mississauga,on
164586,"Charles ""Bud"" Brennan Park",park,mississauga,6181,edenwood,..,mississauga,on
164672,Cherry Hill,park,mississauga,828,flagship,..,mississauga,on
164756,Churchill Meadows Community Common,park,mississauga,3370,mcdowell,..,mississauga,on
164784,City View Park,park,mississauga,565,central,..,mississauga,on
164796,Civic View Walk,park,mississauga,405,central,..,mississauga,on
164830,Clarke Hall Grounds,park,mississauga,161,lakeshore,..,mississauga,on
164837,Clarkson Community Centre & Library Grounds,park,mississauga,2475,truscott,..,mississauga,on
164838,Clarkson Park,park,mississauga,1125,winston churchill,..,mississauga,on
