Index,Facility_Name,ODRSF_facility_type,Provider,Street_No,Street_Name,Postal_Code,City,Prov_Terr
12470,King's Park,sports field,peel region,7185,dixie,..,mississauga,on
12471,King's Park,sports field,peel region,7185,dixie,..,mississauga,on
12472,King's Park,sports field,peel region,7185,dixie,..,mississauga,on
12475,Kingsbridge Common,sports field,peel region,4611,regents,..,mississauga,on
12476,Kingsbridge Common,sports field,peel region,4611,regents,..,mississauga,on
12771,Knotty Pine Park,sports field,peel region,835,knotty,..,mississauga,on
12772,Knotty Pine Park,sports field,peel region,835,knotty,..,mississauga,on
12773,Kogaydiwin Park,sports field,peel region,1585,finfar,..,mississauga,on
12774,Kogaydiwin Park,sports field,peel region,1585,finfar,..,mississauga,on
12798,Lake Aquitaine Park,sports field,peel region,2750,aquitaine,..,mississauga,on
12799,Lake Aquitaine Park,sports field,peel region,2750,aquitaine,..,mississauga,on
12800,Lake Aquitaine Park,sports field,peel region,2750,aquitaine,..,mississauga,on
12801,Lake Aquitaine Park,sports field,peel region,2750,aquitaine,..,mississauga,on
12802,Lake Aquitaine Park,sports field,peel region,2750,aquitaine,..,mississauga,on
12803,Lakefront Promenade,sports field,peel region,135,lakefront,L5E 1A1,mississauga,on
12804,Lakefront Promenade,sports field,peel region,135,lakefront,L5E 1A1,mississauga,on
12826,Lakeview Golf Course,sports field,peel region,1190,dixie,L5E 2P4,mississauga,on
12830,Lakeview Park,sports field,peel region,811,lakefront,..,mississauga,on
12831,Lakeview Park,sports field,peel region,811,lakefront,..,mississauga,on
12832,Lakeview Park,sports field,peel region,811,lakefront,..,mississauga,on
12863,Lancaster,sports field,peel region,7425,netherwood,L4T 2N7,mississauga,on
12864,Lancaster,sports field,peel region,7425,netherwood,L4T 2N7,mississauga,on
12913,Laughton Heights,sports field,peel region,1519,sherway,L4X 1C5,mississauga,on
12914,Laughton Heights,sports field,peel region,1519,sherway,L4X 1C5,mississauga,on
12915,Laughton Heights,sports field,peel region,1519,sherway,L4X 1C5,mississauga,on
12916,Laughton Heights,sports field,peel region,1519,sherway,L4X 1C5,mississauga,on
13029,Levi Creek,sports field,peel region,1525,samuelson,L5N 7Z1,mississauga,on
13030,Lewis Bradley Park,sports field,peel region,1901,orr,..,mississauga,on
13061,Lincoln M. Alexander,sports field,peel region,3545,morning star,L4T 1Y3,mississauga,on
13097,Lisgar Fields,sports field,peel region,3805,doug leavens,..,mississauga,on
13098,Lisgar Fields,sports field,peel region,3805,doug leavens,..,mississauga,on
13099,Lisgar Fields,sports field,peel region,3805,doug leavens,..,mississauga,on
13100,Lisgar Fields,sports field,peel region,3805,doug leavens,..,mississauga,on
13101,Lisgar Fields,sports field,peel region,3805,doug leavens,..,mississauga,on
13102,Lisgar Green,sports field,peel region,6140,osprey,L5N 5W5,mississauga,on
13103,Lisgar Green,sports field,peel region,6140,osprey,L5N 5W5,mississauga,on
13104,Lisgar Green,sports field,peel region,6140,osprey,L5N 5W5,mississauga,on
13105,Lisgar Green,sports field,peel region,6140,osprey,L5N 5W5,mississauga,on
13106,Lisgar Green,sports field,peel region,6140,osprey,L5N 5W5,mississauga,on
13165,Lorne Park Ps,sports field,peel region,1325,indian,L5H 1S3,mississauga,on
13166,Lorne Park Ps,sports field,peel region,1325,indian,L5H 1S3,mississauga,on
13167,Lorne Park Ss,sports field,peel region,1324,lorne park,L5H 3B1,mississauga,on
13178,Loyola,sports field,peel region,4010,sladeview,L5L 6B1,mississauga,on
13202,Lyndwood Park,sports field,peel region,495,atwater,L5G 2A4,mississauga,on
13203,Lyndwood Park,sports field,peel region,495,atwater,L5G 2A4,mississauga,on
13257,Madill Common,sports field,peel region,525,huntington ridge,..,mississauga,on
13269,Magrath Park,sports field,peel region,4206,melia,L5C 4J5,mississauga,on
13283,Major Natural Turf Lit S Paul Coffey Park,sports field,mississauga,3430,derry,..,mississauga,on
13286,Major Unlit 11V11 Birchwood Park,sports field,mississauga,1075,clarkson,..,mississauga,on
