Index,Facility_Name,ODRSF_facility_type,Provider,Street_No,Street_Name,Postal_Code,City,Prov_Terr
17629,Tennis Public Unlit 4 E Mckechnie Woods,sports field,mississauga,310,bristol,..,mississauga,on
17630,Tennis Public Unlit Central River Grove,sports field,mississauga,5800,river,..,mississauga,on
17631,Tennis Public Unlit E Burnhamdale Park,sports field,mississauga,3316,cardross,..,mississauga,on
17632,Tennis Public Unlit E Camden Park,sports field,mississauga,495,camden,..,mississauga,on
17633,Tennis Public Unlit E Central Mckechnie Woods,sports field,mississauga,310,bristol,..,mississauga,on
17634,Tennis Public Unlit E Central Settler's Green,sports field,mississauga,6440,glen,..,mississauga,on
17635,Tennis Public Unlit E Credit Pointe Village,sports field,mississauga,4635,credit pointe,..,mississauga,on
17636,Tennis Public Unlit E Four Winds Hollow,sports field,mississauga,636,avonwick,..,mississauga,on
17637,Tennis Public Unlit E River Grove,sports field,mississauga,5800,river,..,mississauga,on
17638,Tennis Public Unlit E Settler's Green,sports field,mississauga,6440,glen,..,mississauga,on
17639,Tennis Public Unlit E Stonebrook Park,sports field,mississauga,305,mississauga valley,..,mississauga,on
17640,Tennis Public Unlit E Zonta Meadows,sports field,mississauga,410,rathburn,..,mississauga,on
17641,Tennis Public Unlit N Fairview Park,sports field,mississauga,3300,palgrave,..,mississauga,on
17642,Tennis Public Unlit N Max Ward Park,sports field,mississauga,2380,matheson,..,mississauga,on
17643,Tennis Public Unlit Ne Central Quenippenon Meadows,sports field,mississauga,2625,erin,..,mississauga,on
17644,Tennis Public Unlit Ne Centre Meadow Green,sports field,mississauga,6595,falconer,..,mississauga,on
17645,Tennis Public Unlit Ne Garnetwood Park,sports field,mississauga,1996,rathburn,..,mississauga,on
17646,Tennis Public Unlit Ne Meadow Green,sports field,mississauga,6595,falconer,..,mississauga,on
17647,Tennis Public Unlit Ne Quenippenon Meadows,sports field,mississauga,2625,erin,..,mississauga,on
17648,Tennis Public Unlit Nw Central Lisgar Fields,sports field,mississauga,3805,doug leavens,..,mississauga,on
17649,Tennis Public Unlit Nw Centre Glen Eden Park,sports field,mississauga,7230,copenhagen,..,mississauga,on
17650,Tennis Public Unlit Nw Garnetwood Park,sports field,mississauga,1996,rathburn,..,mississauga,on
17651,Tennis Public Unlit Nw Glen Eden Park,sports field,mississauga,7230,copenhagen,..,mississauga,on
17652,Tennis Public Unlit Nw Lisgar Fields,sports field,mississauga,3805,doug leavens,..,mississauga,on
17653,Tennis Public Unlit S Fairview Park,sports field,mississauga,3300,palgrave,..,mississauga,on
17654,Tennis Public Unlit S Max Ward Park,sports field,mississauga,2380,matheson,..,mississauga,on
17655,Tennis Public Unlit Se Central Lisgar Fields,sports field,mississauga,3805,doug leavens,..,mississauga,on
17656,Tennis Public Unlit Se Centre Glen Eden Park,sports field,mississauga,7230,copenhagen,..,mississauga,on
17657,Tennis Public Unlit Se Garnetwood Park,sports field,mississauga,1996,rathburn,..,mississauga,on
17658,Tennis Public Unlit Se Glen Eden Park,sports field,mississauga,7230,copenhagen,..,mississauga,on
17659,Tennis Public Unlit Se Lisgar Fields,sports field,mississauga,3805,doug leavens,..,mississauga,on
17660,Tennis Public Unlit Sw Central Quenippenon Meadows,sports field,mississauga,2625,erin,..,mississauga,on
17661,Tennis Public Unlit Sw Centre Meadow Green,sports field,mississauga,6595,falconer,..,mississauga,on
17662,Tennis Public Unlit Sw Garnetwood Park,sports field,mississauga,1996,rathburn,..,mississauga,on
17663,Tennis Public Unlit Sw Meadow Green,sports field,mississauga,6595,falconer,..,mississauga,on
17664,Tennis Public Unlit Sw Quenippenon Meadows,sports field,mississauga,2625,erin,..,mississauga,on
17665,Tennis Public Unlit W Burnhamdale Park,sports field,mississauga,3316,cardross,..,mississauga,on
17666,Tennis Public Unlit W Camden Park,sports field,mississauga,495,camden,..,mississauga,on
17667,Tennis Public Unlit W Central Mckechnie Woods,sports field,mississauga,310,bristol,..,mississauga,on
17668,Tennis Public Unlit W Central Settler's Green,sports field,mississauga,6440,glen,..,mississauga,on
17669,Tennis Public Unlit W Credit Pointe Village,sports field,mississauga,4635,credit pointe,..,mississauga,on
17670,Tennis Public Unlit W Four Winds Hollow,sports field,mississauga,636,avonwick,..,mississauga,on
17671,Tennis Public Unlit W Mckechnie Woods,sports field,mississauga,310,bristol,..,mississauga,on
17672,Tennis Public Unlit W River Grove,sports field,mississauga,5800,river,..,mississauga,on
17673,Tennis Public Unlit W Settler's Green,sports field,mississauga,6440,glen,..,mississauga,on
17674,Tennis Public Unlit W Stonebrook Park,sports field,mississauga,305,mississauga valley,..,mississauga,on
17675,Tennis Public Unlit W Zonta Meadows,sports field,mississauga,410,rathburn,..,mississauga,on
17704,The Toronto Golf Club,sports field,peel region,1305,dixie,L5E 2P5,mississauga,on
17707,The Valleys Sr.,sports field,peel region,1235,mississ vly,L5A 3R8,mississauga,on
