Index,Facility_Name,ODRSF_facility_type,Provider,Street_No,Street_Name,Postal_Code,City,Prov_Terr
9362,Caledon Central,sports field,peel region,18357,kennedy,L7K 1Y7,caledon,on
9363,Caledon Central,sports field,peel region,18357,kennedy,L7K 1Y7,caledon,on
9364,Caledon Central,sports field,peel region,18357,kennedy,L7K 1Y7,caledon,on
9365,Caledon Central,sports field,peel region,18357,kennedy,L7K 1Y7,caledon,on
9366,Caledon Country Club,sports field,york region,2121,olde baseline,L7C 0K7,caledon,on
9367,Caledon East,sports field,peel region,15738,airport,L7C 2W8,caledon,on
9368,Caledon East Park,sports field,peel region,6097,old church,L7C 1J6,caledon,on
9369,Caledon East Park,sports field,peel region,6097,old church,L7C 1J6,caledon,on
9370,Caledon East Park,sports field,peel region,6097,old church,L7C 1J6,caledon,on
9371,Caledon East Park,sports field,peel region,6097,old church,L7C 1J6,caledon,on
9372,Caledon East Park,sports field,peel region,6097,old church,L7C 1J6,caledon,on
9373,Caledon East Soccer Complex,sports field,peel region,15944,innis lake,L7C 1J6,caledon,on
9374,Caledon East Soccer Complex,sports field,peel region,15944,innis lake,L7C 1J6,caledon,on
9375,Caledon East Soccer Complex,sports field,peel region,15944,innis lake,L7C 1J6,caledon,on
9376,Caledon East Soccer Complex,sports field,peel region,15944,innis lake,L7C 1J6,caledon,on
9377,Caledon East Soccer Complex,sports field,peel region,15944,innis lake,L7C 1J6,caledon,on
9378,Caledon East Soccer Complex,sports field,peel region,15944,innis lake,L7C 1J6,caledon,on
9379,Caledon East Soccer Complex,sports field,peel region,15944,innis lake,L7C 1J6,caledon,on
9380,Caledon East Soccer Complex,sports field,peel region,15944,innis lake,L7C 1J6,caledon,on
9381,Caledon East Soccer Complex,sports field,peel region,15944,innis lake,L7C 1J6,caledon,on
9382,Caledon East Soccer Complex,sports field,peel region,15944,innis lake,L7C 1J6,caledon,on
9383,Caledon East Soccer Complex,sports field,peel region,15944,innis lake,L7C 1J6,caledon,on
9384,Caledon East Soccer Complex,sports field,peel region,15944,innis lake,L7C 1J6,caledon,on
9385,Caledon East Soccer Complex,sports field,peel region,15944,innis lake,L7C 1J6,caledon,on
9386,Caledon East Soccer Complex,sports field,peel region,15944,innis lake,L7C 1J6,caledon,on
9387,Caledon Fairgrounds (Sid Coburn Diamond),sports field,peel region,18297,hurontario,L7K 0X7,caledon,on
9388,Caledon Fairgrounds (Sid Coburn Diamond),sports field,peel region,18297,hurontario,L7K 0X7,caledon,on
9389,Caledon Golf And Country Club,sports field,peel region,2121,olde base line,L7C 0K7,caledon,on
9390,Caledon Golf And Country Club - Clubhouse,sports field,peel region,2121,olde base line,L7C 0K7,caledon,on
9391,Caledon Village Tennis Courts,sports field,peel region,18357,hurontario,L7K 0X7,caledon,on
9392,Caledon Woods Golf Club,sports field,peel region,15608,50,L7E 300000,caledon,on
9393,Caledon Woods Golf Club,sports field,york region,15608,50,L7E 300000,bolton,on
9394,Caledon Woods Golf Club - Clubhouse,sports field,peel region,15608,50,L7E 300000,caledon,on
9727,Charles Haines Park,sports field,peel region,14190,creditview,L7C 1Y4,caledon,on
9728,Charles Haines Park,sports field,peel region,14190,creditview,L7C 1Y4,caledon,on
9729,Charles Haines Park,sports field,peel region,14190,creditview,L7C 1Y4,caledon,on
10268,Credit View,sports field,peel region,13990,mississauga,L0P 1C0,caledon,on
10269,Credit View,sports field,peel region,13990,mississauga,L0P 1C0,caledon,on
10270,Credit View,sports field,peel region,13990,mississauga,L0P 1C0,caledon,on
10464,Devil's Paintbrush Golf Course,sports field,peel region,17151,andrews,L0N 1,caledon,on
10465,Devil's Paintbrush Golf Course - Clubhosue,sports field,peel region,17151,andrews,L0N 1,caledon,on
10466,Devil's Pulpit Golf Course,sports field,peel region,3035,escarpment,L7K 3L3,caledon,on
10467,Devil's Pulpit Golf Course - Clubhouse,sports field,peel region,3035,escarpment,L7K 3L3,caledon,on
10476,Dick's Dam Park,sports field,peel region,250,glasgow,L7E 2N4,caledon,on
10748,Edelweiss Park & Bolton Tennis Courts,sports field,peel region,354,glasgow,L7E 0T5,caledon,on
10749,Edelweiss Park & Bolton Tennis Courts,sports field,peel region,354,glasgow,L7E 0T5,caledon,on
10750,Edelweiss Park & Bolton Tennis Courts,sports field,peel region,354,glasgow,L7E 0T5,caledon,on
10751,Edelweiss Park & Bolton Tennis Courts,sports field,peel region,354,glasgow,L7E 0T5,caledon,on
10752,Edelweiss Park & Bolton Tennis Courts,sports field,peel region,354,glasgow,L7E 0T5,caledon,on
