Index,Facility_Name,ODRSF_facility_type,Provider,Street_No,Street_Name,Postal_Code,City,Prov_Terr
9169,Brampton Golf Club,sports field,peel region,7700,kennedy,L6W 0A1,brampton,on
9170,Brampton Golf Club,sports field,york region,7700,kennedy,L6W 0A1,brampton,on
9171,Brampton Golf Club - Clubhouse,sports field,peel region,7700,kennedy,L6W 0A1,brampton,on
9172,Brampton Soccer Centre,sports field,brampton,1495,sandalwood,L6R 0K2,brampton,on
9173,Brampton Soccer Centre (Dixie Sandalwood Park),sports field,peel region,..,sandalwood,..,brampton,on
9174,Brampton Sports Park,sports field,peel region,..,kennedy,..,brampton,on
9175,Brampton Sports Park,sports field,peel region,..,kennedy,..,brampton,on
9176,Brampton Sports Park,sports field,peel region,..,kennedy,..,brampton,on
9177,Brampton Sports Park,sports field,peel region,..,kennedy,..,brampton,on
9178,Brampton Sports Park,sports field,peel region,..,kennedy,..,brampton,on
9179,Brampton Sports Park,rink,peel region,..,kennedy,..,brampton,on
9180,Brampton Sports Park,sports field,peel region,..,kennedy,..,brampton,on
9181,Brampton Sports Park,sports field,peel region,..,kennedy,..,brampton,on
9182,Brampton Tennis Club,sports field,peel region,38,union,L6V 4J7,brampton,on
9264,Brisdale Public School,sports field,peel region,370,brisdale,L7A 3K7,brampton,on
9344,Burnt Elm,sports field,peel region,85,burnt elm,L7A 1T8,brampton,on
9346,Burton Park,sports field,peel region,..,burton,..,brampton,on
9347,Burton Park,sports field,peel region,..,burton,..,brampton,on
9361,Calderstone Ms,sports field,peel region,160,calderstone,L6P 2L7,brampton,on
9454,Carabram Park,sports field,peel region,..,eagleridge,..,brampton,on
9455,Carabram Park,sports field,peel region,..,eagleridge,..,brampton,on
9456,Carabram Park,sports field,peel region,..,eagleridge,..,brampton,on
9457,Carberry P.S.,sports field,peel region,526,fernforest,L6R 0W1,brampton,on
9464,Cardinal Ambrozic,sports field,peel region,10,castle oaks,L6P 3A2,brampton,on
9465,Cardinal Ambrozic,sports field,peel region,10,castle oaks,L6P 3A2,brampton,on
9469,Cardinal Leger,sports field,peel region,75,mary,L6W 3K5,brampton,on
9470,Cardinal Leger,sports field,peel region,75,mary,L6W 3K5,brampton,on
9471,Cardinal Newman,sports field,peel region,698,balmoral,L6T 1Z1,brampton,on
9500,Carrefour Des Jeunes,sports field,peel region,375,centre,L6V 4N4,brampton,on
9546,Castlebrooke Secondary School,sports field,peel region,10,gardenbrooke,L6P 3L1,brampton,on
9547,Castlebrooke Secondary School,sports field,peel region,10,gardenbrooke,L6P 3L1,brampton,on
9548,Castlebrooke Secondary School,sports field,peel region,10,gardenbrooke,L6P 3L1,brampton,on
9562,Castlehill Park,sports field,peel region,..,kirk,..,brampton,on
9597,Centennial Park,sports field,peel region,..,..,..,brampton,on
9598,Centennial Park,sports field,peel region,..,..,..,brampton,on
9599,Centennial Park,sports field,peel region,..,..,..,brampton,on
9620,Centennial Sr.,sports field,peel region,50,ladore,L6Y 1V5,brampton,on
9621,Centennial Sr.,sports field,peel region,50,ladore,L6Y 1V5,brampton,on
9627,Central Peel,sports field,peel region,32,kennedy,L6V 1X4,brampton,on
9628,Central Peel,sports field,peel region,32,kennedy,L6V 1X4,brampton,on
9629,Central Public School Recreation And Art Centre,sports field,peel region,..,ellen,..,brampton,on
9630,Central Public School Recreation And Art Centre,sports field,peel region,..,ellen,..,brampton,on
9631,Central Public School Recreation And Art Centre,sports field,peel region,..,ellen,..,brampton,on
9632,Central Public School Recreation And Art Centre,sports field,peel region,..,ellen,..,brampton,on
9691,Century Gardens,sports field,peel region,342,vodden,..,brampton,on
9692,Century Gardens,sports field,peel region,342,vodden,..,brampton,on
9775,Cherrytree,sports field,peel region,155,cherrytree,L6Y 3M9,brampton,on
9776,Cherrytree Park,sports field,peel region,175,cherrytree,..,brampton,on
9777,Cheyne Middle,sports field,peel region,236,queen mary,L7A 3L3,brampton,on
