Index,Facility_Name,ODRSF_facility_type,Provider,Street_No,Street_Name,Postal_Code,City,Prov_Terr
176784,Suncrest Parkette,park,brampton,..,..,..,..,on
176789,Sunforest Parkette,park,brampton,..,..,..,..,on
176796,Sunny Meadow Parkette,park,brampton,..,..,..,..,on
176856,Sutter Parkette,park,brampton,..,..,..,..,on
176880,Sweetwood Parkette,park,brampton,..,..,..,..,on
176931,Talbot Park,park,brampton,..,..,..,..,on
176970,Tara Park,park,brampton,..,..,..,..,on
177045,Terryhill Parkette,park,brampton,..,..,..,..,on
177054,Thatcher Parkette,park,brampton,..,..,..,..,on
177129,Thorndale Park,park,brampton,..,..,..,..,on
177177,Tillacoutry Park,park,brampton,..,..,..,..,on
177198,Timberlane Park,park,brampton,..,..,..,..,on
177216,Todd Edward Baylis Park,park,brampton,..,..,..,..,on
177249,Tommy Sprigg Park,park,brampton,..,..,..,..,on
177254,Tony Rinomato Park,park,brampton,..,..,..,..,on
177377,Treeline Park,park,brampton,..,..,..,..,on
177381,Treleaven Park,park,brampton,..,..,..,..,on
177423,Trudelle Parkette,park,brampton,..,..,..,..,on
177438,Tumbleweed Parkette,park,brampton,..,..,..,..,on
177451,Turtle Creek Park,park,brampton,..,..,..,..,on
177483,Twin Falls Park,park,brampton,..,..,..,..,on
177717,Upperlinks Parkette,park,brampton,..,..,..,..,on
177718,Upwood Park,park,brampton,..,..,..,..,on
177747,Valleydown Park,park,brampton,..,..,..,..,on
177773,Van Scott Parkette,park,brampton,..,..,..,..,on
177820,Verity Park,park,brampton,..,..,..,..,on
177843,Via Romano Parkette,park,brampton,..,..,..,..,on
177942,Vodden Park,park,brampton,..,..,..,..,on
177952,Vontress Park,park,brampton,..,..,..,..,on
177972,Wa Russell Parkette,park,brampton,..,..,..,..,on
178063,Watchman Park,park,brampton,..,..,..,..,on
178373,Weybridge Parkette,park,brampton,..,..,..,..,on
178411,Whitewash Parkette,park,brampton,..,..,..,..,on
178431,Wiggins Park,park,brampton,..,..,..,..,on
178508,William Porter Park,park,brampton,..,..,..,..,on
178520,William Sheard Pkt,park,brampton,..,..,..,..,on
178551,Willow Parkette,park,brampton,..,..,..,..,on
178662,Winterfold Park,park,brampton,..,..,..,..,on
178682,Wj Clifford Park,park,brampton,..,..,..,..,on
178770,Woodview Park,park,brampton,..,..,..,..,on
178785,Worthington Park,park,brampton,..,..,..,..,on
178805,Wynview Park,park,brampton,..,..,..,..,on
178863,Zion Parkette,park,brampton,..,..,..,..,on
