Index,Facility_Name,ODRSF_facility_type,Provider,Street_No,Street_Name,Postal_Code,City,Prov_Terr
168766,Iceland Parkette,park,brampton,..,..,..,..,on
168784,Inder Heights Park,park,brampton,..,..,..,..,on
168845,Ironblock Park,park,brampton,..,..,..,..,on
168891,Ivy Bridge Parkette,park,brampton,..,..,..,..,on
168942,Jacksonville Park,park,brampton,..,..,..,..,on
168945,Jacob Shook Park,park,brampton,..,..,..,..,on
168955,James And Edna Davis Park,park,brampton,..,..,..,..,on
168956,James And Margaret Mcgie Park,park,brampton,..,..,..,..,on
168989,James William Hewson Park,park,brampton,..,..,..,..,on
169040,Jefferson Park,park,brampton,..,..,..,..,on
169044,Jellicoe Park,park,brampton,..,..,..,..,on
169050,Jennings Park,park,brampton,..,..,..,..,on
169057,Jersey John Park,park,brampton,..,..,..,..,on
169062,Jesse Perry Park,park,brampton,..,..,..,..,on
169072,Jim Irons Park,park,brampton,..,..,..,..,on
169217,Johnstone Park,park,brampton,..,..,..,..,on
169236,Jordan Park,park,brampton,..,..,..,..,on
169238,Jordanas Rainbow Park,park,brampton,..,..,..,..,on
169240,Jorgen Jensen Parkette,park,brampton,..,..,..,..,on
169251,Joseph Lawson Park,park,brampton,..,..,..,..,on
169284,Jp Hutton Park,park,brampton,..,..,..,..,on
169344,Kanashiro Parkette,park,brampton,..,..,..,..,on
169345,Kaneff Park,park,brampton,..,..,..,..,on
169389,Keirstead Park,park,brampton,..,..,..,..,on
169516,Kim Valley,park,brampton,..,..,..,..,on
169521,Kincaid Parkette,park,brampton,..,..,..,..,on
169524,Kindle Parkette,park,brampton,..,..,..,..,on
169540,Kingfisher Park,park,brampton,..,..,..,..,on
169541,Kingknoll Park,park,brampton,..,..,..,..,on
169577,Kingswood Park,park,brampton,..,..,..,..,on
169869,Knightsbridge Park,park,brampton,..,..,..,..,on
169871,Knightsbridge Park North,park,brampton,..,..,..,..,on
169872,Knightsbridge Park South,park,brampton,..,..,..,..,on
169898,Koretz Park,park,brampton,..,..,..,..,on
169921,La France Park,park,brampton,..,..,..,..,on
169958,Laidlaw Park,park,brampton,..,..,..,..,on
169975,Lake Louise Parkette,park,brampton,..,..,..,..,on
169976,Lake Of Dreams,park,brampton,..,..,..,..,on
169993,Lakelands Park,park,brampton,..,..,..,..,on
170107,Lansing Square Parkette,park,brampton,..,..,..,..,on
170111,Larande Park,park,brampton,..,..,..,..,on
170225,Leflar Park,park,brampton,..,..,..,..,on
170295,Lethbridge Park,park,brampton,..,..,..,..,on
170319,Lightcatcher Park,park,brampton,..,..,..,..,on
170325,Lillie Roberts Park,park,brampton,..,..,..,..,on
170461,Little Minnow Park,park,brampton,..,..,..,..,on
170492,Lloyd Sanderson Park,park,brampton,..,..,..,..,on
170505,Locustwood Parkette,park,brampton,..,..,..,..,on
170512,Lola Park,park,brampton,..,..,..,..,on
