Index,Facility_Name,ODRSF_facility_type,Provider,Street_No,Street_Name,Postal_Code,City,Prov_Terr
162236,Allan Kerbel Park,park,brampton,..,..,..,..,on
162259,Almond Park,park,brampton,..,..,..,..,on
162266,Aloma Park,park,brampton,..,..,..,..,on
162303,Amberwood Parkette,park,brampton,..,..,..,..,on
162333,Anderson Family Park,park,brampton,..,..,..,..,on
162363,Angus Morrison Park,park,brampton,..,..,..,..,on
162376,Anne Nash Park,park,brampton,..,..,..,..,on
162505,Armagh Park,park,brampton,..,..,..,..,on
162508,Armbro Park,park,brampton,..,..,..,..,on
162591,Ashurst Park,park,brampton,..,..,..,..,on
162619,Astorville Parkette,park,brampton,..,..,..,..,on
162627,Atkins Parkette,park,brampton,..,..,..,..,on
162653,Aurora Parkette,park,brampton,..,..,..,..,on
162696,Bach Park,park,brampton,..,..,..,..,on
162734,Balmoral Park,park,brampton,..,..,..,..,on
162747,Banas Parkette,park,brampton,..,..,..,..,on
162767,Banting Park,park,brampton,..,..,..,..,on
162780,Barbreh Brown Park,park,brampton,..,..,..,..,on
162870,Bayridge Park,park,brampton,..,..,..,..,on
162947,Beaconsfield Park,park,brampton,..,..,..,..,on
162962,Beatty-Fleming Park,park,brampton,..,..,..,..,on
163078,Bellcrest Park,park,brampton,..,..,..,..,on
163188,Beresford Parkette,park,brampton,..,..,..,..,on
163192,Berisford Park,park,brampton,..,..,..,..,on
163199,Berkshire Parkette,park,brampton,..,..,..,..,on
163373,Black Forest Park North,park,brampton,..,..,..,..,on
163374,Black Forest Park South,park,brampton,..,..,..,..,on
163391,Blackmere Parkette,park,brampton,..,..,..,..,on
163394,Blackthorn Parkette,park,brampton,..,..,..,..,on
163429,Bloomingdale Park,park,brampton,..,..,..,..,on
163439,Blue Lake Parkette,park,brampton,..,..,..,..,on
163442,Blue Oak Park,park,brampton,..,..,..,..,on
163511,Bonnie Braes Park,park,brampton,..,..,..,..,on
163534,Boreham Park,park,brampton,..,..,..,..,on
163552,Bottomwood Park,park,brampton,..,..,..,..,on
163601,Boyce Park,park,brampton,..,..,..,..,on
163635,Brampton-Marikina Friendship Park,park,brampton,..,..,..,..,on
163694,Bridekirk Park,park,brampton,..,..,..,..,on
163740,Brighton Parkette,park,brampton,..,..,..,..,on
163795,Brookbank Parkette,park,brampton,..,..,..,..,on
163846,Bruce Beer Park,park,brampton,..,..,..,..,on
163890,Buffridge Parkette,park,brampton,..,..,..,..,on
163892,Buick Park,park,brampton,..,..,..,..,on
163936,Burnt Elm Park,park,brampton,..,..,..,..,on
163946,Burton Park,park,brampton,..,..,..,..,on
164016,Calderstone Park,park,brampton,..,..,..,..,on
164133,Cantrill Park,park,brampton,..,..,..,..,on
164134,Cantrill Park North,park,brampton,..,..,..,..,on
164168,Carabram Park,park,brampton,..,..,..,..,on
