Index,Facility_Name,ODRSF_facility_type,Provider,Street_No,Street_Name,Postal_Code,City,Prov_Terr
156059,..,trail,peel region,..,..,..,..,on
156060,..,trail,peel region,..,..,..,..,on
156061,..,trail,peel region,..,..,..,..,on
156062,..,trail,peel region,..,..,..,..,on
156063,..,trail,peel region,..,..,..,..,on
156064,..,trail,peel region,..,..,..,..,on
156065,..,trail,peel region,..,..,..,..,on
156066,..,trail,peel region,..,..,..,..,on
156067,..,trail,peel region,..,..,..,..,on
156068,..,trail,peel region,..,..,..,..,on
156069,..,trail,peel region,..,..,..,..,on
156070,..,trail,peel region,..,..,..,..,on
156071,..,trail,peel region,..,..,..,..,on
156072,..,trail,peel region,..,..,..,..,on
156073,..,trail,peel region,..,..,..,..,on
156074,..,trail,peel region,..,..,..,..,on
156075,..,trail,peel region,..,..,..,..,on
156076,..,trail,peel region,..,..,..,..,on
156077,..,trail,peel region,..,..,..,..,on
156078,..,trail,peel region,..,..,..,..,on
156079,..,trail,peel region,..,..,..,..,on
156080,..,trail,peel region,..,..,..,..,on
156081,..,trail,peel region,..,..,..,..,on
156083,..,trail,peel region,..,..,..,..,on
156084,..,trail,peel region,..,..,..,..,on
156085,..,trail,peel region,..,..,..,..,on
156087,..,trail,peel region,..,..,..,..,on
156088,..,trail,peel region,..,..,..,..,on
162013,A.E. Crookes Park,park,mississauga,140,lakefront,..,mississauga,on
162090,Adamson Estate,park,mississauga,850,enola,..,mississauga,on
162133,Alan Bradley Park,park,mississauga,749,melton,..,mississauga,on
162143,Albert Mcbride Park,park,mississauga,3811,teeswater,..,mississauga,on
162255,Allison's Park,park,mississauga,575,willowbank,..,mississauga,on
162320,Anaka Park,park,mississauga,7666,anaka,..,mississauga,on
162418,Appledale Park,park,mississauga,1325,lakeshore,..,mississauga,on
162424,Applewood Heights,park,mississauga,3119,constitution,..,mississauga,on
162425,Applewood Hills,park,mississauga,1204,bloor,..,mississauga,on
162426,Applewood North Park,park,mississauga,1280,melton,..,mississauga,on
162433,Aquinas Park,park,mississauga,3400,aquinas,..,mississauga,on
162440,Arbour Green,park,mississauga,4145,treetop,..,mississauga,on
162573,Ashgate Park,park,mississauga,846,rathburn,..,mississauga,on
162594,Ashwood Park,park,mississauga,2405,cliff,..,mississauga,on
162599,Aspen Ridge,park,mississauga,7290,aspen,..,mississauga,on
162683,Avongate Park,park,mississauga,2449,avongate,..,mississauga,on
162684,Avonlea Grove,park,mississauga,6807,forest park,..,mississauga,on
162749,Bancroft Park,park,mississauga,955,bancroft,..,mississauga,on
162778,Barberton Park,park,mississauga,1930,barbertown,..,mississauga,on
162802,Barondale Green,park,mississauga,150,barondale,..,mississauga,on
163023,Bedford Park,park,mississauga,1590,parade,..,mississauga,on
