Index,Facility_Name,ODRSF_facility_type,Provider,Street_No,Street_Name,Postal_Code,City,Prov_Terr
17714,Thomas Street Middle,sports field,peel region,2640,thomas,L5M 5G8,mississauga,on
17723,Thorn Lodge,sports field,peel region,2730,thorn lodge,L5K 1L2,mississauga,on
17724,Thorn Lodge,sports field,peel region,2730,thorn lodge,L5K 1L2,mississauga,on
17725,Thorn Lodge,sports field,peel region,2730,thorn lodge,L5K 1L2,mississauga,on
17728,Thorncrest Park,sports field,peel region,3295,thorncrest,..,mississauga,on
17729,Thorncrest Park,sports field,peel region,3295,thorncrest,..,mississauga,on
17730,Thorncrest Park,sports field,peel region,3295,thorncrest,..,mississauga,on
17733,Thornlodge Park,sports field,peel region,2405,homelands,..,mississauga,on
17734,Thornlodge Park,sports field,peel region,2405,homelands,..,mississauga,on
17735,Thornlodge Park,sports field,peel region,2405,homelands,..,mississauga,on
17736,Thornwood,sports field,peel region,277,mississ vly,L5A 1Y6,mississauga,on
17737,Thornwood,sports field,peel region,277,mississauga valley,L5A 1Y6,mississauga,on
17738,Thornwood,sports field,peel region,277,mississauga valley,L5A 1Y6,mississauga,on
17746,Tillsdown Park,sports field,peel region,1620,sir monty's,..,mississauga,on
17747,Tillsdown Park,sports field,peel region,1620,sir monty's,..,mississauga,on
17759,Tobias Mason Park,sports field,peel region,3274,cactus,..,mississauga,on
17760,Tobias Mason Park,sports field,peel region,3274,cactus,..,mississauga,on
17761,Tobias Mason Park,sports field,peel region,3274,cactus,..,mississauga,on
17786,Tom Chater Memorial Park,sports field,peel region,3195,the-collegeway,L5L 4Z6,mississauga,on
17787,Tom Chater Memorial Park,sports field,peel region,3195,the-collegeway,L5L 4Z6,mississauga,on
17788,Tom Chater Memorial Park,sports field,peel region,3195,the-collegeway,L5L 4Z6,mississauga,on
17789,Tom Chater Memorial Park,sports field,peel region,3195,the-collegeway,L5L 4Z6,mississauga,on
17794,Tomken Road Middle,sports field,peel region,3200,tomken,L4Y 2Y6,mississauga,on
17795,Tomken Road Middle,sports field,peel region,3200,tomken,L4Y 2Y6,mississauga,on
17796,Tomken Road Middle,sports field,peel region,3200,tomken,L4Y 2Y6,mississauga,on
17797,Tomken Road Middle,sports field,peel region,3200,tomken,L4Y 2Y6,mississauga,on
17798,Tomken Road Middle,sports field,peel region,3200,tomken,L4Y 2Y6,mississauga,on
17799,Tomken Road Middle,sports field,peel region,3200,tomken,L4Y 2Y6,mississauga,on
17808,Toronto Golf Club,sports field,york region,1305,dixie,L5E 2P5,mississauga,on
17810,Totoredaca Park,sports field,peel region,2715,meadowvale,..,mississauga,on
17811,Totoredaca Park,sports field,peel region,2715,meadowvale,..,mississauga,on
17812,Totoredaca Park,sports field,peel region,2715,meadowvale,..,mississauga,on
17813,Totoredaca Park,sports field,peel region,2715,meadowvale,..,mississauga,on
17814,Totoredaca Park,sports field,peel region,2715,meadowvale,..,mississauga,on
17815,Totoredaca Park,sports field,peel region,2715,meadowvale,..,mississauga,on
17842,Trafalgar Common,sports field,peel region,3110,mcdowell,L5M 6J4,mississauga,on
17854,Trelawny,sports field,peel region,3420,trelawny,L5N 6N6,mississauga,on
17855,Trelawny Woods,sports field,peel region,3500,trelawny,L5N 6N7,mississauga,on
17856,Trelawny Woods,sports field,peel region,3500,trelawny,L5N 6N7,mississauga,on
17938,Union Park,sports field,peel region,6627,tenth,L5N 5L5,mississauga,on
17942,United Soccer Centre,sports field,mississauga,3413,wolfedale,L5C 1V8,..,on
17945,University Of Toronto At Mississauga,sports field,peel region,3359,mississauga,L5L 1C6,mississauga,on
17946,University Of Toronto At Mississauga,sports field,peel region,3359,mississauga,L5L 1C6,mississauga,on
17947,University Of Toronto At Mississauga,sports field,peel region,3359,mississauga,L5L 1C6,mississauga,on
17948,Unlit Tennis Court - East Malton Village Park,sports field,mississauga,39,beverley,..,mississauga,on
17949,Unlit Tennis Court - West Malton Village Park,sports field,mississauga,39,beverley,..,mississauga,on
18049,Vista Heights,sports field,peel region,89,vista,L5M 1V8,mississauga,on
18225,West Credit Secondary School,sports field,peel region,6325,montevideo,L5N 4G7,mississauga,on
18226,West Credit Secondary School,sports field,peel region,6325,montevideo,L5N 4G7,mississauga,on
