Index,Facility_Name,ODRSF_facility_type,Provider,Street_No,Street_Name,Postal_Code,City,Prov_Terr
14039,Norton Place Park,sports field,peel region,..,..,..,brampton,on
14051,Notre Dame,sports field,peel region,2,notre-dame,L6Z 4L5,brampton,on
14052,Notre Dame,sports field,peel region,2,notre-dame,L6Z 4L5,brampton,on
14058,Notre Dame Park,sports field,peel region,..,richvale,..,brampton,on
14125,Old Fairgrounds Park,sports field,peel region,61,elliott,..,brampton,on
14126,Old Fairgrounds Park,sports field,peel region,61,elliott,..,brampton,on
14127,Old Fairgrounds Park,sports field,peel region,61,elliott,..,brampton,on
14220,Our Lady Of Fatima,sports field,peel region,39,sunset,L6X 1X1,brampton,on
14221,Our Lady Of Fatima,sports field,peel region,39,sunset,L6X 1X1,brampton,on
14227,Our Lady Of Lourdes,sports field,peel region,25,mount royal,L6P 1W3,brampton,on
14231,Our Lady Of Peace,sports field,peel region,15,fincham,L6X 3V2,brampton,on
14232,Our Lady Of Peace,sports field,peel region,15,fincham,L6X 3V2,brampton,on
14233,Our Lady Of Providence,sports field,peel region,35,black oak,L6R 1B9,brampton,on
14681,Parkshore Golf Club,sports field,peel region,7797,goreway,L6T 0B1,brampton,on
14682,Parkway,sports field,peel region,24,duncan bull,L6W 1H4,brampton,on
14683,Parkway,sports field,peel region,24,duncan bull,L6W 1H4,brampton,on
14684,Parkway,sports field,peel region,24,duncan bull,L6W 1H4,brampton,on
14701,Pauline Vanier,sports field,peel region,56,oaklea,..,brampton,on
14714,Peel Alternative School North,sports field,peel region,315,bartley bull,L6W 2L4,mississauga,on
14716,Peel Village Golf Club,sports field,peel region,29,hartford,L6W 4K2,brampton,on
14717,Peel Village Park,sports field,peel region,..,..,..,brampton,on
14909,Professor's Lake Park,sports field,peel region,..,park,..,brampton,on
15086,Queen Street,sports field,peel region,635,queen,L6Y 5L6,brampton,on
15087,Queen Street,sports field,peel region,635,queen,L6Y 5L6,brampton,on
15174,Ray Lawson Valley,sports field,peel region,150,ray lawson,..,brampton,on
15175,Ray Lawson Valley,sports field,peel region,150,ray lawson,..,brampton,on
15254,Richvale Park,sports field,peel region,..,..,..,brampton,on
15255,Richvale Park,sports field,peel region,..,..,..,brampton,on
15256,Richvale Park,sports field,peel region,..,..,..,brampton,on
15257,Richvale Park,sports field,peel region,..,..,..,brampton,on
15258,Richvale Park,sports field,peel region,..,..,..,brampton,on
15259,Richvale Park,sports field,peel region,..,..,..,brampton,on
15280,Ridgeview,sports field,peel region,25,brenda,L6Y 2A1,brampton,on
15362,Riverstone Golf And Country Club,sports field,peel region,195,don minaker,L6P 2V1,brampton,on
15374,Robert H. Lagerquist Sr.,sports field,peel region,105,richvale,L6Z 1Y6,brampton,on
15378,Robert J. Lee,sports field,peel region,160,mountainash,L6R 1J1,brampton,on
15380,Robert Post Park,sports field,peel region,295,veterans,..,brampton,on
15381,Roberta Bondar,sports field,peel region,30,pantomine,L6Y 5N2,brampton,on
15425,Rosalea Park,sports field,peel region,..,church,..,brampton,on
15438,Rosedale Village,sports field,peel region,..,dixie,L6R 0B2,brampton,on
15439,Rosedale Village Golf Club,sports field,peel region,..,dixie,L6R 0B2,brampton,on
15440,Rosedale Village Golf Club - Clubhouse,sports field,peel region,..,dixie,L6R 0B2,brampton,on
15448,Ross Drive,sports field,peel region,40,ross,L6R 3S7,brampton,on
15490,Royal Orchard Middle,sports field,peel region,77,royal orchard,L6X 4M4,brampton,on
15542,Russell D. Barber,sports field,peel region,255,park,L6S 6A5,brampton,on
15543,Russell D. Barber,sports field,peel region,255,park,L6S 6A5,brampton,on
15567,Sainte Jeanne D'Arc,sports field,peel region,25,laurelcrest,L6S 4C4,brampton,on
15568,Sainte Jeanne D'Arc,sports field,peel region,25,laurelcrest,L6S 4C4,brampton,on
15601,Sandalwood Heights Ss,sports field,peel region,2671,sandalwood,L6R 0K7,brampton,on
