Index,Facility_Name,ODRSF_facility_type,Provider,Street_No,Street_Name,Postal_Code,City,Prov_Terr
20213,Albion Hills Conservation Area,trail,peel region,..,..,..,..,on
20214,Albion Hills Conservation Area - A - Imba Alley,trail,peel region,..,..,..,..,on
20215,Albion Hills Conservation Area - A - Imba Alley,trail,peel region,..,..,..,..,on
20216,Albion Hills Conservation Area - B - Gnarly Berms,trail,peel region,..,..,..,..,on
20217,Albion Hills Conservation Area - Black Trail,trail,peel region,..,..,..,..,on
20218,Albion Hills Conservation Area - Black Trail,trail,peel region,..,..,..,..,on
20219,Albion Hills Conservation Area - Blue Trail,trail,peel region,..,..,..,..,on
20220,Albion Hills Conservation Area - Blue Trail,trail,peel region,..,..,..,..,on
20221,Albion Hills Conservation Area - Blue Trail,trail,peel region,..,..,..,..,on
20222,Albion Hills Conservation Area - Blue Trail,trail,peel region,..,..,..,..,on
20223,Albion Hills Conservation Area - Blue Trail,trail,peel region,..,..,..,..,on
20224,Albion Hills Conservation Area - Blue Trail,trail,peel region,..,..,..,..,on
20225,Albion Hills Conservation Area - C - Goat Path,trail,peel region,..,..,..,..,on
20226,Albion Hills Conservation Area - Connector Trail,trail,peel region,..,..,..,..,on
20227,Albion Hills Conservation Area - Connector Trail,trail,peel region,..,..,..,..,on
20228,Albion Hills Conservation Area - Connector Trail,trail,peel region,..,..,..,..,on
20229,Albion Hills Conservation Area - Connector Trail,trail,peel region,..,..,..,..,on
20230,Albion Hills Conservation Area - Connector Trail,trail,peel region,..,..,..,..,on
20231,Albion Hills Conservation Area - Connector Trail,trail,peel region,..,..,..,..,on
20232,Albion Hills Conservation Area - Connector Trail,trail,peel region,..,..,..,..,on
20233,Albion Hills Conservation Area - Connector Trail,trail,peel region,..,..,..,..,on
20234,Albion Hills Conservation Area - Connector Trail,trail,peel region,..,..,..,..,on
20235,Albion Hills Conservation Area - Connector Trail,trail,peel region,..,..,..,..,on
20236,Albion Hills Conservation Area - Connector Trail,trail,peel region,..,..,..,..,on
20237,Albion Hills Conservation Area - Connector Trail,trail,peel region,..,..,..,..,on
20238,Albion Hills Conservation Area - Connector Trail,trail,peel region,..,..,..,..,on
20239,Albion Hills Conservation Area - Connector Trail,trail,peel region,..,..,..,..,on
20240,Albion Hills Conservation Area - Connector Trail,trail,peel region,..,..,..,..,on
20241,Albion Hills Conservation Area - G - Get Groen,trail,peel region,..,..,..,..,on
20242,Albion Hills Conservation Area - Green Trail,trail,peel region,..,..,..,..,on
20243,Albion Hills Conservation Area - Green Trail,trail,peel region,..,..,..,..,on
20244,Albion Hills Conservation Area - H - Moraine Momentum,trail,peel region,..,..,..,..,on
20245,Albion Hills Conservation Area - Humber Valley Heritage Trail,trail,peel region,..,..,..,..,on
20246,Albion Hills Conservation Area - Humber Valley Heritage Trail,trail,peel region,..,..,..,..,on
20247,Albion Hills Conservation Area - I - Pining For More,trail,peel region,..,..,..,..,on
20248,Albion Hills Conservation Area - K - Tea Cup,trail,peel region,..,..,..,..,on
20249,Albion Hills Conservation Area - K - Tea Cup,trail,peel region,..,..,..,..,on
20250,Albion Hills Conservation Area - L - Bmbc Twister,trail,peel region,..,..,..,..,on
20251,Albion Hills Conservation Area - M - Albion Witch,trail,peel region,..,..,..,..,on
20252,Albion Hills Conservation Area - M - Albion Witch,trail,peel region,..,..,..,..,on
20253,Albion Hills Conservation Area - N: Live And Learn,trail,peel region,..,..,..,..,on
20254,Albion Hills Conservation Area - N: Live And Learn,trail,peel region,..,..,..,..,on
20255,Albion Hills Conservation Area - O - Epic Ride,trail,peel region,..,..,..,..,on
20256,Albion Hills Conservation Area - O - Epic Ride,trail,peel region,..,..,..,..,on
20257,Albion Hills Conservation Area - O - Epic Ride,trail,peel region,..,..,..,..,on
20258,Albion Hills Conservation Area - P - Handle With Care,trail,peel region,..,..,..,..,on
20259,Albion Hills Conservation Area - P - Handle With Care,trail,peel region,..,..,..,..,on
20260,Albion Hills Conservation Area - P - Handle With Care,trail,peel region,..,..,..,..,on
20261,Albion Hills Conservation Area - P - Handle With Care,trail,peel region,..,..,..,..,on
