Index,Facility_Name,ODRSF_facility_type,Provider,Street_No,Street_Name,Postal_Code,City,Prov_Terr
8241,Ball Diamond Multi Purpose Lit - South East Brickyard Park,sports field,mississauga,3061,clayhill,..,mississauga,on
8242,Ball Diamond Softball Lit - Diamond 1 Birchwood Park,sports field,mississauga,1075,clarkson,..,mississauga,on
8243,Ball Diamond Softball Minor Unlit - North West Birchwood Park,sports field,mississauga,1075,clarkson,..,mississauga,on
8244,Ball Diamond Softball Unlit Castlegreen Meadows,sports field,mississauga,2829,castlebridge,..,mississauga,on
8245,Ball Diamond Softball Unlit City View Park,sports field,mississauga,565,central,..,mississauga,on
8246,Ball Diamond Softball Unlit Cordingley Park,sports field,mississauga,6530,saratoga,..,mississauga,on
8247,Ball Diamond Softball Unlit Duncairn Downs,sports field,mississauga,2860,duncairn,..,mississauga,on
8248,Ball Diamond Softball Unlit Forest Park,sports field,mississauga,6810,forest park,..,mississauga,on
8249,Ball Diamond Softball Unlit Godwick Green,sports field,mississauga,1371,godwick,..,mississauga,on
8250,Ball Diamond Softball Unlit Gooderham Park,sports field,mississauga,6938,gooderham,..,mississauga,on
8251,Ball Diamond Softball Unlit Heatherleigh Park,sports field,mississauga,5284,heatherleigh,..,mississauga,on
8252,Ball Diamond Softball Unlit Knotty Pine Park,sports field,mississauga,835,knotty,..,mississauga,on
8253,Ball Diamond Softball Unlit Novo Star Park,sports field,mississauga,640,novo star,..,mississauga,on
8254,Ball Diamond Softball Unlit Red Brush Park,sports field,mississauga,5139,red brush,..,mississauga,on
8255,Ball Diamond Softball Unlit Sonoma Park,sports field,mississauga,5565,terry fox,..,mississauga,on
8256,Ball Diamond Softball Unlit Tobias Mason Park,sports field,mississauga,3274,cactus,..,mississauga,on
8257,Ball Diamond Softball Unlit Willowvale Fields,sports field,mississauga,1340,willowvale,..,mississauga,on
8258,Ball Dmond Multiprps Softball Unlt Malton Village Park,sports field,mississauga,39,beverley,..,mississauga,on
8259,Ball Dmond Softball Minor Unlit - Central Birchwood Park,sports field,mississauga,1075,clarkson,..,mississauga,on
8260,Ball Dmond Softball Minor Unlit - West Birchwood Park,sports field,mississauga,1075,clarkson,..,mississauga,on
8261,Ball Dmond Softball Unlit - Diamond 2 - East Birchwood Park,sports field,mississauga,1075,clarkson,..,mississauga,on
8262,Ball Dmond-Softball-Lit Erin Mills Middle (6-8) (Ps),sports field,mississauga,3546,common,..,mississauga,on
8263,"Ball Dmond-Softball-Minor-Unlit 3 Springfield (K-5, Fi) (Ps)",sports field,mississauga,3251,the credit woodlands,..,mississauga,on
8264,"Ball Dmond-Softball-Minor-Unlit 4 Springfield (K-5, Fi) (Ps)",sports field,mississauga,3251,the credit woodlands,..,mississauga,on
8265,"Ball Dmond-Softball-Minor-Unlt 1 Springfield (K-5, Fi) (Ps)",sports field,mississauga,3251,the credit woodlands,..,mississauga,on
8266,"Ball Dmond-Softball-Minor-Unlt 2 Springfield (K-5, Fi) (Ps)",sports field,mississauga,3251,the credit woodlands,..,mississauga,on
8284,Bancroft Park,sports field,peel region,955,bancroft,..,mississauga,on
8304,Barondale,sports field,peel region,200,barondale,L4Z 3N7,mississauga,on
8305,Barondale,sports field,peel region,200,barondale,L4Z 3N7,mississauga,on
8306,Barondale Green,sports field,peel region,150,barondale,..,mississauga,on
8307,Barondale Green,sports field,peel region,150,barondale,..,mississauga,on
8320,Baseball Dmnd Lit 1 Mississauga Valley,sports field,mississauga,1275,mississauga valley,..,mississauga,on
8321,Baseball Dmnd Lit Clarkson Park,sports field,mississauga,1125,winston churchill,..,mississauga,on
8322,Baseball Dmnd Lit Douglas Kennedy Park,sports field,mississauga,810,lakefront,..,mississauga,on
8323,Baseball Dmnd Lit Dr. Martin L. Dobkin Park,sports field,mississauga,395,fairview,..,mississauga,on
8324,Baseball Dmnd Lit Fallingbrook Community Park,sports field,mississauga,5135,fallingbrook,..,mississauga,on
8325,Baseball Dmnd Lit Lisgar Fields,sports field,mississauga,3805,doug leavens,..,mississauga,on
8326,Baseball Dmnd Lit Meadowvale Sports Park,sports field,mississauga,2255,meadowvale,..,mississauga,on
8327,Baseball Dmnd Lit N Ninth Line Sports Park,sports field,mississauga,3115,ninth line,..,mississauga,on
8328,Baseball Dmnd Lit Quenippenon Meadows,sports field,mississauga,2625,erin centre,..,mississauga,on
8329,Baseball Dmnd Lit River Grove,sports field,mississauga,5800,river,..,mississauga,on
8330,Baseball Dmnd Lit S Fleetwood Park,sports field,mississauga,2000,burnhamthorpe,..,mississauga,on
8331,Baseball Dmnd Lit S Ninth Line Sports Park,sports field,mississauga,3115,ninth line,..,mississauga,on
8332,Baseball Dmnd Lit South Common,sports field,mississauga,3555,glen,..,mississauga,on
8333,Baseball Dmnd Lit Springfield Park,sports field,mississauga,3325,the credit woodlands,..,mississauga,on
8334,Baseball Dmnd Unlit Hunter's Green,sports field,mississauga,2780,gananoque,..,mississauga,on
8335,Baseball Dmnd Unlit Kogaydiwin Park,sports field,mississauga,1585,finfar,..,mississauga,on
8336,Baseball Dmnd Unlit Meadow Green,sports field,mississauga,6595,falconer,..,mississauga,on
8337,Baseball Dmnd Unlit Rathwood District Park,sports field,mississauga,1095,rathburn,..,mississauga,on
