Index,Facility_Name,ODRSF_facility_type,Provider,Street_No,Street_Name,Postal_Code,City,Prov_Terr
12388,Ken Park,sports field,peel region,..,..,..,brampton,on
12429,Khalsa Community School,sports field,peel region,69,maitland,..,brampton,on
12430,Khalsa Community School,sports field,peel region,69,maitland,..,brampton,on
12485,Kingswood Drive,sports field,peel region,235,kingswood,L6V 3B3,brampton,on
12486,Kingswood Drive,sports field,peel region,235,kingswood,L6V 3B3,brampton,on
12487,Kingswood Park,sports field,peel region,221,kingswood,..,brampton,on
12488,Kingswood Park,sports field,peel region,221,kingswood,..,brampton,on
12766,Knightsbridge Park,sports field,peel region,..,..,..,brampton,on
12767,Knightsbridge Park,sports field,peel region,..,..,..,brampton,on
12781,La France Park,sports field,peel region,..,..,..,brampton,on
12901,Larkspur,sports field,peel region,111,larkspur,L6R 1X2,brampton,on
12902,Larkspur,sports field,peel region,111,larkspur,L6R 1X2,brampton,on
12953,Leander Park,sports field,peel region,..,..,..,brampton,on
13074,Lionhead Golf And Country Club,sports field,peel region,8525,mississauga,L6Y 0C1,brampton,on
13126,Loafer's Lake Park,sports field,peel region,..,loafer's lake,..,brampton,on
13127,Loafer's Lake Park,sports field,peel region,..,loafer's lake,..,brampton,on
13128,Loafer's Lake Park,sports field,peel region,..,loafer's lake,..,brampton,on
13172,Louise Arbour Ss,sports field,peel region,365,father tobin,L6R 0R4,brampton,on
13258,Madoc Drive,sports field,peel region,49,madoc,L6V 2A1,brampton,on
13259,Madoc Drive,sports field,peel region,49,madoc,L6V 2A1,brampton,on
13260,Madoc Drive,sports field,peel region,49,madoc,L6V 2A1,brampton,on
13261,Madoc Park,sports field,peel region,..,crawford,..,brampton,on
13284,Major Oaks Park,sports field,peel region,..,williams,..,brampton,on
13288,Major William Sharpe Park,sports field,peel region,..,..,..,brampton,on
13419,Massey Street,sports field,peel region,95,massey,L6S 3A3,brampton,on
13460,Mccrommon Middle,sports field,peel region,83,mccrimmon,L7A 2Z3,brampton,on
13516,Mcmicking Park,sports field,peel region,..,hill,..,brampton,on
13547,Meadowland Park,sports field,peel region,..,meadowland,..,brampton,on
13548,Meadowland Park,sports field,peel region,..,meadowland,..,brampton,on
13549,Meadowland Park,sports field,peel region,..,meadowland,..,brampton,on
13605,Michael Murphy Park,sports field,peel region,..,..,..,brampton,on
13736,Minaker Park,sports field,peel region,..,..,..,brampton,on
13805,Moorehead Park,sports field,peel region,..,moorehead,..,brampton,on
13806,Moorehead Park,sports field,peel region,..,moorehead,..,brampton,on
13828,Morris Kerbel Park,sports field,peel region,..,conestoga,..,brampton,on
13829,Morris Kerbel Park,sports field,peel region,..,conestoga,..,brampton,on
13830,Morris Kerbel Park,sports field,peel region,..,conestoga,..,brampton,on
13831,Morris Kerbel Park,sports field,peel region,..,conestoga,..,brampton,on
13842,Morton Way,sports field,peel region,200,morton,L6Y 2P8,brampton,on
13847,Mosswood Park,sports field,peel region,..,..,..,brampton,on
13858,Mount Pleasant Village,sports field,peel region,100,commuter,L7A 0P7,brampton,on
13859,Mount Royal,sports field,peel region,65,mount royal,L6P 2K4,brampton,on
13867,Mountain Ash,sports field,peel region,280,mountainash,L6R 3G2,brampton,on
13914,Nasmith Park,sports field,peel region,38,nasmith,..,brampton,on
14013,North Park,sports field,peel region,10,park,L6S 3M1,brampton,on
14027,Northampton Park,sports field,peel region,..,..,..,brampton,on
14028,Northampton Park,sports field,peel region,..,..,..,brampton,on
14033,Northwood,sports field,peel region,70,gretna,L6X 2000000000,brampton,on
14037,Northwood Park,sports field,peel region,..,..,..,brampton,on
