Index,Facility_Name,ODRSF_facility_type,Provider,Street_No,Street_Name,Postal_Code,City,Prov_Terr
13311,Manor Hill,sports field,peel region,2225,manor hill,..,mississauga,on
13312,Manor Hill,sports field,peel region,2225,manor hill,..,mississauga,on
13344,Maple Wood,sports field,peel region,2650,gananoque,L5N 2R2,mississauga,on
13345,Maple Wood,sports field,peel region,2650,gananoque,L5N 2R2,mississauga,on
13346,Maple Wood,sports field,peel region,2650,gananoque,L5N 2R2,mississauga,on
13355,Marco Muzzo Memorial Woods & Park,sports field,peel region,5098,perennial,..,mississauga,on
13356,Marco Muzzo Memorial Woods & Park,sports field,peel region,5098,perennial,..,mississauga,on
13385,Marvin Heights,sports field,peel region,7455,redstone,L4T 2B3,mississauga,on
13386,Marvin Heights,sports field,peel region,7455,redstone,L4T 2B3,mississauga,on
13387,Marvin Heights,sports field,peel region,7455,redstone,L4T 2B3,mississauga,on
13389,Mary Fix,sports field,peel region,486,paisley,L5B 2M4,mississauga,on
13431,Max Ward Park,sports field,peel region,2380,matheson,L4W 5G9,mississauga,on
13432,Max Ward Park,sports field,peel region,2380,matheson,L4W 5G9,mississauga,on
13433,Max Ward Park,sports field,peel region,2380,matheson,L4W 5G9,mississauga,on
13457,Mccracken Community Park,sports field,peel region,5510,velda,..,mississauga,on
13458,Mccracken Community Park,sports field,peel region,5510,velda,..,mississauga,on
13459,Mccracken Community Park,sports field,peel region,5510,velda,..,mississauga,on
13479,Mckechnie Woods,sports field,peel region,310,bristol,L4Z 3V5,mississauga,on
13480,Mckechnie Woods,sports field,peel region,310,bristol,L4Z 3V5,mississauga,on
13492,Mckenzie Park,sports field,peel region,575,mississauga valley,..,mississauga,on
13499,Mckinnon,sports field,peel region,3270,tacc,L5M 0H3,mississauga,on
13533,Meadow Glen,sports field,peel region,535,rathburn,..,mississauga,on
13534,Meadow Glen,sports field,peel region,535,rathburn,..,mississauga,on
13535,Meadow Glen,sports field,peel region,535,rathburn,..,mississauga,on
13536,Meadow Green,sports field,peel region,6595,falconer,..,mississauga,on
13537,Meadow Green,sports field,peel region,6595,falconer,..,mississauga,on
13538,Meadow Park,sports field,peel region,2203,truscott,L5J 2A7,mississauga,on
13557,Meadowood Park,sports field,peel region,1620,orr,L5J 4T2,mississauga,on
13559,Meadowvale,sports field,peel region,6700,edenwood,L5N 3B2,mississauga,on
13560,Meadowvale Sports Park,sports field,peel region,2255,meadowvale,..,mississauga,on
13561,Meadowvale Sports Park,sports field,peel region,2255,meadowvale,..,mississauga,on
13562,Meadowvale Sports Park,sports field,peel region,2255,meadowvale,..,mississauga,on
13563,Meadowvale Sports Park,sports field,peel region,2255,meadowvale,..,mississauga,on
13565,Meadowvale Village,sports field,peel region,890,old derry,L5W 1A1,mississauga,on
13566,Meadowvale Village,sports field,peel region,890,old derry,L5W 1A1,mississauga,on
13588,Mentor College,sports field,peel region,40,forest,L5G 1L1,mississauga,on
13589,Mentor College,sports field,peel region,40,forest,L5G 1L1,mississauga,on
13590,Mentor College,sports field,peel region,40,forest,L5G 1L1,mississauga,on
13601,Metropolitan Andrei,sports field,peel region,515,mississauga valley,L5A 3G6,mississauga,on
13667,Middlebury,sports field,peel region,5482,middlebury,L5M 5G7,mississauga,on
13668,Middlebury Green,sports field,peel region,5510,middlebury,L5M 5G7,mississauga,on
13669,Middlebury Green,sports field,peel region,5510,middlebury,L5M 5G7,mississauga,on
13670,Middlebury Green,sports field,peel region,5510,middlebury,L5M 5G7,mississauga,on
13706,Miller's Grove,sports field,peel region,6325,miller's,L5N 3K2,mississauga,on
13707,Miller's Grove,sports field,peel region,6325,miller's,L5N 3K2,mississauga,on
13741,Mineola,sports field,peel region,145,windy oaks,L5G 1Z4,mississauga,on
13742,Mineola,sports field,peel region,145,windy oaks,L5G 1Z4,mississauga,on
13743,Mineola,sports field,peel region,145,windy oaks,L5G 1Z4,mississauga,on
13744,Mineola,sports field,peel region,145,windy oaks,L5G 1Z4,mississauga,on
