Index,Facility_Name,ODRSF_facility_type,Provider,Street_No,Street_Name,Postal_Code,City,Prov_Terr
746,Cawthra Twin Rinks,rink,peel region,1399,cawthra,L5G 4L1,mississauga,on
756,Cedarbrae Park,playground,peel region,565,lolita,..,mississauga,on
763,Celebration Square Ice Rink,rink,brampton,300,city centre,L5B 3C1,mississauga,on
973,Century City,playground,peel region,933,focal,L5V 1M8,mississauga,on
979,Ceremonial Green,playground,peel region,600,ceremonial,..,mississauga,on
1024,Chep Equipment Pooling System,pool,mississauga,7400,danbro,L5N 8C6,mississauga,on
1027,Cherry Hill,playground,peel region,828,flagship,..,mississauga,on
1031,Chic Murray Arena,arena,peel region,1500,gulleden,L4X 2J6,mississauga,on
1066,Churchill Meadow Spray Pad,splash pad,peel region,3370,mcdowell,..,mississauga,on
1067,Churchill Meadows Community Common,playground,peel region,3370,mcdowell,..,mississauga,on
1081,Civic Centre Outdoor Rink,rink,peel region,300,city centre,L5B 3C1,mississauga,on
1097,Clarkson Arena,arena,peel region,2475,truscott,L5J 2B3,mississauga,on
1098,Clarkson Community Centre,community centre,peel region(caledon),2475,truscott,L5J 2B3,mississauga,on
1099,Clarkson Community Centre & Library Grounds,playground,peel region,2475,truscott,L5J 2B3,mississauga,on
1100,Clarkson Community Centre & Library Grounds,splash pad,peel region,2475,truscott,L5J 2B3,mississauga,on
1101,Clarkson Park,playground,peel region,1125,winston churchill,..,mississauga,on
1102,Clarkson Pool,pool,mississauga,2524,bromsgrove,L5J 1L8,mississauga,on
1104,Clarkson Ps,playground,peel region,888,clarkson,L5J 2V3,mississauga,on
1118,Clover Meadows,playground,peel region,1090,white clover,L5V 1G7,mississauga,on
1177,Cooksville Park,playground,peel region,106,king,L5A 1S9,mississauga,on
1178,Coopers Common,playground,peel region,7120,appletree,..,mississauga,on
1183,Coram Park,playground,peel region,1795,coram,..,mississauga,on
1184,Cordingley Park,playground,peel region,6530,saratoga,..,mississauga,on
1204,Corsair,playground,peel region,2230,corsair,L5A 2L9,mississauga,on
1225,Courtneypark Athletic Fields,playground,peel region,600,courtneypark,L5W 1L9,mississauga,on
1230,Crawford Green,playground,peel region,4565,glen erin,..,mississauga,on
1231,Credit Pointe Village,playground,peel region,4635,credit pointe,..,mississauga,on
1234,Credit Village Marina,marina,brampton,12,stavebank,L5G 2T4,mississauga,on
1302,David Ramsey Outdoor Pool,pool,mississauga,2470,thorn lodge,L5K 1K5,mississauga,on
1303,David Ramsey Pool,pool,peel region,2470,thornlodge,L5K 1K5,mississauga,on
1308,Dean Henderson Memorial Park,playground,peel region,2909,hammond,L5K 2M5,mississauga,on
1319,Deer Wood Park,playground,peel region,1100,rathburn,..,mississauga,on
1324,Dellwood Park,playground,peel region,598,arbor,..,mississauga,on
1368,Don Gould Park,playground,peel region,2441,fifth,L5K 1V9,mississauga,on
1372,Don Mclean Westacres Pool,pool,peel region,2166,westfield,L4Y 1P7,mississauga,on
1412,Dr. Martin L. Dobkin Park,playground,peel region,395,fairview,..,mississauga,on
1433,Duncairn Downs,playground,peel region,2860,duncairn,..,mississauga,on
1495,Eastgate Park,playground,peel region,320,nahani,L4Z 3B4,mississauga,on
1515,Eden Woods,playground,peel region,6647,tenth,L5N 5L5,mississauga,on
1516,Edengrove,playground,peel region,3071,tours,..,mississauga,on
1557,Elmcreek Park,playground,peel region,7320,darcel,..,mississauga,on
1580,Erin Meadows Community Centre,community centre,peel region(caledon),2800,erin centre,L5M 6R5,mississauga,on
1581,Erin Meadows Pool,pool,brampton,2800,erin centre,L5M 6R5,mississauga,on
1582,Erin Mills Twin Arena,arena,brampton,3205,unity,L5L 4L5,mississauga,on
1583,Erin Mills Twin Rinks,rink,peel region,3205,unity,L5L 4L5,mississauga,on
1585,Erindale Park,playground,peel region,1695,dundas,L4X 1L5,mississauga,on
1586,Erindale Pool,pool,peel region,1244,shamir,L5C 1L1,mississauga,on
1609,F.B. Mcfarren Memorial Park,playground,peel region,5255,mcfarren,..,mississauga,on
1630,Fairview Park,playground,peel region,3300,palgrave,..,mississauga,on
