Index,Facility_Name,ODRSF_facility_type,Provider,Street_No,Street_Name,Postal_Code,City,Prov_Terr
15306,River Grove,sports field,peel region,5800,river grove,L5M 4R9,mississauga,on
15307,River Grove,sports field,peel region,5800,river grove,L5M 4R9,mississauga,on
15337,Riverside,sports field,peel region,30,john,L5H 200000000,mississauga,on
15338,Riverside,sports field,peel region,30,john,L5H 200000000,mississauga,on
15408,Rockwood Glen,sports field,peel region,4247,hartfield,..,mississauga,on
15421,Ron Searle Park,sports field,peel region,1494,parkridge,..,mississauga,on
15426,Rosebush Common,sports field,peel region,4890,creditview,..,mississauga,on
15546,Ruth Thompson Middle,sports field,peel region,5605,freshwater,L5M 7M8,mississauga,on
15569,Sainte-Famille / Oac,sports field,peel region,1780,meadowvale,L5N 7K8,mississauga,on
15570,Saint-Jean-Baptiste,sports field,peel region,1910,broad hollow,L5L 3T4,mississauga,on
15584,Samuel Common,sports field,peel region,6893,golden hills,..,mississauga,on
15588,Samuelson Park,sports field,peel region,1815,samuelson,L5N 7Z6,mississauga,on
15589,Samuelson Park,sports field,peel region,1815,samuelson,L5N 7Z6,mississauga,on
15590,Samuelson Park,sports field,peel region,1815,samuelson,L5N 7Z6,mississauga,on
15591,Samuelson Park,sports field,peel region,1815,samuelson,L5N 7Z6,mississauga,on
15592,San Lorenzo Ruiz,sports field,peel region,100,barondale,L4Z 3R1,mississauga,on
15604,Sandalwood Park,sports field,peel region,205,nahani,..,mississauga,on
15607,Sandford Farm,sports field,peel region,845,white clover,..,mississauga,on
15608,Sandford Farm,sports field,peel region,845,white clover,..,mississauga,on
15609,Sandford Farm,sports field,peel region,845,white clover,..,mississauga,on
15610,Sandgate Park,sports field,peel region,1650,sandgate,L5J 2000000,mississauga,on
15628,Sawmill Valley,sports field,peel region,3675,sawmill valley,L5L 2Z5,mississauga,on
15629,Sawmill Valley,sports field,peel region,3675,sawmill valley,L5L 2Z5,mississauga,on
15630,Sawmill Valley,sports field,peel region,3675,sawmill valley,L5L 2Z5,mississauga,on
15673,Scott's Brae,sports field,peel region,855,brass winds,..,mississauga,on
15708,Serson Park,sports field,peel region,1100,pelham,..,mississauga,on
15709,Serson Park,sports field,peel region,1100,pelham,..,mississauga,on
15710,Serson Park,sports field,peel region,1100,pelham,..,mississauga,on
15711,Serson Park,sports field,peel region,1100,pelham,..,mississauga,on
15720,Settler's Green,sports field,peel region,6440,glen erin,..,mississauga,on
15746,Shawnmarr Park,sports field,peel region,770,queen,..,mississauga,on
15769,Shelter Bay,sports field,peel region,6735,shelter bay,L5N 2C5,mississauga,on
15770,Shelter Bay,sports field,peel region,6735,shelter bay,L5N 2C5,mississauga,on
15771,Shelter Bay,sports field,peel region,6735,shelter bay,L5N 2C5,mississauga,on
15782,Sheridan Park,sports field,peel region,2200,sheridan park,L5K 1C7,mississauga,on
15783,Sheridan Park,sports field,peel region,2280,perran,L5K 1M1,mississauga,on
15784,Sheridan Park,sports field,peel region,2200,sheridan park,L5K 1C7,mississauga,on
15785,Sheridan Park,sports field,peel region,2200,sheridan park,L5K 1C7,mississauga,on
15786,Sheridan Park,sports field,peel region,2280,perran,L5K 1M1,mississauga,on
15787,Sheridan Park,sports field,peel region,2280,perran,L5K 1M1,mississauga,on
15788,Sheridan Park,sports field,peel region,2280,perran,L5K 1M1,mississauga,on
15793,Sherwood Green,sports field,peel region,1864,deer's,..,mississauga,on
15794,Sherwood Green,sports field,peel region,1864,deer's,..,mississauga,on
15835,Silver Creek,sports field,peel region,460,silver creek,L5A 2B3,mississauga,on
15836,Silver Creek,sports field,peel region,460,silver creek,L5A 2B3,mississauga,on
15855,Silverthorn,sports field,peel region,3535,cedar creek,L4Y 2Y4,mississauga,on
15856,Silverthorn,sports field,peel region,3535,cedar creek,L4Y 2Y4,mississauga,on
15857,Silverthorn,sports field,peel region,3535,cedar creek,L4Y 2Y4,mississauga,on
16791,Soccer Lit Brickyard Park,sports field,mississauga,3061,clayhill,..,mississauga,on
