Index,Facility_Name,ODRSF_facility_type,Provider,Street_No,Street_Name,Postal_Code,City,Prov_Terr
13443,Mayfield Golf Club,sports field,peel region,12552,torbram,L7C 2S7,caledon,on
13771,Mistywood,sports field,peel region,11,hayleyvale,..,caledon,on
14005,North Hill Park,sports field,peel region,14051,50,L7E 2V2,caledon,on
14006,North Hill Park,sports field,peel region,14051,50,L7E 2V2,caledon,on
14007,North Hill Park,sports field,peel region,14051,50,L7E 2V2,caledon,on
14008,North Hill Park,rink,peel region,14051,50,L7E 2V2,caledon,on
14158,Orangeville Golf Club,sports field,york region,20485,willoughby,L9W 2Z7,orangeville,on
14194,Osprey Valley Golf Course,sports field,peel region,18821,main,L7K 1R1,caledon,on
14270,Palgrave,sports field,peel region,8962,patterson,L0N 1P0,caledon,on
14271,Palgrave Park,sports field,peel region,17261,mount hope,L7E 3L9,caledon,on
14272,Palgrave Park,sports field,peel region,17261,mount hope,L7E 3L9,caledon,on
14273,Palgrave Park,sports field,peel region,17261,mount hope,L7E 3L9,caledon,on
14274,Palgrave Tennis Courts,sports field,peel region,42,birch,L7E 0K2,caledon,on
14856,Pope John Paul Ii,sports field,peel region,9094,bolton heights,L7E 5R8,caledon,on
15126,R.J.A. Potts Memorial Park,sports field,peel region,125,pembrook,..,caledon,on
15371,Robert F. Hall,sports field,peel region,6500,old church,LON 1,caledon,on
15372,Robert F. Hall,sports field,peel region,6500,old church,LON 1,caledon,on
15373,Robert F. Hall,sports field,peel region,6500,old church,LON 1,caledon,on
15969,Snell Park,sports field,peel region,..,..,..,caledon,on
16921,Southfields Village,sports field,peel region,110,learmont,L7C 3R1,caledon,on
16922,Southfields Village Community Park,sports field,peel region,70,learmont,L7C 3N5,caledon,on
16923,Southfields Village Community Park,sports field,peel region,70,learmont,L7C 3N5,caledon,on
16924,Southfields Village Community Park,sports field,peel region,70,learmont,L7C 3N5,caledon,on
17137,St. Cornelius,sports field,peel region,16066,innis lake,L7C 2Z2,caledon,on
17138,St. Cornelius,sports field,peel region,16066,innis lake,L7C 2Z2,caledon,on
17139,St. Cornelius,sports field,peel region,16066,innis lake,L7C 2Z2,caledon,on
17140,St. Cornelius,sports field,peel region,16066,innis lake,L7C 2Z2,caledon,on
17174,St. John The Baptist,sports field,peel region,299,landsbridge,L7E 2K4,caledon,on
17207,St. Michael,sports field,peel region,9130,columbia,L7E 4G6,caledon,on
17209,St. Nicholas,sports field,peel region,120,harvest moon,L7E 2W1,caledon,on
17339,Stonehart Park,sports field,peel region,16,bruno ridge,..,caledon,on
17486,Ted Houston Park,sports field,peel region,81,connaught,L7E 2S3,caledon,on
17487,Ted Houston Park,sports field,peel region,81,connaught,L7E 2S3,caledon,on
17488,Ted Houston Park,sports field,peel region,81,connaught,L7E 2S3,caledon,on
17807,Tormina Parkette,sports field,peel region,35,royalton,..,caledon,on
18014,Victoria Park,sports field,peel region,35,victoria,L7K 0A1,caledon,on
18018,Victoria Park,sports field,peel region,35,victoria,L7K 0A1,caledon,on
19921,Access Trail,trail,peel region,..,..,..,..,on
19922,Access Trail,trail,peel region,..,..,..,..,on
20152,Albion Hills Conservation Area,trail,peel region,..,..,..,..,on
20153,Albion Hills Conservation Area,trail,peel region,..,..,..,..,on
20154,Albion Hills Conservation Area,trail,peel region,..,..,..,..,on
20155,Albion Hills Conservation Area,trail,peel region,..,..,..,..,on
20156,Albion Hills Conservation Area,trail,peel region,..,..,..,..,on
20157,Albion Hills Conservation Area,trail,peel region,..,..,..,..,on
20158,Albion Hills Conservation Area,trail,peel region,..,..,..,..,on
20159,Albion Hills Conservation Area,trail,peel region,..,..,..,..,on
20160,Albion Hills Conservation Area,trail,peel region,..,..,..,..,on
20161,Albion Hills Conservation Area,trail,peel region,..,..,..,..,on
