Index,Facility_Name,ODRSF_facility_type,Provider,Street_No,Street_Name,Postal_Code,City,Prov_Terr
6,A.E. Crookes Park,playground,peel region,140,lakefront,L5E 3G9,mississauga,on
7,A.E. Crookes Park,pool,peel region,140,lakefront,L5E 3G9,mississauga,on
56,Albert Mcbride Park,playground,peel region,3811,teeswater,L4T 2A5,mississauga,on
88,All Saints,playground,peel region,4105,colonial,L5L 400000000,mississauga,on
95,Allison's Park,playground,peel region,575,willowbank,..,mississauga,on
117,Anaka Park,playground,peel region,7666,anaka,L4T 3H7,mississauga,on
150,Applewood Heights,playground,peel region,3119,constitution,L4Y 2Z1,mississauga,on
151,Applewood Heights Outdoor Pool,pool,brampton,3119,constitution,L4Y 2Z1,mississauga,on
152,Applewood Hills,playground,peel region,3255,golden orchard,L4Y 3H1,mississauga,on
158,Aquinas Park,playground,peel region,3400,aquinas,L5M 7L2,mississauga,on
174,Arbour Green,playground,peel region,4145,treetop,..,mississauga,on
213,Ashgate Park,playground,peel region,846,rathburn,..,mississauga,on
214,Ashgrove,playground,peel region,3215,thorncrest,L5L 4K7,mississauga,on
215,Ashwood Park,playground,peel region,2405,cliff,L5A 2P1,mississauga,on
217,Aspen Ridge,playground,peel region,7290,aspen,L5N 6P3,mississauga,on
248,Bancroft Park,playground,peel region,955,bancroft,..,mississauga,on
259,Barberton Park,playground,peel region,1930,barbertown,..,mississauga,on
263,Barondale Green,playground,peel region,150,barondale,..,mississauga,on
290,Beachin Tan,beach,mississauga,1900,fowler,L5K 0A1,mississauga,on
324,Beechwood Park,playground,peel region,4139,ottewell,L4W 4A4,mississauga,on
332,Bell Harbour Park,playground,peel region,5820,bell harbour,..,mississauga,on
336,Bella Vista,playground,peel region,26,hanson,..,mississauga,on
350,Ben Machree Park,playground,peel region,65,ben machree,L5H 2S3,mississauga,on
379,Bethesda Common,playground,peel region,3311,fieldgate,L4X 2H9,mississauga,on
386,Bidwell Trail Common,playground,peel region,6075,bidwell,..,mississauga,on
408,Birch Glen,playground,peel region,1406,bramblewood,..,mississauga,on
416,Birchwood Park,playground,peel region,1547,lakeshore,..,mississauga,on
473,Bough Beeches Park,playground,peel region,1780,bough beeches,..,mississauga,on
498,Brandon Gate Park,playground,peel region,3545,brandon gate,..,mississauga,on
515,Brentwood Park,playground,peel region,496,karen park,L5A 3C6,mississauga,on
525,Brickyard Park,playground,peel region,3061,clayhill,..,mississauga,on
526,Brickyard Park,splash pad,peel region,3061,clayhill,..,mississauga,on
546,Britannia,playground,peel region,1145,swinbourne,L5V 1C2,mississauga,on
558,Bromsgrove Park,playground,peel region,2299,bromsgrove,..,mississauga,on
570,Brookmede Park,playground,peel region,2254,council ring,L5L 1B7,mississauga,on
575,Brown's Heights,playground,peel region,1600,bristol,..,mississauga,on
581,Bruce Reynolds Park,playground,peel region,2173,springbank,L5H 3N5,mississauga,on
596,Burnhamdale Park,playground,peel region,3316,cardross,L4X 2N2,mississauga,on
597,Burnhamthorpe Community Centre,community centre,peel region(caledon),1500,gulleden,L4X 2T7,mississauga,on
598,Burnhamthorpe Community Centre & Arena,arena,brampton,1500,gulleden,L4X 2T7,mississauga,on
607,Buttonbush Park,playground,peel region,7457,russian,..,mississauga,on
630,Camden Park,playground,peel region,495,camden,..,mississauga,on
636,Camilla Park,playground,peel region,2180,camilla,L5A 2J6,mississauga,on
692,Carmen Corbasson Cc & Arena,arena,mississauga,1399,cawthra,..,mississauga,on
733,Castlebridge Common,playground,peel region,2636,castlebridge,..,mississauga,on
736,Castlegreen Meadows,playground,peel region,2829,castlebridge,..,mississauga,on
738,Cattrick Boulevard Park,playground,peel region,53,cattrick,..,mississauga,on
740,Cawthra Arena,arena,mississauga,1399,cawthra,..,mississauga,on
741,Cawthra Community Centre,community centre,peel region(caledon),1399,cawthra,L5G 4L1,mississauga,on
