Index,Facility_Name,ODRSF_facility_type,Provider,Street_No,Street_Name,Postal_Code,City,Prov_Terr
14715,Peel Alternative School South,sports field,peel region,1239,lakeshore,L5E 1G2,mississauga,on
14735,Petrescue Park,sports field,peel region,1000,halliday,..,mississauga,on
14736,Petrescue Park,sports field,peel region,1000,halliday,..,mississauga,on
14737,Petro Canada Park,sports field,peel region,670,southdown,L5J 2Y4,mississauga,on
14738,Petro Canada Park,sports field,peel region,670,southdown,L5J 2Y4,mississauga,on
14739,Pheasant Run,sports field,peel region,4140,pheasant,L5L 2C1,mississauga,on
14740,Pheasant Run,sports field,peel region,4175,pheasant,..,mississauga,on
14741,Pheasant Run,sports field,peel region,4175,pheasant,..,mississauga,on
14742,Pheasant Run,sports field,peel region,4140,pheasant,L5L 2C1,mississauga,on
14744,Philip Pocock,sports field,peel region,4555,tomken,L4W 1J9,mississauga,on
14745,Philip Pocock,sports field,peel region,4555,tomken,L4W 1J9,mississauga,on
14844,Plowman's Park,sports field,peel region,6411,glen erin,..,mississauga,on
14845,Plowman's Park,sports field,peel region,6411,glen erin,..,mississauga,on
14846,Plowman's Park,sports field,peel region,6411,glen erin,..,mississauga,on
14847,Plowman's Park,sports field,peel region,6411,glen erin,..,mississauga,on
14859,Port Credit,sports field,peel region,70,mineola,L5G 200000,mississauga,on
14860,Port Credit,sports field,peel region,70,mineola,L5G 200000,mississauga,on
14861,Port Credit,sports field,peel region,70,mineola,L5G 200000,mississauga,on
14862,Port Credit,sports field,peel region,70,mineola,L5G 200000,mississauga,on
14863,Port Credit,sports field,peel region,70,mineola,L5G 200000,mississauga,on
14864,Port Credit,sports field,peel region,70,mineola,L5G 200000,mississauga,on
14865,Port Credit,sports field,peel region,70,mineola,L5G 200000,mississauga,on
14866,Port Credit Memorial Park,sports field,peel region,32,stavebank,..,mississauga,on
14911,Promenade Meadows,sports field,peel region,7099,danton,..,mississauga,on
15062,Queen Elizabeth Sr.,sports field,peel region,60,service,L5G 2R9,mississauga,on
15063,Queen Elizabeth Sr.,sports field,peel region,60,service,L5G 2R9,mississauga,on
15064,Queen Elizabeth Sr.,sports field,peel region,60,service,L5G 2R9,mississauga,on
15072,Queen Of Heaven,sports field,peel region,1198,alexandra,L5E 2A5,mississauga,on
15099,Queenston Drive,sports field,peel region,3520,queenston,L5C 2G6,mississauga,on
15111,Quenippenon Meadows,sports field,peel region,2625,erin centre,..,mississauga,on
15112,Quenippenon Meadows,sports field,peel region,2625,erin centre,..,mississauga,on
15113,Quenippenon Meadows,sports field,peel region,2625,erin centre,..,mississauga,on
15114,Quenippenon Meadows,sports field,peel region,2625,erin centre,..,mississauga,on
15158,Rathwood District Park,sports field,peel region,1095,rathburn,..,mississauga,on
15159,Rathwood District Park,sports field,peel region,1095,rathburn,..,mississauga,on
15160,Rathwood District Park,sports field,peel region,1095,rathburn,..,mississauga,on
15176,Ray Underhill,sports field,peel region,32,suburban,L5N 1G6,mississauga,on
15177,Ray Underhill,sports field,peel region,32,suburban,L5N 1G6,mississauga,on
15178,Rayfield Park,sports field,peel region,530,rathburn,..,mississauga,on
15191,Red Brush Park,sports field,peel region,5139,red brush,..,mississauga,on
15192,Red Brush Park,sports field,peel region,5139,red brush,..,mississauga,on
15208,Red Oaks Park,sports field,peel region,260,king,L5A 1S9,mississauga,on
15218,Ren√©-Lamoureux,sports field,peel region,385,meadowvale,L4Z 4G6,mississauga,on
15261,Rick Hansen,sports field,peel region,1150,dream crest,L5V 1N6,mississauga,on
15262,Rick Hansen,sports field,peel region,1150,dream crest,L5V 1N6,mississauga,on
15263,Rick Hansen,sports field,peel region,1150,dream crest,L5V 1N6,mississauga,on
15302,River Grove,sports field,peel region,5800,river grove,L5M 4R9,mississauga,on
15303,River Grove,sports field,peel region,5800,river grove,L5M 4R9,mississauga,on
15304,River Grove,sports field,peel region,5800,river grove,L5M 4R9,mississauga,on
