Index,Facility_Name,ODRSF_facility_type,Provider,Street_No,Street_Name,Postal_Code,City,Prov_Terr
173898,Pine Tree Hill,park,mississauga,2099,burnhamthorpe,..,mississauga,on
173901,Pinecliff Park,park,mississauga,20,pine cliff,..,mississauga,on
173923,Pinetree Grove,park,mississauga,6950,millcreek,..,mississauga,on
173988,Plowman's Park,park,mississauga,6411,glen,..,mississauga,on
174047,Port Credit Memorial Park,park,mississauga,40,stavebank,..,mississauga,on
174164,Promenade Meadows,park,mississauga,7099,danton,..,mississauga,on
174168,Promontory Woods,park,mississauga,3870,promontory,..,mississauga,on
174270,Quenippenon Meadows,park,mississauga,2625,erin,..,mississauga,on
174287,R.K. Mcmillan Park,park,mississauga,830,aviation,..,mississauga,on
174396,Rathwood District Park,park,mississauga,1095,rathburn,..,mississauga,on
174397,Rattray Marsh,park,mississauga,660,bexhill,..,mississauga,on
174426,Rayfield Park,park,mississauga,530,rathburn,..,mississauga,on
174457,Red Brush Park,park,mississauga,5139,red brush,..,mississauga,on
174468,Red Oak Plain,park,mississauga,1985,britannia,..,mississauga,on
174469,Red Oaks Park,park,mississauga,260,king,..,mississauga,on
174579,Richard F.C. Mortensen Park,park,mississauga,1665,burnhamthorpe,..,mississauga,on
174580,Richard Jones Park,park,mississauga,181,whitchurch,..,mississauga,on
174583,Richard's Memorial Park,park,mississauga,804,lakeshore,..,mississauga,on
174641,Ridgewood Park,park,mississauga,7239,cambrett,..,mississauga,on
174678,River Grove,park,mississauga,5800,river,..,mississauga,on
174761,Riverrun Park,park,mississauga,51,falconer,..,mississauga,on
174795,Riverview Park,park,mississauga,1735,britannia,..,mississauga,on
174804,Riverwood,park,mississauga,4190,riverwood park,..,mississauga,on
174895,Rockwood Glen,park,mississauga,4247,hartfield,..,mississauga,on
174948,Ron Lenyk Springfield Park,park,mississauga,3325,the credit woodlands,..,mississauga,on
174949,Ron Searle Park,park,mississauga,1494,parkridge,..,mississauga,on
174970,Rosebush Common,park,mississauga,4890,creditview,..,mississauga,on
175416,Saigon Park,park,mississauga,240,matheson,..,mississauga,on
175456,Samuel Common,park,mississauga,6893,golden,..,mississauga,on
175461,Samuelson Park,park,mississauga,1815,samuelson,..,mississauga,on
175471,Sandalwood Park,park,mississauga,205,nahani,..,mississauga,on
175475,Sandford Farm,park,mississauga,845,white clover,..,mississauga,on
175477,Sandgate Park,park,mississauga,1650,sandgate,..,mississauga,on
175535,Sawgrass Park,park,mississauga,1075,rathburn,..,mississauga,on
175536,Sawmill Creek,park,mississauga,3606,sawmill valley,..,mississauga,on
175539,Sawmill Valley Trail,park,mississauga,1955,burnhamthorpe,..,mississauga,on
175598,Scholars' Green,park,mississauga,275,prince of wales,..,mississauga,on
175621,Scott's Brae,park,mississauga,855,brass winds,..,mississauga,on
175705,Serson Park,park,mississauga,1100,pelham,..,mississauga,on
175709,Settler's Green,park,mississauga,6440,glen,..,mississauga,on
175725,Sgt. David Yakichuk Park,park,mississauga,3111,confederation,..,mississauga,on
175740,Shalebank Hollow,park,mississauga,2009,folkway,..,mississauga,on
175767,Shaver Trail,park,mississauga,4070,ponytrail,..,mississauga,on
175772,Shawnmarr Park,park,mississauga,770,queen,..,mississauga,on
175795,Shelby Park,park,mississauga,4220,shelby,..,mississauga,on
175815,Sheridan Creek Trail,park,mississauga,2280,truscott,..,mississauga,on
175819,Sheridan Park,park,mississauga,2200,sheridan park,..,mississauga,on
175838,Sherwood Green,park,mississauga,1864,deers wold,..,mississauga,on
175850,Sherwoodtowne Green,park,mississauga,4275,sherwoodtowne,..,mississauga,on
