Index,Facility_Name,ODRSF_facility_type,Provider,Street_No,Street_Name,Postal_Code,City,Prov_Terr
16793,Soccer Lit Dr. Martin L. Dobkin Community Park,sports field,mississauga,395,fairview,..,mississauga,on
16794,Soccer Lit Erin Mills Twin Arena Grounds,sports field,mississauga,3205,unity,..,mississauga,on
16795,Soccer Lit Fallingbrook Community Park,sports field,mississauga,5135,fallingbrook,..,mississauga,on
16796,Soccer Lit Huron Park,sports field,mississauga,830,paisley,..,mississauga,on
16797,Soccer Lit Mississauga Valley,sports field,mississauga,1275,mississauga valley,..,mississauga,on
16798,Soccer Lit South Common,sports field,mississauga,3555,glen,..,mississauga,on
16799,Soccer Lit Streetsville Memorial Park,sports field,mississauga,335,church,..,mississauga,on
16801,Soccer Minor Unlit Ceremonial Green,sports field,mississauga,600,ceremonial,..,mississauga,on
16802,Soccer Minor Unlit S Fleetwood Park,sports field,mississauga,2000,burnhamthorpe,..,mississauga,on
16803,Soccer Senior Unlit Cordingley Park,sports field,mississauga,6530,saratoga,..,mississauga,on
16804,Soccer Senior Unlit Creditview Woods,sports field,mississauga,899,rathburn,..,mississauga,on
16805,Soccer Senior Unlit Hawthorne Valley,sports field,mississauga,5165,fairwind,..,mississauga,on
16806,Soccer Senior Unlit Lakeview Park,sports field,mississauga,811,lakefront,..,mississauga,on
16807,Soccer Senior Unlit Lewis Bradley Park,sports field,mississauga,1901,orr,..,mississauga,on
16808,Soccer Senior Unlit N Fleetwood Park,sports field,mississauga,2000,burnhamthorpe,..,mississauga,on
16809,Soccer Senior Unlit Trooper Marc Diab Memorial Park,sports field,mississauga,5514,whitehorn,..,mississauga,on
16811,Soccer-Lit Meadowvale Sports Park,sports field,mississauga,2255,meadowvale,..,mississauga,on
16813,Softball Dmind Minor Unlit N Petrescue Park,sports field,mississauga,1000,halliday,..,mississauga,on
16814,Softball Dmnd Lit 1 Ne Dunton Athletic Fields,sports field,mississauga,6180,kennedy,..,mississauga,on
16815,Softball Dmnd Lit 1 Nw Meadowvale Sports Park,sports field,mississauga,2255,meadowvale,..,mississauga,on
16816,Softball Dmnd Lit 1 S Paul Coffey Park,sports field,mississauga,3430,derry,..,mississauga,on
16817,Softball Dmnd Lit 2 Mississauga Valley,sports field,mississauga,1275,mississauga valley,..,mississauga,on
16818,Softball Dmnd Lit 2 N Paul Coffey Park,sports field,mississauga,3430,derry,..,mississauga,on
16819,Softball Dmnd Lit 2 Se Dunton Athletic Fields,sports field,mississauga,6180,kennedy,..,mississauga,on
16820,Softball Dmnd Lit 2 Se Meadowvale Sports Park,sports field,mississauga,2255,meadowvale,..,mississauga,on
16821,Softball Dmnd Lit 3 Se Dunton Athletic Fields,sports field,mississauga,6180,kennedy,..,mississauga,on
16822,Softball Dmnd Lit 4 Nw Dunton Athletic Fields,sports field,mississauga,6180,kennedy,..,mississauga,on
16823,Softball Dmnd Lit A.E. Crookes Park,sports field,mississauga,140,lakefront,..,mississauga,on
16824,Softball Dmnd Lit Dr. Martin L. Dobkin Community Park,sports field,mississauga,395,fairview,..,mississauga,on
16825,Softball Dmnd Lit N Fleetwood Park,sports field,mississauga,2000,burnhamthorpe,..,mississauga,on
16826,Softball Dmnd Lit N Max Ward Park,sports field,mississauga,2380,matheson,..,mississauga,on
16827,Softball Dmnd Lit N Mount Charles Park,sports field,mississauga,1265,cardiff,..,mississauga,on
16828,Softball Dmnd Lit N River Grove,sports field,mississauga,5800,river,..,mississauga,on
16829,Softball Dmnd Lit N Tom Chater Memorial Park,sports field,mississauga,3195,the collegeway,..,mississauga,on
16830,Softball Dmnd Lit Quenippenon Meadows,sports field,mississauga,2625,erin,..,mississauga,on
16831,Softball Dmnd Lit S Max Ward Park,sports field,mississauga,2380,matheson,..,mississauga,on
16832,Softball Dmnd Lit S Mount Charles Park,sports field,mississauga,1265,cardiff,..,mississauga,on
16833,Softball Dmnd Lit S River Grove,sports field,mississauga,5800,river,..,mississauga,on
16834,Softball Dmnd Lit Se Tom Chater Memorial Park,sports field,mississauga,3195,the collegeway,..,mississauga,on
16835,Softball Dmnd Lit Sheridan Park,sports field,mississauga,2200,sheridan park,..,mississauga,on
16836,Softball Dmnd Lit Streetsville Memorial Park,sports field,mississauga,335,church,..,mississauga,on
16837,Softball Dmnd Lit Syntex Green,sports field,mississauga,..,..,..,..,on
16838,Softball Dmnd Minor Unlit 1 W King's Park,sports field,mississauga,7185,dixie,..,mississauga,on
16839,Softball Dmnd Minor Unlit 2 Centre King's Park,sports field,mississauga,7185,dixie,..,mississauga,on
16840,Softball Dmnd Minor Unlit 3 E King's Park,sports field,mississauga,7185,dixie,..,mississauga,on
16841,Softball Dmnd Minor Unlit Applewood North Park,sports field,mississauga,1280,melton,..,mississauga,on
16842,Softball Dmnd Minor Unlit Magrath Park,sports field,mississauga,4206,melia,..,mississauga,on
16843,Softball Dmnd Minor Unlit Sandgate Park,sports field,mississauga,1650,sandgate,..,mississauga,on
16844,Softball Dmnd Minor Unlit Tillsdown Park,sports field,mississauga,1620,sir montys,..,mississauga,on
