Index,Facility_Name,ODRSF_facility_type,Provider,Street_No,Street_Name,Postal_Code,City,Prov_Terr
2580,Kingknoll Park,playground,peel region,..,kingknoll,..,brampton,on
2597,Kingswood Park,playground,peel region,221,kingswood,..,brampton,on
2635,Knightsbridge Community & Senior Centre,community centre,peel region(caledon),1,knightsbridge,L6T 4B7,brampton,on
2636,Knightsbridge Park,playground,peel region,..,..,..,brampton,on
2647,Koretz Park,playground,peel region,..,tessler,..,brampton,on
2651,La France Park,playground,peel region,..,..,..,brampton,on
2662,Laidlaw Park,playground,peel region,405,royal west,..,brampton,on
2669,Lake Louise Parkette,playground,peel region,..,..,..,brampton,on
2677,Lakelands Park,playground,peel region,..,stoneylake,..,brampton,on
2711,Larande Park,playground,peel region,..,..,..,brampton,on
2714,Lascelles Park Central,playground,peel region,..,lord,..,brampton,on
2724,Laurelcrest Park North,playground,peel region,..,..,..,brampton,on
2743,Leander Park,playground,peel region,..,..,..,brampton,on
2752,Leflar Park,playground,peel region,35,elwin,..,brampton,on
2769,Lethbridge Park,playground,peel region,..,donna,..,brampton,on
2775,Lightcatcher Park,playground,peel region,..,..,..,brampton,on
2778,Lillie Roberts Park,playground,peel region,..,mount royal,..,brampton,on
2828,Lloyd Sanderson Park,playground,peel region,..,lockwood,..,brampton,on
2830,Loafer's Lake Recreation Centre,pool,peel region,30,loafer's lake,L6Z 1X9,brampton,on
2831,Loafer's Lake Recreation Centre,community centre,peel region,30,loafers lake,L6Z 1X9,brampton,on
2839,Lola Park,playground,peel region,30,lola,..,brampton,on
2854,Lorenville Park,playground,peel region,..,lorenville,..,brampton,on
2855,Lorenzo Parkette,playground,peel region,..,templehill,..,brampton,on
2861,Lougheed Park,playground,peel region,..,clementine,..,brampton,on
2984,Madoc Drive,playground,peel region,49,madoc,L6V 2A1,brampton,on
3007,Major William Sharpe Park,playground,peel region,..,..,..,brampton,on
3021,Manitou Park,playground,peel region,..,..,..,brampton,on
3023,Manorcrest Park,playground,peel region,..,..,..,brampton,on
3168,Maplehurst Parkette,playground,peel region,..,sparklett,..,brampton,on
3206,Martindale Parkette,playground,peel region,..,wheatfield,..,brampton,on
3212,Mary Goodwillie Young Park,playground,peel region,..,..,..,brampton,on
3222,Massey Park,playground,peel region,..,..,..,brampton,on
3227,Matthew Cation Park,playground,peel region,..,clovercrest,..,brampton,on
3237,Maxwell & Lois Rice,playground,peel region,..,elbern,..,brampton,on
3239,Maybeck Park,playground,peel region,..,..,..,brampton,on
3269,Mckinney Parkette,playground,peel region,..,..,..,brampton,on
3280,Mcmicking Park,playground,peel region,..,hill,..,brampton,on
3290,Meadowland Park,playground,peel region,..,meadowland,..,brampton,on
3293,Meadowlark Parkette,playground,peel region,..,meadowlark,..,brampton,on
3313,Memorial Arena,arena,peel region,69,elliott,L6Y 1W2,brampton,on
3321,Merganser Parkette,playground,peel region,..,merganser,..,brampton,on
3331,Michael Murphy Park,playground,peel region,..,..,..,brampton,on
3367,Millstone Parkette,playground,peel region,..,mavis,..,brampton,on
3373,Minaker Park,playground,peel region,..,..,..,brampton,on
3413,Moody Family Park,playground,peel region,..,..,..,brampton,on
3420,Moorehead Park,playground,peel region,..,moorehead,..,brampton,on
3433,Morris Kerbel Park,playground,peel region,..,conestoga,..,brampton,on
3436,Morrow Park,playground,peel region,..,severin,..,brampton,on
3447,Mosswood Park,playground,peel region,..,..,..,brampton,on
