Index,Facility_Name,ODRSF_facility_type,Provider,Street_No,Street_Name,Postal_Code,City,Prov_Terr
2265,Huron Heights,playground,peel region,4500,central,..,mississauga,on
2267,Huron Park,playground,peel region,830,paisley,L5C 3P5,mississauga,on
2268,Huron Park,splash pad,peel region,830,paisley,L5C 3P5,mississauga,on
2269,Huron Park Arena,arena,peel region,830,paisley,L5C 3P5,mississauga,on
2270,Huron Park Recreation Centre,community centre,brampton,830,paisley,L5C 3P5,mississauga,on
2271,Huron Park Swimming And Therapeutic Pool,pool,brampton,830,paisley,L5C 3P5,mississauga,on
2276,Ice Rink Natural A.E. Crookes Park,rink,mississauga,140,lakefront,..,mississauga,on
2277,Ice Rink Natural Ashwood Park,rink,mississauga,2405,cliff,..,mississauga,on
2278,Ice Rink Natural Beechwood Park,rink,mississauga,4139,ottewell,..,mississauga,on
2279,Ice Rink Natural Bell Harbour Park,rink,mississauga,5820,bell harbour,..,mississauga,on
2280,Ice Rink Natural Bonnie Brae,rink,mississauga,2144,erin centre,..,mississauga,on
2281,Ice Rink Natural Brickyard Park,rink,mississauga,3061,clayhill,..,mississauga,on
2282,Ice Rink Natural Brown's Heights,rink,mississauga,1600,bristol,..,mississauga,on
2283,Ice Rink Natural Bruce Reynolds Park,rink,mississauga,2173,springbank,..,mississauga,on
2284,Ice Rink Natural Camden Park,rink,mississauga,495,camden,..,mississauga,on
2285,"Ice Rink Natural Charles ""Bud"" Brennan Park",rink,mississauga,6181,edenwood,..,mississauga,on
2286,Ice Rink Natural Clarkson Park,rink,mississauga,1125,winston churchill,..,mississauga,on
2287,Ice Rink Natural Clover Meadows,rink,mississauga,1090,white clover,..,mississauga,on
2288,Ice Rink Natural Coram Park,rink,mississauga,1795,coram,..,mississauga,on
2289,Ice Rink Natural Credit Pointe Village,rink,mississauga,4635,credit pointe,..,mississauga,on
2290,Ice Rink Natural Deer Wood Park,rink,mississauga,1100,rathburn,..,mississauga,on
2291,Ice Rink Natural Dellwood Park,rink,mississauga,598,arbor,..,mississauga,on
2292,Ice Rink Natural Eastgate Park,rink,mississauga,320,nahani,..,mississauga,on
2293,Ice Rink Natural Garnetwood Park,rink,mississauga,1996,rathburn,..,mississauga,on
2294,Ice Rink Natural Garthwood Park,rink,mississauga,3170,garthwood,..,mississauga,on
2295,Ice Rink Natural Golden Orchard Park,rink,mississauga,1261,scottsburg,..,mississauga,on
2296,Ice Rink Natural Gordon Lummiss Park,rink,mississauga,236,paisley,..,mississauga,on
2297,Ice Rink Natural Greyshale Park,rink,mississauga,5065,heritage hills,..,mississauga,on
2298,Ice Rink Natural Heritage Hills Park,rink,mississauga,315,huntington,..,mississauga,on
2299,Ice Rink Natural Hindhead Park,rink,mississauga,1944,hindhead,..,mississauga,on
2300,Ice Rink Natural Huron Heights,rink,mississauga,4500,central,..,mississauga,on
2301,Ice Rink Natural Kingsbridge Common,rink,mississauga,4611,regents,..,mississauga,on
2302,Ice Rink Natural Kogaydiwin Park,rink,mississauga,1585,finfar,..,mississauga,on
2303,Ice Rink Natural Laughton Heights,rink,mississauga,1519,sherway,..,mississauga,on
2304,Ice Rink Natural Lewis Bradley Park,rink,mississauga,1901,orr,..,mississauga,on
2305,Ice Rink Natural Lisgar Green,rink,mississauga,6140,osprey,..,mississauga,on
2306,Ice Rink Natural Magrath Park,rink,mississauga,4206,melia,..,mississauga,on
2307,Ice Rink Natural Manor Hill,rink,mississauga,2225,hill,..,mississauga,on
2308,Ice Rink Natural Mckenzie Park,rink,mississauga,575,mississauga valley,..,mississauga,on
2309,Ice Rink Natural Meadow Green,rink,mississauga,6595,falconer,..,mississauga,on
2310,Ice Rink Natural Meadowwood Park,rink,mississauga,1620,orr,..,mississauga,on
2311,Ice Rink Natural Middlebury Green,rink,mississauga,5510,middlebury,..,mississauga,on
2312,Ice Rink Natural Mississauga Valley,rink,mississauga,1275,mississauga valley,..,mississauga,on
2313,Ice Rink Natural Northwood Park,rink,mississauga,3830,brandon gate,..,mississauga,on
2314,Ice Rink Natural Old Ridge Park,rink,mississauga,6965,historic,..,mississauga,on
2315,Ice Rink Natural Promenade Meadows,rink,mississauga,7099,danton,..,mississauga,on
2316,Ice Rink Natural Rayfield Park,rink,mississauga,530,rathburn,..,mississauga,on
2317,Ice Rink Natural Ridgewood Park,rink,mississauga,7239,cambrett,..,mississauga,on
2318,Ice Rink Natural Ron Searle Park,rink,mississauga,1494,parkridge,..,mississauga,on
