Index,Facility_Name,ODRSF_facility_type,Provider,Street_No,Street_Name,Postal_Code,City,Prov_Terr
11512,Gore Meadows Community Park East,sports field,peel region,10150,the-gore,L6P 0A6,brampton,on
11513,Gore Meadows Community Park East,sports field,peel region,10150,the-gore,L6P 0A6,brampton,on
11514,Gore Meadows Community Park East,sports field,peel region,10150,the-gore,L6P 0A6,brampton,on
11574,Great Lakes,sports field,peel region,285,great lakes,L6R 2R8,brampton,on
11589,Greenbriar Park South,sports field,peel region,1098,central park,L6S 2C9,brampton,on
11590,Greenbriar Park South,sports field,peel region,1098,central park,L6S 2C9,brampton,on
11591,Greenbriar Park South,sports field,peel region,1098,central park,L6S 2C9,brampton,on
11592,Greenbriar Park South,sports field,peel region,1098,central park,L6S 2C9,brampton,on
11593,Greenbriar Sr.,sports field,peel region,1140,central park,L6S 2C9,brampton,on
11594,Greenbriar Sr.,sports field,peel region,1140,central park,L6S 2C9,brampton,on
11620,Grenoble,sports field,peel region,33,greenbriar,L6S 1V8,brampton,on
11621,Grenoble,sports field,peel region,33,greenbriar,L6S 1V8,brampton,on
11638,Guardian Angels,sports field,peel region,62,heatherdale,L7A 2H4,brampton,on
11686,Hanover,sports field,peel region,215,hanover,L6S 1B6,brampton,on
11687,Hanover,sports field,peel region,215,hanover,L6S 1B6,brampton,on
11688,Hanover,sports field,peel region,215,hanover,L6S 1B6,brampton,on
11689,Hanover,sports field,peel region,215,hanover,L6S 1B6,brampton,on
11690,Hanover,sports field,peel region,215,hanover,L6S 1B6,brampton,on
11705,Harold F. Loughin,sports field,peel region,39,herkley,L6V 20000000,brampton,on
11706,Harold F. Loughin,sports field,peel region,39,herkley,L6V 20000000,brampton,on
11707,Harold F. Loughin,sports field,peel region,39,herkley,L6V 20000000,brampton,on
11709,Harold M. Brathwaite,sports field,peel region,415,great lakes,L6R 2Z4,brampton,on
11729,Havelock Park,sports field,peel region,171,havelock,..,brampton,on
11764,Heart Lake,sports field,peel region,296,conestoga,L6Z 3M1,brampton,on
11775,Helen Wilson,sports field,peel region,9,abbey,L6W 2T7,brampton,on
11776,Helen Wilson,sports field,peel region,9,abbey,L6W 2T7,brampton,on
11867,Hewson,sports field,peel region,235,father tobin,L6R 0G2,brampton,on
11876,Hickory Wood Park,sports field,peel region,658,ray lawson,..,brampton,on
11877,Hickory Wood Park,sports field,peel region,658,ray lawson,..,brampton,on
11927,Hilldale,sports field,peel region,100,hilldale,L6S 2N3,brampton,on
11928,Hilldale,sports field,peel region,100,hilldale,L6S 2N3,brampton,on
11982,Holy Name Of Mary,sports field,peel region,115,glenvale,L6S 3J7,brampton,on
11984,Holy Spirit,sports field,peel region,25,bloomsbury,L6P 1W9,brampton,on
11991,Homestead,sports field,peel region,99,fletcher's creek,L6X 4T7,brampton,on
11992,Homestead Park,sports field,peel region,83,fletcher's creek,..,brampton,on
11993,Homestead Park,sports field,peel region,83,fletcher's creek,..,brampton,on
11994,Homestead Park,sports field,peel region,83,fletcher's creek,..,brampton,on
11995,Homestead Park,sports field,peel region,83,fletcher's creek,..,brampton,on
12109,Huttonville,sports field,peel region,2322,embleton,L0J 1B0,brampton,on
12110,Huttonville,sports field,peel region,2322,embleton,L0J 1B0,brampton,on
12212,James Potter,sports field,peel region,9775,creditview,L6X 0H7,brampton,on
12235,Jefferson,sports field,peel region,48,jefferson,L6S 2N9,brampton,on
12236,Jefferson,sports field,peel region,48,jefferson,L6S 2N9,brampton,on
12237,Jefferson Park,sports field,peel region,1015,park,..,brampton,on
12238,Jefferson Park,sports field,peel region,..,..,..,brampton,on
12239,Jefferson Park,sports field,peel region,..,..,..,brampton,on
12240,Jefferson Park,sports field,peel region,..,..,..,brampton,on
12244,Jeunes Sans Frontieres,sports field,peel region,7585,financial,L6Y 5P4,brampton,on
12341,Kaneff Park,sports field,peel region,..,..,..,brampton,on
