Index,Facility_Name,ODRSF_facility_type,Provider,Street_No,Street_Name,Postal_Code,City,Prov_Terr
11948,Hockley Valley Golf Club,sports field,york region,793522,3rd line,L9W 2Y8,orangeville,on
12141,Iron And The Eagle Golf And Country Club,sports field,york region,553473,mono,L9W 2Z1,orangeville,on
22809,Bruce Trail,trail,peel region,..,..,..,..,on
22810,Bruce Trail,trail,peel region,..,..,..,..,on
22824,Bruce Trail,trail,peel region,..,..,..,..,on
22825,Bruce Trail,trail,peel region,..,..,..,..,on
22826,Bruce Trail,trail,peel region,..,..,..,..,on
22852,Bruce Trail (Road Allowance),trail,peel region,..,..,..,..,on
22853,Bruce Trail (Road Allowance),trail,peel region,..,..,..,..,on
28077,Glen Haffy Side Trail,trail,peel region,..,..,..,..,on
95927,..,trail,province of ontario,..,..,..,..,on
95929,..,trail,province of ontario,..,..,..,..,on
95930,..,trail,province of ontario,..,..,..,..,on
95939,..,trail,province of ontario,..,..,..,..,on
96114,..,trail,province of ontario,..,..,..,..,on
96141,..,trail,province of ontario,..,..,..,..,on
96332,..,trail,province of ontario,..,..,..,..,on
96341,..,trail,province of ontario,..,..,..,..,on
96450,..,trail,province of ontario,..,..,..,..,on
96452,..,trail,province of ontario,..,..,..,..,on
96888,..,trail,province of ontario,..,..,..,..,on
97102,..,trail,province of ontario,..,..,..,..,on
97105,..,trail,province of ontario,..,..,..,..,on
97219,..,trail,province of ontario,..,..,..,..,on
97228,..,trail,province of ontario,..,..,..,..,on
97611,..,trail,province of ontario,..,..,..,..,on
97612,..,trail,province of ontario,..,..,..,..,on
97717,..,trail,province of ontario,..,..,..,..,on
97718,..,trail,province of ontario,..,..,..,..,on
97826,..,trail,province of ontario,..,..,..,..,on
97828,..,trail,province of ontario,..,..,..,..,on
97829,..,trail,province of ontario,..,..,..,..,on
97862,..,trail,province of ontario,..,..,..,..,on
97863,..,trail,province of ontario,..,..,..,..,on
97902,..,trail,province of ontario,..,..,..,..,on
97903,..,trail,province of ontario,..,..,..,..,on
97904,..,trail,province of ontario,..,..,..,..,on
97905,..,trail,province of ontario,..,..,..,..,on
97988,..,trail,province of ontario,..,..,..,..,on
97989,..,trail,province of ontario,..,..,..,..,on
98007,..,trail,province of ontario,..,..,..,..,on
98008,..,trail,province of ontario,..,..,..,..,on
98432,..,trail,province of ontario,..,..,..,..,on
98435,..,trail,province of ontario,..,..,..,..,on
98472,..,trail,province of ontario,..,..,..,..,on
98494,..,trail,province of ontario,..,..,..,..,on
98505,..,trail,province of ontario,..,..,..,..,on
98558,..,trail,province of ontario,..,..,..,..,on
98566,..,trail,province of ontario,..,..,..,..,on
