Index,Facility_Name,ODRSF_facility_type,Provider,Street_No,Street_Name,Postal_Code,City,Prov_Terr
3561,North Dufferin Recreation And Community Centre,community centre,county of dufferin,706114,duffferin,..,mulmur,on
95955,..,trail,province of ontario,..,..,..,..,on
95956,..,trail,province of ontario,..,..,..,..,on
95997,..,trail,province of ontario,..,..,..,..,on
97074,..,trail,province of ontario,..,..,..,..,on
97103,..,trail,province of ontario,..,..,..,..,on
98421,..,trail,province of ontario,..,..,..,..,on
98493,..,trail,province of ontario,..,..,..,..,on
98506,..,trail,province of ontario,..,..,..,..,on
98633,..,trail,province of ontario,..,..,..,..,on
98668,..,trail,province of ontario,..,..,..,..,on
98669,..,trail,province of ontario,..,..,..,..,on
98689,..,trail,province of ontario,..,..,..,..,on
98734,..,trail,province of ontario,..,..,..,..,on
98746,..,trail,province of ontario,..,..,..,..,on
98837,..,trail,province of ontario,..,..,..,..,on
98878,..,trail,province of ontario,..,..,..,..,on
98883,..,trail,province of ontario,..,..,..,..,on
98902,..,trail,province of ontario,..,..,..,..,on
98932,..,trail,province of ontario,..,..,..,..,on
98955,..,trail,province of ontario,..,..,..,..,on
98956,..,trail,province of ontario,..,..,..,..,on
98985,..,trail,province of ontario,..,..,..,..,on
98986,..,trail,province of ontario,..,..,..,..,on
98994,..,trail,province of ontario,..,..,..,..,on
99015,..,trail,province of ontario,..,..,..,..,on
99016,..,trail,province of ontario,..,..,..,..,on
99120,..,trail,province of ontario,..,..,..,..,on
99189,..,trail,province of ontario,..,..,..,..,on
99204,..,trail,province of ontario,..,..,..,..,on
99218,..,trail,province of ontario,..,..,..,..,on
99235,..,trail,province of ontario,..,..,..,..,on
99243,..,trail,province of ontario,..,..,..,..,on
99392,..,trail,province of ontario,..,..,..,..,on
99412,..,trail,province of ontario,..,..,..,..,on
99413,..,trail,province of ontario,..,..,..,..,on
99434,..,trail,province of ontario,..,..,..,..,on
99445,..,trail,province of ontario,..,..,..,..,on
