Index,Facility_Name,ODRSF_facility_type,Provider,Street_No,Street_Name,Postal_Code,City,Prov_Terr
11639,Guelph Lakes Golf And Country Club,sports field,guelph,..,..,..,..,on
31384,Kissing Bridge Trail,trail,kitchener,..,..,..,woolwich,on
97588,..,trail,province of ontario,..,..,..,..,on
97589,..,trail,province of ontario,..,..,..,..,on
97590,..,trail,province of ontario,..,..,..,..,on
97591,..,trail,province of ontario,..,..,..,..,on
97592,..,trail,province of ontario,..,..,..,..,on
97593,..,trail,province of ontario,..,..,..,..,on
97594,..,trail,province of ontario,..,..,..,..,on
97595,..,trail,province of ontario,..,..,..,..,on
97596,..,trail,province of ontario,..,..,..,..,on
97597,..,trail,province of ontario,..,..,..,..,on
97598,..,trail,province of ontario,..,..,..,..,on
97599,..,trail,province of ontario,..,..,..,..,on
97600,..,trail,province of ontario,..,..,..,..,on
97601,..,trail,province of ontario,..,..,..,..,on
97602,..,trail,province of ontario,..,..,..,..,on
97603,..,trail,province of ontario,..,..,..,..,on
97604,..,trail,province of ontario,..,..,..,..,on
97605,..,trail,province of ontario,..,..,..,..,on
97606,..,trail,province of ontario,..,..,..,..,on
97607,..,trail,province of ontario,..,..,..,..,on
97608,..,trail,province of ontario,..,..,..,..,on
97609,..,trail,province of ontario,..,..,..,..,on
97610,..,trail,province of ontario,..,..,..,..,on
97801,..,trail,province of ontario,..,..,..,..,on
97802,..,trail,province of ontario,..,..,..,..,on
99509,..,trail,province of ontario,..,..,..,..,on
137419,..,trail,province of ontario,..,..,..,..,on
137460,..,trail,province of ontario,..,..,..,..,on
137475,..,trail,province of ontario,..,..,..,..,on
137507,..,trail,province of ontario,..,..,..,..,on
167921,Guelph Lake Sports Fields,park,guelph,..,..,..,..,on
