Index,Facility_Name,ODRSF_facility_type,Provider,Street_No,Street_Name,Postal_Code,City,Prov_Terr
164914,Cnr Spurline Park,park,guelph,..,..,..,..,on
164983,Colonial Drive Park,park,guelph,..,..,..,..,on
165295,Crane Park,park,guelph,..,..,..,..,on
165466,Dakota Park,park,guelph,..,..,..,..,on
165488,Dallan Subdivision Park,park,guelph,..,..,..,..,on
165616,Deerpath Park,park,guelph,..,..,..,..,on
165918,Dovercliffe Park,park,guelph,..,..,..,..,on
165968,Drew Park,park,guelph,..,..,..,..,on
165977,Drummond Park,park,guelph,..,..,..,..,on
166053,Dunhill Place Park,park,guelph,..,..,..,..,on
166107,Earl Brimblecombe Park,park,guelph,..,..,..,..,on
166176,Eastview Community Park,park,guelph,..,..,..,..,on
166359,Ellis Creek Park,park,guelph,..,..,..,..,on
166379,Elmira Park,park,guelph,..,..,..,..,on
166448,Eramosa River Park,park,guelph,..,..,..,..,on
166575,Exhibition Park,park,guelph,..,..,..,..,on
166760,Ferndale Park,park,guelph,..,..,..,..,on
167025,Franchetto Park,park,guelph,..,..,..,..,on
167607,Goldie Mill Park,park,guelph,..,..,..,..,on
167608,Goldie Park,park,guelph,..,..,..,..,on
167621,Golfview Park,park,guelph,..,..,..,..,on
167666,Gosling Gardens Park,park,guelph,..,..,..,..,on
167750,Grange Road Park,park,guelph,..,..,..,..,on
167751,Grangehill Subdivision Park,park,guelph,..,..,..,..,on
167807,Green Meadows Park,park,guelph,..,..,..,..,on
167918,Guelph Curling Club,park,guelph,..,..,..,..,on
167919,Guelph Innovation Community Park,park,guelph,..,..,..,..,on
167920,Guelph Innovation Neighbourhood Park,park,guelph,..,..,..,..,on
167922,Guelph Lake Subdivision Park,park,guelph,..,..,..,..,on
168024,Hanlon Creek Park,park,guelph,..,..,..,..,on
168111,Hartsland Park,park,guelph,..,..,..,..,on
168289,Herb Markle Park,park,guelph,..,..,..,..,on
168319,Heritage Park,park,guelph,..,..,..,..,on
168441,Highview Park,park,guelph,..,..,..,..,on
168467,Hillcrest Park,park,guelph,..,..,..,..,on
168532,Holland Crescent Park,park,guelph,..,..,..,..,on
168630,Howden Crescent Park,park,guelph,..,..,..,..,on
168635,Howitt Park,park,guelph,..,..,..,..,on
168654,Hugh C. Guthrie,park,guelph,..,..,..,..,on
168758,I.O.D.E. Fountain,park,guelph,..,..,..,..,on
169053,Jenson Boulevard Park,park,guelph,..,..,..,..,on
169101,Joe Veroni Park,park,guelph,..,..,..,..,on
169149,John Galt Park,park,guelph,..,..,..,..,on
169150,John Gamble Park,park,guelph,..,..,..,..,on
169169,John Mccrae Memorial Gardens,park,guelph,..,..,..,..,on
169263,Joseph Wolfond Park East,park,guelph,..,..,..,..,on
169264,Joseph Wolfond Park West,park,guelph,..,..,..,..,on
169291,Jubilee Park,park,guelph,..,..,..,..,on
169517,Kimberly Park,park,guelph,..,..,..,..,on
