Index,Facility_Name,ODRSF_facility_type,Provider,Street_No,Street_Name,Postal_Code,City,Prov_Terr
169902,Kortright Hills Park,park,guelph,..,..,..,..,on
170220,Lee Street Park,park,guelph,..,..,..,..,on
170304,Lewis Farm Park,park,guelph,..,..,..,..,on
170691,Lyon Park,park,guelph,..,..,..,..,on
170709,Macalister Park,park,guelph,..,..,..,..,on
170941,Margaret Greene Park,park,guelph,..,..,..,..,on
170952,Marianne's Park,park,guelph,..,..,..,..,on
171022,Marksam Park,park,guelph,..,..,..,..,on
171162,Mayfield Park,park,guelph,..,..,..,..,on
171414,Memorial Crescent Park,park,guelph,..,..,..,..,on
171463,Metrus East Node Subdivision Park,park,guelph,..,..,..,..,on
171486,Mico Valeriote Park,park,guelph,..,..,..,..,on
171673,Mitchell Park,park,guelph,..,..,..,..,on
171733,Mollison Park,park,guelph,..,..,..,..,on
171833,Morningcrest Park,park,guelph,..,..,..,..,on
172174,Norm Jary Park,park,guelph,..,..,..,..,on
172296,Northumberland Park,park,guelph,..,..,..,..,on
172297,Northview Estates Subdivision Park,park,guelph,..,..,..,..,on
172428,Oak Street Park,park,guelph,..,..,..,..,on
172483,O'Connor Lane Park,park,guelph,..,..,..,..,on
172620,Orin Reid Park,park,guelph,..,..,..,..,on
172711,Paisley & Edinburgh Park,park,guelph,..,..,..,..,on
172715,Palermo Park,park,guelph,..,..,..,..,on
173825,Peter Misersky Park,park,guelph,..,..,..,..,on
173885,Pinch Park,park,guelph,..,..,..,..,on
173895,Pine Ridge Park,park,guelph,..,..,..,..,on
174102,Preservation Park,park,guelph,..,..,..,..,on
174153,Priory Park (Blacksmith Fntn),park,guelph,..,..,..,..,on
174609,Rickson Park,park,guelph,..,..,..,..,on
174781,Riverside Park,park,guelph,..,..,..,..,on
174858,Robin Road Park,park,guelph,..,..,..,..,on
175286,Royal City Park,park,guelph,..,..,..,..,on
175719,Severn Drive Park,park,guelph,..,..,..,..,on
175909,Silvercreek Park,park,guelph,..,..,..,..,on
176015,Skov Park,park,guelph,..,..,..,..,on
176026,Sleeman Park,park,guelph,..,..,..,..,on
176104,South End Community Park,park,guelph,..,..,..,..,on
176252,Springdale Park,park,guelph,..,..,..,..,on
176447,St. George's Park,park,guelph,..,..,..,..,on
176562,Starview Crescent Park,park,guelph,..,..,..,..,on
176580,Steffler Park,park,guelph,..,..,..,..,on
176583,Stephanie Drive Park,park,guelph,..,..,..,..,on
176730,Suffolk Street Park,park,guelph,..,..,..,..,on
176736,Sugartree Woodlot,park,guelph,..,..,..,..,on
176774,Summit Ridge Park,park,guelph,..,..,..,..,on
176794,Sunny Acres Park,park,guelph,..,..,..,..,on
177331,Trafalgar Square,park,guelph,..,..,..,..,on
177551,University Village Park,park,guelph,..,..,..,..,on
177887,Victoria West Subdivision Park,park,guelph,..,..,..,..,on
