Index,Facility_Name,ODRSF_facility_type,Provider,Street_No,Street_Name,Postal_Code,City,Prov_Terr
10384,Cutten Club,sports field,guelph,..,..,..,..,on
16958,Springfield Golf And Country Club,sports field,guelph,..,..,..,..,on
17694,The Guelph Country Club,sports field,guelph,..,..,..,..,on
18026,Victoria Park Golf Club West,sports field,guelph,..,..,..,..,on
98062,..,trail,province of ontario,..,..,..,..,on
98095,..,trail,province of ontario,..,..,..,..,on
98104,..,trail,province of ontario,..,..,..,..,on
98108,..,trail,province of ontario,..,..,..,..,on
98130,..,trail,province of ontario,..,..,..,..,on
98155,..,trail,province of ontario,..,..,..,..,on
98170,..,trail,province of ontario,..,..,..,..,on
98175,..,trail,province of ontario,..,..,..,..,on
98182,..,trail,province of ontario,..,..,..,..,on
98184,..,trail,province of ontario,..,..,..,..,on
98231,..,trail,province of ontario,..,..,..,..,on
98235,..,trail,province of ontario,..,..,..,..,on
98242,..,trail,province of ontario,..,..,..,..,on
98245,..,trail,province of ontario,..,..,..,..,on
98253,..,trail,province of ontario,..,..,..,..,on
98284,..,trail,province of ontario,..,..,..,..,on
98285,..,trail,province of ontario,..,..,..,..,on
98286,..,trail,province of ontario,..,..,..,..,on
98298,..,trail,province of ontario,..,..,..,..,on
98319,..,trail,province of ontario,..,..,..,..,on
98320,..,trail,province of ontario,..,..,..,..,on
99461,..,trail,province of ontario,..,..,..,..,on
99465,..,trail,province of ontario,..,..,..,..,on
99480,..,trail,province of ontario,..,..,..,..,on
131541,..,trail,province of ontario,..,..,..,..,on
131847,..,trail,province of ontario,..,..,..,..,on
132081,..,trail,province of ontario,..,..,..,..,on
132106,..,trail,province of ontario,..,..,..,..,on
132489,..,trail,province of ontario,..,..,..,..,on
132677,..,trail,province of ontario,..,..,..,..,on
132902,..,trail,province of ontario,..,..,..,..,on
133002,..,trail,province of ontario,..,..,..,..,on
161692,300 Grange Subdivision Park,park,guelph,..,..,..,..,on
162701,Bailey Park,park,guelph,..,..,..,..,on
162841,Bathgate Drive Park,park,guelph,..,..,..,..,on
163264,Beverley Robson Park,park,guelph,..,..,..,..,on
163644,Brant Avenue Park,park,guelph,..,..,..,..,on
163749,Bristol Street Park,park,guelph,..,..,..,..,on
163893,Bullfrog Pond Park,park,guelph,..,..,..,..,on
163933,Burns Drive Park,park,guelph,..,..,..,..,on
164264,Carter Park,park,guelph,..,..,..,..,on
164299,Castlebury Park,park,guelph,..,..,..,..,on
164403,Cedarvale Avenue Park,park,guelph,..,..,..,..,on
164466,Centennial Park,park,guelph,..,..,..,..,on
164787,Cityview Subdivision Park,park,guelph,..,..,..,..,on
