Index,Facility_Name,ODRSF_facility_type,Provider,Street_No,Street_Name,Postal_Code,City,Prov_Terr
7263,Ardleigh Park Tennis Courts,sports field,oakville,135,maple grove,..,..,on
7316,Aspen Forest Park Soccer Field,sports field,oakville,455,aspen forest,..,..,on
7317,Aspen Forest Park Soccer Field,sports field,oakville,455,aspen forest,..,..,on
9022,Bishopstoke Park Tennis Courts,sports field,oakville,1322,bishopstoke,..,..,on
9044,Bloomfield Park Basketball Court,sports field,oakville,2531,oak trails,..,..,on
9045,Bloomfield Park Soccer Field,sports field,oakville,2531,oak trails,..,..,on
9046,Bloomfield Park Tennis Courts,sports field,oakville,2531,oak trails,..,..,on
9293,Bronte Athletic Park Soccer Field,sports field,oakville,2197,lakeshore,..,..,on
9294,Bronte Badminton Club,sports field,oakville,112,third,L6L 3Z6,oakville,on
9295,Bronte Tennis Club House,sports field,oakville,2310,bridge,..,..,on
9296,Brookdale Park Softball Diamond,sports field,oakville,1215,bridge,..,..,on
9297,Brookdale Public School Soccer Field,sports field,oakville,1195,bridge,..,..,on
9544,Castlebrook Park Basketball Court,sports field,oakville,2207,pine glen,..,..,on
9545,Castlebrook Park Soccer Field,sports field,oakville,2207,pine glen,..,..,on
9555,Castlefield Park Tennis Courts,sports field,oakville,220,river oaks,..,..,on
9893,Clearview Park Soccer Field 1,sports field,oakville,1260,sir david,..,..,on
9894,Clearview Park Softball Diamond,sports field,oakville,1260,sir david,..,..,on
10187,Coronation Park Outdoor Volleyball Courts,sports field,oakville,1426,lakeshore,..,..,on
10423,Deer Run Park Softball Diamond,sports field,oakville,2406,deer run,..,..,on
10424,Deer Run Tennis Courts,sports field,oakville,2406,deer run,..,..,on
10427,Deerfield Golf Course,sports field,york region,2363,service,L6M 3H8,oakville,on
10663,E. J. James Public School Soccer Field,sports field,oakville,338,cairncroft,..,..,on
10718,Eastview Public School Soccer Field,sports field,oakville,2266,hixon,..,..,on
10719,Eastview Public School Softball Diamond,sports field,oakville,2266,hixon,..,..,on
10745,Ecole Secondaire Gaetan Gervais Soccer Field,sports field,oakville,150,ridge,..,..,on
10959,Falgarwood Park Basketball Court,sports field,oakville,1349,gainsborough,..,..,on
10960,Falgarwood Park Soccer Field,sports field,oakville,1349,gainsborough,..,..,on
10961,Falgarwood Park Softball Diamond,sports field,oakville,1349,gainsborough,..,..,on
11181,Forster Park Basketball Court,sports field,oakville,100,forster park,..,..,on
11182,Forster Park Tennis Court,sports field,oakville,100,forster park,..,..,on
11393,Gladys Speers Public School Softball Diamond,sports field,oakville,2150,samway,..,..,on
11396,Glen Abbey Golf Club,sports field,york region,1333,dorval,L6M 4G2,oakville,on
11397,Glen Abbey Golf Club,sports field,oakville,1333,dorval,L6M 4X7,oakville,on
11398,Glen Abbey Park Basketball Court,sports field,oakville,1415,third,..,..,on
11399,Glen Abbey Park Field Hockey Pitch,rink,oakville,1415,third,..,..,on
11400,Glen Abbey Park Softball Diamond,sports field,oakville,1415,third,..,..,on
11401,Glen Abbey Park Tennis Courts,sports field,oakville,1415,thrid,..,..,on
11405,Glen Allen Park Soccer Field 1,sports field,oakville,2503,bridge,..,..,on
11406,Glen Allen Park Soccer Field 2,sports field,oakville,2503,bridge,..,..,on
11414,Glen Oak Park Tennis Courts,sports field,oakville,300,glen oak,..,..,on
11419,Glenashton Park Cricket Pitch,sports field,oakville,1051,glenashton,..,..,on
11420,Glenashton Park Soccer Field 2,sports field,oakville,2231,eighth,..,..,on
11421,Glenashton Park Softball Diamond 1,sports field,oakville,2231,eighth,..,..,on
11422,Glenashton Park Softball Diamond 2,sports field,oakville,1051,glenashton,..,..,on
11423,Glenashton Soccer Field 2,sports field,oakville,2231,eighth,..,..,on
11424,Glenashton Tennis Courts,sports field,oakville,1051,glenashton,..,..,on
11540,Grand Oak Park Soccer Field,sports field,oakville,2205,grand oak,..,..,on
11665,Halton Field Hockey Club,rink,oakville,..,..,..,oakville,on
11701,Harman Gate Park Soccer Field,sports field,oakville,186,river glen,..,..,on
