Index,Facility_Name,ODRSF_facility_type,Provider,Street_No,Street_Name,Postal_Code,City,Prov_Terr
1860,Gladys Speers Public School Playground,playground,oakville,2150,samway,..,..,on
1867,Glen Abbey Blue Arena,arena,oakville,1415,third,..,..,on
1868,Glen Abbey Park Playground,playground,oakville,1415,third,..,..,on
1869,Glen Abbey Pool,pool,oakville,1415,third,..,..,on
1870,Glen Abbey Recreation Centre,community centre,oakville,1415,third,L6M 3G2,oakville,on
1873,Glen Allen Park Playground,playground,oakville,2503,bridge,..,..,on
1886,Glen Oak Park Playground,playground,oakville,300,glen oak,..,..,on
1891,Glenashton Park Playground,playground,oakville,1051,glenashton,..,..,on
1923,Golden Meadow Park Playground,playground,oakville,1426,golden meadow,..,..,on
1956,Grand Blvd. Park Playground Jr,playground,oakville,1421,grand,..,..,on
1957,Grand Oak Park Playground,playground,oakville,2205,grand oak,..,..,on
2000,Greenwick Park Playground,playground,oakville,2410,greenwich,..,..,on
2008,Grenville Park Playground,playground,oakville,2084,grenville,..,..,on
2066,Harman Gate Park Playground,playground,oakville,186,river glen,..,..,on
2133,Heritage Way Park Playground,playground,oakville,1659,heritage,..,..,on
2134,Heritage Way Park Splash Pad,splash pad,oakville,1659,heritage,..,..,on
2211,Holt0N Heights Park Playground,playground,oakville,1315,holton heights,..,..,on
2213,Holy Family Elementary Cs Playground,playground,oakville,1440,grosvenor,..,..,on
2224,Hopedale Park Playground,playground,oakville,1436,tansley,..,..,on
2229,Horton Parkette Playground,playground,oakville,3169,masterman,..,..,on
2366,Iroquois Ridge Pool,pool,oakville,1051,glenashton,..,..,on
2371,Isaac Park Playground,playground,oakville,3086,isaac,..,..,on
2372,Isaac Park Splash Pad,splash pad,oakville,3086,isaac,..,..,on
2410,James W Hill Public School Playground,playground,oakville,2860,kingsway,..,..,on
2424,Jennings Park Playground,playground,oakville,263,jennings,..,..,on
2484,Jonathan Park Playground,playground,oakville,1180,jonathan,..,..,on
2501,Joshua's Creek Arenas,arena,oakville,1663,service,L6H 7T1,oakville,on
2509,Kaitting House Parkette Playground,playground,oakville,257,ellen davidson,..,..,on
2589,Kingsford Gardens Playground,playground,oakville,2667,kingsway,..,..,on
2596,Kingsway Park Playground,playground,oakville,2921,kingsway,..,..,on
2598,Kinoak Arena,arena,oakville,363,warminster,L6L 4N1,oakville,on
2683,Lakeside Park Playground,playground,oakville,144,front,..,..,on
2703,Langtry Park Outdoor Ice Rink,rink,oakville,2186,brays,..,..,on
2704,Langtry Park Playground,playground,oakville,2186,brays,..,..,on
2727,Laurelwood Park Playground,playground,oakville,420,hedgerow,..,..,on
2739,Lawson Park Playground,playground,oakville,146,morrison,..,..,on
2740,Lawson Playground,playground,oakville,2184,hixon,..,..,on
2788,Lindsay Park Playground,playground,oakville,1185,dorval,..,..,on
2802,Lions Pool,pool,oakville,159,felan,..,..,on
2805,Lions Valley Park Playground,playground,oakville,1150,dundas,..,..,on
2812,Litchfield Park Playground,playground,oakville,1435,white oaks,..,..,on
2962,Lyndhurst Park Playground Jr.,playground,oakville,2366,lyndhurst,..,..,on
3160,Maple Grove Arena,arena,oakville,2237,devon,L6J 5M1,oakville,on
3161,Maple Grove Public School Playground,playground,oakville,288,maple grove,..,..,on
3165,Maple Valley Park Playground,playground,oakville,478,maple,..,..,on
3167,Maplegrove Park Playground,playground,oakville,2237,devon,..,..,on
3176,Margaret Drive Park Playground,playground,oakville,363,margaret,..,..,on
3182,Margot Street Park Playground,playground,oakville,2156,margot,..,..,on
3192,Marine Drive Park Playground,playground,oakville,66,nelson,..,..,on
