Index,Facility_Name,ODRSF_facility_type,Provider,Street_No,Street_Name,Postal_Code,City,Prov_Terr
5029,Queen Elizabeth Park Community Centre Pool,pool,oakville,2302,bridge,..,..,on
5030,Queen Elizabeth Park Playground,playground,oakville,2310,bridge,..,..,on
5083,Rebecca Gardens Playground,playground,oakville,2149,shelley,..,..,on
5140,Ridgeview Park Playground,playground,oakville,156,sewell,..,..,on
5152,River Glen Park Playground,playground,oakville,367,river glen,..,..,on
5161,River Oaks Arena,arena,oakville,2400,sixth,..,..,on
5166,Riverbank Park Playground,playground,oakville,..,riverbank,..,..,on
5269,Runnymead Park Playground,playground,oakville,100,nottinghill,..,..,on
5357,Seabrook Park Playground,playground,oakville,2069,seabrook,..,..,on
5402,Shell Park Playground,playground,oakville,3307,lakeshore,..,..,on
5408,Sheridan Public School Playground,playground,oakville,1555,lancaster,..,..,on
5409,Sheridan Valley Park Playground,playground,oakville,1479,grosvener,..,..,on
5451,Sir John Colborne Recreation Centre,community centre,oakville,1565,old lakeshore,..,..,on
5462,Sixteen Hollow Park Outdoor Ice Rink,rink,oakville,2140,westoak,..,..,on
5463,Sixteen Hollow Park Playground,playground,oakville,2140,westoak,..,..,on
5464,Sixteen Hollow Park Splash Pad,splash pad,oakville,2140,westoak,..,..,on
5465,Sixteen Mile Creek Heritage Trail,trail,oakville,..,..,..,..,on
5658,South Shell Park Playground,playground,oakville,3376,lakeshore,..,..,on
5865,Spring Garden Park Playground,playground,oakville,280,spring garden,..,..,on
5996,Suffolk Park Playground,playground,oakville,515,brookside,..,..,on
6012,Sunningdale Park Playground,playground,oakville,1470,pembrook,..,..,on
6052,Tecumseh Park Playground,playground,oakville,224,tecumseh,..,..,on
6098,Thornlea Park Playground,playground,oakville,2062,thornlea,..,..,on
6138,Trafalgar Park Playground,playground,oakville,171,rebecca,..,..,on
6218,Valleybrook Park Playground,playground,oakville,1150,valleybrook,..,..,on
6219,Valleybrook Park Splash Pad,splash pad,oakville,1150,valleybrook,..,..,on
6222,Valleyridge Park Playground,playground,oakville,2524,valleyridge,..,..,on
6223,Valleyridge Park Splash Pad,splash pad,oakville,2524,valleyridge,..,..,on
6306,W H Morden Public School Playground,playground,oakville,180,morden,..,..,on
6418,Waubanoka Parkette Playground,playground,oakville,..,..,..,..,on
6424,We Rock The Spectrum Kid's Gym,gym,oakville,245,wyecroft,L6K 3Y6,oakville,on
6431,Wedgewood Park Playground,playground,oakville,351,cairncroft,..,..,on
6432,Wedgewood Pool,pool,oakville,351,cairncroft,..,..,on
6465,West Oak Park Playground Jr,playground,oakville,2860,westoak trails,..,..,on
6467,West Oak Trails Park North Parking Lot,trail,oakville,2860,westoak trails,..,..,on
6468,West Oak Trails Park Splash Pad,splash pad,oakville,2860,oak trails,..,..,on
6477,Westbrook Park Playground,playground,oakville,297,chalmers,..,..,on
6501,Westoak Trails,trail,oakville,2149,westoak trails,..,..,on
6535,White Oaks Pool,pool,oakville,1330,montclair,L6H 1Z5,oakville,on
6548,Wilder Park Playground,playground,oakville,1055,westdale,..,..,on
6578,Wilmot Park Playground,playground,oakville,3471,wilmot,..,..,on
6595,Windrush Park Playground,playground,oakville,1225,windrush,..,..,on
6628,Woodgate Woods Playground,playground,oakville,2088,woodgate,..,..,on
6632,Woodhaven Park Playground,playground,oakville,1411,hixon,..,..,on
6653,Wynten Park Splash Pad,splash pad,oakville,2495,wynten,..,..,on
6654,Wynten Way Park Playground,playground,oakville,2495,wynten,..,..,on
7014,Abbey Park Secondary School Soccer Field,sports field,oakville,1455,glen abbey,..,..,on
7125,Aldercrest Park Soccer Field,sports field,oakville,1454,nottinghill,..,..,on
7126,Aldercrest Park Tennis Courts,sports field,oakville,1454,nottinghill,..,..,on
