Index,Facility_Name,ODRSF_facility_type,Provider,Street_No,Street_Name,Postal_Code,City,Prov_Terr
164546,Champlain Park,park,burlington,2101,mountain grove,..,..,on
164782,City View Park,park,burlington,2500,kern's,..,..,on
164795,Civic Square,park,burlington,426,brant,..,..,on
164836,Clarksdale Park,park,burlington,1220,nottingham,..,..,on
164861,Cleaver Park,park,burlington,2104,cleaver,..,..,on
165150,Coronation Park,park,burlington,2099,wellington,..,..,on
165431,Cumberland Park,park,burlington,562,cumberland,..,..,on
165705,Desjardines Park,park,burlington,1811,imperial,..,..,on
165895,Doug Wright Park,park,burlington,4725,doug wright,..,..,on
165969,Driftwood Park,park,burlington,3123,driftwood,..,..,on
165983,Dryden Parkette,park,burlington,5043,dryden,..,..,on
166033,Duncaster Park,park,burlington,2259,duncaster,..,..,on
166109,Earl Court Park,park,burlington,801,francis,..,..,on
166168,Easton Parkette,park,burlington,2437,whitehorn,..,..,on
166332,Elizabeth Gardens Parkette,park,burlington,5412,croydon,..,..,on
166410,Emerson Park,park,burlington,2390,sutton,..,..,on
166591,Fairchild Park,park,burlington,2175,fairchild,..,..,on
166602,Fairfield Parkette,park,burlington,952,gorton,..,..,on
166958,Forestvale Park,park,burlington,1076,forestvale,..,..,on
166991,Fothergill Woods Park,park,burlington,480,fothergill,..,..,on
167031,Francis Road Bikeway,trail,burlington,717,shore,..,..,on
167032,Francis Road Bikeway,trail,burlington,717,shore,..,..,on
167033,Francis Road Bikeway,trail,burlington,717,shore,..,..,on
167034,Francis Road Bikeway,trail,burlington,717,shore,..,..,on
167035,Francis Road Bikeway,trail,burlington,717,shore,..,..,on
167128,Frontenac Park,park,burlington,520,parkside,..,..,on
167267,General Brock,park,burlington,3250,new,..,..,on
167437,Glen Afton Park,park,burlington,254,glen afton,..,..,on
167870,Greenwood Park,park,burlington,703,greenwood,..,..,on
167910,Grove Park,park,burlington,1120,gallagher,..,..,on
168245,Henderson Park,park,burlington,328,henderson,..,..,on
168380,Hidden Valley Park,park,burlington,1137,hidden valley,..,..,on
168733,Hydro Corridor Multi Use Path,trail,burlington,0,burlington-spcls,..,..,on
168734,Hydro Corridor Multi Use Path,trail,burlington,0,burlington-spcls,..,..,on
168735,Hydro Corridor Multi Use Path,trail,burlington,0,burlington-spcls,..,..,on
168736,Hydro Corridor Multi Use Path,trail,burlington,0,burlington-spcls,..,..,on
168737,Hydro Corridor Multi Use Path,trail,burlington,0,burlington-spcls,..,..,on
168738,Hydro Corridor Multi Use Path,trail,burlington,0,burlington-spcls,..,..,on
168739,Hydro Corridor Multi Use Path,trail,burlington,0,burlington-spcls,..,..,on
168740,Hydro Corridor Multi Use Path,trail,burlington,0,burlington-spcls,..,..,on
168741,Hydro Corridor Multi Use Path,trail,burlington,0,burlington-spcls,..,..,on
168742,Hydro Corridor Multi Use Path,trail,burlington,0,burlington-spcls,..,..,on
168743,Hydro Corridor Multi Use Path,trail,burlington,0,burlington-spcls,..,..,on
168744,Hydro Corridor Multi Use Path,trail,burlington,0,burlington-spcls,..,..,on
168838,Ireland Park,park,burlington,2315,headon forest,..,..,on
168848,Iroquois Park,park,burlington,4203,longmoor,..,..,on
168859,Irving Parkette,park,burlington,5680,rosaline,..,..,on
169465,Kerncliff Park,park,burlington,2198,kern's,..,..,on
169468,Kerns Park,park,burlington,1801,kerns,..,..,on
