Index,Facility_Name,ODRSF_facility_type,Provider,Street_No,Street_Name,Postal_Code,City,Prov_Terr
3316,Memorial Park Playground,playground,oakville,120,oak park,..,..,on
3346,Millbank Park Playground,playground,oakville,166,glenashton,..,..,on
3347,Millbank Park Splash Pad,splash pad,oakville,166,glenashton,..,..,on
3366,Millstone Park Playground,playground,oakville,2395,pine glen,..,..,on
3394,Mohawk Park Playground,playground,oakville,176,mohawk,..,..,on
3402,Montclair Public School. Playground,playground,oakville,1285,montclair,..,..,on
3422,Morden Park Playground,playground,oakville,241,morden,..,..,on
3478,Munn's Creek Park Playground,playground,oakville,153,river oaks,..,..,on
3479,Munn's Creek Park Splash Pad,splash pad,oakville,153,river oaks,..,..,on
3480,Munn's Public School Playground,playground,oakville,1511,sixth,..,..,on
3502,Nautical Park Playground Jr,playground,oakville,355,nautical,..,..,on
3517,Nena Woods Park Playground,playground,oakville,2265,nena,..,..,on
3524,New Central Public School Playground,playground,oakville,133,balsam,..,..,on
3538,Neyagawa Park Playground,playground,oakville,540,river glen,..,..,on
3539,Neyagawa Park Splash Pad,splash pad,oakville,540,river glen,..,..,on
3547,Nipegon Trail Playground,playground,oakville,..,..,..,..,on
3554,Normandy Park Playground,playground,oakville,35,normandy,..,..,on
3576,North Ridge Trail Park Playground,playground,oakville,2535,northridge,..,..,on
3611,Notley Park Playground,playground,oakville,1021,nottinghill,..,..,on
3614,Nottinghill Park Outdoor Ice Rink,rink,oakville,1150,nottinghill,..,..,on
3615,Nottinghill Park Playground,playground,oakville,1150,nottinghill,..,..,on
3625,Oakdale Park Playground,playground,oakville,80,mccraney,..,..,on
3630,Oakville - Forest Trail Public School,trail,oakville,1406,pine glen,L6M 4B9,oakville,on
3631,Oakville - Grand Oak Trail,trail,oakville,2600,grand oak trail,L6M 0R4,oakville,on
3632,Oakville - Westoak Trails Blvd,trail,oakville,2983,westoak trails,L6M 50000,oakville,on
3633,Oakville Arena,arena,oakville,133,rebecca,..,..,on
3634,Oakville Arena Parking Lot,arena,oakville,171,rebecca,..,..,on
3635,Oakville Gymnastics Centre,gym,oakville,1415,thrid,..,..,on
3636,Oakville Harbours Marina Office,marina,oakville,2508,lakeshore,L6L 1H8,oakville,on
3637,Oakville Senior Citizens' Recreation Centre,community centre,oakville,263,kerr,..,..,on
3639,Oakwood Public School Playground,playground,oakville,357,bartos,..,..,on
3655,Old Abbey Lane Park Splash Pad,splash pad,oakville,1110,old abbey,..,..,on
3656,Old Abbey Park Playground,playground,oakville,1110,old abbey,..,..,on
3699,Ortona Park Junior Playground,playground,oakville,290,ortona,..,..,on
3987,Oxford Park Playground,playground,oakville,1406,oxford,..,..,on
3995,Palermo Public School Playground,playground,oakville,2345,dundas,..,..,on
4502,Pelee Woods Park Playground,playground,oakville,97,river oaks,..,..,on
4532,Pilgrim's Way Park Playground,playground,oakville,1521,pilgrims,..,..,on
4533,Pine Glen Park Playground,playground,oakville,1520,pine glen,..,..,on
4534,Pine Glen Park Splash Pad,splash pad,oakville,1520,pine glen,..,..,on
4535,Pine Grove Public School Playground,playground,oakville,529,sixth,..,..,on
4546,Pinegrove Park Playground,playground,oakville,338,pinegrove,..,..,on
4550,Pinery Park Playground,playground,oakville,1439,pinery,..,..,on
4551,Pinewood Park Playground,playground,oakville,1150,morrison heights,..,..,on
4785,Post Corners Public School Playground,playground,oakville,2220,caldwell,..,..,on
4786,Post Park Playground,playground,oakville,512,macdonald,..,..,on
4787,Postridge Park Playground,playground,oakville,400,postridge,..,..,on
4788,Postridge Park Splash Pad,splash pad,oakville,400,postridge,..,..,on
4789,Potters Wheel Park Playground,playground,oakville,..,..,..,..,on
