Index,Facility_Name,ODRSF_facility_type,Provider,Street_No,Street_Name,Postal_Code,City,Prov_Terr
170693,Lyons Lane Garden Plots,park,oakville,..,..,..,..,on
170895,Maple Valley Park,park,oakville,..,..,..,..,on
170901,Maplegrove Arena,park,oakville,..,..,..,..,on
170902,Maplegrove Park,park,oakville,..,..,..,..,on
170939,Margaret Drive Park,park,oakville,..,..,..,..,on
170946,Margot Street Park,park,oakville,..,..,..,..,on
170971,Marine Drive Park,park,oakville,..,..,..,..,on
170990,Market Square,park,oakville,..,..,..,..,on
171055,Martindale Park,park,oakville,..,..,..,..,on
171420,Memorial Park,park,oakville,..,..,..,..,on
171550,Millbank Park,park,oakville,..,..,..,..,on
171594,Millstone Park,park,oakville,..,..,..,..,on
171661,Mississaga Parkette,park,oakville,..,..,..,..,on
171727,Mohawk Park,park,oakville,..,..,..,..,on
171789,Montrose Park,park,oakville,..,..,..,..,on
171815,Morden Park,park,oakville,..,..,..,..,on
171850,Morrison-Wedgewood Channel East - 1,park,oakville,..,..,..,..,on
171851,Morrison-Wedgewood Channel West - 2,park,oakville,..,..,..,..,on
171979,Munns Creek Park,park,oakville,..,..,..,..,on
172057,Nautical Park,park,oakville,..,..,..,..,on
172092,Nena Woods Park,park,oakville,..,..,..,..,on
172131,Neyagawa Park,park,oakville,..,..,..,..,on
172181,Normandy Park,park,oakville,..,..,..,..,on
172223,North Park - 2,park,oakville,..,..,..,..,on
172224,North Park - 3,park,oakville,..,..,..,..,on
172229,North Ridge Parkette,park,oakville,..,..,..,..,on
172230,North Ridge Trail Park,park,oakville,..,..,..,..,on
172398,Notley Park,park,oakville,..,..,..,..,on
172411,Nottinghill Park,park,oakville,..,..,..,..,on
172434,Oakdale Park,park,oakville,..,..,..,..,on
172458,Oakville Arena,park,oakville,..,..,..,..,on
172459,Oakville Lawn Bowling Club,park,oakville,..,..,..,..,on
172460,Oakville Park,park,oakville,..,..,..,..,on
172462,Oakville Seniors' Recreation Centre,park,oakville,..,..,..,..,on
172491,Odessa Parkette,park,oakville,..,..,..,..,on
172506,Old Abbey Park,park,oakville,..,..,..,..,on
172519,Old Mill Parkette,park,oakville,..,..,..,..,on
172565,Ontario Hydro/College Park - 1,park,oakville,..,..,..,..,on
172566,Ontario Hydro/College Park -2,park,oakville,..,..,..,..,on
172567,Ontario Hydro/Glen Abbey - 1,park,oakville,..,..,..,..,on
172568,Ontario Hydro/Glen Abbey - 2,park,oakville,..,..,..,..,on
172569,Ontario Hydro/Glen Abbey - 3,park,oakville,..,..,..,..,on
172570,Ontario Hydro/River Oaks,park,oakville,..,..,..,..,on
172571,Ontario Hydro/Winston Park,park,oakville,..,..,..,..,on
172573,Ontario Street Park,park,oakville,..,..,..,..,on
172628,Orsett Park,park,oakville,..,..,..,..,on
172629,Ortona Park,park,oakville,..,..,..,..,on
172676,Oxford Park,park,oakville,..,..,..,..,on
172714,Palermo Park,park,oakville,..,..,..,..,on
