Index,Facility_Name,ODRSF_facility_type,Provider,Street_No,Street_Name,Postal_Code,City,Prov_Terr
67,Aldercrest Park Playground,playground,oakville,1454,nottinghill,..,..,on
86,Algrove Park Playground,playground,oakville,1373,white oaks,..,..,on
138,Annapolis Park Playground,playground,oakville,2331,canso,..,..,on
153,Applewood Park Playground,playground,oakville,2450,applewood,..,..,on
176,Arbourview Trail Playground,playground,oakville,..,..,..,..,on
179,Ardleigh Park Playground,playground,oakville,135,maple grove,..,..,on
216,Aspen Forest Park Playground,playground,oakville,455,aspen forest,..,..,on
278,Bayshire Woods Park Playground,playground,oakville,1300,bayshire,..,..,on
417,Bishopstoke Park Playground,playground,oakville,1322,bishopstoke,..,..,on
432,Bloomfield Park Playground,playground,oakville,2531,oak trails,..,..,on
502,Brantwood Public School Playground,playground,oakville,221,allan,..,..,on
559,Bronte Beach Park,beach,oakville,45,river,L6L 6N9,oakville,on
560,Bronte Heritage Park Playground,playground,oakville,2340,ontario,..,..,on
561,Bronte Pool,pool,oakville,2184,hixon,..,..,on
566,Brookdale Pool,pool,oakville,1215,bridge,..,..,on
567,Brookdale Public School Playground,playground,oakville,1195,bridge,..,..,on
595,Burnet Park Playground,playground,oakville,76,burnet,..,..,on
657,Candy Cane Park Playground,playground,oakville,140,hawthorn,..,..,on
661,Canonridge Park Playground,playground,oakville,2295,canonridge,..,..,on
676,Captain R. Wilson Public School Playground,playground,oakville,2145,grand oak,..,..,on
698,Carol Park Playground,playground,oakville,2299,carol,..,..,on
734,Castlebrook Park Junior Playground,playground,oakville,2207,pine glen,..,..,on
735,Castlefield Park Playground,playground,oakville,238,rover oaks,..,..,on
784,Centennial Pool,pool,oakville,120,navy,..,..,on
1016,Charnwood Park Playground,playground,oakville,183,charnwood,..,..,on
1106,Clearview Park Neighbourhood Ice Rink,rink,oakville,1260,sir david,..,..,on
1141,Colonel William Pond Parkette Playground,playground,oakville,2099,colonel william,..,..,on
1195,Cornwall Road Sports Park Playground,playground,oakville,425,cornwall,..,..,on
1202,Coronation Park Playground,playground,oakville,1426,lakeshore,..,..,on
1203,Coronation Park Splash Pad,splash pad,oakville,1426,lakeshore,..,..,on
1228,Craigleith Park Playground Jr,playground,oakville,1326,craigleith,..,..,on
1235,Creek Path Woods Playground,playground,oakville,267,creek path,..,..,on
1258,Crosstown Trail Information Kiosk,trail,oakville,..,..,..,..,on
1317,Deer Run Park Playground,playground,oakville,2406,deer run,..,..,on
1445,Dunvegan Park Playground,playground,oakville,2111,dunvegan,..,..,on
1448,E. J. James Public School Playground,playground,oakville,338,cairncroft,..,..,on
1501,Eastview Public School Playground,playground,oakville,2266,hixon,..,..,on
1509,Ecole Forest Trail Public School Playground,playground,oakville,150,ridge,..,..,on
1510,Ecole Secondaire Gaetan Gervais Playground,playground,oakville,150,ridge,..,..,on
1553,Elm Road Park Playground,playground,oakville,2070,elm,..,..,on
1571,Emily Cline Park Playground,playground,oakville,3170,trailside,..,..,on
1627,Fairmount Park Playground,playground,oakville,2219,fairmount,..,..,on
1634,Falgarwood Park Neighbourhood Ice Rink,rink,oakville,1349,gainsborough,..,..,on
1635,Falgarwood Park Playground,playground,oakville,1349,gainsborough,..,..,on
1636,Falgarwood Pool,pool,oakville,1349,gainsborough,..,..,on
1637,Falgarwood Public School Playground,playground,oakville,1385,gainsborough,..,..,on
1639,Falling Green Pond Playground,playground,oakville,2424,postmaster,..,..,on
1701,Florence Park Playground,playground,oakville,11,florence,..,..,on
1735,Forster Park Playground,playground,oakville,100,forster park,..,..,on
