Index,Facility_Name,ODRSF_facility_type,Provider,Street_No,Street_Name,Postal_Code,City,Prov_Terr
10664,Eagle Ridge Golf Club,sports field,york region,11742,tenth,L7G 4S7,halton hills,on
11425,Glencairn Golf Club,sports field,york region,9807,25,L9T 2X7,halton hills,on
11560,Granite Ridge Golf Club,sports field,york region,9503,dublin,L9T 2X7,milton,on
11628,Greystone Golf Club,sports field,york region,9689,dublin,L9T 2X7,milton,on
12005,Hornby Glen Golf Course,sports field,york region,8286,hornby,L0P 1,halton hills,on
17690,The Club At North Halton,sports field,york region,363,maple,L7G 4S5,halton hills,on
20440,Ampitheatre Trail,trail,peel region,..,..,..,..,on
21659,Bennett Heritage Side Trail,trail,peel region,..,..,..,..,on
22821,Bruce Trail,trail,peel region,..,..,..,..,on
22822,Bruce Trail,trail,peel region,..,..,..,..,on
22823,Bruce Trail,trail,peel region,..,..,..,..,on
22828,Bruce Trail,trail,peel region,..,..,..,..,on
22846,Bruce Trail (On Road),trail,peel region,..,..,..,..,on
24900,Credit Valley Footpath,trail,peel region,..,..,..,..,on
24901,Credit Valley Footpath,trail,peel region,..,..,..,..,on
24902,Credit Valley Footpath,trail,peel region,..,..,..,..,on
24903,Credit Valley Footpath,trail,peel region,..,..,..,..,on
24904,Credit Valley Footpath,trail,peel region,..,..,..,..,on
24905,Credit Valley Footpath,trail,peel region,..,..,..,..,on
24906,Credit Valley Footpath,trail,peel region,..,..,..,..,on
28548,Great Esker Side Trail,trail,peel region,..,..,..,..,on
28549,Great Esker Side Trail,trail,peel region,..,..,..,..,on
28550,Great Esker Side Trail,trail,peel region,..,..,..,..,on
28551,Great Esker Side Trail,trail,peel region,..,..,..,..,on
28621,Greenbelt Route (Caution - No Facility),trail,peel region,..,..,..,..,on
28629,Greenbelt Route (Caution - No Facility),trail,peel region,..,..,..,..,on
30699,Irwin Quarry Side Trail,trail,peel region,..,..,..,..,on
42783,Maple Hill Trail,trail,peel region,..,..,..,..,on
42784,Maple Hill Trail,trail,peel region,..,..,..,..,on
43252,Mcgregor Spring Pond Trail,trail,peel region,..,..,..,..,on
43253,Mcgregor Spring Pond Trail,trail,peel region,..,..,..,..,on
51232,Roberts Side Trail,trail,peel region,..,..,..,..,on
54856,Terra Cotta Conservation Area,trail,peel region,..,..,..,..,on
54857,Terra Cotta Conservation Area,trail,peel region,..,..,..,..,on
54858,Terra Cotta Conservation Area,trail,peel region,..,..,..,..,on
54859,Terra Cotta Conservation Area,trail,peel region,..,..,..,..,on
54860,Terra Cotta Conservation Area,trail,peel region,..,..,..,..,on
54861,Terra Cotta Conservation Area,trail,peel region,..,..,..,..,on
54862,Terra Cotta Conservation Area,trail,peel region,..,..,..,..,on
54863,Terra Cotta Conservation Area,trail,peel region,..,..,..,..,on
54864,Terra Cotta Conservation Area,trail,peel region,..,..,..,..,on
54865,Terra Cotta Conservation Area,trail,peel region,..,..,..,..,on
54866,Terra Cotta Conservation Area,trail,peel region,..,..,..,..,on
54867,Terra Cotta Conservation Area,trail,peel region,..,..,..,..,on
54868,Terra Cotta Conservation Area,trail,peel region,..,..,..,..,on
54869,Terra Cotta Conservation Area,trail,peel region,..,..,..,..,on
54870,Terra Cotta Conservation Area,trail,peel region,..,..,..,..,on
54871,Terra Cotta Conservation Area,trail,peel region,..,..,..,..,on
54872,Terra Cotta Conservation Area,trail,peel region,..,..,..,..,on
