Index,Facility_Name,ODRSF_facility_type,Provider,Street_No,Street_Name,Postal_Code,City,Prov_Terr
163568,Bowbeer Parkette,park,oakville,..,..,..,..,on
163771,Brock Parkette,park,oakville,..,..,..,..,on
163782,Bronte Athletic Park,park,oakville,..,..,..,..,on
163783,Bronte Athletic Park Field House,park,oakville,..,..,..,..,on
163784,Bronte Beach Park,park,oakville,..,..,..,..,on
163785,Bronte Bluffs,park,oakville,..,..,..,..,on
163787,Bronte Gore Park,park,oakville,..,..,..,..,on
163788,Bronte Harbour,park,oakville,..,..,..,..,on
163789,Bronte Heritage Waterfront Park,park,oakville,..,..,..,..,on
163791,Bronte Pool,park,oakville,..,..,..,..,on
163799,Brookdale Park,park,oakville,..,..,..,..,on
163801,Brookdale Pool,park,oakville,..,..,..,..,on
163912,Burloak Waterfront Park,park,oakville,..,..,..,..,on
163923,Burnet Park,park,oakville,..,..,..,..,on
163947,Busby Park,park,oakville,..,..,..,..,on
163963,Buttonbush Parkette,park,oakville,..,..,..,..,on
164110,Candy Cane Park,park,oakville,..,..,..,..,on
164124,Canonridge Park,park,oakville,..,..,..,..,on
164228,Carol Park,park,oakville,..,..,..,..,on
164249,Carrington Promenade,park,oakville,..,..,..,..,on
164297,Castlebrook Park,park,oakville,..,..,..,..,on
164303,Castlefield Park,park,oakville,..,..,..,..,on
164452,Centennial Park,park,oakville,..,..,..,..,on
164474,Centennial Square,park,oakville,..,..,..,..,on
164537,Chamberlain Walk Park,park,oakville,..,..,..,..,on
164555,Chancery Promenade,park,oakville,..,..,..,..,on
164717,Chisholm Street Parkette,park,oakville,..,..,..,..,on
164730,Chris Vokes Memorial Park,park,oakville,..,..,..,..,on
164856,Clear Creek Park,park,oakville,..,..,..,..,on
164858,Clearview Park,park,oakville,..,..,..,..,on
164980,Colonel William Pond Parkette,park,oakville,..,..,..,..,on
164981,Colonel William Woods Parkette,park,oakville,..,..,..,..,on
165142,Cornwall Road Greenhouses,park,oakville,..,..,..,..,on
165143,Cornwall Road Sports Park,park,oakville,..,..,..,..,on
165147,Coronation Park,park,oakville,..,..,..,..,on
165159,Coronation Park Stage,park,oakville,..,..,..,..,on
165289,Craigleith Park,park,oakville,..,..,..,..,on
165390,Crosstown Trail (I.R.) - 1,park,oakville,..,..,..,..,on
165391,Crosstown Trail (I.R.) - 2,park,oakville,..,..,..,..,on
165392,Crosstown Trail (I.R.) - 3,park,oakville,..,..,..,..,on
165393,Crosstown Trail (I.R.) - 4,park,oakville,..,..,..,..,on
165394,Crosstown Trail (I.R.) - 5,park,oakville,..,..,..,..,on
165395,Crosstown Trail (R.O.) - 1,park,oakville,..,..,..,..,on
165396,Crosstown Trail (R.O.) - 2,park,oakville,..,..,..,..,on
165397,Crosstown Trail (R.O.) - 3,park,oakville,..,..,..,..,on
165398,Crosstown Trail (R.O.) - 4,park,oakville,..,..,..,..,on
165399,Crosstown Trail (W.O.T.) - 1,park,oakville,..,..,..,..,on
165400,Crosstown Trail (W.O.T.) - 2,park,oakville,..,..,..,..,on
165401,Crosstown Trail (W.O.T.) - 3,park,oakville,..,..,..,..,on
