Index,Facility_Name,ODRSF_facility_type,Provider,Street_No,Street_Name,Postal_Code,City,Prov_Terr
72,Aldershot Arena,arena,burlington,494,townsend,..,..,on
73,Aldershot Pool,pool,burlington,50,fairwood,..,..,on
129,Angela Coughlan Pool,pool,burlington,2425,upper middle,..,..,on
149,Appleby Ice Centre,arena,burlington,1201,appleby,..,..,on
501,Brant Hills Community Centre,community centre,burlington,2255,brant,..,..,on
591,Burlington - Wave Sports Centre,community centre,oakville,5065,benson,L7L 5N7,burlington,on
592,Burlington Centennial Pool,pool,burlington,5151,new,..,..,on
593,Burlington Seniors' Centre,community centre,burlington,2285,new,..,..,on
594,Burloak Sports Centre,community centre,oakville,952,century,L7L 5P2,burlington,on
792,Central Arena,arena,burlington,519,drury,..,..,on
2041,Haber Recreation Centre,community centre,burlington,3040,tim dobbie,..,..,on
2712,Lasalle Park Marina,marina,oakville,841,lasalle park,L9G 2H3,burlington,on
2994,Mainway Ice Centre,arena,burlington,4015,mainway,..,..,on
3468,Mountainside Recreation Center (Arena/Pool),pool,burlington,2205,mount forest,..,..,on
3515,Nelson Recreation Center (Arena/Pool),pool,burlington,4235,new,..,..,on
3516,Nelson Stadium,stadium,oakville,4181,new,L7L 1T3,burlington,on
5619,Skyway Arena,arena,burlington,129,kenwood,..,..,on
6048,Tansley Woods Community Centre/Pool,pool,burlington,1996,itabashi,..,..,on
9324,Bubble Tennis Club,sports field,oakville,4346,longmoor,L7L 2M5,burlington,on
11666,Halton Region Volleyball Club,sports field,oakville,482,john,L7R 2K7,burlington,on
12122,Indian Wells Golf Club,sports field,york region,5377,walkers,L7M 0P9,burlington,on
13697,Millcroft Golf Club,sports field,york region,2155,country club,L7M 4A8,burlington,on
17904,Tyandaga Golf Course-Maintenance Bldg,sports field,burlington,1265,tyandaga park,..,..,on
95830,..,trail,province of ontario,..,..,..,..,on
96350,..,trail,province of ontario,..,..,..,..,on
96886,..,trail,province of ontario,..,..,..,..,on
97221,..,trail,province of ontario,..,..,..,..,on
97222,..,trail,province of ontario,..,..,..,..,on
97320,..,trail,province of ontario,..,..,..,..,on
97338,..,trail,province of ontario,..,..,..,..,on
97500,..,trail,province of ontario,..,..,..,..,on
97708,..,trail,province of ontario,..,..,..,..,on
97709,..,trail,province of ontario,..,..,..,..,on
97710,..,trail,province of ontario,..,..,..,..,on
97840,..,trail,province of ontario,..,..,..,..,on
97841,..,trail,province of ontario,..,..,..,..,on
97842,..,trail,province of ontario,..,..,..,..,on
97925,..,trail,province of ontario,..,..,..,..,on
97952,..,trail,province of ontario,..,..,..,..,on
97997,..,trail,province of ontario,..,..,..,..,on
98508,..,trail,province of ontario,..,..,..,..,on
98576,..,trail,province of ontario,..,..,..,..,on
98583,..,trail,province of ontario,..,..,..,..,on
98630,..,trail,province of ontario,..,..,..,..,on
98900,..,trail,province of ontario,..,..,..,..,on
98922,..,trail,province of ontario,..,..,..,..,on
99285,..,trail,province of ontario,..,..,..,..,on
99397,..,trail,province of ontario,..,..,..,..,on
99422,..,trail,province of ontario,..,..,..,..,on
