Index,Facility_Name,ODRSF_facility_type,Provider,Street_No,Street_Name,Postal_Code,City,Prov_Terr
167868,Greenwich Park,park,oakville,..,..,..,..,on
167883,Grenville Park,park,oakville,..,..,..,..,on
168013,Hampstead Road Parkette,park,oakville,..,..,..,..,on
168045,Harbourside Promenade,park,oakville,..,..,..,..,on
168046,Harbourside Walkway,park,oakville,..,..,..,..,on
168058,Harman Gate Park,park,oakville,..,..,..,..,on
168196,Heath Parkette,park,oakville,..,..,..,..,on
168314,Heritage Park,park,oakville,..,..,..,..,on
168329,Heritage Way Park,park,oakville,..,..,..,..,on
168480,Hillmer Park,park,oakville,..,..,..,..,on
168512,Hixon Parkette,park,oakville,..,..,..,..,on
168561,Holton Heights Park,park,oakville,..,..,..,..,on
168567,Holyrood Park,park,oakville,..,..,..,..,on
168591,Hopedale Park,park,oakville,..,..,..,..,on
168615,Horton Way Parkette,park,oakville,..,..,..,..,on
168788,Indian Ridge Trail - 1,park,oakville,..,..,..,..,on
168789,Indian Ridge Trail - 2,park,oakville,..,..,..,..,on
168816,Interprovincial Pipeline (I.R.) - 1,park,oakville,..,..,..,..,on
168817,Interprovincial Pipeline (I.R.) - 2,park,oakville,..,..,..,..,on
168818,Interprovincial Pipeline (I.R.) - 3,park,oakville,..,..,..,..,on
168819,Interprovincial Pipeline (R.O.) - 1,park,oakville,..,..,..,..,on
168820,Interprovincial Pipeline (R.O.) - 2,park,oakville,..,..,..,..,on
168821,Interprovincial Pipeline (W.O.T.) - 1,park,oakville,..,..,..,..,on
168822,Interprovincial Pipeline (W.O.T.) - 2,park,oakville,..,..,..,..,on
168823,Interprovincial Pipeline (W.O.T.) - 3,park,oakville,..,..,..,..,on
168824,Interprovincial Pipeline (W.O.T.) - 4,park,oakville,..,..,..,..,on
168853,Iroquois Ridge Recreation Centre,park,oakville,..,..,..,..,on
168863,Isaac Park,park,oakville,..,..,..,..,on
169049,Jennings Park,park,oakville,..,..,..,..,on
169231,Jonathan Park,park,oakville,..,..,..,..,on
169278,Joshuas Creek Community Park,park,oakville,..,..,..,..,on
169339,Kaitting House Parkette,park,oakville,..,..,..,..,on
169563,Kingsford Gardens,park,oakville,..,..,..,..,on
169568,Kingsridge Parkette,park,oakville,..,..,..,..,on
169574,Kingsway Park,park,oakville,..,..,..,..,on
169581,Kinoak Arena,park,oakville,..,..,..,..,on
170009,Lakeside Park,park,oakville,..,..,..,..,on
170099,Langtry Park,park,oakville,..,..,..,..,on
170153,Laurelwood Park,park,oakville,..,..,..,..,on
170191,Lawson Park,park,oakville,..,..,..,..,on
170192,Lawson Playground,park,oakville,..,..,..,..,on
170224,Leewood Parkette,park,oakville,..,..,..,..,on
170240,Leighland Park,park,oakville,..,..,..,..,on
170387,Lindsay Park,park,oakville,..,..,..,..,on
170429,Lions Pool,park,oakville,..,..,..,..,on
170447,Lisonally Promenade,park,oakville,..,..,..,..,on
170450,Litchfield Park,park,oakville,..,..,..,..,on
170589,Lower Base Line Park,park,oakville,..,..,..,..,on
170671,Lyndhurst Park,park,oakville,..,..,..,..,on
