Index,Facility_Name,ODRSF_facility_type,Provider,Street_No,Street_Name,Postal_Code,City,Prov_Terr
136769,..,trail,province of ontario,..,..,..,..,on
138678,..,trail,province of ontario,..,..,..,..,on
140605,..,trail,province of ontario,..,..,..,..,on
140606,..,trail,province of ontario,..,..,..,..,on
140609,..,trail,province of ontario,..,..,..,..,on
140610,..,trail,province of ontario,..,..,..,..,on
140614,..,trail,province of ontario,..,..,..,..,on
140618,..,trail,province of ontario,..,..,..,..,on
140634,..,trail,province of ontario,..,..,..,..,on
140635,..,trail,province of ontario,..,..,..,..,on
140653,..,trail,province of ontario,..,..,..,..,on
140655,..,trail,province of ontario,..,..,..,..,on
140656,..,trail,province of ontario,..,..,..,..,on
140657,..,trail,province of ontario,..,..,..,..,on
140660,..,trail,province of ontario,..,..,..,..,on
162184,Aldershot Park,park,burlington,1071,gallagher,..,..,on
162315,Amherst Park,park,burlington,2030,amherst heights,..,..,on
162400,Apeldoorn Park,park,burlington,1385,elgin,..,..,on
162403,Apple Blossom Parkette,park,burlington,5060,dryden,..,..,on
162673,Avalon Parkette,park,burlington,2284,avalon,..,..,on
162874,Bayshore Park,park,burlington,322,shore,..,..,on
162895,Bayview Park,park,burlington,1800,king,..,..,on
162942,Beachway Park,park,burlington,936,lakeshore,..,..,on
163225,Berton Park,park,burlington,4050,berton,..,..,on
163228,Berwick Green Park,park,burlington,2086,berwick,..,..,on
163493,Bolus Gardens Parkette,park,burlington,970,francis,..,..,on
163613,Brada Woods Park,park,burlington,5196,brada,..,..,on
163645,Brant Hills Park,park,burlington,2300,duncaster,..,..,on
163654,Breckon Park,park,burlington,4471,spruce,..,..,on
163707,Bridgeview Park,park,burlington,1530,norwood,..,..,on
163756,Brittany Park,park,burlington,1370,headon,..,..,on
163769,Brock Park,park,burlington,450,nelson,..,..,on
163777,Bromley Park,park,burlington,217,maureen,..,..,on
163786,Bronte Creek Trail,trail,burlington,2010,old burloak,..,..,on
163911,Burloak Waterfront Park,park,burlington,5420,lakeshore,..,..,on
164341,Cavendish Park,park,burlington,2155,cavendish,..,..,on
164430,Centennial Bikeway,trail,burlington,423,martha,..,..,on
164431,Centennial Bikeway,trail,burlington,423,martha,..,..,on
164432,Centennial Bikeway,trail,burlington,423,martha,..,..,on
164433,Centennial Bikeway,trail,burlington,423,martha,..,..,on
164442,Centennial Multi Use Path,trail,burlington,..,..,..,..,on
164443,Centennial Multi Use Path,trail,burlington,..,..,..,..,on
164444,Centennial Multi Use Path,trail,burlington,..,..,..,..,on
164445,Centennial Multi Use Path,trail,burlington,..,..,..,..,on
164446,Centennial Multi Use Path,trail,burlington,..,..,..,..,on
164447,Centennial Multi Use Path,trail,burlington,..,..,..,..,on
164448,Centennial Multi Use Path,trail,burlington,..,..,..,..,on
164449,Centennial Multi Use Path,trail,burlington,..,..,..,..,on
164450,Centennial Multi Use Path,trail,burlington,..,..,..,..,on
