Index,Facility_Name,ODRSF_facility_type,Provider,Street_No,Street_Name,Postal_Code,City,Prov_Terr
15765,Shell Park Soccer Field 1,sports field,oakville,3307,lakeshore,..,..,on
15766,Shell Park Soccer Field 2,sports field,oakville,3307,lakeshore,..,..,on
15767,Shell Park Soccer Field 3,sports field,oakville,3307,lakeshore,..,..,on
15768,Shell Park Soccer Field 4,sports field,oakville,3307,lakeshore,..,..,on
15780,Sheridan Hills Soccer Field,sports field,oakville,1440,grosvenor,..,..,on
15781,Sheridan Hills Tennis Courts,sports field,oakville,1440,grosvenor,..,..,on
15896,Sixteen Hollow Park Softball Diamond,sports field,oakville,2140,westoak,..,..,on
16916,Southeast Sports Fields Parking Lot,sports field,oakville,2463,lakeshore,..,..,on
16917,Southeast Sports Fields Soccer Field,sports field,oakville,2463,lakeshore,..,..,on
16918,Southeast Sports Fields Softball Diamond,sports field,oakville,2463,lakeshore,..,..,on
16919,Southeast Sports Fields Utility,sports field,oakville,..,..,..,..,on
16937,Sovereign Park Tennis Courts,sports field,oakville,141,east,..,..,on
17096,St Thomas Aquinas Secondary School Soccer Field,sports field,oakville,124,dorval,..,..,on
17161,St. Ignatius Of Loyola Secondary School Soccer Field,sports field,oakville,1454,nottinghill,..,..,on
17175,St. John's Cs Softball Diamond,sports field,oakville,2480,mansfield,..,..,on
17411,Sunningdale Park Soccer Field,sports field,oakville,1470,pembrook,..,..,on
17412,Sunningdale Park Softball Diamond,sports field,oakville,1470,pembrook,..,..,on
17413,Sunningdale Ps Soccer Field,sports field,oakville,1434,oxford,..,..,on
17414,Sunningdale Ps Softball - Youth,sports field,oakville,1406,oxford,..,..,on
17415,Sunningdale Ps Tennis Courts,sports field,oakville,1406,oxford,..,..,on
17461,T. A. Blakelock Secondary School Soccer Field,sports field,oakville,1160,rebecca,..,..,on
17732,Thornlea Park Baseball Diamond,sports field,oakville,2062,thornlea,..,..,on
17844,Trafalgar Park Basketball Court,sports field,oakville,133,rebecca,..,..,on
17845,Trafalgar Park Softball Diamond 1,sports field,oakville,171,rebecca,..,..,on
17846,Trafalgar Park Softball Diamond 2,sports field,oakville,171,rebecca,..,..,on
17885,Tuesday Night Mens Basketball,sports field,oakville,1055,mccraney,L6H 2R6,oakville,on
17973,Valleybrook Park Basketball Court,sports field,oakville,1150,valleybrook,..,..,on
17974,Valleybrook Park Tennis Courts,sports field,oakville,1150,valleybrook,..,..,on
17978,Valleyridge Park Soccer Field,sports field,oakville,2524,valleyridge,..,..,on
18113,W. H. Morden Public School Soccer Field,sports field,oakville,180,morden,..,..,on
18114,W. H. Morden Public School Soccer Parking,sports field,oakville,180,morden,..,..,on
18139,Wallace Park Tennis Club,sports field,oakville,245,reynolds,L6J 6L2,oakville,on
18140,Wallace Park Tennis Court,sports field,oakville,245,raynolds,..,..,on
18202,Wedgewood Park Softballball Diamond,sports field,oakville,351,cairncroft,..,..,on
18241,West Oak Public School Soccer Field,sports field,oakville,2071,fourth,..,..,on
18242,West Oak Trails Park Soccer Field 1,sports field,oakville,2860,westoak trails,..,..,on
18243,West Oak Trails Park Soccer Field 2,sports field,oakville,2860,westoak trails,..,..,on
18244,West Oak Trails Park Softball Diamond,sports field,oakville,2860,westoak trails,..,..,on
18265,Westbrook Park Soccer Field,sports field,oakville,297,chalmers,..,..,on
18266,Westbrook Park Softball Diamond,sports field,oakville,297,chalmers,..,..,on
18341,White Oaks Secondary School South Soccer Field North,sports field,oakville,1330,montclair,..,..,on
18342,White Oaks Secondary School South Soccer Field South,sports field,oakville,1330,montclair,..,..,on
18343,White Oaks Secondary School South Tennis Courts,sports field,oakville,1330,montclair,..,..,on
18444,Windrush Park Softball Diamond,sports field,oakville,1225,windrush,..,..,on
18445,Windrush Park Tennis Courts,sports field,oakville,1225,windrush,..,..,on
18522,Woodhaven Park Softball Diamond,sports field,oakville,1411,hixon,..,..,on
18568,Wynten Way Park Softball Diamond,sports field,oakville,2495,wynten,..,..,on
68282,Woodland Trail,trail,oakville,..,..,..,..,on
68283,Woodland Trail,trail,oakville,..,..,..,..,on
