Index,Facility_Name,ODRSF_facility_type,Provider,Street_No,Street_Name,Postal_Code,City,Prov_Terr
176968,Taplow Crescent Parkette,park,oakville,..,..,..,..,on
177002,Tecumseh Park,park,oakville,..,..,..,..,on
177078,The Parkway - 1,park,oakville,..,..,..,..,on
177151,Thornlea Park,park,oakville,..,..,..,..,on
177323,Towne Square,park,oakville,..,..,..,..,on
177329,Trafalgar Park,park,oakville,..,..,..,..,on
177475,Twelve Mile Creek Lookout,park,oakville,..,..,..,..,on
177729,Valley Crest Parkette,park,oakville,..,..,..,..,on
177746,Valleybrook Park,park,oakville,..,..,..,..,on
177750,Valleyridge Park,park,oakville,..,..,..,..,on
177870,Victoria Park,park,oakville,..,..,..,..,on
177991,Walker Street Promenade,park,oakville,..,..,..,..,on
178004,Wallace Park,park,oakville,..,..,..,..,on
178051,Warren Drive Park,park,oakville,..,..,..,..,on
178067,Water Street,park,oakville,..,..,..,..,on
178086,Waters Edge Park,park,oakville,..,..,..,..,on
178093,Waterworks Park,park,oakville,..,..,..,..,on
178109,Waubanoka Parkette,park,oakville,..,..,..,..,on
178149,Wedgewood Park,park,oakville,..,..,..,..,on
178152,Wedgewood Pool,park,oakville,..,..,..,..,on
178218,West Ham Parkette,park,oakville,..,..,..,..,on
178239,West Oak Trails Community Park,park,oakville,..,..,..,..,on
178240,West Oakville Sports Park,park,oakville,..,..,..,..,on
178257,West Street Promenade,park,oakville,..,..,..,..,on
178270,Westbrook Park,park,oakville,..,..,..,..,on
178348,Westview Terrace Parkette,park,oakville,..,..,..,..,on
178358,Westwood Park,park,oakville,..,..,..,..,on
178448,Wilder Park,park,oakville,..,..,..,..,on
178516,William Rose Park,park,oakville,..,..,..,..,on
178580,Wilmot Park,park,oakville,..,..,..,..,on
178613,Windfield Parkette,park,oakville,..,..,..,..,on
178622,Windrush Park,park,oakville,..,..,..,..,on
178715,Woodfield Road Parkette,park,oakville,..,..,..,..,on
178722,Woodhaven Park,park,oakville,..,..,..,..,on
178784,Worthington Park,park,oakville,..,..,..,..,on
178801,Wyndham Parkette,park,oakville,..,..,..,..,on
178804,Wynten Way Park,park,oakville,..,..,..,..,on
