Index,Facility_Name,ODRSF_facility_type,Provider,Street_No,Street_Name,Postal_Code,City,Prov_Terr
11842,Heritage Way Park Softball Diamond,sports field,oakville,1659,heritage,..,..,on
11843,Heritage Way Tennis Courts,sports field,oakville,1659,heritage,..,..,on
11970,Holton Heights Park Soccer Field 1,sports field,oakville,1315,holton heights,..,..,on
11971,Holton Heights Park Soccer Field 2,sports field,oakville,1315,holton heights,..,..,on
11972,Holton Heights Park Tennis Courts,sports field,oakville,1315,holton heights,..,..,on
11981,Holy Family Elementary Cs Softball Diamond,sports field,oakville,1420,grosvenor,..,..,on
11986,Holy Trinity Secondary School Soccer Field,sports field,oakville,2420,sixth,..,..,on
12001,Hopedale Park Soccer Field,sports field,oakville,1436,tansley,..,..,on
12002,Hopedale Park Softball Diamond,sports field,oakville,1436,tansley,..,..,on
12003,Hopedale Park Tennis Court,sports field,oakville,1436,tansley,..,..,on
12150,Iroquois Ridge Secondary School Soccer Field,sports field,oakville,1123,glenashton,..,..,on
12156,Isaac Park Soccer Field 1,sports field,oakville,3086,issac,..,..,on
12159,Issac Park Soccer Field 2,sports field,oakville,3086,issac,..,..,on
12303,Jonathan Park Soccer Field,sports field,oakville,1180,jonathan,..,..,on
12304,Jonathan Park Tennis Courts,sports field,oakville,1180,jonathan,..,..,on
12478,Kingsford Gardens Basketball Court,sports field,oakville,2667,kingsway,..,..,on
12479,Kingsford Gardens Hockey Court,rink,oakville,2667,kingsway,..,..,on
12480,Kingsford Gardens Soccer Field 1,sports field,oakville,2667,kingsway,..,..,on
12481,Kingsford Gardens Soccer Field 2,sports field,oakville,2667,kingsway,..,..,on
12879,Langtry Park Softball Diamond,sports field,oakville,2186,brays,..,..,on
12917,Laurelwood Park Softball Diamond,sports field,oakville,420,hedgerow,..,..,on
12946,Lawson Park Tennis Courts,sports field,oakville,146,morrison,..,..,on
12978,Leighland Park Tennis Court,sports field,oakville,301,leighland,..,..,on
13053,Linbrook Public School Soccer Field 1,sports field,oakville,1079,linbrook,..,..,on
13054,Linbrook Public School Soccer Field 2,sports field,oakville,1079,linbrook,..,..,on
13067,Lindsay Park Softball Diamond,sports field,oakville,1185,dorval,..,..,on
13107,Litchfield Park Tennis Courts,sports field,oakville,1435,white oaks,..,..,on
13334,Maple Grove Public School Soccer Field 1,sports field,oakville,288,maple grove,..,..,on
13347,Maplegrove Park Basketball Court,sports field,oakville,2237,devon,..,..,on
13348,Maplegrove Park Tennis Courts,sports field,oakville,2243,devon,..,..,on
13695,Millbank Park Softball Diamond 1,sports field,oakville,166,glenashton,..,..,on
13696,Millbank Park Softball Diamond 2,sports field,oakville,166,glenashton,..,..,on
13719,Millstone Park Soccer Field,sports field,oakville,2395,pine glen,..,..,on
13774,Moha River Oaks Golf Centre,sports field,york region,1060,dundas,L6J 4Z2,oakville,on
13789,Montclair Public School. Softball Diamond,sports field,oakville,1285,montclair,..,..,on
13814,Morden Park Soccer Field,sports field,oakville,241,morden,..,..,on
13815,Morden Park Softball Diamond,sports field,oakville,214,morden,..,..,on
13887,Munn's Creek Park Soccer Field,sports field,oakville,153,river oaks,..,..,on
13888,Munn's Public School Soccer Field,sports field,oakville,1511,sixth,..,..,on
13889,Munns Public School Softball Diamond,sports field,oakville,1516,sixth,..,..,on
13900,Mystic Ridge Golf Course,sports field,york region,4414,fourth,L6M 400000000,oakville,on
13919,Nautical Park Basketball Court,sports field,oakville,355,nautical,..,..,on
13920,Nautical Park Soccer Field,sports field,oakville,355,nautical,..,..,on
13951,New Central Public School Soccer Field 1,sports field,oakville,133,balsam,..,..,on
13997,Normandy Park Basketball Court,sports field,oakville,35,normandy,..,..,on
14019,North Park Soccer Field 1,sports field,oakville,3250,neyagawa,..,..,on
14020,North Park Soccer Field 2,sports field,oakville,3250,neyagawa,..,..,on
14064,Nottinghill Park Soccer Field 1,sports field,oakville,1150,nottinghill,..,..,on
14065,Nottinghill Park Soccer Field 2,sports field,oakville,1150,nottinghill,..,..,on
