Index,Facility_Name,ODRSF_facility_type,Provider,Street_No,Street_Name,Postal_Code,City,Prov_Terr
1791,Future Sherwood Community Centre,community centre,milton,6355,main,..,..,on
3370,Milton Sports Centre,community centre,oakville,605,santa maria,L9T 6J5,milton,on
3494,Nassagaweya Community Centre,community centre,milton,11264,guelph,..,..,on
10913,Executive Fairways Golf Centre,sports field,york region,6667,25,L9T 2X5,milton,on
14795,Piper's Heath Golf Club,sports field,york region,5501,trafalgar,L0P 1,milton,on
15161,Rattlesnake Point Golf Club,sports field,york region,5407,25,L9T 2X5,milton,on
15489,Royal Ontario Golf Club,sports field,york region,6378,trafalgar,L0P 1,milton,on
17843,Trafalgar Golf And Country Club,sports field,york region,6728,sixth,L9T 2X7,milton,on
17893,Turtle Creek Golf,sports field,york region,11660,guelph,L0P 1B0,milton,on
18566,Wyldewood Golf And Country Club,sports field,york region,6198,trafalgar,L0P 1,halton hills,on
95828,..,trail,province of ontario,..,..,..,..,on
95935,..,trail,province of ontario,..,..,..,..,on
95973,..,trail,province of ontario,..,..,..,..,on
96123,..,trail,province of ontario,..,..,..,..,on
96155,..,trail,province of ontario,..,..,..,..,on
96266,..,trail,province of ontario,..,..,..,..,on
96303,..,trail,province of ontario,..,..,..,..,on
96449,..,trail,province of ontario,..,..,..,..,on
97095,..,trail,province of ontario,..,..,..,..,on
97096,..,trail,province of ontario,..,..,..,..,on
97220,..,trail,province of ontario,..,..,..,..,on
97223,..,trail,province of ontario,..,..,..,..,on
97224,..,trail,province of ontario,..,..,..,..,on
97711,..,trail,province of ontario,..,..,..,..,on
97712,..,trail,province of ontario,..,..,..,..,on
97901,..,trail,province of ontario,..,..,..,..,on
97948,..,trail,province of ontario,..,..,..,..,on
97998,..,trail,province of ontario,..,..,..,..,on
98011,..,trail,province of ontario,..,..,..,..,on
98572,..,trail,province of ontario,..,..,..,..,on
98693,..,trail,province of ontario,..,..,..,..,on
98695,..,trail,province of ontario,..,..,..,..,on
98703,..,trail,province of ontario,..,..,..,..,on
98840,..,trail,province of ontario,..,..,..,..,on
98888,..,trail,province of ontario,..,..,..,..,on
98889,..,trail,province of ontario,..,..,..,..,on
99019,..,trail,province of ontario,..,..,..,..,on
99039,..,trail,province of ontario,..,..,..,..,on
99246,..,trail,province of ontario,..,..,..,..,on
99286,..,trail,province of ontario,..,..,..,..,on
99421,..,trail,province of ontario,..,..,..,..,on
123021,..,trail,province of ontario,..,..,..,..,on
123357,..,trail,province of ontario,..,..,..,..,on
136724,..,trail,province of ontario,..,..,..,..,on
138489,..,trail,province of ontario,..,..,..,..,on
138502,..,trail,province of ontario,..,..,..,..,on
138549,..,trail,province of ontario,..,..,..,..,on
138556,..,trail,province of ontario,..,..,..,..,on
138624,..,trail,province of ontario,..,..,..,..,on
