Index,Facility_Name,ODRSF_facility_type,Provider,Street_No,Street_Name,Postal_Code,City,Prov_Terr
14100,Oakville Curling Club,rink,oakville,224,allan,L6J 6L2,oakville,on
14101,Oakville Executive Golf Course,sports field,york region,4414,fourth,L6M 400000000,oakville,on
14102,Oakville Family Badminton Club,sports field,oakville,1123,glenashton,L6H 5M1,oakville,on
14103,Oakville Golf Club,sports field,york region,1154,sixth,L6H 6M1,oakville,on
14104,Oakville Little League Baseball,sports field,oakville,425,cornwall,L6J 7S8,oakville,on
14105,Oakville Old Timers Hockey League,rink,oakville,1663,service,L6H 7T1,oakville,on
14106,Oakville Park Soccer Field 1,sports field,oakville,1065,mccraney,..,..,on
14107,Oakville Park Soccer Field 2,sports field,oakville,1065,mccraney,..,..,on
14108,Oakville Rangers Hockey Club,rink,oakville,2526,speers,L6L 5M2,oakville,on
14109,Oakville Senior Ladies Basketball League,sports field,oakville,2420,sixth,L6H 5Z8,oakville,on
14110,Oakville Trafalgar Secondary School Soccer Field,sports field,oakville,1460,devon,..,..,on
14112,Oakwood Public School Soccer Field,sports field,oakville,357,bartos,..,..,on
14123,Old Abbey Park Basketball Court,sports field,oakville,1110,old abbey,..,..,on
14124,Old Abbey Park Tennis Courts,sports field,oakville,1110,old abbey,..,..,on
14142,Ontario Royals Baseball Club,sports field,oakville,505,iroquois shore,L6H 2R3,oakville,on
14247,Oxford Park Soccer Field,sports field,oakville,1406,oxford,..,..,on
14268,Palermo Park Softball Diamond 1,sports field,oakville,2345,dundas,..,..,on
14269,Palermo Park Softball Diamond 2,sports field,oakville,2345,dundas,..,..,on
14718,Pelee Woods Park Basketball Court,sports field,oakville,97,river oaks,..,..,on
14752,Pilgrim's Way Park Soccer Field 1,sports field,oakville,1521,pilgrims,..,..,on
14753,Pine Glen Park Soccer Field 1,sports field,oakville,1520,pine glen,..,..,on
14754,Pine Glen Park Soccer Field 2,sports field,oakville,1520,pine glen,..,..,on
14755,Pine Glen Park Soccer Field 3,sports field,oakville,1520,pine glen,..,..,on
14756,Pine Glen Park Soccer Field 4,sports field,oakville,1520,pine glen,..,..,on
14757,Pine Glen Soccer Centre,sports field,oakville,1520,pine glen,L6M 4P4,oakville,on
14758,Pine Glen Soccer Complex,sports field,oakville,1520,pine glen,..,..,on
14785,Pinery Park Soccer Field 1,sports field,oakville,1439,pinery,..,..,on
14786,Pinery Park Soccer Field 2,sports field,oakville,1439,pinery,..,..,on
14876,Post Corner's Public School Soccer Field,sports field,oakville,2220,caldwell,..,..,on
14877,Post Park Soccer Field,sports field,oakville,512,macdonald,..,..,on
14878,Postridge Park Soccer Field,sports field,oakville,400,postridge,..,..,on
15035,Q. E. Park Tennis Court,sports field,oakville,2310,bridge,..,..,on
15048,Queen Elizabeth Park Community Centre Basketball Court,sports field,oakville,2302,bridge,..,..,on
15049,Queen Elizabeth Park Community Centre Basketball Court,sports field,oakville,2302,bridge,..,..,on
15050,Queen Elizabeth Park Soccer Field 2,sports field,oakville,2310,bridge,..,..,on
15051,Queen Elizabeth Park Soccer Field 3,sports field,oakville,2310,bridge,..,..,on
15052,Queen Elizabeth Park Tennis Court,sports field,oakville,2310,bridge,..,..,on
15053,Queen Elizabeth Park Tennis Court,sports field,oakville,2310,bridge,..,..,on
15054,Queen Elizabeth Park Tennis Court,sports field,oakville,2310,bridge,..,..,on
15055,Queen Elizabeth Park Tennis Court,sports field,oakville,2310,bridge,..,..,on
15056,Queen Elizabeth Park Tennis Court,sports field,oakville,2310,bridge,..,..,on
15057,Queen Elizabeth Park Tennis Court,sports field,oakville,2310,bridge,..,..,on
15058,Queen Elizabeth Park. Park Tennis Court,sports field,oakville,2310,bridge,..,..,on
15187,Rebecca Gardens Soccer Field,sports field,oakville,2149,shelley,..,..,on
15281,Ridgeview Park Soccer Field,sports field,oakville,156,sewell,..,..,on
15300,River Glen Park Basketball Court,sports field,oakville,376,river glen,..,..,on
15301,River Glen Park Tennis Courts,sports field,oakville,376,river glen,..,..,on
15310,River Oaks Park Soccer Field,sports field,oakville,2400,sixth,..,..,on
15311,River Oaks Park Tennis Courts,sports field,oakville,2400,sixth,..,..,on
