Index,Facility_Name,ODRSF_facility_type,Provider,Street_No,Street_Name,Postal_Code,City,Prov_Terr
169593,Kinsmen Park,park,burlington,2496,cavendish,..,..,on
169638,Kiwanis Park,park,burlington,494,townsend,..,..,on
170055,Lampman Park,park,burlington,1691,lampman,..,..,on
170100,Lansdown Park,park,burlington,3448,hannibal,..,..,on
170132,Lasalle Park,park,burlington,50,shore,..,..,on
170239,Leighland Park,park,burlington,1200,leighland,..,..,on
170423,Lions Park,park,burlington,471,pearl,..,..,on
170534,Longmoor Park,park,burlington,4501,longmoor,..,..,on
170619,Lowville Park,park,burlington,6207,lowville park,..,..,on
170856,Mansfield Park,park,burlington,1300,havendale,..,..,on
170882,Maple Park,park,burlington,750,maple,..,..,on
170905,Maplehurst Park,park,burlington,1066,joan,..,..,on
171216,Mccoy Common,park,burlington,1795,mc coy,..,..,on
171552,Millcroft Park,park,burlington,4250,millcroft park,..,..,on
171726,Mohawk Park,park,burlington,240,kenwood,..,..,on
171917,Mountain Gardens Parkette,park,burlington,2080,mount forest,..,..,on
171927,Mountainside Park,park,burlington,2205,mount forest,..,..,on
172087,Nelson Park,park,burlington,4183,new,..,..,on
172122,Newport Park,park,burlington,3020,headon forest,..,..,on
172306,Norton Community Park,park,burlington,3035,tim dobbie,..,..,on
172589,Optimist Park,park,burlington,2131,prospect,..,..,on
172597,Orchard Community Park,park,burlington,2255,sutton,..,..,on
172610,Orchard Pipeline Trail,trail,burlington,2287,orchard,..,..,on
172611,Orchard Pipeline Trail,trail,burlington,2287,orchard,..,..,on
172612,Orchard Pipeline Trail,trail,burlington,2287,orchard,..,..,on
172613,Orchard Pipeline Trail,trail,burlington,2287,orchard,..,..,on
172614,Orchard Woodlot,park,burlington,2035,oak grove,..,..,on
172615,Orchard Woodlot Central,park,burlington,5390,duchess,..,..,on
172717,Paletta Lakefront Park,park,burlington,4280,lakeshore,..,..,on
172719,Palladium Park,park,burlington,4130,palladium,..,..,on
172724,Palmer Park,park,burlington,3409,palmer,..,..,on
173682,Pathfinder Park,park,burlington,5131,bunton,..,..,on
173751,Peart Park,park,burlington,1410,colonsay,..,..,on
173916,Pineland Park,park,burlington,371,bryant,..,..,on
173917,Pinemeadow Park,park,burlington,3171,pinemeadow,..,..,on
174054,Port Nelson Park,park,burlington,3000,lakeshore,..,..,on
174100,Prescott Parkette,park,burlington,5120,dryden,..,..,on
174266,Queensway Park,park,burlington,2440,glenwood school,..,..,on
174942,Roly Bird Park,park,burlington,2203,industrial,..,..,on
175371,Ryerson Park,park,burlington,555,woodview,..,..,on
175796,Sheldon Creek Woodlot,park,burlington,5200,corporate,..,..,on
175798,Sheldon Park,park,burlington,5320,riverside,..,..,on
175811,Sheraton Park,park,burlington,594,sheraton,..,..,on
175834,Sherwood Forest Park,park,burlington,5270,fairview,..,..,on
175865,Shoreacres Park,park,burlington,316,wilson,..,..,on
175947,Sinclair Park,park,burlington,2365,sinclair,..,..,on
175954,Sioux Lookout Park,park,burlington,3252,lakeshore,..,..,on
176021,Skyway Park,park,burlington,129,kenwood,..,..,on
176224,Spencer Smith Park,park,burlington,1400,lakeshore,..,..,on
