Index,Facility_Name,ODRSF_facility_type,Provider,Street_No,Street_Name,Postal_Code,City,Prov_Terr
166927,Forest Grove Ravine Woodlot,park,milton,375,parkway,..,..,on
167146,Future Community Park,park,milton,805,santa maria,..,..,on
167242,Gastle Park,park,milton,273,schreyer,..,..,on
168123,Harwood Park,park,milton,1521,harwood,..,..,on
168244,Henderson Park,park,milton,2077,lower,..,..,on
168284,Hepburn Woodlot North,park,milton,1025,hepburn,..,..,on
168285,Hepburn Woodlot South,park,milton,1040,hepburn,..,..,on
168544,Holloway Park,park,milton,53,scott,..,..,on
168720,Hutchinson Park,park,milton,736,hutchinson,..,..,on
169565,Kingsleigh Park,park,milton,265,kingsleigh,..,..,on
169596,Kinsmen Park,park,milton,196,wilson,..,..,on
169865,Knight Trail Park,park,milton,1215,knight,..,..,on
169959,Laidlaw Park,park,milton,1059,laidlaw,..,..,on
170077,Lancaster Woodlot,park,milton,925,lancaster,..,..,on
170165,Laurier Park,park,milton,756,laurier,..,..,on
170255,Leiterman Park,park,milton,284,leiterman,..,..,on
170430,Lions Sports Park,park,milton,99,thompson,..,..,on
170484,Livingston Forest At Millpond,park,milton,210,margaret,..,..,on
170485,Livingston Park,park,milton,210,margaret,..,..,on
170662,Luxton Park,park,milton,864,luxton,..,..,on
170896,Maple Woodlot,park,milton,1400,maple,..,..,on
170921,Maquire Park,park,milton,940,maquire,..,..,on
171218,Mccready Park,park,milton,431,scott,..,..,on
171233,Mcdougall Park,park,milton,363,mcdougall,..,..,on
171235,Mcduffe Park,park,milton,1480,clark,..,..,on
171393,Meighen Park,park,milton,1108,meighen,..,..,on
171394,Meighen Woodlot,park,milton,9555,louis st laurent,..,..,on
171401,Melanie Park,park,milton,747,woodward,..,..,on
171435,Menefy Park,park,milton,1314,menefy,..,..,on
171719,Moffat Park,park,milton,1250,no 15 side,..,..,on
171804,Moorelands Park,park,milton,504,laurier,..,..,on
172019,Nakerville Park,park,milton,364,nakerville,..,..,on
172456,Oakview Park,park,milton,1409,storey,..,..,on
172492,Off Leash Dog Park (Cedar Hedge Park),park,milton,230,cedar hedge,..,..,on
172558,Omagh Park,park,milton,9830,britannia,..,..,on
172591,Optimist Park,park,milton,881,savoline,..,..,on
174357,Ramshaw Woodlot,park,milton,1629,ramshaw,..,..,on
175032,Rotary Park,park,milton,100,garden,..,..,on
175453,Sam Sherratt Park/Trail,park,milton,655,laurier,..,..,on
175532,Savoline Park,park,milton,447,savoline,..,..,on
175615,Scott Neighbourhood Park - East,park,milton,143,scott,..,..,on
175616,Scott Neighbourhood Park - West,park,milton,351,savoline,..,..,on
175619,Scott Woodlot North,park,milton,140,scott,..,..,on
175831,Sherwood District Park,park,milton,6125,main,..,..,on
175948,Sinclair Park,park,milton,40,sinclair,..,..,on
176003,Sixteen Mile Creek Linear Park,park,milton,830,cahaun,..,..,on
176004,Sixteen Mile Creek Park - North,park,milton,475,commercial,..,..,on
176005,Sixteen Mile Creek Park - South,park,milton,300,laurier,..,..,on
176229,Speyer Park,park,milton,687,marks,..,..,on
