Index,Facility_Name,ODRSF_facility_type,Provider,Street_No,Street_Name,Postal_Code,City,Prov_Terr
165403,Crosstown Trail (W.O.T.) - 5,park,oakville,..,..,..,..,on
165404,Crosstown Trail (W.O.T.) - 6,park,oakville,..,..,..,..,on
165405,Crosstown Trail (W.O.T.) - 7,park,oakville,..,..,..,..,on
165406,Crosstown Trail (W.O.T.) - 8,park,oakville,..,..,..,..,on
165407,Crosstown Trail (W.O.T.) - 9,park,oakville,..,..,..,..,on
165417,Crusaders Rugby Club Park,park,oakville,..,..,..,..,on
165528,Dashwood Parkette,park,oakville,..,..,..,..,on
165609,Deer Run Park,park,oakville,..,..,..,..,on
165754,Dingle Park,park,oakville,..,..,..,..,on
165855,Donovan Bailey Park - 1,park,oakville,..,..,..,..,on
165856,Donovan Bailey Park - 2,park,oakville,..,..,..,..,on
165889,Dorval Trail,park,oakville,..,..,..,..,on
166070,Dunvegan Park,park,oakville,..,..,..,..,on
166235,Edgemere Promenade,park,oakville,..,..,..,..,on
166240,Edgeware Park,park,oakville,..,..,..,..,on
166369,Elm Road Park,park,oakville,..,..,..,..,on
166418,Emily Cline Park,park,oakville,..,..,..,..,on
166449,Erchless Estate,park,oakville,..,..,..,..,on
166450,Erchless Estates,park,oakville,..,..,..,..,on
166512,Esplanade Promenade,park,oakville,..,..,..,..,on
166630,Fairmount Park,park,oakville,..,..,..,..,on
166664,Falgarwood Park,park,oakville,..,..,..,..,on
166665,Falgarwood Pool,park,oakville,..,..,..,..,on
166720,Featherstone Parkette,park,oakville,..,..,..,..,on
166833,First Street Promenade,park,oakville,..,..,..,..,on
166844,Fishermans Wharf,park,oakville,..,..,..,..,on
166872,Fleetwood Park,park,oakville,..,..,..,..,on
166891,Florence Park,park,oakville,..,..,..,..,on
166972,Forster Park,park,oakville,..,..,..,..,on
167005,Fowley Park,park,oakville,..,..,..,..,on
167174,Gainsborough Park,park,oakville,..,..,..,..,on
167176,Gairloch Galleries,park,oakville,..,..,..,..,on
167177,Gairloch Gardens,park,oakville,..,..,..,..,on
167314,George Savage Park,park,oakville,..,..,..,..,on
167315,George Savage Promenade,park,oakville,..,..,..,..,on
167316,George Street Parkette,park,oakville,..,..,..,..,on
167322,Georges Square,park,oakville,..,..,..,..,on
167432,Glen Abbey Community Centre,park,oakville,..,..,..,..,on
167433,Glen Abbey Park,park,oakville,..,..,..,..,on
167434,Glen Abbey Trail - 1,park,oakville,..,..,..,..,on
167435,Glen Abbey Trail - 2,park,oakville,..,..,..,..,on
167436,Glen Abbey Trail - 3,park,oakville,..,..,..,..,on
167440,Glen Allen Park,park,oakville,..,..,..,..,on
167464,Glen Oak Park,park,oakville,..,..,..,..,on
167477,Glen Valley Pond,park,oakville,..,..,..,..,on
167480,Glenashton Park,park,oakville,..,..,..,..,on
167596,Golden Meadow Park,park,oakville,..,..,..,..,on
167709,Grand Boulevard Park,park,oakville,..,..,..,..,on
167715,Grand Oak Park,park,oakville,..,..,..,..,on
