Index,Facility_Name,ODRSF_facility_type,Provider,Street_No,Street_Name,Postal_Code,City,Prov_Terr
173748,Pearson Park,park,oakville,..,..,..,..,on
173837,Petro Canada Pipeline Alley,park,oakville,..,..,..,..,on
173880,Pilgrim's Way Park,park,oakville,..,..,..,..,on
173892,Pine Glen Community Park,park,oakville,..,..,..,..,on
173893,Pine Glen Soccer Facility,park,oakville,..,..,..,..,on
173910,Pinegrove Park,park,oakville,..,..,..,..,on
173920,Pinery Park,park,oakville,..,..,..,..,on
174079,Post Park,park,oakville,..,..,..,..,on
174081,Postridge Park,park,oakville,..,..,..,..,on
174082,Potters Wheel Park,park,oakville,..,..,..,..,on
174103,Preserve Promenade,park,oakville,..,..,..,..,on
174201,Q.E. Park,park,oakville,..,..,..,..,on
174240,Queen Elizabeth Park Community Centre,park,oakville,..,..,..,..,on
174257,Queens Parkette,park,oakville,..,..,..,..,on
174427,Raymar Promenade,park,oakville,..,..,..,..,on
174452,Rebecca Gardens,park,oakville,..,..,..,..,on
174557,Reservoir Park,park,oakville,..,..,..,..,on
174637,Ridgeview Park,park,oakville,..,..,..,..,on
174653,Rimmington Park,park,oakville,..,..,..,..,on
174677,River Glen Park,park,oakville,..,..,..,..,on
174681,River Oaks Community Centre,park,oakville,..,..,..,..,on
174682,River Oaks Park,park,oakville,..,..,..,..,on
174709,Riverbank Park,park,oakville,..,..,..,..,on
175325,Runnymead Park,park,oakville,..,..,..,..,on
175457,Samuel Curtis Parkette,park,oakville,..,..,..,..,on
175505,Sandy Lane Parkette,park,oakville,..,..,..,..,on
175645,Seabrook Park,park,oakville,..,..,..,..,on
175663,Second Street Promenade,park,oakville,..,..,..,..,on
175800,Shell Park,park,oakville,..,..,..,..,on
175801,Shell Park Field House,park,oakville,..,..,..,..,on
175816,Sheridan Gardens Parkette,park,oakville,..,..,..,..,on
175817,Sheridan Hills Park,park,oakville,..,..,..,..,on
175824,Sheridan Valley Park North,park,oakville,..,..,..,..,on
175825,Sheridan Valley Park South,park,oakville,..,..,..,..,on
175856,Shipyard Park,park,oakville,..,..,..,..,on
175872,Shorewood Promenade,park,oakville,..,..,..,..,on
175969,Sir John Colborne Park,park,oakville,..,..,..,..,on
175970,Sir John Colborne Seniors Centre,park,oakville,..,..,..,..,on
176002,Sixteen Hollow Park,park,oakville,..,..,..,..,on
176006,Sixth Line Parkette,park,oakville,..,..,..,..,on
176134,South Shell Waterfront Park,park,oakville,..,..,..,..,on
176175,Southeast Sports Fields,park,oakville,..,..,..,..,on
176199,Sovereign House,park,oakville,..,..,..,..,on
176200,Sovereign Park,park,oakville,..,..,..,..,on
176240,Spring Garden Park,park,oakville,..,..,..,..,on
176297,Squire Parkette,park,oakville,..,..,..,..,on
176698,Stratus Parkette,park,oakville,..,..,..,..,on
176729,Suffolk Park,park,oakville,..,..,..,..,on
176792,Sunningdale Park,park,oakville,..,..,..,..,on
