Index,Facility_Name,ODRSF_facility_type,Provider,Street_No,Street_Name,Postal_Code,City,Prov_Terr
138691,..,trail,province of ontario,..,..,..,..,on
138693,..,trail,province of ontario,..,..,..,..,on
138705,..,trail,province of ontario,..,..,..,..,on
138752,..,trail,province of ontario,..,..,..,..,on
162717,Baldwin Park,park,milton,191,wilson,..,..,on
162782,Barclay Park,park,milton,1045,barclay,..,..,on
162965,Beaty Neighbourhood Park - North,park,milton,670,bennett,..,..,on
162966,Beaty Neighbourhood Park - South,park,milton,820,bennett,..,..,on
162967,Beaty Trail Park,park,milton,675,trudeau,..,..,on
162968,Beaty Woodlot,park,milton,794,ferguson,..,..,on
162995,Beaver Court Park,park,milton,555,beaver,..,..,on
163146,Bennett Park,park,milton,830,bennett,..,..,on
163607,Boyne Soccer Field,park,milton,8175,britannia,..,..,on
163675,Brian Best Park,park,milton,320,parkway,..,..,on
163748,Bristol District Park,park,milton,920,kennedy,..,..,on
163790,Bronte Meadows Park,park,milton,165,laurier,..,..,on
163826,Brookville Park,park,milton,11305,guelph,..,..,on
163910,Burling Park,park,milton,865,yates,..,..,on
163950,Bussel Park,park,milton,416,bussel,..,..,on
164086,Campbellville Park (New),park,milton,2680,reid side,..,..,on
164087,Campbellville Park (Old),park,milton,105,campbell,..,..,on
164373,Cedar Hedge Park - East,park,milton,225,cedar hedge,..,..,on
164436,Centennial Forest,park,milton,395,centennial forest,..,..,on
164455,Centennial Park,park,milton,50,martin,..,..,on
164508,Centre Park,park,milton,798,graham bell,..,..,on
164729,Chris Hadfield Park,park,milton,1,chris hadfield,..,..,on
164828,Clarke East Woodlot,park,milton,260,cedar hedge,..,..,on
164831,Clarke Neighbourhood Park,park,milton,1170,laurier,..,..,on
164832,Clarke Neighbourhood Park - North,park,milton,1203,laurier,..,..,on
164834,Clarke South Woodlot,park,milton,303,bussel,..,..,on
164835,Clarke Village Square #6,park,milton,9875,derry,..,..,on
164921,Coates Linear Park,park,milton,750,hepburn,..,..,on
164922,Coates Neighbourhood Park - North,park,milton,776,philbrook,..,..,on
164923,Coates Neighbourhood Park - South,park,milton,785,bolingbroke,..,..,on
165018,Community Park,park,milton,805,santa maria,..,..,on
165021,Community Park - Phase 3,park,milton,805,santa maria,..,..,on
165185,Coulson Park,park,milton,754,coulson,..,..,on
165240,Court Park,park,milton,558,brock,..,..,on
165267,Coxe Boulevard Park,park,milton,314,coxe,..,..,on
165535,Dave Thompson Woodlot,park,milton,378,maplewood,..,..,on
165554,David Thompson Park,park,milton,378,maplewood,..,..,on
165647,Dempsey Neighbourhood Park,park,milton,187,dixon,..,..,on
165649,Dempsey Woodlot North,park,milton,225,dixon,..,..,on
165650,Dempsey Woodlot South,park,milton,75,dixon,..,..,on
165979,Drumquin Park,park,milton,12535,britannia,..,..,on
166685,Farmstead Woodlot,park,milton,815,farmstead,..,..,on
166716,Fay Court Park,park,milton,621,woodward,..,..,on
166717,Featherstone Park,park,milton,967,stoutt,..,..,on
166773,Field Park,park,milton,1157,field,..,..,on
