Index,Facility_Name,ODRSF_facility_type,Provider,Street_No,Street_Name,Postal_Code,City,Prov_Terr
169197,John Watson Park,park,hamilton,..,..,..,..,on
169199,John Willson Park,park,hamilton,..,..,..,..,on
169213,Johnson Tew Park,park,hamilton,..,..,..,..,on
169273,Joshua Ave Open Space,park,hamilton,..,..,..,..,on
169274,Joshua Ave Swm,park,hamilton,..,..,..,..,on
169369,Kay Drage Park,park,hamilton,..,..,..,..,on
169390,Keith Park,park,hamilton,..,..,..,..,on
169426,Kenilworth Access Parkette 1,park,hamilton,..,..,..,..,on
169427,Kenilworth Access Parkette 2,park,hamilton,..,..,..,..,on
169428,Kenilworth Access Parkette 3,park,hamilton,..,..,..,..,on
169438,Kennedy East Open Space,park,hamilton,..,..,..,..,on
169439,Kennedy East Park,park,hamilton,..,..,..,..,on
169466,Kernighan Neighbourhood Park,park,hamilton,..,..,..,..,on
169536,King Street Parkette,park,hamilton,..,..,..,..,on
169537,King Street West General Open Space,park,hamilton,..,..,..,..,on
169538,King Y Battlefield,park,hamilton,..,..,..,..,on
169542,King's Forest Golf Course,park,hamilton,..,..,..,..,on
169543,King's Forest Park,park,hamilton,..,..,..,..,on
169546,King's Mead Park,park,hamilton,..,..,..,..,on
169594,Kinsmen Park,park,hamilton,..,..,..,..,on
169628,Kitty Murray Park,park,hamilton,..,..,..,..,on
169896,Kopperfield Park,park,hamilton,..,..,..,..,on
169960,Laidman Park,park,hamilton,..,..,..,..,on
169967,Lake Avenue Park/Bow Valley Open Space,park,hamilton,..,..,..,..,on
169982,Lake Vista Park,park,hamilton,..,..,..,..,on
169995,Lakepoint Park,park,hamilton,..,..,..,..,on
170018,Lakeview Dr Swm,park,hamilton,..,..,..,..,on
170096,Langs Park,park,hamilton,..,..,..,..,on
170176,Lawfield Park,park,hamilton,..,..,..,..,on
170182,Lawrence P. Sayers Park,park,hamilton,..,..,..,..,on
170203,Leadale Place Parkette,park,hamilton,..,..,..,..,on
170206,Leaside Park,park,hamilton,..,..,..,..,on
170250,Leisure Park Open Space,park,hamilton,..,..,..,..,on
170282,Leslie B. Couldrey Park,park,hamilton,..,..,..,..,on
170316,Lifesavers Park,park,hamilton,..,..,..,..,on
170416,Lions Gate Park,park,hamilton,..,..,..,..,on
170419,Lion's Outdoor Pool (Hemming Park),park,hamilton,..,..,..,..,on
170440,Lisgar Park,park,hamilton,..,..,..,..,on
170452,Little Albert Park,park,hamilton,..,..,..,..,on
170459,Little John Park,park,hamilton,..,..,..,..,on
170460,Little League Park,park,hamilton,..,..,..,..,on
170477,Liuna Station Parkette,park,hamilton,..,..,..,..,on
170636,Lucy Day Park,park,hamilton,..,..,..,..,on
170669,Lynden Legion Park,park,hamilton,..,..,..,..,on
170670,Lynden Lions South,park,hamilton,..,..,..,..,on
170711,Macassa Bay Walkway,park,hamilton,..,..,..,..,on
170712,Macassa Park,park,hamilton,..,..,..,..,on
170779,Mahony Park,park,hamilton,..,..,..,..,on
170855,Mansfield Park,park,hamilton,..,..,..,..,on
