Index,Facility_Name,ODRSF_facility_type,Provider,Street_No,Street_Name,Postal_Code,City,Prov_Terr
174458,Red Hill Bowl,park,hamilton,..,..,..,..,on
174459,Red Hill Neighbourhood Park,park,hamilton,..,..,..,..,on
174460,Red Hill Summit East Park,park,hamilton,..,..,..,..,on
174461,Red Hill Valley,park,hamilton,..,..,..,..,on
174462,Red Hill Valley,park,hamilton,..,..,..,..,on
174463,Red Hill Valley,park,hamilton,..,..,..,..,on
174464,Red Hill Valley,park,hamilton,..,..,..,..,on
174465,Red Hill Valley,park,hamilton,..,..,..,..,on
174466,Red Hill Valley,park,hamilton,..,..,..,..,on
174513,Reg Wheeler Park,park,hamilton,..,..,..,..,on
174531,Regina Mundi Elementary,park,hamilton,..,..,..,..,on
174602,Richwill Playground,park,hamilton,..,..,..,..,on
174721,Riverdale East Park (Oaklands),park,hamilton,..,..,..,..,on
174800,Riverwalk Park,park,hamilton,..,..,..,..,on
174823,Robert E. Wade Ancaster Community Park,park,hamilton,..,..,..,..,on
174882,Rockcliffe Gardens,park,hamilton,..,..,..,..,on
174891,Rockview Summit,park,hamilton,..,..,..,..,on
174969,Rosebough Park,park,hamilton,..,..,..,..,on
174974,Rosedale Park,park,hamilton,..,..,..,..,on
175241,Rousseau Elementary,park,hamilton,..,..,..,..,on
175259,Roxborough Park,park,hamilton,..,..,..,..,on
175331,Rushdale Park,park,hamilton,..,..,..,..,on
175367,Ryckmans Neighbourhood Park,park,hamilton,..,..,..,..,on
175370,Ryerson Elementary,park,hamilton,..,..,..,..,on
175372,Ryerson Recreation Centre,park,hamilton,..,..,..,..,on
175385,Sackville Hill Memorial Park,park,hamilton,..,..,..,..,on
175391,Sacred Heart Of Jesus,park,hamilton,..,..,..,..,on
175449,Sam Lawrence Park,park,hamilton,..,..,..,..,on
175450,Sam Lawrence Parkette,park,hamilton,..,..,..,..,on
175452,Sam Manson Park,park,hamilton,..,..,..,..,on
175464,Sanctuary,park,hamilton,..,..,..,..,on
175465,Sanctuary Park,park,hamilton,..,..,..,..,on
175572,Scenic Park,park,hamilton,..,..,..,..,on
175573,Scenic Park,park,hamilton,..,..,..,..,on
175574,Scenic Park,park,hamilton,..,..,..,..,on
175575,Scenic Park,park,hamilton,..,..,..,..,on
175577,Scenic Woods,park,hamilton,..,..,..,..,on
175641,Seabreeze Park,park,hamilton,..,..,..,..,on
175651,Sealy Park,park,hamilton,..,..,..,..,on
175744,Shamrock Park,park,hamilton,..,..,..,..,on
175766,Shaver Estates Park,park,hamilton,..,..,..,..,on
175769,Shawinigan Park,park,hamilton,..,..,..,..,on
175779,Sheffield Ball Park,park,hamilton,..,..,..,..,on
175797,Sheldon Manor,park,hamilton,..,..,..,..,on
175841,Sherwood Meadows Park,park,hamilton,..,..,..,..,on
175842,Sherwood Park,park,hamilton,..,..,..,..,on
175849,Sherwood Vale Lot,park,hamilton,..,..,..,..,on
175893,Signature Park,park,hamilton,..,..,..,..,on
175932,Simcoe Street Lot,park,hamilton,..,..,..,..,on
