Index,Facility_Name,ODRSF_facility_type,Provider,Street_No,Street_Name,Postal_Code,City,Prov_Terr
170876,Maple Lane Park,park,hamilton,..,..,..,..,on
170900,Mapledene Park,park,hamilton,..,..,..,..,on
170910,Mapleside Park,park,hamilton,..,..,..,..,on
170916,Maplewood Green Park,park,hamilton,..,..,..,..,on
170917,Maplewood Park,park,hamilton,..,..,..,..,on
170943,Margaret Street Park,park,hamilton,..,..,..,..,on
170982,Mark Anthony Graham Memorial Olympic Park,park,hamilton,..,..,..,..,on
171060,Martino Memorial Park,park,hamilton,..,..,..,..,on
171073,Mary Hopkins Elementary,park,hamilton,..,..,..,..,on
171109,Matilda Street Natural Playground,park,hamilton,..,..,..,..,on
171111,Matt Broman Park,park,hamilton,..,..,..,..,on
171291,Mclaren Park,park,hamilton,..,..,..,..,on
171341,Meadowbank Dr. Parkette,park,hamilton,..,..,..,..,on
171346,Meadowbrook Park,park,hamilton,..,..,..,..,on
171353,Meadowlands Community Park,park,hamilton,..,..,..,..,on
171356,Meadowlands Soccer Pitch,park,hamilton,..,..,..,..,on
171421,Memorial Park,park,hamilton,..,..,..,..,on
171432,Memorial Stoney Creek Elementary,park,hamilton,..,..,..,..,on
171542,Mill Street Open Space,park,hamilton,..,..,..,..,on
171553,Millen Road Parkette,park,hamilton,..,..,..,..,on
171568,Millgrove Community Park,park,hamilton,..,..,..,..,on
171569,Millgrove Elementary,park,hamilton,..,..,..,..,on
171722,Mohawk / Sanatorium Parkette,park,hamilton,..,..,..,..,on
171723,Mohawk Gardens,park,hamilton,..,..,..,..,on
171724,Mohawk Meadows,park,hamilton,..,..,..,..,on
171729,Mohawk Sports Park,park,hamilton,..,..,..,..,on
171782,Montgomery Park,park,hamilton,..,..,..,..,on
171807,Moorland Park,park,hamilton,..,..,..,..,on
171856,Morton Park,park,hamilton,..,..,..,..,on
171880,Mount Albion Open Space,park,hamilton,..,..,..,..,on
171886,Mount Hope Elementary,park,hamilton,..,..,..,..,on
171887,Mount Hope Park,park,hamilton,..,..,..,..,on
171900,Mount Lion's Club Park,park,hamilton,..,..,..,..,on
171914,Mountain Arena/Skating Centre,park,hamilton,..,..,..,..,on
171915,Mountain Brow West,park,hamilton,..,..,..,..,on
171916,Mountain Drive,park,hamilton,..,..,..,..,on
171918,Mountain Gate Proposed Natural Open Space,park,hamilton,..,..,..,..,on
171932,Mountsberg Hall Park,park,hamilton,..,..,..,..,on
171933,Mountsberg Park,park,hamilton,..,..,..,..,on
171934,Mountside/Rifle Range Natural Open Space,park,hamilton,..,..,..,..,on
171935,Mountview Park,park,hamilton,..,..,..,..,on
172005,Museum Of Steam & Technology,park,hamilton,..,..,..,..,on
172012,Myrtle Park,park,hamilton,..,..,..,..,on
172053,Natural Open Space Ward 2,park,hamilton,..,..,..,..,on
172114,Newcombe Road Open Space,park,hamilton,..,..,..,..,on
172119,Newlands Park,park,hamilton,..,..,..,..,on
172154,Noble Kirk Park,park,hamilton,..,..,..,..,on
172157,Nora Frances Henderson Secondary,park,hamilton,..,..,..,..,on
172182,Normanhurst Community Centre,park,hamilton,..,..,..,..,on
