Index,Facility_Name,ODRSF_facility_type,Provider,Street_No,Street_Name,Postal_Code,City,Prov_Terr
175968,Sir John A. Macdonald Secondary,park,hamilton,..,..,..,..,on
176039,Smokey Hollow Open Space,park,hamilton,..,..,..,..,on
176040,Smokey Hollow Park,park,hamilton,..,..,..,..,on
176074,Somerset Park,park,hamilton,..,..,..,..,on
176157,Southam Park,park,hamilton,..,..,..,..,on
176158,Southampton Estates Park,park,hamilton,..,..,..,..,on
176162,Southbrook Park,park,hamilton,..,..,..,..,on
176225,Spencer Valley Elementary,park,hamilton,..,..,..,..,on
176401,St. Agnes Elementary,park,hamilton,..,..,..,..,on
176409,St. Ann Elementary (Ancaster),park,hamilton,..,..,..,..,on
176410,St. Ann Elementary (Hamilton),park,hamilton,..,..,..,..,on
176414,St. Anthony Daniel Elementary,park,hamilton,..,..,..,..,on
176416,St. Augustine Elementary,park,hamilton,..,..,..,..,on
176417,St. Bernadette Elementary,park,hamilton,..,..,..,..,on
176423,St. Brigid Elementary,park,hamilton,..,..,..,..,on
176431,St. Christopher's Park,park,hamilton,..,..,..,..,on
176432,St. Clare Of Assisi Elementary,park,hamilton,..,..,..,..,on
176434,St. David Elementary,park,hamilton,..,..,..,..,on
176437,St. Eugene Elementary,park,hamilton,..,..,..,..,on
176442,St. Francis Xavier Elementary,park,hamilton,..,..,..,..,on
176443,St. Gabriel Elementary,park,hamilton,..,..,..,..,on
176451,St. Helen's School Walkway,park,hamilton,..,..,..,..,on
176458,St. James The Apostle Elementary,park,hamilton,..,..,..,..,on
176460,St. Jean De Brébeuf Secondary,park,hamilton,..,..,..,..,on
176461,St. Joachim Elementary,park,hamilton,..,..,..,..,on
176463,St. John Paul Ii Elementary,park,hamilton,..,..,..,..,on
176464,St. John The Baptist Elementary,park,hamilton,..,..,..,..,on
176467,St. Joseph Elementary,park,hamilton,..,..,..,..,on
176468,St. Joseph's Park,park,hamilton,..,..,..,..,on
176470,St. Kateri Tekakwitha Elementary,park,hamilton,..,..,..,..,on
176475,St. Luke Elementary,park,hamilton,..,..,..,..,on
176477,St. Margaret Mary Elementary,park,hamilton,..,..,..,..,on
176482,St. Marguerite D'Youville Elementary,park,hamilton,..,..,..,..,on
176483,St. Mark Elementary,park,hamilton,..,..,..,..,on
176486,St. Martin Of Tours Elementary,park,hamilton,..,..,..,..,on
176487,St. Mary Secondary Elementary,park,hamilton,..,..,..,..,on
176492,St. Matthew Elementary,park,hamilton,..,..,..,..,on
176495,St. Patrick Elementary,park,hamilton,..,..,..,..,on
176497,St. Paul Elementary,park,hamilton,..,..,..,..,on
176504,St. Teresa Of Avila Elementary,park,hamilton,..,..,..,..,on
176506,St. Thérèse Of Lisieux Elementary,park,hamilton,..,..,..,..,on
176507,St. Thomas More Secondary,park,hamilton,..,..,..,..,on
176509,St. Thomas The Apostle Elementary,park,hamilton,..,..,..,..,on
176510,St. Vincent De Paul Playground,park,hamilton,..,..,..,..,on
176515,St.Helen'S/St.Peters Walkway,park,hamilton,..,..,..,..,on
176606,Stinson Street Playground,park,hamilton,..,..,..,..,on
176620,Stone Church Meadowlands Open Space,park,hamilton,..,..,..,..,on
176621,Stone Church Rd Open Space,park,hamilton,..,..,..,..,on
176635,Stoneham Park,park,hamilton,..,..,..,..,on
