Index,Facility_Name,ODRSF_facility_type,Provider,Street_No,Street_Name,Postal_Code,City,Prov_Terr
165435,Cumberland Tot Lot,park,hamilton,..,..,..,..,on
165476,Dalewood Elementary,park,hamilton,..,..,..,..,on
165477,Dalewood Park,park,hamilton,..,..,..,..,on
165478,Dalewood Recreation Centre,park,hamilton,..,..,..,..,on
165590,Dean Vista Park,park,hamilton,..,..,..,..,on
165636,Delottinville Park,park,hamilton,..,..,..,..,on
165637,Delottinville Park Open Space,park,hamilton,..,..,..,..,on
165638,Delta Park,park,hamilton,..,..,..,..,on
165639,Delta Secondary,park,hamilton,..,..,..,..,on
165733,Dewitt Park,park,hamilton,..,..,..,..,on
165734,Dewitt Parkette,park,hamilton,..,..,..,..,on
165750,Dieppe Park,park,hamilton,..,..,..,..,on
165785,Dofasco Property,park,hamilton,..,..,..,..,on
165915,Dover Park,park,hamilton,..,..,..,..,on
165951,Dr. J. Seaton Elementary,park,hamilton,..,..,..,..,on
165952,Dr. J.E. Davey Elementary,park,hamilton,..,..,..,..,on
165959,Dr. William Bethune Park,park,hamilton,..,..,..,..,on
166034,Dundana Elementary,park,hamilton,..,..,..,..,on
166037,Dundas Central Elementary,park,hamilton,..,..,..,..,on
166038,Dundas Driving Park,park,hamilton,..,..,..,..,on
166042,Dundas Open Space,park,hamilton,..,..,..,..,on
166044,Dundas Pool Arena,park,hamilton,..,..,..,..,on
166045,Dundas Valley Secondary,park,hamilton,..,..,..,..,on
166048,Dundurn Park,park,hamilton,..,..,..,..,on
166049,Dundurn Parkette,park,hamilton,..,..,..,..,on
166073,Durand Park,park,hamilton,..,..,..,..,on
166140,East Kiwanis Place Parkette,park,hamilton,..,..,..,..,on
166155,Eastdale Park,park,hamilton,..,..,..,..,on
166166,Eastmount,park,hamilton,..,..,..,..,on
166179,Eastwood Park,park,hamilton,..,..,..,..,on
166233,Edgelake Park,park,hamilton,..,..,..,..,on
166278,Edwards Memorial Park,park,hamilton,..,..,..,..,on
166321,Eleanor Park,park,hamilton,..,..,..,..,on
166373,Elmar Park,park,hamilton,..,..,..,..,on
166464,Eringate Park,park,hamilton,..,..,..,..,on
166479,Escarpment Open Space,park,hamilton,..,..,..,..,on
166483,Escarpment Rail Trail,park,hamilton,..,..,..,..,on
166484,Escarpment Ward 1,park,hamilton,..,..,..,..,on
166485,Escarpment Ward 2,park,hamilton,..,..,..,..,on
166486,Escarpment Ward 3,park,hamilton,..,..,..,..,on
166487,Escarpment Ward 4,park,hamilton,..,..,..,..,on
166488,Escarpment Ward 5,park,hamilton,..,..,..,..,on
166593,Faircourt Park,park,hamilton,..,..,..,..,on
166599,Fairfield Park,park,hamilton,..,..,..,..,on
166606,Fairgrounds Community Park,park,hamilton,..,..,..,..,on
166666,Falkirk West Park,park,hamilton,..,..,..,..,on
166709,Father Sean O'Sullivan 2,park,hamilton,..,..,..,..,on
166710,Father Sean O'Sullivan Memorial Park,park,hamilton,..,..,..,..,on
166715,Fay Avenue Park,park,hamilton,..,..,..,..,on
