Index,Facility_Name,ODRSF_facility_type,Provider,Street_No,Street_Name,Postal_Code,City,Prov_Terr
168002,Hamilton Court House,park,hamilton,..,..,..,..,on
168016,Hampton Park,park,hamilton,..,..,..,..,on
168028,Hannon South Open Space,park,hamilton,..,..,..,..,on
168060,Harmony Park,park,hamilton,..,..,..,..,on
168118,Harvey Park,park,hamilton,..,..,..,..,on
168169,Haywood Park,park,hamilton,..,..,..,..,on
168222,Helen Detwiler Elementary,park,hamilton,..,..,..,..,on
168258,Henry & Beatrice Warden Park,park,hamilton,..,..,..,..,on
168308,Heritage Green Sports Park,park,hamilton,..,..,..,..,on
168353,Hess Street Elementary,park,hamilton,..,..,..,..,on
168394,High Park,park,hamilton,..,..,..,..,on
168425,Highland Gardens Park,park,hamilton,..,..,..,..,on
168426,Highland Green Park,park,hamilton,..,..,..,..,on
168433,Highland Park Open Space,park,hamilton,..,..,..,..,on
168438,Highview Elementary,park,hamilton,..,..,..,..,on
168439,Highview Park,park,hamilton,..,..,..,..,on
168455,Hill Park Recreation,park,hamilton,..,..,..,..,on
168457,Hill Street Community Gardens,park,hamilton,..,..,..,..,on
168459,Hill Street Park/Lots,park,hamilton,..,..,..,..,on
168463,Hillcrest Elementary,park,hamilton,..,..,..,..,on
168464,Hillcrest Park,park,hamilton,..,..,..,..,on
168493,Hillside Park,park,hamilton,..,..,..,..,on
168513,Hixon Road Park,park,hamilton,..,..,..,..,on
168525,Holbrook Elementary,park,hamilton,..,..,..,..,on
168526,Holbrook Park,park,hamilton,..,..,..,..,on
168565,Holy Name Of Jesus Elementary,park,hamilton,..,..,..,..,on
168566,Holy Name Of Mary Elementary,park,hamilton,..,..,..,..,on
168574,Homebrook Park,park,hamilton,..,..,..,..,on
168584,Honourable Bob Mckenzie Park,park,hamilton,..,..,..,..,on
168593,Hopkins Rotary Park,park,hamilton,..,..,..,..,on
168688,Hunter Estates Park,park,hamilton,..,..,..,..,on
168690,Hunter Street General Open Space,park,hamilton,..,..,..,..,on
168703,Huntington Park/Recreation Centre,park,hamilton,..,..,..,..,on
168704,Huntingwood Ave Open Space,park,hamilton,..,..,..,..,on
168778,Immaculate Conception Elementary,park,hamilton,..,..,..,..,on
168779,Immaculate Heart Of Mary Elementary,park,hamilton,..,..,..,..,on
168783,Inch Park,park,hamilton,..,..,..,..,on
168905,J.C. Beemer Park,park,hamilton,..,..,..,..,on
168932,Jackie Washington Park,park,hamilton,..,..,..,..,on
168936,Jackson Heights Open Space,park,hamilton,..,..,..,..,on
168937,Jackson Heights Park,park,hamilton,..,..,..,..,on
168939,Jackson Playground,park,hamilton,..,..,..,..,on
168984,James Smith Park,park,hamilton,..,..,..,..,on
168999,Janet Lee Elementary,park,hamilton,..,..,..,..,on
169055,Jerome Neighbourhood Park,park,hamilton,..,..,..,..,on
169058,Jerseyville Park,park,hamilton,..,..,..,..,on
169079,Jimmy Howard Park,park,hamilton,..,..,..,..,on
169098,Joe Sams Leisure Park,park,hamilton,..,..,..,..,on
169183,John Prentice Park,park,hamilton,..,..,..,..,on
