Index,Facility_Name,ODRSF_facility_type,Provider,Street_No,Street_Name,Postal_Code,City,Prov_Terr
14855,Ponderosa Nature Resort,miscellaneous,hamilton,1218,concession road 8,..,..,on
14912,Pros Golf Centre,sports field,hamilton,..,20,..,..,on
15395,Rock Chapel Golf Centre,sports field,hamilton,167,5,..,..,on
15401,Rockton Agricultural Society,community centre,hamilton,812,8,..,flamborough,on
15475,Royal Canadian Legion - Branch 551,community centre,hamilton,79,hamilton,..,flamborough,on
15476,Royal Canadian Legion Battlefield Branch 622,community centre,hamilton,12,king,..,stoney,on
15477,Royal Canadian Legion Br 163,community centre,hamilton,435,limeridge,..,hamilton,on
15478,Royal Canadian Legion Br 58,community centre,hamilton,1180,barton,..,hamilton,on
15483,Royal Hamilton Light Infantry Veterans,community centre,hamilton,1353,barton,..,hamilton,on
15620,Satellite Golf Centre,sports field,hamilton,20,mud,..,stoney,on
15653,Scenic Woods Golf & Country Club,sports field,hamilton,185,golf club,..,binbrook,on
15707,Serbian Community Hall Centre,community centre,hamilton,1415,barton,..,hamilton,on
16810,Soccer World,sports field,hamilton,..,..,..,..,on
16883,Sonic Unyon Records Ltd. O/A Mills Hardware,community centre,hamilton,95,king,..,hamilton,on
16915,Southbrook Golf & Country Club,sports field,hamilton,56,binbrook,..,..,on
16920,Southern Pines Golf & Country Club,sports field,hamilton,..,airport,..,..,on
17063,St Mary's Church,community centre,hamilton,56,mulberry,..,hamilton,on
17232,St. Stephen Of Hungary Church,community centre,hamilton,134,barton,l8l 2w4,hamilton,on
17434,Sunshine Banquet Hall Inc,community centre,hamilton,5,merchison,..,hamilton,on
17695,The Hamilton Golf And Country Club,sports field,hamilton,..,..,..,..,on
17696,The Hospitality Centre Corp O/A Hamilton Convention Centre By Carmen'S,community centre,hamilton,50,main,..,hamilton,on
17700,The Scottish Rite Club Of Hamilton,community centre,hamilton,4,queen,..,hamilton,on
17701,"The Serbian Orthodox Centre ""Holy Trinity""",community centre,hamilton,2545,guyatt,..,glanbrook,on
17706,The Upper Putt Mini Golf,sports field,hamilton,1185,stone church,..,..,on
17709,Theatre Aquarius Inc,community centre,hamilton,190,king william,l8r 1a8,hamilton,on
17906,Ukrainian Cultural Centre Of Hamilton,community centre,hamilton,241,kenilworth,l8h 4s4,hamilton,on
17907,Ukrainian National Federation,community centre,hamilton,170,parkdale,..,hamilton,on
17943,United Steelworkers Centre,community centre,hamilton,1031,barton,l8l 3000,hamilton,on
17966,Valens Conservation Area And Campground,miscellaneous,hamilton,1691,97,..,..,on
18000,Venetian Club Of Hamilton,community centre,hamilton,269,john,..,hamilton,on
18403,Willow Valley Golf Course,sports field,hamilton,2907,6,..,..,on
18460,Winona Pitch & Putt,sports field,hamilton,1091,8,..,..,on
18461,Winona Vine Estates,community centre,hamilton,269,glover,l8e 5h6,stoney,on
66899,Waterfront Trail,trail,niagara region,..,..,..,..,on
95833,..,trail,province of ontario,..,..,..,..,on
95835,..,trail,province of ontario,..,..,..,..,on
95932,..,trail,province of ontario,..,..,..,..,on
95934,..,trail,province of ontario,..,..,..,..,on
96434,..,trail,province of ontario,..,..,..,..,on
96435,..,trail,province of ontario,..,..,..,..,on
96454,..,trail,province of ontario,..,..,..,..,on
96455,..,trail,province of ontario,..,..,..,..,on
97070,..,trail,province of ontario,..,..,..,..,on
97087,..,trail,province of ontario,..,..,..,..,on
97088,..,trail,province of ontario,..,..,..,..,on
97090,..,trail,province of ontario,..,..,..,..,on
97092,..,trail,province of ontario,..,..,..,..,on
97231,..,trail,province of ontario,..,..,..,..,on
97340,..,trail,province of ontario,..,..,..,..,on
