Index,Facility_Name,ODRSF_facility_type,Provider,Street_No,Street_Name,Postal_Code,City,Prov_Terr
166743,Ferguson Station,park,hamilton,..,..,..,..,on
166761,Fernwood Park,park,hamilton,..,..,..,..,on
166766,Ferrie Street Lot,park,hamilton,..,..,..,..,on
166767,Ferris Park,park,hamilton,..,..,..,..,on
166774,Fieldcote Memorial Park,park,hamilton,..,..,..,..,on
166782,Fifty Road Parkette,park,hamilton,..,..,..,..,on
166847,Fisher's Mill Park,park,hamilton,..,..,..,..,on
166858,Flamborough Centre Elementary,park,hamilton,..,..,..,..,on
166859,Flamborough Centre Park,park,hamilton,..,..,..,..,on
166904,Fonthill Park,park,hamilton,..,..,..,..,on
167058,Franklin Road Elementary,park,hamilton,..,..,..,..,on
167095,Frederick Parkette,park,hamilton,..,..,..,..,on
167103,Freelton Community Park,park,hamilton,..,..,..,..,on
167167,Gage Park,park,hamilton,..,..,..,..,on
167227,Garry Hill Memorial Park,park,hamilton,..,..,..,..,on
167231,Garth St. Reservoir,park,hamilton,..,..,..,..,on
167232,Garth Street/Twenty Rd Open Space,park,hamilton,..,..,..,..,on
167245,Gatesbury Park,park,hamilton,..,..,..,..,on
167248,Gatestone Elementary,park,hamilton,..,..,..,..,on
167249,Gatestone Open Space,park,hamilton,..,..,..,..,on
167393,Gilkson Park,park,hamilton,..,..,..,..,on
167419,Glanbrook Sports Complex,park,hamilton,..,..,..,..,on
167439,Glen Allen Drive Natural Open Space,park,hamilton,..,..,..,..,on
167451,Glen Castle Park,park,hamilton,..,..,..,..,on
167462,Glen Manor The Veevers Home,park,hamilton,..,..,..,..,on
167498,Glendale Park,park,hamilton,..,..,..,..,on
167519,Glenhollow Open Space,park,hamilton,..,..,..,..,on
167520,Glenholme Avenue Park,park,hamilton,..,..,..,..,on
167538,Globe Park,park,hamilton,..,..,..,..,on
167543,Glow Park,park,hamilton,..,..,..,..,on
167615,Golf Links Park #1,park,hamilton,..,..,..,..,on
167616,Golf Links Park #2,park,hamilton,..,..,..,..,on
167617,Golf Links Rd. Open Space 1,park,hamilton,..,..,..,..,on
167618,Golf Links Rd. Open Space 2,park,hamilton,..,..,..,..,on
167619,Golf Links Rd. Open Space 3,park,hamilton,..,..,..,..,on
167648,Gordon Price Elementary,park,hamilton,..,..,..,..,on
167657,Gore Park,park,hamilton,..,..,..,..,on
167672,Gourley Park,park,hamilton,..,..,..,..,on
167674,Gourley Park Open Space,park,hamilton,..,..,..,..,on
167785,Grays Road Parkette,park,hamilton,..,..,..,..,on
167794,Green Acres Elementary,park,hamilton,..,..,..,..,on
167795,Green Acres Park,park,hamilton,..,..,..,..,on
167842,Greenhill Open Space,park,hamilton,..,..,..,..,on
167843,Greenhill Open Space #2,park,hamilton,..,..,..,..,on
167844,Greenhill Park,park,hamilton,..,..,..,..,on
167860,Greenside Acres Park,park,hamilton,..,..,..,..,on
167916,Guardian Angels Elementary,park,hamilton,..,..,..,..,on
167944,Guy B. Brown Elementary,park,hamilton,..,..,..,..,on
167945,Guy Brown Park,park,hamilton,..,..,..,..,on
