Index,Facility_Name,ODRSF_facility_type,Provider,Street_No,Street_Name,Postal_Code,City,Prov_Terr
1620,Fairgrounds Community Park,splash pad,hamilton,305,fall fair,..,..,on
1656,Father Sean O'Sullivan Memorial Park,splash pad,hamilton,1141,greenhill,..,..,on
1677,Firstontario Centre,arena,hamilton,101,york,..,..,on
1787,Fruitland Lions Community Hall,community centre,hamilton,..,..,..,..,on
1798,Gage Park,splash pad,hamilton,1000,main,..,..,on
1815,Gateway Ice Centre,arena,hamilton,610,service,..,..,on
1854,Gilkson Park,splash pad,hamilton,50,gemini,..,..,on
1864,Glanbrook Arena,arena,hamilton,4300,binbrook,..,..,on
1865,Glanbrook Arena & Auditorium,arena,hamilton,..,..,..,..,on
1894,Glendale Park,splash pad,hamilton,255,rainbow,..,..,on
1951,Gourley Park,splash pad,hamilton,142,duncairn,..,..,on
1998,Greensville Hall,community centre,hamilton,..,..,..,..,on
2024,Gulliver's Lake And Park,park,hamilton,792,safari,..,..,on
2037,H.A.A.A. Grounds,splash pad,hamilton,250,charlton,..,..,on
2040,H.G. Brewster Pool,pool,hamilton,..,..,..,..,on
2048,Hamilton Beach Rescue Unit Inc,beach,hamilton,316,beach,..,hamilton,on
2049,Hamilton Doublerink Arena,rink,hamilton,1911,barton,..,..,on
2051,Hamilton Waterfront Trail,trail,hamilton,47,discovery,l8l 8k4,hamilton,on
2052,Hampton Park,splash pad,hamilton,28,lupin,..,..,on
2062,Harbour West Marina,marina,hamilton,1,guise,l8l 8b4,hamilton,on
2078,Harry Howell Arena,arena,hamilton,27,no,..,..,on
2120,Henry And Beatrice Warden Park,splash pad,hamilton,55,lake,..,..,on
2175,Highview Park,splash pad,hamilton,879,brucedale,..,..,on
2180,Hill Park Recreation Centre,community centre,hamilton,..,..,..,..,on
2261,Huntington Park (Recreation Centre),splash pad,hamilton,40,broker,..,..,on
2262,Huntington Park Recreation Centre,community centre,hamilton,..,..,..,..,on
2339,Inch Park Arena,arena,hamilton,400,queensdale,..,..,on
2384,J.L. Grightmire (Market Street) Arena,arena,hamilton,35,market,..,..,on
2388,Jack C. Beemer Park,splash pad,hamilton,68,victoria,..,..,on
2425,Jerome Neighbourhood Park,splash pad,hamilton,1303,upper wellington,..,..,on
2450,Jimmy Thompson Pool,pool,hamilton,..,..,..,..,on
2454,John Bayus Park,park,hamilton,1429,sheffield,..,..,on
2541,Kennedy East Park,splash pad,hamilton,130,malton,..,..,on
2624,Kiwanis Community Centre,community centre,hamilton,..,..,..,..,on
2676,Lakeland Centre,community centre,hamilton,..,..,..,..,on
2733,Lawfield Park,splash pad,hamilton,150,folkstone,..,..,on
2738,Lawson Park,park,hamilton,322,concession 11,..,..,on
2810,Lisgar Park,splash pad,hamilton,95,carson,..,..,on
2953,Lucy Day Park,splash pad,hamilton,33,clinton,..,..,on
2961,Lynden Community Centre,community centre,hamilton,..,..,..,..,on
2970,Macassa Park,splash pad,hamilton,777,upper sherman,..,..,on
2992,Main Hess Senior Centre,community centre,hamilton,..,..,..,..,on
3272,Mclaren Park,splash pad,hamilton,160,john,..,..,on
3352,Millgrove Community Centre,community centre,hamilton,..,..,..,..,on
3390,Mohawk 4 Ice Centre,arena,hamilton,710,mountain brow,..,..,on
3406,Montgomery Park,splash pad,hamilton,1570,main,..,..,on
3425,Morgan Firestone Arena,arena,hamilton,385,jerseyville,..,..,on
3451,Mount Hope Community Hall/Youth Centre,community centre,hamilton,..,..,..,..,on
3454,Mount Lions Park,splash pad,hamilton,450,queen victoria,..,..,on
