Index,Facility_Name,ODRSF_facility_type,Provider,Street_No,Street_Name,Postal_Code,City,Prov_Terr
34,"Ada Bland ""Club 60"" Senior Citizen Centre",community centre,hamilton,..,..,..,..,on
94,Allison Neighbourhood Park,splash pad,hamilton,51,piano,..,..,on
118,Ancaster Aquatic Centre,community centre,hamilton,..,..,..,..,on
120,Ancaster Lion's Outdoor Pool,pool,hamilton,..,..,..,..,on
121,Ancaster Old Town Hall,community centre,hamilton,..,..,..,..,on
123,Ancaster Rotary Centre,community centre,hamilton,..,..,..,..,on
124,Ancaster Senior Achievement Centre (Asac),community centre,hamilton,..,..,..,..,on
128,Andy Warburton Memorial Park,splash pad,hamilton,199,tragina,..,..,on
299,Beasley Community Centre,community centre,hamilton,..,..,..,..,on
300,Beasley Park,splash pad,hamilton,96,mary,..,..,on
349,Belview Park,splash pad,hamilton,205,belmont,..,..,on
354,Bennetto Community Centre,community centre,hamilton,..,..,..,..,on
366,Bernie Morelli Recreation Centre,community centre,hamilton,..,..,..,..,on
369,Berrisfield Park,splash pad,hamilton,125,birchcliffe,..,..,on
380,Beverly Arena,arena,hamilton,680,8,..,..,on
381,Beverly Community Centre,community centre,hamilton,..,..,..,..,on
383,Beverly Township Hall,community centre,hamilton,..,..,..,..,on
398,Bill Friday Lawfield Arena,arena,hamilton,150,folkstone,..,..,on
403,Billy Sherring Park,splash pad,hamilton,1530,upper sherman,..,..,on
404,Binbrook Memorial Hall,community centre,hamilton,..,..,..,..,on
572,Broughton Park East,splash pad,hamilton,990,rymal,..,..,on
582,Bruce Trail Conservancy,trail,oakville,55,head,L9H 3H8,hamilton,on
685,Carlisle Arena,arena,hamilton,1496,centre,..,..,on
686,Carlisle Community Centre,community centre,hamilton,..,..,..,..,on
687,Carlisle Memorial Hall,community centre,hamilton,..,..,..,..,on
690,Carluke Hall,community centre,hamilton,..,..,..,..,on
711,Carter Park,splash pad,hamilton,32,stinson,..,..,on
803,Central Memorial Recreation Centre,community centre,hamilton,..,..,..,..,on
805,Central Park,splash pad,hamilton,168,bay,..,..,on
1018,Chedoke Twin Pad Arena,arena,hamilton,91,chedmac,..,..,on
1068,Churchill Park,splash pad,hamilton,250,glen,..,..,on
1153,Community Centre Armenian,community centre,hamilton,191,barton,..,stoney,on
1197,Coronation Arena,arena,hamilton,81,macklin,..,..,on
1288,Dalewood Recreation Centre,community centre,hamilton,..,..,..,..,on
1299,David Braley Athletic Centre,community centre,hamilton,..,..,..,..,on
1363,Dominic Agostino Riverdale Community Centre,community centre,hamilton,..,..,..,..,on
1436,Dundas Community Pool,pool,hamilton,..,..,..,..,on
1437,Dundas Driving Park,splash pad,hamilton,71,cross,..,..,on
1438,Dundas Lions Memorial Community Centre,community centre,hamilton,..,..,..,..,on
1479,East Kiwanis Boys & Girls Club,community centre,hamilton,..,..,..,..,on
1498,Eastmount Community Centre,community centre,hamilton,..,..,..,..,on
1499,Eastmount Park,splash pad,hamilton,115,26th,..,..,on
1502,Eastwood Arena,arena,hamilton,111,burlington,..,..,on
1503,Eastwood Park (Arena),splash pad,hamilton,111,burlington,..,..,on
1538,Eleanor Park,splash pad,hamilton,80,presido,..,..,on
1555,Elmar Park,splash pad,hamilton,140,brigade,..,..,on
1599,Eva Rothwell Resource Centre,community centre,hamilton,..,..,..,..,on
1610,F.H. Sherman Recreation And Learning Centre,community centre,hamilton,..,..,..,..,on
1611,F.H. Sherman Recreation And Learning Centre Arena,arena,hamilton,388,first,..,..,on
