Index,Facility_Name,ODRSF_facility_type,Provider,Street_No,Street_Name,Postal_Code,City,Prov_Terr
140644,..,trail,province of ontario,..,..,..,..,on
140645,..,trail,province of ontario,..,..,..,..,on
140646,..,trail,province of ontario,..,..,..,..,on
140647,..,trail,province of ontario,..,..,..,..,on
140648,..,trail,province of ontario,..,..,..,..,on
140649,..,trail,province of ontario,..,..,..,..,on
140650,..,trail,province of ontario,..,..,..,..,on
140651,..,trail,province of ontario,..,..,..,..,on
140652,..,trail,province of ontario,..,..,..,..,on
140654,..,trail,province of ontario,..,..,..,..,on
140659,..,trail,province of ontario,..,..,..,..,on
140661,..,trail,province of ontario,..,..,..,..,on
140662,..,trail,province of ontario,..,..,..,..,on
161399,(Hemming Park) Open Space,park,hamilton,..,..,..,..,on
161999,87 Acres Park,park,hamilton,..,..,..,..,on
162019,A.M. Cunningham Parkette,park,hamilton,..,..,..,..,on
162024,École Élémentaire Michaëlle Jean,park,hamilton,..,..,..,..,on
162153,Albion Estates Park,park,hamilton,..,..,..,..,on
162154,Albion Falls Nghd Open Space,park,hamilton,..,..,..,..,on
162155,Albion Falls Open Space,park,hamilton,..,..,..,..,on
162156,Albion Falls Park,park,hamilton,..,..,..,..,on
162204,Alexander Park,park,hamilton,..,..,..,..,on
162233,Allan A. Greenleaf Elementary And Waterdown Distri,park,hamilton,..,..,..,..,on
162253,Allison Neighbourhood Park,park,hamilton,..,..,..,..,on
162301,Amberly Park,park,hamilton,..,..,..,..,on
162322,Ancaster Arbour Parkette,park,hamilton,..,..,..,..,on
162323,Ancaster Heights,park,hamilton,..,..,..,..,on
162324,Ancaster High School,park,hamilton,..,..,..,..,on
162325,Ancaster Little League (Spring Valley Bowl),park,hamilton,..,..,..,..,on
162326,Ancaster Meadow Elementary School,park,hamilton,..,..,..,..,on
162328,Ancaster Senior/Fessenden Elementary,park,hamilton,..,..,..,..,on
162329,Ancaster Senior's Achievement Centre Park,park,hamilton,..,..,..,..,on
162346,Andrew Warburton Memorial Park,park,hamilton,..,..,..,..,on
162390,Annunciation Of Our Lord Elementary,park,hamilton,..,..,..,..,on
162510,Armes Lookout,park,hamilton,..,..,..,..,on
162531,Arrowhon Natural Area,park,hamilton,..,..,..,..,on
162665,Austin Park,park,hamilton,..,..,..,..,on
162690,Aylmer Parkette,park,hamilton,..,..,..,..,on
162713,Balaclava Elementary School,park,hamilton,..,..,..,..,on
162719,Balfour Park,park,hamilton,..,..,..,..,on
162822,Barton Melvin Triangle,park,hamilton,..,..,..,..,on
162823,Barton St/Lake Ave Open Space,park,hamilton,..,..,..,..,on
162852,Battlefield Park,park,hamilton,..,..,..,..,on
162853,Battlefield Park Open Space,park,hamilton,..,..,..,..,on
162866,Bayfront Park,park,hamilton,..,..,..,..,on
162867,Bayfront Trail,park,hamilton,..,..,..,..,on
162899,Bayview Playground,park,hamilton,..,..,..,..,on
162907,Bayview West Park,park,hamilton,..,..,..,..,on
162932,Beach Blvd Park #1,park,hamilton,..,..,..,..,on
