Index,Facility_Name,ODRSF_facility_type,Provider,Street_No,Street_Name,Postal_Code,City,Prov_Terr
172238,North Wentworth Community Park,park,hamilton,..,..,..,..,on
172311,Norwood Park,park,hamilton,..,..,..,..,on
172313,Norwood Park Elementary,park,hamilton,..,..,..,..,on
172440,Oak-Knoll Park,park,hamilton,..,..,..,..,on
172453,Oakridge/Lindsay Open Space,park,hamilton,..,..,..,..,on
172466,Oakwood Place Park,park,hamilton,..,..,..,..,on
172550,Olmstead Site,park,hamilton,..,..,..,..,on
172556,Olympic Sports Park 1,park,hamilton,..,..,..,..,on
172557,Olympic Sports Park 2,park,hamilton,..,..,..,..,on
172577,Open Space Beside Aylmer Parkette,park,hamilton,..,..,..,..,on
172578,Open Space Beside Coronation Arena,park,hamilton,..,..,..,..,on
172579,Open Space By 7 Innovation,park,hamilton,..,..,..,..,on
172580,Open Space By North Wentworth Pk 1,park,hamilton,..,..,..,..,on
172581,Open Space By North Wentworth Pk 2,park,hamilton,..,..,..,..,on
172582,Open Space By North Wentworth Pk 3,park,hamilton,..,..,..,..,on
172583,Open Space By North Wentworth Pk 4,park,hamilton,..,..,..,..,on
172590,Optimist Park,park,hamilton,..,..,..,..,on
172656,Our Lady Of Mount Carmel Elementary,park,hamilton,..,..,..,..,on
172726,Palomino Ranch,park,hamilton,..,..,..,..,on
172749,Paramount Drive Open Space,park,hamilton,..,..,..,..,on
172751,Paramount Park,park,hamilton,..,..,..,..,on
173577,Park Corridor #1,park,hamilton,..,..,..,..,on
173578,Park Corridor #2,park,hamilton,..,..,..,..,on
173587,Park Row North Parkette,park,hamilton,..,..,..,..,on
173604,Parkdale Park,park,hamilton,..,..,..,..,on
173716,Pauline Johnson Elementary,park,hamilton,..,..,..,..,on
173730,Peace Memorial,park,hamilton,..,..,..,..,on
173732,Peace Park,park,hamilton,..,..,..,..,on
173740,Peachwood Parkette,park,hamilton,..,..,..,..,on
173815,Perth Park,park,hamilton,..,..,..,..,on
173816,Perth Park Open Space,park,hamilton,..,..,..,..,on
173860,Pier 4 Park,park,hamilton,..,..,..,..,on
173904,Pinecrest Park,park,hamilton,..,..,..,..,on
173919,Pineridge Park,park,hamilton,..,..,..,..,on
173930,Pinky Lewis Parkette,park,hamilton,..,..,..,..,on
173978,Pleasant Avenue Parkette,park,hamilton,..,..,..,..,on
174080,Postlawn Park,park,hamilton,..,..,..,..,on
174084,Powell Park,park,hamilton,..,..,..,..,on
174132,Prince Of Wales Elementary,park,hamilton,..,..,..,..,on
174169,Proposed,park,hamilton,..,..,..,..,on
174246,Queen Victoria Elementary,park,hamilton,..,..,..,..,on
174258,Queen's Rangers Elementary,park,hamilton,..,..,..,..,on
174260,Queensdale Elementary,park,hamilton,..,..,..,..,on
174282,R. L. Hyslop Elementary,park,hamilton,..,..,..,..,on
174288,R.T. Steele Park,park,hamilton,..,..,..,..,on
174307,Radial Park,park,hamilton,..,..,..,..,on
174308,Radial Right Of Way Ancaster,park,hamilton,..,..,..,..,on
174316,Rail Trail Dog Park,park,hamilton,..,..,..,..,on
174362,Randall Park,park,hamilton,..,..,..,..,on
