Index,Facility_Name,ODRSF_facility_type,Provider,Street_No,Street_Name,Postal_Code,City,Prov_Terr
176666,Strabane Community Park,park,hamilton,..,..,..,..,on
176670,Strachan Street General Open Space,park,hamilton,..,..,..,..,on
176683,Strathcona Elementary,park,hamilton,..,..,..,..,on
176706,Stroud Road Park,park,hamilton,..,..,..,..,on
176709,Sts. Peter And Paul Elementary Shool And St. Charl,park,hamilton,..,..,..,..,on
176748,Summerbrook Park,park,hamilton,..,..,..,..,on
176762,Summerlea West Park,park,hamilton,..,..,..,..,on
176770,Summit Park,park,hamilton,..,..,..,..,on
176919,T.B. Mcquesten Park,park,hamilton,..,..,..,..,on
176921,T.Melville Bailey Park,park,hamilton,..,..,..,..,on
176929,Talbot Lot,park,hamilton,..,..,..,..,on
176965,Tapleytown Elementary,park,hamilton,..,..,..,..,on
176966,Tapleytown Men's Club Park,park,hamilton,..,..,..,..,on
176967,Tapleytown Park,park,hamilton,..,..,..,..,on
177016,Templemead Park,park,hamilton,..,..,..,..,on
177131,Thorner Park,park,hamilton,..,..,..,..,on
177174,Tiffany Hills Elementary,park,hamilton,..,..,..,..,on
177190,Tim Hortons Field,park,hamilton,..,..,..,..,on
177218,Todd Ofield Memorial Park,park,hamilton,..,..,..,..,on
177235,Tom Street Park,park,hamilton,..,..,..,..,on
177320,Tower Park,park,hamilton,..,..,..,..,on
177322,Town Square Parkette,park,hamilton,..,..,..,..,on
177388,Trenholme Park,park,hamilton,..,..,..,..,on
177403,Trillium Open Space,park,hamilton,..,..,..,..,on
177418,Troy Tot Lot,park,hamilton,..,..,..,..,on
177441,Turnball,park,hamilton,..,..,..,..,on
177445,Turner Park,park,hamilton,..,..,..,..,on
177470,Tweedsmuir,park,hamilton,..,..,..,..,on
177495,Tyne Place Park,park,hamilton,..,..,..,..,on
177706,Upper King's Forest Park,park,hamilton,..,..,..,..,on
177715,Upper Sherman Corridor,park,hamilton,..,..,..,..,on
177716,Upper Wellington/Fennell Park,park,hamilton,..,..,..,..,on
177723,Valens Park,park,hamilton,..,..,..,..,on
177728,Valley Community Centre Park,park,hamilton,..,..,..,..,on
177732,Valley Park,park,hamilton,..,..,..,..,on
177816,Veevers Park,park,hamilton,..,..,..,..,on
177834,Veterans Park,park,hamilton,..,..,..,..,on
177867,Victoria Park,park,hamilton,..,..,..,..,on
177900,Village Green Park,park,hamilton,..,..,..,..,on
177916,Vincent Massey Park,park,hamilton,..,..,..,..,on
177918,Vincent/Gershome Open Space,park,hamilton,..,..,..,..,on
177928,Viscount Montgomery Elementary,park,hamilton,..,..,..,..,on
177948,Volunteer Field Park,park,hamilton,..,..,..,..,on
177962,W. H. Ballard Elementary,park,hamilton,..,..,..,..,on
178052,Warren Park,park,hamilton,..,..,..,..,on
178072,Waterdown Memorial Park,park,hamilton,..,..,..,..,on
178077,Waterford Park,park,hamilton,..,..,..,..,on
178172,Wellington Park,park,hamilton,..,..,..,..,on
178281,Westdale North Open Space,park,hamilton,..,..,..,..,on
