Index,Facility_Name,ODRSF_facility_type,Provider,Street_No,Street_Name,Postal_Code,City,Prov_Terr
6603,Winona Scout Hall,community centre,hamilton,..,..,..,..,on
6604,Winona Senior Citizen Centre,community centre,hamilton,..,..,..,..,on
6625,Woodburn Centennial Hall,community centre,hamilton,..,..,..,..,on
6645,Woodward Park,splash pad,hamilton,589,woodward,..,..,on
6675,Ymca - Flamborough Family,community centre,hamilton,..,..,..,..,on
6676,Ymca - Hamilton Downtown Family,community centre,hamilton,..,..,..,..,on
6677,Ymca - Les Chater Family,community centre,hamilton,..,..,..,..,on
6685,Ywca - Hamilton Family - Macnab St,community centre,hamilton,..,..,..,..,on
6686,Ywca - Hamilton Family - Ottawa St,community centre,hamilton,..,..,..,..,on
6871,1297667 Ontario Ltd O/A Marquis Gardens Banquet And Convention Centre,community centre,hamilton,1050,rymal,..,hamilton,on
6873,1856920 Ontrio Inc O/A Ace Entertainent,community centre,hamilton,160,king,..,hamilton,on
6894,2687394 Ontario Inc O/A Galileo's Garden,community centre,hamilton,1223,8,..,stoney,on
7075,Afro-Canadian Caribbean Association Of Hamilton & District,community centre,hamilton,752,barton,l8l 3b1,hamilton,on
7190,Ancaster Agricultural Society,community centre,hamilton,630,trinity,..,ancaster,on
7226,Apollo Valley,sports field,hamilton,1,lynden,..,..,on
8975,Beverly Golf And Country Club,sports field,hamilton,..,..,..,..,on
9431,Can-Am Ban Corp Inc,community centre,hamilton,620,upper james,l9c 2z1,hamilton,on
9483,Carlisle Golf & Country,sports field,hamilton,523,carlisle,..,carlisle,on
9693,Century Pines Golf Course,sports field,hamilton,..,..,..,flamborough,on
9738,Chedoke Golf Course,sports field,hamilton,563,aberdeen,..,hamilton,on
9796,Chippewa Creek Golf & Country Club,sports field,hamilton,9639,chippewa creek,..,mount hope,on
10113,Columbus Club Of Hamilton,community centre,hamilton,222,queenston,..,hamilton,on
10169,Copetown Woods Golf Clubs,sports field,hamilton,1430,concession,..,..,on
10328,Croatian National Home,community centre,hamilton,1925,barton,..,hamilton,on
10623,Dundas Valley Gold And Curling Club,sports field,hamilton,..,..,..,..,on
11011,Fiddlers Green Driving Range,sports field,hamilton,..,..,..,..,on
11019,Fifty Point Conservation Area And Campground,miscellaneous,hamilton,1479,baseline,..,..,on
11050,Flamboro Valley Camping Resort,miscellaneous,hamilton,1158,97,..,..,on
11051,Flamborough Hills Golf Club,sports field,hamilton,71,52,..,..,on
11373,Germania Club,community centre,hamilton,863,king,..,hamilton,on
11395,Glancaster Golf & Country Club,sports field,hamilton,555,glancaster,..,mount hope,on
11435,Glendale Golf And Country Club,sports field,hamilton,..,..,..,..,on
11460,Global Spectrum Facility Management ( Acting As An Agent On Behalf Of The City Of Hamilton,community centre,hamilton,50,main,..,hamilton,on
11667,Hamilton Bulldogs Hockey Club,rink,hamilton,101,york,l8r 3l4,hamilton,on
11668,Hamilton Cardinals Baseball Club - Ibl,sports field,hamilton,..,..,..,..,on
11669,Hamilton Conservation Authority,community centre,hamilton,180,van wagner's beach,..,hamilton,on
11670,Hamilton Police Assocation,community centre,hamilton,555,upper wellington,l9a 3p8,hamilton,on
11671,Hamilton Vets Service League,community centre,hamilton,1473,main,..,hamilton,on
11813,Her Majesty's Army Navy Vets Society Of Hamilton,community centre,hamilton,96,macnab,..,hamilton,on
11853,Heron Point Golf Course,sports field,hamilton,..,..,..,..,on
12243,Jet Hall,community centre,hamilton,746,barton,..,hamilton,on
12466,King's Forest Golf Course,sports field,hamilton,100,greenhill,..,hamilton,on
12768,Knollwood,sports field,hamilton,53,ancaster,..,..,on
12780,L. A. Industries Inc O/A Silverwood Banquet Centre,community centre,hamilton,797,barton,..,hamilton,on
13111,Liuna Hospitality Corporation O/A Liuna Gardens,community centre,hamilton,526,winona,..,stoney,on
13112,Liuna Hospitality Corporation O/A Liuna Station,community centre,hamilton,360,james,l8l 1h5,hamilton,on
13177,Loyal Order Of The Moose # 1142,community centre,hamilton,1860,barton,..,hamilton,on
14084,Oak Gables Golf Club & Driving Range,sports field,hamilton,1505,2,..,..,on
14784,Pineland Greens Golf Club,sports field,hamilton,722,safari,..,flamborough,on
