Index,Facility_Name,ODRSF_facility_type,Provider,Street_No,Street_Name,Postal_Code,City,Prov_Terr
162938,Beach Strip Open Space,park,hamilton,..,..,..,..,on
162939,Beach Strip Open Space - Confederation Park,park,hamilton,..,..,..,..,on
162940,Beach Strip Open Space #2,park,hamilton,..,..,..,..,on
162958,Beasley Park,park,hamilton,..,..,..,..,on
163091,Bellmoore Elementary,park,hamilton,..,..,..,..,on
163101,Belmont Park,park,hamilton,..,..,..,..,on
163119,Belview Park,park,hamilton,..,..,..,..,on
163131,Benetto Elementary,park,hamilton,..,..,..,..,on
163132,Benetto Rec Center,park,hamilton,..,..,..,..,on
163195,Berklin Drive Ravine,park,hamilton,..,..,..,..,on
163215,Berrisfield Park,park,hamilton,..,..,..,..,on
163262,Beulah Park,park,hamilton,..,..,..,..,on
163265,Beverly Central Elementary,park,hamilton,..,..,..,..,on
163266,Beverly Community Park,park,hamilton,..,..,..,..,on
163305,Bill Foley Parkette,park,hamilton,..,..,..,..,on
163314,Billy Green Elementary,park,hamilton,..,..,..,..,on
163316,Billy Sherring Park,park,hamilton,..,..,..,..,on
163317,Binbrook Park,park,hamilton,..,..,..,..,on
163318,Binbrook Rd Open Space,park,hamilton,..,..,..,..,on
163321,Birch Avenue Leash-Free Area,park,hamilton,..,..,..,..,on
163322,Birch Avenue Park,park,hamilton,..,..,..,..,on
163341,Birge Park,park,hamilton,..,..,..,..,on
163353,Bishop Ryan Secondary,park,hamilton,..,..,..,..,on
163354,Bishop Tonnos Secondary,park,hamilton,..,..,..,..,on
163357,Bishop's Park,park,hamilton,..,..,..,..,on
163422,Blessed Sacrament Elementary,park,hamilton,..,..,..,..,on
163423,Block 114 Park,park,hamilton,..,..,..,..,on
163424,Block 87 Park,park,hamilton,..,..,..,..,on
163475,Bobby Kerr Park,park,hamilton,..,..,..,..,on
163523,Bookjans Natural Open Space,park,hamilton,..,..,..,..,on
163535,Borer's Dog Park,park,hamilton,..,..,..,..,on
163566,Bow Valley Open Space,park,hamilton,..,..,..,..,on
163634,Brampton Street Park,park,hamilton,..,..,..,..,on
163772,Brockhouse Park,park,hamilton,..,..,..,..,on
163831,Broughton Park West,park,hamilton,..,..,..,..,on
163852,Bruce Park,park,hamilton,..,..,..,..,on
163862,Bruleville Nature Park,park,hamilton,..,..,..,..,on
163863,Bruleville Park,park,hamilton,..,..,..,..,on
163872,Bryna Park,park,hamilton,..,..,..,..,on
163875,Buchanan Park,park,hamilton,..,..,..,..,on
163876,Buchanan Park Elementary School,park,hamilton,..,..,..,..,on
163894,Bullock's Corners,park,hamilton,..,..,..,..,on
163895,Bumble Bee Park,park,hamilton,..,..,..,..,on
163905,Burkholder Park,park,hamilton,..,..,..,..,on
163989,C.H. Bray Elementary,park,hamilton,..,..,..,..,on
164096,Canada Marine Discovery Centre Open Space,park,hamilton,..,..,..,..,on
164098,Canadian Martyrs' Elementary,park,hamilton,..,..,..,..,on
164162,Captain Cornelius Park,park,hamilton,..,..,..,..,on
164202,Carlisle Community Centre Park,park,hamilton,..,..,..,..,on
