Index,Facility_Name,ODRSF_facility_type,Provider,Street_No,Street_Name,Postal_Code,City,Prov_Terr
178296,Westfield Heritage Centre,park,hamilton,..,..,..,..,on
178387,White Deer Park,park,hamilton,..,..,..,..,on
178388,White Deer Park Natural Open Space,park,hamilton,..,..,..,..,on
178402,Whitehern,park,hamilton,..,..,..,..,on
178422,Whitton,park,hamilton,..,..,..,..,on
178447,Wildan Tot Lot,park,hamilton,..,..,..,..,on
178458,Wildwood Park,park,hamilton,..,..,..,..,on
178495,William Connell Park,park,hamilton,..,..,..,..,on
178505,William Mcculloch Park,park,hamilton,..,..,..,..,on
178519,William Schwenger Park,park,hamilton,..,..,..,..,on
178648,Winona Elementary,park,hamilton,..,..,..,..,on
178649,Winona Park,park,hamilton,..,..,..,..,on
178661,Winterberry Drive Open Space,park,hamilton,..,..,..,..,on
178678,Witherspoon Park,park,hamilton,..,..,..,..,on
178709,Woodburn Ball Park,park,hamilton,..,..,..,..,on
178737,Woodland Park,park,hamilton,..,..,..,..,on
178754,Woodlot Royal Conservatory,park,hamilton,..,..,..,..,on
178772,Woodward Park,park,hamilton,..,..,..,..,on
178779,Woolverton Park,park,hamilton,..,..,..,..,on
178829,York Blvd General Open Space,park,hamilton,..,..,..,..,on
178830,York Blvd Parkette,park,hamilton,..,..,..,..,on
178832,York Blvd Parkette 2,park,hamilton,..,..,..,..,on
178839,York Rd Parkette,park,hamilton,..,..,..,..,on
178841,York St,park,hamilton,..,..,..,..,on
178846,Yorkshire Heights Park,park,hamilton,..,..,..,..,on
178850,Yorkview Elementary,park,hamilton,..,..,..,..,on
181381,..,park,hamilton,..,..,..,..,on
