Index,Facility_Name,ODRSF_facility_type,Provider,Street_No,Street_Name,Postal_Code,City,Prov_Terr
3466,Mountain Sports Complex,community centre,hamilton,..,..,..,..,on
3469,Mountsberg Hall,community centre,hamilton,..,..,..,..,on
3470,Mountview Park,splash pad,hamilton,115,san antonio,..,..,on
3489,Myrtle Park,splash pad,hamilton,13,delaware,..,..,on
3552,Norman Pinky Lewis Recreation Centre,community centre,hamilton,..,..,..,..,on
3560,North Central Community Park,splash pad,hamilton,467,wentworth,..,..,on
3583,North Wentworth Community Centre,community centre,hamilton,..,..,..,..,on
3676,Olympia Village Rv Park And Campground,park,hamilton,1161,concession,..,..,on
3981,Outdoor Skating Rink At Pier 8,rink,hamilton,47,discovery,l8l 8k4,hamilton,on
4472,Pat Quinn Parkdale Arena,arena,hamilton,1770,main,..,..,on
4530,Pier 4 Park,splash pad,hamilton,64,leander,..,..,on
4541,Pine Valley Park Campground Resort,park,hamilton,955,valens,..,..,on
4755,Players Paradise Sports Complex,community centre,hamilton,..,..,..,..,on
4792,Powell Park,splash pad,hamilton,53,birch,..,..,on
5092,Redeemer Sports Complex,community centre,hamilton,..,..,..,..,on
5217,Rosedale Arena,arena,hamilton,100,greenhill,..,..,on
5252,Roxborough Park,splash pad,hamilton,70,reid,..,..,on
5273,Rushdale Park,splash pad,hamilton,130,southpark,..,..,on
5285,Ryerson Recreation Centre,community centre,hamilton,..,..,..,..,on
5290,Sackville Hill Senior's Centre,community centre,hamilton,..,..,..,..,on
5308,Saltfleet Arena,arena,hamilton,24,sherwood park,..,..,on
5310,Sam Manson Park,splash pad,hamilton,80,nash,..,..,on
5360,Sealey Park Scout Hall,community centre,hamilton,..,..,..,..,on
5396,Shawinigan Park,splash pad,hamilton,1,guildwood,..,..,on
5400,Sheffield Community Hall,community centre,hamilton,..,..,..,..,on
5447,Sir Allan Macnab Recreation Centre,community centre,hamilton,..,..,..,..,on
5455,Sir Wilfrid Laurier Recreation Centre,community centre,hamilton,..,..,..,..,on
5460,Sir Winston Churchill Recreation Centre,community centre,hamilton,..,..,..,..,on
5867,Spring Valley Arena,arena,hamilton,29,orchard,..,..,on
5868,Spring Valley Community Centre,community centre,hamilton,..,..,..,..,on
5897,St. Christopher Park,splash pad,hamilton,119,mcanulty,..,..,on
5975,Stoney Creek Arena,arena,hamilton,37,king,..,..,on
5976,Stoney Creek Optomist Community Centre,community centre,hamilton,..,..,..,..,on
5977,Stoney Creek Recreation Centre,community centre,hamilton,..,..,..,..,on
6059,Templemead Park,splash pad,hamilton,30,independence,..,..,on
6156,Trenholme Park,splash pad,hamilton,135,trenholme,..,..,on
6211,Valens Community Hall,community centre,hamilton,..,..,..,..,on
6213,Valley Community Centre (Nigel Charlong),community centre,hamilton,..,..,..,..,on
6215,Valley Park Arena,arena,hamilton,970,paramount,..,..,on
6216,Valley Park Rec Centre,community centre,hamilton,..,..,..,..,on
6248,Veevers Park,splash pad,hamilton,688,greenhill,..,..,on
6264,Victoria Park,splash pad,hamilton,516,king,..,..,on
6286,Village Green Park,splash pad,hamilton,291,lodor,..,..,on
6402,Waterdown Memorial Hall,community centre,hamilton,..,..,..,..,on
6444,Wentworth Arenas,arena,hamilton,1249,wilson,..,..,on
6499,Westmount Recreation Centre,community centre,hamilton,..,..,..,..,on
6502,Westoby (Olympic) Arena,arena,hamilton,70,olympic,..,..,on
6557,William Mcculloch Park,splash pad,hamilton,200,bonaventure,..,..,on
6562,William Schwenger Park,splash pad,hamilton,86,claudette,..,..,on
