Index,Facility_Name,ODRSF_facility_type,Provider,Street_No,Street_Name,Postal_Code,City,Prov_Terr
90,Allan F. Gretsinger Pool (Jul-Aug),pool,niagara region,4361,central,l0r 1b0,beamsville,on
131,Angelina Macri Prokich Park,park,niagara region,5080,st george,l0r 1b7,beamsville,on
291,Beacon Harbourside Marina,marina,niagara region,2793,beacon,..,lincoln,on
456,Bomberry Park,park,niagara region,4941,maple,l0r 1b6,beamsville,on
1004,Charles Daley Park (May - Oct),beach,niagara region,1969,service,l0r 1s0,jordan,on
1543,Elizabeth Street Park,playground,niagara region,5083,elizabeth,l0r 1b7,beamsville,on
1691,Fleming Memorial Arena,arena,niagara falls,5020,serena,..,lincoln,on
2178,Hilary Bald Park Outdoor Rink,rink,niagara falls,4485,garden gate,..,lincoln,on
2179,Hiliary Bald Park,splash pad,niagara region,4485,garden,l0r 1b9,beamsville,on
2487,Jordan Hollow Park,park,niagara region,2964,king,l0r 1s0,jordan,on
2488,Jordan Lions Arena (Apr-Aug),arena,niagara region,2767,fourth,l0r 1s0,jordan,on
2489,Jordan Lions Pool (Jul-Aug),pool,niagara region,2793,fourth,l0r 1s0,jordan,on
2599,Kinsman Park,trail,niagara region,3820,frost,l0r 1b0,beamsville,on
3294,Meadowood Park,playground,niagara region,5078,hartwood,l0r 1b5,beamsville,on
6045,Tamarac Park,park,niagara region,4401,tamarac,l0r 1b8,beamsville,on
6288,Village Park Drive Park,playground,niagara region,4264,village,l0r 1b8,beamsville,on
6298,Vineland Neighbourhood Park,playground,niagara region,4060,simons,l0r 2c0,vineland,on
7299,Ashby Drive Park,sports field,niagara region,4079,ashby,l0r 1b6,beamsville,on
8878,Beamsville Lions Community Park (May-Oct),sports field,niagara region,5162,fly,l0r 1b2,beamsville,on
11064,Fleming Centre (May - Aug),community centre,niagara region,5020,serena,l0r 1b2,beamsville,on
12181,Jack Simpson Park,sports field,niagara region,4942,drake,l0r 1b5,beamsville,on
12306,Jordan Lions Park,sports field,niagara region,2793,fourth,l0r 1s0,jordan,on
15294,Rittenhouse Park,sports field,niagara region,4003,azalea,l0r 2c0,vineland,on
15403,Rockway Glen Golf Course,sports field,niagara falls,3290,ninth,..,lincoln,on
17250,St.Volodymyr Park,sports field,niagara region,4560,cedarbrook,l0r 1b5,beamsville,on
17490,Ted Roberts Park,sports field,niagara region,4344,concord,l0r 1b6,beamsville,on
17894,Twenty Valley Golf And Country Club,sports field,niagara falls,3814,yonge,..,lincoln,on
21365,Beamsville Recreation Trail,trail,niagara region,..,..,..,..,on
21366,Beamsville Recreation Trail,trail,niagara region,..,..,..,..,on
66787,Waterfront Trail,trail,niagara region,..,..,..,..,on
66798,Waterfront Trail,trail,niagara region,..,..,..,..,on
66799,Waterfront Trail,trail,niagara region,..,..,..,..,on
66809,Waterfront Trail,trail,niagara region,..,..,..,..,on
66817,Waterfront Trail,trail,niagara region,..,..,..,..,on
66836,Waterfront Trail,trail,niagara region,..,..,..,..,on
66837,Waterfront Trail,trail,niagara region,..,..,..,..,on
66842,Waterfront Trail,trail,niagara region,..,..,..,..,on
66843,Waterfront Trail,trail,niagara region,..,..,..,..,on
66844,Waterfront Trail,trail,niagara region,..,..,..,..,on
66845,Waterfront Trail,trail,niagara region,..,..,..,..,on
66846,Waterfront Trail,trail,niagara region,..,..,..,..,on
66847,Waterfront Trail,trail,niagara region,..,..,..,..,on
66848,Waterfront Trail,trail,niagara region,..,..,..,..,on
66849,Waterfront Trail,trail,niagara region,..,..,..,..,on
66850,Waterfront Trail,trail,niagara region,..,..,..,..,on
66851,Waterfront Trail,trail,niagara region,..,..,..,..,on
66852,Waterfront Trail,trail,niagara region,..,..,..,..,on
66853,Waterfront Trail,trail,niagara region,..,..,..,..,on
66854,Waterfront Trail,trail,niagara region,..,..,..,..,on
