Index,Facility_Name,ODRSF_facility_type,Provider,Street_No,Street_Name,Postal_Code,City,Prov_Terr
1250,Crimson Park Outdoor Rink,rink,niagara falls,6051,crimson,..,niagara falls,on
1799,Gale Centre (4 Pad),arena,niagara falls,5152,thorold stone,..,niagara falls,on
1981,Greater Niagara Boating Club,marina,niagara region,4649,lyons creek,..,niagara falls,on
2467,John N Allan Park Rink,rink,niagara falls,6980,kalar,..,niagara falls,on
3164,Maple Street Park Rink,rink,niagara falls,5100,maple,..,niagara falls,on
3450,Mount Carmel Park Rink,rink,niagara falls,7806,mount carmel,..,niagara falls,on
4799,Preakness Park Rink,rink,niagara falls,7857,preakness,..,niagara falls,on
5190,Robert F Keighan Park Rink,rink,niagara falls,8030,beaverton,..,niagara falls,on
6568,Willoughby Memorial (Chippawa) Arena,arena,niagara falls,9000,sodom,..,niagara falls,on
6710,..,casino,niagara falls,..,..,..,..,on
6711,..,casino,niagara falls,..,..,..,..,on
6712,..,community centre,niagara falls,..,..,..,..,on
6713,..,community centre,niagara falls,..,..,..,..,on
6714,..,community centre,niagara falls,..,..,..,..,on
6715,..,community centre,niagara falls,..,..,..,..,on
6716,..,community centre,niagara falls,..,..,..,..,on
6717,..,community centre,niagara falls,..,..,..,..,on
6718,..,community centre,niagara falls,..,..,..,..,on
6719,..,community centre,niagara falls,..,..,..,..,on
6720,..,community centre,niagara falls,..,..,..,..,on
6721,..,community centre,niagara falls,..,..,..,..,on
6722,..,community centre,niagara falls,..,..,..,..,on
6723,..,community centre,niagara falls,..,..,..,..,on
6724,..,community centre,niagara falls,..,..,..,..,on
6725,..,community centre,niagara falls,..,..,..,..,on
6726,..,community centre,niagara falls,..,..,..,..,on
6727,..,community centre,niagara falls,..,..,..,..,on
6728,..,community centre,niagara falls,..,..,..,..,on
6729,..,community centre,niagara falls,..,..,..,..,on
6730,..,community centre,niagara falls,..,..,..,..,on
8902,Beechwood Golf & Country Club,sports field,niagara falls,4680,thorold townline,..,niagara falls,on
10667,Eagle Valley Golf Course,sports field,niagara falls,2334,paul,..,niagara falls,on
11539,Grand Niagara Golf Course,sports field,niagara falls,8547,grassy brook,..,niagara falls,on
12976,Legends On The Niagara,sports field,niagara falls,9233,niagara river,..,niagara falls,on
13184,Lundy's Lane Driving Range,sports field,niagara falls,9579,lundy's,..,niagara falls,on
13978,Niagara Falls Golf Club,sports field,niagara falls,6169,garner,..,niagara falls,on
14085,Oak Hall Par 3 Golf Course,sports field,niagara falls,7400,portage,..,niagara falls,on
14088,Oaklands Golf Course,sports field,niagara falls,8970,stanley,..,niagara falls,on
15417,Rolling Meadows Golf & Country Club,sports field,niagara falls,12741,montrose,..,niagara falls,on
17744,Thundering Waters,sports field,niagara falls,6000,marineland,..,niagara falls,on
18336,Whirlpool Golf Course,sports field,niagara falls,3351,niagara river,..,niagara falls,on
18399,Willodell Golf Club Of Niagara,sports field,niagara falls,10325,willodell,..,niagara falls,on
18822,..,sports field,niagara falls,..,..,..,..,on
18823,..,sports field,niagara falls,..,..,..,..,on
18824,..,sports field,niagara falls,..,..,..,..,on
18825,..,sports field,niagara falls,..,..,..,..,on
18826,..,sports field,niagara falls,..,..,..,..,on
18827,..,sports field,niagara falls,..,..,..,..,on
18828,..,sports field,niagara falls,..,..,..,..,on
