Index,Facility_Name,ODRSF_facility_type,Provider,Street_No,Street_Name,Postal_Code,City,Prov_Terr
138659,..,trail,province of ontario,..,..,..,..,on
138672,..,trail,province of ontario,..,..,..,..,on
138692,..,trail,province of ontario,..,..,..,..,on
138707,..,trail,province of ontario,..,..,..,..,on
138729,..,trail,province of ontario,..,..,..,..,on
138765,..,trail,province of ontario,..,..,..,..,on
138780,..,trail,province of ontario,..,..,..,..,on
138785,..,trail,province of ontario,..,..,..,..,on
162044,Abbey Mews,park,st catharines,..,..,..,..,on
162194,Alex Mckenzie Park,park,st catharines,..,..,..,..,on
162553,Arthur Street Park,park,st catharines,..,..,..,..,on
162702,Bailey Street Park,park,st catharines,..,..,..,..,on
162779,Barbican Heights Park,park,st catharines,..,..,..,..,on
162794,Barley Drive Park,park,st catharines,..,..,..,..,on
162818,Bartlett Park,park,st catharines,..,..,..,..,on
163108,Belmont Park,park,st catharines,..,..,..,..,on
163110,Belton Park,park,st catharines,..,..,..,..,on
163193,Berkley Park,park,st catharines,..,..,..,..,on
163202,Bermuda Park,park,st catharines,..,..,..,..,on
163299,Bill Burgoyne Arena,park,st catharines,..,..,..,..,on
163479,Bogart Street Park,park,st catharines,..,..,..,..,on
163904,Burgoyne Woods,park,st catharines,..,..,..,..,on
164041,Cambria Drive Park,park,st catharines,..,..,..,..,on
164059,Cameron Park,park,st catharines,..,..,..,..,on
164105,Canal Valley,park,st catharines,..,..,..,..,on
164328,Catherine Street Park,park,st catharines,..,..,..,..,on
164437,Centennial Gardens,park,st catharines,..,..,..,..,on
164441,Centennial Library,park,st catharines,..,..,..,..,on
164663,Cherie Road Park,park,st catharines,..,..,..,..,on
164764,Cindy Drive Park,park,st catharines,..,..,..,..,on
164775,City Hall,park,st catharines,..,..,..,..,on
164874,Clifford's Creek Park,park,st catharines,..,..,..,..,on
165019,Community Park,park,st catharines,..,..,..,..,on
165020,Community Park - Lion Dunc Schooley Pool,park,st catharines,..,..,..,..,on
165447,Cushman Road Park,park,st catharines,..,..,..,..,on
165483,Dalhousie House,park,st catharines,..,..,..,..,on
165901,Douglas Park,park,st catharines,..,..,..,..,on
166058,Dunlop Drive Older Adult Centre,park,st catharines,..,..,..,..,on
166167,Eastmount Park,park,st catharines,..,..,..,..,on
166171,Eastport Park,park,st catharines,..,..,..,..,on
166372,Elma Street Park,park,st catharines,..,..,..,..,on
166612,Fairhaven Park,park,st catharines,..,..,..,..,on
166637,Fairview Golf Course,park,st catharines,..,..,..,..,on
166850,Fitzgerald Park,park,st catharines,..,..,..,..,on
167195,Garden City Golf Course,park,st catharines,..,..,..,..,on
167256,Gatorade Garden City Complex,park,st catharines,..,..,..,..,on
167442,Glen Ave. Park,park,st catharines,..,..,..,..,on
167513,Glengary Park,park,st catharines,..,..,..,..,on
167529,Glenridge Quarry Naturalization Site - Regional,park,st catharines,..,..,..,..,on
