Index,Facility_Name,ODRSF_facility_type,Provider,Street_No,Street_Name,Postal_Code,City,Prov_Terr
167764,Grantham Lions Park,park,st catharines,..,..,..,..,on
167770,Grapeview Park,park,st catharines,..,..,..,..,on
167810,Green Ribbon Trail,park,st catharines,..,..,..,..,on
167948,Guy Road Park,park,st catharines,..,..,..,..,on
167977,Haig Bowl Arena,park,st catharines,..,..,..,..,on
168027,Hannelore Headley Chess Park,park,st catharines,..,..,..,..,on
168036,Happy Rolph'S,park,st catharines,..,..,..,..,on
168048,Harcove Park,park,st catharines,..,..,..,..,on
168759,I.O.D.E. Park,park,st catharines,..,..,..,..,on
169012,Jaycee Park,park,st catharines,..,..,..,..,on
169140,John Dempsey Park,park,st catharines,..,..,..,..,on
169177,John Page Park,park,st catharines,..,..,..,..,on
169208,Johnson Park,park,st catharines,..,..,..,..,on
169233,Jones Beach,park,st catharines,..,..,..,..,on
169253,Joseph Mccaffery Park,park,st catharines,..,..,..,..,on
169464,Kernahan Park,park,st catharines,..,..,..,..,on
169629,Kiwanis Artificial Turf Field,park,st catharines,..,..,..,..,on
169986,Lakebreeze Park,park,st catharines,..,..,..,..,on
169989,Lakefront Park,park,st catharines,..,..,..,..,on
170012,Lakeside Park,park,st catharines,..,..,..,..,on
170029,Lakeview Park,park,st catharines,..,..,..,..,on
170075,Lancaster Park,park,st catharines,..,..,..,..,on
170292,Lester B. Pearson Park,park,st catharines,..,..,..,..,on
170347,Lincoln Park,park,st catharines,..,..,..,..,on
170398,Linlake Park,park,st catharines,..,..,..,..,on
170498,Lock 3 Museum,park,st catharines,..,..,..,..,on
170500,Lockhart Point,park,st catharines,..,..,..,..,on
170503,Lockview Park,park,st catharines,..,..,..,..,on
170576,Louis Park,park,st catharines,..,..,..,..,on
170748,Madame Curie Park,park,st catharines,..,..,..,..,on
170814,Malcomson Park,park,st catharines,..,..,..,..,on
170899,Maplecrest Park,park,st catharines,..,..,..,..,on
171057,Martindale Pond Lookout,park,st catharines,..,..,..,..,on
171423,Memorial Park,park,st catharines,..,..,..,..,on
171453,Merritt Park,park,st catharines,..,..,..,..,on
171455,Merritton Arena,park,st catharines,..,..,..,..,on
171743,Monarch Park,park,st catharines,..,..,..,..,on
171776,Montebello Park,park,st catharines,..,..,..,..,on
171919,Mountain Locks Park,park,st catharines,..,..,..,..,on
171921,Mountain Mills Museum,park,st catharines,..,..,..,..,on
171929,Mountainview Park,park,st catharines,..,..,..,..,on
171970,Municipal Beach,park,st catharines,..,..,..,..,on
172068,Neelon Park,park,st catharines,..,..,..,..,on
172439,Oakhill Park,park,st catharines,..,..,..,..,on
172608,Orchard Park,park,st catharines,..,..,..,..,on
173615,Parker Street Park,park,st catharines,..,..,..,..,on
173851,Pic Leeson Park,park,st catharines,..,..,..,..,on
173992,Plymouth Avenue Park,park,st catharines,..,..,..,..,on
174048,Port Dalhousie Lions Park,park,st catharines,..,..,..,..,on
