Index,Facility_Name,ODRSF_facility_type,Provider,Street_No,Street_Name,Postal_Code,City,Prov_Terr
6101,Thorold Community Arenas,arena,niagara falls,70,front,..,thorold,on
9290,Brock Golf Course,sports field,niagara falls,2745,merrittville,..,thorold,on
11201,Fox Run Golf Course,sports field,niagara falls,1792,20,..,thorold,on
25336,Decew-Allanburg Trail,trail,niagara region,..,..,..,..,on
25337,Decew-Allanburg Trail,trail,niagara region,..,..,..,..,on
43557,Merritt Trail,trail,niagara region,..,..,..,..,on
43558,Merritt Trail,trail,niagara region,..,..,..,..,on
43566,Merritt Trail,trail,niagara region,..,..,..,..,on
43572,Merritt Trail,trail,niagara region,..,..,..,..,on
43573,Merritt Trail,trail,niagara region,..,..,..,..,on
43574,Merritt Trail,trail,niagara region,..,..,..,..,on
43575,Merritt Trail,trail,niagara region,..,..,..,..,on
43576,Merritt Trail,trail,niagara region,..,..,..,..,on
43577,Merritt Trail,trail,niagara region,..,..,..,..,on
43578,Merritt Trail,trail,niagara region,..,..,..,..,on
43579,Merritt Trail,trail,niagara region,..,..,..,..,on
43580,Merritt Trail,trail,niagara region,..,..,..,..,on
43581,Merritt Trail,trail,niagara region,..,..,..,..,on
43582,Merritt Trail,trail,niagara region,..,..,..,..,on
43590,Merritt Trail,trail,niagara region,..,..,..,..,on
43591,Merritt Trail,trail,niagara region,..,..,..,..,on
43592,Merritt Trail,trail,niagara region,..,..,..,..,on
43593,Merritt Trail,trail,niagara region,..,..,..,..,on
43594,Merritt Trail,trail,niagara region,..,..,..,..,on
43595,Merritt Trail,trail,niagara region,..,..,..,..,on
43596,Merritt Trail,trail,niagara region,..,..,..,..,on
43597,Merritt Trail,trail,niagara region,..,..,..,..,on
43598,Merritt Trail,trail,niagara region,..,..,..,..,on
43599,Merritt Trail,trail,niagara region,..,..,..,..,on
43600,Merritt Trail,trail,niagara region,..,..,..,..,on
43601,Merritt Trail,trail,niagara region,..,..,..,..,on
43602,Merritt Trail,trail,niagara region,..,..,..,..,on
43603,Merritt Trail,trail,niagara region,..,..,..,..,on
43604,Merritt Trail,trail,niagara region,..,..,..,..,on
43605,Merritt Trail,trail,niagara region,..,..,..,..,on
43606,Merritt Trail,trail,niagara region,..,..,..,..,on
43607,Merritt Trail,trail,niagara region,..,..,..,..,on
43608,Merritt Trail,trail,niagara region,..,..,..,..,on
53415,Shorthills Trails,trail,niagara region,..,..,..,..,on
55115,Thorold-Fonthill Spur,trail,niagara region,..,..,..,..,on
67272,Welland Canals Trail,trail,niagara region,..,..,..,..,on
67273,Welland Canals Trail,trail,niagara region,..,..,..,..,on
67274,Welland Canals Trail,trail,niagara region,..,..,..,..,on
67275,Welland Canals Trail,trail,niagara region,..,..,..,..,on
67276,Welland Canals Trail,trail,niagara region,..,..,..,..,on
67277,Welland Canals Trail,trail,niagara region,..,..,..,..,on
67278,Welland Canals Trail,trail,niagara region,..,..,..,..,on
98055,..,trail,province of ontario,..,..,..,..,on
98722,..,trail,province of ontario,..,..,..,..,on
