Index,Facility_Name,ODRSF_facility_type,Provider,Street_No,Street_Name,Postal_Code,City,Prov_Terr
1706,Foran's Marine,marina,niagara region,15,lake,..,grimsby,on
2672,Lakecourt Marine,marina,niagara region,471,maple,..,grimsby,on
4495,Peach King Centre,arena,niagara falls,162,livingston,..,grimsby,on
11133,Fore Family Golf,sports field,niagara falls,239,mountain,..,grimsby,on
27491,Forty Mile Trail,trail,niagara region,..,..,..,..,on
27492,Forty Mile Trail,trail,niagara region,..,..,..,..,on
27493,Forty Mile Trail,trail,niagara region,..,..,..,..,on
27494,Forty Mile Trail,trail,niagara region,..,..,..,..,on
27495,Forty Mile Trail,trail,niagara region,..,..,..,..,on
27496,Forty Mile Trail,trail,niagara region,..,..,..,..,on
66783,Waterfront Trail,trail,niagara region,..,..,..,..,on
66784,Waterfront Trail,trail,niagara region,..,..,..,..,on
66785,Waterfront Trail,trail,niagara region,..,..,..,..,on
66786,Waterfront Trail,trail,niagara region,..,..,..,..,on
66788,Waterfront Trail,trail,niagara region,..,..,..,..,on
66789,Waterfront Trail,trail,niagara region,..,..,..,..,on
66790,Waterfront Trail,trail,niagara region,..,..,..,..,on
66791,Waterfront Trail,trail,niagara region,..,..,..,..,on
66792,Waterfront Trail,trail,niagara region,..,..,..,..,on
66793,Waterfront Trail,trail,niagara region,..,..,..,..,on
66794,Waterfront Trail,trail,niagara region,..,..,..,..,on
66795,Waterfront Trail,trail,niagara region,..,..,..,..,on
66796,Waterfront Trail,trail,niagara region,..,..,..,..,on
66797,Waterfront Trail,trail,niagara region,..,..,..,..,on
66800,Waterfront Trail,trail,niagara region,..,..,..,..,on
66801,Waterfront Trail,trail,niagara region,..,..,..,..,on
66802,Waterfront Trail,trail,niagara region,..,..,..,..,on
66803,Waterfront Trail,trail,niagara region,..,..,..,..,on
66804,Waterfront Trail,trail,niagara region,..,..,..,..,on
66805,Waterfront Trail,trail,niagara region,..,..,..,..,on
66806,Waterfront Trail,trail,niagara region,..,..,..,..,on
66807,Waterfront Trail,trail,niagara region,..,..,..,..,on
66808,Waterfront Trail,trail,niagara region,..,..,..,..,on
66810,Waterfront Trail,trail,niagara region,..,..,..,..,on
66811,Waterfront Trail,trail,niagara region,..,..,..,..,on
66812,Waterfront Trail,trail,niagara region,..,..,..,..,on
66813,Waterfront Trail,trail,niagara region,..,..,..,..,on
66814,Waterfront Trail,trail,niagara region,..,..,..,..,on
66815,Waterfront Trail,trail,niagara region,..,..,..,..,on
66816,Waterfront Trail,trail,niagara region,..,..,..,..,on
66818,Waterfront Trail,trail,niagara region,..,..,..,..,on
66819,Waterfront Trail,trail,niagara region,..,..,..,..,on
66820,Waterfront Trail,trail,niagara region,..,..,..,..,on
66821,Waterfront Trail,trail,niagara region,..,..,..,..,on
66822,Waterfront Trail,trail,niagara region,..,..,..,..,on
66823,Waterfront Trail,trail,niagara region,..,..,..,..,on
66824,Waterfront Trail,trail,niagara region,..,..,..,..,on
66825,Waterfront Trail,trail,niagara region,..,..,..,..,on
66826,Waterfront Trail,trail,niagara region,..,..,..,..,on
