Index,Facility_Name,ODRSF_facility_type,Provider,Street_No,Street_Name,Postal_Code,City,Prov_Terr
5998,Sugarloaf Harbour Marina,marina,niagara region,3,marina,..,port colborne,on
6209,Vale Health And Wellness Centre,arena,niagara falls,550,elizabeth,..,port colborne,on
11487,Golf Port Driving Range,sports field,niagara falls,1628,minor,..,port colborne,on
18337,Whiskey Run Golf Club,sports field,niagara falls,631,lorraine,..,port colborne,on
19247,<B>Name: </B><Br><B>Trail_Id: </B>143<Br><B>Enviro: </B>Off-Road<Br><B>Trail_Class: </B>Main Trail<Br><B>Surface: </B>Unpaved,trail,welland,..,..,..,..,on
67266,Welland Canals Trail,trail,niagara region,..,..,..,..,on
67279,Welland Canals Trail,trail,niagara region,..,..,..,..,on
67280,Welland Canals Trail,trail,niagara region,..,..,..,..,on
67281,Welland Canals Trail,trail,niagara region,..,..,..,..,on
67282,Welland Canals Trail,trail,niagara region,..,..,..,..,on
67284,Welland Canals Trail,trail,niagara region,..,..,..,..,on
67286,Welland Canals Trail,trail,niagara region,..,..,..,..,on
99495,..,trail,province of ontario,..,..,..,..,on
99497,..,trail,province of ontario,..,..,..,..,on
99500,..,trail,province of ontario,..,..,..,..,on
99502,..,trail,province of ontario,..,..,..,..,on
102144,..,trail,province of ontario,..,..,..,..,on
102343,..,trail,province of ontario,..,..,..,..,on
102391,..,trail,province of ontario,..,..,..,..,on
102394,..,trail,province of ontario,..,..,..,..,on
127118,..,trail,province of ontario,..,..,..,..,on
131421,..,trail,province of ontario,..,..,..,..,on
131515,..,trail,province of ontario,..,..,..,..,on
131630,..,trail,province of ontario,..,..,..,..,on
131688,..,trail,province of ontario,..,..,..,..,on
131699,..,trail,province of ontario,..,..,..,..,on
131915,..,trail,province of ontario,..,..,..,..,on
132031,..,trail,province of ontario,..,..,..,..,on
132092,..,trail,province of ontario,..,..,..,..,on
132408,..,trail,province of ontario,..,..,..,..,on
132815,..,trail,province of ontario,..,..,..,..,on
133125,..,trail,province of ontario,..,..,..,..,on
133161,..,trail,province of ontario,..,..,..,..,on
