Index,Facility_Name,ODRSF_facility_type,Provider,Street_No,Street_Name,Postal_Code,City,Prov_Terr
170834,Manchester Park,park,welland,835,welland,..,..,on
170886,Maple Park,park,welland,512,pelham,..,..,on
171424,Memorial Park,park,welland,404,memorial park,..,..,on
171454,Merritt Park,park,welland,115,king,..,..,on
171543,Mill Street Park,park,welland,40,mill,..,..,on
172572,Ontario Road Dog Park,park,welland,2,ontario,..,..,on
173993,Plymouth Park,park,welland,200,plymouth,..,..,on
174126,Prince Charles Park,park,welland,6,colbeck,..,..,on
174213,Quaker Road Park,park,welland,12,quaker,..,..,on
174317,Raillands Park,park,welland,..,..,..,..,on
174573,Ricelawn Park,park,welland,..,..,..,..,on
174697,River Road Park,park,welland,309,river,..,..,on
174698,River Road Park,park,welland,172,river,..,..,on
174710,Riverbank Park,park,welland,59,riverbank,..,..,on
174783,Riverside Park,park,welland,..,..,..,..,on
175657,Seaway Park,park,welland,..,..,..,..,on
175837,Sherwood Forest Park,park,welland,115,rolling acres,..,..,on
176008,Skate Park,park,welland,135,lincoln,..,..,on
176238,Sports Complex,park,welland,90,quaker,..,..,on
176445,St. George Park,park,welland,391,st george,..,..,on
176566,Station Park,park,welland,..,..,..,..,on
176659,Stop 19 Park,park,welland,69,rose,..,..,on
176761,Summerlea Park,park,welland,121,montgomery,..,..,on
177161,Thorold Road Park,park,welland,884,prince charles,..,..,on
177379,Trelawn Park,park,welland,105,page,..,..,on
177397,Triangle Park,park,welland,210,southworth,..,..,on
178091,Waterview Park,park,welland,179,waterview,..,..,on
178272,Westbrook Park,park,welland,..,..,..,..,on
178576,Willson Park,park,welland,43,endicott,..,..,on
178629,Windsor Park,park,welland,..,..,..,..,on
178641,Winfield Park,park,welland,27,countryside,..,..,on
178659,Winstonville Playgound,park,welland,38,wavell,..,..,on
178752,Woodlawn Park,park,welland,400,woodlawn,..,..,on
178788,Wrcc Lands,park,welland,92,niagara,..,..,on
