Index,Facility_Name,ODRSF_facility_type,Provider,Street_No,Street_Name,Postal_Code,City,Prov_Terr
174053,Port Master Park,park,st catharines,..,..,..,..,on
174062,Port Weller East Park,park,st catharines,..,..,..,..,on
174088,Power Glen Park,park,st catharines,..,..,..,..,on
174147,Princess Park,park,st catharines,..,..,..,..,on
174232,Queen Elizabeth Centre (Leased To Boys And Girls Club),park,st catharines,..,..,..,..,on
174449,Realty Park,park,st catharines,..,..,..,..,on
174553,Rennie Park,park,st catharines,..,..,..,..,on
174589,Richardson's Creek Lookout,park,st catharines,..,..,..,..,on
174928,Roehampton Park,park,st catharines,..,..,..,..,on
175038,Rotary Park,park,st catharines,..,..,..,..,on
175290,Royal Henley Park,park,st catharines,..,..,..,..,on
175334,Russell Avenue Community Centre,park,st catharines,..,..,..,..,on
175665,Secord Woods Park,park,st catharines,..,..,..,..,on
175724,Seymour-Hannah Sports And Entertainment Centre,park,st catharines,..,..,..,..,on
175765,Shauna Park,park,st catharines,..,..,..,..,on
175820,Sheridan Park,park,st catharines,..,..,..,..,on
175960,Sir Casimir Gzowski Park,park,st catharines,..,..,..,..,on
176010,Skatepark,park,st catharines,..,..,..,..,on
176403,St. Alfred's Park,park,st catharines,..,..,..,..,on
176496,St. Patrick's Park,park,st catharines,..,..,..,..,on
177005,Tecumseh Park,park,st catharines,..,..,..,..,on
177042,Terry Fox Trail,trail,st catharines,..,..,..,..,on
177043,Terry Fox Trail,trail,st catharines,..,..,..,..,on
177306,Torosian Park,park,st catharines,..,..,..,..,on
177364,Trapper Leo Park,park,st catharines,..,..,..,..,on
177378,Treeview Park,park,st catharines,..,..,..,..,on
177473,Twelve Mile Creek,park,st catharines,..,..,..,..,on
177649,Unnamed Lookout - 358B Martindale Rd.,park,st catharines,..,..,..,..,on
177651,Unnamed Park - 1 Wilfrid Laurier Cres,park,st catharines,..,..,..,..,on
177652,Unnamed Park - 711 Vine St.,park,st catharines,..,..,..,..,on
177758,Valleyview Park,park,st catharines,..,..,..,..,on
177860,Victoria Lawn Cemetery,park,st catharines,..,..,..,..,on
177897,Village Gate Park,park,st catharines,..,..,..,..,on
177924,Vintage Park,park,st catharines,..,..,..,..,on
177992,Walker's Creek Park,park,st catharines,..,..,..,..,on
177994,Walkinshaw Park,park,st catharines,..,..,..,..,on
178159,Welland Canal Parkway Trail,trail,st catharines,..,..,..,..,on
178160,Welland Canal Parkway Trail,trail,st catharines,..,..,..,..,on
178161,Welland Canal Parkway Trail,trail,st catharines,..,..,..,..,on
178162,Welland Canal Parkway Trail,trail,st catharines,..,..,..,..,on
178163,Welland Canals Parkway Trail,park,st catharines,..,..,..,..,on
178183,Wembly Drive Park,park,st catharines,..,..,..,..,on
178256,West St. Catharines Older Adult Centre,park,st catharines,..,..,..,..,on
178278,Westcliffe Park,park,st catharines,..,..,..,..,on
178306,Westland Park,park,st catharines,..,..,..,..,on
178338,Westpark,park,st catharines,..,..,..,..,on
178716,Woodgale Park,park,st catharines,..,..,..,..,on
178789,Wright Brothers Park,park,st catharines,..,..,..,..,on
178864,Ziraldo Park,park,st catharines,..,..,..,..,on
