Index,Facility_Name,ODRSF_facility_type,Provider,Street_No,Street_Name,Postal_Code,City,Prov_Terr
706,Carrie Lynn Pinard Centre,community centre,welland,14809,welland,..,..,on
1043,Chippawa Park Community Centre,community centre,welland,21172,welland,..,..,on
1044,Chippawa Park Pond Outdoor Rink,rink,niagara falls,90,first,..,welland,on
1085,Civic Square Outdoor Rink,rink,niagara falls,60,main,..,welland,on
1176,Cooks Mills Hall,community centre,welland,19486,welland,..,..,on
2222,Hooker Street Community Centre,community centre,welland,19065,welland,..,..,on
2387,Jack Ballantyne Memorial Arena,arena,niagara falls,501,king,..,welland,on
3163,Maple Park Pool Building,pool,welland,512,pelham,..,..,on
3317,Memorial Park Pool Building,pool,welland,405,memorial park,..,..,on
5903,St. George Park Pool Building,pool,welland,391,st george,..,..,on
6433,Welland Community Wellness Complex,community centre,welland,9405,welland,..,..,on
6434,Welland Main Arena,arena,niagara falls,501,king,..,welland,on
6641,Woodlawn Park Outdoor Bush Rink,rink,niagara falls,400,woodlawn,..,welland,on
11563,Grassy Brook Driving Range And Golf Practice Cntr,sports field,niagara falls,800,carl,..,welland,on
14849,Plymouth Park Soccer Club,sports field,welland,200,plymouth,..,..,on
16938,Sparrow Lakes Golf Club,sports field,niagara falls,105,pelham,..,welland,on
18211,Welland Soccer Club (Main Building),sports field,welland,469,rice,..,..,on
18212,Welland Soccer Club (Sheds In Parking Lot),sports field,welland,469,rice,..,..,on
19248,<B>Name: </B>Canal Parkway Trail<Br><B>Trail_Id: </B>112<Br><B>Enviro: </B>Off-Road<Br><B>Trail_Class: </B>Main Trail<Br><B>Surface: </B>Paved,trail,welland,..,..,..,..,on
19249,<B>Name: </B>Canal Parkway Trail<Br><B>Trail_Id: </B>113<Br><B>Enviro: </B>Off-Road<Br><B>Trail_Class: </B>Main Trail<Br><B>Surface: </B>Paved,trail,welland,..,..,..,..,on
19250,<B>Name: </B>Canal Parkway Trail<Br><B>Trail_Id: </B>114<Br><B>Enviro: </B>On-Road/Sidewalk<Br><B>Trail_Class: </B>Main Trail<Br><B>Surface: </B>Paved,trail,welland,..,..,..,..,on
19251,<B>Name: </B>Canal Parkway Trail<Br><B>Trail_Id: </B>115<Br><B>Enviro: </B>On-Road/Sidewalk<Br><B>Trail_Class: </B>Main Trail<Br><B>Surface: </B>Paved,trail,welland,..,..,..,..,on
19252,<B>Name: </B>Canal Parkway Trail<Br><B>Trail_Id: </B>116<Br><B>Enviro: </B>On-Road/Sidewalk<Br><B>Trail_Class: </B>Main Trail<Br><B>Surface: </B>Paved,trail,welland,..,..,..,..,on
19253,<B>Name: </B>Canal Parkway Trail<Br><B>Trail_Id: </B>117<Br><B>Enviro: </B>On-Road/Sidewalk<Br><B>Trail_Class: </B>Main Trail<Br><B>Surface: </B>Paved,trail,welland,..,..,..,..,on
19254,<B>Name: </B>Canal Parkway Trail<Br><B>Trail_Id: </B>118<Br><B>Enviro: </B>Off-Road<Br><B>Trail_Class: </B>Main Trail<Br><B>Surface: </B>Paved,trail,welland,..,..,..,..,on
19255,<B>Name: </B>Canal Parkway Trail<Br><B>Trail_Id: </B>119<Br><B>Enviro: </B>On-Road/Sidewalk<Br><B>Trail_Class: </B>Main Trail<Br><B>Surface: </B>Paved,trail,welland,..,..,..,..,on
19256,<B>Name: </B>Canal Parkway Trail<Br><B>Trail_Id: </B>132<Br><B>Enviro: </B>Off-Road<Br><B>Trail_Class: </B>Main Trail<Br><B>Surface: </B>Paved,trail,welland,..,..,..,..,on
19257,<B>Name: </B>Canal Parkway Trail<Br><B>Trail_Id: </B>138<Br><B>Enviro: </B>Off-Road<Br><B>Trail_Class: </B>Main Trail<Br><B>Surface: </B>Paved,trail,welland,..,..,..,..,on
19258,<B>Name: </B>Canal Parkway Trail<Br><B>Trail_Id: </B>142<Br><B>Enviro: </B>On-Road/Sidewalk<Br><B>Trail_Class: </B>Main Trail<Br><B>Surface: </B>Paved,trail,welland,..,..,..,..,on
19259,<B>Name: </B>Canal Parkway Trail<Br><B>Trail_Id: </B>144<Br><B>Enviro: </B>On-Road/Sidewalk<Br><B>Trail_Class: </B>Main Trail<Br><B>Surface: </B>Paved,trail,welland,..,..,..,..,on
19260,<B>Name: </B>Canal Parkway Trail<Br><B>Trail_Id: </B>145<Br><B>Enviro: </B>Off-Road<Br><B>Trail_Class: </B>Main Trail<Br><B>Surface: </B>Paved,trail,welland,..,..,..,..,on
19261,<B>Name: </B>Canal Parkway Trail<Br><B>Trail_Id: </B>146<Br><B>Enviro: </B>Off-Road<Br><B>Trail_Class: </B>Main Trail<Br><B>Surface: </B>Paved,trail,welland,..,..,..,..,on
19262,<B>Name: </B>Canal Parkway Trail<Br><B>Trail_Id: </B>147<Br><B>Enviro: </B>Off-Road<Br><B>Trail_Class: </B>Main Trail<Br><B>Surface: </B>Paved,trail,welland,..,..,..,..,on
19263,<B>Name: </B>Canal Parkway Trail<Br><B>Trail_Id: </B>148<Br><B>Enviro: </B>On-Road/Sidewalk<Br><B>Trail_Class: </B>Main Trail<Br><B>Surface: </B>Paved,trail,welland,..,..,..,..,on
19264,<B>Name: </B>Canal Parkway Trail<Br><B>Trail_Id: </B>149<Br><B>Enviro: </B>Off-Road<Br><B>Trail_Class: </B>Main Trail<Br><B>Surface: </B>Paved,trail,welland,..,..,..,..,on
19265,<B>Name: </B>Canal Parkway Trail<Br><B>Trail_Id: </B>150<Br><B>Enviro: </B>Off-Road<Br><B>Trail_Class: </B>Main Trail<Br><B>Surface: </B>Paved,trail,welland,..,..,..,..,on
19266,<B>Name: </B>Canal Parkway Trail<Br><B>Trail_Id: </B>151<Br><B>Enviro: </B>Off-Road<Br><B>Trail_Class: </B>Branch Trail<Br><B>Surface: </B>Paved,trail,welland,..,..,..,..,on
19267,<B>Name: </B>Canal Parkway Trail<Br><B>Trail_Id: </B>152<Br><B>Enviro: </B>Off-Road<Br><B>Trail_Class: </B>Main Trail<Br><B>Surface: </B>Paved,trail,welland,..,..,..,..,on
19268,<B>Name: </B>Canal Parkway Trail<Br><B>Trail_Id: </B>153<Br><B>Enviro: </B>On-Road/Sidewalk<Br><B>Trail_Class: </B>Main Trail<Br><B>Surface: </B>Paved,trail,welland,..,..,..,..,on
19269,<B>Name: </B>Canal Parkway Trail<Br><B>Trail_Id: </B>154<Br><B>Enviro: </B>Off-Road<Br><B>Trail_Class: </B>Main Trail<Br><B>Surface: </B>Unpaved,trail,welland,..,..,..,..,on
19270,<B>Name: </B>Canal Parkway Trail<Br><B>Trail_Id: </B>79<Br><B>Enviro: </B>Off-Road<Br><B>Trail_Class: </B>Main Trail<Br><B>Surface: </B>Paved,trail,welland,..,..,..,..,on
19271,<B>Name: </B>Canal Parkway Trail<Br><B>Trail_Id: </B>80<Br><B>Enviro: </B>On-Road/Sidewalk<Br><B>Trail_Class: </B>Main Trail<Br><B>Surface: </B>Paved,trail,welland,..,..,..,..,on
19272,<B>Name: </B>Canal Parkway Trail<Br><B>Trail_Id: </B>81<Br><B>Enviro: </B>Off-Road<Br><B>Trail_Class: </B>Main Trail<Br><B>Surface: </B>Paved,trail,welland,..,..,..,..,on
19273,<B>Name: </B>Canal Parkway Trail<Br><B>Trail_Id: </B>82<Br><B>Enviro: </B>Off-Road<Br><B>Trail_Class: </B>Main Trail<Br><B>Surface: </B>Paved,trail,welland,..,..,..,..,on
19274,<B>Name: </B>Canal Parkway Trail<Br><B>Trail_Id: </B>83<Br><B>Enviro: </B>On-Road/Sidewalk<Br><B>Trail_Class: </B>Main Trail<Br><B>Surface: </B>Paved,trail,welland,..,..,..,..,on
19275,<B>Name: </B>Canal Parkway Trail<Br><B>Trail_Id: </B>84<Br><B>Enviro: </B>Off-Road<Br><B>Trail_Class: </B>Main Trail<Br><B>Surface: </B>Paved,trail,welland,..,..,..,..,on
19276,<B>Name: </B>Canal Parkway Trail<Br><B>Trail_Id: </B>85<Br><B>Enviro: </B>On-Road/Sidewalk<Br><B>Trail_Class: </B>Main Trail<Br><B>Surface: </B>Paved,trail,welland,..,..,..,..,on
19277,<B>Name: </B>Canal Parkway Trail<Br><B>Trail_Id: </B>86<Br><B>Enviro: </B>Off-Road<Br><B>Trail_Class: </B>Main Trail<Br><B>Surface: </B>Paved,trail,welland,..,..,..,..,on
19278,<B>Name: </B>Canal Parkway Trail<Br><B>Trail_Id: </B>87<Br><B>Enviro: </B>On-Road/Sidewalk<Br><B>Trail_Class: </B>Main Trail<Br><B>Surface: </B>Paved,trail,welland,..,..,..,..,on
