Index,Facility_Name,ODRSF_facility_type,Provider,Street_No,Street_Name,Postal_Code,City,Prov_Terr
396,Bill Burgoyne Memorial Arena,arena,niagara falls,129,linwell,..,st catharines,on
1821,Gatorade Garden City Arenas Complex,arena,niagara falls,8,gale,..,st catharines,on
2038,H.C. Griffith Sports Complex,arena,niagara falls,2,ridley,..,st catharines,on
3323,Meridian Centre,arena,niagara falls,1,icedogs,..,st catharines,on
4776,Port Dalhousie Pier Marina Inc.,marina,niagara region,80,lighthouse,..,st catharines,on
5384,Seymour-Hannah Sports & Entertainment Centre,arena,niagara falls,240,st paul,..,st catharines,on
5895,St. Catharines Marina Ltd.,marina,niagara region,200,broadway,..,st catharines,on
11296,Garden City Municipal Golf Course,sports field,niagara falls,37,lincoln,..,st catharines,on
17125,St. Catharines Golf And Country Club,sports field,niagara falls,70,westchester,..,st catharines,on
18304,Westport Golf Practice And Training Facility,sports field,niagara falls,1406,third,..,st catharines,on
19842,Abandoned Ns&T Rail Trail,trail,niagara region,..,..,..,..,on
36228,Malcolmson Eco-Park Trail,trail,niagara region,..,..,..,..,on
36229,Malcolmson Eco-Park Trail,trail,niagara region,..,..,..,..,on
36230,Malcolmson Eco-Park Trail,trail,niagara region,..,..,..,..,on
36231,Malcolmson Eco-Park Trail,trail,niagara region,..,..,..,..,on
36232,Malcolmson Eco-Park Trail,trail,niagara region,..,..,..,..,on
36233,Malcolmson Eco-Park Trail,trail,niagara region,..,..,..,..,on
36234,Malcolmson Eco-Park Trail,trail,niagara region,..,..,..,..,on
36235,Malcolmson Eco-Park Trail,trail,niagara region,..,..,..,..,on
36236,Malcolmson Eco-Park Trail,trail,niagara region,..,..,..,..,on
36237,Malcolmson Eco-Park Trail,trail,niagara region,..,..,..,..,on
36238,Malcolmson Eco-Park Trail,trail,niagara region,..,..,..,..,on
36239,Malcolmson Eco-Park Trail,trail,niagara region,..,..,..,..,on
43555,Merritt Trail,trail,niagara region,..,..,..,..,on
43556,Merritt Trail,trail,niagara region,..,..,..,..,on
43559,Merritt Trail,trail,niagara region,..,..,..,..,on
43560,Merritt Trail,trail,niagara region,..,..,..,..,on
43561,Merritt Trail,trail,niagara region,..,..,..,..,on
43562,Merritt Trail,trail,niagara region,..,..,..,..,on
43563,Merritt Trail,trail,niagara region,..,..,..,..,on
43564,Merritt Trail,trail,niagara region,..,..,..,..,on
43565,Merritt Trail,trail,niagara region,..,..,..,..,on
43567,Merritt Trail,trail,niagara region,..,..,..,..,on
43568,Merritt Trail,trail,niagara region,..,..,..,..,on
43569,Merritt Trail,trail,niagara region,..,..,..,..,on
43570,Merritt Trail,trail,niagara region,..,..,..,..,on
43571,Merritt Trail,trail,niagara region,..,..,..,..,on
43583,Merritt Trail,trail,niagara region,..,..,..,..,on
43584,Merritt Trail,trail,niagara region,..,..,..,..,on
43585,Merritt Trail,trail,niagara region,..,..,..,..,on
43586,Merritt Trail,trail,niagara region,..,..,..,..,on
43587,Merritt Trail,trail,niagara region,..,..,..,..,on
43588,Merritt Trail,trail,niagara region,..,..,..,..,on
43589,Merritt Trail,trail,niagara region,..,..,..,..,on
43609,Merritt Trail,trail,niagara region,..,..,..,..,on
43610,Merritt Trail,trail,niagara region,..,..,..,..,on
43611,Merritt Trail,trail,niagara region,..,..,..,..,on
49391,Participark Trail,trail,niagara region,..,..,..,..,on
53414,Shorthills Trails,trail,niagara region,..,..,..,..,on
