Index,Facility_Name,ODRSF_facility_type,Provider,Street_No,Street_Name,Postal_Code,City,Prov_Terr
1015,Charlotteville Community Centre,community centre,norfolk county,1258,turkey point,N3Y 4K1,walsh,on
1222,Courtland Lions Community Centre,community centre,norfolk county,276,main,N0J 1,courtland,on
1321,Delhi Community Centre Arena,pool,niagara region,144,western,N4B 1S1,..,on
2701,Langton Arena,arena,niagara region,30,albert,N0E 1G0,..,on
2702,Langton Community Centre,community centre,norfolk county,28,albert,N0E 1G0,langton,on
4778,Port Dover Arena,arena,niagara region,809,george,N0A 1N4,..,on
4779,Port Dover Lions Community Centre,community centre,norfolk county,803,george,N0A 1N0,port dover,on
4781,Port Rowan Community Centre,community centre,norfolk county,14,college,N0E 1M0,port rowan,on
5440,Simcoe Recreation Centre Arena,arena,niagara region,182,south,N3Y 1G5,..,on
5940,St. Williams Community Centre,community centre,norfolk county,80,queen,N0E 1P0,st williams,on
6043,Talbot Gardens Arena,arena,niagara region,10,talbot,N3Y 3W4,..,on
6301,Vittoria Community Centre,community centre,norfolk county,35,oakes,N0E 1W0,vittoria,on
6383,Walsingham Community Centre,community centre,norfolk county,2070,main,N0E 1X0,walsingham,on
6403,Waterford Community Centre,community centre,norfolk county,53,church,N0E 1Y0,waterford,on
6404,Waterford Tricenturena,arena,niagara region,32,church,N0E 1Y0,..,on
7374,Audrey. S. Hellyer Memorial Park,sports field,niagara region,32,church,..,..,on
8964,Benson And Hedges Sports Park,sports field,norfolk county,547,main,..,..,on
10107,Colonel Stalker Park,sports field,niagara region,390,cedar,..,..,on
10235,Courtland Lions Community Park,sports field,niagara region,329,main,..,..,on
10236,Courtland Lions Community Park,sports field,norfolk county,329,main,..,..,on
10432,Delhi Golf And Country Club,sports field,niagara region,905,james,N4B 200,..,on
10433,Delhi Sports Park,sports field,niagara region,144,western,..,..,on
11725,Harry Misner Memorial Park,sports field,niagara region,1025,main,..,..,on
12506,Kinsmen Park,sports field,niagara region,140,windham,..,..,on
12507,Kinsmen Park,sports field,niagara region,95,hamilton plank,..,..,on
12876,Langton Community Park,sports field,niagara region,28,albert,..,..,on
12877,Langton Lions Sports Park & Arena,sports field,norfolk county,30,albert,..,..,on
12878,Langton Soccer Field,sports field,norfolk county,26,albert,..,..,on
13068,Links At Dover Coast Golf Course,sports field,niagara region,169,new lakeshore,N0A 1N0,..,on
13076,Lions Ball Park,sports field,niagara region,75,davis,..,..,on
13084,Lions Community Park,sports field,norfolk county,329,main,..,..,on
13096,Lions Soccer Field,sports field,norfolk county,320,patrick,..,..,on
13204,Lynn Meadows Golf And Country Club,sports field,niagara region,580,lynn valley,N0A 1N0,..,on
13205,Lynndale Heights Soccer Field,sports field,norfolk county,31,donly,..,..,on
13578,Memorial Park,sports field,niagara region,273,owen,..,..,on
13994,Norfolk Golf And Country Club,sports field,niagara region,200,argyle,N3Y 4L5,..,on
13995,Norfolk Youth Soccer Park,sports field,norfolk county,660,west,..,..,on
14725,Percy Carter Park,sports field,norfolk county,255,talbot,..,..,on
14771,Pine Valley Golf Club,sports field,niagara region,1148,24,N3Y 4K3,..,on
14783,Pinegrove Tennis Court,sports field,norfolk county,15,lyndhurst,..,..,on
14867,Port Dover Sports Park,sports field,norfolk county,805,george,..,..,on
14870,Port Rowan Tennis Courts,sports field,norfolk county,8,college,..,..,on
14871,Port Rowan Water Tower Park,sports field,niagara region,1086,bay,..,..,on
16961,Springview Farm Golf Course,sports field,niagara region,657,culver side,N0E 1Y0,..,on
17249,St. Williams Lions Community Park,sports field,niagara region,114,queen,..,..,on
17277,Stark's Golf Course,sports field,niagara region,60,dedrick,N0E 1M0,..,on
17693,The Greens At Renton,sports field,niagara region,969,concession,N3Y 4K3,..,on
17748,Tillsonview Fairways,sports field,niagara region,380,concession,N4G 4G9,..,on
17886,Turkey Point Provincial Park Golf Course,sports field,niagara region,76,old hill,..,..,on
