Index,Facility_Name,ODRSF_facility_type,Provider,Street_No,Street_Name,Postal_Code,City,Prov_Terr
26034,Dump Run,trail,norfolk county,..,..,..,..,on
26139,"Earl, Danylevich Tract Trail",trail,norfolk county,..,..,..,..,on
26140,"Earl, Danylevich Tract Trail",trail,norfolk county,..,..,..,..,on
26141,Earshot,trail,norfolk county,..,..,..,..,on
26228,East Ridge Trail,trail,norfolk county,..,..,..,..,on
26468,Emergency Access Road,trail,norfolk county,..,..,..,..,on
26592,Espresso,trail,norfolk county,..,..,..,..,on
26965,Fin And Feather,trail,norfolk county,..,..,..,..,on
27068,Fisher Tract Trail,trail,norfolk county,..,..,..,..,on
27162,Floodplain Trail,trail,norfolk county,..,..,..,..,on
27236,Forest Capital Of Canada Trail,trail,norfolk county,..,..,..,..,on
27237,Forest Capital Of Canada Trail,trail,norfolk county,..,..,..,..,on
27238,Forest Capital Of Canada Trail,trail,norfolk county,..,..,..,..,on
27522,Four Oaks Trail,trail,norfolk county,..,..,..,..,on
27528,Fox On The Run,trail,norfolk county,..,..,..,..,on
27858,Gasline,trail,norfolk county,..,..,..,..,on
28814,Hahn Marsh Trail,trail,norfolk county,..,..,..,..,on
29070,Harvest Glen Trail,trail,norfolk county,..,..,..,..,on
29092,Hay Creek Trail,trail,norfolk county,..,..,..,..,on
29100,Heart Of Windham Cycling Route,trail,norfolk county,..,..,..,..,on
29504,High Mile,trail,norfolk county,..,..,..,..,on
29697,Hot Flash,trail,norfolk county,..,..,..,..,on
29709,Howie Down,trail,norfolk county,..,..,..,..,on
29839,Humpback,trail,norfolk county,..,..,..,..,on
30863,Jimmy's Joker,trail,norfolk county,..,..,..,..,on
35128,Lam Jong Trail,trail,norfolk county,..,..,..,..,on
35177,Langton 3Km Urban Walking Route,trail,norfolk county,..,..,..,..,on
35178,Langton 5Km Urban Walking Route,trail,norfolk county,..,..,..,..,on
35335,Lee Brown Marsh Viewing Area,trail,norfolk county,..,..,..,..,on
35507,Lehman Dam Trail,trail,norfolk county,..,..,..,..,on
35790,Lions Trail,trail,norfolk county,..,..,..,..,on
36038,Long Point Bird Observatory Trail,trail,norfolk county,..,..,..,..,on
36039,Long Point Inner Bay Canoe Route,trail,norfolk county,..,..,..,..,on
36042,Lookout Bluff Trail,trail,norfolk county,..,..,..,..,on
36098,Lower Big Creek Trail,trail,norfolk county,..,..,..,..,on
36127,Luke Lake,trail,norfolk county,..,..,..,..,on
36128,Luke Lake,trail,norfolk county,..,..,..,..,on
36136,Lynn River Heights Trail,trail,norfolk county,..,..,..,..,on
36137,Lynn Valley Trail,trail,norfolk county,..,..,..,..,on
36138,Lynnwood Clifton Trail,trail,norfolk county,..,..,..,..,on
36139,Lynnwood Park Trail,trail,norfolk county,..,..,..,..,on
36140,Lynnwood Park Trail,trail,norfolk county,..,..,..,..,on
36143,Mabee's Ridge Trail,trail,norfolk county,..,..,..,..,on
43079,Martin Up,trail,norfolk county,..,..,..,..,on
43612,Methane,trail,norfolk county,..,..,..,..,on
43730,Mill Pond Trail,trail,norfolk county,..,..,..,..,on
44414,Motorhead,trail,norfolk county,..,..,..,..,on
44775,Nature Trail,trail,norfolk county,..,..,..,..,on
48243,Norfolk Sunrise Trail,trail,norfolk county,..,..,..,..,on
