Index,Facility_Name,ODRSF_facility_type,Provider,Street_No,Street_Name,Postal_Code,City,Prov_Terr
48613,One For The Vine,trail,norfolk county,..,..,..,..,on
48614,One For The Vine,trail,norfolk county,..,..,..,..,on
48932,Pail Trail,trail,norfolk county,..,..,..,..,on
49836,Pettifrogger,trail,norfolk county,..,..,..,..,on
49844,Picetum,trail,norfolk county,..,..,..,..,on
49854,Pile Driver,trail,norfolk county,..,..,..,..,on
49923,Planet Of The Apes,trail,norfolk county,..,..,..,..,on
49924,Planet Of The Apes Road,trail,norfolk county,..,..,..,..,on
50221,Port Dover 10Km Running Route,trail,norfolk county,..,..,..,..,on
50222,Port Dover 15Km Running Route,trail,norfolk county,..,..,..,..,on
50223,Port Dover 20Km Running Route,trail,norfolk county,..,..,..,..,on
50224,Port Dover 3Km Urban Walking Route,trail,norfolk county,..,..,..,..,on
50225,Port Dover 5Km Urban Walking Route,trail,norfolk county,..,..,..,..,on
50226,Port Dover 5Km Urban Walking Route,trail,norfolk county,..,..,..,..,on
50227,Port Rowan 3Km Urban Walking Route,trail,norfolk county,..,..,..,..,on
50228,Port Rowan 5Km Urban Walking Route,trail,norfolk county,..,..,..,..,on
50229,Port Rowan Parkette Trail,trail,norfolk county,..,..,..,..,on
50230,Port Rowan Pier,trail,norfolk county,..,..,..,..,on
50231,Port Rowan Skatepark Trail,trail,norfolk county,..,..,..,..,on
50232,Port Rowan Wetlands Trail,trail,norfolk county,..,..,..,..,on
50233,Port Royal Cemetery Trail,trail,norfolk county,..,..,..,..,on
50234,Port Ryerse 20Km Running Route,trail,norfolk county,..,..,..,..,on
50235,Port Town Tour Cycling Route,trail,norfolk county,..,..,..,..,on
50283,Powell Park Trail,trail,norfolk county,..,..,..,..,on
50429,Quance Park Trail,trail,norfolk county,..,..,..,..,on
50523,Rainbow Ridge,trail,norfolk county,..,..,..,..,on
50747,Recycler,trail,norfolk county,..,..,..,..,on
51078,Riverfront Trail,trail,norfolk county,..,..,..,..,on
51320,Roller Coaster,trail,norfolk county,..,..,..,..,on
51327,Root Rock,trail,norfolk county,..,..,..,..,on
51469,Roughshod,trail,norfolk county,..,..,..,..,on
51472,Roundabout,trail,norfolk county,..,..,..,..,on
51624,Rowan Mills Trail,trail,norfolk county,..,..,..,..,on
51625,Rowanwood Sanctuary Trail,trail,norfolk county,..,..,..,..,on
51727,Rum Runner,trail,norfolk county,..,..,..,..,on
51957,Sassafras Trail,trail,norfolk county,..,..,..,..,on
51958,Saudwinder,trail,norfolk county,..,..,..,..,on
52155,Shadow Lake Trail,trail,norfolk county,..,..,..,..,on
52156,Shadow Lake Trail Ext.,trail,norfolk county,..,..,..,..,on
53753,Simcoe 10Km Running Route,trail,norfolk county,..,..,..,..,on
53754,Simcoe 15Km Running Route,trail,norfolk county,..,..,..,..,on
53755,Simcoe 20Km Running Route,trail,norfolk county,..,..,..,..,on
53756,Simcoe 30Km Running Route,trail,norfolk county,..,..,..,..,on
53757,Simcoe 3Km Urban Walking Route,trail,norfolk county,..,..,..,..,on
53758,Simcoe 5Km Urban Walking Route,trail,norfolk county,..,..,..,..,on
53759,Simcoe 5Km Urban Walking Route,trail,norfolk county,..,..,..,..,on
53791,Simcoe To Port Dover 30Km Running Route,trail,norfolk county,..,..,..,..,on
53899,Slipped Disc,trail,norfolk county,..,..,..,..,on
53906,Smith Tract Trail,trail,norfolk county,..,..,..,..,on
