Index,Facility_Name,ODRSF_facility_type,Provider,Street_No,Street_Name,Postal_Code,City,Prov_Terr
55291,Toxicity,trail,norfolk county,..,..,..,..,on
62759,Trick Of The Trail,trail,norfolk county,..,..,..,..,on
62774,Triple Shred,trail,norfolk county,..,..,..,..,on
62814,Turbine Tour Cycling Route,trail,norfolk county,..,..,..,..,on
62815,Turkey Point 15Km Running Route,trail,norfolk county,..,..,..,..,on
62816,Turkey Point 20Km Running Route,trail,norfolk county,..,..,..,..,on
62817,Turkey Point 30Km Running Route,trail,norfolk county,..,..,..,..,on
62849,Twisted Sister,trail,norfolk county,..,..,..,..,on
65235,Villages Of Long Point Bay Trail,trail,norfolk county,..,..,..,..,on
65255,Vittoria Ca Trail,trail,norfolk county,..,..,..,..,on
65256,Vittoria Ca Trail,trail,norfolk county,..,..,..,..,on
66267,Walsingham Flats Trail,trail,norfolk county,..,..,..,..,on
66685,Waterford 10Km Running Route,trail,norfolk county,..,..,..,..,on
66686,Waterford 20Km Running Route,trail,norfolk county,..,..,..,..,on
66687,Waterford 30Km Running Route,trail,norfolk county,..,..,..,..,on
66688,Waterford 3Km Urban Walking Route,trail,norfolk county,..,..,..,..,on
66689,Waterford 5Km Urban Walking Route,trail,norfolk county,..,..,..,..,on
66690,Waterford Heritage Trail,trail,norfolk county,..,..,..,..,on
66691,Waterford North Ca Canoe Route,trail,norfolk county,..,..,..,..,on
66692,Waterford Ponds Canoe Route,trail,norfolk county,..,..,..,..,on
67062,Waterfront Trail Cycling Route,trail,norfolk county,..,..,..,..,on
67265,Wedowmaker,trail,norfolk county,..,..,..,..,on
67294,Wellington Park Trail,trail,norfolk county,..,..,..,..,on
67295,Wellington Park Trail,trail,norfolk county,..,..,..,..,on
67296,Wellington Park Trail,trail,norfolk county,..,..,..,..,on
67432,West Ridge,trail,norfolk county,..,..,..,..,on
67506,Weston Family Trail,trail,norfolk county,..,..,..,..,on
67536,Wetland Trail,trail,norfolk county,..,..,..,..,on
67541,Whiskey Jack,trail,norfolk county,..,..,..,..,on
67565,Whitetail,trail,norfolk county,..,..,..,..,on
67691,Wild Turkey,trail,norfolk county,..,..,..,..,on
67974,Wilsonville Tour Cycling Route,trail,norfolk county,..,..,..,..,on
68000,Wine Tour Cycling Route,trail,norfolk county,..,..,..,..,on
68001,Winery Road,trail,norfolk county,..,..,..,..,on
69947,Woodway Trail,trail,norfolk county,..,..,..,..,on
70894,..,trail,norfolk county,..,..,..,..,on
70895,..,trail,norfolk county,..,..,..,..,on
70896,..,trail,norfolk county,..,..,..,..,on
70897,..,trail,norfolk county,..,..,..,..,on
99511,..,trail,province of ontario,..,..,..,..,on
99512,..,trail,province of ontario,..,..,..,..,on
99513,..,trail,province of ontario,..,..,..,..,on
99514,..,trail,province of ontario,..,..,..,..,on
99515,..,trail,province of ontario,..,..,..,..,on
99516,..,trail,province of ontario,..,..,..,..,on
99517,..,trail,province of ontario,..,..,..,..,on
99518,..,trail,province of ontario,..,..,..,..,on
99519,..,trail,province of ontario,..,..,..,..,on
99520,..,trail,province of ontario,..,..,..,..,on
