Index,Facility_Name,ODRSF_facility_type,Provider,Street_No,Street_Name,Postal_Code,City,Prov_Terr
163311,Bill's Corners Park,park,norfolk county,37,bill's corners,..,..,on
163430,Bloomsburg Park,park,norfolk county,226,24,..,..,on
163440,Blue Line Mill Parkette,park,norfolk county,..,alice,..,..,on
163686,Briarwood Acres Park,park,norfolk county,21,thorncliffe,..,..,on
164456,Centennial Park,park,norfolk county,154,western,..,..,on
164622,Charlotteville Agricultural Society And Fairground,park,norfolk county,1258,turkey point,..,..,on
164881,Clifton Park,park,norfolk county,243,norfolk,..,..,on
164978,Colonel Stalker Park,park,norfolk county,390,cedar,..,..,on
165246,Courtland Lions Community Park,park,norfolk county,329,main,..,..,on
165351,Crestlynn Park,park,norfolk county,29,donly,..,..,on
165624,Delcrest Park,park,norfolk county,366,delcrest,..,..,on
165625,Delhi Lions Park,park,norfolk county,62,crossier,..,..,on
165626,Delhi Quance Park,park,norfolk county,230,talbot,..,..,on
165627,Delhi Sports Park,park,norfolk county,144,western,..,..,on
165651,Denby Park / Blvd,park,norfolk county,..,..,..,..,on
165826,Don Shay Memorial Park,park,norfolk county,30,hunt,..,..,on
166557,Evergreen Heights Park,park,norfolk county,33,brock,..,..,on
166640,Fairview Heights Park,park,norfolk county,72,st michael's,..,..,on
167105,Freeman Crescent Park,park,norfolk county,10,freeman,..,..,on
167559,Golden Gardens Park,park,norfolk county,330,queen,..,..,on
167754,Grant Anderson Park And Wellington Park,park,norfolk county,50,bonnie,..,..,on
168097,Harry Misner Memorial Park/Port Dover Lions Club,park,norfolk county,1025,main,..,..,on
168559,Holmewood Park,park,norfolk county,17,oak,..,..,on
169591,Kinsmen Park,park,norfolk county,95,hamilton plank,..,..,on
170025,Lakeview Park,park,norfolk county,3,dixon,..,..,on
170056,Lamport Park,park,norfolk county,1538,old brock,..,..,on
170098,Langton Community Park,park,norfolk county,28,albert,..,..,on
170395,Lingwood Park,park,norfolk county,39,lingwood,..,..,on
170411,Lions Ball Park,park,norfolk county,75,davis,..,..,on
170531,Long Point Lions Park,park,norfolk county,40,sea queen,..,..,on
170677,Lynn Park,park,norfolk county,17,willowdale,..,..,on
170678,Lynndale Heights Park,park,norfolk county,31,donly,..,..,on
170687,Lynnwood Park,park,norfolk county,91,norfolk,..,..,on
171422,Memorial Park,park,norfolk county,45,church,..,..,on
172464,Oakwood Park,park,norfolk county,16,oakwood,..,..,on
172510,Old Dump Parkette,park,norfolk county,317,concession,..,..,on
173793,Percy Carter Park,park,norfolk county,255,talbot,..,..,on
173795,Percy Ryerse Park,park,norfolk county,20,lasalle,..,..,on
173915,Pinehurst Park,park,norfolk county,15,lyndhurst,..,..,on
174050,Port Dover Sports Park,park,norfolk county,805,george,..,..,on
174055,Port Rowan Community Park,park,norfolk county,1084,bay,..,..,on
174056,Port Rowan Optimist Park,park,norfolk county,34,price,..,..,on
174057,Port Rowan Parkette,park,norfolk county,3,front,..,..,on
174058,Port Rowan Water Tower Park,park,norfolk county,1086,bay,..,..,on
174086,Powell Park,park,norfolk county,250,main,..,..,on
174735,Riverfront Park,park,norfolk county,52,harbour,..,..,on
175596,Schneider Memorial Park,park,norfolk county,15,hamilton plank,..,..,on
175944,Simson Park,park,norfolk county,39,simson,..,..,on
176075,Somerset Park,park,norfolk county,32,somerset,..,..,on
