Index,Facility_Name,ODRSF_facility_type,Provider,Street_No,Street_Name,Postal_Code,City,Prov_Terr
54103,Spinal Tap,trail,norfolk county,..,..,..,..,on
54388,Stormin' Norman,trail,norfolk county,..,..,..,..,on
54418,Stroller,trail,norfolk county,..,..,..,..,on
54461,Sugarbush Trail,trail,norfolk county,..,..,..,..,on
54478,Summit,trail,norfolk county,..,..,..,..,on
54555,Sutton Ca Trail,trail,norfolk county,..,..,..,..,on
54628,Swcr Multi Use Trail,trail,norfolk county,..,..,..,..,on
54629,Swcr Multi Use Trail,trail,norfolk county,..,..,..,..,on
54630,Swcr Multi Use Trail,trail,norfolk county,..,..,..,..,on
54631,Swcr Multi Use Trail,trail,norfolk county,..,..,..,..,on
54632,Swcr Multi Use Trail,trail,norfolk county,..,..,..,..,on
54633,Swcr Multi Use Trail,trail,norfolk county,..,..,..,..,on
54634,Swcr Multi Use Trail,trail,norfolk county,..,..,..,..,on
54635,Swcr Multi Use Trail,trail,norfolk county,..,..,..,..,on
54636,Swcr Multi Use Trail,trail,norfolk county,..,..,..,..,on
54637,Swcr Multi Use Trail,trail,norfolk county,..,..,..,..,on
54638,Swcr Multi Use Trail,trail,norfolk county,..,..,..,..,on
54639,Swcr Multi Use Trail,trail,norfolk county,..,..,..,..,on
54640,Swcr Multi Use Trail,trail,norfolk county,..,..,..,..,on
54641,Swcr Multi Use Trail,trail,norfolk county,..,..,..,..,on
54642,Swcr Multi Use Trail,trail,norfolk county,..,..,..,..,on
54643,Swcr Multi Use Trail,trail,norfolk county,..,..,..,..,on
54644,Swcr Multi Use Trail,trail,norfolk county,..,..,..,..,on
54645,Swcr Multi Use Trail,trail,norfolk county,..,..,..,..,on
54646,Swcr Multi Use Trail,trail,norfolk county,..,..,..,..,on
54647,Swcr Multi Use Trail,trail,norfolk county,..,..,..,..,on
54648,Swcr Multi Use Trail,trail,norfolk county,..,..,..,..,on
54649,Swcr Multi Use Trail,trail,norfolk county,..,..,..,..,on
54650,Swcr Multi Use Trail,trail,norfolk county,..,..,..,..,on
54651,Swcr Multi Use Trail,trail,norfolk county,..,..,..,..,on
54652,Swcr Multi Use Trail,trail,norfolk county,..,..,..,..,on
54653,Swcr Multi Use Trail,trail,norfolk county,..,..,..,..,on
54654,Swcr Multi Use Trail,trail,norfolk county,..,..,..,..,on
54655,Swcr Multi Use Trail,trail,norfolk county,..,..,..,..,on
54656,Swcr Multi Use Trail,trail,norfolk county,..,..,..,..,on
54657,Swcr Multi Use Trail,trail,norfolk county,..,..,..,..,on
54658,Swcr Multi Use Trail,trail,norfolk county,..,..,..,..,on
54659,Swcr Multi-Use Trail,trail,norfolk county,..,..,..,..,on
54660,Swcr Multi-Use Trail,trail,norfolk county,..,..,..,..,on
54661,Swcr Multi-Use Trail,trail,norfolk county,..,..,..,..,on
54662,Swcr Trail,trail,norfolk county,..,..,..,..,on
54663,Swcr Trail,trail,norfolk county,..,..,..,..,on
54664,Swcr Trail,trail,norfolk county,..,..,..,..,on
54671,Swick King Tract Trail,trail,norfolk county,..,..,..,..,on
54672,Swick King Tract Trail,trail,norfolk county,..,..,..,..,on
54679,Talbot Tour Cycling Route,trail,norfolk county,..,..,..,..,on
54915,The 226,trail,norfolk county,..,..,..,..,on
54976,The Burn,trail,norfolk county,..,..,..,..,on
54992,The Grind,trail,norfolk county,..,..,..,..,on
