Index,Facility_Name,ODRSF_facility_type,Provider,Street_No,Street_Name,Postal_Code,City,Prov_Terr
18052,Vittoria Ball Park,sports field,niagara region,15,firefighters,..,..,on
18053,Vittoria Tennis Court,sports field,norfolk county,17,oakes,..,..,on
18169,Waterford Tennis Courts,sports field,norfolk county,32,church,..,..,on
18177,Waterworks Park,sports field,niagara region,266,chapel,..,..,on
18320,Westwood Park,sports field,norfolk county,20,virginia,..,..,on
18442,Wind-Del Park,sports field,niagara region,3178,nixon,..,..,on
18443,Win-Del Park,sports field,norfolk county,3178,nixon,..,..,on
18547,Woodside Greens Golf Park,sports field,niagara region,847,10,N3Y 4J9,..,on
19434,1St Concession Trail,trail,norfolk county,..,..,..,..,on
20454,Andy And Helen Spriet Trail,trail,norfolk county,..,..,..,..,on
20613,Antique Tour Cycling Route,trail,norfolk county,..,..,..,..,on
21041,Attawandaron Cycling Route,trail,norfolk county,..,..,..,..,on
21928,Big Creek Canoe Route,trail,norfolk county,..,..,..,..,on
21929,Big Creek Circle Cycling Route,trail,norfolk county,..,..,..,..,on
21930,Big Creek National Wildlife Area Trail,trail,norfolk county,..,..,..,..,on
21931,Big Easy,trail,norfolk county,..,..,..,..,on
21932,Big Easy South,trail,norfolk county,..,..,..,..,on
21934,Big Mike,trail,norfolk county,..,..,..,..,on
21959,Bird Studies Canada Trail,trail,norfolk county,..,..,..,..,on
22010,Black Creek Ca Trail,trail,norfolk county,..,..,..,..,on
22011,Black Creek Ca Trail,trail,norfolk county,..,..,..,..,on
22759,Brook Ca Trail,trail,norfolk county,..,..,..,..,on
23149,Cab Frank,trail,norfolk county,..,..,..,..,on
23500,Carolinian Tour Cycling Route,trail,norfolk county,..,..,..,..,on
23763,Centennial Park Trail,trail,norfolk county,..,..,..,..,on
24252,Clifton Park Trail,trail,norfolk county,..,..,..,..,on
24253,Clifton Park Trail,trail,norfolk county,..,..,..,..,on
24254,Clifton Park Trail,trail,norfolk county,..,..,..,..,on
24255,Clifton Park Trail,trail,norfolk county,..,..,..,..,on
24256,Clifton Park Trail,trail,norfolk county,..,..,..,..,on
24539,Commando,trail,norfolk county,..,..,..,..,on
24541,Compromise,trail,norfolk county,..,..,..,..,on
24582,Connector Trail,trail,norfolk county,..,..,..,..,on
24583,Connector Trail,trail,norfolk county,..,..,..,..,on
24588,Connector Trial,trail,norfolk county,..,..,..,..,on
24625,Coppens Ferris Armstrong Tract Trail,trail,norfolk county,..,..,..,..,on
24627,Coppens Ferris Armstrong Tract Trail,trail,norfolk county,..,..,..,..,on
24782,Cottonwood Trail,trail,norfolk county,..,..,..,..,on
24868,Courtland 3Km Urban Walking Route,trail,norfolk county,..,..,..,..,on
24869,Courtland 5Km Urban Walking Route,trail,norfolk county,..,..,..,..,on
25088,Crown Marsh Trail,trail,norfolk county,..,..,..,..,on
25342,Deer Creek Conservation Area,trail,norfolk county,..,..,..,..,on
25384,Definite Mabee,trail,norfolk county,..,..,..,..,on
25397,Delhi 10Km Running Route,trail,norfolk county,..,..,..,..,on
25398,Delhi 15Km Running Route,trail,norfolk county,..,..,..,..,on
25400,Delhi 3Km Urban Walking Route,trail,norfolk county,..,..,..,..,on
25401,Delhi 5Km Urban Walking Route,trail,norfolk county,..,..,..,..,on
25402,Delhi Rail Trail,trail,norfolk county,..,..,..,..,on
25627,Dizzy Lizzy Trail,trail,norfolk county,..,..,..,..,on
