Index,Facility_Name,ODRSF_facility_type,Provider,Street_No,Street_Name,Postal_Code,City,Prov_Terr
19712,6C-Fordview Trail,trail,brantford,..,..,..,..,on
19713,6C-Fordview Trail,trail,brantford,..,..,..,..,on
19714,6C-Fordview Trail,trail,brantford,..,..,..,..,on
19715,6C-Fordview Trail,trail,brantford,..,..,..,..,on
19716,6C-Fordview Trail,trail,brantford,..,..,..,..,on
19718,8-East Of Erie Dike Trail,trail,brantford,..,..,..,..,on
19719,8-East Of Erie Dike Trail,trail,brantford,..,..,..,..,on
19772,9A-Mohawk To Locks Trail,trail,brantford,..,..,..,..,on
19773,9A-Mohawk To Locks Trail,trail,brantford,..,..,..,..,on
19774,9A-Mohawk To Locks Trail,trail,brantford,..,..,..,..,on
19775,9B-Forest Rd Trail,trail,brantford,..,..,..,..,on
19776,9B-Forest Rd Trail,trail,brantford,..,..,..,..,on
19777,9B-Forest Rd Trail,trail,brantford,..,..,..,..,on
19778,9B-Forest Rd Trail,trail,brantford,..,..,..,..,on
19779,9B-Forest Rd Trail,trail,brantford,..,..,..,..,on
20381,Alexandra Park,trail,brantford,..,..,..,..,on
20450,Andrew W. Pate Park,trail,brantford,..,..,..,..,on
20451,Andrew W. Pate Park,trail,brantford,..,..,..,..,on
20452,Andrew W. Pate Park,trail,brantford,..,..,..,..,on
20453,Andrew W. Pate Park,trail,brantford,..,..,..,..,on
20604,Anne Good Park,trail,brantford,..,..,..,..,on
20883,Armouries Gore Park,trail,brantford,..,..,..,..,on
20884,Armouries Gore Park,trail,brantford,..,..,..,..,on
21558,Bell Memorial Park,trail,brantford,..,..,..,..,on
21566,Bellview Community Hall,trail,brantford,..,..,..,..,on
21567,Bellview Park,trail,brantford,..,..,..,..,on
21568,Bellview Park,trail,brantford,..,..,..,..,on
21569,Bellview Park,trail,brantford,..,..,..,..,on
21951,Billli,trail,brantford,..,..,..,..,on
22043,Blackburn Storm Water Management Pond,trail,brantford,..,..,..,..,on
22044,Blackburn Storm Water Management Pond,trail,brantford,..,..,..,..,on
22045,Blackburn Storm Water Management Pond,trail,brantford,..,..,..,..,on
22500,Branlyn Community Centre,trail,brantford,..,..,..,..,on
22712,Bridle Path Park,trail,brantford,..,..,..,..,on
22713,Bridle Path Park,trail,brantford,..,..,..,..,on
22726,Brier Park,trail,brantford,..,..,..,..,on
22727,Brier Park,trail,brantford,..,..,..,..,on
22728,Brier Park,trail,brantford,..,..,..,..,on
23281,Cameron,trail,brantford,..,..,..,..,on
23282,Cameron,trail,brantford,..,..,..,..,on
23283,Cameron,trail,brantford,..,..,..,..,on
23706,Cedarland Park,trail,brantford,..,..,..,..,on
23757,Centennial Park,trail,brantford,..,..,..,..,on
23758,Centennial Park,trail,brantford,..,..,..,..,on
24154,Civic Centre,trail,brantford,..,..,..,..,on
24155,Cj's Park,trail,brantford,..,..,..,..,on
24374,Cockshutt Park,trail,brantford,..,..,..,..,on
24375,Cockshutt Park,trail,brantford,..,..,..,..,on
24567,Connaught Park,trail,brantford,..,..,..,..,on
