Index,Facility_Name,ODRSF_facility_type,Provider,Street_No,Street_Name,Postal_Code,City,Prov_Terr
10610,Dufferin Soccer,sports field,brantford,..,..,..,..,on
10611,Dufferin Softball,sports field,brantford,..,..,..,..,on
10671,Earl Batting Cage,sports field,brantford,..,..,..,..,on
10677,Earl Volley Ball,sports field,brantford,..,..,..,..,on
10726,Echo Baseball,sports field,brantford,..,..,..,..,on
10858,Enclosure,sports field,brantford,..,..,..,..,on
11341,George Henry,sports field,brantford,..,..,..,..,on
11579,Green Field,sports field,brantford,..,..,..,..,on
11580,Green Field,sports field,brantford,..,..,..,..,on
11595,Greenbrier Park,sports field,brantford,..,..,..,..,on
11596,Greenbrier Park,sports field,brantford,..,..,..,..,on
11622,Gretzky Enclosure,sports field,brantford,..,..,..,..,on
11692,Hardball,sports field,brantford,..,..,..,..,on
11969,Holmedale Park,sports field,brantford,..,..,..,..,on
12143,Iroquois Batting,sports field,brantford,..,..,..,..,on
12223,Jaycee Football,sports field,brantford,..,..,..,..,on
12543,Kiwanis Field,sports field,brantford,..,..,..,..,on
12544,Kiwanis Field,sports field,brantford,..,..,..,..,on
13174,Lower,sports field,brantford,..,..,..,..,on
13200,Lynden Hills Youth,sports field,brantford,..,..,..,..,on
13775,Mohawk Bocce,sports field,brantford,..,..,..,..,on
13778,Mohawk Soccer,sports field,brantford,..,..,..,..,on
13779,Mohawk Volley Ball,sports field,brantford,..,..,..,..,on
14021,North Park Track,sports field,brantford,..,..,..,..,on
14155,Orange Field,sports field,brantford,..,..,..,..,on
14159,Orchard Baseball,sports field,brantford,..,..,..,..,on
14689,Parson Park,sports field,brantford,..,..,..,..,on
14837,Pleasant Baseball,sports field,brantford,..,..,..,..,on
14893,Prince Charles,sports field,brantford,..,..,..,..,on
15189,Recreation Park,sports field,brantford,..,..,..,..,on
15190,Red,sports field,brantford,..,..,..,..,on
15195,Red Diamond,sports field,brantford,..,..,..,..,on
15196,Red Diamond,sports field,brantford,..,..,..,..,on
15197,Red Diamond,sports field,brantford,..,..,..,..,on
15198,Red Diamond,sports field,brantford,..,..,..,..,on
15199,Red Diamond,sports field,brantford,..,..,..,..,on
15200,Red Diamond,sports field,brantford,..,..,..,..,on
15201,Red Diamond,sports field,brantford,..,..,..,..,on
15202,Red Field,sports field,brantford,..,..,..,..,on
15203,Red Field,sports field,brantford,..,..,..,..,on
15204,Red Field,sports field,brantford,..,..,..,..,on
15205,Red Field,sports field,brantford,..,..,..,..,on
15206,Red Field,sports field,brantford,..,..,..,..,on
15207,Red Field,sports field,brantford,..,..,..,..,on
15379,Robert Moore Soccer,sports field,brantford,..,..,..,..,on
15842,Silverbridge Soccer,sports field,brantford,..,..,..,..,on
15897,Skate Park,sports field,brantford,..,..,..,..,on
16948,Spring G Soccer,sports field,brantford,..,..,..,..,on
16949,Spring Garden,sports field,brantford,..,..,..,..,on
