Index,Facility_Name,ODRSF_facility_type,Provider,Street_No,Street_Name,Postal_Code,City,Prov_Terr
25269,D'Aubigny Creek Park,trail,brantford,..,..,..,..,on
25270,D'Aubigny Creek Park,trail,brantford,..,..,..,..,on
25757,Donegal Park,trail,brantford,..,..,..,..,on
25998,Dufferin Park,trail,brantford,..,..,..,..,on
25999,Dufferin Park,trail,brantford,..,..,..,..,on
26099,Dunsdon St Park,trail,brantford,..,..,..,..,on
26130,Eagle Place Community Centre,trail,brantford,..,..,..,..,on
26137,Earl Haig Family Fun Park,trail,brantford,..,..,..,..,on
26138,Earl Haig Family Fun Park,trail,brantford,..,..,..,..,on
26302,Edward E. Goold Park Edward E. Goold Park,trail,brantford,..,..,..,..,on
26323,Elgin Park,trail,brantford,..,..,..,..,on
27183,Fordview Park,trail,brantford,..,..,..,..,on
27296,Forest In The City,trail,brantford,..,..,..,..,on
28026,Gilkiso,trail,brantford,..,..,..,..,on
28706,Grey To End Of Henry,trail,brantford,..,..,..,..,on
28931,Harmony Square,trail,brantford,..,..,..,..,on
29672,Holmedale Park,trail,brantford,..,..,..,..,on
30815,Jaycee Park,trail,brantford,..,..,..,..,on
30816,Jaycee Park,trail,brantford,..,..,..,..,on
30817,Jaycee Park,trail,brantford,..,..,..,..,on
30818,Jaycee Park,trail,brantford,..,..,..,..,on
30819,Jaycee Park,trail,brantford,..,..,..,..,on
30820,Jaycee Park,trail,brantford,..,..,..,..,on
31106,Johnson Park,trail,brantford,..,..,..,..,on
31166,Jubilee Terrace,trail,brantford,..,..,..,..,on
35738,Lincoln Square,trail,brantford,..,..,..,..,on
35787,Lions Park Arena,trail,brantford,..,..,..,..,on
35788,Lions Park Arena,trail,brantford,..,..,..,..,on
36135,Lynden,trail,brantford,..,..,..,..,on
43134,Mayor'S,trail,brantford,..,..,..,..,on
44096,Mission Park,trail,brantford,..,..,..,..,on
44235,Mohawk Park,trail,brantford,..,..,..,..,on
44236,Mohawk Park,trail,brantford,..,..,..,..,on
49389,Parson',trail,brantford,..,..,..,..,on
49390,Parson',trail,brantford,..,..,..,..,on
50385,Preston Park,trail,brantford,..,..,..,..,on
50389,Princess Anne Park,trail,brantford,..,..,..,..,on
50903,Regent Park,trail,brantford,..,..,..,..,on
51368,Roswell,trail,brantford,..,..,..,..,on
52158,Shallow Creek Park,trail,brantford,..,..,..,..,on
52159,Shallow Creek Park,trail,brantford,..,..,..,..,on
52160,Shallow Creek Park,trail,brantford,..,..,..,..,on
52161,Shallow Creek Park,trail,brantford,..,..,..,..,on
52208,Sheri-Mar Park,trail,brantford,..,..,..,..,on
54152,Springg,trail,brantford,..,..,..,..,on
54235,St. Andrew Park,trail,brantford,..,..,..,..,on
54324,Steveb,trail,brantford,..,..,..,..,on
54325,Steveb,trail,brantford,..,..,..,..,on
55166,Tom Thumb Park,trail,brantford,..,..,..,..,on
