Index,Facility_Name,ODRSF_facility_type,Provider,Street_No,Street_Name,Postal_Code,City,Prov_Terr
62412,Tranquility Park,trail,brantford,..,..,..,..,on
62413,Tranquility Park,trail,brantford,..,..,..,..,on
62414,Tranquility Park,trail,brantford,..,..,..,..,on
62828,Turtle Pond Park,trail,brantford,..,..,..,..,on
62829,Turtle Pond Park,trail,brantford,..,..,..,..,on
62830,Turtle Pond Park,trail,brantford,..,..,..,..,on
62832,Tutela Park,trail,brantford,..,..,..,..,on
65174,Victoria Park,trail,brantford,..,..,..,..,on
66643,War Memorial Park,trail,brantford,..,..,..,..,on
66668,Warner-Merritt Park,trail,brantford,..,..,..,..,on
67228,Waterworks Park,trail,brantford,..,..,..,..,on
67235,Wayne Gretzky Sports Centre,trail,brantford,..,..,..,..,on
67236,Wayne Gretzky Sports Centre,trail,brantford,..,..,..,..,on
67717,Wilkes Park,trail,brantford,..,..,..,..,on
69922,Woodman Park Community Centre,trail,brantford,..,..,..,..,on
69923,Woodman Park Community Centre,trail,brantford,..,..,..,..,on
84247,..,trail,brantford,..,..,..,..,on
140663,..,trail,province of ontario,..,..,..,..,on
140664,..,trail,province of ontario,..,..,..,..,on
140665,..,trail,province of ontario,..,..,..,..,on
140666,..,trail,province of ontario,..,..,..,..,on
140667,..,trail,province of ontario,..,..,..,..,on
140668,..,trail,province of ontario,..,..,..,..,on
140669,..,trail,province of ontario,..,..,..,..,on
140670,..,trail,province of ontario,..,..,..,..,on
140671,..,trail,province of ontario,..,..,..,..,on
140672,..,trail,province of ontario,..,..,..,..,on
140673,..,trail,province of ontario,..,..,..,..,on
140674,..,trail,province of ontario,..,..,..,..,on
140675,..,trail,province of ontario,..,..,..,..,on
140676,..,trail,province of ontario,..,..,..,..,on
140677,..,trail,province of ontario,..,..,..,..,on
140678,..,trail,province of ontario,..,..,..,..,on
140679,..,trail,province of ontario,..,..,..,..,on
140680,..,trail,province of ontario,..,..,..,..,on
140681,..,trail,province of ontario,..,..,..,..,on
140682,..,trail,province of ontario,..,..,..,..,on
140683,..,trail,province of ontario,..,..,..,..,on
140684,..,trail,province of ontario,..,..,..,..,on
140685,..,trail,province of ontario,..,..,..,..,on
140687,..,trail,province of ontario,..,..,..,..,on
140688,..,trail,province of ontario,..,..,..,..,on
140689,..,trail,province of ontario,..,..,..,..,on
140690,..,trail,province of ontario,..,..,..,..,on
140691,..,trail,province of ontario,..,..,..,..,on
140692,..,trail,province of ontario,..,..,..,..,on
140693,..,trail,province of ontario,..,..,..,..,on
140694,..,trail,province of ontario,..,..,..,..,on
140695,..,trail,province of ontario,..,..,..,..,on
