Index,Facility_Name,ODRSF_facility_type,Provider,Street_No,Street_Name,Postal_Code,City,Prov_Terr
171157,Mayfair Park,park,brantford,..,..,..,..,on
171168,Mayor's Common Park,park,brantford,..,..,..,..,on
171657,Mission Park,park,brantford,..,..,..,..,on
171809,Moose Park,park,brantford,..,..,..,..,on
172607,Orchard Park,park,brantford,..,..,..,..,on
173671,Parson's Park,park,brantford,..,..,..,..,on
173982,Pleasant Ridge Park,park,brantford,..,..,..,..,on
174123,Prince Charles Park,park,brantford,..,..,..,..,on
174140,Princess Anne Park,park,brantford,..,..,..,..,on
174454,Recreation Park,park,brantford,..,..,..,..,on
174749,Rivergreen Park,park,brantford,..,..,..,..,on
174841,Robert Moore Park,park,brantford,..,..,..,..,on
175017,Roswell Park,park,brantford,..,..,..,..,on
175742,Shallow Creek Park,park,brantford,..,..,..,..,on
175827,Sheri-Mar Park,park,brantford,..,..,..,..,on
175908,Silverbridge Park,park,brantford,..,..,..,..,on
176244,Spring Gardens Park,park,brantford,..,..,..,..,on
176246,Spring St. - Buck Park,park,brantford,..,..,..,..,on
177344,Tranquility Park,park,brantford,..,..,..,..,on
177456,Turtle Pond Park,park,brantford,..,..,..,..,on
177459,Tutela Park,park,brantford,..,..,..,..,on
178021,Walter Gretzky Park,park,brantford,..,..,..,..,on
178050,Warner-Merritt Park Warner-Merritt Park,park,brantford,..,..,..,..,on
178283,Westdale Park,park,brantford,..,..,..,..,on
178465,Wilkes Park,park,brantford,..,..,..,..,on
178697,Wood St. Park,park,brantford,..,..,..,..,on
178753,Woodlot (Unnamed In North),park,brantford,..,..,..,..,on
178755,Woodman Park,park,brantford,..,..,..,..,on
