Index,Facility_Name,ODRSF_facility_type,Provider,Street_No,Street_Name,Postal_Code,City,Prov_Terr
17955,Upper,sports field,brantford,..,..,..,..,on
18156,Walter Gretzky Park,sports field,brantford,..,..,..,..,on
18180,Waterworks Park,sports field,brantford,..,..,..,..,on
18182,Waterworks Soccer,sports field,brantford,..,..,..,..,on
18328,Wgsc Football,sports field,brantford,..,..,..,..,on
18386,Wilkes Park,sports field,brantford,..,..,..,..,on
18507,Wood St Soccer,sports field,brantford,..,..,..,..,on
18542,Woodman Swimming,sports field,brantford,..,..,..,..,on
18571,Yellow Diamond,sports field,brantford,..,..,..,..,on
18572,Yellow Diamond,sports field,brantford,..,..,..,..,on
18573,Yellow Diamond,sports field,brantford,..,..,..,..,on
18574,Yellow Diamond,sports field,brantford,..,..,..,..,on
18575,Yellow Field,sports field,brantford,..,..,..,..,on
18576,Yellow Field,sports field,brantford,..,..,..,..,on
18577,Yellow Field,sports field,brantford,..,..,..,..,on
18578,Yellow Field,sports field,brantford,..,..,..,..,on
19328,10-Cainsville Trail,trail,brantford,..,..,..,..,on
19329,10-Cainsville Trail,trail,brantford,..,..,..,..,on
19344,11C-Edmonson To Dunsdon,trail,brantford,..,..,..,..,on
19345,11C-Edmonson To Dunsdon,trail,brantford,..,..,..,..,on
19346,11C-Edmonson To Dunsdon,trail,brantford,..,..,..,..,on
19347,11C-Edmonson To Dunsdon,trail,brantford,..,..,..,..,on
19348,11D-Dunsdon To Powerline,trail,brantford,..,..,..,..,on
19359,12-Powerline To Brantwood Park,trail,brantford,..,..,..,..,on
19366,13A-Shallow Creek Trail,trail,brantford,..,..,..,..,on
19367,13B-Canal Trail,trail,brantford,..,..,..,..,on
19368,13B-Canal Trail,trail,brantford,..,..,..,..,on
19369,13B-Canal Trail,trail,brantford,..,..,..,..,on
19387,15Ada,trail,brantford,..,..,..,..,on
19388,15Ada,trail,brantford,..,..,..,..,on
19389,15Bda,trail,brantford,..,..,..,..,on
19390,15Cda,trail,brantford,..,..,..,..,on
19391,16A-Cn Trail Junction,trail,brantford,..,..,..,..,on
19392,16B-Cn Trail,trail,brantford,..,..,..,..,on
19393,16C-Th&B Rail Trail,trail,brantford,..,..,..,..,on
19394,16Dca,trail,brantford,..,..,..,..,on
19395,17-Shellard Lane Trail,trail,brantford,..,..,..,..,on
19398,18-Veterans Memorial Parkway Trail,trail,brantford,..,..,..,..,on
19399,18-Veterans Memorial Parkway Trail,trail,brantford,..,..,..,..,on
19400,18-Veterans Memorial Parkway Trail,trail,brantford,..,..,..,..,on
19401,18-Veterans Memorial Parkway Trail,trail,brantford,..,..,..,..,on
19402,19-Le&N Rail Trail,trail,brantford,..,..,..,..,on
19403,19-Le&N Rail Trail,trail,brantford,..,..,..,..,on
19404,19-Le&N Rail Trail,trail,brantford,..,..,..,..,on
19405,19-Le&N Rail Trail,trail,brantford,..,..,..,..,on
19406,19-Le&N Rail Trail,trail,brantford,..,..,..,..,on
19407,19-Le&N Rail Trail,trail,brantford,..,..,..,..,on
19415,1A-Northwest Trail,trail,brantford,..,..,..,..,on
19416,1A-Northwest Trail,trail,brantford,..,..,..,..,on
