Index,Facility_Name,ODRSF_facility_type,Provider,Street_No,Street_Name,Postal_Code,City,Prov_Terr
19418,1A-Northwest Trail,trail,brantford,..,..,..,..,on
19419,1A-Northwest Trail,trail,brantford,..,..,..,..,on
19420,1A-Northwest Trail,trail,brantford,..,..,..,..,on
19421,1A-Northwest Trail,trail,brantford,..,..,..,..,on
19422,1A-Northwest Trail,trail,brantford,..,..,..,..,on
19423,1A-Northwest Trail,trail,brantford,..,..,..,..,on
19424,1A-Northwest Trail,trail,brantford,..,..,..,..,on
19425,1A-Northwest Trail,trail,brantford,..,..,..,..,on
19426,1A-Northwest Trail,trail,brantford,..,..,..,..,on
19427,1A-Northwest Trail,trail,brantford,..,..,..,..,on
19428,1A-Northwest Trail,trail,brantford,..,..,..,..,on
19429,1A-Northwest Trail,trail,brantford,..,..,..,..,on
19430,1A-Northwest Trail,trail,brantford,..,..,..,..,on
19431,1A-Northwest Trail,trail,brantford,..,..,..,..,on
19432,1B-Perched Fen Trail,trail,brantford,..,..,..,..,on
19433,1B-Perched Fen Trail,trail,brantford,..,..,..,..,on
19438,20-Gilkison Trails,trail,brantford,..,..,..,..,on
19439,20-Gilkison Trails,trail,brantford,..,..,..,..,on
19440,20-Gilkison Trails,trail,brantford,..,..,..,..,on
19441,20-Gilkison Trails,trail,brantford,..,..,..,..,on
19442,20-Gilkison Trails,trail,brantford,..,..,..,..,on
19444,21-Oakhill Trail,trail,brantford,..,..,..,..,on
19445,21-Oakhill Trail,trail,brantford,..,..,..,..,on
19446,21-Oakhill Trail,trail,brantford,..,..,..,..,on
19447,21-Oakhill Trail,trail,brantford,..,..,..,..,on
19448,21-Oakhill Trail,trail,brantford,..,..,..,..,on
19497,22-Powerline Rd Nissan To Rosedale,trail,brantford,..,..,..,..,on
19503,23-Royal Oak Park Trail,trail,brantford,..,..,..,..,on
19504,23-Royal Oak Park Trail,trail,brantford,..,..,..,..,on
19505,24-Forestwood Park Trail,trail,brantford,..,..,..,..,on
19507,25-Florence To Buchanan Park,trail,brantford,..,..,..,..,on
19516,26-Deer Park Trail,trail,brantford,..,..,..,..,on
19517,26-Deer Park Trail,trail,brantford,..,..,..,..,on
19518,26-Deer Park Trail,trail,brantford,..,..,..,..,on
19519,26-Deer Park Trail,trail,brantford,..,..,..,..,on
19520,27-Edith Monture Forest Trail,trail,brantford,..,..,..,..,on
19521,27-Edith Monture Forest Trail,trail,brantford,..,..,..,..,on
19554,28-Franklin Grobb Memorial Forest Trail,trail,brantford,..,..,..,..,on
19555,28-Franklin Grobb Memorial Forest Trail,trail,brantford,..,..,..,..,on
19556,29-D'Aubigny Creek Wetlands Trails,trail,brantford,..,..,..,..,on
19560,2-Blue Circle Trail,trail,brantford,..,..,..,..,on
19561,2-Blue Circle Trail,trail,brantford,..,..,..,..,on
19562,2-Blue Circle Trail,trail,brantford,..,..,..,..,on
19563,2-Blue Circle Trail,trail,brantford,..,..,..,..,on
19564,2-Blue Circle Trail,trail,brantford,..,..,..,..,on
19565,2-Blue Circle Trail,trail,brantford,..,..,..,..,on
19566,2-Blue Circle Trail,trail,brantford,..,..,..,..,on
19567,2-Blue Circle Trail,trail,brantford,..,..,..,..,on
19568,2-Blue Circle Trail,trail,brantford,..,..,..,..,on
