Index,Facility_Name,ODRSF_facility_type,Provider,Street_No,Street_Name,Postal_Code,City,Prov_Terr
1,11Bhe,playground,brantford,..,..,..,brantford,on
127,Andrew,playground,brantford,..,..,..,..,on
141,Anne Good Park,playground,brantford,..,..,..,..,on
178,Arctic Park,playground,brantford,..,..,..,..,on
342,Bellview Community Centre,playground,brantford,..,..,..,..,on
344,Bellview Park,playground,brantford,..,..,..,..,on
508,Brenda Court Park,playground,brantford,..,..,..,..,on
535,Bridle Path Park,playground,brantford,..,..,..,..,on
540,Brier Park,playground,brantford,..,..,..,..,on
569,Brooklyn Park,playground,brantford,..,..,..,..,on
599,Burnley Park,playground,brantford,..,..,..,..,on
634,Cameron,playground,brantford,..,..,..,..,on
760,Cedarland Park,playground,brantford,..,..,..,..,on
774,Centennial Park,playground,brantford,..,..,..,..,on
804,Central Park,playground,brantford,..,..,..,..,on
1009,Charles Ward Park,playground,brantford,..,..,..,..,on
1077,City View Park,playground,brantford,..,..,..,..,on
1080,Civic Centre,playground,brantford,..,..,..,..,on
1130,Cockshu,playground,brantford,..,..,..,..,on
1169,Connaught Park,playground,brantford,..,..,..,..,on
1313,Deer Park,playground,brantford,..,..,..,..,on
1339,Devereux Park,playground,brantford,..,..,..,..,on
1341,Devon Down Park,playground,brantford,..,..,..,..,on
1381,Donegal Park,playground,brantford,..,..,..,..,on
1426,Dufferin Park,playground,brantford,..,..,..,..,on
1459,Earl Haig Family Fun Park,playground,brantford,..,..,..,..,on
1507,Echo Park,playground,brantford,..,..,..,..,on
1523,Edith Monture Park,playground,brantford,..,..,..,..,on
1541,Elgin Park,playground,brantford,..,..,..,..,on
1700,Florenc,playground,brantford,..,..,..,..,on
1708,Fordview Park,playground,brantford,..,..,..,..,on
1963,Grand Valley Trails Park,trail,brantford,..,..,..,..,on
1970,Grandwoodlands Park,playground,brantford,..,..,..,..,on
1992,Greenbrier Park,playground,brantford,..,..,..,..,on
2005,Greenwood Park,playground,brantford,..,..,..,..,on
2039,H.E.P.C.,playground,brantford,..,..,..,..,on
2068,Harmony Square,playground,brantford,..,..,..,..,on
2151,Hickory Park,playground,brantford,..,..,..,..,on
2186,Hillcrest Park,playground,brantford,..,..,..,..,on
2209,Holmeda,playground,brantford,..,..,..,..,on
2210,Holmedale Park,playground,brantford,..,..,..,..,on
2364,Iroquois Park,playground,brantford,..,..,..,..,on
2417,Jaycee Sports Complex,playground,brantford,..,..,..,..,on
2479,Johnson Park,playground,brantford,..,..,..,..,on
2504,Jubilee,playground,brantford,..,..,..,..,on
2705,Lansdowne Park,playground,brantford,..,..,..,..,on
2960,Lynden,playground,brantford,..,..,..,..,on
3240,Mayfair Park,playground,brantford,..,..,..,..,on
3245,Mayor'S,playground,brantford,..,..,..,..,on
