Index,Facility_Name,ODRSF_facility_type,Provider,Street_No,Street_Name,Postal_Code,City,Prov_Terr
78739,..,trail,kitchener,..,st jerome,..,..,on
78740,..,trail,kitchener,..,st jerome,..,..,on
78741,..,trail,kitchener,..,st jerome,..,..,on
78742,..,trail,kitchener,..,cedarwoods,..,..,on
78743,..,trail,kitchener,..,trillium,..,..,on
78744,..,trail,kitchener,..,trillium,..,..,on
78745,..,trail,kitchener,..,bloomingdale,..,..,on
78746,..,trail,kitchener,..,bridge,..,..,on
78747,..,trail,kitchener,..,country,..,..,on
78748,..,trail,kitchener,..,homer watson,..,..,on
78749,..,trail,kitchener,..,homer watson,..,..,on
78750,..,trail,kitchener,..,homer watson,..,..,on
78751,..,trail,kitchener,..,homer watson,..,..,on
78752,..,trail,kitchener,..,homer watson,..,..,on
78753,..,trail,kitchener,..,homer watson,..,..,on
78754,..,trail,kitchener,..,doon valley,..,..,on
78755,..,trail,kitchener,..,river,..,..,on
78756,..,trail,kitchener,..,carson,..,..,on
78757,..,trail,kitchener,..,woodfield,..,..,on
78758,..,trail,kitchener,..,creek,..,..,on
78759,..,trail,kitchener,..,creek,..,..,on
78760,..,trail,kitchener,..,creek,..,..,on
78761,..,trail,kitchener,..,thomas slee,..,..,on
78762,..,trail,kitchener,..,pine valley,..,..,on
78763,..,trail,kitchener,..,seabrook,..,..,on
78764,..,trail,kitchener,..,ludolph,..,..,on
78765,..,trail,kitchener,..,seabrook,..,..,on
78766,..,trail,kitchener,..,lower mercer,..,..,on
78767,..,trail,kitchener,..,edgewater,..,..,on
78768,..,trail,kitchener,..,tremaine,..,..,on
78769,..,trail,kitchener,..,hayward,..,..,on
78770,..,trail,kitchener,..,huron,..,..,on
78771,..,trail,kitchener,..,royal orchard,..,..,on
78772,..,trail,kitchener,..,..,..,..,on
78773,..,trail,kitchener,..,union,..,..,on
78774,..,trail,kitchener,..,fairway,..,..,on
78775,..,trail,kitchener,..,candle,..,..,on
78776,..,trail,kitchener,..,longview,..,..,on
78777,..,trail,kitchener,..,topper woods,..,..,on
78778,..,trail,kitchener,..,marigold,..,..,on
78779,..,trail,kitchener,..,robert ferrie,..,..,on
78780,..,trail,kitchener,..,edge,..,..,on
78781,..,trail,kitchener,..,doon south,..,..,on
78782,..,trail,kitchener,..,doon south,..,..,on
78783,..,trail,kitchener,..,floral,..,..,on
78784,..,trail,kitchener,..,courtland,..,..,on
78785,..,trail,kitchener,..,courtland,..,..,on
78786,..,trail,kitchener,..,huron,..,..,on
78787,..,trail,kitchener,..,huron,..,..,on
