Index,Facility_Name,ODRSF_facility_type,Provider,Street_No,Street_Name,Postal_Code,City,Prov_Terr
5033,Queen Margaret Pool,pool,waterloo region,11,margaret,..,kitchener,on
5039,Queensmount Park Playground,playground,kitchener,1260,queens,..,..,on
5057,Radcliffe Park Playground,playground,kitchener,70,radcliffe,..,..,on
5058,Raddatz Park Playground,playground,kitchener,110,gage,..,..,on
5059,Radisson Hotel,pool,waterloo region,2960,king,..,kitchener,on
5097,Regency Pool,pool,waterloo region,3227,king,..,kitchener,on
5115,Resurrection Park Playground,playground,kitchener,71,resurrection,..,..,on
5150,Rittenhouse Park Playground 1,playground,kitchener,345,rittenhouse,..,..,on
5164,River Ridge Community Park Playground 1,playground,kitchener,144,hawkswood,..,..,on
5200,Rockway Centre,community centre,kitchener,1405,king,..,..,on
5201,Rockway Public School,playground,kitchener,70,vanier,..,..,on
5224,Rosenberg Park Playground,playground,kitchener,600,heritage,..,..,on
5321,Sandhills Park Playground,playground,kitchener,130,cedar,..,..,on
5322,Sandhills Public School Playground 1,playground,kitchener,1250,victoria,..,..,on
5350,Schaefer Park Playground,playground,kitchener,75,bloomingdale,..,..,on
5356,Seabrook Park Playground,playground,kitchener,190,seabrook,..,..,on
5379,Settlers Grove Park Playground 1,playground,kitchener,206,pioneer tower rd,..,..,on
5389,Shantz Park Playground 1,playground,kitchener,451,manchester,..,..,on
5414,Sherwood Motel,pool,waterloo region,1465,weber,..,kitchener,on
5421,Shoemaker Greenway Playground 1,playground,kitchener,30,kehl,..,..,on
5626,Smithson Public School Playground 1,playground,kitchener,150,belleview,..,..,on
5638,Sophia Park Playground,playground,kitchener,97,sophia,..,..,on
5673,Southridge Public School Playground,playground,kitchener,1425,queens,..,..,on
5686,Spinetec Health Care Solutions,pool,waterloo region,1190,king,..,kitchener,on
5851,Sportsworld Arena,arena,kitchener,35,sportsworld crossing,..,..,on
5875,Springmount Park Playground 1,playground,kitchener,227,springmount,..,..,on
5877,Spruce Grove Condominium-Pool,pool,waterloo region,260,sheldon,..,kitchener,on
5879,St Aloysius Catholic School,playground,kitchener,504,connaught,..,..,on
5880,St Anne Catholic School Playground,playground,kitchener,250,east,..,kitchener,on
5882,St Daniel Catholic School Playground 1,playground,kitchener,39,midland,..,..,on
5885,St Mark Catholic School Playground,playground,kitchener,240,hill,..,..,on
5887,St Patrick School Playground 1,playground,kitchener,50,thaler,..,..,on
5888,St Timothy Catholic School Playground,playground,kitchener,15,bechtel,..,..,on
5951,Stanley Park Community Centre,community centre,kitchener,505,franklin,..,..,on
5953,Stanley Park Place Pool,pool,waterloo region,24,midland,..,kitchener,on
5995,Suddaby Public School Playground,playground,kitchener,171,frederick,..,..,on
6007,Sunbeam Centre Pool,pool,waterloo region,2749,kingsway,..,kitchener,on
6026,Sunshine Montessori School Playgorund 1,playground,kitchener,10,boniface,..,..,on
6036,Sylvia Park Playground 1,playground,kitchener,25,sylvia,..,..,on
6053,Tecumseh Park Playground 1,playground,kitchener,140,indian,..,..,on
6060,Templewood Park Playground,playground,kitchener,145,templewood,..,..,on
6085,Thomas Slee Park Playground 1,playground,kitchener,331,thomas slee,..,..,on
6107,Timberlane Park Playground,playground,kitchener,38,timberlane,..,..,on
6108,Timm Park Playground 1,playground,kitchener,360,gage,..,..,on
6150,Traynor Park Playground,playground,kitchener,345,traynor,..,..,on
6154,Tremaine Park Playground,playground,kitchener,100,tremaine,..,..,on
6161,Trillium Public School Playground 1,playground,kitchener,79,laurentian,..,..,on
6198,Upper Canada Park Playground - Farrier Dr,playground,kitchener,216,farrier,..,..,on
6199,Upper Canada Park Playground - Pioneer Dr,playground,kitchener,120,pioneer,..,..,on
