Index,Facility_Name,ODRSF_facility_type,Provider,Street_No,Street_Name,Postal_Code,City,Prov_Terr
79996,..,trail,kitchener,..,ludolph,..,..,on
79997,..,trail,kitchener,..,huron,..,..,on
79998,..,trail,kitchener,..,dodge,..,..,on
79999,..,trail,kitchener,..,moorlands,..,..,on
80000,..,trail,kitchener,..,falling green,..,..,on
80001,..,trail,kitchener,..,falling green,..,..,on
80002,..,trail,kitchener,..,seabrook,..,..,on
80003,..,trail,kitchener,..,grove,..,..,on
80004,..,trail,kitchener,..,pine valley,..,..,on
80005,..,trail,kitchener,..,knox,..,..,on
80006,..,trail,kitchener,..,pine valley,..,..,on
80007,..,trail,kitchener,..,homer watson onramp,..,..,on
80008,..,trail,kitchener,..,homer watson onramp,..,..,on
80009,..,trail,kitchener,..,cayuga,..,..,on
80010,..,trail,kitchener,..,bullock,..,..,on
80011,..,trail,kitchener,..,st jerome,..,..,on
80012,..,trail,kitchener,..,st jerome,..,..,on
80013,..,trail,kitchener,..,oakdale,..,..,on
80014,..,trail,kitchener,..,dinison,..,..,on
80015,..,trail,kitchener,..,williamsburg,..,..,on
80016,..,trail,kitchener,..,dinison,..,..,on
80017,..,trail,kitchener,..,pinedale,..,..,on
80018,..,trail,kitchener,..,trailview,..,..,on
80019,..,trail,kitchener,..,ludolph,..,..,on
80020,..,trail,kitchener,..,ludolph,..,..,on
80021,..,trail,kitchener,..,ludolph,..,..,on
80022,..,trail,kitchener,..,ludolph,..,..,on
80023,..,trail,kitchener,..,seabrook,..,..,on
80024,..,trail,kitchener,..,seabrook,..,..,on
80025,..,trail,kitchener,..,seabrook,..,..,on
80026,..,trail,kitchener,..,stirling,..,..,on
80027,..,trail,kitchener,..,old mill,..,..,on
80028,..,trail,kitchener,..,old mill,..,..,on
80029,..,trail,kitchener,..,wilderness,..,..,on
80030,..,trail,kitchener,..,weber,..,..,on
80031,..,trail,kitchener,..,highview,..,..,on
80032,..,trail,kitchener,..,highview,..,..,on
80033,..,trail,kitchener,..,stoke,..,..,on
80034,..,trail,kitchener,..,stoke,..,..,on
80035,..,trail,kitchener,..,stoke,..,..,on
80036,..,trail,kitchener,..,fischer hallman,..,..,on
80037,..,trail,kitchener,..,westheights,..,..,on
80038,..,trail,kitchener,..,queens,..,..,on
80039,..,trail,kitchener,..,claycroft,..,..,on
80040,..,trail,kitchener,..,blue spruce,..,..,on
80041,..,trail,kitchener,..,westforest,..,..,on
80042,..,trail,kitchener,..,hidden creek,..,..,on
80043,..,trail,kitchener,..,westforest,..,..,on
80044,..,trail,kitchener,..,redtail,..,..,on
