Index,Facility_Name,ODRSF_facility_type,Provider,Street_No,Street_Name,Postal_Code,City,Prov_Terr
12186,Jacob Hespeler Secondary North,sports field,cambridge,355,holiday inn,..,..,on
12187,Jacob Hespeler Secondary Upper,sports field,cambridge,355,holiday inn,..,..,on
13062,Lincoln Park,sports field,cambridge,65,centre,..,..,on
13063,Lincoln Park,sports field,cambridge,65,centre,..,..,on
13064,Lincoln Park T-Ball,sports field,cambridge,65,centre,..,..,on
13077,Lions Can Amera Park - Minis 1,sports field,cambridge,305,saginaw,..,..,on
13078,Lions Can Amera Park - Minis 2,sports field,cambridge,305,saginaw,..,..,on
13079,Lions Can Amera Park - Minis 3,sports field,cambridge,335,saginaw,..,..,on
13080,Lions Can Amera Park #1,sports field,cambridge,305,saginaw,..,..,on
13081,Lions Can Amera Park #2,sports field,cambridge,305,saginaw,..,..,on
13082,Lions Can Amera Park T-Ball,sports field,cambridge,305,saginaw,..,..,on
13785,Monsignor Doyle High School,sports field,cambridge,0,christopher,..,..,on
13786,Monsignor Doyle High School,sports field,cambridge,185,myers,..,..,on
14217,Otto Klotz Park,sports field,cambridge,0,garden,..,..,on
14219,Our Lady Of Fatima,sports field,cambridge,55,hammet,..,..,on
14686,Parkway School,sports field,cambridge,0,preston,..,..,on
14726,Pere Renee French Catholic Ss 1,sports field,cambridge,450,maple grove,..,..,on
14727,Pere Renee French Catholic Ss 2,sports field,cambridge,450,maple grove,..,..,on
14875,Portuguese Club Of Cambridge,sports field,cambridge,870,townline,..,..,on
14887,Preston High School,sports field,cambridge,550,rose,..,..,on
14888,Preston Legion - Civic Park,sports field,cambridge,575,margaret,..,..,on
15344,Riverside Park - Intermediate,sports field,cambridge,0,..,..,..,on
15345,Riverside Park - Intermediate,sports field,cambridge,0,..,..,..,on
15346,Riverside Park - Intermediate,sports field,cambridge,0,..,..,..,on
15347,Riverside Park - Kin 1,sports field,cambridge,0,..,..,..,on
15348,Riverside Park - Kin 2,sports field,cambridge,0,..,..,..,on
15349,Riverside Park - Mickler Field,sports field,cambridge,0,..,..,..,on
15350,Riverside Park - Mini,sports field,cambridge,0,..,..,..,on
15351,Riverside Park - Minis,sports field,cambridge,0,..,..,..,on
15352,Riverside Park - Minis,sports field,cambridge,0,..,..,..,on
15353,Riverside Park - Minis (2 Fields),sports field,cambridge,0,..,..,..,on
15354,Riverside Park - Optimist Field,sports field,cambridge,0,..,..,..,on
15355,Riverside Park - Rogers Field,sports field,cambridge,0,..,..,..,on
15356,Riverside Park - Savage Field,sports field,cambridge,0,..,..,..,on
15357,Riverside Park - Tennis,sports field,cambridge,0,..,..,..,on
15358,Riverside Park - Volleyball 1,sports field,cambridge,0,..,..,..,on
15359,Riverside Park - Volleyball 2,sports field,cambridge,0,..,..,..,on
15360,Riverside Park - White,sports field,cambridge,0,..,..,..,on
15361,Riverside Park - Yellow,sports field,cambridge,0,..,..,..,on
15566,Saginaw Ps,sports field,cambridge,740,saginaw,..,..,on
15622,Sault Park,sports field,cambridge,70,mcmeeken,..,..,on
15623,Sault Park,sports field,cambridge,70,mcmeeken,..,..,on
16886,Soper Park,sports field,cambridge,120,shade,..,..,on
16887,Soper Park,sports field,cambridge,120,shade,..,..,on
16888,Soper Park - Tennis,sports field,cambridge,41,marion,..,..,on
16934,Southwood Secondary School,sports field,cambridge,30,southwood,..,..,on
16935,Southwood Secondary School,sports field,cambridge,30,southwood,..,..,on
16936,Southwood Secondary School (Cam Allan Field),rink,cambridge,526,grand ridge,..,..,on
16981,St Augustines School,sports field,cambridge,177,bismark,..,..,on
