Index,Facility_Name,ODRSF_facility_type,Provider,Street_No,Street_Name,Postal_Code,City,Prov_Terr
163683,Briarfield Park,park,kitchener,..,briarfield,..,..,on
163702,Bridgeport Sportsfield (Grca),park,kitchener,70,bridge,..,..,on
163703,Bridgeport Trail Natural Area,park,kitchener,44,tyson,..,..,on
163732,Brigadoon Park,park,kitchener,127,biehn,..,..,on
163734,Brigadoon Park Natural Area,park,kitchener,127,biehn,..,..,on
163736,Brigadoon Woods,park,kitchener,..,strasburg,..,..,on
163755,Brittania Cres - Swp,park,kitchener,556,brittania,..,..,on
163793,Brook Green,park,kitchener,..,queens,..,..,on
163842,Brubacher Park,park,kitchener,65,brubacher,..,..,on
163883,Budd Park,park,kitchener,1111,watson,..,..,on
164188,Carisbrook Drive Natural Area,park,kitchener,..,carisbrook,..,..,on
164215,Carlyle Park,park,kitchener,580,pioneer,..,..,on
164280,Casey Park,park,kitchener,50,casey,..,..,on
164362,Cedar Crest Park,park,kitchener,92,cedar,..,..,on
164364,Cedar Crest Park Natural Area,park,kitchener,92,cedar,..,..,on
164400,Cedarhill Park,park,kitchener,110,cedarhill,..,..,on
164420,Cenotaph Green,park,kitchener,15,duke,..,..,on
164557,Chandler Park,park,kitchener,222,chandler,..,..,on
164572,Chapel Hill Crt - Swp,park,kitchener,..,chapel hill drt,..,..,on
164590,Charles Best Park,park,kitchener,104,stirling,..,..,on
164674,Cherry Park,park,kitchener,84,strange,..,..,on
164689,Chicopee Park (Grca),park,kitchener,395,morrison,..,..,on
164690,Chicopee-Vale Trail,park,kitchener,281,grand,..,..,on
164790,Civic Centre Park,park,kitchener,101,queen,..,..,on
164905,Cloverdale Park,park,kitchener,65,birchcliff,..,..,on
164991,Colton - Swp,park,kitchener,104,colton,..,..,on
165007,Commonwealth Park,park,kitchener,560,commonwealth,..,..,on
165034,Concordia Park,park,kitchener,250,avalon,..,..,on
165036,Concordia Park Greenway,park,kitchener,25,greenbrook,..,..,on
165037,Concordia Park Natural Area,park,kitchener,..,greenbrook,..,..,on
165188,Country Clair Park,park,kitchener,34,country,..,..,on
165198,Country Hills Park,park,kitchener,365,hill,..,..,on
165207,Countryside Park,park,kitchener,175,countryside,..,..,on
165211,Countrystone Park,park,kitchener,1086,countrystone,..,..,on
165379,Crosby Park,park,kitchener,60,crosby,..,..,on
165464,Daimler Dr Walkway,park,kitchener,..,daimler,..,..,on
165605,Deer Ridge Park,park,kitchener,471,deer,..,..,on
165665,Denlow Trail,park,kitchener,..,ottawa,..,..,on
165710,Detweiler Natural Area,park,kitchener,465,westforest,..,..,on
165711,Detweiler Park,park,kitchener,471,westforest,..,..,on
165758,Dinison Park,park,kitchener,165,dinison,..,..,on
165774,Dixon Green,park,kitchener,125,dixon,..,..,on
165782,Dodge Dr - Swp#A,park,kitchener,200,dodge,..,..,on
165783,Dodge Dr Swm Facility B,park,kitchener,..,dodge,..,..,on
165784,Dodge Drive Natural Area,park,kitchener,..,blair,..,..,on
165861,Doon Creek Natural Area,park,kitchener,..,creek,..,..,on
165865,Doon Mills Park,park,kitchener,4,doon,..,..,on
165867,Doon South Creek Natural Area,park,kitchener,..,groh,..,..,on
165869,Doon South Creek Natural Area Trail,park,kitchener,..,creek,..,..,on
