Index,Facility_Name,ODRSF_facility_type,Provider,Street_No,Street_Name,Postal_Code,City,Prov_Terr
6240,Vanier Park Splash Pad,splash pad,kitchener,329,vanier,..,..,on
6255,Veteran's Park Playground,playground,kitchener,75,lorne,..,..,on
6260,Victoria Hills Community Centre,community centre,kitchener,10,chopin,..,..,on
6266,Victoria Park Place - Pool,pool,waterloo region,205,victoria,..,kitchener,on
6267,Victoria Park Playground 1,playground,kitchener,32,dill,..,..,on
6269,Victoria Park Splash Pad,splash pad,kitchener,65,courtland,..,..,on
6272,Victoria Park Towers - Pool,pool,waterloo region,310,queen,..,kitchener,on
6287,Village On The Green - Wncc #27,pool,waterloo region,30,green valley,..,kitchener,on
6302,Voisin Park Playground,playground,kitchener,225,activa,..,..,on
6311,W.T. Townshend Public School Playground,playground,kitchener,245,activa,..,..,on
6374,Waldau Woods Park Playground,playground,kitchener,21,penelope,..,..,on
6426,Weber Inn Kitchener,pool,waterloo region,1455,weber,..,kitchener,on
6427,Weber Park Playground,playground,kitchener,380,frederick,..,..,on
6440,Wellington Place Pool,pool,waterloo region,81,church,..,kitchener,on
6466,West Oak Trail Park Playground,playground,kitchener,80,oak tr,..,..,on
6479,Westchester Park Playground 1,playground,kitchener,173,keewatin,..,..,on
6489,Westheights Park Playground,playground,kitchener,401,westheights,..,..,on
6491,Westmeadow Park Playground 1,playground,kitchener,281,westmeadow,..,..,on
6498,Westmount Public School Playground,playground,kitchener,329,glasgow,..,..,on
6521,Westwood Apt Pool,pool,waterloo region,423,westwood,..,kitchener,on
6524,Westwood Park Playground 1,playground,kitchener,175,westwood,..,..,on
6530,Wheatfield Park Playground 1,playground,kitchener,103,wheatfield,..,..,on
6565,Williamsburg Community Centre,community centre,kitchener,1187,hallman,..,..,on
6566,Williamsburg Public School Playground 1,playground,kitchener,760,commonwealth,..,..,on
6575,Willowlake Park Playground 1,playground,kitchener,1851,old mill,..,..,on
6583,Wilson Ave Public School Playground 1,playground,kitchener,221,wilson,..,..,on
6584,Wilson Avenue Splashpad,splash pad,waterloo region,78,wilson,..,kitchener,on
6586,Wilson Park Playground,playground,kitchener,75,wilson,..,..,on
6587,Wilson Park Swimming Pool,pool,kitchener,78,wilson,..,..,on
6588,Wilson Place I Pool,pool,waterloo region,425,wilson,..,kitchener,on
6593,Windale Park Playground,playground,kitchener,76,windale,..,..,on
6596,Windrush Park Playground 1,playground,kitchener,155,windrush trail,..,..,on
6651,Wrdsb School Not Yet Built,playground,kitchener,335,seabrook,..,..,on
6656,Y - Yes,community centre,waterloo region,216,mill,..,..,on
6657,Y - Yes,community centre,waterloo region,1405,king,..,..,on
6658,Y - Yes,community centre,waterloo region,10,chopin,..,..,on
6659,Y - Yes,community centre,waterloo region,222,chandler,..,..,on
6660,Y - Yes,community centre,waterloo region,20,tyson,..,..,on
6661,Y - Yes,community centre,waterloo region,350,margaret,..,..,on
6662,Y - Yes,community centre,waterloo region,72,wilson,..,..,on
6663,Y - Yes,community centre,waterloo region,100,rittenhouse,..,..,on
6664,Y - Yes,community centre,waterloo region,1187,hallman,..,..,on
6665,Y - Yes,community centre,waterloo region,35,weber,..,..,on
6666,Y - Yes,community centre,waterloo region,505,franklin,..,..,on
6667,Y - Yes,community centre,waterloo region,141,morgan,..,..,on
6668,Y - Yes,community centre,waterloo region,150,pioneer,..,..,on
6669,Y - Yes,community centre,waterloo region,1700,queens,..,..,on
6670,Yellow Birch Park Playground,playground,kitchener,135,yellow birch,..,..,on
6687,Zeller Park Playground 1,playground,kitchener,245,zeller,..,..,on
