Index,Facility_Name,ODRSF_facility_type,Provider,Street_No,Street_Name,Postal_Code,City,Prov_Terr
78940,..,trail,kitchener,..,homer watson,..,..,on
78941,..,trail,kitchener,..,rush meadow,..,..,on
78942,..,trail,kitchener,..,rush meadow,..,..,on
78943,..,trail,kitchener,..,victoria,..,..,on
78944,..,trail,kitchener,..,westforest,..,..,on
78945,..,trail,kitchener,..,strange,..,..,on
78946,..,trail,kitchener,..,country hill,..,..,on
78947,..,trail,kitchener,..,arlington,..,..,on
78948,..,trail,kitchener,..,idlewood,..,..,on
78949,..,trail,kitchener,..,tecumseh,..,..,on
78950,..,trail,kitchener,..,elmbank trail,..,..,on
78951,..,trail,kitchener,..,elmbank trail,..,..,on
78952,..,trail,kitchener,..,amand,..,..,on
78953,..,trail,kitchener,..,parkvale,..,..,on
78954,..,trail,kitchener,..,old mill,..,..,on
78955,..,trail,kitchener,..,lynnvalley,..,..,on
78956,..,trail,kitchener,..,blair creek,..,..,on
78957,..,trail,kitchener,..,blair creek,..,..,on
78958,..,trail,kitchener,..,robert ferrie,..,..,on
78959,..,trail,kitchener,..,peachwood,..,..,on
78960,..,trail,kitchener,..,fischer hallman,..,..,on
78961,..,trail,kitchener,..,westmount,..,..,on
78962,..,trail,kitchener,..,traynor,..,..,on
78963,..,trail,kitchener,..,shirley,..,..,on
78964,..,trail,kitchener,..,westmount,..,..,on
78965,..,trail,kitchener,..,lynnhaven,..,..,on
78966,..,trail,kitchener,..,dill,..,..,on
78967,..,trail,kitchener,..,homer watson,..,..,on
78968,..,trail,kitchener,..,parkland,..,..,on
78969,..,trail,kitchener,..,palmer,..,..,on
78970,..,trail,kitchener,..,arlington,..,..,on
78971,..,trail,kitchener,..,fergus,..,..,on
78972,..,trail,kitchener,..,clover,..,..,on
78973,..,trail,kitchener,..,fergus,..,..,on
78974,..,trail,kitchener,..,lackner,..,..,on
78975,..,trail,kitchener,..,bridge,..,..,on
78976,..,trail,kitchener,..,fischer hallman,..,..,on
78977,..,trail,kitchener,..,margaret,..,..,on
78978,..,trail,kitchener,..,deerwood,..,..,on
78979,..,trail,kitchener,..,toynbee,..,..,on
78980,..,trail,kitchener,..,driftwood,..,..,on
78981,..,trail,kitchener,..,stonehenge,..,..,on
78982,..,trail,kitchener,..,stonehenge,..,..,on
78983,..,trail,kitchener,..,yellow birch,..,..,on
78984,..,trail,kitchener,..,moore,..,..,on
78985,..,trail,kitchener,..,braun,..,..,on
78986,..,trail,kitchener,..,river,..,..,on
78987,..,trail,kitchener,..,riverbend,..,..,on
78988,..,trail,kitchener,..,arnold,..,..,on
