Index,Facility_Name,ODRSF_facility_type,Provider,Street_No,Street_Name,Postal_Code,City,Prov_Terr
78789,..,trail,kitchener,..,huron,..,..,on
78790,..,trail,kitchener,..,huron,..,..,on
78791,..,trail,kitchener,..,old mill,..,..,on
78792,..,trail,kitchener,..,pinedale,..,..,on
78793,..,trail,kitchener,..,manitou,..,..,on
78794,..,trail,kitchener,..,lantern,..,..,on
78795,..,trail,kitchener,..,morrison,..,..,on
78796,..,trail,kitchener,..,clifton,..,..,on
78797,..,trail,kitchener,..,clifton,..,..,on
78798,..,trail,kitchener,..,clifton,..,..,on
78799,..,trail,kitchener,..,guelph,..,..,on
78800,..,trail,kitchener,..,clifton,..,..,on
78801,..,trail,kitchener,..,guelph,..,..,on
78802,..,trail,kitchener,..,westforest,..,..,on
78803,..,trail,kitchener,..,jubilee,..,..,on
78804,..,trail,kitchener,..,jubilee,..,..,on
78805,..,trail,kitchener,..,homer watson onramp,..,..,on
78806,..,trail,kitchener,..,homer watson,..,..,on
78807,..,trail,kitchener,..,homer watson offramp,..,..,on
78808,..,trail,kitchener,..,strasburg,..,..,on
78809,..,trail,kitchener,..,strasburg,..,..,on
78810,..,trail,kitchener,..,oprington,..,..,on
78811,..,trail,kitchener,..,westwood,..,..,on
78812,..,trail,kitchener,..,janine,..,..,on
78813,..,trail,kitchener,..,lennox,..,..,on
78814,..,trail,kitchener,..,roland,..,..,on
78815,..,trail,kitchener,..,daimler,..,..,on
78816,..,trail,kitchener,..,pine martin,..,..,on
78817,..,trail,kitchener,..,joseph,..,..,on
78818,..,trail,kitchener,..,joseph,..,..,on
78819,..,trail,kitchener,..,winding wood,..,..,on
78820,..,trail,kitchener,..,doon south,..,..,on
78821,..,trail,kitchener,..,driftwood,..,..,on
78823,..,trail,kitchener,..,maplewood,..,..,on
78824,..,trail,kitchener,..,union,..,..,on
78825,..,trail,kitchener,..,union,..,..,on
78826,..,trail,kitchener,..,union,..,..,on
78827,..,trail,kitchener,..,..,..,..,on
78828,..,trail,kitchener,..,river,..,..,on
78829,..,trail,kitchener,..,river,..,..,on
78830,..,trail,kitchener,..,river,..,..,on
78831,..,trail,kitchener,..,river,..,..,on
78832,..,trail,kitchener,..,netherwood,..,..,on
78833,..,trail,kitchener,..,thomas slee,..,..,on
78834,..,trail,kitchener,..,netherwood,..,..,on
78835,..,trail,kitchener,..,netherwood,..,..,on
78836,..,trail,kitchener,..,thomas slee,..,..,on
78837,..,trail,kitchener,..,dill,..,..,on
78838,..,trail,kitchener,..,lynnvalley,..,..,on
