Index,Facility_Name,ODRSF_facility_type,Provider,Street_No,Street_Name,Postal_Code,City,Prov_Terr
80598,..,trail,kitchener,..,mansion,..,..,on
80599,..,trail,kitchener,..,mansion,..,..,on
80600,..,trail,kitchener,..,monte carlo,..,..,on
80601,..,trail,kitchener,..,rush meadow,..,..,on
80602,..,trail,kitchener,..,henhoeffer,..,..,on
80603,..,trail,kitchener,..,falling green,..,..,on
80604,..,trail,kitchener,..,falling green,..,..,on
80605,..,trail,kitchener,..,apple hill,..,..,on
80606,..,trail,kitchener,..,ira needles,..,..,on
80607,..,trail,kitchener,..,ira needles,..,..,on
80608,..,trail,kitchener,..,ira needles,..,..,on
80609,..,trail,kitchener,..,ira needles,..,..,on
80610,..,trail,kitchener,..,ira needles,..,..,on
80611,..,trail,kitchener,..,wilson,..,..,on
80612,..,trail,kitchener,..,ira needles,..,..,on
80613,..,trail,kitchener,..,ira needles,..,..,on
80614,..,trail,kitchener,..,ira needles,..,..,on
80615,..,trail,kitchener,..,roseneath,..,..,on
80616,..,trail,kitchener,..,blackhorne,..,..,on
80617,..,trail,kitchener,..,eden oak,..,..,on
80618,..,trail,kitchener,..,eden oak,..,..,on
80619,..,trail,kitchener,..,eden oak,..,..,on
80620,..,trail,kitchener,..,eden oak,..,..,on
80621,..,trail,kitchener,..,eden oak,..,..,on
80622,..,trail,kitchener,..,eastforest,..,..,on
80623,..,trail,kitchener,..,eastforest,..,..,on
80624,..,trail,kitchener,..,woodbine,..,..,on
80625,..,trail,kitchener,..,brittania,..,..,on
80626,..,trail,kitchener,..,parkvale,..,..,on
80627,..,trail,kitchener,..,countrystone,..,..,on
80628,..,trail,kitchener,..,greengable,..,..,on
80629,..,trail,kitchener,..,greengable,..,..,on
80630,..,trail,kitchener,..,roseneath,..,..,on
80631,..,trail,kitchener,..,barwood,..,..,on
80632,..,trail,kitchener,..,barwood,..,..,on
80633,..,trail,kitchener,..,vicmount,..,..,on
80634,..,trail,kitchener,..,ira needles,..,..,on
80635,..,trail,kitchener,..,old mill,..,..,on
80636,..,trail,kitchener,..,mill park,..,..,on
80637,..,trail,kitchener,..,manitou,..,..,on
80638,..,trail,kitchener,..,winding wood,..,..,on
80639,..,trail,kitchener,..,trillium,..,..,on
80640,..,trail,kitchener,..,trillium,..,..,on
80641,..,trail,kitchener,..,trillium,..,..,on
80642,..,trail,kitchener,..,trillium,..,..,on
80643,..,trail,kitchener,..,trillium,..,..,on
80644,..,trail,kitchener,..,trillium,..,..,on
80645,..,trail,kitchener,..,trillium,..,..,on
80646,..,trail,kitchener,..,trillium,..,..,on
