Index,Facility_Name,ODRSF_facility_type,Provider,Street_No,Street_Name,Postal_Code,City,Prov_Terr
95390,..,trail,kitchener,..,eagle,..,cambridge,on
95395,..,trail,kitchener,..,can amera,..,cambridge,on
95396,..,trail,kitchener,..,coronation,..,cambridge,on
95400,..,trail,kitchener,..,eagle,..,cambridge,on
95401,..,trail,kitchener,..,hespeler,..,cambridge,on
95402,..,trail,kitchener,..,eagle,..,cambridge,on
95403,..,trail,kitchener,..,eagle,..,cambridge,on
95450,..,trail,kitchener,..,franklin,..,cambridge,on
95451,..,trail,kitchener,..,franklin,..,cambridge,on
95452,..,trail,kitchener,..,franklin,..,cambridge,on
95453,..,trail,kitchener,..,franklin,..,cambridge,on
95454,..,trail,kitchener,..,fountain,..,cambridge,on
95455,..,trail,kitchener,..,franklin,..,cambridge,on
95456,..,trail,kitchener,..,franklin,..,cambridge,on
95457,..,trail,kitchener,..,franklin,..,cambridge,on
95458,..,trail,kitchener,..,bishop,..,cambridge,on
95459,..,trail,kitchener,..,franklin,..,cambridge,on
95460,..,trail,kitchener,..,franklin,..,cambridge,on
95461,..,trail,kitchener,..,franklin,..,cambridge,on
95462,..,trail,kitchener,..,fountain,..,cambridge,on
95463,..,trail,kitchener,..,franklin,..,cambridge,on
95464,..,trail,kitchener,..,bishop,..,cambridge,on
95465,..,trail,kitchener,..,franklin,..,cambridge,on
95466,..,trail,kitchener,..,franklin,..,cambridge,on
95467,..,trail,kitchener,..,franklin,..,cambridge,on
95469,..,trail,kitchener,..,franklin,..,cambridge,on
95470,..,trail,kitchener,..,franklin,..,cambridge,on
95471,..,trail,kitchener,..,franklin,..,cambridge,on
95472,..,trail,kitchener,..,franklin,..,cambridge,on
95473,..,trail,kitchener,..,franklin,..,cambridge,on
95474,..,trail,kitchener,..,cedar,..,cambridge,on
95475,..,trail,kitchener,..,franklin,..,cambridge,on
95476,..,trail,kitchener,..,franklin,..,cambridge,on
95477,..,trail,kitchener,..,franklin,..,cambridge,on
95478,..,trail,kitchener,..,pinebush,..,cambridge,on
95479,..,trail,kitchener,..,franklin,..,cambridge,on
95480,..,trail,kitchener,..,franklin,..,cambridge,on
95481,..,trail,kitchener,..,franklin,..,cambridge,on
95482,..,trail,kitchener,..,franklin,..,cambridge,on
95483,..,trail,kitchener,..,franklin,..,cambridge,on
95484,..,trail,kitchener,..,townline,..,cambridge,on
95485,..,trail,kitchener,..,franklin,..,cambridge,on
95486,..,trail,kitchener,..,cedar,..,cambridge,on
95487,..,trail,kitchener,..,franklin,..,cambridge,on
95488,..,trail,kitchener,..,franklin,..,cambridge,on
95489,..,trail,kitchener,..,franklin,..,cambridge,on
95490,..,trail,kitchener,..,franklin,..,cambridge,on
95492,..,trail,kitchener,..,franklin,..,cambridge,on
95493,..,trail,kitchener,..,franklin,..,cambridge,on
