Index,Facility_Name,ODRSF_facility_type,Provider,Street_No,Street_Name,Postal_Code,City,Prov_Terr
130237,..,trail,province of ontario,..,..,..,..,on
130239,..,trail,province of ontario,..,..,..,..,on
131673,..,trail,province of ontario,..,..,..,..,on
131722,..,trail,province of ontario,..,..,..,..,on
131786,..,trail,province of ontario,..,..,..,..,on
131800,..,trail,province of ontario,..,..,..,..,on
131827,..,trail,province of ontario,..,..,..,..,on
131958,..,trail,province of ontario,..,..,..,..,on
132008,..,trail,province of ontario,..,..,..,..,on
132026,..,trail,province of ontario,..,..,..,..,on
132037,..,trail,province of ontario,..,..,..,..,on
132118,..,trail,province of ontario,..,..,..,..,on
132131,..,trail,province of ontario,..,..,..,..,on
132197,..,trail,province of ontario,..,..,..,..,on
132266,..,trail,province of ontario,..,..,..,..,on
132416,..,trail,province of ontario,..,..,..,..,on
132484,..,trail,province of ontario,..,..,..,..,on
132578,..,trail,province of ontario,..,..,..,..,on
132603,..,trail,province of ontario,..,..,..,..,on
132711,..,trail,province of ontario,..,..,..,..,on
132866,..,trail,province of ontario,..,..,..,..,on
132882,..,trail,province of ontario,..,..,..,..,on
133041,..,trail,province of ontario,..,..,..,..,on
133156,..,trail,province of ontario,..,..,..,..,on
162009,A Wayne Taylor Park,park,cambridge,..,..,..,..,on
162069,Absaloms Walk,park,cambridge,..,..,..,..,on
162070,Absaloms Walk Extension,park,cambridge,..,..,..,..,on
162071,Absaloms Walk Extension-Grca,park,cambridge,..,..,..,..,on
162353,Angewood Park,park,cambridge,..,..,..,..,on
162489,Arlington Park,park,cambridge,..,..,..,..,on
162805,Barradells Loft,park,cambridge,..,..,..,..,on
163013,Bechtel Park,park,cambridge,..,..,..,..,on
163660,Brent Park,park,cambridge,..,..,..,..,on
163985,Byton Lane Park,park,cambridge,..,..,..,..,on
164460,Centennial Park,park,cambridge,..,..,..,..,on
164496,Central Park (Galt),park,cambridge,..,..,..,..,on
164497,Central Park (Preston),park,cambridge,..,..,..,..,on
164760,Churchill Park,park,cambridge,..,..,..,..,on
164794,Civic Park,park,cambridge,..,..,..,..,on
164886,Clochmohr Park,park,cambridge,..,..,..,..,on
165024,Compass Trail Park,park,cambridge,..,..,..,..,on
165104,Copperfield Dr Woodlot,park,cambridge,..,..,..,..,on
165338,Crescent Park,park,cambridge,..,..,..,..,on
165456,Cyrus St Park,park,cambridge,..,..,..,..,on
165497,Dalton Court,park,cambridge,..,..,..,..,on
165595,Decaro Park,park,cambridge,..,..,..,..,on
165747,Dickson Park,park,cambridge,..,..,..,..,on
165812,Domm Park,park,cambridge,..,..,..,..,on
166026,Duncan Ferguson Homestead,park,cambridge,..,..,..,..,on
