Index,Facility_Name,ODRSF_facility_type,Provider,Street_No,Street_Name,Postal_Code,City,Prov_Terr
80999,..,trail,kitchener,..,woodbine,..,..,on
81000,..,trail,kitchener,..,woodbine,..,..,on
81001,..,trail,kitchener,..,woodbine,..,..,on
81002,..,trail,kitchener,..,shoreacres,..,..,on
81003,..,trail,kitchener,..,amand,..,..,on
81004,..,trail,kitchener,..,doon village,..,..,on
81005,..,trail,kitchener,..,ottawa,..,..,on
81006,..,trail,kitchener,..,ira needles,..,..,on
81007,..,trail,kitchener,..,grovehill,..,..,on
81008,..,trail,kitchener,..,seabrook,..,..,on
81009,..,trail,kitchener,..,..,..,..,on
81010,..,trail,kitchener,..,..,..,..,on
81011,..,trail,kitchener,..,stonehenge,..,..,on
81012,..,trail,kitchener,..,rush meadow,..,..,on
81013,..,trail,kitchener,..,ludolph,..,..,on
81014,..,trail,kitchener,..,victoria,..,..,on
81015,..,trail,kitchener,..,ira needles,..,..,on
81016,..,trail,kitchener,..,ira needles,..,..,on
81017,..,trail,kitchener,..,ira needles,..,..,on
81018,..,trail,kitchener,..,rothsay,..,..,on
81019,..,trail,kitchener,..,homer watson,..,..,on
81020,..,trail,kitchener,..,westforest,..,..,on
81021,..,trail,kitchener,..,fischer hallman,..,..,on
81022,..,trail,kitchener,..,queens,..,..,on
81023,..,trail,kitchener,..,lakeside,..,..,on
81024,..,trail,kitchener,..,ottawa,..,..,on
81025,..,trail,kitchener,..,biehn,..,..,on
81026,..,trail,kitchener,..,lackner,..,..,on
81027,..,trail,kitchener,..,ira needles,..,..,on
81028,..,trail,kitchener,..,university,..,..,on
81029,..,trail,kitchener,..,dalegrove,..,..,on
81030,..,trail,kitchener,..,dalegrove,..,..,on
81031,..,trail,kitchener,..,belmont,..,..,on
81032,..,trail,kitchener,..,burn,..,..,on
81033,..,trail,kitchener,..,ira needles,..,..,on
81034,..,trail,kitchener,..,ira needles,..,..,on
81035,..,trail,kitchener,..,highview,..,..,on
81036,..,trail,kitchener,..,highview,..,..,on
81037,..,trail,kitchener,..,highview,..,..,on
81038,..,trail,kitchener,..,queens,..,..,on
81039,..,trail,kitchener,..,amand,..,..,on
81040,..,trail,kitchener,..,block line,..,..,on
81041,..,trail,kitchener,..,fallowfield,..,..,on
81042,..,trail,kitchener,..,fallowfield,..,..,on
81043,..,trail,kitchener,..,huntingwood,..,..,on
81044,..,trail,kitchener,..,grand river,..,..,on
81045,..,trail,kitchener,..,grand river,..,..,on
81046,..,trail,kitchener,..,lantern,..,..,on
81047,..,trail,kitchener,..,lantern,..,..,on
