Index,Facility_Name,ODRSF_facility_type,Provider,Street_No,Street_Name,Postal_Code,City,Prov_Terr
1082,Civic Centre Park Playground 1,playground,kitchener,101,queen,..,..,on
1122,Cloverdale Park Playground,playground,kitchener,45,birchcliff,..,..,on
1160,Concordia Park Playground 1,playground,kitchener,250,barbara,..,..,on
1161,Conestoga College Arena,arena,kitchener,299,doon valley,..,..,on
1211,Country Clair Park Playground 1,playground,kitchener,34,country clair,..,..,on
1213,Country Hill Estates - Pool,pool,waterloo region,250,country hill,..,kitchener,on
1214,Country Hill Place - Pool,pool,waterloo region,170,country hill,..,kitchener,on
1215,Country Hill Public School Playground,playground,kitchener,195,hill,..,..,on
1216,Country Hills C.C. Playground 1,playground,kitchener,100,rittenhouse,..,..,on
1217,Country Hills Community Centre,community centre,kitchener,100,rittenhouse,..,..,on
1218,Country Hills Park Playground 1,playground,kitchener,365,hill,..,..,on
1220,Countrystone Park Playground 1,playground,kitchener,1086,countrystone,..,..,on
1223,Courtland Terrace,pool,waterloo region,1100,courtland,..,kitchener,on
1247,Crestview Public School Playground 1,playground,kitchener,153,montcalm,..,..,on
1255,Crosby Park Playground,playground,kitchener,60,crosby,..,..,on
1262,Crowne Plaza - Pool,pool,waterloo region,105,king,..,kitchener,on
1314,Deer Ridge Park Playground 1,playground,kitchener,471,deer ridge,..,..,on
1338,Detweiler Park Playground,playground,kitchener,471,westforest,..,..,on
1352,Dinison Park Playground 1,playground,kitchener,165,dinison,..,..,on
1360,Dom Cardillo Arena,arena,kitchener,400,east,..,kitchener,on
1371,Don Mc Laren Arena,arena,kitchener,61,green,..,..,on
1389,Doon Mills Park Playground,playground,kitchener,4,doon mils,..,..,on
1390,Doon Pioneer Park Community Centre,community centre,kitchener,150,pioneer,..,..,on
1391,Doon Pioneer Park Splash Pad,splash pad,kitchener,150,pioneer,..,..,on
1395,Double Tree By Hilton Indoor Pool,pool,waterloo region,30,fairway,..,kitchener,on
1407,Downtown Community Centre,community centre,kitchener,35,weber,..,..,on
1418,Driftwood Park Public School Playground 1,playground,kitchener,50,driftwood,..,..,on
1430,Duke Park Playground,playground,kitchener,455,duke,..,..,on
1449,Eagen Drive Pool,pool,waterloo region,81,eagen,..,kitchener,on
1494,Eastforest Park Playground 1,playground,kitchener,140,eastforest,..,..,on
1506,Eby Park Playground 1,playground,kitchener,137,holborn,..,..,on
1508,Ecole Elementaire Catholique Cardinal-Leger Playground 1,playground,kitchener,345,country,..,..,on
1513,Eden Oak Park Playground 1,playground,kitchener,125,eden oak,..,..,on
1525,Edmund Green Playground,playground,kitchener,55,edmund,..,..,on
1559,Elmsdale Park Playground 1,playground,kitchener,83,elmsdale,..,..,on
1644,Fallowfield Park Playground,playground,kitchener,185,fallowfield,..,..,on
1645,Fallowfield Pool 2,pool,waterloo region,111,fallowfield,..,kitchener,on
1646,Fallowfield Towers 1 Pool,pool,waterloo region,151,fallowfield,..,kitchener,on
1662,Fenwick Green Playground,playground,kitchener,140,fenwick,..,..,on
1674,Filsinger Park West Playground,playground,kitchener,..,westmount,..,..,on
1711,Forest Creek Park Playground,playground,kitchener,40,creek,..,..,on
1716,Forest Heights C.C. Playground 1,playground,kitchener,1700,queens,..,..,on
1717,Forest Heights C.I. Swimming Pool,pool,kitchener,253,hallman,..,..,on
1718,Forest Heights Community Centre,community centre,kitchener,1700,queens,..,..,on
1719,Forest Heights Leisure Pool,pool,waterloo region,253,fischer-hallman,..,kitchener,on
1722,Forest Hill Park Playground,playground,kitchener,330,village,..,..,on
1723,Forest Hill Public School Playground,playground,kitchener,255,westmount,..,..,on
1731,Forest West Park Playground 1,playground,kitchener,155,highview,..,..,on
1734,Forfar Park Playground,playground,kitchener,80,forfar,..,..,on
