Index,Facility_Name,ODRSF_facility_type,Provider,Street_No,Street_Name,Postal_Code,City,Prov_Terr
166120,East Bank Levee,park,cambridge,..,..,..,..,on
166345,Ellacott Lookout,park,cambridge,..,..,..,..,on
166447,Equestrian Way Park,park,cambridge,..,..,..,..,on
166615,Fairlake Parkette,park,cambridge,..,..,..,..,on
166909,Forbes Park,park,cambridge,..,..,..,..,on
166910,Forbes Park Extension,park,cambridge,..,..,..,..,on
166993,Founders Point,park,cambridge,..,..,..,..,on
167072,Fraser Woodlot,park,cambridge,..,..,..,..,on
167171,Gail St Park,park,cambridge,..,..,..,..,on
167185,Galt Horticultural Society,park,cambridge,..,..,..,..,on
167639,Gordon Chaplin Park,park,cambridge,..,..,..,..,on
167658,Gore Park,park,cambridge,..,..,..,..,on
167718,Grand River Access,park,cambridge,..,..,..,..,on
167739,Grandridge Access,park,cambridge,..,..,..,..,on
167840,Greengate Park,park,cambridge,..,..,..,..,on
167867,Greenway Park,park,cambridge,..,..,..,..,on
167896,Griffiths Ave Park,park,cambridge,..,..,..,..,on
167897,Grills Park,park,cambridge,..,..,..,..,on
167926,Guelph Valley Lands,park,cambridge,..,..,..,..,on
168020,Hancock Park,park,cambridge,..,..,..,..,on
168215,Heise Park,park,cambridge,..,..,..,..,on
168348,Hespeler Mill Pond,park,cambridge,..,..,..,..,on
168349,Hespeler Optimist Park,park,cambridge,..,..,..,..,on
168351,Hespeler View Parkette,park,cambridge,..,..,..,..,on
168352,Hespeler Woodlot,park,cambridge,..,..,..,..,on
168451,Hill 60 Park,park,cambridge,..,..,..,..,on
168466,Hillcrest Park,park,cambridge,..,..,..,..,on
168502,Hillview Park,park,cambridge,..,..,..,..,on
168946,Jacobs Landing,park,cambridge,..,..,..,..,on
169145,John Erb Park,park,cambridge,..,..,..,..,on
170186,Lawrence St Park,park,cambridge,..,..,..,..,on
170204,Leash Free Dog Park,park,cambridge,..,..,..,..,on
170344,Lincoln Park,park,cambridge,..,..,..,..,on
170373,Linden Dr Park,park,cambridge,..,..,..,..,on
170394,Linear Park,park,cambridge,..,..,..,..,on
170412,Lions Can Amera Park,park,cambridge,..,..,..,..,on
170675,Lynn Freure Park,park,cambridge,..,..,..,..,on
170747,Macteith Park,park,cambridge,..,..,..,..,on
171114,Mattamy 1 Park,park,cambridge,..,..,..,..,on
171115,Mattamy 2 Park,park,cambridge,..,..,..,..,on
171537,Mill Pond Neighbourhood Park,park,cambridge,..,..,..,..,on
171538,Mill Race Park,park,cambridge,..,..,..,..,on
171539,Mill Run Trail,park,cambridge,..,..,..,..,on
171721,Moffatt Woodlot,park,cambridge,..,..,..,..,on
171858,Morva Rouse Park,park,cambridge,..,..,..,..,on
171940,Moyers Blair Landing,park,cambridge,..,..,..,..,on
172298,Northview Heights Lookout Park,park,cambridge,..,..,..,..,on
172651,Otto Klotz Park,park,cambridge,..,..,..,..,on
173618,Parkhill Road Lookout,park,cambridge,..,..,..,..,on
