Index,Facility_Name,ODRSF_facility_type,Provider,Street_No,Street_Name,Postal_Code,City,Prov_Terr
80899,..,trail,kitchener,..,lawrence,..,..,on
80900,..,trail,kitchener,..,burn,..,..,on
80901,..,trail,kitchener,..,lennox,..,..,on
80902,..,trail,kitchener,..,goundry,..,..,on
80903,..,trail,kitchener,..,goundry,..,..,on
80904,..,trail,kitchener,..,erinbrook,..,..,on
80905,..,trail,kitchener,..,homer watson offramp,..,..,on
80906,..,trail,kitchener,..,greenbrook,..,..,on
80907,..,trail,kitchener,..,creek,..,..,on
80908,..,trail,kitchener,..,river birch,..,..,on
80909,..,trail,kitchener,..,river birch,..,..,on
80910,..,trail,kitchener,..,ivy lane,..,..,on
80911,..,trail,kitchener,..,chestnut hill,..,..,on
80912,..,trail,kitchener,..,chestnut hill,..,..,on
80913,..,trail,kitchener,..,country hill,..,..,on
80914,..,trail,kitchener,..,country hill,..,..,on
80915,..,trail,kitchener,..,old country pl,..,..,on
80916,..,trail,kitchener,..,country,..,..,on
80917,..,trail,kitchener,..,fischer hallman,..,..,on
80918,..,trail,kitchener,..,fischer hallman,..,..,on
80919,..,trail,kitchener,..,highbrook,..,..,on
80920,..,trail,kitchener,..,mossgrove,..,..,on
80921,..,trail,kitchener,..,bechtel,..,..,on
80922,..,trail,kitchener,..,pinnacle,..,..,on
80923,..,trail,kitchener,..,countrystone,..,..,on
80924,..,trail,kitchener,..,countrystone,..,..,on
80925,..,trail,kitchener,..,westforest,..,..,on
80926,..,trail,kitchener,..,westforest,..,..,on
80927,..,trail,kitchener,..,stoke,..,..,on
80928,..,trail,kitchener,..,ingleside,..,..,on
80929,..,trail,kitchener,..,gilmour,..,..,on
80930,..,trail,kitchener,..,bank swallow,..,..,on
80931,..,trail,kitchener,..,homer watson,..,..,on
80932,..,trail,kitchener,..,mill park,..,..,on
80933,..,trail,kitchener,..,homer watson,..,..,on
80934,..,trail,kitchener,..,homer watson,..,..,on
80935,..,trail,kitchener,..,schneider,..,..,on
80936,..,trail,kitchener,..,schneider,..,..,on
80937,..,trail,kitchener,..,wabanaki,..,..,on
80938,..,trail,kitchener,..,wabanaki,..,..,on
80939,..,trail,kitchener,..,wabanaki,..,..,on
80940,..,trail,kitchener,..,homer watson,..,..,on
80941,..,trail,kitchener,..,homer watson,..,..,on
80942,..,trail,kitchener,..,green valley,..,..,on
80943,..,trail,kitchener,..,manitoulin,..,..,on
80944,..,trail,kitchener,..,grand river,..,..,on
80945,..,trail,kitchener,..,union,..,..,on
80946,..,trail,kitchener,..,trillium,..,..,on
80947,..,trail,kitchener,..,trillium,..,..,on
