Index,Facility_Name,ODRSF_facility_type,Provider,Street_No,Street_Name,Postal_Code,City,Prov_Terr
78890,..,trail,kitchener,..,old park,..,..,on
78891,..,trail,kitchener,..,huron,..,..,on
78892,..,trail,kitchener,..,pennsylvania,..,..,on
78893,..,trail,kitchener,..,pine hill,..,..,on
78894,..,trail,kitchener,..,green valley,..,..,on
78895,..,trail,kitchener,..,wycliffe,..,..,on
78896,..,trail,kitchener,..,roland,..,..,on
78897,..,trail,kitchener,..,jubilee,..,..,on
78898,..,trail,kitchener,..,roland,..,..,on
78899,..,trail,kitchener,..,gravel ridge trail,..,..,on
78900,..,trail,kitchener,..,doon valley,..,..,on
78901,..,trail,kitchener,..,..,..,..,on
78902,..,trail,kitchener,..,lennox lewis,..,..,on
78903,..,trail,kitchener,..,indian,..,..,on
78904,..,trail,kitchener,..,zeller,..,..,on
78905,..,trail,kitchener,..,lennox lewis,..,..,on
78906,..,trail,kitchener,..,river,..,..,on
78907,..,trail,kitchener,..,coach hill,..,..,on
78908,..,trail,kitchener,..,moore,..,..,on
78909,..,trail,kitchener,..,moore,..,..,on
78910,..,trail,kitchener,..,moore,..,..,on
78911,..,trail,kitchener,..,moore,..,..,on
78912,..,trail,kitchener,..,moore,..,..,on
78913,..,trail,kitchener,..,pine,..,..,on
78914,..,trail,kitchener,..,stoke,..,..,on
78915,..,trail,kitchener,..,stoke,..,..,on
78916,..,trail,kitchener,..,st jerome,..,..,on
78917,..,trail,kitchener,..,denlow,..,..,on
78918,..,trail,kitchener,..,paige,..,..,on
78919,..,trail,kitchener,..,paige,..,..,on
78920,..,trail,kitchener,..,moore,..,..,on
78921,..,trail,kitchener,..,moore,..,..,on
78922,..,trail,kitchener,..,..,..,..,on
78923,..,trail,kitchener,..,..,..,..,on
78924,..,trail,kitchener,..,moore,..,..,on
78925,..,trail,kitchener,..,..,..,..,on
78926,..,trail,kitchener,..,..,..,..,on
78927,..,trail,kitchener,..,parkland,..,..,on
78928,..,trail,kitchener,..,homer watson,..,..,on
78929,..,trail,kitchener,..,path,..,..,on
78930,..,trail,kitchener,..,resurrection,..,..,on
78931,..,trail,kitchener,..,homer watson,..,..,on
78932,..,trail,kitchener,..,forwell,..,..,on
78933,..,trail,kitchener,..,lennox lewis,..,..,on
78934,..,trail,kitchener,..,avalon,..,..,on
78935,..,trail,kitchener,..,braun,..,..,on
78936,..,trail,kitchener,..,..,..,..,on
78937,..,trail,kitchener,..,braun,..,..,on
78938,..,trail,kitchener,..,shelley,..,..,on
