Index,Facility_Name,ODRSF_facility_type,Provider,Street_No,Street_Name,Postal_Code,City,Prov_Terr
167531,Glenvista Dr - Swp,park,kitchener,157,seabrook,..,..,on
167640,Gordon Green,park,kitchener,11,gordon,..,..,on
167719,Grand River Corridor,park,kitchener,..,pioneer tower,..,..,on
167720,Grand River Floodplain (King Street East),park,kitchener,..,king,..,..,on
167721,Grand River Natural Area,park,kitchener,1270,zeller,..,..,on
167722,Grand River Natural Area - Sims Estate,park,kitchener,..,edgewater,..,..,on
167723,Grand River Natural Area (Old Mill),park,kitchener,..,..,..,..,on
167725,Grand River Trail - Old Cottage Lane Greenway,park,kitchener,..,kestrel,..,..,on
167732,Grand View Woods North (Mto),park,kitchener,..,grandhill,..,..,on
167733,Grand View Woods South (Grca),park,kitchener,..,grandhill,..,..,on
167787,Grca Lands (Grca),park,kitchener,..,pioneer tower,..,..,on
167825,Greenbrook Pumping Station,park,kitchener,20,greenbrook,..,..,on
167830,Greenfield Park,park,kitchener,525,greenfield,..,..,on
167838,Greengable Park,park,kitchener,1220,greengable,..,..,on
167907,Grove Drive - Swp,park,kitchener,1445,grove,..,..,on
167908,Grove Drive Greenway,park,kitchener,..,grove,..,..,on
167924,Guelph Street Park,park,kitchener,800,guelph,..,..,on
167956,Gzowski Park,park,kitchener,10,chopin,..,..,on
168029,Hanover Green,park,kitchener,..,block line,..,..,on
168103,Hart Green,park,kitchener,274,hartwood,..,..,on
168191,Hearth Green,park,kitchener,..,hearth,..,..,on
168192,Hearthwood - Swp,park,kitchener,372,hearthwood,..,..,on
168193,Hearthwood Dr Trail Natural Area,park,kitchener,..,hearthwood,..,..,on
168194,Hearthwood Natural Area,park,kitchener,372,hearthwood,..,..,on
168229,Helena Feasby St - Swp,park,kitchener,1440,bleams,..,..,on
168272,Henry Sturm Greenway,park,kitchener,..,west,..,..,on
168274,Henry Sturm Greenway - Fenwick Greenway,park,kitchener,..,west,..,..,on
168275,Henry Sturm Greenway - Fenwick Natural Area,park,kitchener,..,west,..,..,on
168276,Henry Sturm Greenway - Resurrection,park,kitchener,328,west,..,..,on
168277,Henry Sturm Greenway - Resurrection Natural Area,park,kitchener,..,west,..,..,on
168315,Heritage Park,park,kitchener,30,halifax,..,..,on
168358,Hewitt Park,park,kitchener,269,seabrook,..,..,on
168365,Hibner Park,park,kitchener,70,ahrens,..,..,on
168381,Hidden Valley Park,park,kitchener,..,hidden,..,..,on
168383,Hidden Valley Park Natural Area,park,kitchener,2095,hidden,..,..,on
168402,Highbrook Park,park,kitchener,110,highbrook,..,..,on
168419,Highgate Road - Swp,park,kitchener,3,highgate,..,..,on
168421,Highland Courts Park,park,kitchener,120,highland,..,..,on
168491,Hillside Park,park,kitchener,15,hill,..,..,on
168522,Hofstetter Park,park,kitchener,40,hofstetter,..,..,on
168575,Homer Watson Park,park,kitchener,40,valley,..,..,on
168576,Homer Watson Park (Grca),park,kitchener,14,mill,..,..,on
168577,Homer Watson Park (Region),park,kitchener,345,mill,..,..,on
168580,Homewood Green,park,kitchener,161,homewood,..,..,on
168632,Howe Dr - Swp,park,kitchener,178,windale,..,..,on
168645,Huck Park Greenway,park,kitchener,225,huck,..,..,on
168647,Huck Park Natural Area,park,kitchener,231,huck,..,..,on
168712,Huron Natural Area,park,kitchener,801,trillium,..,..,on
168715,Huron Trail,park,kitchener,..,huron,..,..,on
