Index,Facility_Name,ODRSF_facility_type,Provider,Street_No,Street_Name,Postal_Code,City,Prov_Terr
11155,Forest Heights C.C. Basketball Court,sports field,kitchener,1700,queens,..,..,on
11156,Forest Heights C.I. Soccer/Fieldhockey Field-4,sports field,kitchener,255,hallman,..,..,on
11157,Forest Heights C.I. Soccer/Football Field,sports field,kitchener,255,hallman,..,..,on
11158,Forest Heights C.I. Tennis Court,sports field,kitchener,255,hallman,..,..,on
11165,Forest Hill Park Ball Diamond,sports field,kitchener,255,westmount,..,..,on
11166,Forest Hill School Soccer Field,sports field,kitchener,255,westmount,..,..,on
11176,Forest West Park Ball Diamond,sports field,kitchener,155,highview,..,..,on
11204,Foxglove Park Soccer Field,sports field,kitchener,20,foxglove,..,..,on
11205,Foxglove Park Toboggan Hill,sports field,kitchener,20,foxglove,..,..,on
11221,Franklin Park Ball Diamond 3,sports field,kitchener,335,franklin,..,..,on
11222,Franklin Park Basketball Court,sports field,kitchener,335,franklin,..,..,on
11223,Franklin Park Blast Ball 1,sports field,kitchener,335,franklin,..,..,on
11224,Franklin Park Blast Ball 2,sports field,kitchener,335,franklin,..,..,on
11225,Franklin Park Blast Ball 3,sports field,kitchener,335,franklin,..,..,on
11226,Franklin Park Multi-Purpose Pad,sports field,kitchener,335,franklin,..,..,on
11227,Franklin Park Tennis Court,sports field,kitchener,335,franklin,..,..,on
11228,Franklin School Ball Diamond 1,sports field,kitchener,371,franklin,..,..,on
11229,Franklin School Ball Diamond 2,sports field,kitchener,371,franklin,..,..,on
11342,George Lippert Park Basketball Court,sports field,kitchener,200,weber,..,..,on
11343,George Lippert Park Tennis Court,sports field,kitchener,200,weber,..,..,on
11381,Gildner Green Basketball Court,sports field,kitchener,29,eden,..,..,on
11426,Glencairn School Ball Diamond,sports field,kitchener,664,erinbrook,..,..,on
11427,Glencarin School Soccer Field-1,sports field,kitchener,664,erinbrook,..,..,on
11428,Glencarin School Soccer Field-2,sports field,kitchener,664,erinbrook,..,..,on
11436,Glendale Park Ball Diamond,sports field,kitchener,130,glen,..,..,on
11437,Glendale Park Basketball Court,sports field,kitchener,130,glen,..,..,on
11438,Glendale Park Tennis Court,sports field,kitchener,130,glen,..,..,on
11541,Grand River C.I. Soccer Field 1,sports field,kitchener,175,indian,..,..,on
11542,Grand River C.I. Soccer Field 2,sports field,kitchener,175,indian,..,..,on
11604,Greengable Park Ball Diamond,sports field,kitchener,1220,greengable,..,..,on
11640,Guelph Park Basketball Court,sports field,kitchener,800,guelph,..,..,on
11658,Gzowski Park Ball Diamond,sports field,kitchener,10,chopin,..,..,on
11830,Heritage Greens Lawn Bowling Field,sports field,kitchener,600,heritage,..,..,on
11838,Heritage Park Tennis Court,sports field,kitchener,30,halifax,..,..,on
11904,Highland Court Tennis Court,sports field,kitchener,120,highland,..,..,on
11905,Highland Courts Lawn Bowling,sports field,kitchener,120,highland,..,..,on
11930,Hillside Park Ball Diamond,sports field,kitchener,15,hill,..,..,on
11931,Hillside Park Toboggan Hill,sports field,kitchener,15,hill,..,..,on
11949,Hofstetter Park Ball Diamond,sports field,kitchener,40,cameo,..,..,on
12043,Howard Robertson School Ball Diamond,sports field,kitchener,130,morgan,..,..,on
12044,Howard Robertson School Soccer Field,sports field,kitchener,130,morgan,..,..,on
12099,Huron Heights Secondary School Soccer Field 1,sports field,kitchener,1825,strasburg,..,..,on
12100,Huron Heights Secondary School Soccer Field 2,sports field,kitchener,1825,strasburg,..,..,on
12114,Idlewood Park Ball Diamond,sports field,kitchener,119,arlington,..,..,on
12115,Idlewood Park Soccer Field,sports field,kitchener,119,arlington,..,..,on
12163,J.F. Carmiachael School Soccer Field 1,sports field,kitchener,80,patricia,..,..,on
12164,J.F. Carmiachael School Soccer Field 2,sports field,kitchener,80,patricia,..,..,on
12165,J.F. Carmichael School Ball Diamond,sports field,kitchener,80,patricia,..,..,on
12170,J.W. Gerth Public School Soccer Field,sports field,kitchener,171,apple ridge,..,..,on
