Index,Facility_Name,ODRSF_facility_type,Provider,Street_No,Street_Name,Postal_Code,City,Prov_Terr
49392,Partridge Pl To Pinebrook Park,trail,waterloo region,..,..,..,..,on
49393,Pastern Trail To Marengo Crt,trail,waterloo region,..,..,..,..,on
49394,Pastern Trail To University Ave E,trail,waterloo region,..,..,..,..,on
49713,Pelham Park,trail,waterloo region,..,..,..,..,on
49714,Pelham Park,trail,waterloo region,..,..,..,..,on
49727,Penny Lane To Springfield Cres,trail,waterloo region,..,..,..,..,on
49840,Phillip St,trail,waterloo region,..,..,..,..,on
49841,Phillip St To Phillip St,trail,waterloo region,..,..,..,..,on
49868,Pine Grove Cres To Sprucehill Ave,trail,waterloo region,..,..,..,..,on
49869,Pine Island Cres To Northlake Woods Public School,trail,waterloo region,..,..,..,..,on
49870,Pinebrook Park,trail,waterloo region,..,..,..,..,on
49871,Pinebrook Park,trail,waterloo region,..,..,..,..,on
49872,Pinebrook Park,trail,waterloo region,..,..,..,..,on
49873,Pinebrook Park,trail,waterloo region,..,..,..,..,on
49874,Pinebrook Park,trail,waterloo region,..,..,..,..,on
49875,Pinebrook Park,trail,waterloo region,..,..,..,..,on
49876,Pinebrook Park,trail,waterloo region,..,..,..,..,on
49877,Pinebrook Park,trail,waterloo region,..,..,..,..,on
49878,Pinebrook Park,trail,waterloo region,..,..,..,..,on
49879,Pinebrook Park,trail,waterloo region,..,..,..,..,on
49880,Pinebrook Park,trail,waterloo region,..,..,..,..,on
49881,Pinebrook Park,trail,waterloo region,..,..,..,..,on
49882,Pinebrook Park,trail,waterloo region,..,..,..,..,on
49883,Pinebrook Park,trail,kitchener,..,..,..,waterloo,on
49884,Pinebrook Pl To Pinebrook Park,trail,waterloo region,..,..,..,..,on
49896,Pinerow Cres To 634 Erb St W,trail,waterloo region,..,..,..,..,on
49897,Pinerow Cres To 634 Erb St W,trail,waterloo region,..,..,..,..,on
49898,Pinerow Cres To Erbsville Crt,trail,waterloo region,..,..,..,..,on
49899,Pinerow Park,trail,waterloo region,..,..,..,..,on
49900,Pinerow Park,trail,waterloo region,..,..,..,..,on
49901,Pinerow Park,trail,waterloo region,..,..,..,..,on
49902,Pinery Trail To Pinery Trail Swm A,trail,waterloo region,..,..,..,..,on
49903,Pinery Trail To Wasaga Cres,trail,waterloo region,..,..,..,..,on
49931,Platinum Dr,trail,waterloo region,..,..,..,..,on
49932,Platinum Dr,trail,waterloo region,..,..,..,..,on
49933,Platinum Dr,trail,waterloo region,..,..,..,..,on
49934,Platinum Dr,trail,waterloo region,..,..,..,..,on
50478,Quiet Pl To Old Albert Park,trail,waterloo region,..,..,..,..,on
50556,Ralston Pl To Sandford Fleming Dr,trail,waterloo region,..,..,..,..,on
50754,Red Osier Rd To Forested Hills - E.S.P.A. 19,trail,waterloo region,..,..,..,..,on
50759,Red River Park,trail,waterloo region,..,..,..,..,on
50760,Red River Park,trail,waterloo region,..,..,..,..,on
50761,Red River Park,trail,kitchener,..,..,..,waterloo,on
50766,Redfox Rd To Davenport Rd,trail,waterloo region,..,..,..,..,on
50892,Regency Park,trail,waterloo region,..,..,..,..,on
50893,Regency Park,trail,waterloo region,..,..,..,..,on
50894,Regency Park,trail,waterloo region,..,..,..,..,on
50895,Regency Park,trail,waterloo region,..,..,..,..,on
50896,Regency Park,trail,waterloo region,..,..,..,..,on
