Index,Facility_Name,ODRSF_facility_type,Provider,Street_No,Street_Name,Postal_Code,City,Prov_Terr
28401,Grand Trunk Trail,trail,cambridge,..,..,..,..,on
28402,Grand Trunk Trail,trail,cambridge,..,..,..,..,on
28403,Grand Trunk Trail,trail,cambridge,..,..,..,..,on
28404,Grand Trunk Trail,trail,cambridge,..,..,..,..,on
28405,Grand Trunk Trail,trail,cambridge,..,..,..,..,on
28406,Grand Trunk Trail,trail,cambridge,..,..,..,..,on
28407,Grand Trunk Trail,trail,cambridge,..,..,..,..,on
28408,Grand Trunk Trail,trail,cambridge,..,..,..,..,on
28409,Grand Trunk Trail,trail,cambridge,..,..,..,..,on
28411,Grand Trunk Trail,trail,cambridge,..,..,..,..,on
28412,Grand Trunk Trail,trail,cambridge,..,..,..,..,on
28413,Grand Trunk Trail,trail,cambridge,..,..,..,..,on
28414,Grand Trunk Trail,trail,cambridge,..,..,..,..,on
28415,Grand Trunk Trail,trail,cambridge,..,..,..,..,on
28416,Grand Trunk Trail,trail,cambridge,..,..,..,..,on
28417,Grand Trunk Trail,trail,cambridge,..,..,..,..,on
28418,Grand Trunk Trail,trail,cambridge,..,..,..,..,on
28541,Granite Hill Trail,trail,cambridge,..,..,..,..,on
28608,Green Gate Blvd To Maple Bush Dr,trail,cambridge,..,..,..,..,on
28739,Grills Park,trail,cambridge,..,..,..,..,on
29120,Heise Park,trail,cambridge,..,..,..,..,on
29478,Hespeler Optimist Park,trail,cambridge,..,..,..,..,on
29479,Hespeler Optimist Park,trail,cambridge,..,..,..,..,on
29480,Hespeler Optimist Park,trail,cambridge,..,..,..,..,on
29481,Hespeler Optimist Park,trail,cambridge,..,..,..,..,on
29482,Hespeler Optimist Park,trail,cambridge,..,..,..,..,on
29483,Hespeler Optimist Park,trail,kitchener,..,..,..,cambridge,on
29484,Hespeler Woodlot,trail,cambridge,..,..,..,..,on
29485,Hespeler Woodlot,trail,cambridge,..,..,..,..,on
29486,Hespeler Woodlot,trail,cambridge,..,..,..,..,on
29487,Hespeler Woodlot,trail,cambridge,..,..,..,..,on
29488,Hespeler Woodlot,trail,cambridge,..,..,..,..,on
29489,Hespeler Woodlot,trail,cambridge,..,..,..,..,on
29490,Hespeler Woodlot,trail,cambridge,..,..,..,..,on
29605,Hill 60 Park,trail,cambridge,..,..,..,..,on
29606,Hill 60 Park,trail,cambridge,..,..,..,..,on
29607,Hill 60 Park,trail,cambridge,..,..,..,..,on
29610,Hillborn Knoll,trail,kitchener,..,..,..,cambridge,on
29611,Hillborn Knoll,trail,kitchener,..,..,..,cambridge,on
35315,Lawrence St Park,trail,cambridge,..,..,..,..,on
35316,Lawrence St Park,trail,cambridge,..,..,..,..,on
35317,Lawrence St Park,trail,cambridge,..,..,..,..,on
35717,Lincoln Park,trail,cambridge,..,..,..,..,on
35718,Lincoln Park,trail,cambridge,..,..,..,..,on
35719,Lincoln Park,trail,cambridge,..,..,..,..,on
35740,Linear Trail,trail,kitchener,..,..,..,cambridge,on
35741,Linear Trail,trail,kitchener,..,..,..,cambridge,on
35742,Linear Trail,trail,kitchener,..,..,..,cambridge,on
35743,Linear Trail,trail,kitchener,..,..,..,cambridge,on
