Index,Facility_Name,ODRSF_facility_type,Provider,Street_No,Street_Name,Postal_Code,City,Prov_Terr
78639,..,trail,kitchener,..,..,..,..,on
78640,..,trail,kitchener,..,manitou,..,..,on
78641,..,trail,kitchener,..,..,..,..,on
78642,..,trail,kitchener,..,devon,..,..,on
78643,..,trail,kitchener,..,west,..,..,on
78644,..,trail,kitchener,..,isaiah,..,..,on
78645,..,trail,kitchener,..,bleams,..,..,on
78646,..,trail,kitchener,..,bleams,..,..,on
78647,..,trail,kitchener,..,..,..,..,on
78648,..,trail,kitchener,..,maplewood,..,..,on
78649,..,trail,kitchener,..,maplewood,..,..,on
78650,..,trail,kitchener,..,david,..,..,on
78651,..,trail,kitchener,..,gravel ridge trail,..,..,on
78652,..,trail,kitchener,..,union,..,..,on
78653,..,trail,kitchener,..,lennox,..,..,on
78654,..,trail,kitchener,..,kehl,..,..,on
78655,..,trail,kitchener,..,robert ferrie,..,..,on
78656,..,trail,kitchener,..,pine valley,..,..,on
78657,..,trail,kitchener,..,longview,..,..,on
78658,..,trail,kitchener,..,harvest,..,..,on
78659,..,trail,kitchener,..,topper woods,..,..,on
78660,..,trail,kitchener,..,doon south,..,..,on
78661,..,trail,kitchener,..,doon south,..,..,on
78662,..,trail,kitchener,..,rivertrail,..,..,on
78663,..,trail,kitchener,..,eden oak,..,..,on
78664,..,trail,kitchener,..,eden oak,..,..,on
78665,..,trail,kitchener,..,..,..,..,on
78666,..,trail,kitchener,..,ottawa,..,..,on
78667,..,trail,kitchener,..,doon south,..,..,on
78668,..,trail,kitchener,..,doon village,..,..,on
78669,..,trail,kitchener,..,doon village,..,..,on
78670,..,trail,kitchener,..,doon village,..,..,on
78671,..,trail,kitchener,..,doon south,..,..,on
78672,..,trail,kitchener,..,doon south,..,..,on
78673,..,trail,kitchener,..,..,..,..,on
78674,..,trail,kitchener,..,toynbee,..,..,on
78675,..,trail,kitchener,..,..,..,..,on
78676,..,trail,kitchener,..,whisperwood,..,..,on
78677,..,trail,kitchener,..,hillbrook,..,..,on
78678,..,trail,kitchener,..,coach hill,..,..,on
78679,..,trail,kitchener,..,homer watson,..,..,on
78680,..,trail,kitchener,..,homer watson onramp,..,..,on
78681,..,trail,kitchener,..,homer watson onramp,..,..,on
78682,..,trail,kitchener,..,perin,..,..,on
78683,..,trail,kitchener,..,creek,..,..,on
78684,..,trail,kitchener,..,homer watson,..,..,on
78685,..,trail,kitchener,..,homer watson,..,..,on
78686,..,trail,kitchener,..,homer watson,..,..,on
78687,..,trail,kitchener,..,amand,..,..,on
