Index,Facility_Name,ODRSF_facility_type,Provider,Street_No,Street_Name,Postal_Code,City,Prov_Terr
35248,Laurelwood Dr,trail,waterloo region,..,..,..,..,on
35249,Laurelwood Dr,trail,waterloo region,..,..,..,..,on
35250,Laurelwood Dr,trail,waterloo region,..,..,..,..,on
35251,Laurelwood Dr,trail,waterloo region,..,..,..,..,on
35252,Laurelwood Dr,trail,waterloo region,..,..,..,..,on
35253,Laurelwood Dr,trail,waterloo region,..,..,..,..,on
35254,Laurelwood Dr,trail,waterloo region,..,..,..,..,on
35255,Laurelwood Dr,trail,waterloo region,..,..,..,..,on
35256,Laurelwood Dr,trail,waterloo region,..,..,..,..,on
35257,Laurelwood Dr,trail,waterloo region,..,..,..,..,on
35258,Laurelwood Dr,trail,waterloo region,..,..,..,..,on
35259,Laurelwood Dr,trail,waterloo region,..,..,..,..,on
35260,Laurelwood Dr,trail,waterloo region,..,..,..,..,on
35261,Laurelwood Dr,trail,waterloo region,..,..,..,..,on
35262,Laurelwood Dr,trail,waterloo region,..,..,..,..,on
35263,Laurelwood Dr,trail,waterloo region,..,..,..,..,on
35264,Laurelwood Dr,trail,waterloo region,..,..,..,..,on
35265,Laurelwood Dr,trail,waterloo region,..,..,..,..,on
35266,Laurelwood Dr,trail,waterloo region,..,..,..,..,on
35267,Laurelwood Dr,trail,waterloo region,..,..,..,..,on
35268,Laurelwood Dr To Havendale Cres,trail,waterloo region,..,..,..,..,on
35269,Laurelwood Dr To Violet St,trail,waterloo region,..,..,..,..,on
35270,Laurelwood Park,trail,waterloo region,..,..,..,..,on
35271,Laurelwood Park,trail,waterloo region,..,..,..,..,on
35272,Laurelwood Park,trail,waterloo region,..,..,..,..,on
35273,Laurelwood Park,trail,waterloo region,..,..,..,..,on
35274,Laurelwood Park,trail,waterloo region,..,..,..,..,on
35275,Laurelwood Park,trail,waterloo region,..,..,..,..,on
35276,Laurelwood Park,trail,waterloo region,..,..,..,..,on
35277,Laurelwood Park,trail,waterloo region,..,..,..,..,on
35278,Laurelwood Park,trail,waterloo region,..,..,..,..,on
35279,Laurelwood Park,trail,waterloo region,..,..,..,..,on
35280,Laurelwood Park,trail,kitchener,..,..,..,waterloo,on
35281,Laurelwood Park,trail,kitchener,..,..,..,waterloo,on
35282,Laurelwood Park,trail,kitchener,..,..,..,waterloo,on
35283,Laurelwood Swm Area To Pineland Crt,trail,waterloo region,..,..,..,..,on
35288,Laurewood Park,trail,kitchener,..,..,..,waterloo,on
35289,Laurewood Park,trail,kitchener,..,..,..,waterloo,on
35290,Laurewood Park,trail,kitchener,..,..,..,waterloo,on
35291,Laurewood Park,trail,kitchener,..,..,..,waterloo,on
35334,Lee Ave To ?,trail,waterloo region,..,..,..,..,on
35512,Leighland Park,trail,waterloo region,..,..,..,..,on
35513,Leighland Park,trail,waterloo region,..,..,..,..,on
35514,Leighland Park,trail,waterloo region,..,..,..,..,on
35515,Leighland Park,trail,waterloo region,..,..,..,..,on
35530,Leighland Park To Bushwood Crt,trail,waterloo region,..,..,..,..,on
35675,Lexington Parking Lot To Shallmar Crt,trail,waterloo region,..,..,..,..,on
35676,Lexington Rd,trail,waterloo region,..,..,..,..,on
35677,Lexington Rd,trail,waterloo region,..,..,..,..,on
