Index,Facility_Name,ODRSF_facility_type,Provider,Street_No,Street_Name,Postal_Code,City,Prov_Terr
29113,Heasley Park,trail,waterloo region,..,..,..,..,on
29176,Hemlock To Columbia St W,trail,waterloo region,..,..,..,..,on
29476,Herron Pl To Herron Pl,trail,waterloo region,..,..,..,..,on
29477,Herron Pl To University Ave W,trail,waterloo region,..,..,..,..,on
29494,Hickory St W,trail,waterloo region,..,..,..,..,on
29495,Hickory St W,trail,waterloo region,..,..,..,..,on
29496,Hickory St W To Waterloo Collegiate Institute,trail,waterloo region,..,..,..,..,on
29627,Hillside Park Reserve,trail,waterloo region,..,..,..,..,on
29628,Hillside Park Reserve,trail,waterloo region,..,..,..,..,on
29629,Hillside Park Reserve,trail,waterloo region,..,..,..,..,on
29630,Hillside Park Reserve,trail,waterloo region,..,..,..,..,on
29631,Hillside Park Reserve,trail,kitchener,..,..,..,waterloo,on
29632,Hillside Park Reserve,trail,kitchener,..,..,..,waterloo,on
29633,Hillside Park Reserve,trail,kitchener,..,university,..,waterloo,on
29634,Hillside Park Reserve,trail,kitchener,..,..,..,waterloo,on
29635,Hillside Park Reserve,trail,kitchener,..,..,..,waterloo,on
29636,Hillside Park Reserve,trail,kitchener,..,university,..,waterloo,on
29637,Hillside Park Reserve,trail,kitchener,..,..,..,waterloo,on
29638,Hillside Park Reserve,trail,kitchener,..,university,..,waterloo,on
29651,Holbeach Crt To Holbeach Green,trail,waterloo region,..,..,..,..,on
29652,Holbeach Green,trail,waterloo region,..,..,..,..,on
29653,Holbeach Green,trail,waterloo region,..,..,..,..,on
29670,Hollyview Park,trail,waterloo region,..,..,..,..,on
29671,Hollyview Park,trail,waterloo region,..,..,..,..,on
30627,Interlaken Park,trail,waterloo region,..,..,..,..,on
30637,Ira Needles Blvd,trail,waterloo region,..,..,..,..,on
30638,Ira Needles Blvd,trail,waterloo region,..,..,..,..,on
30639,Ira Needles Blvd,trail,waterloo region,..,..,..,..,on
30640,Ira Needles Blvd,trail,waterloo region,..,..,..,..,on
30641,Ira Needles Blvd To Cardiff St,trail,waterloo region,..,..,..,..,on
30642,Ira Needles Blvd To Grange Cres,trail,waterloo region,..,..,..,..,on
30825,Jefferson Crt To St. Mathew Catholic School,trail,waterloo region,..,..,..,..,on
31205,Karen Walk Parkette,trail,waterloo region,..,..,..,..,on
31206,Karen Walk Parkette,trail,waterloo region,..,..,..,..,on
31209,Kaufman Flats,trail,waterloo region,..,..,..,..,on
31210,Keats Way,trail,waterloo region,..,..,..,..,on
31211,Keats Way To Barrington Lane,trail,waterloo region,..,..,..,..,on
31212,Keats Way To Mccarron Cres,trail,waterloo region,..,..,..,..,on
31213,Keats Way To Sandy Ridge Pl,trail,waterloo region,..,..,..,..,on
31214,Keats Way To Woodbend Cres,trail,waterloo region,..,..,..,..,on
31215,Keats Way Woods,trail,waterloo region,..,..,..,..,on
31216,Keats Way Woods,trail,waterloo region,..,..,..,..,on
31217,Keats Way Woods,trail,waterloo region,..,..,..,..,on
31218,Keats Way Woods,trail,waterloo region,..,..,..,..,on
31219,Keats Way Woods,trail,waterloo region,..,..,..,..,on
31220,Keats Way Woods,trail,kitchener,..,..,..,waterloo,on
31221,Keats Way Woods,trail,kitchener,..,..,..,waterloo,on
31222,Keats Way Woods,trail,kitchener,..,..,..,waterloo,on
31223,Keats Way Woods,trail,kitchener,..,..,..,waterloo,on
