Index,Facility_Name,ODRSF_facility_type,Provider,Street_No,Street_Name,Postal_Code,City,Prov_Terr
66391,Walter Bean Grand River Trail,trail,kitchener,..,sims estate,..,..,on
66392,Walter Bean Grand River Trail,trail,kitchener,..,grand river,..,..,on
66393,Walter Bean Grand River Trail,trail,kitchener,..,doon valley,..,..,on
66394,Walter Bean Grand River Trail,trail,kitchener,..,doon valley,..,..,on
66395,Walter Bean Grand River Trail,trail,kitchener,..,doon valley,..,..,on
66396,Walter Bean Grand River Trail,trail,kitchener,..,bingemans centre,..,..,on
66397,Walter Bean Grand River Trail,trail,kitchener,..,7,..,..,on
66398,Walter Bean Grand River Trail,trail,kitchener,..,lancaster,..,..,on
66399,Walter Bean Grand River Trail,trail,kitchener,..,lancaster,..,..,on
66400,Walter Bean Grand River Trail,trail,kitchener,..,kestrel,..,..,on
66401,Walter Bean Grand River Trail,trail,kitchener,..,kestrel,..,..,on
66403,Walter Bean Grand River Trail,trail,kitchener,..,falconridge,..,..,on
66404,Walter Bean Grand River Trail,trail,kitchener,..,lancaster,..,..,on
66405,Walter Bean Grand River Trail,trail,kitchener,..,old mill,..,..,on
66406,Walter Bean Grand River Trail,trail,kitchener,..,falconridge,..,..,on
66407,Walter Bean Grand River Trail,trail,kitchener,..,lancaster,..,..,on
66408,Walter Bean Grand River Trail,trail,kitchener,..,kestrel,..,..,on
66409,Walter Bean Grand River Trail,trail,kitchener,..,lancaster,..,..,on
66410,Walter Bean Grand River Trail,trail,kitchener,..,rivertrail,..,..,on
66411,Walter Bean Grand River Trail,trail,kitchener,..,fairway,..,..,on
66412,Walter Bean Grand River Trail,trail,kitchener,..,fairway,..,..,on
66413,Walter Bean Grand River Trail,trail,kitchener,..,woolner trail,..,..,on
66414,Walter Bean Grand River Trail,trail,kitchener,..,hidden valley,..,..,on
66415,Walter Bean Grand River Trail,trail,kitchener,..,hidden valley,..,..,on
66416,Walter Bean Grand River Trail,trail,kitchener,..,brandy,..,..,on
66417,Walter Bean Grand River Trail,trail,kitchener,..,stillwater,..,..,on
66418,Walter Bean Grand River Trail,trail,kitchener,..,riverbend,..,..,on
66419,Walter Bean Grand River Trail,trail,kitchener,..,riverbend,..,..,on
66420,Walter Bean Grand River Trail,trail,kitchener,..,victoria,..,..,on
66421,Walter Bean Grand River Trail,trail,kitchener,..,victoria,..,..,on
66422,Walter Bean Grand River Trail,trail,kitchener,..,riverbend,..,..,on
66423,Walter Bean Grand River Trail,trail,kitchener,..,eaglecrest,..,..,on
66424,Walter Bean Grand River Trail,trail,kitchener,..,fairway,..,..,on
66425,Walter Bean Grand River Trail,trail,kitchener,..,..,..,..,on
66426,Walter Bean Grand River Trail,trail,kitchener,..,bingemans centre,..,..,on
66427,Walter Bean Grand River Trail,trail,kitchener,..,rivertrail,..,..,on
66428,Walter Bean Grand River Trail,trail,kitchener,..,otterbein,..,..,on
66429,Walter Bean Grand River Trail,trail,kitchener,..,sims estate,..,..,on
66430,Walter Bean Grand River Trail,trail,kitchener,..,mill park,..,..,on
66431,Walter Bean Grand River Trail,trail,kitchener,..,rivertrail,..,..,on
66432,Walter Bean Grand River Trail,trail,kitchener,..,rivertrail,..,..,on
66433,Walter Bean Grand River Trail,trail,kitchener,..,victoria,..,..,on
66434,Walter Bean Grand River Trail,trail,kitchener,..,otterbein,..,..,on
66435,Walter Bean Grand River Trail,trail,kitchener,..,..,..,..,on
66436,Walter Bean Grand River Trail,trail,kitchener,..,sims estate,..,..,on
66437,Walter Bean Grand River Trail,trail,kitchener,..,7,..,..,on
66438,Walter Bean Grand River Trail,trail,kitchener,..,bingemans centre,..,..,on
66439,Walter Bean Grand River Trail,trail,kitchener,..,bingemans centre,..,..,on
66440,Walter Bean Grand River Trail,trail,kitchener,..,hesh,..,..,on
