Index,Facility_Name,ODRSF_facility_type,Provider,Street_No,Street_Name,Postal_Code,City,Prov_Terr
2,221 Queen,pool,waterloo region,221,queen,..,kitchener,on
8,A.R. Kaufman Pool,pool,waterloo region,333,carwood,..,kitchener,on
9,A.R. Kaufman Public School,playground,kitchener,11,chopin,..,..,on
33,Activa Sportsplex,arena,kitchener,135,lennox lewis,..,..,on
42,Admiral Park Playground,playground,kitchener,93,roxborough,..,..,on
84,Alexandrian Pool,pool,waterloo region,53,water,..,kitchener,on
99,Alpine Park Playground,playground,kitchener,175,kingswood,..,..,on
100,Alpine Public School Playground 1,playground,kitchener,75,lucerne,..,..,on
193,Argyle Park Playground,playground,kitchener,80,belmont,..,..,on
201,Arnold Park Playground,playground,kitchener,70,arnold,..,..,on
202,Arrowhead Park Playground,playground,kitchener,116,arrowhead,..,..,on
208,Ash Park Playground,playground,kitchener,7,ash,..,..,on
250,Banffshire Park Playground 1,playground,kitchener,85,banffshire,..,..,on
251,Bankside Park Playground 1,playground,kitchener,292,bankside,..,..,on
304,Beaumont Park Playground,playground,kitchener,345,beaumont,..,..,on
310,Bechtel Dog Park,park,waterloo region,185,bridge,..,..,on
311,Bechtel Park,playground,waterloo region,..,..,..,..,on
346,Belmont Park Playground 1,playground,kitchener,285,belmont,..,..,on
405,Bingeman Park Cyclone,pool,waterloo region,425,bingemans centre,..,kitchener,on
426,Blair Creek Park Playground,playground,kitchener,165,blair creek,..,..,on
429,Blessed John Paul Ii Catholic School Playground 1,playground,kitchener,75,pebblecreek,..,..,on
503,Breithaupt Community Centre,community centre,kitchener,350,margaret,..,..,on
504,Breithaupt Park C.C. Playground,playground,kitchener,350,margaret,..,..,on
505,Breithaupt Park Playground 1,playground,kitchener,806,union,..,..,on
506,Breithaupt Park Splash Pad,splash pad,kitchener,806,union,..,..,on
507,Breithaupt Swimming Pool,pool,kitchener,350,margaret,..,..,on
530,Bridgeport C.C. Playground,playground,kitchener,20,tyson,..,..,on
531,Bridgeport Child Care Centre Playground,playground,kitchener,8,bridge,..,..,on
532,Bridgeport Community Centre,community centre,kitchener,20,tyson,..,..,on
533,Bridgeport Public School Playground 1,playground,kitchener,59,bridge,..,..,on
541,Brigadoon Public School Playground 1,playground,kitchener,415,caryndale,..,..,on
577,Brubacher Park Playground,playground,kitchener,65,brubacher,..,..,on
633,Cameo Terrace Pool,pool,waterloo region,3267,king,..,kitchener,on
635,Cameron Heights C.I. Swimming Pool,pool,kitchener,301,charles,..,..,on
656,Canadian Martyrs Catholic School Playground,playground,kitchener,50,confederation,..,..,on
671,Capitol Hill #2 - Pool,pool,waterloo region,10,overlea,..,kitchener,on
691,Carlyle Park Playground,playground,kitchener,580,pioneer,..,..,on
713,Caryndale Park Playground 1,playground,kitchener,40,hill,..,..,on
714,Casey Park Playground 1,playground,kitchener,50,casey,..,..,on
749,Cedar Crest Park Playground 1,playground,kitchener,92,cedar crest,..,..,on
759,Cedarhill Park Playground,playground,kitchener,92,cedarhill,..,..,on
968,Centreville Chicopee C.C. Playground,playground,kitchener,141,morgan,..,..,on
969,Centreville Chicopee Community Centre,community centre,kitchener,141,morgan,..,..,on
970,Centreville Chicopee Splash Pad,splash pad,kitchener,141,morgan,..,..,on
998,Chandler Mowat C.C. Playground,playground,kitchener,222,chandler,..,..,on
999,Chandler Mowat Community Centre,community centre,kitchener,222,chandler,..,..,on
1000,Chandler Mowat Splash Pad,splash pad,kitchener,222,chandler,..,..,on
1003,Charles Best Park Playground 1,playground,kitchener,104,charles best,..,..,on
1028,Cherry Park Playground 1,playground,kitchener,84,strange,..,..,on
