Index,Facility_Name,ODRSF_facility_type,Provider,Street_No,Street_Name,Postal_Code,City,Prov_Terr
639,Camp Kemur-Pool,pool,waterloo region,2130,river,..,north dumfries,on
641,Camp Shalom/Countryside Camp - Pool,pool,waterloo region,1985,beke,..,north dumfries,on
1365,Domm_Park,rink,cambridge,..,..,..,..,on
6411,Waterloo Regional Police- Swimming Pool,pool,waterloo region,1128,rife,..,north dumfries,on
9419,Camp Kemur - Recreational Camp,miscellaneous,waterloo region,2130,river,..,north dumfries,on
9420,Camp Shalom - Recreational Camp,miscellaneous,waterloo region,1985,beke,..,north dumfries,on
15864,Sim Court Park,sports field,cambridge,35,sim,..,..,on
24248,Cliffs And Alvars - Rare Trail,trail,kitchener,..,..,..,north dumfries,on
24249,Cliffs And Alvars - Rare Trail,trail,kitchener,..,..,..,north dumfries,on
24250,Cliffs And Alvars - Rare Trail,trail,kitchener,..,..,..,north dumfries,on
25308,Dean Lake,trail,kitchener,..,..,..,north dumfries,on
25309,Dean Lake,trail,kitchener,..,..,..,north dumfries,on
25310,Dean Lake,trail,kitchener,..,..,..,north dumfries,on
25311,Dean Lake,trail,kitchener,..,..,..,north dumfries,on
25312,Dean Lake,trail,kitchener,..,..,..,north dumfries,on
25313,Dean Lake,trail,kitchener,..,..,..,north dumfries,on
25314,Dean Lake,trail,kitchener,..,..,..,north dumfries,on
25315,Dean Lake,trail,kitchener,..,..,..,north dumfries,on
25316,Dean Lake,trail,kitchener,..,..,..,north dumfries,on
25317,Dean Lake,trail,kitchener,..,..,..,north dumfries,on
25318,Dean Lake,trail,kitchener,..,..,..,north dumfries,on
25319,Dean Lake,trail,kitchener,..,..,..,north dumfries,on
25320,Dean Lake,trail,kitchener,..,..,..,north dumfries,on
25321,Dean Lake,trail,kitchener,..,..,..,north dumfries,on
25322,Dean Lake,trail,kitchener,..,..,..,north dumfries,on
25323,Dean Lake,trail,kitchener,..,..,..,north dumfries,on
25324,Dean Lake,trail,kitchener,..,..,..,north dumfries,on
25325,Dean Lake,trail,kitchener,..,..,..,north dumfries,on
25326,Dean Lake,trail,kitchener,..,..,..,north dumfries,on
25327,Dean Lake,trail,kitchener,..,..,..,north dumfries,on
25328,Dean Lake,trail,kitchener,..,..,..,north dumfries,on
25329,Dean Lake,trail,kitchener,..,..,..,north dumfries,on
28410,Grand Trunk Trail,trail,cambridge,..,..,..,..,on
28419,Grand Valley Trail,trail,kitchener,..,..,..,north dumfries,on
28429,Grand Valley Trail,trail,kitchener,..,roseville,..,kitchener,on
28436,Grand Valley Trail,trail,kitchener,..,..,..,north dumfries,on
28437,Grand Valley Trail,trail,kitchener,..,spragues,..,north dumfries,on
28438,Grand Valley Trail,trail,kitchener,..,..,..,north dumfries,on
28439,Grand Valley Trail,trail,kitchener,..,spragues,..,north dumfries,on
28440,Grand Valley Trail,trail,kitchener,..,spragues,..,north dumfries,on
28441,Grand Valley Trail,trail,kitchener,..,..,..,north dumfries,on
28442,Grand Valley Trail,trail,kitchener,..,..,..,north dumfries,on
28445,Grand Valley Trail,trail,kitchener,..,dumfries,..,north dumfries,on
28446,Grand Valley Trail,trail,kitchener,..,roseville,..,north dumfries,on
28474,Grand Valley Trail,trail,kitchener,..,cedar creek,..,north dumfries,on
28475,Grand Valley Trail,trail,kitchener,..,..,..,north dumfries,on
28476,Grand Valley Trail,trail,kitchener,..,..,..,north dumfries,on
28477,Grand Valley Trail,trail,kitchener,..,..,..,north dumfries,on
28478,Grand Valley Trail,trail,kitchener,..,..,..,north dumfries,on
