Index,Facility_Name,ODRSF_facility_type,Provider,Street_No,Street_Name,Postal_Code,City,Prov_Terr
16990,St Benedicts High School 1,sports field,cambridge,50,saginaw,..,..,on
16991,St Benedicts High School 2,sports field,cambridge,50,saginaw,..,..,on
17024,St Elizabeth School,sports field,cambridge,50,adler,..,..,on
17035,St Gregory's School,sports field,cambridge,34,osborne,..,..,on
17042,St Josephs School,sports field,cambridge,550,rose,..,..,on
17326,Stewart Ave School,sports field,cambridge,145,stewart,..,..,on
17386,Studiman Park,sports field,cambridge,630,trico,..,..,on
17749,Timber Creek Parkland - Half Court Basketball,sports field,cambridge,80,timber creek,..,..,on
18019,Victoria Park (Galt),sports field,cambridge,99,wentworth,..,..,on
18020,Victoria Park (Galt),sports field,cambridge,99,wentworth,..,..,on
18021,Victoria Park (Hespeler),sports field,cambridge,66,fisher mills,..,..,on
18022,Victoria Park (Hespeler),sports field,cambridge,66,fisher mills,..,..,on
18023,Victoria Park (Hespeler),sports field,cambridge,0,fisher mills,..,..,on
18024,Victoria Park (Hespeler),sports field,cambridge,66,fisher mills,..,..,on
18178,Waterworks Park,sports field,cambridge,55,middleton,..,..,on
18179,Waterworks Park,sports field,cambridge,55,middleton,..,..,on
18181,Waterworks Park - T-Ball,sports field,cambridge,55,middleton,..,..,on
18196,Wedges N Woods,sports field,cambridge,155,amera,..,..,on
18387,Willard Park,sports field,cambridge,0,beechwood,..,..,on
18388,Willard Park,sports field,cambridge,0,beechwood,..,..,on
18503,Wm G Davis School,sports field,cambridge,530,langs,..,..,on
18504,Wm G Davis School,sports field,cambridge,530,langs,..,..,on
18618,..,sports field,cambridge,735,lawrence,..,..,on
18619,..,sports field,cambridge,55,roxboro,..,..,on
18620,..,sports field,cambridge,105,glamis,..,..,on
18621,..,sports field,cambridge,36,vardon,..,..,on
18622,..,sports field,cambridge,50,maria,..,..,on
18623,..,sports field,cambridge,188,weaver,..,..,on
18624,..,sports field,cambridge,500,preston,..,..,on
18756,..,sports field,cambridge,735,lawrence,..,..,on
18757,..,sports field,cambridge,85,beechwood,..,..,on
18799,..,sports field,cambridge,99,wentworth,..,..,on
18800,..,sports field,cambridge,85,beechwood,..,..,on
18801,..,sports field,cambridge,735,lawrence,..,..,on
19828,A Wayne Taylor Park,trail,cambridge,..,..,..,..,on
19829,A Wayne Taylor Park,trail,cambridge,..,..,..,..,on
19830,A Wayne Taylor Park,trail,cambridge,..,..,..,..,on
19831,A Wayne Taylor Park,trail,cambridge,..,..,..,..,on
19832,A Wayne Taylor Park,trail,cambridge,..,..,..,..,on
19833,A Wayne Taylor Park,trail,cambridge,..,..,..,..,on
19834,A Wayne Taylor Park,trail,kitchener,..,..,..,cambridge,on
19835,A Wayne Taylor Park,trail,kitchener,..,..,..,cambridge,on
19836,A Wayne Taylor Park,trail,kitchener,..,..,..,cambridge,on
19837,A Wayne Taylor Park,trail,kitchener,..,..,..,cambridge,on
19838,A Wayne Taylor Park,trail,kitchener,..,..,..,cambridge,on
19839,A Wayne Taylor Park,trail,kitchener,..,..,..,cambridge,on
19840,A Wayne Taylor Park,trail,kitchener,..,..,..,cambridge,on
22078,Blair Trail,trail,cambridge,..,..,..,..,on
22079,Blair Trail,trail,cambridge,..,..,..,..,on
