Index,Facility_Name,ODRSF_facility_type,Provider,Street_No,Street_Name,Postal_Code,City,Prov_Terr
79746,..,trail,kitchener,..,trafalgar,..,..,on
79747,..,trail,kitchener,..,trafalgar,..,..,on
79748,..,trail,kitchener,..,connaught,..,..,on
79749,..,trail,kitchener,..,shelley,..,..,on
79750,..,trail,kitchener,..,toynbee,..,..,on
79751,..,trail,kitchener,..,lorilee,..,..,on
79752,..,trail,kitchener,..,..,..,..,on
79753,..,trail,kitchener,..,shelley,..,..,on
79754,..,trail,kitchener,..,old forest,..,..,on
79755,..,trail,kitchener,..,old forest,..,..,on
79756,..,trail,kitchener,..,old forest,..,..,on
79757,..,trail,kitchener,..,university,..,..,on
79758,..,trail,kitchener,..,ira needles,..,..,on
79759,..,trail,kitchener,..,ira needles,..,..,on
79760,..,trail,kitchener,..,ira needles,..,..,on
79761,..,trail,kitchener,..,the boardwalk,..,..,on
79762,..,trail,kitchener,..,westmeadow,..,..,on
79763,..,trail,kitchener,..,banffshire,..,..,on
79764,..,trail,kitchener,..,maitland,..,..,on
79765,..,trail,kitchener,..,parkvale,..,..,on
79766,..,trail,kitchener,..,belmont,..,..,on
79767,..,trail,kitchener,..,highland,..,..,on
79768,..,trail,kitchener,..,highland,..,..,on
79769,..,trail,kitchener,..,timberlane,..,..,on
79770,..,trail,kitchener,..,trillium,..,..,on
79771,..,trail,kitchener,..,topper woods,..,..,on
79772,..,trail,kitchener,..,manitou,..,..,on
79773,..,trail,kitchener,..,manitou,..,..,on
79774,..,trail,kitchener,..,cedar,..,..,on
79775,..,trail,kitchener,..,..,..,..,on
79776,..,trail,kitchener,..,st george,..,..,on
79777,..,trail,kitchener,..,riverbend,..,..,on
79778,..,trail,kitchener,..,fairway,..,..,on
79779,..,trail,kitchener,..,strasburg,..,..,on
79780,..,trail,kitchener,..,huron,..,..,on
79781,..,trail,kitchener,..,huron,..,..,on
79782,..,trail,kitchener,..,roehampton,..,..,on
79783,..,trail,kitchener,..,block line,..,..,on
79784,..,trail,kitchener,..,stirling,..,..,on
79785,..,trail,kitchener,..,7,..,..,on
79786,..,trail,kitchener,..,pennsylvania,..,..,on
79787,..,trail,kitchener,..,pennsylvania,..,..,on
79788,..,trail,kitchener,..,black maple,..,..,on
79789,..,trail,kitchener,..,pennsylvania,..,..,on
79790,..,trail,kitchener,..,terrace wood,..,..,on
79791,..,trail,kitchener,..,deer ridge,..,..,on
79792,..,trail,kitchener,..,harvest,..,..,on
79793,..,trail,kitchener,..,westforest,..,..,on
79794,..,trail,kitchener,..,trailview,..,..,on
