Index,Facility_Name,ODRSF_facility_type,Provider,Street_No,Street_Name,Postal_Code,City,Prov_Terr
31225,Keats Way Woods To Midwood Cres,trail,waterloo region,..,..,..,..,on
31226,Keatswood Cres To Keatsway Corridor,trail,waterloo region,..,..,..,..,on
31245,Kids Ability,trail,waterloo region,..,..,..,..,on
31246,Kids Ability,trail,waterloo region,..,..,..,..,on
31257,King St N,trail,waterloo region,..,..,..,..,on
31258,King St N,trail,waterloo region,..,..,..,..,on
31259,King St N,trail,waterloo region,..,..,..,..,on
31260,King St N,trail,waterloo region,..,..,..,..,on
31261,King St N,trail,waterloo region,..,..,..,..,on
31262,King St N,trail,waterloo region,..,..,..,..,on
31263,King St N,trail,waterloo region,..,..,..,..,on
31264,King St N,trail,waterloo region,..,..,..,..,on
31265,King St N,trail,waterloo region,..,..,..,..,on
31266,King St N,trail,waterloo region,..,..,..,..,on
31267,King St N,trail,waterloo region,..,..,..,..,on
31268,King St N,trail,waterloo region,..,..,..,..,on
31269,King St N,trail,waterloo region,..,..,..,..,on
31270,King St N,trail,waterloo region,..,..,..,..,on
31271,King St N,trail,waterloo region,..,..,..,..,on
31272,King St N,trail,waterloo region,..,..,..,..,on
31273,King St N,trail,waterloo region,..,..,..,..,on
31274,King St N,trail,waterloo region,..,..,..,..,on
31275,King St N,trail,waterloo region,..,..,..,..,on
31276,King St N,trail,waterloo region,..,..,..,..,on
31277,King St N,trail,waterloo region,..,..,..,..,on
31278,King St N,trail,waterloo region,..,..,..,..,on
31279,King St N,trail,kitchener,..,king,..,waterloo,on
31280,King St N,trail,kitchener,..,king,..,waterloo,on
31281,King St N,trail,kitchener,..,king,..,waterloo,on
31282,King St N,trail,kitchener,..,king,..,waterloo,on
31283,King St N,trail,kitchener,..,king,..,waterloo,on
31284,King St N,trail,kitchener,..,king,..,waterloo,on
31285,King St N,trail,kitchener,..,king,..,waterloo,on
31286,King St N,trail,kitchener,..,king,..,waterloo,on
31287,King St N,trail,kitchener,..,king,..,waterloo,on
31295,Kingscourt Dr To Foxhunt Rd,trail,waterloo region,..,..,..,..,on
31296,Kingscourt Park,trail,waterloo region,..,..,..,..,on
31297,Kingscourt Park,trail,waterloo region,..,..,..,..,on
31298,Kingscourt Park,trail,waterloo region,..,..,..,..,on
31299,Kingscourt Park,trail,waterloo region,..,..,..,..,on
31441,Kiwanis Park,trail,kitchener,..,..,..,kitchener,on
31445,Kiwanis Park,trail,kitchener,..,..,..,kitchener,on
31446,Kiwanis Park,trail,kitchener,..,..,..,kitchener,on
34874,Labatts Parkette,trail,waterloo region,..,..,..,..,on
34877,Labrador Dr To Haida Park,trail,waterloo region,..,..,..,..,on
34934,Lake Louise Blvd,trail,waterloo region,..,..,..,..,on
34935,Lake Louise Blvd,trail,waterloo region,..,..,..,..,on
34936,Lake Louise Blvd,trail,waterloo region,..,..,..,..,on
34937,Lake Louise Blvd,trail,waterloo region,..,..,..,..,on
