Index,Facility_Name,ODRSF_facility_type,Provider,Street_No,Street_Name,Postal_Code,City,Prov_Terr
80296,..,trail,kitchener,..,union,..,..,on
80297,..,trail,kitchener,..,union,..,..,on
80298,..,trail,kitchener,..,union,..,..,on
80301,..,trail,kitchener,..,union,..,..,on
80302,..,trail,kitchener,..,union,..,..,on
80303,..,trail,kitchener,..,union,..,..,on
80304,..,trail,kitchener,..,krug,..,..,on
80305,..,trail,kitchener,..,burbank,..,..,on
80306,..,trail,kitchener,..,greengable,..,..,on
80307,..,trail,kitchener,..,manitoulin,..,..,on
80308,..,trail,kitchener,..,falling green,..,..,on
80309,..,trail,kitchener,..,apple hill,..,..,on
80310,..,trail,kitchener,..,apple hill,..,..,on
80311,..,trail,kitchener,..,apple hill,..,..,on
80312,..,trail,kitchener,..,apple hill,..,..,on
80313,..,trail,kitchener,..,falling green,..,..,on
80314,..,trail,kitchener,..,strasburg,..,..,on
80315,..,trail,kitchener,..,huron,..,..,on
80316,..,trail,kitchener,..,mill park,..,..,on
80317,..,trail,kitchener,..,mill park,..,..,on
80318,..,trail,kitchener,..,mill park,..,..,on
80319,..,trail,kitchener,..,falling green,..,..,on
80320,..,trail,kitchener,..,falling green,..,..,on
80321,..,trail,kitchener,..,falling green,..,..,on
80322,..,trail,kitchener,..,benton,..,..,on
80323,..,trail,kitchener,..,cloverdale,..,..,on
80324,..,trail,kitchener,..,cloverdale,..,..,on
80325,..,trail,kitchener,..,cloverdale,..,..,on
80326,..,trail,kitchener,..,bent willow,..,..,on
80327,..,trail,kitchener,..,bent willow,..,..,on
80328,..,trail,kitchener,..,trailwood,..,..,on
80329,..,trail,kitchener,..,quinte,..,..,on
80330,..,trail,kitchener,..,morrison,..,..,on
80331,..,trail,kitchener,..,trillium,..,..,on
80332,..,trail,kitchener,..,palmer,..,..,on
80333,..,trail,kitchener,..,palmer,..,..,on
80334,..,trail,kitchener,..,westmeadow,..,..,on
80335,..,trail,kitchener,..,ottawa,..,..,on
80336,..,trail,kitchener,..,st vincent,..,..,on
80337,..,trail,kitchener,..,guelph,..,..,on
80338,..,trail,kitchener,..,guelph,..,..,on
80339,..,trail,kitchener,..,arnold,..,..,on
80340,..,trail,kitchener,..,balzer,..,..,on
80341,..,trail,kitchener,..,roseneath,..,..,on
80342,..,trail,kitchener,..,woolner trail,..,..,on
80343,..,trail,kitchener,..,charnwood,..,..,on
80344,..,trail,kitchener,..,lynnvalley,..,..,on
80345,..,trail,kitchener,..,bridge,..,..,on
80346,..,trail,kitchener,..,bridge,..,..,on
