Index,Facility_Name,ODRSF_facility_type,Provider,Street_No,Street_Name,Postal_Code,City,Prov_Terr
24531,Combermere Cres To Craigleith Dr,trail,waterloo region,..,..,..,..,on
24542,Concordia Cres To Dunvegan Park,trail,waterloo region,..,..,..,..,on
24551,Conestoga Mall,trail,waterloo region,..,..,..,..,on
24589,Conservation Dr To Sunpoint Cres,trail,waterloo region,..,..,..,..,on
24590,Conservation Dr To Tidewater Pl,trail,waterloo region,..,..,..,..,on
24591,Conservation Meadows Park,trail,waterloo region,..,..,..,..,on
24592,Conservation Meadows Park,trail,waterloo region,..,..,..,..,on
24593,Conservation Meadows Park,trail,waterloo region,..,..,..,..,on
24594,Conservation Meadows Park,trail,waterloo region,..,..,..,..,on
24595,Conservation Meadows Park To Rock Point Cres,trail,waterloo region,..,..,..,..,on
24628,Copper St,trail,waterloo region,..,..,..,..,on
24699,Cornerbrook Park,trail,waterloo region,..,..,..,..,on
24700,Cornerbrook Park,trail,waterloo region,..,..,..,..,on
24701,Cornerbrook Park,trail,waterloo region,..,..,..,..,on
24702,Cornerbrook Park,trail,waterloo region,..,..,..,..,on
24879,Craigleith Park,trail,waterloo region,..,..,..,..,on
24880,Craigleith Park,trail,waterloo region,..,..,..,..,on
24881,Craigleith Park,trail,waterloo region,..,..,..,..,on
24882,Craigleith Park,trail,waterloo region,..,..,..,..,on
24883,Craigleith Park,trail,waterloo region,..,..,..,..,on
24884,Craigleith Park,trail,waterloo region,..,..,..,..,on
24911,Creekside Dr To Laurel Creek Forest,trail,waterloo region,..,..,..,..,on
24912,Creekside Link,trail,waterloo region,..,..,..,..,on
24916,Creekside Swm Area # 1 To Birchmount Dr,trail,waterloo region,..,..,..,..,on
24917,Creekside Swm Area # 1 To Birchmount Dr,trail,waterloo region,..,..,..,..,on
24918,Creekside Swm Area # 1 To Cedar Bend Pl,trail,waterloo region,..,..,..,..,on
24919,Creekside Swm Area # 1 To Creekside Dr,trail,waterloo region,..,..,..,..,on
24920,Creekside Swm Area # 2,trail,waterloo region,..,..,..,..,on
24921,Creekside Swm Area # 2,trail,waterloo region,..,..,..,..,on
24922,Creekside Swm Area # 2,trail,waterloo region,..,..,..,..,on
24923,Creekside Swm Area # 2,trail,waterloo region,..,..,..,..,on
24924,Creekside Swm Area # 2,trail,waterloo region,..,..,..,..,on
25147,Culpepper Park,trail,waterloo region,..,..,..,..,on
25148,Culpepper Park,trail,waterloo region,..,..,..,..,on
25149,Culpepper Park,trail,waterloo region,..,..,..,..,on
25150,Culpepper Park,trail,kitchener,..,..,..,waterloo,on
25178,Daleside Pl To Highpoint Ave,trail,waterloo region,..,..,..,..,on
25226,Dansbury Dr To Pastern Trail,trail,waterloo region,..,..,..,..,on
25227,Dansbury Dr To Wintermeyer Park,trail,waterloo region,..,..,..,..,on
25228,Dansbury Pl To Wintermeyer Park,trail,waterloo region,..,..,..,..,on
25230,Dartmoor Cres To Percheron Crt,trail,waterloo region,..,..,..,..,on
25284,Davenport Rd To Anndale Rd,trail,waterloo region,..,..,..,..,on
25285,Davenport Rd To Davenport Rd,trail,waterloo region,..,..,..,..,on
25286,Davenport Rd To Davenport Rd,trail,waterloo region,..,..,..,..,on
25287,Davenport Rd To Redfox Rd,trail,waterloo region,..,..,..,..,on
25300,Dayna Cres To Camille Cres,trail,waterloo region,..,..,..,..,on
25301,Deacon Wood Pl To Fischer-Hallman Rd N,trail,waterloo region,..,..,..,..,on
25330,Dearborn Blvd To Forwell Park,trail,waterloo region,..,..,..,..,on
25354,Deer Run Dr To Bridge St W,trail,waterloo region,..,..,..,..,on
