Index,Facility_Name,ODRSF_facility_type,Provider,Street_No,Street_Name,Postal_Code,City,Prov_Terr
79946,..,trail,kitchener,..,charleston,..,..,on
79947,..,trail,kitchener,..,roehampton,..,..,on
79948,..,trail,kitchener,..,idle ridge,..,..,on
79949,..,trail,kitchener,..,..,..,..,on
79950,..,trail,kitchener,..,mill park,..,..,on
79951,..,trail,kitchener,..,homer watson offramp,..,..,on
79952,..,trail,kitchener,..,homer watson offramp,..,..,on
79953,..,trail,kitchener,..,westmount,..,..,on
79954,..,trail,kitchener,..,maxwell,..,..,on
79955,..,trail,kitchener,..,bechtel,..,..,on
79956,..,trail,kitchener,..,maxwell,..,..,on
79957,..,trail,kitchener,..,ludolph,..,..,on
79958,..,trail,kitchener,..,..,..,..,on
79959,..,trail,kitchener,..,..,..,..,on
79960,..,trail,kitchener,..,frey,..,..,on
79961,..,trail,kitchener,..,rittenhouse,..,..,on
79962,..,trail,kitchener,..,goundry,..,..,on
79963,..,trail,kitchener,..,queens,..,..,on
79964,..,trail,kitchener,..,queens,..,..,on
79965,..,trail,kitchener,..,rolling meadows,..,..,on
79966,..,trail,kitchener,..,old forest,..,..,on
79967,..,trail,kitchener,..,homestead,..,..,on
79968,..,trail,kitchener,..,fischer hallman,..,..,on
79969,..,trail,kitchener,..,greengable,..,..,on
79970,..,trail,kitchener,..,falling green,..,..,on
79971,..,trail,kitchener,..,falling green,..,..,on
79972,..,trail,kitchener,..,royal orchard,..,..,on
79973,..,trail,kitchener,..,stoke,..,..,on
79974,..,trail,kitchener,..,goundry,..,..,on
79975,..,trail,kitchener,..,david,..,..,on
79976,..,trail,kitchener,..,courtland,..,..,on
79977,..,trail,kitchener,..,westmount,..,..,on
79978,..,trail,kitchener,..,chopin,..,..,on
79979,..,trail,kitchener,..,homer watson onramp,..,..,on
79980,..,trail,kitchener,..,cayuga,..,..,on
79981,..,trail,kitchener,..,cayuga,..,..,on
79982,..,trail,kitchener,..,homer watson onramp,..,..,on
79983,..,trail,kitchener,..,homer watson onramp,..,..,on
79984,..,trail,kitchener,..,broken oak,..,..,on
79985,..,trail,kitchener,..,broken oak,..,..,on
79986,..,trail,kitchener,..,broken oak,..,..,on
79987,..,trail,kitchener,..,camrose,..,..,on
79988,..,trail,kitchener,..,bleams,..,..,on
79989,..,trail,kitchener,..,otto,..,..,on
79990,..,trail,kitchener,..,otto,..,..,on
79991,..,trail,kitchener,..,bleams,..,..,on
79992,..,trail,kitchener,..,homer watson,..,..,on
79993,..,trail,kitchener,..,traynor,..,..,on
79994,..,trail,kitchener,..,homer watson,..,..,on
