Index,Facility_Name,ODRSF_facility_type,Provider,Street_No,Street_Name,Postal_Code,City,Prov_Terr
50898,Regency Park,trail,waterloo region,..,..,..,..,on
50899,Regency Park,trail,waterloo region,..,..,..,..,on
50900,Regency Park,trail,waterloo region,..,..,..,..,on
50901,Regency Park,trail,waterloo region,..,..,..,..,on
50902,Regency Park To Regency Cres,trail,waterloo region,..,..,..,..,on
50904,Reiber Crt To Churchill Park,trail,waterloo region,..,..,..,..,on
50905,Reiber Crt To Fischer-Hallman Rd N,trail,waterloo region,..,..,..,..,on
50913,Rhine Fall Dr To Forested Hills - E.S.P.A. 19,trail,waterloo region,..,..,..,..,on
50914,Rhine Fall Dr To Klosters Dr,trail,waterloo region,..,..,..,..,on
50915,Rhineland Swm Area,trail,waterloo region,..,..,..,..,on
50916,Rhineland Swm Area,trail,waterloo region,..,..,..,..,on
50917,Rhineland Swm Area,trail,waterloo region,..,..,..,..,on
50923,Rideau River St,trail,waterloo region,..,..,..,..,on
50924,Rideau River St To Pinery Trail,trail,waterloo region,..,..,..,..,on
50925,Rideau River Swm Area,trail,waterloo region,..,..,..,..,on
50926,Rideau River Swm Area,trail,waterloo region,..,..,..,..,on
50970,Rim Park,trail,waterloo region,..,..,..,..,on
50971,Rim Park,trail,waterloo region,..,..,..,..,on
50972,Rim Park,trail,waterloo region,..,..,..,..,on
50973,Rim Park,trail,waterloo region,..,..,..,..,on
50974,Rim Park,trail,waterloo region,..,..,..,..,on
50975,Rim Park,trail,waterloo region,..,..,..,..,on
50976,Rim Park,trail,waterloo region,..,..,..,..,on
50977,Rim Park,trail,waterloo region,..,..,..,..,on
50978,Rim Park,trail,waterloo region,..,..,..,..,on
50979,Rim Park,trail,waterloo region,..,..,..,..,on
50980,Rim Park,trail,waterloo region,..,..,..,..,on
50981,Rim Park,trail,waterloo region,..,..,..,..,on
50982,Rim Park,trail,waterloo region,..,..,..,..,on
50983,Rim Park,trail,waterloo region,..,..,..,..,on
50984,Rim Park,trail,waterloo region,..,..,..,..,on
50985,Rim Park,trail,waterloo region,..,..,..,..,on
50986,Rim Park,trail,waterloo region,..,..,..,..,on
50987,Rim Park,trail,waterloo region,..,..,..,..,on
50988,Rim Park,trail,waterloo region,..,..,..,..,on
50989,Rim Park,trail,waterloo region,..,..,..,..,on
50990,Rim Park,trail,waterloo region,..,..,..,..,on
50991,Rim Park,trail,waterloo region,..,..,..,..,on
50992,Rim Park,trail,waterloo region,..,..,..,..,on
50993,Rim Park,trail,kitchener,..,..,..,waterloo,on
50994,Rim Park,trail,kitchener,..,..,..,waterloo,on
50995,Rim Park,trail,kitchener,..,..,..,waterloo,on
50996,Rim Park,trail,kitchener,..,..,..,waterloo,on
50997,Rim Park,trail,kitchener,..,..,..,waterloo,on
50998,Rim Park,trail,kitchener,..,..,..,waterloo,on
50999,Rim Park,trail,kitchener,..,..,..,waterloo,on
51000,Rim Park,trail,kitchener,..,..,..,waterloo,on
51001,Rim Park,trail,kitchener,..,..,..,waterloo,on
51002,Rim Park,trail,kitchener,..,..,..,waterloo,on
