Index,Facility_Name,ODRSF_facility_type,Provider,Street_No,Street_Name,Postal_Code,City,Prov_Terr
132,Angewood Park,rink,cambridge,..,..,..,..,on
629,Cambridge Grand,pool,waterloo region,200,jamieson,..,cambridge,on
809,Central Park: Splash Pad,splash pad,waterloo region,615,king,..,cambridge,on
1069,Churchill Park Splash Pad,splash pad,waterloo region,200,christopher,..,cambridge,on
1346,Dickson Centre,rink,cambridge,..,..,..,..,on
1434,Duncan Mcintosh Arena,rink,cambridge,..,..,..,..,on
1511,Ed Newland Pool,pool,waterloo region,515,william,..,cambridge,on
1629,Fairview Mennonite Home Pool,pool,waterloo region,515,lang's,..,cambridge,on
1684,Five Condo Corp. Club,pool,waterloo region,80,beasley,..,cambridge,on
1707,Forbes Park Splash Pad,splash pad,waterloo region,16,kribs,..,cambridge,on
1749,Four Points By Sheraton Hotel -Swimming Pool,pool,waterloo region,210,preston,..,cambridge,on
1800,Galt Arena Gardens,rink,cambridge,..,..,..,..,on
1831,George Hancock,pool,cambridge,115,glenmorris,..,..,on
1972,"Granite Landing Leisure Therapy Pool, The",pool,waterloo region,30,light,..,cambridge,on
2017,Grow Community Centre,community centre,cambridge,1145,concession,N3H 4L5,cambridge,on
2053,Hancock Swimming Pool,pool,waterloo region,115,glenmorris,..,cambridge,on
2143,Hespeler Arena,rink,cambridge,..,..,..,..,on
2144,Hespeler Optimist Park Splash Pad,splash pad,waterloo region,640,ellis,..,cambridge,on
2196,Hilton Garden Inn - Pool,pool,waterloo region,746,old hespeler,..,cambridge,on
2219,Homewood Suites By Hilton - Pool,pool,waterloo region,800,jamieson,..,cambridge,on
2461,John Dolson Centre Pool,pool,waterloo region,212,south,..,cambridge,on
2604,Kinsmen Memorial Pool,pool,waterloo region,41,marion,..,cambridge,on
2608,Kinsmen Soper Park,pool,cambridge,41,marion,..,..,on
2650,La Fitness - Class B Indoor Swimming Pool,pool,waterloo region,90,pinebush,..,cambridge,on
2699,Langdon Hall Outdoor Pool,pool,waterloo region,1,langdon,..,cambridge,on
2783,Lincoln Park,rink,cambridge,..,..,..,..,on
2784,Lincoln Park Splash Pad,splash pad,waterloo region,14,vimy,..,cambridge,on
2797,Lions Can Amera Park,rink,cambridge,..,..,..,..,on
4460,Parklane Towers,pool,waterloo region,204,hespeler,..,cambridge,on
4801,Preston Auditorium,rink,cambridge,..,..,..,..,on
5180,Riverside Park,rink,cambridge,..,..,..,..,on
5295,Saginaw Village Pool,pool,waterloo region,199,saginaw,..,cambridge,on
5637,Soper Park Splash Pad,splash pad,waterloo region,305,dundas,..,cambridge,on
5892,St. Andrews Pool,pool,waterloo region,147,inverness,..,cambridge,on
6027,Super 8 Pool,pool,waterloo region,650,hespeler,..,cambridge,on
6159,Tri-City Physiotherapy And Rehab,pool,waterloo region,27,water,..,cambridge,on
6263,Victoria Park,rink,cambridge,..,..,..,..,on
6270,Victoria Park Splash Pad,splash pad,waterloo region,66,fisher mills,..,cambridge,on
6425,Weaver Park Splash Pad,splash pad,waterloo region,188,weaver,..,cambridge,on
6555,William G. Johnson Pool,pool,waterloo region,31,kribs,..,cambridge,on
6678,Ymca Large Swimming Pool,pool,waterloo region,250,hespeler,..,cambridge,on
6705,..,splash pad,cambridge,0,..,..,..,on
6706,..,splash pad,cambridge,71,cowan,..,..,on
6707,..,splash pad,cambridge,65,centre,..,..,on
6708,..,splash pad,cambridge,0,..,..,..,on
6709,..,splash pad,cambridge,41,marion,..,..,on
6997,A Wayne Taylor Park - Mother Theresa School - Sbi Red,sports field,cambridge,91,glenvalley,..,..,on
6998,A Wayne Taylor Park - Saginaw Public - Sb2 Green,sports field,cambridge,91,glenvalley,..,..,on
7386,Avenue Road School,sports field,cambridge,40,gail,..,..,on
