Index,Facility_Name,ODRSF_facility_type,Provider,Street_No,Street_Name,Postal_Code,City,Prov_Terr
79495,..,trail,kitchener,..,roseneath,..,..,on
79496,..,trail,kitchener,..,blackhorne,..,..,on
79497,..,trail,kitchener,..,roseneath,..,..,on
79498,..,trail,kitchener,..,barwood,..,..,on
79499,..,trail,kitchener,..,roseneath,..,..,on
79500,..,trail,kitchener,..,roseneath,..,..,on
79501,..,trail,kitchener,..,barwood,..,..,on
79502,..,trail,kitchener,..,barwood,..,..,on
79503,..,trail,kitchener,..,blackhorne,..,..,on
79504,..,trail,kitchener,..,blackhorne,..,..,on
79505,..,trail,kitchener,..,blackhorne,..,..,on
79506,..,trail,kitchener,..,barwood,..,..,on
79507,..,trail,kitchener,..,barwood,..,..,on
79508,..,trail,kitchener,..,barwood,..,..,on
79509,..,trail,kitchener,..,barwood,..,..,on
79510,..,trail,kitchener,..,barwood,..,..,on
79511,..,trail,kitchener,..,barwood,..,..,on
79512,..,trail,kitchener,..,barwood,..,..,on
79513,..,trail,kitchener,..,barwood,..,..,on
79514,..,trail,kitchener,..,ottawa,..,..,on
79515,..,trail,kitchener,..,lackner,..,..,on
79516,..,trail,kitchener,..,commonwealth,..,..,on
79517,..,trail,kitchener,..,grovehill,..,..,on
79518,..,trail,kitchener,..,parkvale,..,..,on
79519,..,trail,kitchener,..,country clair,..,..,on
79520,..,trail,kitchener,..,winding,..,..,on
79521,..,trail,kitchener,..,activa,..,..,on
79522,..,trail,kitchener,..,commonwealth,..,..,on
79523,..,trail,kitchener,..,commonwealth,..,..,on
79524,..,trail,kitchener,..,mistywood,..,..,on
79525,..,trail,kitchener,..,kehl,..,..,on
79526,..,trail,kitchener,..,kehl,..,..,on
79527,..,trail,kitchener,..,borden,..,..,on
79528,..,trail,kitchener,..,belmont,..,..,on
79529,..,trail,kitchener,..,seabrook,..,..,on
79530,..,trail,kitchener,..,amand,..,..,on
79531,..,trail,kitchener,..,amand,..,..,on
79532,..,trail,kitchener,..,eden oak,..,..,on
79533,..,trail,kitchener,..,eden oak,..,..,on
79534,..,trail,kitchener,..,eden oak,..,..,on
79535,..,trail,kitchener,..,grand flats trail,..,..,on
79536,..,trail,kitchener,..,grand flats trail,..,..,on
79537,..,trail,kitchener,..,country,..,..,on
79538,..,trail,kitchener,..,country,..,..,on
79539,..,trail,kitchener,..,eden oak,..,..,on
79540,..,trail,kitchener,..,mcbrine,..,..,on
79541,..,trail,kitchener,..,homer watson,..,..,on
79542,..,trail,kitchener,..,homer watson,..,..,on
79543,..,trail,kitchener,..,upper canada,..,..,on
