Index,Facility_Name,ODRSF_facility_type,Provider,Street_No,Street_Name,Postal_Code,City,Prov_Terr
168746,Hydro Corridor Trail,trail,kitchener,85,banffshire,..,..,on
168747,Hydro Corridor Trail,trail,kitchener,..,thomas,..,..,on
168748,Hydro Corridor Trail,trail,kitchener,..,thomas,..,..,on
168749,Hydro Corridor Trail,trail,kitchener,..,green water,..,..,on
168750,Hydro Corridor Trail,trail,kitchener,..,parkvale,..,..,on
168751,Hydro Corridor Trail,trail,kitchener,1824,bleams,..,..,on
168752,Hydro Corridor Trail,trail,kitchener,..,river,..,..,on
168761,Ian Ormston Park,park,kitchener,404,ormston,..,..,on
168768,Idle Creek Drive Natural Area,park,kitchener,98,idle,..,..,on
168769,Idlewood Creek,park,kitchener,895,fairway,..,..,on
168770,Idlewood Greenway,park,kitchener,..,oldfield,..,..,on
168771,Idlewood Park,park,kitchener,5,thaler,..,..,on
168773,Idlewood Park Natural Area,park,kitchener,..,river,..,..,on
168844,Iron Horse Trail,park,kitchener,..,..,..,..,on
168866,Isaiah Pl - Swp,park,kitchener,910,isaiah,..,..,on
169002,Janine St Park,park,kitchener,111,janine,..,..,on
169099,Joe Thompson Park,park,kitchener,8,bridge,..,..,on
169257,Joseph Schoerg Park,park,kitchener,..,joseph schoerg,..,..,on
169365,Kaufman Park,park,kitchener,104,stirling,..,..,on
169480,Kestrel Street - Swp,park,kitchener,56,eaglecrest,..,..,on
169561,Kingsdale Park,park,kitchener,124,cedarwoods,..,..,on
169608,Kinzie Park,park,kitchener,300,kinzie,..,..,on
169621,Kitchener Memorial Auditorium Complex Sportsfield,park,kitchener,400,east,..,kitchener,on
169636,Kiwanis Park,park,kitchener,1000,park,..,..,on
169646,Kiwanis Park Natural Area,park,kitchener,1000,park,..,..,on
169874,Knitting Mill Green,park,kitchener,71,mill,..,..,on
169878,Knollwood Park,park,kitchener,175,stirling,..,..,on
169891,Kolb Greenway,park,kitchener,..,..,..,..,on
169892,Kolb Park,park,kitchener,1765,centennial,..,..,on
169910,Kuntz Park,park,kitchener,290,lookout,..,..,on
169912,Kuntz Park Natural Area,park,kitchener,..,lookout,..,..,on
169938,Lackner Woods,park,kitchener,621,lackner,..,..,on
169939,Lackner Woods (Private),park,kitchener,..,lackner,..,..,on
170008,Lakeside Park,park,kitchener,140,lakeside,..,..,on
170013,Lakeside Park Natural Area,park,kitchener,680,stirling,..,..,on
170070,Lancaster Business Park Greenway,park,kitchener,..,riverbend,..,..,on
170071,Lancaster Business Park Natural Area,park,kitchener,..,riverbend,..,..,on
170073,Lancaster Park,park,kitchener,559,lancaster,..,..,on
170078,Landgren Trail Link,park,kitchener,..,landgren,..,..,on
170084,Lang Green,park,kitchener,69,victoria,..,..,on
170157,Laurentian Park (School Board),park,kitchener,715,laurentian,..,..,on
170158,Laurentian Trail (Hydro),park,kitchener,..,laurentian,..,..,on
170159,Laurentian Wetland,park,kitchener,..,david bergey,..,..,on
170421,Lions Park,park,kitchener,20,rittenhouse,..,..,on
170432,Lips Park,park,kitchener,187,lancaster,..,..,on
170551,Lorilee Park,park,kitchener,139,lorilee,..,..,on
170640,Ludolph Trail,trail,kitchener,..,ludolph,..,..,on
170641,Ludolph Trail,trail,kitchener,..,ludolph,..,..,on
170642,Ludolph Trail,trail,kitchener,..,ludolph,..,..,on
