Index,Facility_Name,ODRSF_facility_type,Provider,Street_No,Street_Name,Postal_Code,City,Prov_Terr
2649,Kuntz Park Playground 1,playground,kitchener,290,lookout,..,..,on
2682,Lakeside Park Playground,playground,kitchener,140,lakeside,..,..,on
2697,Lancaster Park Playground 1,playground,kitchener,559,lancaster,..,..,on
2729,Laurentian Hills Christian School Playground,playground,kitchener,11,laurentian,..,..,on
2730,Laurentian Park Playground 1,playground,kitchener,715,westmount,..,..,on
2731,Laurentian Pool,pool,waterloo region,1061,queens,..,kitchener,on
2760,Leisure Villa Outdoor Pool,pool,waterloo region,17,gibson,..,kitchener,on
2796,Lions Arena,arena,kitchener,20,rittenhouse,..,..,on
2807,Lips Park Playground,playground,kitchener,187,lancaster,..,..,on
2959,Lyle Hallman Swimming Pool,pool,kitchener,600,heritage,..,..,on
2966,Lynnvalley Park Playground 1,playground,kitchener,26,lynnvalley,..,..,on
2976,Mackenzie King Public School Playground 1,playground,kitchener,51,natchez,..,..,on
3006,Major Park Playground,playground,kitchener,330,breithaupt,..,..,on
3180,Margaret Place Pool,pool,waterloo region,315,margaret,..,kitchener,on
3189,Marigold Park Playground 1,playground,kitchener,375,robert ferrier,..,..,on
3193,Marisa Park Playground,playground,kitchener,201,bridge,..,..,on
3232,Mausser Park Playground 1,playground,kitchener,219,mausser,..,..,on
3234,Max Becker Common Playground 1,playground,kitchener,300,becker,..,..,on
3275,Mclennan Dog Park,park,kitchener,901,ottawa,..,..,on
3276,Mclennan Park Playground 1,playground,kitchener,901,ottawa,..,..,on
3277,Mclennan Park Splash Pad,splash pad,kitchener,901,ottawa,..,..,on
3291,Meadowlane Public School Playground,playground,kitchener,236,forestwood,..,..,on
3308,Meinzinger Park Playground 1,playground,kitchener,100,watson,..,..,on
3330,Michael Donnenworth Park Playground,playground,kitchener,94,isaiah,..,..,on
3335,Midland Park Playground,playground,kitchener,39,midland,..,..,on
3340,Mill Courtland Community Centre,community centre,kitchener,216,mill,..,..,on
3342,Mill St Parkette Playground,playground,kitchener,346,mill,..,..,on
3369,Millwood Park Playground,playground,kitchener,130,millwood,..,..,on
3407,Montgomery Park Playground,playground,kitchener,135,montgomery,..,..,on
3419,Mooregate Apartments - Building 66 Pool,pool,waterloo region,66,mooregate,..,kitchener,on
3426,Morgan Park Playground 1,playground,kitchener,325,morgan,..,..,on
3435,Morrison Park Playground,playground,kitchener,245,morrison,..,..,on
3473,Msgr. R.M. Haller Catholic School Playground,playground,kitchener,118,shea,..,..,on
3588,Northforest Park Playground,playground,kitchener,90,northforest trail,..,..,on
3640,Oaten Park Playground,playground,kitchener,155,rutherford,..,..,on
3681,Ontario Early Years Centre Our Place,playground,kitchener,49,blueridge,..,..,on
3700,Oscar Lauber Park Playground,playground,kitchener,314,louisa,..,..,on
3709,Our Lady Of Grace Catholic School Playground,playground,kitchener,70,gracefield,..,..,on
3983,Overlea Park Playground 1,playground,kitchener,25,overlea,..,..,on
3993,Paige Park Playground,playground,kitchener,235,paige,..,..,on
4316,Park Place Court Pool,pool,waterloo region,81,york,..,kitchener,on
4462,Parkvale Park Playground,playground,kitchener,275,parkvale,..,..,on
4465,Parkview Gardens Pool,pool,waterloo region,60,elmsdale,..,kitchener,on
4554,Pioneer Glen,pool,waterloo region,399,pioneer,..,kitchener,on
4555,Pioneer Park Playground,playground,kitchener,40,valley,..,..,on
4556,Pioneer Park Public School Playground,playground,kitchener,55,canada,..,..,on
4557,Pioneer Sportsmen Club-Pool,pool,waterloo region,211,pioneer tower,..,kitchener,on
4830,Prospect Park Playground 1,playground,kitchener,131,wilfred,..,..,on
4837,Prueter Public School,playground,kitchener,40,prueter,..,..,on
