Index,Facility_Name,ODRSF_facility_type,Provider,Street_No,Street_Name,Postal_Code,City,Prov_Terr
78489,..,trail,kitchener,..,breckwood,..,..,on
78490,..,trail,kitchener,..,daimler,..,..,on
78491,..,trail,kitchener,..,gatsby,..,..,on
78492,..,trail,kitchener,..,gatsby,..,..,on
78493,..,trail,kitchener,..,fairway,..,..,on
78494,..,trail,kitchener,..,fairway,..,..,on
78495,..,trail,kitchener,..,fairway,..,..,on
78496,..,trail,kitchener,..,waterbend,..,..,on
78497,..,trail,kitchener,..,ludolph,..,..,on
78498,..,trail,kitchener,..,netherby,..,..,on
78499,..,trail,kitchener,..,blair creek,..,..,on
78500,..,trail,kitchener,..,oldfield,..,..,on
78501,..,trail,kitchener,..,ottawa,..,..,on
78502,..,trail,kitchener,..,oldfield,..,..,on
78503,..,trail,kitchener,..,ottawa,..,..,on
78504,..,trail,kitchener,..,ottawa,..,..,on
78505,..,trail,kitchener,..,ottawa,..,..,on
78506,..,trail,kitchener,..,ottawa,..,..,on
78507,..,trail,kitchener,..,ottawa,..,..,on
78508,..,trail,kitchener,..,ottawa,..,..,on
78509,..,trail,kitchener,..,montcalm,..,..,on
78510,..,trail,kitchener,..,woolner trail,..,..,on
78511,..,trail,kitchener,..,otterbein,..,..,on
78512,..,trail,kitchener,..,kiwanis park,..,..,on
78513,..,trail,kitchener,..,fenwick,..,..,on
78514,..,trail,kitchener,..,fenwick,..,..,on
78515,..,trail,kitchener,..,riverbend,..,..,on
78516,..,trail,kitchener,..,heritage,..,..,on
78517,..,trail,kitchener,..,ottawa,..,..,on
78518,..,trail,kitchener,..,ottawa,..,..,on
78519,..,trail,kitchener,..,heritage,..,..,on
78520,..,trail,kitchener,..,heritage,..,..,on
78521,..,trail,kitchener,..,ottawa,..,..,on
78522,..,trail,kitchener,..,montcalm,..,..,on
78523,..,trail,kitchener,..,heritage,..,..,on
78524,..,trail,kitchener,..,heritage,..,..,on
78525,..,trail,kitchener,..,heritage,..,..,on
78526,..,trail,kitchener,..,mcgee,..,..,on
78527,..,trail,kitchener,..,lackner,..,..,on
78528,..,trail,kitchener,..,lackner,..,..,on
78529,..,trail,kitchener,..,ludolph,..,..,on
78530,..,trail,kitchener,..,seabrook,..,..,on
78531,..,trail,kitchener,..,ludolph,..,..,on
78532,..,trail,kitchener,..,mill park,..,..,on
78533,..,trail,kitchener,..,robert ferrie,..,..,on
78534,..,trail,kitchener,..,blair creek,..,..,on
78535,..,trail,kitchener,..,greenwater,..,..,on
78536,..,trail,kitchener,..,trillium,..,..,on
78537,..,trail,kitchener,..,winifred,..,..,on
