Index,Facility_Name,ODRSF_facility_type,Provider,Street_No,Street_Name,Postal_Code,City,Prov_Terr
81299,..,trail,kitchener,..,country clair,..,..,on
81300,..,trail,kitchener,..,country clair,..,..,on
81301,..,trail,kitchener,..,country clair,..,..,on
81302,..,trail,kitchener,..,country clair,..,..,on
81303,..,trail,kitchener,..,country clair,..,..,on
81304,..,trail,kitchener,..,country clair,..,..,on
81305,..,trail,kitchener,..,country clair,..,..,on
81306,..,trail,kitchener,..,country clair,..,..,on
81307,..,trail,kitchener,..,templeton,..,..,on
81308,..,trail,kitchener,..,springmount,..,..,on
81309,..,trail,kitchener,..,templeton,..,..,on
81310,..,trail,kitchener,..,driftwood,..,..,on
81311,..,trail,kitchener,..,driftwood,..,..,on
81312,..,trail,kitchener,..,thorncliffe,..,..,on
81313,..,trail,kitchener,..,thorncliffe,..,..,on
81314,..,trail,kitchener,..,franklin,..,..,on
81315,..,trail,kitchener,..,trillium,..,..,on
81316,..,trail,kitchener,..,trillium,..,..,on
81317,..,trail,kitchener,..,woodbine,..,..,on
81318,..,trail,kitchener,..,trillium,..,..,on
81319,..,trail,kitchener,..,woodbine,..,..,on
81320,..,trail,kitchener,..,blue spruce,..,..,on
81321,..,trail,kitchener,..,blue spruce,..,..,on
81322,..,trail,kitchener,..,westheights,..,..,on
81323,..,trail,kitchener,..,winding,..,..,on
81324,..,trail,kitchener,..,strasburg,..,..,on
81325,..,trail,kitchener,..,sabrina,..,..,on
81326,..,trail,kitchener,..,idlewood,..,..,on
81327,..,trail,kitchener,..,shuh,..,..,on
81328,..,trail,kitchener,..,shuh,..,..,on
81329,..,trail,kitchener,..,shuh,..,..,on
81330,..,trail,kitchener,..,idlewood,..,..,on
81331,..,trail,kitchener,..,shuh,..,..,on
81332,..,trail,kitchener,..,idlewood,..,..,on
81333,..,trail,kitchener,..,shuh,..,..,on
81334,..,trail,kitchener,..,idlewood,..,..,on
81335,..,trail,kitchener,..,shuh,..,..,on
81336,..,trail,kitchener,..,idlewood,..,..,on
81337,..,trail,kitchener,..,shuh,..,..,on
81338,..,trail,kitchener,..,shuh,..,..,on
81339,..,trail,kitchener,..,shuh,..,..,on
81340,..,trail,kitchener,..,shuh,..,..,on
81341,..,trail,kitchener,..,schneider,..,..,on
81342,..,trail,kitchener,..,schneider,..,..,on
81343,..,trail,kitchener,..,schneider,..,..,on
81344,..,trail,kitchener,..,schneider,..,..,on
81345,..,trail,kitchener,..,sophia,..,..,on
81346,..,trail,kitchener,..,sophia,..,..,on
81347,..,trail,kitchener,..,sienna,..,..,on
