Index,Facility_Name,ODRSF_facility_type,Provider,Street_No,Street_Name,Postal_Code,City,Prov_Terr
66339,Walter Bean Grand River Trail,trail,kitchener,..,valebrook,..,..,on
66340,Walter Bean Grand River Trail,trail,kitchener,..,woolner trail,..,..,on
66341,Walter Bean Grand River Trail,trail,kitchener,..,centennial,..,..,on
66342,Walter Bean Grand River Trail,trail,kitchener,..,centennial,..,..,on
66343,Walter Bean Grand River Trail,trail,kitchener,..,pennsylvania,..,..,on
66344,Walter Bean Grand River Trail,trail,kitchener,..,riverview,..,..,on
66345,Walter Bean Grand River Trail,trail,kitchener,..,deer creek,..,..,on
66346,Walter Bean Grand River Trail,trail,kitchener,..,..,..,..,on
66347,Walter Bean Grand River Trail,trail,kitchener,..,hidden valley,..,..,on
66348,Walter Bean Grand River Trail,trail,kitchener,..,river ridge,..,..,on
66349,Walter Bean Grand River Trail,trail,kitchener,..,king,..,..,on
66350,Walter Bean Grand River Trail,trail,kitchener,..,deer creek,..,..,on
66351,Walter Bean Grand River Trail,trail,kitchener,..,pennsylvania,..,..,on
66352,Walter Bean Grand River Trail,trail,kitchener,..,lookout,..,..,on
66353,Walter Bean Grand River Trail,trail,kitchener,..,eaglecrest,..,..,on
66354,Walter Bean Grand River Trail,trail,kitchener,..,kiwanis park,..,..,on
66355,Walter Bean Grand River Trail,trail,kitchener,..,grand river,..,..,on
66356,Walter Bean Grand River Trail,trail,kitchener,..,eaglecrest,..,..,on
66357,Walter Bean Grand River Trail,trail,kitchener,..,eaglecrest,..,..,on
66358,Walter Bean Grand River Trail,trail,kitchener,..,forwell,..,..,on
66359,Walter Bean Grand River Trail,trail,kitchener,..,doon valley,..,..,on
66360,Walter Bean Grand River Trail,trail,kitchener,..,eaglecrest,..,..,on
66362,Walter Bean Grand River Trail,trail,kitchener,..,eaglecrest,..,..,on
66363,Walter Bean Grand River Trail,trail,kitchener,..,riverbend,..,..,on
66364,Walter Bean Grand River Trail,trail,kitchener,..,riverbend,..,..,on
66365,Walter Bean Grand River Trail,trail,kitchener,..,sims estate,..,..,on
66366,Walter Bean Grand River Trail,trail,kitchener,..,sims estate,..,..,on
66367,Walter Bean Grand River Trail,trail,kitchener,..,manitoulin,..,..,on
66368,Walter Bean Grand River Trail,trail,kitchener,..,tinatawa,..,..,on
66369,Walter Bean Grand River Trail,trail,kitchener,..,sims estate,..,..,on
66370,Walter Bean Grand River Trail,trail,kitchener,..,falconridge,..,..,on
66371,Walter Bean Grand River Trail,trail,kitchener,..,woolwich,..,..,on
66372,Walter Bean Grand River Trail,trail,kitchener,..,centennial,..,..,on
66373,Walter Bean Grand River Trail,trail,kitchener,..,riverbend,..,..,on
66374,Walter Bean Grand River Trail,trail,kitchener,..,manitoulin,..,..,on
66376,Walter Bean Grand River Trail,trail,kitchener,..,bridge,..,..,on
66377,Walter Bean Grand River Trail,trail,kitchener,..,woolwich,..,..,on
66378,Walter Bean Grand River Trail,trail,kitchener,..,falconridge,..,..,on
66379,Walter Bean Grand River Trail,trail,kitchener,..,otterbein,..,..,on
66380,Walter Bean Grand River Trail,trail,kitchener,..,otterbein,..,..,on
66381,Walter Bean Grand River Trail,trail,kitchener,..,otterbein,..,..,on
66382,Walter Bean Grand River Trail,trail,kitchener,..,otterbein,..,..,on
66383,Walter Bean Grand River Trail,trail,kitchener,..,grand river,..,..,on
66384,Walter Bean Grand River Trail,trail,kitchener,..,grand river,..,..,on
66385,Walter Bean Grand River Trail,trail,kitchener,..,grand river,..,..,on
66386,Walter Bean Grand River Trail,trail,kitchener,..,grand river,..,..,on
66387,Walter Bean Grand River Trail,trail,kitchener,..,morrison,..,..,on
66388,Walter Bean Grand River Trail,trail,kitchener,..,morrison,..,..,on
66389,Walter Bean Grand River Trail,trail,kitchener,..,king,..,..,on
