Index,Facility_Name,ODRSF_facility_type,Provider,Street_No,Street_Name,Postal_Code,City,Prov_Terr
21554,Belgreen Park,trail,waterloo region,..,..,..,..,on
21555,Belgreen Park,trail,kitchener,..,..,..,waterloo,on
21556,Belgreen Park To Belgreen Way,trail,waterloo region,..,..,..,..,on
21645,Benjamin Park,trail,waterloo region,..,..,..,..,on
21646,Benjamin Park,trail,waterloo region,..,..,..,..,on
21647,Benjamin Park,trail,waterloo region,..,..,..,..,on
21648,Benjamin Park,trail,waterloo region,..,..,..,..,on
21649,Benjamin Park,trail,waterloo region,..,..,..,..,on
21650,Benjamin Park,trail,waterloo region,..,..,..,..,on
21651,Benjamin Park,trail,waterloo region,..,..,..,..,on
21652,Benjamin Park,trail,waterloo region,..,..,..,..,on
21653,Benjamin Park,trail,waterloo region,..,..,..,..,on
21654,Benjamin Park,trail,kitchener,..,..,..,waterloo,on
21655,Benjamin Park,trail,kitchener,..,..,..,waterloo,on
21656,Benjamin Park,trail,kitchener,..,weber,..,waterloo,on
21657,Benjamin Park To Black Forest Pl,trail,waterloo region,..,..,..,..,on
21658,Benjamin Park To Cheltonwood Cres,trail,waterloo region,..,..,..,..,on
21660,Bennington Gate Hydro Corridor,trail,waterloo region,..,..,..,..,on
21855,Betchel Park Reserve,trail,kitchener,..,..,..,waterloo,on
21856,Betchel Park Reserve,trail,kitchener,..,..,..,kitchener,on
21857,Betchel Park Reserve,trail,kitchener,..,..,..,kitchener,on
21861,Betchel Park Reserve,trail,kitchener,..,..,..,waterloo,on
21862,Betchel Park Reserve,trail,kitchener,..,..,..,waterloo,on
21863,Betchel Park Reserve,trail,kitchener,..,..,..,waterloo,on
21864,Betchel Park Reserve,trail,kitchener,..,..,..,waterloo,on
21865,Betchel Park Reserve,trail,kitchener,..,..,..,waterloo,on
21866,Betchel Park Reserve,trail,kitchener,..,..,..,waterloo,on
21868,Betchel Park Reserve,trail,kitchener,..,..,..,waterloo,on
21869,Betchel Park Reserve,trail,kitchener,..,..,..,waterloo,on
21871,Betchel Park Reserve,trail,kitchener,..,..,..,kitchener,on
21872,Betchel Park Reserve,trail,kitchener,..,..,..,waterloo,on
21873,Betchel Park Reserve,trail,kitchener,..,..,..,waterloo,on
21879,Betchel Park Reserve,trail,kitchener,..,..,..,kitchener,on
21880,Betchel Park Reserve,trail,kitchener,..,..,..,kitchener,on
21881,Betchel Park Reserve,trail,kitchener,..,..,..,waterloo,on
21882,Betchel Park Reserve,trail,kitchener,..,..,..,waterloo,on
21883,Betchel Park Reserve,trail,kitchener,..,..,..,waterloo,on
21957,Birchmount Park,trail,waterloo region,..,..,..,..,on
21958,Birchmount Park,trail,waterloo region,..,..,..,..,on
22008,Black Cherry Park,trail,waterloo region,..,..,..,..,on
22009,Black Cherry Park,trail,waterloo region,..,..,..,..,on
22104,Blue Beech Link,trail,waterloo region,..,..,..,..,on
22105,Blue Beech Link,trail,waterloo region,..,..,..,..,on
22106,Blue Beech Link,trail,waterloo region,..,..,..,..,on
22107,Blue Beech Link,trail,waterloo region,..,..,..,..,on
22108,Blue Beech Link,trail,waterloo region,..,..,..,..,on
22109,Blue Beech Link,trail,waterloo region,..,..,..,..,on
22110,Blue Beech Park,trail,waterloo region,..,..,..,..,on
22111,Blue Beech Park,trail,waterloo region,..,..,..,..,on
