Index,Facility_Name,ODRSF_facility_type,Provider,Street_No,Street_Name,Postal_Code,City,Prov_Terr
24086,Christopher Dr To Brendawood Cres,trail,waterloo region,..,..,..,..,on
24105,Churchill Park,trail,waterloo region,..,..,..,..,on
24106,Churchill St To Churchill Crt,trail,waterloo region,..,..,..,..,on
24146,Citadel Crt To Canso Pl,trail,waterloo region,..,..,..,..,on
24147,City Centre Link & Cenotaph,trail,waterloo region,..,..,..,..,on
24148,City Centre Link & Cenotaph,trail,waterloo region,..,..,..,..,on
24149,City Centre Link & Cenotaph,trail,waterloo region,..,..,..,..,on
24150,City Centre Link & Cenotaph,trail,waterloo region,..,..,..,..,on
24156,Clair Creek Buffer,trail,waterloo region,..,..,..,..,on
24157,Clair Creek Buffer,trail,waterloo region,..,..,..,..,on
24158,Clair Creek Link,trail,waterloo region,..,..,..,..,on
24159,Clair Creek Link,trail,waterloo region,..,..,..,..,on
24160,Clair Creek Link,trail,waterloo region,..,..,..,..,on
24161,Clair Lake Park,trail,waterloo region,..,..,..,..,on
24162,Clair Lake Park,trail,waterloo region,..,..,..,..,on
24163,Clair Lake Park,trail,waterloo region,..,..,..,..,on
24164,Clair Lake Park,trail,waterloo region,..,..,..,..,on
24165,Clair Lake Park To Post Horn Pl,trail,waterloo region,..,..,..,..,on
24166,Clair Lake Park To Shakespeare Dr,trail,waterloo region,..,..,..,..,on
24167,Clair Woods,trail,waterloo region,..,..,..,..,on
24168,Clair Woods,trail,waterloo region,..,..,..,..,on
24169,Clair Woods To Lausanne Cres,trail,waterloo region,..,..,..,..,on
24170,Clair Woodsclair Woods,trail,waterloo region,..,..,..,..,on
24171,Clairbrook Cres To Stillmeadow Park,trail,waterloo region,..,..,..,..,on
24381,Coldstream Dr To Conservation Meadows Park,trail,waterloo region,..,..,..,..,on
24433,Coleridge Dr To Mcdougall Rd,trail,waterloo region,..,..,..,..,on
24485,Colonial Creek Link,trail,waterloo region,..,..,..,..,on
24486,Colonial Creek Link,trail,waterloo region,..,..,..,..,on
24487,Colonial Creek Link,trail,waterloo region,..,..,..,..,on
24488,Colonial Creek Link,trail,waterloo region,..,..,..,..,on
24489,Colonial Creek Link,trail,waterloo region,..,..,..,..,on
24490,Colonial Creek Link,trail,waterloo region,..,..,..,..,on
24491,Colonial Creek Link To Cabot Trail,trail,waterloo region,..,..,..,..,on
24500,Columbia Forest Blvd,trail,kitchener,..,..,..,waterloo,on
24501,Columbia Forest Blvd To Columbia Forest Swm Area,trail,waterloo region,..,..,..,..,on
24502,Columbia Forest Court Park,trail,waterloo region,..,..,..,..,on
24503,Columbia Forest Green,trail,waterloo region,..,..,..,..,on
24504,Columbia Forest Swm Area,trail,waterloo region,..,..,..,..,on
24518,Columbia St W,trail,waterloo region,..,..,..,..,on
24519,Columbia St W,trail,waterloo region,..,..,..,..,on
24520,Columbia St W,trail,waterloo region,..,..,..,..,on
24521,Columbia St W,trail,waterloo region,..,..,..,..,on
24522,Columbia St W,trail,waterloo region,..,..,..,..,on
24523,Columbia St W,trail,waterloo region,..,..,..,..,on
24524,Columbia St W,trail,waterloo region,..,..,..,..,on
24525,Columbia St W,trail,waterloo region,..,..,..,..,on
24526,Columbia St W,trail,waterloo region,..,..,..,..,on
24527,Columbia St W,trail,waterloo region,..,..,..,..,on
24528,Columbia St W To Frank Toma Dr,trail,kitchener,..,..,..,waterloo,on
