Index,Facility_Name,ODRSF_facility_type,Provider,Street_No,Street_Name,Postal_Code,City,Prov_Terr
26022,Dumfries Conservation Area,trail,kitchener,..,..,..,cambridge,on
26023,Dumfries Conservation Area,trail,kitchener,..,..,..,cambridge,on
26024,Dumfries Conservation Area,trail,kitchener,..,..,..,cambridge,on
26025,Dumfries Conservation Area,trail,kitchener,..,..,..,cambridge,on
26026,Dumfries Conservation Area,trail,kitchener,..,..,..,cambridge,on
26027,Dumfries Conservation Area,trail,kitchener,..,..,..,cambridge,on
26028,Dumfries Conservation Area,trail,kitchener,..,..,..,cambridge,on
26029,Dumfries Conservation Area,trail,kitchener,..,..,..,cambridge,on
26030,Dumfries Conservation Area,trail,kitchener,..,..,..,cambridge,on
26031,Dumfries Conservation Area,trail,kitchener,..,..,..,cambridge,on
26032,Dumfries Conservation Area,trail,kitchener,..,..,..,cambridge,on
26052,Duncan Ferguson Homestead,trail,cambridge,..,..,..,..,on
26057,Dundas St S,trail,cambridge,..,..,..,..,on
26058,Dundas St S,trail,cambridge,..,..,..,..,on
26059,Dundas St S,trail,cambridge,..,..,..,..,on
26324,Elgin Street P.S.,trail,cambridge,..,..,..,..,on
26367,Ellacott Lookout,trail,kitchener,..,..,..,cambridge,on
27071,Fitzgerald Dr Swmp,trail,cambridge,..,..,..,..,on
27072,Fitzgerald Dr Swmp,trail,cambridge,..,..,..,..,on
27073,Fitzgerald Dr Swmp,trail,cambridge,..,..,..,..,on
27074,Fitzgerald Dr Swmp,trail,cambridge,..,..,..,..,on
27075,Fitzgerald Dr Swmp,trail,cambridge,..,..,..,..,on
27076,Fitzgerald Dr Swmp,trail,cambridge,..,..,..,..,on
27077,Fitzgerald Dr Swmp,trail,cambridge,..,..,..,..,on
27078,Fitzgerald Dr Swmp,trail,cambridge,..,..,..,..,on
27079,Fitzgerald Dr Swmp,trail,cambridge,..,..,..,..,on
27080,Fitzgerald Dr Swmp,trail,cambridge,..,..,..,..,on
27081,Fitzgerald Dr Swmp,trail,cambridge,..,..,..,..,on
27082,Fitzgerald Dr Swmp,trail,cambridge,..,..,..,..,on
27083,Fitzgerald Dr Swmp,trail,cambridge,..,..,..,..,on
27084,Fitzgerald Dr Swmp,trail,cambridge,..,..,..,..,on
27085,Fitzgerald Dr Swmp,trail,cambridge,..,..,..,..,on
27086,Fitzgerald Dr Swmp,trail,cambridge,..,..,..,..,on
27087,Fitzgerald Dr Swmp,trail,cambridge,..,..,..,..,on
27088,Fitzgerald Dr Swmp,trail,cambridge,..,..,..,..,on
27089,Fitzgerald Dr Swmp,trail,cambridge,..,..,..,..,on
27090,Fitzgerald Dr Swmp,trail,cambridge,..,..,..,..,on
27091,Fitzgerald Dr Swmp,trail,cambridge,..,..,..,..,on
27092,Fitzgerald Dr Swmp,trail,cambridge,..,..,..,..,on
27093,Fitzgerald Dr Swmp,trail,cambridge,..,..,..,..,on
27094,Fitzgerald Dr Swmp,trail,cambridge,..,..,..,..,on
27095,Fitzgerald Dr Swmp,trail,cambridge,..,..,..,..,on
27096,Fitzgerald Dr Swmp,trail,cambridge,..,..,..,..,on
27754,Gail St Park,trail,cambridge,..,..,..,..,on
28229,Gordon Chaplin Park,trail,cambridge,..,..,..,..,on
28230,Gordon Chaplin Park,trail,cambridge,..,..,..,..,on
28231,Gordon Chaplin Park,trail,cambridge,..,..,..,..,on
28398,Grand Trunk Trail,trail,cambridge,..,..,..,..,on
28399,Grand Trunk Trail,trail,cambridge,..,..,..,..,on
