Index,Facility_Name,ODRSF_facility_type,Provider,Street_No,Street_Name,Postal_Code,City,Prov_Terr
67156,Waterloo Park West,trail,waterloo region,..,..,..,..,on
67157,Waterloo Park West,trail,waterloo region,..,..,..,..,on
67158,Waterloo Park West,trail,waterloo region,..,..,..,..,on
67159,Waterloo Park West,trail,waterloo region,..,..,..,..,on
67160,Waterloo Park West,trail,waterloo region,..,..,..,..,on
67161,Waterloo Park West,trail,waterloo region,..,..,..,..,on
67162,Waterloo Park West,trail,waterloo region,..,..,..,..,on
67163,Waterloo Park West,trail,waterloo region,..,..,..,..,on
67164,Waterloo Park West,trail,waterloo region,..,..,..,..,on
67165,Waterloo Park West,trail,waterloo region,..,..,..,..,on
67166,Waterloo Park West,trail,waterloo region,..,..,..,..,on
67167,Waterloo Park West,trail,waterloo region,..,..,..,..,on
67168,Waterloo Park West,trail,waterloo region,..,..,..,..,on
67169,Waterloo Park West,trail,waterloo region,..,..,..,..,on
67170,Waterloo Park West To Father David Bauer Dr,trail,waterloo region,..,..,..,..,on
67171,Waterloo Recreation Complex,trail,waterloo region,..,..,..,..,on
67172,Waterloo Recreation Complex,trail,waterloo region,..,..,..,..,on
67173,Waterloo Recreation Complex,trail,waterloo region,..,..,..,..,on
67174,Waterloo Recreation Complex,trail,waterloo region,..,..,..,..,on
67175,Waterloo Recreation Complex,trail,waterloo region,..,..,..,..,on
67176,Waterloo Recreation Complex,trail,waterloo region,..,..,..,..,on
67177,Waterloo Recreation Complex,trail,waterloo region,..,..,..,..,on
67178,Waterloo Recreation Complex,trail,waterloo region,..,..,..,..,on
67179,Waterloo Recreation Complex,trail,waterloo region,..,..,..,..,on
67180,Waterloo Spur Line Trail,trail,kitchener,..,weber,..,kitchener,on
67202,Waterloop,trail,waterloo region,..,..,..,..,on
67203,Waterloop,trail,waterloo region,..,..,..,..,on
67204,Waterloop,trail,waterloo region,..,..,..,..,on
67205,Waterloop,trail,waterloo region,..,..,..,..,on
67206,Waterloop,trail,waterloo region,..,..,..,..,on
67207,Waterloop,trail,waterloo region,..,..,..,..,on
67208,Waterloop,trail,waterloo region,..,..,..,..,on
67209,Waterloop,trail,waterloo region,..,..,..,..,on
67210,Waterloop,trail,waterloo region,..,..,..,..,on
67211,Waterloop,trail,waterloo region,..,..,..,..,on
67212,Waterloop,trail,waterloo region,..,..,..,..,on
67213,Waterloop Albert Mccormick Community Centre,trail,waterloo region,..,..,..,..,on
67214,Waterloop Old Albert Park,trail,waterloo region,..,..,..,..,on
67227,Waterton Dr To Killbear Crt,trail,waterloo region,..,..,..,..,on
67237,Wcdsb,trail,waterloo region,..,..,..,..,on
67258,Weber St S To Green Acres Park,trail,waterloo region,..,..,..,..,on
67300,Werni Park,trail,waterloo region,..,..,..,..,on
67301,Wes Graham Way,trail,waterloo region,..,..,..,..,on
67302,Wes Graham Way,trail,waterloo region,..,..,..,..,on
67303,Wes Graham Way,trail,waterloo region,..,..,..,..,on
67304,Wes Graham Way,trail,waterloo region,..,..,..,..,on
67305,Wes Graham Way,trail,waterloo region,..,..,..,..,on
67306,Wes Graham Way,trail,waterloo region,..,..,..,..,on
67313,West Connector,trail,waterloo region,..,..,..,..,on
