Index,Facility_Name,ODRSF_facility_type,Provider,Street_No,Street_Name,Postal_Code,City,Prov_Terr
81149,..,trail,kitchener,..,ludolph,..,..,on
81150,..,trail,kitchener,..,valebrook,..,..,on
81151,..,trail,kitchener,..,woolner trail,..,..,on
81152,..,trail,kitchener,..,fairway,..,..,on
81153,..,trail,kitchener,..,woodbine,..,..,on
81154,..,trail,kitchener,..,parkvale,..,..,on
81155,..,trail,kitchener,..,parkvale,..,..,on
81156,..,trail,kitchener,..,woodbine,..,..,on
81157,..,trail,kitchener,..,huron,..,..,on
81158,..,trail,kitchener,..,huron,..,..,on
81159,..,trail,kitchener,..,huron,..,..,on
81160,..,trail,kitchener,..,gilmour,..,..,on
81161,..,trail,kitchener,..,westmeadow,..,..,on
81162,..,trail,kitchener,..,penelope,..,..,on
81163,..,trail,kitchener,..,lakeside,..,..,on
81164,..,trail,kitchener,..,lakeside,..,..,on
81165,..,trail,kitchener,..,victoria,..,..,on
81166,..,trail,kitchener,..,ira needles,..,..,on
81167,..,trail,kitchener,..,ira needles,..,..,on
81168,..,trail,kitchener,..,ottawa,..,..,on
81169,..,trail,kitchener,..,ottawa,..,..,on
81170,..,trail,kitchener,..,water,..,..,on
81171,..,trail,kitchener,..,woolner trail,..,..,on
81172,..,trail,kitchener,..,jubilee,..,..,on
81173,..,trail,kitchener,..,falling green,..,..,on
81174,..,trail,kitchener,..,ottawa,..,..,on
81175,..,trail,kitchener,..,ottawa,..,..,on
81176,..,trail,kitchener,..,belmont,..,..,on
81177,..,trail,kitchener,..,black maple,..,..,on
81178,..,trail,kitchener,..,lookout,..,..,on
81179,..,trail,kitchener,..,weber,..,..,on
81180,..,trail,kitchener,..,stirling,..,..,on
81181,..,trail,kitchener,..,stirling,..,..,on
81182,..,trail,kitchener,..,idle creek,..,..,on
81183,..,trail,kitchener,..,gracefield,..,..,on
81184,..,trail,kitchener,..,block line,..,..,on
81185,..,trail,kitchener,..,erinbrook,..,..,on
81186,..,trail,kitchener,..,mccabe,..,..,on
81187,..,trail,kitchener,..,rittenhouse,..,..,on
81188,..,trail,kitchener,..,rittenhouse,..,..,on
81189,..,trail,kitchener,..,erinbrook,..,..,on
81190,..,trail,kitchener,..,erinbrook,..,..,on
81191,..,trail,kitchener,..,erinbrook,..,..,on
81192,..,trail,kitchener,..,rosebank,..,..,on
81193,..,trail,kitchener,..,rittenhouse,..,..,on
81194,..,trail,kitchener,..,westmeadow,..,..,on
81195,..,trail,kitchener,..,clark,..,..,on
81196,..,trail,kitchener,..,clark,..,..,on
81197,..,trail,kitchener,..,clark,..,..,on
