Index,Facility_Name,ODRSF_facility_type,Provider,Street_No,Street_Name,Postal_Code,City,Prov_Terr
80698,..,trail,kitchener,..,seabrook,..,..,on
80699,..,trail,kitchener,..,grovehill,..,..,on
80700,..,trail,kitchener,..,rivertrail,..,..,on
80701,..,trail,kitchener,..,ira needles,..,..,on
80702,..,trail,kitchener,..,ira needles,..,..,on
80703,..,trail,kitchener,..,ira needles,..,..,on
80704,..,trail,kitchener,..,ira needles,..,..,on
80705,..,trail,kitchener,..,ira needles,..,..,on
80706,..,trail,kitchener,..,ira needles,..,..,on
80707,..,trail,kitchener,..,homer watson,..,..,on
80708,..,trail,kitchener,..,manitou,..,..,on
80709,..,trail,kitchener,..,doon south,..,..,on
80710,..,trail,kitchener,..,resurrection,..,..,on
80711,..,trail,kitchener,..,ira needles,..,..,on
80712,..,trail,kitchener,..,ira needles,..,..,on
80713,..,trail,kitchener,..,ira needles,..,..,on
80714,..,trail,kitchener,..,countrystone,..,..,on
80715,..,trail,kitchener,..,autumn hill,..,..,on
80716,..,trail,kitchener,..,autumn hill,..,..,on
80717,..,trail,kitchener,..,cherry,..,..,on
80718,..,trail,kitchener,..,activa,..,..,on
80719,..,trail,kitchener,..,activa,..,..,on
80720,..,trail,kitchener,..,shady glen,..,..,on
80721,..,trail,kitchener,..,shady glen,..,..,on
80722,..,trail,kitchener,..,barwood,..,..,on
80723,..,trail,kitchener,..,lucerne,..,..,on
80724,..,trail,kitchener,..,geneva,..,..,on
80725,..,trail,kitchener,..,geneva,..,..,on
80726,..,trail,kitchener,..,trillium,..,..,on
80727,..,trail,kitchener,..,union,..,..,on
80728,..,trail,kitchener,..,union,..,..,on
80729,..,trail,kitchener,..,union,..,..,on
80730,..,trail,kitchener,..,fairway,..,..,on
80731,..,trail,kitchener,..,fairway,..,..,on
80732,..,trail,kitchener,..,eastforest,..,..,on
80733,..,trail,kitchener,..,traynor,..,..,on
80734,..,trail,kitchener,..,greenfield,..,..,on
80735,..,trail,kitchener,..,balfour,..,..,on
80736,..,trail,kitchener,..,lennox lewis,..,..,on
80737,..,trail,kitchener,..,lennox lewis,..,..,on
80738,..,trail,kitchener,..,woodbine,..,..,on
80739,..,trail,kitchener,..,hearthbridge,..,..,on
80740,..,trail,kitchener,..,hearthbridge,..,..,on
80741,..,trail,kitchener,..,millwood,..,..,on
80742,..,trail,kitchener,..,perin,..,..,on
80743,..,trail,kitchener,..,perin,..,..,on
80744,..,trail,kitchener,..,carlyle,..,..,on
80745,..,trail,kitchener,..,carlyle,..,..,on
80746,..,trail,kitchener,..,sabrina,..,..,on
