Index,Facility_Name,ODRSF_facility_type,Provider,Street_No,Street_Name,Postal_Code,City,Prov_Terr
52140,Settlers Grove Park,trail,kitchener,..,..,..,kitchener,on
52141,Settlers Grove Park,trail,kitchener,..,..,..,kitchener,on
52142,Settlers Grove Park,trail,kitchener,..,..,..,kitchener,on
53935,Sorrento St To Community Trail Connection,trail,kitchener,..,..,..,kitchener,on
53936,Sorrento St To Community Trail Connection,trail,kitchener,..,..,..,kitchener,on
54153,Springmount Park,trail,kitchener,..,..,..,kitchener,on
54154,Springmount Park,trail,kitchener,..,..,..,kitchener,on
54155,Springmount Park,trail,kitchener,..,..,..,kitchener,on
54156,Springmount Park,trail,kitchener,..,..,..,kitchener,on
54167,Spurline To Ferdinand Ave - Kitchcner,trail,waterloo region,..,..,..,..,on
54168,Spurline Trail,trail,waterloo region,..,..,..,..,on
54171,Spurline Trail,trail,waterloo region,..,..,..,..,on
54284,Stanley Park Conservation Area,trail,kitchener,..,ottawa,..,kitchener,on
54285,Stanley Park Conservation Area,trail,kitchener,..,..,..,kitchener,on
54286,Stanley Park Conservation Area,trail,kitchener,..,..,..,kitchener,on
54287,Stanley Park Conservation Area,trail,kitchener,..,ottawa,..,kitchener,on
54288,Stanley Park Conservation Area,trail,kitchener,..,..,..,kitchener,on
54289,Stanley Park Conservation Area,trail,kitchener,..,..,..,kitchener,on
54290,Stanley Park Conservation Area,trail,kitchener,..,..,..,kitchener,on
54299,Steckle Woods,trail,kitchener,..,..,..,kitchener,on
54300,Steckle Woods,trail,kitchener,..,bleams,..,kitchener,on
54301,Steckle Woods,trail,kitchener,..,..,..,kitchener,on
54302,Steckle Woods,trail,kitchener,..,..,..,kitchener,on
54303,Steckle Woods,trail,kitchener,..,..,..,kitchener,on
54304,Steckle Woods,trail,kitchener,..,..,..,kitchener,on
54305,Steckle Woods,trail,kitchener,..,homer watson,..,kitchener,on
54306,Steckle Woods,trail,kitchener,..,homer watson,..,kitchener,on
54307,Steckle Woods,trail,kitchener,..,..,..,kitchener,on
54308,Steckle Woods,trail,kitchener,..,bleams,..,kitchener,on
54390,Strasburg Creek,trail,kitchener,..,..,..,kitchener,on
54391,Strasburg Creek Trail,trail,kitchener,..,..,..,kitchener,on
54392,Strasburg Creek Trail,trail,kitchener,..,..,..,kitchener,on
54393,Strasburg Creek Trail,trail,kitchener,..,..,..,kitchener,on
54394,Strasburg Creek Trail,trail,kitchener,..,..,..,kitchener,on
54395,Strasburg Creek Trail,trail,kitchener,..,..,..,kitchener,on
54396,Strasburg Creek Trail,trail,kitchener,..,..,..,kitchener,on
54397,Strasburg Creek Trail,trail,kitchener,..,..,..,kitchener,on
54474,Summerside Woods Park,trail,kitchener,..,..,..,kitchener,on
54475,Summerside Woods Park,trail,kitchener,..,..,..,kitchener,on
54476,Summerside Woods Park,trail,kitchener,..,..,..,kitchener,on
54477,Summerside Woods Park,trail,kitchener,..,..,..,kitchener,on
55026,Thistle Down Green,trail,kitchener,..,bleams,..,kitchener,on
55127,Tilts Bush,trail,kitchener,..,..,..,kitchener,on
55128,Tilts Bush,trail,kitchener,..,..,..,kitchener,on
62531,Trans Canada Trail,trail,kitchener,..,manitou,..,kitchener,on
62532,Trans Canada Trail,trail,kitchener,..,manitou,..,kitchener,on
62533,Trans Canada Trail,trail,kitchener,..,hayward,..,kitchener,on
62534,Trans Canada Trail,trail,kitchener,..,..,..,kitchener,on
62540,Trans Canada Trail,trail,kitchener,..,..,..,kitchener,on
