Index,Facility_Name,ODRSF_facility_type,Provider,Street_No,Street_Name,Postal_Code,City,Prov_Terr
81399,..,trail,kitchener,..,fallowfield,..,..,on
81400,..,trail,kitchener,..,devon,..,..,on
81401,..,trail,kitchener,..,henry,..,..,on
81402,..,trail,kitchener,..,shelley,..,..,on
81403,..,trail,kitchener,..,fairbank,..,..,on
81404,..,trail,kitchener,..,uxbridge,..,..,on
81405,..,trail,kitchener,..,uxbridge,..,..,on
81406,..,trail,kitchener,..,uxbridge,..,..,on
81407,..,trail,kitchener,..,shelley,..,..,on
81408,..,trail,kitchener,..,timberlane,..,..,on
81409,..,trail,kitchener,..,cumberland,..,..,on
81410,..,trail,kitchener,..,tyson,..,..,on
81411,..,trail,kitchener,..,overlea,..,..,on
81412,..,trail,kitchener,..,belmont,..,..,on
81413,..,trail,kitchener,..,river,..,..,on
81414,..,trail,kitchener,..,ira needles,..,..,on
81415,..,trail,kitchener,..,michener,..,..,on
81416,..,trail,kitchener,..,idle creek,..,..,on
81417,..,trail,kitchener,..,apple tree,..,..,on
81418,..,trail,kitchener,..,david,..,..,on
81419,..,trail,kitchener,..,david,..,..,on
81420,..,trail,kitchener,..,west,..,..,on
81421,..,trail,kitchener,..,dill,..,..,on
81422,..,trail,kitchener,..,cherry,..,..,on
81423,..,trail,kitchener,..,homer watson,..,..,on
81424,..,trail,kitchener,..,metzloff,..,..,on
81425,..,trail,kitchener,..,rush meadow,..,..,on
81426,..,trail,kitchener,..,rush meadow,..,..,on
81427,..,trail,kitchener,..,rush meadow,..,..,on
81428,..,trail,kitchener,..,wilfred,..,..,on
81429,..,trail,kitchener,..,connaught,..,..,on
81430,..,trail,kitchener,..,royal orchard,..,..,on
81431,..,trail,kitchener,..,fallowfield,..,..,on
81432,..,trail,kitchener,..,country hill,..,..,on
81433,..,trail,kitchener,..,country hill,..,..,on
81434,..,trail,kitchener,..,country,..,..,on
81435,..,trail,kitchener,..,deer ridge,..,..,on
81436,..,trail,kitchener,..,deer ridge,..,..,on
81437,..,trail,kitchener,..,deer ridge,..,..,on
81438,..,trail,kitchener,..,pioneer tower rd,..,..,on
81439,..,trail,kitchener,..,queens,..,..,on
81440,..,trail,kitchener,..,queens,..,..,on
81441,..,trail,kitchener,..,maitland,..,..,on
81442,..,trail,kitchener,..,watercress,..,..,on
81443,..,trail,kitchener,..,highland,..,..,on
81444,..,trail,kitchener,..,steepleridge,..,..,on
81445,..,trail,kitchener,..,westmeadow,..,..,on
81446,..,trail,kitchener,..,rolling meadows,..,..,on
81447,..,trail,kitchener,..,broken oak,..,..,on
