Index,Facility_Name,ODRSF_facility_type,Provider,Street_No,Street_Name,Postal_Code,City,Prov_Terr
13509,Mclennan Park Volleyball Court,sports field,kitchener,901,ottawa,..,..,on
13510,Mclennan Park Volleyball Court,sports field,kitchener,901,ottawa,..,..,on
13511,Mclennan Park Volleyball Court,sports field,kitchener,901,ottawa,..,..,on
13512,Mclennan Skateboard Park,sports field,kitchener,901,ottawa,..,..,on
13551,Meadowlane Park School Ball Diamond 1,sports field,kitchener,236,forestwood,..,..,on
13552,Meadowlane Park School Ball Diamond 2,sports field,kitchener,138,glen park,..,..,on
13553,Meadowlane Park School Soccer Field-1,sports field,kitchener,236,forestwood,..,..,on
13573,Meinzinger Soccer Park-1,sports field,kitchener,100,watson,..,..,on
13574,Meinzinger Soccer Park-2,sports field,kitchener,100,watson,..,..,on
13575,Meinzinger Soccer Park-3,sports field,kitchener,100,watson,..,..,on
13576,Meinzinger Soccer Park-4,sports field,kitchener,100,watson,..,..,on
13577,Meinzinger Soccer Park-5,sports field,kitchener,100,watson,..,..,on
13671,Midland Park Ball Diamond,sports field,kitchener,39,midland,..,..,on
13672,Midland Park Blast Ball,sports field,kitchener,39,midland,..,..,on
13673,Midland Park Soccer Field,sports field,kitchener,39,midland,..,..,on
13675,Mill Courtland C.C. Basketball Court,sports field,kitchener,216,mill,..,..,on
13787,Monsignor Gleason School Ball Diamond 1,sports field,kitchener,155,westwood,..,..,on
13788,Monsignor Haller Elementary School Ball Diamond,sports field,kitchener,118,shea,..,..,on
13791,Montgomery Park 1/2 Baskeball Court,sports field,kitchener,135,montgomery,..,..,on
13792,Montgomery Park Soccer Field,sports field,kitchener,135,montgomery,..,..,on
13793,Montgomery Park Tennis Court,sports field,kitchener,135,montgomery,..,..,on
13825,Morgan Park Soccer Field,sports field,kitchener,325,morgan,..,..,on
13838,Morrison Park Ball Diamond,sports field,kitchener,245,morrison,..,..,on
13839,Morrison Park Soccer Field-1,sports field,kitchener,245,morrison,..,..,on
13840,Morrison Park Soccer Field-2,sports field,kitchener,245,morrison,..,..,on
13841,Morrison Park Soccer Field-3,sports field,kitchener,245,morrison,..,..,on
13884,Multi-Purpose Field,sports field,kitchener,1664,huron,..,..,on
13958,New Unnamed Elementary School-1,sports field,kitchener,225,thomas slee,..,..,on
13959,New Unnamed Elementary School-2,sports field,kitchener,225,thomas slee,..,..,on
13960,New Unnamed Elementary School-3,sports field,kitchener,225,thomas slee,..,..,on
14223,Our Lady Of Grace Ball Diamond 1,sports field,kitchener,70,gracefield,..,..,on
14224,Our Lady Of Grace Ball Diamond 2,sports field,kitchener,70,gracefield,..,..,on
14225,Our Lady Of Grace Catholic School Soccer Field,sports field,kitchener,70,gracefield,..,..,on
14226,Our Lady Of Grace Soccer Field,sports field,kitchener,70,gracefield,..,..,on
14728,Peter Hallman Ball Yard - Ball Diamond 1,sports field,kitchener,220,hayward,..,..,on
14729,Peter Hallman Ball Yard - Ball Diamond 2,sports field,kitchener,220,hayward,..,..,on
14730,Peter Hallman Ball Yard - Ball Diamond 3,sports field,kitchener,220,hayward,..,..,on
14792,Pioneer Park School Ball Diamond,sports field,kitchener,55,canada,..,..,on
14793,Pioneer Park School Soccer Field,sports field,kitchener,55,canada,..,..,on
14923,Prueter School Ball Diamond,sports field,kitchener,40,prueter,..,..,on
15060,Queen Elizabeth School Ball Diamond,sports field,kitchener,191,hoffman,..,..,on
15061,Queen Elizabeth School Soccer Field,sports field,kitchener,191,hoffman,..,..,on
15095,Queensmount Multipurpose Sports Building,sports field,kitchener,1260,queens,..,..,on
15096,Queensmount School Ball Diamond 1,sports field,kitchener,21,westmount,..,..,on
15097,Queensmount School Ball Diamond 2,sports field,kitchener,21,westmount,..,..,on
15098,Queensmount School Soccer Field,sports field,kitchener,21,westmount,..,..,on
15181,Rbj Schlegel Park Soccer Field 1,sports field,kitchener,..,..,..,..,on
15182,Rbj Schlegel Park Soccer Field 2,sports field,kitchener,..,..,..,..,on
15183,Rbj Schlegel Park Tennis Court 1,sports field,kitchener,..,..,..,..,on
