Index,Facility_Name,ODRSF_facility_type,Provider,Street_No,Street_Name,Postal_Code,City,Prov_Terr
1769,Franklin Park Playground,playground,kitchener,335,franklin,..,..,on
1770,Franklin Public School Playground 1,playground,kitchener,371,franklin,..,..,on
1833,George Lippert Dog Park,park,kitchener,200,weber,..,..,on
1834,George Lippert Park Playground 1,playground,kitchener,200,weber,..,..,on
1853,Gildner Green Playground,playground,kitchener,29,eden,..,..,on
1893,Glencarin Public School Playground 1,playground,kitchener,664,erinbrook,..,..,on
1895,Glendale Park Playground,playground,kitchener,130,glen,..,..,on
1937,Gordon Green Playground,playground,kitchener,11,gordon,..,..,on
1958,Grand River Arena,arena,kitchener,555,heritage,..,..,on
1995,Greenfield Park Playground,playground,kitchener,525,greenfield,..,..,on
1996,Greengable Park Playground,playground,kitchener,1220,greengable,..,..,on
2009,Gresham Place Pool,pool,waterloo region,2969,kingsway,..,kitchener,on
2014,Groh Park Playground 1,playground,kitchener,175,thomas slee,..,..,on
2015,Groundhog Divers,pool,waterloo region,194,victoria,..,kitchener,on
2018,Guelph Street Park Playground 1,playground,kitchener,800,guelph,..,..,on
2033,Gzowski Park Playground,playground,kitchener,10,chopin,..,..,on
2075,Harry Class Pool,pool,waterloo region,45,woodside,..,kitchener,on
2076,Harry Class Swimming Pool,pool,kitchener,115,woodside,..,..,on
2130,Heritage Park Playground 1,playground,kitchener,30,halifax,..,..,on
2145,Hewitt Park Playground,playground,kitchener,269,ludulph,..,..,on
2147,Hibner Park Playground,playground,kitchener,70,maynard,..,..,on
2161,Highbrook Park South Playground 1,playground,kitchener,110,highbrook,..,..,on
2165,Highland Courts Park Playground,playground,kitchener,120,highland,..,..,on
2193,Hillside Park Playground,playground,kitchener,15,vincent,..,..,on
2218,Homewood Green Playground,playground,kitchener,161,homewood,..,..,on
2236,Howard Robertson Public School,playground,kitchener,130,morgan,..,..,on
2242,Huck Park Playground 1,playground,kitchener,225,huck,..,..,on
2266,Huron Natural Area Playground 1,playground,kitchener,801,trillium,..,..,on
2337,Idlewood Park Playground,playground,kitchener,5,thaler,..,..,on
2338,Idlewood Park Swimming Pool,pool,kitchener,5,thaler,..,..,on
2361,"Iron Horse Pool, The",pool,waterloo region,560,queen,..,kitchener,on
2383,J.F. Carmichael Public School Playground 1,playground,kitchener,80,patricia,..,..,on
2385,J.W. Gerth Public Shool Playground,playground,kitchener,171,apple ridge,..,..,on
2386,J.W. Gerth Ywca Child Care Playground,playground,kitchener,171,apple ridge,..,..,on
2460,John Darling Public School Playground 1,playground,kitchener,200,rolling meadows,..,..,on
2471,John Sweeney Catholic School Playground,playground,kitchener,185,activa,..,..,on
2519,Kaufman Park Playground,playground,kitchener,104,stirling,..,..,on
2575,King Edward Public School,playground,kitchener,103,walter,..,..,on
2576,King Edward Public School Playground 1,playground,kitchener,709,king,..,..,on
2585,Kingsdale C.C. Playground,playground,kitchener,72,wilson,..,..,on
2586,Kingsdale Community Centre,community centre,kitchener,72,wilson,..,..,on
2587,Kingsdale Park Playground,playground,kitchener,124,cedarwoods,..,..,on
2588,Kingsdale Splash Pad,splash pad,kitchener,78,wilson,..,..,on
2614,Kinsmen/ Kiwanis Twin Pad Ice Rink,rink,kitchener,400,east,..,kitchener,on
2617,Kinzie Park Playground,playground,kitchener,300,kinzie,..,..,on
2622,Kitchener Memorial Auditorium Dog Park,park,kitchener,400,east,..,kitchener,on
2625,Kiwanis Dog Park,park,kitchener,1000,park,..,..,on
2628,Kiwanis Park Playground,playground,kitchener,1000,park,..,..,on
2631,Kiwanis Park Swimming Pool,pool,kitchener,1000,park,..,..,on
