Index,Facility_Name,ODRSF_facility_type,Provider,Street_No,Street_Name,Postal_Code,City,Prov_Terr
4543,Pinebrook Park,rink,waterloo region,..,..,..,..,on
4549,Pinerow Park,playground,waterloo region,..,..,..,..,on
5021,Public Square,rink,waterloo region,..,..,..,..,on
5096,Regency Park,playground,waterloo region,..,..,..,..,on
5135,Rideau River Park,playground,waterloo region,..,..,..,..,on
5147,Rim Artificial Fields,playground,waterloo region,..,..,..,..,on
5148,Rim Ball 456,playground,waterloo region,..,..,..,..,on
5198,Rock Elm Park,playground,waterloo region,..,..,..,..,on
5221,Roselea Park,rink,waterloo region,..,..,..,..,on
5253,Royal Beech Park,playground,waterloo region,..,..,..,..,on
5254,Royal Fern Park,playground,waterloo region,..,..,..,..,on
5264,Rummelhardt Park,playground,waterloo region,..,..,..,..,on
5309,Salzburg Park,playground,waterloo region,..,..,..,..,on
5325,Sandowne Park,playground,waterloo region,..,..,..,..,on
5925,St. Moritz Park,rink,waterloo region,..,..,..,..,on
5954,Starflower Park,playground,waterloo region,..,..,..,..,on
5971,Still Meadow Park,rink,waterloo region,..,..,..,..,on
5980,Stork Family Ymca Pool,pool,waterloo region,500,fischer-hallman,..,waterloo,on
6010,Sundew Park,playground,waterloo region,..,..,..,..,on
6094,Thorndale Park,playground,waterloo region,..,..,..,..,on
6152,Treetops Community Pool,pool,waterloo region,225,benjamin,..,waterloo,on
6192,University Downs Park,playground,waterloo region,..,..,..,..,on
6193,University Downs Park,rink,waterloo region,..,..,..,..,on
6196,Upper Beechwood Association,pool,waterloo region,530,leighland,..,waterloo,on
6197,Upper Beechwood Rec Centre,pool,waterloo region,490,branstone,..,waterloo,on
6205,Uw - Indoor Swimming Pool,pool,waterloo region,200,university,..,waterloo,on
6251,Vermont Park,rink,waterloo region,..,..,..,..,on
6397,Warrington Park,rink,waterloo region,..,..,..,..,on
6398,Wasaga Park,playground,waterloo region,..,..,..,..,on
6405,Waterloo North Condo Coporation #9,pool,waterloo region,261,old post,..,waterloo,on
6406,Waterloo Park East,playground,waterloo region,..,..,..,..,on
6407,Waterloo Park Lagoon,playground,waterloo region,..,..,..,..,on
6408,Waterloo Park West,playground,waterloo region,..,..,..,..,on
6409,Waterloo Park Zoo,playground,waterloo region,..,..,..,..,on
6410,Waterloo Recreation Complex - Swimming Pool,pool,waterloo region,101,father david bauer,..,waterloo,on
6415,Waterpark Place Pool,pool,waterloo region,4,willow,..,waterloo,on
6445,Werni Park,playground,waterloo region,..,..,..,..,on
6500,Westmount Sports Park,playground,waterloo region,..,..,..,..,on
6514,Westvale Park,playground,waterloo region,..,..,..,..,on
6519,Westwind Park,playground,waterloo region,..,..,..,..,on
6520,Westwind Park,rink,waterloo region,..,..,..,..,on
6533,White Elm Park,playground,waterloo region,..,..,..,..,on
6537,Whitecap Park,playground,waterloo region,..,..,..,..,on
6570,Willow Creek,pool,waterloo region,653,albert,..,waterloo,on
6607,Winterberry Park,playground,waterloo region,..,..,..,..,on
6609,Wintermeyer Park,playground,waterloo region,..,..,..,..,on
6612,Wlu - Athletic Complex Pool,pool,waterloo region,75,university,..,waterloo,on
6646,Woolgrass Park,playground,waterloo region,..,..,..,..,on
11624,Grey Silo Golf Course,sports field,waterloo region,2001,university,..,..,on
