Index,Facility_Name,ODRSF_facility_type,Provider,Street_No,Street_Name,Postal_Code,City,Prov_Terr
78439,..,trail,kitchener,..,willow green,..,..,on
78440,..,trail,kitchener,..,paige,..,..,on
78441,..,trail,kitchener,..,bridge,..,..,on
78442,..,trail,kitchener,..,riverbend,..,..,on
78443,..,trail,kitchener,..,sherwood,..,..,on
78444,..,trail,kitchener,..,smithson,..,..,on
78445,..,trail,kitchener,..,gregg,..,..,on
78446,..,trail,kitchener,..,zeller,..,..,on
78447,..,trail,kitchener,..,gregg,..,..,on
78448,..,trail,kitchener,..,pine valley,..,..,on
78449,..,trail,kitchener,..,pine valley,..,..,on
78450,..,trail,kitchener,..,fairway,..,..,on
78451,..,trail,kitchener,..,old chicopee,..,..,on
78452,..,trail,kitchener,..,zeffer,..,..,on
78453,..,trail,kitchener,..,lynnhaven,..,..,on
78454,..,trail,kitchener,..,fenwick,..,..,on
78455,..,trail,kitchener,..,wycliffe,..,..,on
78456,..,trail,kitchener,..,camrose,..,..,on
78457,..,trail,kitchener,..,huron,..,..,on
78458,..,trail,kitchener,..,huron,..,..,on
78459,..,trail,kitchener,..,huron,..,..,on
78460,..,trail,kitchener,..,huron,..,..,on
78461,..,trail,kitchener,..,wyandotte,..,..,on
78462,..,trail,kitchener,..,oneida,..,..,on
78463,..,trail,kitchener,..,moorlands,..,..,on
78464,..,trail,kitchener,..,moorlands,..,..,on
78465,..,trail,kitchener,..,old chicopee,..,..,on
78466,..,trail,kitchener,..,edenbridge,..,..,on
78467,..,trail,kitchener,..,edenbridge,..,..,on
78468,..,trail,kitchener,..,edenbridge,..,..,on
78469,..,trail,kitchener,..,doon village,..,..,on
78470,..,trail,kitchener,..,edenbridge,..,..,on
78471,..,trail,kitchener,..,waverly,..,..,on
78472,..,trail,kitchener,..,caprice,..,..,on
78473,..,trail,kitchener,..,trailwood,..,..,on
78474,..,trail,kitchener,..,trailwood,..,..,on
78475,..,trail,kitchener,..,doon south,..,..,on
78476,..,trail,kitchener,..,doon south,..,..,on
78477,..,trail,kitchener,..,doon south,..,..,on
78478,..,trail,kitchener,..,doon south,..,..,on
78479,..,trail,kitchener,..,robert ferrie,..,..,on
78480,..,trail,kitchener,..,maple,..,..,on
78481,..,trail,kitchener,..,knox,..,..,on
78482,..,trail,kitchener,..,knox,..,..,on
78483,..,trail,kitchener,..,darlington,..,..,on
78484,..,trail,kitchener,..,darlington,..,..,on
78485,..,trail,kitchener,..,chartwell,..,..,on
78486,..,trail,kitchener,..,chartwell,..,..,on
78487,..,trail,kitchener,..,bound brook,..,..,on
