Index,Facility_Name,ODRSF_facility_type,Provider,Street_No,Street_Name,Postal_Code,City,Prov_Terr
79191,..,trail,kitchener,..,aspen,..,..,on
79192,..,trail,kitchener,..,homestead,..,..,on
79193,..,trail,kitchener,..,autumn hill,..,..,on
79194,..,trail,kitchener,..,arrowhead,..,..,on
79195,..,trail,kitchener,..,vanier,..,..,on
79196,..,trail,kitchener,..,templeton,..,..,on
79197,..,trail,kitchener,..,edenbridge,..,..,on
79198,..,trail,kitchener,..,stoke,..,..,on
79199,..,trail,kitchener,..,rush meadow,..,..,on
79200,..,trail,kitchener,..,rush meadow,..,..,on
79201,..,trail,kitchener,..,rush meadow,..,..,on
79202,..,trail,kitchener,..,westmount,..,..,on
79203,..,trail,kitchener,..,pioneer tower rd,..,..,on
79204,..,trail,kitchener,..,king,..,..,on
79205,..,trail,kitchener,..,oldfield,..,..,on
79206,..,trail,kitchener,..,victoria,..,..,on
79207,..,trail,kitchener,..,king,..,..,on
79208,..,trail,kitchener,..,king,..,..,on
79209,..,trail,kitchener,..,..,..,..,on
79210,..,trail,kitchener,..,wilson,..,..,on
79211,..,trail,kitchener,..,wilson,..,..,on
79212,..,trail,kitchener,..,otterbein,..,..,on
79213,..,trail,kitchener,..,jadestone,..,..,on
79214,..,trail,kitchener,..,stoke,..,..,on
79215,..,trail,kitchener,..,stoke,..,..,on
79216,..,trail,kitchener,..,tremaine,..,..,on
79217,..,trail,kitchener,..,trillium,..,..,on
79218,..,trail,kitchener,..,queen,..,..,on
79219,..,trail,kitchener,..,otto,..,..,on
79220,..,trail,kitchener,..,queen,..,..,on
79221,..,trail,kitchener,..,otto,..,..,on
79222,..,trail,kitchener,..,otto,..,..,on
79223,..,trail,kitchener,..,folkstone,..,..,on
79224,..,trail,kitchener,..,roland,..,..,on
79225,..,trail,kitchener,..,activa,..,..,on
79226,..,trail,kitchener,..,activa,..,..,on
79227,..,trail,kitchener,..,hawkswood,..,..,on
79228,..,trail,kitchener,..,mccabe,..,..,on
79229,..,trail,kitchener,..,folkstone,..,..,on
79230,..,trail,kitchener,..,yarwood,..,..,on
79231,..,trail,kitchener,..,stoke,..,..,on
79232,..,trail,kitchener,..,activa,..,..,on
79233,..,trail,kitchener,..,activa,..,..,on
79234,..,trail,kitchener,..,activa,..,..,on
79235,..,trail,kitchener,..,activa,..,..,on
79236,..,trail,kitchener,..,activa,..,..,on
79237,..,trail,kitchener,..,activa,..,..,on
79238,..,trail,kitchener,..,activa,..,..,on
79239,..,trail,kitchener,..,activa,..,..,on
