Index,Facility_Name,ODRSF_facility_type,Provider,Street_No,Street_Name,Postal_Code,City,Prov_Terr
22113,Blue Beech Park,trail,waterloo region,..,..,..,..,on
22114,Blue Beech Park,trail,waterloo region,..,..,..,..,on
22115,Blue Beech Square,trail,waterloo region,..,..,..,..,on
22116,Blue Beech Square,trail,waterloo region,..,..,..,..,on
22117,Blue Beech Square,trail,waterloo region,..,..,..,..,on
22118,Blue Beech Square,trail,waterloo region,..,..,..,..,on
22137,Bluenose Link,trail,waterloo region,..,..,..,..,on
22138,Bluenose Link,trail,waterloo region,..,..,..,..,on
22139,Bluenose Link,trail,waterloo region,..,..,..,..,on
22140,Bluenose Park,trail,waterloo region,..,..,..,..,on
22141,Bluestream Park,trail,waterloo region,..,..,..,..,on
22142,Bluestream Park,trail,waterloo region,..,..,..,..,on
22143,Bluestream Park To Hunterswood Crt,trail,waterloo region,..,..,..,..,on
22144,Bluevale Link To Bluevale St N,trail,waterloo region,..,..,..,..,on
22162,Blythwood Rd To Winston Churchill Public School,trail,waterloo region,..,..,..,..,on
22295,Bolingbrooke Park,trail,waterloo region,..,..,..,..,on
22296,Bolingbrooke Park,trail,waterloo region,..,..,..,..,on
22297,Bolingbrooke Park,trail,waterloo region,..,..,..,..,on
22298,Bolingbrooke Park,trail,waterloo region,..,..,..,..,on
22299,Bolingbrooke Park,trail,waterloo region,..,..,..,..,on
22300,Bolingbrooke Park,trail,waterloo region,..,..,..,..,on
22301,Bolingbrooke Park,trail,waterloo region,..,..,..,..,on
22302,Bolingbrooke Park,trail,waterloo region,..,..,..,..,on
22303,Bolingbrooke Park,trail,waterloo region,..,..,..,..,on
22304,Bolingbrooke Park,trail,waterloo region,..,..,..,..,on
22305,Bolingbrooke Park To Westvale Dr,trail,waterloo region,..,..,..,..,on
22306,Bomberger Woodlot,trail,waterloo region,..,..,..,..,on
22307,Bomberger Woodlot,trail,waterloo region,..,..,..,..,on
22308,Bomberger Woodlot,trail,kitchener,..,..,..,waterloo,on
22309,Bomberger Woodlot,trail,kitchener,..,..,..,waterloo,on
22310,Bomberger Woodlot,trail,kitchener,..,..,..,waterloo,on
22311,Bomberger Woodlot,trail,kitchener,..,..,..,waterloo,on
22312,Bonavista Dr To University Ave E,trail,waterloo region,..,..,..,..,on
22317,Bonn Park # 1,trail,waterloo region,..,..,..,..,on
22331,Bordeaux Park,trail,waterloo region,..,..,..,..,on
22498,Brandenburg Crt To Clair Woods,trail,waterloo region,..,..,..,..,on
22499,Brandenburg Crt To Keatsway Corridor,trail,waterloo region,..,..,..,..,on
22515,Breithaupt Park,trail,kitchener,..,..,..,kitchener,on
22519,Breithaupt Park,trail,kitchener,..,..,..,kitchener,on
22535,Breithaupt Park,trail,kitchener,..,..,..,kitchener,on
22542,Brentcliffe Dr To Pineland Pl,trail,waterloo region,..,..,..,..,on
22543,Brentcliffe Hydro Corridor,trail,waterloo region,..,..,..,..,on
22544,Brentcliffe Hydro Corridor,trail,waterloo region,..,..,..,..,on
22545,Brentcliffe Hydro Corridor,trail,waterloo region,..,..,..,..,on
22693,Bridge St W,trail,waterloo region,..,..,..,..,on
22694,Bridge St W,trail,waterloo region,..,..,..,..,on
22695,Bridge St W,trail,waterloo region,..,..,..,..,on
22696,Bridge St W,trail,waterloo region,..,..,..,..,on
22697,Bridge St W,trail,waterloo region,..,..,..,..,on
