Index,Facility_Name,ODRSF_facility_type,Provider,Street_No,Street_Name,Postal_Code,City,Prov_Terr
1272,Culpepper Park,playground,waterloo region,..,..,..,..,on
1273,Culpepper Park,rink,waterloo region,..,..,..,..,on
1316,Deer Run Park,playground,waterloo region,..,..,..,..,on
1327,Delta Hotel Pool,pool,waterloo region,110,erb,..,waterloo,on
1443,Dunvegan Park,playground,waterloo region,..,..,..,..,on
1444,Dunvegan Park,rink,waterloo region,..,..,..,..,on
1490,Eastbridge Green,playground,waterloo region,..,..,..,..,on
1491,Eastbridge Green,rink,waterloo region,..,..,..,..,on
1530,Eiwo Canadian Pool,pool,waterloo region,512,albert,..,waterloo,on
1607,Exmoor Park,playground,waterloo region,..,..,..,..,on
1744,Forwell Creek Park,playground,waterloo region,..,..,..,..,on
1745,Forwell Park,rink,waterloo region,..,..,..,..,on
1866,Glasgow Heights 1,pool,waterloo region,400,belgreen,..,waterloo,on
1871,Glen Acres Park,playground,waterloo region,..,..,..,..,on
1890,Glen Royal Pool,pool,waterloo region,250,glenridge,..,waterloo,on
1928,Goldthread Park,playground,waterloo region,..,..,..,..,on
1983,Green Acre Park Pool,pool,waterloo region,580,beaver creek,..,waterloo,on
2044,Haida Park,playground,waterloo region,..,..,..,..,on
2045,Haida Park,rink,waterloo region,..,..,..,..,on
2103,Heasley Park,playground,waterloo region,..,..,..,..,on
2355,Inn Of Waterloo Pool,pool,waterloo region,475,king,..,waterloo,on
2357,Interlaken Park,playground,waterloo region,..,..,..,..,on
2397,Jacob Green,playground,waterloo region,..,..,..,..,on
2452,Joesph J. Voisin,rink,waterloo region,..,..,..,..,on
2555,Kids Ability,pool,waterloo region,500,hallmark,..,waterloo,on
2583,Kingscourt Park,playground,waterloo region,..,..,..,..,on
2629,Kiwanis Park Pool,pool,waterloo region,1000,kiwanis park,..,kitchener,on
2630,Kiwanis Park Spray Pad,splash pad,waterloo region,1000,kiwanis park,..,kitchener,on
2634,Klosters Park,playground,waterloo region,..,..,..,..,on
2678,Lakeshore Optimist Park,playground,waterloo region,..,..,..,..,on
2725,Laurelwood Park,playground,waterloo region,..,..,..,..,on
2726,Laurelwood Park,rink,waterloo region,..,..,..,..,on
2732,Lausanne Park,playground,waterloo region,..,..,..,..,on
2785,Lincoln Towers Pool-Park Property Management,pool,waterloo region,130,lincoln,..,waterloo,on
2799,Lion's Lagoon Splash Pad,splash pad,waterloo region,..,..,..,..,on
2803,Lions Spray Pad,splash pad,waterloo region,50,young,..,waterloo,on
2952,Lucerne Park,playground,waterloo region,..,..,..,..,on
2956,Lutherwood Institute Pool,pool,waterloo region,285,benjamin,..,waterloo,on
3210,Mary Allen Park,playground,waterloo region,..,..,..,..,on
3211,Mary Allen Park,rink,waterloo region,..,..,..,..,on
3233,Maverick Park,playground,waterloo region,..,..,..,..,on
3256,Mccrae Park,rink,waterloo region,..,..,..,..,on
3442,Moses Springer Outdoor Pool,pool,waterloo region,150,lincoln,..,waterloo,on
3443,Moses Springer Park,playground,waterloo region,..,..,..,..,on
3465,Mountain Maple Park,playground,waterloo region,..,..,..,..,on
3471,"Movati Athletic - Women's Only Pool,The",pool,waterloo region,405,the-boardwalk,..,waterloo,on
3661,Old Oak Park,playground,waterloo region,..,..,..,..,on
3663,Old Post Park,playground,waterloo region,..,..,..,..,on
4468,Parkwood Health Wellness Centres Therapy Pool,pool,waterloo region,720,new hampshire,..,waterloo,on
