Index,Facility_Name,ODRSF_facility_type,Provider,Street_No,Street_Name,Postal_Code,City,Prov_Terr
9934,Cloverdale Park Soccer Field,sports field,kitchener,45,birchcliff,..,..,on
10122,Conestoga College Soccer Field,sports field,kitchener,299,doon valley,..,..,on
10123,Conestoga College Sportsfield Ball Diamond,sports field,kitchener,299,doon valley,..,..,on
10217,Country Hills C.C. Basketball Court,sports field,kitchener,100,rittenhouse,..,..,on
10218,Country Hills Park Ball Diamond,sports field,kitchener,365,hill,..,..,on
10219,Country Hills Park Soccer Field,sports field,kitchener,365,hill,..,..,on
10220,Country Hills Park Tennis Court,sports field,kitchener,365,hill,..,..,on
10221,Country Hills Public School Ball Diamond,sports field,kitchener,195,hill,..,..,on
10222,Country Hills Public School Soccer Field,sports field,kitchener,195,hill,..,..,on
10226,Countryside Park Soccer Field-1,sports field,kitchener,175,countryside,..,..,on
10227,Countryside Park Soccer Field-2,sports field,kitchener,175,countryside,..,..,on
10228,Countrystone Park Basketball Court,sports field,kitchener,1086,countrystone,..,..,on
10234,Courtland Avenue Public School Soccer Field,sports field,kitchener,107,courtland,..,..,on
10300,Crestview Public School Basketball Court,sports field,kitchener,415,caryndale,..,..,on
10301,Crestview Public School Soccer Field-1,sports field,kitchener,153,montcalm,..,..,on
10302,Crestview Public School Soccer Field-2,sports field,kitchener,153,montcalm,..,..,on
10336,Crosby Park Ball Diamond 1,sports field,kitchener,60,crosby,..,..,on
10337,Crosby Park Ball Diamond 2,sports field,kitchener,60,crosby,..,..,on
10422,Deer Ridge Golf Course,sports field,kitchener,300,pioneer tower rd,..,kitchener,on
10514,Dom Cardillo Trail Horseshoe Pitches,sports field,kitchener,31,conway,..,..,on
10537,Doon Pioneer Park C.C. Basketball Court,sports field,kitchener,150,pioneer,..,..,on
10538,Doon Public School Ball Diamond,sports field,kitchener,1401,doon village,..,..,on
10539,Doon School Soccer Field-1,sports field,kitchener,1401,doon village,..,..,on
10540,Doon School Soccer Field-2,sports field,kitchener,1401,doon village,..,..,on
10541,Doon School Soccer Field-3,sports field,kitchener,1401,doon village,..,..,on
10542,Doon School Soccer Field-4,sports field,kitchener,1401,doon village,..,..,on
10543,Doon Skatium Mobile Skateboard Park,sports field,kitchener,150,pioneer,..,..,on
10545,Doon Valley Golf Course,sports field,kitchener,500,doon valley,..,kitchener,on
10591,Driftwood Park Public School Ball Diamond 1,sports field,kitchener,50,parkland,..,..,on
10592,Driftwood Park Public School Ball Diamond 2,sports field,kitchener,50,parkland,..,..,on
10593,Driftwood Park Public School Soccer Field-1,sports field,kitchener,50,parkland,..,..,on
10594,Driftwood Park Public School Soccer Field-2,sports field,kitchener,50,parkland,..,..,on
10710,Eastforest Park Ball Diamond 1,sports field,kitchener,140,eastforest,..,..,on
10711,Eastforest Park Ball Diamond 2,sports field,kitchener,140,eastforest,..,..,on
10722,Eastwood C.I. Soccer Field,sports field,kitchener,760,weber,..,..,on
10723,Eastwood C.I. Track And Field,sports field,kitchener,760,weber,..,..,on
10724,Eby Park Soccer Field,sports field,kitchener,137,holborn,..,..,on
10725,Eby Park Tennis Court,sports field,kitchener,137,holborn,..,..,on
10734,Ecole Cardinal Leger Ball Diamond,sports field,kitchener,345,country,..,..,on
10735,Ecole Cardinal Leger Soccer Field,sports field,kitchener,345,country,..,..,on
10756,Eden Oak Park Basketball Court,sports field,kitchener,125,eden oak tr,..,..,on
10757,Eden Oak Park Tennis Court,sports field,kitchener,125,eden oak tr,..,..,on
10845,Elmsdale Park - Scrub Diamond,sports field,kitchener,83,elmsdale,..,..,on
10846,Elmsdale Park Multi-Purpose Pad,sports field,kitchener,83,elmsdale,..,..,on
10871,Erinbrook Park Soccer Field,sports field,kitchener,664,erinbrook,..,..,on
11020,Filsinger Park West Soccer Field,sports field,kitchener,805,victoria,..,..,on
11024,Fischer Park Lower Soccer Field,sports field,kitchener,247,hallman,..,..,on
11025,Fischer Park Skateboard Park,sports field,kitchener,247,hallman,..,..,on
11026,Fischer Park Upper Soccer Field,sports field,kitchener,247,hallman,..,..,on
