Index,Facility_Name,ODRSF_facility_type,Provider,Street_No,Street_Name,Postal_Code,City,Prov_Terr
44285,Monarch Woods Park,trail,kitchener,..,..,..,kitchener,on
44286,Monarch Woods Park,trail,kitchener,..,..,..,kitchener,on
48203,None,trail,kitchener,..,strasburg,..,..,on
48204,None,trail,kitchener,..,strasburg,..,..,on
48205,None,trail,kitchener,..,strasburg,..,..,on
48206,None,trail,kitchener,..,strasburg,..,..,on
48207,None,trail,kitchener,..,strasburg,..,..,on
48208,None,trail,kitchener,..,strasburg,..,..,on
48209,None,trail,kitchener,..,strasburg,..,..,on
48210,None,trail,kitchener,..,strasburg,..,..,on
48211,None,trail,kitchener,..,strasburg,..,..,on
48212,None,trail,kitchener,..,strasburg,..,..,on
48213,None,trail,kitchener,..,bridge,..,..,on
48214,None,trail,kitchener,..,mill,..,..,on
48215,None,trail,kitchener,..,bradley,..,..,on
48216,None,trail,kitchener,..,traynor,..,..,on
48217,None,trail,kitchener,..,traynor,..,..,on
48218,None,trail,kitchener,..,river ridge,..,..,on
48865,Ottawa St S To Grenville Ave,trail,kitchener,..,ottawa,..,kitchener,on
49765,Peter Hallman Ballyard,trail,kitchener,..,..,..,kitchener,on
49766,Peter Hallman Ballyard,trail,kitchener,..,..,..,kitchener,on
49767,Peter Hallman Ballyard,trail,kitchener,..,..,..,kitchener,on
49768,Peter Hallman Ballyard,trail,kitchener,..,..,..,kitchener,on
49769,Peter Hallman Ballyard,trail,kitchener,..,..,..,kitchener,on
49770,Peter Hallman Ballyard,trail,kitchener,..,..,..,kitchener,on
49771,Peter Hallman Ballyard,trail,kitchener,..,..,..,kitchener,on
49772,Peter Hallman Ballyard,trail,kitchener,..,..,..,kitchener,on
49773,Peter Hallman Ballyard,trail,kitchener,..,..,..,kitchener,on
49774,Peter Hallman Ballyard,trail,kitchener,..,..,..,kitchener,on
49775,Peter Hallman Ballyard,trail,kitchener,..,..,..,kitchener,on
49776,Peter Hallman Ballyard,trail,kitchener,..,..,..,kitchener,on
49777,Peter Hallman Ballyard,trail,kitchener,..,..,..,kitchener,on
49778,Peter Hallman Ballyard,trail,kitchener,..,..,..,kitchener,on
49779,Peter Hallman Ballyard,trail,kitchener,..,..,..,kitchener,on
49925,Plantation Trail,trail,kitchener,..,..,..,kitchener,on
49926,Plantation Trail,trail,kitchener,..,..,..,kitchener,on
49927,Plantation Trail,trail,kitchener,..,..,..,kitchener,on
49928,Plantation Trail,trail,kitchener,..,..,..,kitchener,on
49929,Plantation Trail,trail,kitchener,..,..,..,kitchener,on
51352,Rosenberg Park,trail,kitchener,..,..,..,kitchener,on
51353,Roseneath Cres To Laurentian Dr Connection,trail,kitchener,..,..,..,kitchener,on
51354,Roseneath Cres To Laurentian Dr Connection,trail,kitchener,..,..,..,kitchener,on
51831,Sandhills Park,trail,kitchener,..,..,..,kitchener,on
51832,Sandhills Park,trail,kitchener,..,..,..,kitchener,on
52134,Settlers Grove Park,trail,kitchener,..,..,..,kitchener,on
52135,Settlers Grove Park,trail,kitchener,..,..,..,kitchener,on
52136,Settlers Grove Park,trail,kitchener,..,..,..,kitchener,on
52137,Settlers Grove Park,trail,kitchener,..,..,..,kitchener,on
52138,Settlers Grove Park,trail,kitchener,..,..,..,kitchener,on
