Index,Facility_Name,ODRSF_facility_type,Provider,Street_No,Street_Name,Postal_Code,City,Prov_Terr
80398,..,trail,kitchener,..,fairway,..,..,on
80399,..,trail,kitchener,..,corfield,..,..,on
80400,..,trail,kitchener,..,idle creek,..,..,on
80401,..,trail,kitchener,..,falling green,..,..,on
80402,..,trail,kitchener,..,falling green,..,..,on
80403,..,trail,kitchener,..,thorncliffe,..,..,on
80404,..,trail,kitchener,..,driftwood,..,..,on
80405,..,trail,kitchener,..,homestead,..,..,on
80406,..,trail,kitchener,..,homestead,..,..,on
80407,..,trail,kitchener,..,driftwood,..,..,on
80408,..,trail,kitchener,..,driftwood,..,..,on
80409,..,trail,kitchener,..,woods,..,..,on
80410,..,trail,kitchener,..,broken oak,..,..,on
80411,..,trail,kitchener,..,timberlane,..,..,on
80412,..,trail,kitchener,..,timberlane,..,..,on
80413,..,trail,kitchener,..,doon south,..,..,on
80414,..,trail,kitchener,..,paige,..,..,on
80415,..,trail,kitchener,..,paige,..,..,on
80416,..,trail,kitchener,..,paige,..,..,on
80417,..,trail,kitchener,..,devon,..,..,on
80418,..,trail,kitchener,..,jubilee,..,..,on
80419,..,trail,kitchener,..,..,..,..,on
80420,..,trail,kitchener,..,windrush trail,..,..,on
80421,..,trail,kitchener,..,pine valley,..,..,on
80422,..,trail,kitchener,..,barwood,..,..,on
80423,..,trail,kitchener,..,roseneath,..,..,on
80424,..,trail,kitchener,..,avalon,..,..,on
80425,..,trail,kitchener,..,greenbrook,..,..,on
80426,..,trail,kitchener,..,wilhelm,..,..,on
80427,..,trail,kitchener,..,..,..,..,on
80428,..,trail,kitchener,..,valewood,..,..,on
80429,..,trail,kitchener,..,underhill,..,..,on
80430,..,trail,kitchener,..,jubilee,..,..,on
80431,..,trail,kitchener,..,jubilee,..,..,on
80432,..,trail,kitchener,..,wilson,..,..,on
80433,..,trail,kitchener,..,pinnacle,..,..,on
80434,..,trail,kitchener,..,homer watson,..,..,on
80435,..,trail,kitchener,..,windflower,..,..,on
80436,..,trail,kitchener,..,prosperity,..,..,on
80437,..,trail,kitchener,..,activa,..,..,on
80438,..,trail,kitchener,..,activa,..,..,on
80439,..,trail,kitchener,..,activa,..,..,on
80440,..,trail,kitchener,..,activa,..,..,on
80441,..,trail,kitchener,..,activa,..,..,on
80442,..,trail,kitchener,..,activa,..,..,on
80443,..,trail,kitchener,..,david bergey,..,..,on
80444,..,trail,kitchener,..,grand river,..,..,on
80445,..,trail,kitchener,..,oneida,..,..,on
80446,..,trail,kitchener,..,..,..,..,on
