Index,Facility_Name,ODRSF_facility_type,Provider,Street_No,Street_Name,Postal_Code,City,Prov_Terr
1159,Concordia Farm Campground Pool,pool,waterloo region,1212,christner,..,wilmot,on
1212,Country Gardens Pool,pool,waterloo region,1335,witmer,..,wilmot,on
1752,Foxboro Recreation Centre - Pool,pool,waterloo region,95,foxboro,..,wilmot,on
2204,Holiday Beach Pool,pool,waterloo region,1652,puddicombe,..,wilmot,on
2698,Landings Campground Pool,pool,waterloo region,1073,witmer,..,wilmot,on
3432,Morningside Retirement Village Pool,pool,waterloo region,37,morningside,..,new hamburg,on
3548,Nith River Campground Pool,pool,waterloo region,4417,wilmot-easthope,..,wilmot,on
5973,Stonecroft Recreation Centre,pool,waterloo region,156,stonecroft,..,new hamburg,on
30722,Jacob St,trail,kitchener,..,..,..,wilmot,on
49812,Petersburg,trail,kitchener,..,..,..,wilmot,on
49813,Petersburg,trail,kitchener,..,..,..,wilmot,on
49814,Petersburg,trail,kitchener,..,..,..,wilmot,on
49815,Petersburg,trail,kitchener,..,..,..,wilmot,on
49816,Petersburg,trail,kitchener,..,..,..,wilmot,on
49817,Petersburg,trail,kitchener,..,..,..,wilmot,on
49818,Petersburg,trail,kitchener,..,..,..,wilmot,on
49819,Petersburg,trail,kitchener,..,..,..,wilmot,on
49820,Petersburg,trail,kitchener,..,..,..,wilmot,on
49821,Petersburg,trail,kitchener,..,..,..,wilmot,on
49822,Petersburg,trail,kitchener,..,..,..,wilmot,on
49823,Petersburg,trail,kitchener,..,..,..,wilmot,on
49824,Petersburg,trail,kitchener,..,..,..,wilmot,on
49825,Petersburg,trail,kitchener,..,..,..,wilmot,on
49826,Petersburg,trail,kitchener,..,..,..,wilmot,on
49827,Petersburg,trail,kitchener,..,..,..,wilmot,on
49828,Petersburg,trail,kitchener,..,..,..,wilmot,on
49829,Petersburg,trail,kitchener,..,..,..,wilmot,on
49830,Petersburg,trail,kitchener,..,..,..,wilmot,on
49831,Petersburg,trail,kitchener,..,..,..,wilmot,on
49832,Petersburg,trail,kitchener,..,..,..,wilmot,on
54360,Stonecroft,trail,kitchener,..,..,..,wilmot,on
54361,Stonecroft,trail,kitchener,..,..,..,wilmot,on
55290,Townline,trail,kitchener,..,..,..,wilmot,on
62697,Trans-Canada Trail/Avon Trail,trail,kitchener,..,nafziger,..,wilmot,on
62698,Trans-Canada Trail/Avon Trail,trail,kitchener,..,..,..,wilmot,on
62699,Trans-Canada Trail/Avon Trail,trail,kitchener,..,..,..,wilmot,on
62700,Trans-Canada Trail/Avon Trail,trail,kitchener,..,..,..,wilmot,on
62701,Trans-Canada Trail/Avon Trail,trail,kitchener,..,..,..,wilmot,on
62702,Trans-Canada Trail/Avon Trail,trail,kitchener,..,..,..,wilmot,on
62703,Trans-Canada Trail/Avon Trail,trail,kitchener,..,..,..,wilmot,on
62704,Trans-Canada Trail/Avon Trail,trail,kitchener,..,..,..,wilmot,on
62705,Trans-Canada Trail/Avon Trail,trail,kitchener,..,notre dame,..,wellesley,on
62706,Trans-Canada Trail/Avon Trail,trail,kitchener,..,notre dame,..,wellesley,on
62707,Trans-Canada Trail/Avon Trail,trail,kitchener,..,..,..,wilmot,on
62709,Trans-Canada Trail/Avon Trail,trail,kitchener,..,..,..,wilmot,on
62711,Trans-Canada Trail/Avon Trail,trail,kitchener,..,..,..,wilmot,on
62712,Trans-Canada Trail/Avon Trail,trail,kitchener,..,..,..,wilmot,on
62720,Trans-Canada Trail/Avon Trail,trail,kitchener,..,notre dame,..,wilmot,on
62721,Trans-Canada Trail/Avon Trail,trail,kitchener,..,notre dame,..,wellesley,on
