Index,Facility_Name,ODRSF_facility_type,Provider,Street_No,Street_Name,Postal_Code,City,Prov_Terr
81099,..,trail,kitchener,..,victoria,..,..,on
81100,..,trail,kitchener,..,homer watson,..,..,on
81101,..,trail,kitchener,..,homer watson,..,..,on
81102,..,trail,kitchener,..,fischer hallman,..,..,on
81103,..,trail,kitchener,..,union,..,..,on
81104,..,trail,kitchener,..,ira needles,..,..,on
81105,..,trail,kitchener,..,ira needles,..,..,on
81106,..,trail,kitchener,..,david bergey,..,..,on
81107,..,trail,kitchener,..,shady glen,..,..,on
81108,..,trail,kitchener,..,belmont,..,..,on
81109,..,trail,kitchener,..,fischer hallman,..,..,on
81110,..,trail,kitchener,..,westmeadow,..,..,on
81111,..,trail,kitchener,..,westforest,..,..,on
81112,..,trail,kitchener,..,victoria,..,..,on
81113,..,trail,kitchener,..,fischer hallman,..,..,on
81114,..,trail,kitchener,..,silver aspen,..,..,on
81115,..,trail,kitchener,..,brookside,..,..,on
81116,..,trail,kitchener,..,silver aspen,..,..,on
81117,..,trail,kitchener,..,brookside,..,..,on
81118,..,trail,kitchener,..,cricket hollow,..,..,on
81119,..,trail,kitchener,..,blue spruce,..,..,on
81120,..,trail,kitchener,..,royal orchard,..,..,on
81121,..,trail,kitchener,..,fallowfield,..,..,on
81122,..,trail,kitchener,..,fallowfield,..,..,on
81123,..,trail,kitchener,..,belmont,..,..,on
81124,..,trail,kitchener,..,moyer,..,..,on
81125,..,trail,kitchener,..,prince,..,..,on
81126,..,trail,kitchener,..,courtland,..,..,on
81127,..,trail,kitchener,..,amand,..,..,on
81128,..,trail,kitchener,..,amand,..,..,on
81129,..,trail,kitchener,..,ira needles,..,..,on
81130,..,trail,kitchener,..,courtland,..,..,on
81131,..,trail,kitchener,..,greenbrook,..,..,on
81132,..,trail,kitchener,..,bankside,..,..,on
81133,..,trail,kitchener,..,westmeadow,..,..,on
81134,..,trail,kitchener,..,fairway,..,..,on
81135,..,trail,kitchener,..,woolner trail,..,..,on
81136,..,trail,kitchener,..,fairway,..,..,on
81137,..,trail,kitchener,..,fairway,..,..,on
81138,..,trail,kitchener,..,fairway,..,..,on
81139,..,trail,kitchener,..,zeller,..,..,on
81140,..,trail,kitchener,..,zeller,..,..,on
81141,..,trail,kitchener,..,zeller,..,..,on
81142,..,trail,kitchener,..,fairway,..,..,on
81143,..,trail,kitchener,..,fairway,..,..,on
81144,..,trail,kitchener,..,ira needles,..,..,on
81145,..,trail,kitchener,..,ira needles,..,..,on
81146,..,trail,kitchener,..,victoria,..,..,on
81147,..,trail,kitchener,..,graber,..,..,on
