Index,Facility_Name,ODRSF_facility_type,Provider,Street_No,Street_Name,Postal_Code,City,Prov_Terr
81349,..,trail,kitchener,..,windale,..,..,on
81350,..,trail,kitchener,..,belmont,..,..,on
81351,..,trail,kitchener,..,river,..,..,on
81352,..,trail,kitchener,..,master,..,..,on
81353,..,trail,kitchener,..,briarmeadow,..,..,on
81354,..,trail,kitchener,..,lackner,..,..,on
81355,..,trail,kitchener,..,michener,..,..,on
81356,..,trail,kitchener,..,rolling meadows,..,..,on
81357,..,trail,kitchener,..,old forest,..,..,on
81358,..,trail,kitchener,..,old forest,..,..,on
81359,..,trail,kitchener,..,queens,..,..,on
81360,..,trail,kitchener,..,victoria,..,..,on
81361,..,trail,kitchener,..,daytona,..,..,on
81362,..,trail,kitchener,..,huck,..,..,on
81363,..,trail,kitchener,..,robert ferrie,..,..,on
81364,..,trail,kitchener,..,..,..,..,on
81365,..,trail,kitchener,..,joseph schoerg,..,..,on
81366,..,trail,kitchener,..,northforest trail,..,..,on
81367,..,trail,kitchener,..,shirley,..,..,on
81368,..,trail,kitchener,..,victoria,..,..,on
81369,..,trail,kitchener,..,shirley,..,..,on
81370,..,trail,kitchener,..,fischer hallman,..,..,on
81371,..,trail,kitchener,..,laurentian,..,..,on
81372,..,trail,kitchener,..,dunsmere,..,..,on
81373,..,trail,kitchener,..,julia,..,..,on
81374,..,trail,kitchener,..,rothsay,..,..,on
81375,..,trail,kitchener,..,victoria,..,..,on
81376,..,trail,kitchener,..,daytona,..,..,on
81377,..,trail,kitchener,..,harvest,..,..,on
81378,..,trail,kitchener,..,riverstone,..,..,on
81379,..,trail,kitchener,..,terrace wood,..,..,on
81380,..,trail,kitchener,..,st jerome,..,..,on
81381,..,trail,kitchener,..,dunsmere,..,..,on
81382,..,trail,kitchener,..,vanier,..,..,on
81383,..,trail,kitchener,..,westmount,..,..,on
81384,..,trail,kitchener,..,westmount,..,..,on
81385,..,trail,kitchener,..,homer watson onramp,..,..,on
81386,..,trail,kitchener,..,homer watson offramp,..,..,on
81387,..,trail,kitchener,..,homer watson onramp,..,..,on
81388,..,trail,kitchener,..,homer watson onramp,..,..,on
81389,..,trail,kitchener,..,homer watson offramp,..,..,on
81390,..,trail,kitchener,..,cayuga,..,..,on
81391,..,trail,kitchener,..,cayuga,..,..,on
81392,..,trail,kitchener,..,falling green,..,..,on
81393,..,trail,kitchener,..,huron,..,..,on
81394,..,trail,kitchener,..,whisperwood,..,..,on
81395,..,trail,kitchener,..,doon village,..,..,on
81396,..,trail,kitchener,..,southmoor,..,..,on
81397,..,trail,kitchener,..,howe,..,..,on
