Index,Facility_Name,ODRSF_facility_type,Provider,Street_No,Street_Name,Postal_Code,City,Prov_Terr
17752,Timberlane Park Multi-Purpose Pad,sports field,kitchener,38,timberlane,..,..,on
17847,Trailview Park Ball Diamond,sports field,kitchener,21,trailview,..,..,on
17857,Tremaine Park Basketball Court,sports field,kitchener,100,tremaine,..,..,on
17872,Trillium Public School Ball Diamond 1,sports field,kitchener,79,laurentian,..,..,on
17873,Trillium Public School Ball Diamond 2,sports field,kitchener,79,laurentian,..,..,on
17874,Trillium Public School Soccer/Football Field,sports field,kitchener,79,laurentian,..,..,on
17935,Unifor (Caw) Ball Diamond 1,sports field,kitchener,600,wabanaki,..,..,on
17936,Unifor (Caw) Ball Diamond 2,sports field,kitchener,600,wabanaki,..,..,on
17937,Unifor Local 1524 Tennis Court,sports field,kitchener,600,wabanaki,..,..,on
17956,Upper Canada Park Ball Diamond 1,sports field,kitchener,120,pioneer,..,..,on
17957,Upper Canada Park Ball Diamond 2,sports field,kitchener,120,pioneer,..,..,on
17958,Upper Canada Park Ball Diamond 3,sports field,kitchener,120,pioneer,..,..,on
17959,Upper Canada Park Ball Diamond 4,sports field,kitchener,120,pioneer,..,..,on
17960,Upper Canada Park Ball Diamond 5,sports field,kitchener,120,pioneer,..,..,on
17961,Upper Canada Park Basketball Court,sports field,kitchener,120,pioneer,..,..,on
17986,Vanier Park Basketball Court,sports field,kitchener,329,vanier,..,..,on
17987,Vanier Park Multi-Purpose Pad,sports field,kitchener,329,vanier,..,..,on
18055,Voision Park Diamond,sports field,kitchener,225,activa,..,..,on
18125,W.T. Townshend Public School Soccer Field,sports field,kitchener,245,activa,..,..,on
18193,Weber Park Ball Diamond,sports field,kitchener,380,frederick,..,..,on
18194,Weber Park Basketball Court,sports field,kitchener,380,frederick,..,..,on
18195,Weber Park Tennis Court,sports field,kitchener,380,frederick,..,..,on
18274,Westheights Park Ball Diamond,sports field,kitchener,401,westheights,..,..,on
18275,Westheights Park Soccer Field,sports field,kitchener,401,westheights,..,..,on
18276,Westheights Public School Soccer Field,sports field,kitchener,429,westheights,..,..,on
18291,Westmount Golf And Country Club,sports field,kitchener,50,inverness,..,kitchener,on
18321,Westwood Park Ball Diamond,sports field,kitchener,..,westwood,..,..,on
18322,Westwood Park Soccer Field,sports field,kitchener,155,westwood,..,..,on
18413,Willowlake Park Ball Diamond,sports field,kitchener,..,old mill,..,..,on
18429,Wilson Avenue School Ball Diamond,sports field,kitchener,221,wilson,..,..,on
18430,Wilson Avenue School Soccer Field 1,sports field,kitchener,221,wilson,..,..,on
18431,Wilson Avenue School Soccer Field 2,sports field,kitchener,221,wilson,..,..,on
18434,Wilson Park 1/2 Basketball Court,sports field,kitchener,75,wilson,..,..,on
18435,Wilson Park Ball Diamond 1,sports field,kitchener,72,wilson,..,..,on
18436,Wilson Park Ball Diamond 2,sports field,kitchener,72,wilson,..,..,on
18437,Wilson Park Ball Diamond 3,sports field,kitchener,72,wilson,..,..,on
18438,Wilson Park Ball Diamond 4,sports field,kitchener,72,wilson,..,..,on
18439,Wilson Park Soccer Field,sports field,kitchener,72,wilson,..,..,on
18441,Windale Park Basketball Court,sports field,kitchener,76,windale,..,..,on
18548,Woodside Park Soccer Field-1,sports field,kitchener,49,woodside,..,..,on
18549,Woodside Park Soccer Field-2,sports field,kitchener,49,woodside,..,..,on
18570,Yellow Birch Park Basketball Court,sports field,kitchener,135,yellow birch,..,..,on
18600,Zeller Park Ball Diamond,sports field,kitchener,245,zeller,..,..,on
21448,Bechtel Park Reserve,trail,waterloo region,..,..,..,..,on
21449,Bechtel Park Reserve,trail,waterloo region,..,..,..,..,on
21450,Bechtel Park Reserve,trail,waterloo region,..,..,..,..,on
21458,Bechtel Park Reserve,trail,waterloo region,..,..,..,..,on
21858,Betchel Park Reserve,trail,kitchener,..,..,..,kitchener,on
21859,Betchel Park Reserve,trail,kitchener,..,..,..,kitchener,on
