Index,Facility_Name,ODRSF_facility_type,Provider,Street_No,Street_Name,Postal_Code,City,Prov_Terr
67466,Westfield Linksvista Hills Hydro Corridor,trail,waterloo region,..,..,..,..,on
67467,Westfield Linkswestfield Links,trail,waterloo region,..,..,..,..,on
67468,Westfield Linkswestfield Links,trail,waterloo region,..,..,..,..,on
67469,Westfield Pl To Westfield Pl,trail,waterloo region,..,..,..,..,on
67493,Westmount Rd N,trail,waterloo region,..,..,..,..,on
67494,Westmount Rd N,trail,waterloo region,..,..,..,..,on
67495,Westmount Rd N,trail,waterloo region,..,..,..,..,on
67496,Westmount Rd N,trail,waterloo region,..,..,..,..,on
67497,Westmount Rd N,trail,waterloo region,..,..,..,..,on
67498,Westmount Rd N,trail,waterloo region,..,..,..,..,on
67499,Westmount Rd N,trail,waterloo region,..,..,..,..,on
67500,Westmount Rd N,trail,waterloo region,..,..,..,..,on
67501,Westmount Rd N,trail,waterloo region,..,..,..,..,on
67502,Westmount Rd N To Westmount Sports Park,trail,waterloo region,..,..,..,..,on
67503,Westmount Rd S To Hilliard Ave,trail,waterloo region,..,..,..,..,on
67504,Westmount Sports Park,trail,waterloo region,..,..,..,..,on
67505,Westmount Sports Park,trail,waterloo region,..,..,..,..,on
67507,Westridge Dr To Roosevelt Ave,trail,waterloo region,..,..,..,..,on
67508,Westvale Park,trail,waterloo region,..,..,..,..,on
67509,Westvale Park,trail,waterloo region,..,..,..,..,on
67510,Westvale Park,trail,waterloo region,..,..,..,..,on
67511,Westvale Park,trail,waterloo region,..,..,..,..,on
67512,Westvale Park,trail,waterloo region,..,..,..,..,on
67513,Westvale Park,trail,waterloo region,..,..,..,..,on
67514,Westvale Park,trail,waterloo region,..,..,..,..,on
67515,Westvale Park,trail,waterloo region,..,..,..,..,on
67516,Westvale Park,trail,waterloo region,..,..,..,..,on
67517,Westvale Park,trail,waterloo region,..,..,..,..,on
67518,Westvale Park To Appledale Cres,trail,waterloo region,..,..,..,..,on
67519,Westvale Park To Valley Ridge Cres,trail,waterloo region,..,..,..,..,on
67520,Westvale Parkwestvale Park,trail,waterloo region,..,..,..,..,on
67545,White Cedar Forest,trail,waterloo region,..,..,..,..,on
67546,White Elm Park,trail,waterloo region,..,..,..,..,on
67549,White Pine Cres To Lakeshore Optimist Park,trail,waterloo region,..,..,..,..,on
67550,White Pine Cres To Northlake Dr,trail,waterloo region,..,..,..,..,on
67552,White Tail Swm A (Owen),trail,waterloo region,..,..,..,..,on
67553,Whitecap Park,trail,waterloo region,..,..,..,..,on
67554,Whitecap Park,trail,waterloo region,..,..,..,..,on
67812,Williamsburg Link To Grant Cres,trail,waterloo region,..,..,..,..,on
67942,Willow Wood Dr To Trillium Valley Park,trail,waterloo region,..,..,..,..,on
67945,Willowdale Park,trail,waterloo region,..,..,..,..,on
67946,Willowdale Park,trail,waterloo region,..,..,..,..,on
67947,Willowdale Park,trail,waterloo region,..,..,..,..,on
67981,Windjammer Way To Chesapeake Park,trail,waterloo region,..,..,..,..,on
67982,Windjammer Way To Eastbridge Green,trail,waterloo region,..,..,..,..,on
68003,Wingrove Crt To Leighland Park,trail,waterloo region,..,..,..,..,on
68019,Winterberry Ave To Creekside Swm Area # 2,trail,waterloo region,..,..,..,..,on
68020,Winterberry Ave To Goldthread Park,trail,waterloo region,..,..,..,..,on
68021,Winterberry Park,trail,waterloo region,..,..,..,..,on
