Index,Facility_Name,ODRSF_facility_type,Provider,Street_No,Street_Name,Postal_Code,City,Prov_Terr
173842,Philip Crescent Parkland,park,cambridge,..,..,..,..,on
174076,Portugese Monument,park,cambridge,..,..,..,..,on
174259,Queens Square,park,cambridge,..,..,..,..,on
174408,Ravine Park,park,cambridge,..,..,..,..,on
174472,Red Wildfong Park,park,cambridge,..,..,..,..,on
174629,Ridge Rd Park,park,cambridge,..,..,..,..,on
174706,Riverbank,park,cambridge,..,..,..,..,on
174707,Riverbank Land,park,cambridge,..,..,..,..,on
174708,Riverbank Lands,park,cambridge,..,..,..,..,on
174719,Riverbluffs Park,park,cambridge,..,..,..,..,on
174784,Riverside Park (Hespeler),park,cambridge,..,..,..,..,on
174785,Riverside Park (Preston),park,cambridge,..,..,..,..,on
174798,Riverview Woodlot,park,cambridge,..,..,..,..,on
175512,Santa Maria Park,park,cambridge,..,..,..,..,on
175527,Sault Park,park,cambridge,..,..,..,..,on
175582,Schiedel Woodlot,park,cambridge,..,..,..,..,on
175631,Sculpture Gardens,park,cambridge,..,..,..,..,on
175910,Silverheights Park,park,cambridge,..,..,..,..,on
176089,Soper Park,park,cambridge,..,..,..,..,on
176179,Southgate Rd Parkland,park,cambridge,..,..,..,..,on
176609,Stirling Macgregor Park,park,cambridge,..,..,..,..,on
176712,Studiman Park,park,cambridge,..,..,..,..,on
176714,Sturdy Park,park,cambridge,..,..,..,..,on
177118,Thompson Park,park,cambridge,..,..,..,..,on
177195,Timbercreek Parkland,park,cambridge,..,..,..,..,on
177481,Twin Cedars Park,park,cambridge,..,..,..,..,on
177800,Vardon Park,park,cambridge,..,..,..,..,on
177879,Victoria Park (Galt),park,cambridge,..,..,..,..,on
177880,Victoria Park (Hespeler),park,cambridge,..,..,..,..,on
178094,Waterworks Park,park,cambridge,..,..,..,..,on
178140,Weaver Park,park,cambridge,..,..,..,..,on
178472,Willard Park,park,cambridge,..,..,..,..,on
178655,Winston Boulevard Park,park,cambridge,..,..,..,..,on
178656,Winston Boulevard Woodlot,park,cambridge,..,..,..,..,on
178681,Witmer Park,park,cambridge,..,..,..,..,on
178738,Woodland Park,park,cambridge,..,..,..,..,on
178742,Woodland Park Extension,park,cambridge,..,..,..,..,on
178791,Ws Mcvittie Park,park,cambridge,..,..,..,..,on
178795,Ww_Not Named,park,cambridge,..,..,..,..,on
