Index,Facility_Name,ODRSF_facility_type,Provider,Street_No,Street_Name,Postal_Code,City,Prov_Terr
78689,..,trail,kitchener,..,cedarwoods,..,..,on
78690,..,trail,kitchener,..,king,..,..,on
78691,..,trail,kitchener,..,ira needles,..,..,on
78692,..,trail,kitchener,..,ira needles,..,..,on
78693,..,trail,kitchener,..,fischer hallman,..,..,on
78694,..,trail,kitchener,..,huron,..,..,on
78695,..,trail,kitchener,..,old mill,..,..,on
78696,..,trail,kitchener,..,king,..,..,on
78697,..,trail,kitchener,..,woolner trail,..,..,on
78698,..,trail,kitchener,..,otterbein,..,..,on
78699,..,trail,kitchener,..,quinte,..,..,on
78700,..,trail,kitchener,..,quinte,..,..,on
78701,..,trail,kitchener,..,watercress,..,..,on
78702,..,trail,kitchener,..,watercress,..,..,on
78703,..,trail,kitchener,..,watercress,..,..,on
78704,..,trail,kitchener,..,isaiah,..,..,on
78705,..,trail,kitchener,..,snowdrop,..,..,on
78706,..,trail,kitchener,..,red clover,..,..,on
78707,..,trail,kitchener,..,red clover,..,..,on
78708,..,trail,kitchener,..,woodbine,..,..,on
78709,..,trail,kitchener,..,parkvale,..,..,on
78710,..,trail,kitchener,..,woodbine,..,..,on
78711,..,trail,kitchener,..,woodbine,..,..,on
78712,..,trail,kitchener,..,woodbine,..,..,on
78713,..,trail,kitchener,..,woodbine,..,..,on
78714,..,trail,kitchener,..,river birch,..,..,on
78715,..,trail,kitchener,..,river birch,..,..,on
78716,..,trail,kitchener,..,woodbine,..,..,on
78717,..,trail,kitchener,..,wentworth,..,..,on
78718,..,trail,kitchener,..,stirling,..,..,on
78719,..,trail,kitchener,..,lawrence,..,..,on
78720,..,trail,kitchener,..,westmount,..,..,on
78721,..,trail,kitchener,..,creek,..,..,on
78722,..,trail,kitchener,..,folkstone,..,..,on
78723,..,trail,kitchener,..,folkstone,..,..,on
78724,..,trail,kitchener,..,goundry,..,..,on
78725,..,trail,kitchener,..,connaught,..,..,on
78726,..,trail,kitchener,..,eckert,..,..,on
78727,..,trail,kitchener,..,eckert,..,..,on
78728,..,trail,kitchener,..,connaught,..,..,on
78729,..,trail,kitchener,..,connaught,..,..,on
78730,..,trail,kitchener,..,vicmount,..,..,on
78731,..,trail,kitchener,..,vicmount,..,..,on
78732,..,trail,kitchener,..,wilson,..,..,on
78733,..,trail,kitchener,..,wilson,..,..,on
78734,..,trail,kitchener,..,clark,..,..,on
78735,..,trail,kitchener,..,shelley,..,..,on
78736,..,trail,kitchener,..,shelley,..,..,on
78737,..,trail,kitchener,..,vanier,..,..,on
