Index,Facility_Name,ODRSF_facility_type,Provider,Street_No,Street_Name,Postal_Code,City,Prov_Terr
34939,Lake Louise Blvd,trail,waterloo region,..,..,..,..,on
34940,Lake Louise Blvd To Springwater Dr,trail,waterloo region,..,..,..,..,on
34941,Lake Louise Blvd To Waterton Crt,trail,waterloo region,..,..,..,..,on
34970,Lakeshore Optimist Park,trail,waterloo region,..,..,..,..,on
34971,Lakeshore Optimist Park,trail,waterloo region,..,..,..,..,on
35139,Langford Pl To Lincoln Heights Public School,trail,waterloo region,..,..,..,..,on
35204,Laurel Creek Trail,trail,kitchener,..,bearinger,..,waterloo,on
35205,Laurel Creek Trail,trail,kitchener,..,bearinger,..,waterloo,on
35206,Laurel Creek Trail,trail,kitchener,..,..,..,waterloo,on
35207,Laurel Creek Trail,trail,kitchener,..,..,..,waterloo,on
35208,Laurel Creek Trail,trail,kitchener,..,..,..,waterloo,on
35209,Laurel Creek Trail,trail,kitchener,..,bearinger,..,waterloo,on
35210,Laurel Creek Trail,trail,kitchener,..,westmount,..,waterloo,on
35211,Laurel Gate Dr To Fischer-Hallman Rd N,trail,waterloo region,..,..,..,..,on
35212,Laurel Gate Dr To Laurelwood Park,trail,waterloo region,..,..,..,..,on
35213,Laurel Gate Dr To Timbercroft Cres,trail,waterloo region,..,..,..,..,on
35214,Laurel Trail Bechtel Park Facility,trail,waterloo region,..,..,..,..,on
35215,Laurel Trail Bechtel Park Reserve,trail,waterloo region,..,..,..,..,on
35216,Laurel Trail Bechtel Park Reserve,trail,waterloo region,..,..,..,..,on
35217,Laurel Trail Bechtel Park Reserve,trail,waterloo region,..,..,..,..,on
35218,Laurel Trail City Centre Link & Cenotaph,trail,waterloo region,..,..,..,..,on
35219,Laurel Trail City Centre Link & Cenotaph,trail,waterloo region,..,..,..,..,on
35220,Laurel Trail City Centre Link & Cenotaph,trail,waterloo region,..,..,..,..,on
35221,Laurel Trail City Centre Link & Cenotaph,trail,waterloo region,..,..,..,..,on
35222,Laurel Trail Hillside Park Reserve,trail,waterloo region,..,..,..,..,on
35223,Laurel Trail Hillside Park Reserve,trail,waterloo region,..,..,..,..,on
35224,Laurel Trail Hillside Park Reserve,trail,waterloo region,..,..,..,..,on
35225,Laurel Trail/Waterloop,trail,waterloo region,..,..,..,..,on
35226,Laurel Trail/Waterloop,trail,waterloo region,..,..,..,..,on
35227,Laurel Trail/Waterloop,trail,waterloo region,..,..,..,..,on
35228,Laurel Trail/Waterloop,trail,waterloo region,..,..,..,..,on
35229,Laurel Trail/Waterloop,trail,waterloo region,..,..,..,..,on
35230,Laurel Trail/Waterloop Black Willow Link,trail,waterloo region,..,..,..,..,on
35231,Laurel Trail/Waterloop City Centre Link & Cenotaph,trail,waterloo region,..,..,..,..,on
35232,Laurel Trail/Waterloop Hillside Park Reserve,trail,waterloo region,..,..,..,..,on
35233,Laurel Trail/Waterloop Hillside Park Reserve,trail,waterloo region,..,..,..,..,on
35234,Laurel Trail/Waterloop Laurel Trail,trail,waterloo region,..,..,..,..,on
35235,Laurel Trail/Waterloop Moses Springer Park Facili*,trail,waterloo region,..,..,..,..,on
35236,Laurel Trail/Waterloop Moses Springer Park Facili*,trail,waterloo region,..,..,..,..,on
35237,Laurel Trail/Waterloop Peppler Trail,trail,waterloo region,..,..,..,..,on
35238,Laurelwood Dr,trail,waterloo region,..,..,..,..,on
35239,Laurelwood Dr,trail,waterloo region,..,..,..,..,on
35240,Laurelwood Dr,trail,waterloo region,..,..,..,..,on
35241,Laurelwood Dr,trail,waterloo region,..,..,..,..,on
35242,Laurelwood Dr,trail,waterloo region,..,..,..,..,on
35243,Laurelwood Dr,trail,waterloo region,..,..,..,..,on
35244,Laurelwood Dr,trail,waterloo region,..,..,..,..,on
35245,Laurelwood Dr,trail,waterloo region,..,..,..,..,on
35246,Laurelwood Dr,trail,waterloo region,..,..,..,..,on
