Index,Facility_Name,ODRSF_facility_type,Provider,Street_No,Street_Name,Postal_Code,City,Prov_Terr
79441,..,trail,kitchener,..,tall grass,..,..,on
79442,..,trail,kitchener,..,blair creek,..,..,on
79443,..,trail,kitchener,..,blair creek,..,..,on
79444,..,trail,kitchener,..,blair creek,..,..,on
79445,..,trail,kitchener,..,blair creek,..,..,on
79446,..,trail,kitchener,..,blair creek,..,..,on
79447,..,trail,kitchener,..,blair creek,..,..,on
79448,..,trail,kitchener,..,blair creek,..,..,on
79449,..,trail,kitchener,..,blair creek,..,..,on
79450,..,trail,kitchener,..,blair creek,..,..,on
79451,..,trail,kitchener,..,mistywood,..,..,on
79452,..,trail,kitchener,..,shaded creek,..,..,on
79453,..,trail,kitchener,..,blair creek,..,..,on
79454,..,trail,kitchener,..,stirling,..,..,on
79455,..,trail,kitchener,..,stirling,..,..,on
79456,..,trail,kitchener,..,stirling,..,..,on
79457,..,trail,kitchener,..,stirling,..,..,on
79458,..,trail,kitchener,..,stirling,..,..,on
79459,..,trail,kitchener,..,rittenhouse,..,..,on
79461,..,trail,kitchener,..,lackner,..,..,on
79462,..,trail,kitchener,..,old cottage,..,..,on
79463,..,trail,kitchener,..,old cottage,..,..,on
79464,..,trail,kitchener,..,falconridge,..,..,on
79465,..,trail,kitchener,..,falconridge,..,..,on
79466,..,trail,kitchener,..,old cottage,..,..,on
79467,..,trail,kitchener,..,old cottage close,..,..,on
79468,..,trail,kitchener,..,old cottage close,..,..,on
79472,..,trail,kitchener,..,barwood,..,..,on
79473,..,trail,kitchener,..,barwood,..,..,on
79474,..,trail,kitchener,..,barwood,..,..,on
79475,..,trail,kitchener,..,roseneath,..,..,on
79476,..,trail,kitchener,..,roseneath,..,..,on
79477,..,trail,kitchener,..,barwood,..,..,on
79478,..,trail,kitchener,..,roseneath,..,..,on
79479,..,trail,kitchener,..,barwood,..,..,on
79480,..,trail,kitchener,..,roseneath,..,..,on
79481,..,trail,kitchener,..,blackhorne,..,..,on
79482,..,trail,kitchener,..,barwood,..,..,on
79483,..,trail,kitchener,..,barwood,..,..,on
79484,..,trail,kitchener,..,barwood,..,..,on
79485,..,trail,kitchener,..,barwood,..,..,on
79486,..,trail,kitchener,..,barwood,..,..,on
79487,..,trail,kitchener,..,barwood,..,..,on
79488,..,trail,kitchener,..,barwood,..,..,on
79489,..,trail,kitchener,..,barwood,..,..,on
79490,..,trail,kitchener,..,barwood,..,..,on
79491,..,trail,kitchener,..,roseneath,..,..,on
79492,..,trail,kitchener,..,roseneath,..,..,on
79493,..,trail,kitchener,..,roseneath,..,..,on
