Index,Facility_Name,ODRSF_facility_type,Provider,Street_No,Street_Name,Postal_Code,City,Prov_Terr
79696,..,trail,kitchener,..,joseph schoerg,..,..,on
79697,..,trail,kitchener,..,woodfield,..,..,on
79698,..,trail,kitchener,..,highland,..,..,on
79699,..,trail,kitchener,..,strasburg,..,..,on
79700,..,trail,kitchener,..,david,..,..,on
79701,..,trail,kitchener,..,moorlands,..,..,on
79702,..,trail,kitchener,..,doon mills,..,..,on
79703,..,trail,kitchener,..,fairway,..,..,on
79704,..,trail,kitchener,..,graber,..,..,on
79705,..,trail,kitchener,..,dill,..,..,on
79706,..,trail,kitchener,..,topper woods,..,..,on
79707,..,trail,kitchener,..,doon south,..,..,on
79708,..,trail,kitchener,..,topper woods,..,..,on
79709,..,trail,kitchener,..,sorrento,..,..,on
79710,..,trail,kitchener,..,parkvale,..,..,on
79711,..,trail,kitchener,..,parkvale,..,..,on
79712,..,trail,kitchener,..,parkvale,..,..,on
79713,..,trail,kitchener,..,westforest,..,..,on
79714,..,trail,kitchener,..,milfoil,..,..,on
79715,..,trail,kitchener,..,david bergey,..,..,on
79716,..,trail,kitchener,..,shuh,..,..,on
79717,..,trail,kitchener,..,chartwell,..,..,on
79718,..,trail,kitchener,..,coventry,..,..,on
79719,..,trail,kitchener,..,stoke,..,..,on
79720,..,trail,kitchener,..,butler,..,..,on
79721,..,trail,kitchener,..,butler,..,..,on
79722,..,trail,kitchener,..,butler,..,..,on
79723,..,trail,kitchener,..,perin,..,..,on
79724,..,trail,kitchener,..,carlyle,..,..,on
79725,..,trail,kitchener,..,perin,..,..,on
79726,..,trail,kitchener,..,perin,..,..,on
79727,..,trail,kitchener,..,bleams,..,..,on
79728,..,trail,kitchener,..,adam ferrie,..,..,on
79729,..,trail,kitchener,..,bleams,..,..,on
79730,..,trail,kitchener,..,mcbrine,..,..,on
79731,..,trail,kitchener,..,shoreacres,..,..,on
79732,..,trail,kitchener,..,shuh,..,..,on
79733,..,trail,kitchener,..,arlington,..,..,on
79734,..,trail,kitchener,..,arlington,..,..,on
79735,..,trail,kitchener,..,arlington,..,..,on
79736,..,trail,kitchener,..,arlington,..,..,on
79737,..,trail,kitchener,..,arlington,..,..,on
79738,..,trail,kitchener,..,pinecrest,..,..,on
79739,..,trail,kitchener,..,shuh,..,..,on
79740,..,trail,kitchener,..,arlington,..,..,on
79741,..,trail,kitchener,..,huck,..,..,on
79742,..,trail,kitchener,..,greenfield,..,..,on
79743,..,trail,kitchener,..,block line,..,..,on
79744,..,trail,kitchener,..,..,..,..,on
