Index,Facility_Name,ODRSF_facility_type,Provider,Street_No,Street_Name,Postal_Code,City,Prov_Terr
45,Adult Recreation Centre,community centre,waterloo region,185,king,..,..,on
83,Alexandra Park,playground,waterloo region,..,..,..,..,on
133,Angler Way Park,playground,waterloo region,..,..,..,..,on
139,Anndale Park,playground,waterloo region,..,..,..,..,on
140,Anndale Park,rink,waterloo region,..,..,..,..,on
222,Atlantic Park,playground,waterloo region,..,..,..,..,on
223,Auburn Park,playground,waterloo region,..,..,..,..,on
224,Autumn Willow Park,playground,waterloo region,..,..,..,..,on
225,Autumn Willow Park,rink,waterloo region,..,..,..,..,on
264,Barrel Yards Onyx Pool,pool,waterloo region,29,barrel yards,..,waterloo,on
265,Basswood Park,playground,waterloo region,..,..,..,..,on
312,Bechtel Park And Stadium,stadium,waterloo region,185,bridge,..,..,on
318,Beechwood Bridlegate,pool,waterloo region,339,old post,..,waterloo,on
319,Beechwood Classic,pool,waterloo region,525,beechwood,..,waterloo,on
320,Beechwood Commons 1,pool,waterloo region,454,beechwood,..,waterloo,on
321,Beechwood Commons Ii,pool,waterloo region,486,beechwood,..,waterloo,on
323,Beechwood North Pool,pool,waterloo region,326,beechlawn,..,waterloo,on
325,Beechwood Park,pool,waterloo region,293,shakespeare,..,waterloo,on
326,Beechwood South Homes Assoc.,pool,waterloo region,160,candlewood,..,waterloo,on
327,Beechwood Villas - Wscc #403,pool,waterloo region,475,beechwood,..,waterloo,on
328,Beechwood West I,pool,waterloo region,139,sandford fleming,..,waterloo,on
356,Bennington Woods Swimming Pool - Wncc#179,pool,waterloo region,365,bennington,..,waterloo,on
377,Best Western Plus - Pool,pool,waterloo region,547,king,..,waterloo,on
414,Birchmount Park,playground,waterloo region,..,..,..,..,on
418,Black Cherry Park,playground,waterloo region,..,..,..,..,on
435,Blue Beech Link,playground,waterloo region,..,..,..,..,on
436,Blue Beech Park,playground,waterloo region,..,..,..,..,on
440,Bluenose Park,playground,waterloo region,..,..,..,..,on
441,Bluestream Park,playground,waterloo region,..,..,..,..,on
442,Bluestream Park,rink,waterloo region,..,..,..,..,on
454,Bolingbrooke Park,playground,waterloo region,..,..,..,..,on
455,Bolingbrooke Park,rink,waterloo region,..,..,..,..,on
458,Bonn # 3 (Karlsfeld),playground,waterloo region,..,..,..,..,on
459,Bonn # 5 (Brandenburg),playground,waterloo region,..,..,..,..,on
465,Bordeaux Park,playground,waterloo region,..,..,..,..,on
543,Brighton Park,playground,waterloo region,..,..,..,..,on
606,Butternut Park,playground,waterloo region,..,..,..,..,on
658,Canewood Park,playground,waterloo region,..,..,..,..,on
705,Carriage Way Park,playground,waterloo region,..,..,..,..,on
1029,Chesapeake Park,playground,waterloo region,..,..,..,..,on
1045,Chippendale Outdoor Pool,pool,waterloo region,56,allen,..,waterloo,on
1087,Clair Hills Retirement Community Pool,pool,waterloo region,530,columbia,..,waterloo,on
1088,Clair Lake Park,playground,waterloo region,..,..,..,..,on
1145,Columbia Forest Court Park,playground,waterloo region,..,..,..,..,on
1146,Columbia Place Pool,pool,waterloo region,375,king,..,waterloo,on
1172,Conservation Meadows Park,playground,waterloo region,..,..,..,..,on
1173,Conservation Meadows Park,rink,waterloo region,..,..,..,..,on
1193,Cornerbrook Park,playground,waterloo region,..,..,..,..,on
1229,Craigleith Rec Centre,pool,waterloo region,286,faraday,..,waterloo,on
