Index,Facility_Name,ODRSF_facility_type,Provider,Street_No,Street_Name,Postal_Code,City,Prov_Terr
78039,..,trail,kitchener,..,cedarwoods,..,..,on
78040,..,trail,kitchener,..,ira needles,..,..,on
78041,..,trail,kitchener,..,queen,..,..,on
78042,..,trail,kitchener,..,queen,..,..,on
78043,..,trail,kitchener,..,queen,..,..,on
78044,..,trail,kitchener,..,williamsburg,..,..,on
78045,..,trail,kitchener,..,williamsburg,..,..,on
78046,..,trail,kitchener,..,westmount,..,..,on
78047,..,trail,kitchener,..,westmount,..,..,on
78048,..,trail,kitchener,..,westmount,..,..,on
78049,..,trail,kitchener,..,laurentian,..,..,on
78050,..,trail,kitchener,..,shady glen,..,..,on
78051,..,trail,kitchener,..,shady glen,..,..,on
78052,..,trail,kitchener,..,shady glen,..,..,on
78053,..,trail,kitchener,..,shady glen,..,..,on
78054,..,trail,kitchener,..,shady glen,..,..,on
78055,..,trail,kitchener,..,shady glen,..,..,on
78056,..,trail,kitchener,..,driftwood,..,..,on
78057,..,trail,kitchener,..,driftwood,..,..,on
78058,..,trail,kitchener,..,timberlane,..,..,on
78059,..,trail,kitchener,..,broken oak,..,..,on
78060,..,trail,kitchener,..,rolling meadows,..,..,on
78061,..,trail,kitchener,..,uplands,..,..,on
78062,..,trail,kitchener,..,butler,..,..,on
78063,..,trail,kitchener,..,arlington,..,..,on
78064,..,trail,kitchener,..,fergus,..,..,on
78065,..,trail,kitchener,..,fergus,..,..,on
78066,..,trail,kitchener,..,fergus,..,..,on
78067,..,trail,kitchener,..,trailview,..,..,on
78068,..,trail,kitchener,..,mcgarry,..,..,on
78069,..,trail,kitchener,..,bleams,..,..,on
78070,..,trail,kitchener,..,creek,..,..,on
78071,..,trail,kitchener,..,bush clover,..,..,on
78072,..,trail,kitchener,..,doon south,..,..,on
78073,..,trail,kitchener,..,laurentian,..,..,on
78074,..,trail,kitchener,..,rittenhouse,..,..,on
78075,..,trail,kitchener,..,eckert,..,..,on
78076,..,trail,kitchener,..,trillium,..,..,on
78077,..,trail,kitchener,..,bridge,..,..,on
78078,..,trail,kitchener,..,oldfield,..,..,on
78079,..,trail,kitchener,..,oldfield,..,..,on
78080,..,trail,kitchener,..,notchwood,..,..,on
78081,..,trail,kitchener,..,kingswood,..,..,on
78082,..,trail,kitchener,..,blucher,..,..,on
78083,..,trail,kitchener,..,doon mills,..,..,on
78084,..,trail,kitchener,..,mcgarry,..,..,on
78085,..,trail,kitchener,..,springmount,..,..,on
78086,..,trail,kitchener,..,parkvale,..,..,on
78087,..,trail,kitchener,..,blackhorne,..,..,on
