Index,Facility_Name,ODRSF_facility_type,Provider,Street_No,Street_Name,Postal_Code,City,Prov_Terr
79846,..,trail,kitchener,..,charles best,..,..,on
79847,..,trail,kitchener,..,queens,..,..,on
79848,..,trail,kitchener,..,belmont,..,..,on
79849,..,trail,kitchener,..,old forest,..,..,on
79850,..,trail,kitchener,..,blackhorne,..,..,on
79851,..,trail,kitchener,..,zeller,..,..,on
79852,..,trail,kitchener,..,royal orchard,..,..,on
79853,..,trail,kitchener,..,royal orchard,..,..,on
79854,..,trail,kitchener,..,lorilee,..,..,on
79855,..,trail,kitchener,..,charleston,..,..,on
79856,..,trail,kitchener,..,block line,..,..,on
79857,..,trail,kitchener,..,edgewater,..,..,on
79858,..,trail,kitchener,..,creek,..,..,on
79859,..,trail,kitchener,..,thomas slee,..,..,on
79860,..,trail,kitchener,..,thomas slee,..,..,on
79861,..,trail,kitchener,..,creek,..,..,on
79862,..,trail,kitchener,..,centennial,..,..,on
79863,..,trail,kitchener,..,newcastle,..,..,on
79864,..,trail,kitchener,..,homer watson,..,..,on
79865,..,trail,kitchener,..,valewood,..,..,on
79866,..,trail,kitchener,..,blackhorne,..,..,on
79867,..,trail,kitchener,..,barwood,..,..,on
79868,..,trail,kitchener,..,barwood,..,..,on
79869,..,trail,kitchener,..,barwood,..,..,on
79870,..,trail,kitchener,..,barwood,..,..,on
79871,..,trail,kitchener,..,shea,..,..,on
79872,..,trail,kitchener,..,roseneath,..,..,on
79873,..,trail,kitchener,..,blackhorne,..,..,on
79874,..,trail,kitchener,..,roseneath,..,..,on
79875,..,trail,kitchener,..,shea,..,..,on
79876,..,trail,kitchener,..,shea,..,..,on
79877,..,trail,kitchener,..,eckert,..,..,on
79878,..,trail,kitchener,..,eckert,..,..,on
79879,..,trail,kitchener,..,homer watson,..,..,on
79880,..,trail,kitchener,..,homer watson offramp,..,..,on
79881,..,trail,kitchener,..,homer watson onramp,..,..,on
79882,..,trail,kitchener,..,homer watson onramp,..,..,on
79883,..,trail,kitchener,..,sabrina,..,..,on
79884,..,trail,kitchener,..,anvil,..,..,on
79885,..,trail,kitchener,..,oldfield,..,..,on
79886,..,trail,kitchener,..,parkland,..,..,on
79887,..,trail,kitchener,..,driftwood,..,..,on
79888,..,trail,kitchener,..,block line,..,..,on
79889,..,trail,kitchener,..,block line,..,..,on
79890,..,trail,kitchener,..,block line,..,..,on
79891,..,trail,kitchener,..,block line,..,..,on
79892,..,trail,kitchener,..,block line,..,..,on
79893,..,trail,kitchener,..,block line,..,..,on
79894,..,trail,kitchener,..,block line,..,..,on
