Index,Facility_Name,ODRSF_facility_type,Provider,Street_No,Street_Name,Postal_Code,City,Prov_Terr
81049,..,trail,kitchener,..,amand,..,..,on
81050,..,trail,kitchener,..,amand,..,..,on
81051,..,trail,kitchener,..,amand,..,..,on
81052,..,trail,kitchener,..,amand,..,..,on
81053,..,trail,kitchener,..,lackner,..,..,on
81054,..,trail,kitchener,..,kilkerran,..,..,on
81055,..,trail,kitchener,..,pioneer ridge,..,..,on
81056,..,trail,kitchener,..,harvest,..,..,on
81057,..,trail,kitchener,..,harvest,..,..,on
81058,..,trail,kitchener,..,deer ridge,..,..,on
81059,..,trail,kitchener,..,deer ridge,..,..,on
81060,..,trail,kitchener,..,terrace wood,..,..,on
81061,..,trail,kitchener,..,terrace wood,..,..,on
81062,..,trail,kitchener,..,deer ridge,..,..,on
81063,..,trail,kitchener,..,deer ridge,..,..,on
81064,..,trail,kitchener,..,bank swallow,..,..,on
81065,..,trail,kitchener,..,robert ferrie,..,..,on
81066,..,trail,kitchener,..,steepleridge,..,..,on
81067,..,trail,kitchener,..,steepleridge,..,..,on
81068,..,trail,kitchener,..,creek,..,..,on
81069,..,trail,kitchener,..,deer ridge,..,..,on
81070,..,trail,kitchener,..,deer ridge,..,..,on
81071,..,trail,kitchener,..,deer ridge,..,..,on
81072,..,trail,kitchener,..,banffshire,..,..,on
81073,..,trail,kitchener,..,patricia,..,..,on
81074,..,trail,kitchener,..,patricia,..,..,on
81075,..,trail,kitchener,..,highland,..,..,on
81076,..,trail,kitchener,..,highland,..,..,on
81077,..,trail,kitchener,..,..,..,..,on
81078,..,trail,kitchener,..,parkvale,..,..,on
81079,..,trail,kitchener,..,parkvale,..,..,on
81080,..,trail,kitchener,..,lawrence,..,..,on
81081,..,trail,kitchener,..,lawrence,..,..,on
81082,..,trail,kitchener,..,homer watson,..,..,on
81083,..,trail,kitchener,..,homer watson,..,..,on
81084,..,trail,kitchener,..,homer watson,..,..,on
81085,..,trail,kitchener,..,victoria,..,..,on
81086,..,trail,kitchener,..,victoria,..,..,on
81087,..,trail,kitchener,..,victoria,..,..,on
81088,..,trail,kitchener,..,creek,..,..,on
81089,..,trail,kitchener,..,otterbein,..,..,on
81090,..,trail,kitchener,..,..,..,..,on
81091,..,trail,kitchener,..,chartwell,..,..,on
81092,..,trail,kitchener,..,belmont,..,..,on
81093,..,trail,kitchener,..,highland,..,..,on
81094,..,trail,kitchener,..,st vincent,..,..,on
81095,..,trail,kitchener,..,st vincent,..,..,on
81096,..,trail,kitchener,..,mill park,..,..,on
81097,..,trail,kitchener,..,mill park,..,..,on
