Index,Facility_Name,ODRSF_facility_type,Provider,Street_No,Street_Name,Postal_Code,City,Prov_Terr
79141,..,trail,kitchener,..,fischer hallman,..,..,on
79142,..,trail,kitchener,..,fischer hallman,..,..,on
79143,..,trail,kitchener,..,..,..,..,on
79144,..,trail,kitchener,..,..,..,..,on
79145,..,trail,kitchener,..,westmount,..,..,on
79146,..,trail,kitchener,..,pinedale,..,..,on
79147,..,trail,kitchener,..,claycroft,..,..,on
79148,..,trail,kitchener,..,winding,..,..,on
79149,..,trail,kitchener,..,matthew,..,..,on
79150,..,trail,kitchener,..,pine valley,..,..,on
79151,..,trail,kitchener,..,pine valley,..,..,on
79152,..,trail,kitchener,..,hoddle,..,..,on
79153,..,trail,kitchener,..,sugar maple,..,..,on
79154,..,trail,kitchener,..,courtland,..,..,on
79155,..,trail,kitchener,..,lennox lewis,..,..,on
79156,..,trail,kitchener,..,lennox lewis,..,..,on
79157,..,trail,kitchener,..,lennox lewis,..,..,on
79158,..,trail,kitchener,..,lennox lewis,..,..,on
79159,..,trail,kitchener,..,autumn ridge trail,..,..,on
79160,..,trail,kitchener,..,edge,..,..,on
79161,..,trail,kitchener,..,windrush trail,..,..,on
79162,..,trail,kitchener,..,woodbine,..,..,on
79163,..,trail,kitchener,..,woodbine,..,..,on
79164,..,trail,kitchener,..,washburn,..,..,on
79165,..,trail,kitchener,..,tremaine,..,..,on
79166,..,trail,kitchener,..,iron gate,..,..,on
79167,..,trail,kitchener,..,wilson,..,..,on
79168,..,trail,kitchener,..,wilson,..,..,on
79169,..,trail,kitchener,..,wilson,..,..,on
79170,..,trail,kitchener,..,doon mills,..,..,on
79171,..,trail,kitchener,..,homer watson,..,..,on
79172,..,trail,kitchener,..,bleams,..,..,on
79173,..,trail,kitchener,..,bleams,..,..,on
79174,..,trail,kitchener,..,chartwell,..,..,on
79175,..,trail,kitchener,..,shelley,..,..,on
79176,..,trail,kitchener,..,stoke,..,..,on
79177,..,trail,kitchener,..,stonegate,..,..,on
79178,..,trail,kitchener,..,bleams,..,..,on
79179,..,trail,kitchener,..,lackner,..,..,on
79180,..,trail,kitchener,..,parkvale,..,..,on
79181,..,trail,kitchener,..,stoke,..,..,on
79182,..,trail,kitchener,..,stoke,..,..,on
79183,..,trail,kitchener,..,balfour,..,..,on
79184,..,trail,kitchener,..,parkvale,..,..,on
79185,..,trail,kitchener,..,..,..,..,on
79186,..,trail,kitchener,..,ingleside,..,..,on
79187,..,trail,kitchener,..,shelley,..,..,on
79188,..,trail,kitchener,..,trillium,..,..,on
79189,..,trail,kitchener,..,matthew,..,..,on
