Index,Facility_Name,ODRSF_facility_type,Provider,Street_No,Street_Name,Postal_Code,City,Prov_Terr
79091,..,trail,kitchener,..,block line,..,..,on
79092,..,trail,kitchener,..,homer watson,..,..,on
79093,..,trail,kitchener,..,homer watson,..,..,on
79094,..,trail,kitchener,..,homer watson,..,..,on
79095,..,trail,kitchener,..,block line,..,..,on
79096,..,trail,kitchener,..,block line,..,..,on
79097,..,trail,kitchener,..,block line,..,..,on
79098,..,trail,kitchener,..,kiwanis park,..,..,on
79099,..,trail,kitchener,..,niagara,..,..,on
79100,..,trail,kitchener,..,union,..,..,on
79101,..,trail,kitchener,..,maplewood,..,..,on
79102,..,trail,kitchener,..,joseph,..,..,on
79103,..,trail,kitchener,..,lennox lewis,..,..,on
79104,..,trail,kitchener,..,pine martin,..,..,on
79105,..,trail,kitchener,..,springmount,..,..,on
79106,..,trail,kitchener,..,queen,..,..,on
79107,..,trail,kitchener,..,william lewis,..,..,on
79108,..,trail,kitchener,..,schneider,..,..,on
79109,..,trail,kitchener,..,stoke,..,..,on
79110,..,trail,kitchener,..,belmont,..,..,on
79111,..,trail,kitchener,..,rolling meadows,..,..,on
79112,..,trail,kitchener,..,homestead,..,..,on
79113,..,trail,kitchener,..,foxglove,..,..,on
79114,..,trail,kitchener,..,henhoeffer,..,..,on
79115,..,trail,kitchener,..,ottawa,..,..,on
79116,..,trail,kitchener,..,commonwealth,..,..,on
79117,..,trail,kitchener,..,ottawa,..,..,on
79118,..,trail,kitchener,..,barwood,..,..,on
79119,..,trail,kitchener,..,erinbrook,..,..,on
79120,..,trail,kitchener,..,eckert,..,..,on
79121,..,trail,kitchener,..,woodbine,..,..,on
79122,..,trail,kitchener,..,trillium,..,..,on
79123,..,trail,kitchener,..,doon south,..,..,on
79124,..,trail,kitchener,..,fairway,..,..,on
79125,..,trail,kitchener,..,greengable,..,..,on
79126,..,trail,kitchener,..,bedford,..,..,on
79127,..,trail,kitchener,..,sydney,..,..,on
79128,..,trail,kitchener,..,sydney,..,..,on
79129,..,trail,kitchener,..,greengable,..,..,on
79130,..,trail,kitchener,..,greengable,..,..,on
79131,..,trail,kitchener,..,edge,..,..,on
79132,..,trail,kitchener,..,cloverdale,..,..,on
79133,..,trail,kitchener,..,hawkswood,..,..,on
79134,..,trail,kitchener,..,winding,..,..,on
79135,..,trail,kitchener,..,summit,..,..,on
79136,..,trail,kitchener,..,yellow birch,..,..,on
79137,..,trail,kitchener,..,westforest,..,..,on
79138,..,trail,kitchener,..,camrose,..,..,on
79139,..,trail,kitchener,..,autumn hill,..,..,on
