Index,Facility_Name,ODRSF_facility_type,Provider,Street_No,Street_Name,Postal_Code,City,Prov_Terr
44411,Moses Springer Park Facility,trail,waterloo region,..,..,..,..,on
44417,Mount Anne Dr To Parkside Dr,trail,waterloo region,..,..,..,..,on
44545,Mulberry Lane To Culpepper Park,trail,waterloo region,..,..,..,..,on
44744,Mustang Pl To Auburn Dr,trail,waterloo region,..,..,..,..,on
45362,New Hampshire Link To New Hampshire St,trail,waterloo region,..,..,..,..,on
45363,New Hampshire Park,trail,waterloo region,..,..,..,..,on
45364,New Hampshire Park,trail,waterloo region,..,..,..,..,on
45365,New Hampshire Park,trail,waterloo region,..,..,..,..,on
45366,New Hampshire St To Angler Way,trail,waterloo region,..,..,..,..,on
48342,Northfield Dr E,trail,waterloo region,..,..,..,..,on
48343,Northfield Dr E,trail,waterloo region,..,..,..,..,on
48344,Northfield Dr E,trail,waterloo region,..,..,..,..,on
48345,Northfield Dr W,trail,waterloo region,..,..,..,..,on
48346,Northfield Dr W,trail,waterloo region,..,..,..,..,on
48347,Northfield Dr W,trail,waterloo region,..,..,..,..,on
48348,Northfield Dr W,trail,waterloo region,..,..,..,..,on
48349,Northfield Dr W,trail,waterloo region,..,..,..,..,on
48350,Northfield Dr W,trail,waterloo region,..,..,..,..,on
48351,Northfield Dr W,trail,waterloo region,..,..,..,..,on
48352,Northfield Dr W,trail,waterloo region,..,..,..,..,on
48353,Northfield Dr W,trail,waterloo region,..,..,..,..,on
48354,Northfield Dr W To Huntingdon Cres,trail,waterloo region,..,..,..,..,on
48355,Northfield Park,trail,waterloo region,..,..,..,..,on
48356,Northfield Park,trail,waterloo region,..,..,..,..,on
48357,Northfield Park,trail,waterloo region,..,..,..,..,on
48358,Northfield Pond,trail,kitchener,..,northfield,..,waterloo,on
48359,Northfield Swm Area,trail,waterloo region,..,..,..,..,on
48360,Northlake Dr,trail,waterloo region,..,..,..,..,on
48361,Northlake Dr,trail,waterloo region,..,..,..,..,on
48362,Northlake Dr To Benjamin Park,trail,waterloo region,..,..,..,..,on
48363,Northlake Dr To Benjamin Park,trail,waterloo region,..,..,..,..,on
48364,Northlake Dr To Benjamin Park,trail,waterloo region,..,..,..,..,on
48365,Northlake Dr To Clearwater Cres,trail,waterloo region,..,..,..,..,on
48366,Northlake Dr To Northlake Woods Public School,trail,waterloo region,..,..,..,..,on
48367,Northlake Dr To Red Pine Dr,trail,waterloo region,..,..,..,..,on
48479,Oakfield Crt To Edenvalley Cres,trail,waterloo region,..,..,..,..,on
48520,Old Albert St To Albert Mccomick Community Centre,trail,waterloo region,..,..,..,..,on
48577,Old Oak Park,trail,waterloo region,..,..,..,..,on
48585,Old Post Park,trail,waterloo region,..,..,..,..,on
48586,Old Post Park,trail,waterloo region,..,..,..,..,on
48587,Old Post Park,trail,waterloo region,..,..,..,..,on
48588,Old Post Park,trail,waterloo region,..,..,..,..,on
48589,Old Post Rd To Beechlawn Dr,trail,waterloo region,..,..,..,..,on
48958,Panchara Pl To Malabar Link,trail,waterloo region,..,..,..,..,on
48962,Paradise Cres To Mccrae Park,trail,waterloo region,..,..,..,..,on
48963,Paradise Cres To Mccrae Park,trail,waterloo region,..,..,..,..,on
49335,Parklawn Pl To Sir Edgar Gauer Catholic School,trail,waterloo region,..,..,..,..,on
49379,Parkside Dr To Ablert Mccormick Community Centre,trail,waterloo region,..,..,..,..,on
49380,Parkside Dr To Albert Mccormick Community Centre,trail,waterloo region,..,..,..,..,on
