Index,Facility_Name,ODRSF_facility_type,Provider,Street_No,Street_Name,Postal_Code,City,Prov_Terr
80096,..,trail,kitchener,..,rush meadow,..,..,on
80097,..,trail,kitchener,..,biehn,..,..,on
80098,..,trail,kitchener,..,kilkerran,..,..,on
80099,..,trail,kitchener,..,fischer hallman,..,..,on
80100,..,trail,kitchener,..,fischer hallman,..,..,on
80101,..,trail,kitchener,..,fischer hallman,..,..,on
80102,..,trail,kitchener,..,victoria,..,..,on
80103,..,trail,kitchener,..,orchid,..,..,on
80104,..,trail,kitchener,..,foxglove,..,..,on
80105,..,trail,kitchener,..,westforest,..,..,on
80106,..,trail,kitchener,..,westforest,..,..,on
80107,..,trail,kitchener,..,..,..,..,on
80108,..,trail,kitchener,..,mill,..,..,on
80109,..,trail,kitchener,..,benton,..,..,on
80110,..,trail,kitchener,..,benton,..,..,on
80111,..,trail,kitchener,..,juniper,..,..,on
80112,..,trail,kitchener,..,stoke,..,..,on
80113,..,trail,kitchener,..,greenbough,..,..,on
80114,..,trail,kitchener,..,metzloff,..,..,on
80115,..,trail,kitchener,..,mccabe,..,..,on
80116,..,trail,kitchener,..,mccabe,..,..,on
80117,..,trail,kitchener,..,brookfield,..,..,on
80118,..,trail,kitchener,..,the country,..,..,on
80119,..,trail,kitchener,..,westforest,..,..,on
80120,..,trail,kitchener,..,upper mercer,..,..,on
80121,..,trail,kitchener,..,ira needles,..,..,on
80122,..,trail,kitchener,..,roland,..,..,on
80123,..,trail,kitchener,..,courtland,..,..,on
80124,..,trail,kitchener,..,lennox lewis,..,..,on
80125,..,trail,kitchener,..,lennox lewis,..,..,on
80126,..,trail,kitchener,..,mill,..,..,on
80127,..,trail,kitchener,..,highbrook,..,..,on
80128,..,trail,kitchener,..,royal orchard,..,..,on
80129,..,trail,kitchener,..,royal orchard,..,..,on
80130,..,trail,kitchener,..,..,..,..,on
80131,..,trail,kitchener,..,pinnacle,..,..,on
80132,..,trail,kitchener,..,fairway,..,..,on
80133,..,trail,kitchener,..,rivertrail,..,..,on
80134,..,trail,kitchener,..,fairway,..,..,on
80135,..,trail,kitchener,..,fairway,..,..,on
80136,..,trail,kitchener,..,rivertrail,..,..,on
80137,..,trail,kitchener,..,rivertrail,..,..,on
80138,..,trail,kitchener,..,rivertrail,..,..,on
80139,..,trail,kitchener,..,rivertrail,..,..,on
80140,..,trail,kitchener,..,..,..,..,on
80141,..,trail,kitchener,..,..,..,..,on
80142,..,trail,kitchener,..,sims estate,..,..,on
80143,..,trail,kitchener,..,fischer hallman,..,..,on
80144,..,trail,kitchener,..,weber,..,..,on
