Index,Facility_Name,ODRSF_facility_type,Provider,Street_No,Street_Name,Postal_Code,City,Prov_Terr
80849,..,trail,kitchener,..,ottawa,..,..,on
80850,..,trail,kitchener,..,wabanaki,..,..,on
80851,..,trail,kitchener,..,royal orchard,..,..,on
80852,..,trail,kitchener,..,laurentian,..,..,on
80853,..,trail,kitchener,..,blue spruce,..,..,on
80854,..,trail,kitchener,..,victoria,..,..,on
80855,..,trail,kitchener,..,sugar maple,..,..,on
80856,..,trail,kitchener,..,westheights,..,..,on
80857,..,trail,kitchener,..,brookside,..,..,on
80858,..,trail,kitchener,..,waterbridge,..,..,on
80859,..,trail,kitchener,..,homer watson,..,..,on
80860,..,trail,kitchener,..,homer watson,..,..,on
80861,..,trail,kitchener,..,homer watson onramp,..,..,on
80862,..,trail,kitchener,..,eden,..,..,on
80863,..,trail,kitchener,..,eden,..,..,on
80864,..,trail,kitchener,..,eden,..,..,on
80865,..,trail,kitchener,..,eden,..,..,on
80866,..,trail,kitchener,..,eden,..,..,on
80867,..,trail,kitchener,..,meadowridge,..,..,on
80868,..,trail,kitchener,..,meadowridge,..,..,on
80869,..,trail,kitchener,..,meadowridge,..,..,on
80870,..,trail,kitchener,..,meadowridge,..,..,on
80871,..,trail,kitchener,..,bush clover,..,..,on
80872,..,trail,kitchener,..,fischer hallman,..,..,on
80873,..,trail,kitchener,..,commonwealth,..,..,on
80874,..,trail,kitchener,..,commonwealth,..,..,on
80875,..,trail,kitchener,..,commonwealth,..,..,on
80876,..,trail,kitchener,..,commonwealth,..,..,on
80877,..,trail,kitchener,..,ingleside,..,..,on
80878,..,trail,kitchener,..,stoke,..,..,on
80879,..,trail,kitchener,..,lynnvalley,..,..,on
80880,..,trail,kitchener,..,pinedale,..,..,on
80881,..,trail,kitchener,..,barwood,..,..,on
80882,..,trail,kitchener,..,roseneath,..,..,on
80883,..,trail,kitchener,..,westmount,..,..,on
80884,..,trail,kitchener,..,westmeadow,..,..,on
80885,..,trail,kitchener,..,westmeadow,..,..,on
80886,..,trail,kitchener,..,david,..,..,on
80887,..,trail,kitchener,..,david,..,..,on
80888,..,trail,kitchener,..,jubilee,..,..,on
80889,..,trail,kitchener,..,henry,..,..,on
80890,..,trail,kitchener,..,queen,..,..,on
80891,..,trail,kitchener,..,fairway,..,..,on
80892,..,trail,kitchener,..,fairway,..,..,on
80893,..,trail,kitchener,..,fairway,..,..,on
80894,..,trail,kitchener,..,trillium,..,..,on
80895,..,trail,kitchener,..,trillium,..,..,on
80896,..,trail,kitchener,..,trillium,..,..,on
80897,..,trail,kitchener,..,trillium,..,..,on
