Index,Facility_Name,ODRSF_facility_type,Provider,Street_No,Street_Name,Postal_Code,City,Prov_Terr
175735,Shadyridge Woods,park,kitchener,..,shadyridge,..,..,on
175756,Shantz Park,park,kitchener,451,manchester,..,..,on
175859,Shoemaker Creek Greenway,park,kitchener,..,kent,..,..,on
175860,Shoemaker Greenway,park,kitchener,..,kehl,..,..,on
175876,Shupe Green,park,kitchener,..,ottawa,..,..,on
175899,Silver Green,park,kitchener,..,silver aspen,..,..,on
175943,Sims Estate - Swp,park,kitchener,251,sims,..,..,on
176090,Sophia Park,park,kitchener,97,sophia,..,..,on
176147,South Upper Canada Park,park,kitchener,216,pioneer,..,..,on
176186,Southridge Park,park,kitchener,1455,queens,..,..,on
176215,Speakers Corner,park,kitchener,69,king,..,..,on
176251,Springdale Green Natural Area,park,kitchener,..,springdale,..,..,on
176278,Springmount Park,park,kitchener,27,springmount,..,..,on
176280,Springmount Park Natural Area,park,kitchener,227,springmount,..,..,on
176285,Springwood Park,park,kitchener,..,wellington,..,..,on
176516,Stabler Green,park,kitchener,115,weber,..,..,on
176545,Stanley Park Conservation Area (Grca),park,kitchener,..,river,..,..,on
176547,Stanley Park Optimist Natural Area,park,kitchener,2500,victoria,..,..,on
176569,Stauffer Community Park,park,kitchener,..,stauffer,..,..,on
176575,Steckle Woods,park,kitchener,..,bleams,..,..,on
176579,Steepleridge St - Swp,park,kitchener,258,steepleridge,..,..,on
176607,Stirling Green,park,kitchener,..,stirling,..,..,on
176671,Strasburg Creek,park,kitchener,1891,strasburg,..,..,on
176672,Strasburg Creek North Branch,park,kitchener,535,trillium,..,..,on
176673,Strasburg Park Natural Area,park,kitchener,..,strasburg,..,..,on
176674,Strasburg Swp,park,kitchener,1735,strasburg,..,..,on
176675,Strasburg Woods,park,kitchener,..,strasburg,..,..,on
176766,Summerside Woods Park,park,kitchener,..,victoria,..,..,on
176848,Sussex Greenway,park,kitchener,..,ridgemount,..,..,on
176911,Sylvia Park,park,kitchener,25,sylvia,..,..,on
177001,Tecumseh Park,park,kitchener,140,indian,..,..,on
177019,Templewood Park,park,kitchener,145,templewood,..,..,on
177097,Thistle Down Green - Swp,park,kitchener,90,erinbrook,..,..,on
177108,Thomas Pedder Open Space,park,kitchener,..,new dundee,..,..,on
177110,Thomas Slee Community Park,park,kitchener,..,thomas,..,..,on
177111,Thomas Slee Dr - Swp,park,kitchener,870,thomas,..,..,on
177112,Thomas Slee Park,park,kitchener,331,thomas,..,..,on
177182,Tilt Trail Park And Greenway,park,kitchener,..,elmbank trail,..,..,on
177183,Tilt's Bush,park,kitchener,139,bechtel,..,..,on
177185,Tilt's Trail,trail,kitchener,..,tilt,..,..,on
177186,Tilt's Trail,trail,kitchener,..,tilt,..,..,on
177187,Tilt's Trail,trail,kitchener,..,tilt,..,..,on
177188,Tilt's Trail,trail,kitchener,..,elmbank trail,..,..,on
177189,Tilt's Trail,trail,kitchener,..,groh,..,..,on
177196,Timberlane Park,park,kitchener,38,timberlane,..,..,on
177201,Timm Park,park,kitchener,360,gage,..,..,on
177276,Topper Woods,park,kitchener,404,doon,..,..,on
177277,Topper Woods Cres - Swp,park,kitchener,471,robert,..,..,on
177334,Trail Link To Countryside Park,park,kitchener,..,erinbrook,..,..,on
