Index,Facility_Name,ODRSF_facility_type,Provider,Street_No,Street_Name,Postal_Code,City,Prov_Terr
131743,..,trail,province of ontario,..,..,..,..,on
131844,..,trail,province of ontario,..,..,..,..,on
131902,..,trail,province of ontario,..,..,..,..,on
131925,..,trail,province of ontario,..,..,..,..,on
132005,..,trail,province of ontario,..,..,..,..,on
132109,..,trail,province of ontario,..,..,..,..,on
132138,..,trail,province of ontario,..,..,..,..,on
132271,..,trail,province of ontario,..,..,..,..,on
132308,..,trail,province of ontario,..,..,..,..,on
132456,..,trail,province of ontario,..,..,..,..,on
132870,..,trail,province of ontario,..,..,..,..,on
132886,..,trail,province of ontario,..,..,..,..,on
132945,..,trail,province of ontario,..,..,..,..,on
133078,..,trail,province of ontario,..,..,..,..,on
133119,..,trail,province of ontario,..,..,..,..,on
133144,..,trail,province of ontario,..,..,..,..,on
133179,..,trail,province of ontario,..,..,..,..,on
162068,Abram Stauffer Green,park,kitchener,..,tilt,..,..,on
162081,Activa Sportsplex Natural Area,park,kitchener,135,lennox,..,..,on
162100,Admiral Park,park,kitchener,93,roxborough,..,..,on
162270,Alpine Park,park,kitchener,175,kingswood,..,..,on
162272,Alpine Park Natural Area,park,kitchener,175,kingswood,..,..,on
162283,Amand Drive - Swp,park,kitchener,..,amand,..,..,on
162284,Amand Natural Area,park,kitchener,..,shady,..,..,on
162483,Argyle Park,park,kitchener,80,argyle,..,..,on
162522,Arnold Park,park,kitchener,70,arnold,..,..,on
162529,Arrowhead Park,park,kitchener,116,arrowhead,..,..,on
162567,Ash Park,park,kitchener,7,ash,..,..,on
162667,Autumn Ridge Trail Link,park,kitchener,..,pinnacle,..,..,on
162742,Balzer - Manitou Trail,park,kitchener,..,manitou,..,..,on
162743,Balzer Greenway,park,kitchener,..,country hill,..,..,on
162744,Balzer Greenway East Natural Area,park,kitchener,255,fallowfield,..,..,on
162745,Balzer Rd - Swp,park,kitchener,151,balzer,..,..,on
162750,Bancroft Street - Swp,park,kitchener,69,bancroft,..,..,on
162752,Banffshire Park,park,kitchener,85,banffshire,..,..,on
162757,Bankside Park,park,kitchener,292,bankside,..,..,on
162854,Battler Road - Greenway,park,kitchener,..,battler,..,..,on
162855,Battler Road - Swp,park,kitchener,225,huron,..,..,on
162979,Beaumont Park,park,kitchener,345,beaumont,..,..,on
163014,Bechtel Park (Mto),park,kitchener,..,springdale,..,..,on
163034,Beechcroft Place - Swp,park,kitchener,17,beechcroft,..,..,on
163102,Belmont Park,park,kitchener,285,belmont,..,..,on
163279,Biehn Park,park,kitchener,135,pioneer,..,..,on
163400,Blair Creek - Swp#C,park,kitchener,..,blair,..,..,on
163401,Blair Creek - Swp#D,park,kitchener,..,blair,..,..,on
163402,Blair Creek Natural Area,park,kitchener,..,blair,..,..,on
163425,Block Line Rd - Swp,park,kitchener,..,block line,..,..,on
163446,Blue Spring Woods,park,kitchener,..,keewatin,..,..,on
163530,Borden Wetlands,park,kitchener,1085,hallman,..,..,on
