Index,Facility_Name,ODRSF_facility_type,Provider,Street_No,Street_Name,Postal_Code,City,Prov_Terr
80146,..,trail,kitchener,..,eden,..,..,on
80147,..,trail,kitchener,..,cherry,..,..,on
80148,..,trail,kitchener,..,patricia,..,..,on
80149,..,trail,kitchener,..,schneider,..,..,on
80150,..,trail,kitchener,..,schneider,..,..,on
80151,..,trail,kitchener,..,royal orchard,..,..,on
80152,..,trail,kitchener,..,royal orchard,..,..,on
80153,..,trail,kitchener,..,ottawa,..,..,on
80154,..,trail,kitchener,..,roseneath,..,..,on
80155,..,trail,kitchener,..,barwood,..,..,on
80156,..,trail,kitchener,..,ottawa,..,..,on
80157,..,trail,kitchener,..,river,..,..,on
80158,..,trail,kitchener,..,notchwood,..,..,on
80159,..,trail,kitchener,..,activa,..,..,on
80160,..,trail,kitchener,..,river,..,..,on
80161,..,trail,kitchener,..,block line,..,..,on
80162,..,trail,kitchener,..,fischer hallman,..,..,on
80163,..,trail,kitchener,..,maplewood,..,..,on
80164,..,trail,kitchener,..,union,..,..,on
80165,..,trail,kitchener,..,union,..,..,on
80166,..,trail,kitchener,..,glenvista,..,..,on
80167,..,trail,kitchener,..,smithson,..,..,on
80168,..,trail,kitchener,..,suffolk,..,..,on
80169,..,trail,kitchener,..,trailwood,..,..,on
80170,..,trail,kitchener,..,fischer hallman,..,..,on
80171,..,trail,kitchener,..,..,..,..,on
80172,..,trail,kitchener,..,paulander,..,..,on
80173,..,trail,kitchener,..,westmount,..,..,on
80174,..,trail,kitchener,..,westmount,..,..,on
80175,..,trail,kitchener,..,block line,..,..,on
80176,..,trail,kitchener,..,block line,..,..,on
80177,..,trail,kitchener,..,joseph schoerg,..,..,on
80178,..,trail,kitchener,..,joseph schoerg,..,..,on
80179,..,trail,kitchener,..,joseph schoerg,..,..,on
80180,..,trail,kitchener,..,resurrection,..,..,on
80181,..,trail,kitchener,..,vanier,..,..,on
80182,..,trail,kitchener,..,crosby,..,..,on
80183,..,trail,kitchener,..,hickson,..,..,on
80184,..,trail,kitchener,..,homer watson,..,..,on
80185,..,trail,kitchener,..,homer watson,..,..,on
80186,..,trail,kitchener,..,notchwood,..,..,on
80187,..,trail,kitchener,..,rush meadow,..,..,on
80188,..,trail,kitchener,..,lennox lewis,..,..,on
80189,..,trail,kitchener,..,homer watson,..,..,on
80190,..,trail,kitchener,..,gilmour,..,..,on
80191,..,trail,kitchener,..,kilbirnie,..,..,on
80192,..,trail,kitchener,..,ash,..,..,on
80193,..,trail,kitchener,..,rothsay,..,..,on
80194,..,trail,kitchener,..,niagara,..,..,on
