Index,Facility_Name,ODRSF_facility_type,Provider,Street_No,Street_Name,Postal_Code,City,Prov_Terr
25714,Dominic Cardillo Trail,trail,kitchener,..,kenora,..,..,on
25715,Dominic Cardillo Trail,trail,kitchener,..,conway,..,..,on
25716,Dominic Cardillo Trail,trail,kitchener,..,conway,..,..,on
25717,Dominic Cardillo Trail,trail,kitchener,..,river,..,..,on
25718,Dominic Cardillo Trail,trail,kitchener,..,river,..,..,on
25719,Dominic Cardillo Trail,trail,kitchener,..,midland,..,..,on
25720,Dominic Cardillo Trail,trail,kitchener,..,veronica,..,..,on
25721,Dominic Cardillo Trail,trail,kitchener,..,veronica,..,..,on
25722,Dominic Cardillo Trail,trail,kitchener,..,veronica,..,..,on
25723,Dominic Cardillo Trail,trail,kitchener,..,veronica,..,..,on
25839,Doon,trail,kitchener,..,..,..,kitchener,on
25840,Doon,trail,kitchener,..,..,..,kitchener,on
25841,Doon,trail,kitchener,..,..,..,kitchener,on
25842,Doon,trail,kitchener,..,..,..,kitchener,on
25843,Doon,trail,kitchener,..,..,..,kitchener,on
25844,Doon,trail,kitchener,..,..,..,kitchener,on
25845,Doon,trail,kitchener,..,..,..,kitchener,on
25846,Doon,trail,kitchener,..,..,..,kitchener,on
25847,Doon,trail,kitchener,..,..,..,kitchener,on
25848,Doon,trail,kitchener,..,..,..,kitchener,on
27303,Forest Trail,trail,kitchener,..,..,..,kitchener,on
27304,Forest Trail,trail,kitchener,..,..,..,kitchener,on
27305,Forest Trail,trail,kitchener,..,..,..,kitchener,on
27306,Forest Trail,trail,kitchener,..,..,..,kitchener,on
27524,Fox Glove Park,trail,kitchener,..,..,..,kitchener,on
28386,Grand River Trail,trail,kitchener,..,victoria,..,kitchener,on
28387,Grand River Trail,trail,kitchener,..,victoria,..,kitchener,on
28388,Grand River Trail,trail,kitchener,..,..,..,kitchener,on
28389,Grand River Trail,trail,kitchener,..,..,..,kitchener,on
28390,Grand River Trail,trail,kitchener,..,..,..,kitchener,on
28391,Grand River Trail,trail,kitchener,..,..,..,kitchener,on
28392,Grand River Trail,trail,kitchener,..,..,..,kitchener,on
28393,Grand River Trail,trail,kitchener,..,..,..,kitchener,on
28394,Grand River Trail,trail,kitchener,..,fairway,..,kitchener,on
28395,Grand River Trail,trail,kitchener,..,fairway,..,kitchener,on
28422,Grand Valley Trail,trail,kitchener,..,ottawa,..,kitchener,on
28423,Grand Valley Trail,trail,kitchener,..,..,..,kitchener,on
28424,Grand Valley Trail,trail,kitchener,..,..,..,kitchener,on
28425,Grand Valley Trail,trail,kitchener,..,..,..,kitchener,on
28426,Grand Valley Trail,trail,kitchener,..,homer watson,..,kitchener,on
28427,Grand Valley Trail,trail,kitchener,..,fairway,..,kitchener,on
28428,Grand Valley Trail,trail,kitchener,..,..,..,kitchener,on
28431,Grand Valley Trail,trail,kitchener,..,..,..,kitchener,on
28444,Grand Valley Trail,trail,kitchener,..,..,..,kitchener,on
28447,Grand Valley Trail,trail,kitchener,..,new dundee,..,kitchener,on
28448,Grand Valley Trail,trail,kitchener,..,new dundee,..,kitchener,on
28449,Grand Valley Trail,trail,kitchener,..,..,..,kitchener,on
28450,Grand Valley Trail,trail,kitchener,..,..,..,kitchener,on
28464,Grand Valley Trail,trail,kitchener,..,victoria,..,kitchener,on
