Index,Facility_Name,ODRSF_facility_type,Provider,Street_No,Street_Name,Postal_Code,City,Prov_Terr
52084,Seagram Dr,trail,waterloo region,..,..,..,..,on
52085,Seagram Lot,trail,waterloo region,..,..,..,..,on
52157,Shakespeare Dr To Apache Dr,trail,waterloo region,..,..,..,..,on
52169,Shediac Cres To Grand Banks Dr,trail,waterloo region,..,..,..,..,on
52170,Shediac Cres To New Hampshire St,trail,waterloo region,..,..,..,..,on
52171,Shediac Cres To Shediac Cres,trail,waterloo region,..,..,..,..,on
53896,Sleaford St To Dearborn Blvd,trail,waterloo region,..,..,..,..,on
53921,Snyder-Gingrich Pond,trail,kitchener,..,..,..,waterloo,on
53922,Snyder-Gingrich Swm Area,trail,waterloo region,..,..,..,..,on
54105,Spinnaker Cres To Chesapeake Cres,trail,waterloo region,..,..,..,..,on
54110,Spring Garden Swm A,trail,waterloo region,..,..,..,..,on
54111,Spring Garden Swm A,trail,waterloo region,..,..,..,..,on
54162,Sprucehurst Cres To Monarch Pl,trail,waterloo region,..,..,..,..,on
54169,Spurline Trail,trail,waterloo region,..,..,..,..,on
54170,Spurline Trail,trail,waterloo region,..,..,..,..,on
54172,Spurline Trail,trail,waterloo region,..,..,..,..,on
54173,Spurline Trail,trail,waterloo region,..,..,..,..,on
54174,Spurline Trail,trail,waterloo region,..,..,..,..,on
54175,Spurline Trail,trail,waterloo region,..,..,..,..,on
54176,Spurline Trail Laurel Trail,trail,waterloo region,..,..,..,..,on
54220,St Moritz Ave,trail,waterloo region,..,..,..,..,on
54236,St. Moritz Park,trail,waterloo region,..,..,..,..,on
54237,St. Moritz Park To Brandenburg Pl,trail,waterloo region,..,..,..,..,on
54269,Stamm Woodlot,trail,waterloo region,..,..,..,..,on
54270,Stamm Woodlot,trail,waterloo region,..,..,..,..,on
54271,Stamm Woodlot,trail,waterloo region,..,..,..,..,on
54272,Stamm Woodlot,trail,waterloo region,..,..,..,..,on
54273,Stamm Woodlot,trail,waterloo region,..,..,..,..,on
54274,Stamm Woodlot,trail,kitchener,..,..,..,waterloo,on
54275,Stamm Woodlot,trail,kitchener,..,..,..,waterloo,on
54276,Stamm Woodlot,trail,kitchener,..,..,..,waterloo,on
54277,Stamm Woodlot,trail,kitchener,..,..,..,waterloo,on
54278,Stamm Woodlot,trail,kitchener,..,..,..,waterloo,on
54279,Stamm Woodlot,trail,kitchener,..,..,..,waterloo,on
54280,Stamm Woodlot,trail,kitchener,..,..,..,waterloo,on
54281,Stamm Woodlot,trail,kitchener,..,..,..,waterloo,on
54282,Stamm Woodlot,trail,kitchener,..,..,..,waterloo,on
54283,Stamm Woodlot,trail,kitchener,..,..,..,waterloo,on
54342,Stillmeadow Cir To Columbia St W,trail,waterloo region,..,..,..,..,on
54343,Stillmeadow Park,trail,waterloo region,..,..,..,..,on
54344,Stillmeadow Park To Stillmeadow Cir,trail,waterloo region,..,..,..,..,on
54362,Stonehaven Dr To Fischer-Hallman Rd S,trail,waterloo region,..,..,..,..,on
54363,Stonehaven Dr To University Ave W,trail,waterloo region,..,..,..,..,on
54364,Stonehaven Park,trail,waterloo region,..,..,..,..,on
54450,Sugarbush Park,trail,waterloo region,..,..,..,..,on
54451,Sugarbush Park,trail,waterloo region,..,..,..,..,on
54452,Sugarbush Park,trail,waterloo region,..,..,..,..,on
54453,Sugarbush Park,trail,kitchener,..,..,..,waterloo,on
54454,Sugarbush Park,trail,kitchener,..,..,..,waterloo,on
