Index,Facility_Name,ODRSF_facility_type,Provider,Street_No,Street_Name,Postal_Code,City,Prov_Terr
62837,Twin Oaks Cres To Twin Oaks Park,trail,waterloo region,..,..,..,..,on
62838,Twin Oaks Park,trail,waterloo region,..,..,..,..,on
62839,Twin Oaks Park,trail,waterloo region,..,..,..,..,on
62840,Twin Oaks Park,trail,waterloo region,..,..,..,..,on
62841,Twin Oaks Park,trail,waterloo region,..,..,..,..,on
62842,Twin Oaks Park,trail,waterloo region,..,..,..,..,on
62843,Twin Oaks Park,trail,waterloo region,..,..,..,..,on
62844,Twin Oaks Park,trail,waterloo region,..,..,..,..,on
62845,Twin Oaks Park,trail,kitchener,..,..,..,waterloo,on
62846,Twin Oaks Park,trail,kitchener,..,..,..,waterloo,on
62847,Twin Oaks Park,trail,kitchener,..,..,..,waterloo,on
62848,Twin Oaks Park To Brookhaven Cres,trail,waterloo region,..,..,..,..,on
62915,University Ave E To Angler Way,trail,waterloo region,..,..,..,..,on
62916,University Ave E To Grand Banks Dr,trail,waterloo region,..,..,..,..,on
62917,University Ave E To Rim Park,trail,waterloo region,..,..,..,..,on
62918,University Ave E To Strawberry Cres,trail,waterloo region,..,..,..,..,on
62919,University Ave W,trail,waterloo region,..,..,..,..,on
62920,University Ave W,trail,waterloo region,..,..,..,..,on
62921,University Ave W To Ashby Crt,trail,waterloo region,..,..,..,..,on
62922,University Downs Cres To Melitzer Woodlot,trail,waterloo region,..,..,..,..,on
62923,University Downs Park,trail,waterloo region,..,..,..,..,on
62924,University Downs Park,trail,waterloo region,..,..,..,..,on
62925,University Downs Park,trail,waterloo region,..,..,..,..,on
62926,University Downs Park,trail,waterloo region,..,..,..,..,on
62927,University Downs Park,trail,waterloo region,..,..,..,..,on
62928,University Downs Park To Rosette Dr,trail,waterloo region,..,..,..,..,on
63039,University Of Waterloo Trail,trail,waterloo region,..,..,..,..,on
63040,University Of Waterloo Trail,trail,waterloo region,..,..,..,..,on
63041,University Of Waterloo Trail,trail,waterloo region,..,..,..,..,on
63042,University Of Waterloo Trail,trail,waterloo region,..,..,..,..,on
63043,University Of Waterloo Trail,trail,waterloo region,..,..,..,..,on
63044,University Of Waterloo Trail,trail,waterloo region,..,..,..,..,on
63045,University Of Waterloo Trail,trail,waterloo region,..,..,..,..,on
63046,University Of Waterloo Trail,trail,waterloo region,..,..,..,..,on
63047,University Of Waterloo Trail,trail,waterloo region,..,..,..,..,on
63048,University Of Waterloo Trail,trail,waterloo region,..,..,..,..,on
63049,University Of Waterloo Trail,trail,waterloo region,..,..,..,..,on
63050,University Of Waterloo Trail,trail,waterloo region,..,..,..,..,on
63051,University Of Waterloo Trail,trail,waterloo region,..,..,..,..,on
63052,University Of Waterloo Trail,trail,waterloo region,..,..,..,..,on
63053,University Of Waterloo Trail,trail,waterloo region,..,..,..,..,on
63054,University Of Waterloo Trail,trail,waterloo region,..,..,..,..,on
63055,University Of Waterloo Trail,trail,waterloo region,..,..,..,..,on
65087,Vermont St,trail,waterloo region,..,..,..,..,on
65088,Veterans' Green,trail,waterloo region,..,..,..,..,on
65089,Veterans' Green,trail,waterloo region,..,..,..,..,on
65090,Veterans' Green,trail,waterloo region,..,..,..,..,on
65091,Veterans' Green,trail,waterloo region,..,..,..,..,on
65092,Veterans' Green,trail,waterloo region,..,..,..,..,on
