Index,Facility_Name,ODRSF_facility_type,Provider,Street_No,Street_Name,Postal_Code,City,Prov_Terr
15185,Rbj Schlegel Park Tennis Court 3,sports field,kitchener,..,..,..,..,on
15227,Resurrection High School Soccer Field-1,sports field,kitchener,455,university,..,..,on
15228,Resurrection High School Soccer Field-2,sports field,kitchener,455,university,..,..,on
15229,Resurrection High School Soccer/Football Main,sports field,kitchener,455,university,..,..,on
15230,Resurrection High School Tennis Court,sports field,kitchener,455,university,..,..,on
15295,Rittenhouse Park Ball Diamond,sports field,kitchener,345,rittenhouse,..,..,on
15328,Riveredge Golf Course,sports field,kitchener,245,edgehill,..,kitchener,on
15402,Rockway Centre Horseshoe Pitches,sports field,kitchener,1405,king,..,..,on
15404,Rockway Golf Course,sports field,kitchener,625,rockway,..,kitchener,on
15405,Rockway Public School Ball Diamond-1,sports field,kitchener,70,vanier,..,..,on
15406,Rockway Public School Ball Diamond-2,sports field,kitchener,70,vanier,..,..,on
15407,Rockway Public School Soccer Field,sports field,kitchener,70,vanier,..,..,on
15418,Rolling Meadows Park Ball Diamond,sports field,kitchener,..,rolling,..,..,on
15441,Rosemount School Field Hockey-1,sports field,kitchener,80,burlington,..,..,on
15442,Rosemount School Field Hockey-2,sports field,kitchener,80,burlington,..,..,on
15443,Rosenberg Park Ball Diamond 1,sports field,kitchener,600,heritage,..,..,on
15444,Rosenberg Park Ball Diamond 2,sports field,kitchener,600,heritage,..,..,on
15611,Sandhills Park 1/2 Basketball Court,sports field,kitchener,130,cedar,..,..,on
15612,Sandhills Park Basketball Court,sports field,kitchener,130,cedar,..,..,on
15654,Schaefer Park Horseshoe Pitches,sports field,kitchener,75,bloomingdale,..,..,on
15656,School To Input,sports field,kitchener,335,seabrook,..,..,on
15774,Sheppard Public School Ball Diamond 1,sports field,kitchener,278,weber,..,..,on
15963,Smithson Public School Soccer Field-2,sports field,kitchener,150,belleview,..,..,on
15964,Smithson School Ball Diamond 1,sports field,kitchener,150,belleview,..,..,on
15965,Smithson School Soccer Field-1,sports field,kitchener,150,belleview,..,..,on
16926,Southridge Park Ball Diamond,sports field,kitchener,1425,queens,..,..,on
16927,Southridge Park Soccer Field,sports field,kitchener,1425,queens,..,..,on
16929,Southridge School Ball Diamond,sports field,kitchener,1425,queens,..,..,on
16930,Southridge School Soccer Field,sports field,kitchener,1425,queens,..,..,on
16964,St Aloysius School Ball Diamond 1,sports field,kitchener,504,connaught,..,..,on
16965,St Aloysius School Ball Diamond 2,sports field,kitchener,504,connaught,..,..,on
16972,St Anne Seperate School Ball Diamond,sports field,kitchener,250,east,..,kitchener,on
17018,St Dominic Savio Separate School Soccer Field,sports field,kitchener,3,westforest,..,..,on
17053,St Mark Separate School Ball Diamond,sports field,kitchener,240,hill,..,..,on
17054,St Mark Separate School Soccer Field,sports field,kitchener,240,hill,..,..,on
17064,St Marys High School Football/Soccer Field,sports field,kitchener,1500,block line,..,..,on
17065,St Marys High School Practice Field,sports field,kitchener,1500,block line,..,..,on
17074,St Patrick School Ball Diamond,sports field,kitchener,50,burgetz,..,..,on
17077,St Paul School Ball Diamond,sports field,kitchener,45,birchcliff,..,..,on
17099,St Timothy Separate School Ball Diamond,sports field,kitchener,15,bechtel,..,..,on
17263,Stanford Academy Ball Diamond,sports field,kitchener,146,trafalgar,..,..,on
17270,Stanley Park C.C. Basketball Court,sports field,kitchener,505,franklin,..,..,on
17271,Stanley Park C.C. Basketball Court,sports field,kitchener,505,franklin,..,..,on
17272,Stanley Park Public School Basketball Court,sports field,kitchener,191,hickson,..,..,on
17273,Stanley Park Senior Public School Tennis Court,sports field,kitchener,191,hickson,..,..,on
17427,Sunnyside Public School Ball Diamond,sports field,kitchener,1042,weber,..,..,on
17428,Sunnyside Public School Baskeball Court,sports field,kitchener,1042,weber,..,..,on
17429,Sunnyside Public School Soccer Field,sports field,kitchener,1042,weber,..,..,on
17430,Sunnyside Public School Tennis Court,sports field,kitchener,1042,weber,..,..,on
