Index,Facility_Name,ODRSF_facility_type,Provider,Street_No,Street_Name,Postal_Code,City,Prov_Terr
22699,Bridge St W,trail,waterloo region,..,..,..,..,on
22700,Bridge St W,trail,waterloo region,..,..,..,..,on
22701,Bridge St W,trail,waterloo region,..,..,..,..,on
22702,Bridge St W,trail,waterloo region,..,..,..,..,on
22703,Bridge St W To Bridge St W,trail,waterloo region,..,..,..,..,on
22704,Bridge St W To Bridge St W,trail,waterloo region,..,..,..,..,on
22705,Bridge St W To Brigantine Dr,trail,waterloo region,..,..,..,..,on
22706,Bridge St W To Forestlawn Rd,trail,waterloo region,..,..,..,..,on
22707,Bridge St W To Lee Cir,trail,waterloo region,..,..,..,..,on
22708,Bridge St W To Spinnaker Cres,trail,waterloo region,..,..,..,..,on
22714,Bridle Trail,trail,waterloo region,..,..,..,..,on
22715,Bridle Trail,trail,waterloo region,..,..,..,..,on
22716,Bridle Trail,trail,waterloo region,..,..,..,..,on
22717,Bridle Trail,trail,waterloo region,..,..,..,..,on
22772,Brookhaven Cres To Cedarbrae Public School,trail,waterloo region,..,..,..,..,on
22775,Brookmill Cres To Beaver Creek Cres,trail,waterloo region,..,..,..,..,on
22776,Brookmill Pl,trail,waterloo region,..,..,..,..,on
22901,Buckingham Blvd To Sandbrooke Hydro Corridor,trail,waterloo region,..,..,..,..,on
23123,Bushview Cres To Conservation Dr,trail,waterloo region,..,..,..,..,on
23124,Buttercup Crt To Wideman Rd,trail,waterloo region,..,..,..,..,on
23125,Butternut Ave To Royal Fern St,trail,waterloo region,..,..,..,..,on
23126,Butternut Ave To Star Flower Ave,trail,waterloo region,..,..,..,..,on
23127,Butternut Link,trail,waterloo region,..,..,..,..,on
23128,Buttonbush St To Columbia St W,trail,waterloo region,..,..,..,..,on
23187,Cadbury Crt To Bairstow Cres,trail,waterloo region,..,..,..,..,on
23264,Calvington Pl To Roxton Park,trail,waterloo region,..,..,..,..,on
23276,Camelot Park,trail,waterloo region,..,..,..,..,on
23277,Camelot Park,trail,waterloo region,..,..,..,..,on
23278,Camelot Park,trail,kitchener,..,..,..,waterloo,on
23279,Camelot Park,trail,kitchener,..,..,..,waterloo,on
23280,Camelot Park To Cadbury Crt,trail,waterloo region,..,..,..,..,on
23345,Candlewood Cres To Briarcliffe Cres,trail,waterloo region,..,..,..,..,on
23346,Candlewood Cres To Centennial Public School,trail,waterloo region,..,..,..,..,on
23466,Cardinal Cres S,trail,waterloo region,..,..,..,..,on
23467,Cardinal Cres To ?,trail,waterloo region,..,..,..,..,on
23499,Caroline St N To Erb St W,trail,waterloo region,..,..,..,..,on
23505,Carriage House Crt To University Downs Park,trail,waterloo region,..,..,..,..,on
23511,Carriage Way Park,trail,waterloo region,..,..,..,..,on
23512,Carriage Way Park,trail,waterloo region,..,..,..,..,on
23513,Carriage Way Park,trail,waterloo region,..,..,..,..,on
23514,Carriage Way Walkway To Carriage Way,trail,waterloo region,..,..,..,..,on
23515,Carrington Pl To Leighland Park,trail,waterloo region,..,..,..,..,on
23639,Cavelletti Crt To Pastern Trail,trail,waterloo region,..,..,..,..,on
23651,Cedar Bend Swm Area,trail,waterloo region,..,..,..,..,on
23652,Cedar Bend Swm Area,trail,waterloo region,..,..,..,..,on
23707,Cedarvale Cres To Parkside Dr Connection,trail,kitchener,..,..,..,waterloo,on
23902,Chesapeake Park,trail,waterloo region,..,..,..,..,on
23903,Chesapeake Park,trail,waterloo region,..,..,..,..,on
23904,Chesapeake Park,trail,waterloo region,..,..,..,..,on
