Index,Facility_Name,ODRSF_facility_type,Provider,Street_No,Street_Name,Postal_Code,City,Prov_Terr
78289,..,trail,kitchener,..,highbrook,..,..,on
78290,..,trail,kitchener,..,homer watson,..,..,on
78291,..,trail,kitchener,..,shelley,..,..,on
78292,..,trail,kitchener,..,dalegrove,..,..,on
78293,..,trail,kitchener,..,mill,..,..,on
78294,..,trail,kitchener,..,mill,..,..,on
78295,..,trail,kitchener,..,goundry,..,..,on
78296,..,trail,kitchener,..,rittenhouse,..,..,on
78297,..,trail,kitchener,..,kingston,..,..,on
78298,..,trail,kitchener,..,hickson,..,..,on
78299,..,trail,kitchener,..,brittania,..,..,on
78300,..,trail,kitchener,..,homestead,..,..,on
78301,..,trail,kitchener,..,..,..,..,on
78302,..,trail,kitchener,..,hedgestone,..,..,on
78303,..,trail,kitchener,..,hedgestone,..,..,on
78304,..,trail,kitchener,..,shelley,..,..,on
78305,..,trail,kitchener,..,hedgestone,..,..,on
78306,..,trail,kitchener,..,trailwood,..,..,on
78307,..,trail,kitchener,..,fischer hallman,..,..,on
78308,..,trail,kitchener,..,union,..,..,on
78309,..,trail,kitchener,..,krug,..,..,on
78310,..,trail,kitchener,..,archer,..,..,on
78311,..,trail,kitchener,..,wycliffe,..,..,on
78312,..,trail,kitchener,..,otterbein,..,..,on
78313,..,trail,kitchener,..,ludolph,..,..,on
78314,..,trail,kitchener,..,ludolph,..,..,on
78315,..,trail,kitchener,..,wentworth,..,..,on
78316,..,trail,kitchener,..,wilson,..,..,on
78317,..,trail,kitchener,..,kilkerran,..,..,on
78318,..,trail,kitchener,..,henhoeffer,..,..,on
78319,..,trail,kitchener,..,commonwealth,..,..,on
78320,..,trail,kitchener,..,helena feasby,..,..,on
78321,..,trail,kitchener,..,natchez,..,..,on
78322,..,trail,kitchener,..,rothsay,..,..,on
78323,..,trail,kitchener,..,rothsay,..,..,on
78324,..,trail,kitchener,..,rothsay,..,..,on
78325,..,trail,kitchener,..,highland,..,..,on
78326,..,trail,kitchener,..,highland,..,..,on
78327,..,trail,kitchener,..,highland,..,..,on
78328,..,trail,kitchener,..,highview,..,..,on
78329,..,trail,kitchener,..,highview,..,..,on
78330,..,trail,kitchener,..,highview,..,..,on
78331,..,trail,kitchener,..,eden oak,..,..,on
78332,..,trail,kitchener,..,eden oak,..,..,on
78333,..,trail,kitchener,..,fairway,..,..,on
78334,..,trail,kitchener,..,ottawa,..,..,on
78335,..,trail,kitchener,..,david,..,..,on
78336,..,trail,kitchener,..,jubilee,..,..,on
78337,..,trail,kitchener,..,jubilee,..,..,on
