Index,Facility_Name,ODRSF_facility_type,Provider,Street_No,Street_Name,Postal_Code,City,Prov_Terr
26507,Erbsville Rd To Werni Crt,trail,waterloo region,..,..,..,..,on
26508,Erbsville Rd To Wild Ginger Ave,trail,waterloo region,..,..,..,..,on
26754,Exmoor Park,trail,waterloo region,..,..,..,..,on
26755,Exmoor St To Downsview Pl,trail,waterloo region,..,..,..,..,on
26876,Father David Bauer Dr To Euclid Ave,trail,waterloo region,..,..,..,..,on
26877,Father David Bauer Dr To Waterloo Park,trail,waterloo region,..,..,..,..,on
26925,Fern Cres To Lakeshore Optimist Park,trail,waterloo region,..,..,..,..,on
26926,Fern Cres To Red Oak Pl,trail,waterloo region,..,..,..,..,on
26927,Fern Cres To Skyview Pl,trail,waterloo region,..,..,..,..,on
27028,Fischer-Hallman Rd N,trail,waterloo region,..,..,..,..,on
27029,Fischer-Hallman Rd N,trail,waterloo region,..,..,..,..,on
27030,Fischer-Hallman Rd N,trail,waterloo region,..,..,..,..,on
27031,Fischer-Hallman Rd N,trail,waterloo region,..,..,..,..,on
27032,Fischer-Hallman Rd N,trail,waterloo region,..,..,..,..,on
27033,Fischer-Hallman Rd N,trail,waterloo region,..,..,..,..,on
27034,Fischer-Hallman Rd N,trail,waterloo region,..,..,..,..,on
27035,Fischer-Hallman Rd N,trail,waterloo region,..,..,..,..,on
27036,Fischer-Hallman Rd N,trail,waterloo region,..,..,..,..,on
27037,Fischer-Hallman Rd S To Belgreen Way,trail,waterloo region,..,..,..,..,on
27038,Fischer-Hallman Rd S To Southampton Pl,trail,waterloo region,..,..,..,..,on
27241,Forest Gate Swm Area To Forest Gate Cres,trail,waterloo region,..,..,..,..,on
27308,Forested Hills,trail,waterloo region,..,..,..,..,on
27309,Forested Hills,trail,waterloo region,..,..,..,..,on
27310,Forested Hills,trail,waterloo region,..,..,..,..,on
27311,Forested Hills,trail,kitchener,..,..,..,waterloo,on
27312,Forested Hills,trail,kitchener,..,..,..,waterloo,on
27313,Forested Hills,trail,kitchener,..,..,..,waterloo,on
27314,Forested Hills,trail,kitchener,..,..,..,waterloo,on
27315,Forested Hills,trail,kitchener,..,..,..,waterloo,on
27316,Forested Hills,trail,kitchener,..,..,..,waterloo,on
27317,Forested Hills,trail,kitchener,..,..,..,waterloo,on
27318,Forested Hills,trail,kitchener,..,..,..,waterloo,on
27319,Forested Hills,trail,kitchener,..,..,..,waterloo,on
27320,Forested Hills,trail,kitchener,..,..,..,waterloo,on
27321,Forested Hills,trail,kitchener,..,..,..,waterloo,on
27322,Forested Hills - E.S.P.A. 19,trail,waterloo region,..,..,..,..,on
27323,Forested Hills - E.S.P.A. 19,trail,waterloo region,..,..,..,..,on
27324,Forested Hills - E.S.P.A. 19,trail,waterloo region,..,..,..,..,on
27325,Forested Hills - E.S.P.A. 19,trail,waterloo region,..,..,..,..,on
27326,Forested Hills - E.S.P.A. 19,trail,waterloo region,..,..,..,..,on
27327,Forested Hills - E.S.P.A. 19,trail,waterloo region,..,..,..,..,on
27328,Forested Hills - E.S.P.A. 19,trail,waterloo region,..,..,..,..,on
27329,Forested Hills - E.S.P.A. 19,trail,waterloo region,..,..,..,..,on
27330,Forested Hills - E.S.P.A. 19,trail,waterloo region,..,..,..,..,on
27331,Forested Hills - E.S.P.A. 19,trail,waterloo region,..,..,..,..,on
27332,Forested Hills - E.S.P.A. 19,trail,waterloo region,..,..,..,..,on
27333,Forested Hills - E.S.P.A. 19,trail,waterloo region,..,..,..,..,on
27334,Forested Hills - E.S.P.A. 19,trail,waterloo region,..,..,..,..,on
27335,Forested Hills - E.S.P.A. 19,trail,waterloo region,..,..,..,..,on
