Index,Facility_Name,ODRSF_facility_type,Provider,Street_No,Street_Name,Postal_Code,City,Prov_Terr
30671,Iron Horse Trail,trail,kitchener,..,victoria,..,..,on
30672,Iron Horse Trail,trail,kitchener,..,victoria,..,..,on
30673,Iron Horse Trail,trail,kitchener,..,hurst,..,..,on
30674,Iron Horse Trail,trail,kitchener,..,esson,..,..,on
30675,Iron Horse Trail,trail,kitchener,..,mill,..,..,on
30676,Iron Horse Trail,trail,kitchener,..,belmont,..,..,on
30677,Iron Horse Trail,trail,kitchener,..,cherry,..,..,on
30678,Iron Horse Trail,trail,kitchener,..,david,..,..,on
30679,Iron Horse Trail,trail,kitchener,..,stirling,..,..,on
30680,Iron Horse Trail,trail,kitchener,..,stirling,..,..,on
30681,Iron Horse Trail,trail,kitchener,..,west,..,..,on
30682,Iron Horse Trail,trail,kitchener,..,patricia,..,..,on
30683,Iron Horse Trail,trail,kitchener,..,belmont,..,..,on
30684,Iron Horse Trail,trail,kitchener,..,mill,..,..,on
30685,Iron Horse Trail,trail,kitchener,..,madison,..,..,on
30686,Iron Horse Trail,trail,kitchener,..,whitney,..,..,on
30687,Iron Horse Trail,trail,kitchener,..,cherry,..,..,on
30688,Iron Horse Trail,trail,kitchener,..,mill,..,..,on
30689,Iron Horse Trail,trail,kitchener,..,kent,..,..,on
30690,Iron Horse Trail,trail,kitchener,..,kent,..,..,on
30691,Iron Horse Trail,trail,kitchener,..,belmont,..,..,on
30692,Iron Horse Trail,trail,kitchener,..,..,..,kitchener,on
30693,Iron Horse Trail,trail,kitchener,..,..,..,kitchener,on
30694,Iron Horse Trail,trail,kitchener,..,charles,..,kitchener,on
31300,Kingsdale Park,trail,kitchener,..,..,..,kitchener,on
31442,Kiwanis Park,trail,kitchener,..,..,..,kitchener,on
31443,Kiwanis Park,trail,kitchener,..,..,..,kitchener,on
31444,Kiwanis Park,trail,kitchener,..,..,..,kitchener,on
31447,Kiwanis Park,trail,kitchener,..,..,..,kitchener,on
31448,Kiwanis Park,trail,kitchener,..,..,..,kitchener,on
31449,Kiwanis Park,trail,kitchener,..,..,..,kitchener,on
31450,Kiwanis Park,trail,kitchener,..,..,..,kitchener,on
31451,Kiwanis Park,trail,kitchener,..,..,..,kitchener,on
31452,Kiwanis Park,trail,kitchener,..,..,..,kitchener,on
31453,Kiwanis Park,trail,kitchener,..,..,..,kitchener,on
31454,Kiwanis Park,trail,kitchener,..,..,..,kitchener,on
31455,Kiwanis Park,trail,kitchener,..,..,..,kitchener,on
31456,Kiwanis Park,trail,kitchener,..,..,..,kitchener,on
34831,Kolb Greenway,trail,kitchener,..,..,..,kitchener,on
34832,Kolb Park,trail,kitchener,..,..,..,kitchener,on
34833,Kolb Park,trail,kitchener,..,..,..,kitchener,on
34834,Kolb Park,trail,kitchener,..,..,..,kitchener,on
34835,Kolb Park,trail,kitchener,..,..,..,kitchener,on
34836,Kolb Park,trail,kitchener,..,..,..,kitchener,on
34879,Lackner To Forwell Trail,trail,kitchener,..,lackner,..,kitchener,on
34880,Lackner To Forwell Trail,trail,kitchener,..,..,..,kitchener,on
34881,Lackner To Forwell Trail,trail,kitchener,..,..,..,kitchener,on
34973,Lakeside Park,trail,kitchener,..,..,..,kitchener,on
34974,Lakeside Park,trail,kitchener,..,..,..,kitchener,on
