Index,Facility_Name,ODRSF_facility_type,Provider,Street_No,Street_Name,Postal_Code,City,Prov_Terr
177339,Trailview Park Natural Area,park,kitchener,21,trailview,..,..,on
177375,Traynor Park,park,kitchener,345,traynor,..,..,on
177383,Tremaine Park,park,kitchener,100,william,..,..,on
177497,Tyson Park,park,kitchener,20,tyson,..,..,on
177509,Union Lane Green,park,kitchener,220,union,..,..,on
177533,Uniroyal - Goodrich Park,park,kitchener,250,guelph,..,..,on
177693,Upper Canada Neighbourhood Park,park,kitchener,216,farrier,..,..,on
177695,Upper Canada Park,park,kitchener,120,pioneer,..,..,on
177697,Upper Canada Park Natural Area,park,kitchener,130,pioneer,..,..,on
177789,Vanier Park,park,kitchener,329,vanier,..,..,on
177827,Veronica Drive - Swp,park,kitchener,246,veronica,..,..,on
177831,Veterans' Green,park,kitchener,..,spadina,..,..,on
177832,Veterans' Green Interpretive Area,park,kitchener,..,spadina,..,..,on
177838,Veterans' Park,park,kitchener,75,lorne,..,..,on
177840,Veterans' Park Greenway,park,kitchener,..,st clair,..,..,on
177857,Victoria Green,park,kitchener,460,david,..,..,on
177863,Victoria Park,park,kitchener,92,david,..,..,on
177943,Vogelsang Green,park,kitchener,15,duke,..,..,on
177945,Voisin Greenway,park,kitchener,..,stonybrook,..,..,on
177946,Voisin Park,park,kitchener,225,activa,..,..,on
177980,Waldau Woods Park,park,kitchener,19,penelope,..,..,on
178006,Wallenberg Park,park,kitchener,160,weber,..,..,on
178071,Water Treatment Centre (Region),park,kitchener,368,mill,..,..,on
178073,Waterford Court Open Space,park,kitchener,30,pine,..,..,on
178142,Weber Park,park,kitchener,380,frederick,..,..,on
178237,West Oak Trail - Swp,park,kitchener,..,oak,..,..,on
178238,West Oak Trail Park,park,kitchener,80,oak,..,..,on
178275,Westchester Park,park,kitchener,173,westchester,..,..,on
178301,Westheights Park,park,kitchener,401,westheights,..,..,on
178303,Westheights Park Natural Area,park,kitchener,..,westheights,..,..,on
178307,Westmeadow Park,park,kitchener,281,westmeadow,..,..,on
178309,Westmeadow Park Natural Area,park,kitchener,201,westmeadow,..,..,on
178321,Westmount Drain,park,kitchener,..,victoria,..,..,on
178357,Westwood Park,park,kitchener,175,westwood,..,..,on
178363,Westwood Park Natural Area,park,kitchener,..,westwood,..,..,on
178367,Wetland Way Park,park,kitchener,165,blair,..,..,on
178378,Wheatfield Park,park,kitchener,103,wheatfield,..,..,on
178380,Wheatfield Park Greenway,park,kitchener,..,wheatfield,..,..,on
178531,Williamsburg Woods South,park,kitchener,..,seabrook,..,..,on
178547,Willow Green,park,kitchener,110,stirling,..,..,on
178566,Willowlake Park,park,kitchener,..,..,..,..,on
178569,Willowlake Park Greenway,park,kitchener,..,..,..,..,on
178572,Willowrun Park,park,kitchener,80,willowrun,..,..,on
178591,Wilson Park,park,kitchener,72,wilson,..,..,on
178594,Wilson Park Natural Area,park,kitchener,..,wilson,..,..,on
178606,Windale Park,park,kitchener,76,windale,..,..,on
178621,Windrush Park,park,kitchener,155,windrush trail,..,..,on
178624,Windrush Park Natural Area,park,kitchener,..,windrush trail,..,..,on
178644,Winifred Woods,park,kitchener,44,winifred,..,..,on
