Index,Facility_Name,ODRSF_facility_type,Provider,Street_No,Street_Name,Postal_Code,City,Prov_Terr
80498,..,trail,kitchener,..,highland,..,..,on
80499,..,trail,kitchener,..,fischer hallman,..,..,on
80500,..,trail,kitchener,..,woodbine,..,..,on
80501,..,trail,kitchener,..,woodbine,..,..,on
80502,..,trail,kitchener,..,mill park,..,..,on
80503,..,trail,kitchener,..,greengable,..,..,on
80504,..,trail,kitchener,..,victoria,..,..,on
80505,..,trail,kitchener,..,fischer hallman,..,..,on
80506,..,trail,kitchener,..,creek,..,..,on
80507,..,trail,kitchener,..,elmbank trail,..,..,on
80508,..,trail,kitchener,..,robert ferrie,..,..,on
80509,..,trail,kitchener,..,steepleridge,..,..,on
80510,..,trail,kitchener,..,steepleridge,..,..,on
80511,..,trail,kitchener,..,river,..,..,on
80512,..,trail,kitchener,..,mill,..,..,on
80513,..,trail,kitchener,..,mill,..,..,on
80514,..,trail,kitchener,..,pinedale,..,..,on
80515,..,trail,kitchener,..,dinison,..,..,on
80516,..,trail,kitchener,..,williamsburg,..,..,on
80517,..,trail,kitchener,..,orchid,..,..,on
80518,..,trail,kitchener,..,highland,..,..,on
80519,..,trail,kitchener,..,ira needles,..,..,on
80520,..,trail,kitchener,..,highland,..,..,on
80521,..,trail,kitchener,..,kingston,..,..,on
80522,..,trail,kitchener,..,amand,..,..,on
80523,..,trail,kitchener,..,falling green,..,..,on
80524,..,trail,kitchener,..,amand,..,..,on
80525,..,trail,kitchener,..,seabrook,..,..,on
80526,..,trail,kitchener,..,grand river,..,..,on
80527,..,trail,kitchener,..,lynnvalley,..,..,on
80528,..,trail,kitchener,..,lynnvalley,..,..,on
80529,..,trail,kitchener,..,lynnvalley,..,..,on
80530,..,trail,kitchener,..,lynnvalley,..,..,on
80531,..,trail,kitchener,..,lennox,..,..,on
80532,..,trail,kitchener,..,pine valley,..,..,on
80533,..,trail,kitchener,..,old carriage,..,..,on
80534,..,trail,kitchener,..,homer watson,..,..,on
80535,..,trail,kitchener,..,woodbine,..,..,on
80536,..,trail,kitchener,..,woodbine,..,..,on
80537,..,trail,kitchener,..,woodbine,..,..,on
80538,..,trail,kitchener,..,sorrento,..,..,on
80539,..,trail,kitchener,..,sorrento,..,..,on
80540,..,trail,kitchener,..,fischer hallman,..,..,on
80541,..,trail,kitchener,..,westmount,..,..,on
80542,..,trail,kitchener,..,chartwell,..,..,on
80543,..,trail,kitchener,..,ira needles,..,..,on
80544,..,trail,kitchener,..,highland,..,..,on
80545,..,trail,kitchener,..,highland,..,..,on
80546,..,trail,kitchener,..,ira needles,..,..,on
