Index,Facility_Name,ODRSF_facility_type,Provider,Street_No,Street_Name,Postal_Code,City,Prov_Terr
78840,..,trail,kitchener,..,huck,..,..,on
78841,..,trail,kitchener,..,..,..,..,on
78842,..,trail,kitchener,..,..,..,..,on
78843,..,trail,kitchener,..,..,..,..,on
78844,..,trail,kitchener,..,bridge,..,..,on
78845,..,trail,kitchener,..,bridge,..,..,on
78846,..,trail,kitchener,..,jubilee,..,..,on
78847,..,trail,kitchener,..,joseph,..,..,on
78848,..,trail,kitchener,..,joseph,..,..,on
78849,..,trail,kitchener,..,joseph,..,..,on
78850,..,trail,kitchener,..,david,..,..,on
78851,..,trail,kitchener,..,victoria,..,..,on
78852,..,trail,kitchener,..,lennox lewis,..,..,on
78853,..,trail,kitchener,..,pinedale,..,..,on
78854,..,trail,kitchener,..,pinedale,..,..,on
78855,..,trail,kitchener,..,pinedale,..,..,on
78856,..,trail,kitchener,..,dinison,..,..,on
78857,..,trail,kitchener,..,williamsburg,..,..,on
78858,..,trail,kitchener,..,littlefield,..,..,on
78859,..,trail,kitchener,..,ottawa,..,..,on
78860,..,trail,kitchener,..,activa,..,..,on
78861,..,trail,kitchener,..,lawrence,..,..,on
78862,..,trail,kitchener,..,parkland,..,..,on
78863,..,trail,kitchener,..,parkvale,..,..,on
78864,..,trail,kitchener,..,woodbine,..,..,on
78865,..,trail,kitchener,..,steepleridge,..,..,on
78866,..,trail,kitchener,..,steepleridge,..,..,on
78867,..,trail,kitchener,..,creek,..,..,on
78868,..,trail,kitchener,..,queen,..,..,on
78869,..,trail,kitchener,..,elmbank trail,..,..,on
78870,..,trail,kitchener,..,wren,..,..,on
78871,..,trail,kitchener,..,river,..,..,on
78872,..,trail,kitchener,..,river,..,..,on
78873,..,trail,kitchener,..,royal orchard,..,..,on
78874,..,trail,kitchener,..,keewatin,..,..,on
78875,..,trail,kitchener,..,hawkswood,..,..,on
78876,..,trail,kitchener,..,penelope,..,..,on
78877,..,trail,kitchener,..,windrush trail,..,..,on
78878,..,trail,kitchener,..,shirley,..,..,on
78879,..,trail,kitchener,..,argyle,..,..,on
78880,..,trail,kitchener,..,countrystone,..,..,on
78881,..,trail,kitchener,..,roland,..,..,on
78882,..,trail,kitchener,..,jubilee,..,..,on
78883,..,trail,kitchener,..,roland,..,..,on
78884,..,trail,kitchener,..,jubilee,..,..,on
78885,..,trail,kitchener,..,jubilee,..,..,on
78886,..,trail,kitchener,..,richmond,..,..,on
78887,..,trail,kitchener,..,activa,..,..,on
78888,..,trail,kitchener,..,westmount,..,..,on
