Index,Facility_Name,ODRSF_facility_type,Provider,Street_No,Street_Name,Postal_Code,City,Prov_Terr
79241,..,trail,kitchener,..,stoke,..,..,on
79242,..,trail,kitchener,..,prosperity,..,..,on
79243,..,trail,kitchener,..,prosperity,..,..,on
79244,..,trail,kitchener,..,huck,..,..,on
79245,..,trail,kitchener,..,red clover,..,..,on
79246,..,trail,kitchener,..,river,..,..,on
79247,..,trail,kitchener,..,fairbank,..,..,on
79248,..,trail,kitchener,..,countryside,..,..,on
79249,..,trail,kitchener,..,hawkswood,..,..,on
79250,..,trail,kitchener,..,activa,..,..,on
79251,..,trail,kitchener,..,activa,..,..,on
79252,..,trail,kitchener,..,joseph,..,..,on
79253,..,trail,kitchener,..,prosperity,..,..,on
79254,..,trail,kitchener,..,redtail,..,..,on
79255,..,trail,kitchener,..,foxglove,..,..,on
79256,..,trail,kitchener,..,foxglove,..,..,on
79257,..,trail,kitchener,..,foxglove,..,..,on
79258,..,trail,kitchener,..,prosperity,..,..,on
79259,..,trail,kitchener,..,prosperity,..,..,on
79260,..,trail,kitchener,..,prosperity,..,..,on
79261,..,trail,kitchener,..,prosperity,..,..,on
79262,..,trail,kitchener,..,westforest,..,..,on
79263,..,trail,kitchener,..,joseph,..,..,on
79264,..,trail,kitchener,..,roland,..,..,on
79265,..,trail,kitchener,..,lennox lewis,..,..,on
79266,..,trail,kitchener,..,lennox lewis,..,..,on
79267,..,trail,kitchener,..,windrush trail,..,..,on
79268,..,trail,kitchener,..,commonwealth,..,..,on
79269,..,trail,kitchener,..,halls,..,..,on
79270,..,trail,kitchener,..,francis,..,..,on
79271,..,trail,kitchener,..,king,..,..,on
79272,..,trail,kitchener,..,francis,..,..,on
79273,..,trail,kitchener,..,halls,..,..,on
79274,..,trail,kitchener,..,king,..,..,on
79275,..,trail,kitchener,..,nichole,..,..,on
79276,..,trail,kitchener,..,mill,..,..,on
79277,..,trail,kitchener,..,ottawa,..,..,on
79278,..,trail,kitchener,..,devon,..,..,on
79279,..,trail,kitchener,..,..,..,..,on
79280,..,trail,kitchener,..,..,..,..,on
79281,..,trail,kitchener,..,fischer hallman,..,..,on
79282,..,trail,kitchener,..,fischer hallman,..,..,on
79283,..,trail,kitchener,..,fischer hallman,..,..,on
79284,..,trail,kitchener,..,fischer hallman,..,..,on
79285,..,trail,kitchener,..,fischer hallman,..,..,on
79286,..,trail,kitchener,..,fischer hallman,..,..,on
79287,..,trail,kitchener,..,fischer hallman,..,..,on
79288,..,trail,kitchener,..,fischer hallman,..,..,on
79289,..,trail,kitchener,..,fischer hallman,..,..,on
