Index,Facility_Name,ODRSF_facility_type,Provider,Street_No,Street_Name,Postal_Code,City,Prov_Terr
165970,Driftwood Park,park,kitchener,4,driftwood,..,..,on
165982,Dryden Natural Area,park,kitchener,..,courtland,..,..,on
166014,Duke Park,park,kitchener,455,duke,..,..,on
166074,Durham Green,park,kitchener,10,durham,..,..,on
166161,Eastforest Park,park,kitchener,140,eastforest,..,..,on
166162,Eastforest Park Natural Area,park,kitchener,140,eastforest,..,..,on
166188,Eby Park,park,kitchener,137,holborn,..,..,on
166190,Eby Woods,park,kitchener,..,gravel,..,..,on
166191,Eby Woods Trail,park,kitchener,..,ottawa,..,..,on
166216,Eden Oak Park,park,kitchener,125,eden,..,..,on
166259,Edmund Green,park,kitchener,55,edmund,..,..,on
166370,Elm Tree Green,park,kitchener,870,trillium,..,..,on
166381,Elmsdale Park,park,kitchener,83,elmsdale,..,..,on
166460,Erinbrook Park,park,kitchener,..,erinbrook,..,..,on
166462,Erinbrook Park Greenway,park,kitchener,..,erinbrook,..,..,on
166554,Everglade Swp,park,kitchener,1720,ottawa,..,..,on
166578,Expressway Trail,park,kitchener,..,krug,..,..,on
166644,Fairway Cres - Swp,park,kitchener,775,fairway,..,..,on
166646,Fairway Rd N - Swp,park,kitchener,..,fairway,..,..,on
166661,Falconridge Drive - Natural Area & Swp,park,kitchener,91,falconridge,..,..,on
166662,Falconridge Drive Natural Area,park,kitchener,..,falconridge,..,..,on
166671,Fallowfield Dr - Swp,park,kitchener,..,fallowfield,..,..,on
166672,Fallowfield Natural Area Park,park,kitchener,..,fallview,..,..,on
166673,Fallowfield Park,park,kitchener,185,fallowfield,..,..,on
166734,Fenwick Green,park,kitchener,140,fenwick,..,..,on
166739,Ferguson Heritage Green,park,kitchener,..,orr,..,..,on
166785,Filsinger Park,park,kitchener,805,victoria,..,..,on
166787,Filsinger Park Greenway,park,kitchener,..,westmount,..,..,on
166788,Filsinger Park Natural Area,park,kitchener,..,westmount,..,..,on
166789,Filsinger Park West,park,kitchener,..,westmount,..,..,on
166834,Fischer Park,park,kitchener,47,hallman,..,..,on
166917,Forest Creek Dr - Swp,park,kitchener,24,creek,..,..,on
166918,Forest Creek Dr (River Valley) - Swp,park,kitchener,..,creek,..,..,on
166919,Forest Creek Dr Park,park,kitchener,40,creek,..,..,on
166928,Forest Heights Community Centre And Fire Hall,park,kitchener,1700,queens,..,..,on
166930,Forest Heights Community Trail (Hydro),park,kitchener,..,royal,..,..,on
166932,Forest Hill Park,park,kitchener,330,village,..,..,on
166951,Forest West Park,park,kitchener,155,highview,..,..,on
166961,Forfar Park,park,kitchener,80,forfar,..,..,on
166963,Forler Green,park,kitchener,50,stonybrook,..,..,on
167006,Fox Glove Park,park,kitchener,20,foxglove,..,..,on
167022,Fran Ellen Cres - Swp,park,kitchener,400,needles,..,..,on
167027,Francis Green,park,kitchener,399,king,..,..,on
167055,Franklin Park,park,kitchener,335,franklin,..,..,on
167270,Generals Green,park,kitchener,624,lancaster,..,..,on
167297,George Lippert Park,park,kitchener,200,weber,..,..,on
167331,Georgian Park,park,kitchener,..,georgian,..,..,on
167390,Gildner Green,park,kitchener,29,eden,..,..,on
167493,Glencliffe Crt - Swp,park,kitchener,305,keewatin,..,..,on
