Index,Facility_Name,ODRSF_facility_type,Provider,Street_No,Street_Name,Postal_Code,City,Prov_Terr
81249,..,trail,kitchener,..,bankside,..,..,on
81250,..,trail,kitchener,..,westmeadow,..,..,on
81251,..,trail,kitchener,..,cedarwoods,..,..,on
81252,..,trail,kitchener,..,cedarwoods,..,..,on
81253,..,trail,kitchener,..,block line,..,..,on
81254,..,trail,kitchener,..,dunham,..,..,on
81255,..,trail,kitchener,..,weber,..,..,on
81256,..,trail,kitchener,..,wilhelm,..,..,on
81257,..,trail,kitchener,..,weber,..,..,on
81258,..,trail,kitchener,..,royal orchard,..,..,on
81259,..,trail,kitchener,..,royal orchard,..,..,on
81260,..,trail,kitchener,..,old country pl,..,..,on
81261,..,trail,kitchener,..,janine,..,..,on
81262,..,trail,kitchener,..,dalegrove,..,..,on
81263,..,trail,kitchener,..,centennial,..,..,on
81264,..,trail,kitchener,..,7,..,..,on
81265,..,trail,kitchener,..,7,..,..,on
81266,..,trail,kitchener,..,trillium,..,..,on
81267,..,trail,kitchener,..,lennox,..,..,on
81268,..,trail,kitchener,..,westforest,..,..,on
81269,..,trail,kitchener,..,river valley,..,..,on
81270,..,trail,kitchener,..,niagara,..,..,on
81271,..,trail,kitchener,..,kilbirnie,..,..,on
81272,..,trail,kitchener,..,frey,..,..,on
81273,..,trail,kitchener,..,block line,..,..,on
81274,..,trail,kitchener,..,master,..,..,on
81275,..,trail,kitchener,..,janine,..,..,on
81276,..,trail,kitchener,..,rivertrail,..,..,on
81277,..,trail,kitchener,..,7,..,..,on
81278,..,trail,kitchener,..,coventry,..,..,on
81279,..,trail,kitchener,..,burnt ember,..,..,on
81280,..,trail,kitchener,..,old mill,..,..,on
81281,..,trail,kitchener,..,tradewinds,..,..,on
81282,..,trail,kitchener,..,tradewinds,..,..,on
81283,..,trail,kitchener,..,trailwood,..,..,on
81284,..,trail,kitchener,..,trailwood,..,..,on
81285,..,trail,kitchener,..,rolling meadows,..,..,on
81286,..,trail,kitchener,..,rolling meadows,..,..,on
81287,..,trail,kitchener,..,julia,..,..,on
81288,..,trail,kitchener,..,victoria,..,..,on
81289,..,trail,kitchener,..,wheatfield,..,..,on
81290,..,trail,kitchener,..,windy ridge,..,..,on
81291,..,trail,kitchener,..,rush meadow,..,..,on
81292,..,trail,kitchener,..,rush meadow,..,..,on
81293,..,trail,kitchener,..,trailwood,..,..,on
81294,..,trail,kitchener,..,trailwood,..,..,on
81295,..,trail,kitchener,..,trailwood,..,..,on
81296,..,trail,kitchener,..,michener,..,..,on
81297,..,trail,kitchener,..,country clair,..,..,on
