Index,Facility_Name,ODRSF_facility_type,Provider,Street_No,Street_Name,Postal_Code,City,Prov_Terr
6438,Wellesley Splash Pad,splash pad,waterloo region,1000,maple leaf,..,wellesley,on
18580,Ymca Camp Ki-Wa-Y,miscellaneous,waterloo region,3738,hessen,..,wellesley,on
31383,Kissing Bridge Trail,trail,kitchener,..,line 86,..,wellesley,on
62585,Trans Canada Trail \ Kissing Bridge Trail,trail,kitchener,..,manser,..,wellesley,on
62586,Trans Canada Trail \ Kissing Bridge Trail,trail,kitchener,..,manser,..,wellesley,on
95310,..,trail,kitchener,..,queens bush,..,wellesley,on
95311,..,trail,kitchener,..,..,..,wellesley,on
95312,..,trail,kitchener,..,..,..,wellesley,on
95313,..,trail,kitchener,..,..,..,wellesley,on
95314,..,trail,kitchener,..,..,..,wellesley,on
95315,..,trail,kitchener,..,..,..,wellesley,on
95316,..,trail,kitchener,..,..,..,wellesley,on
95317,..,trail,kitchener,..,..,..,wellesley,on
95318,..,trail,kitchener,..,..,..,wellesley,on
95319,..,trail,kitchener,..,..,..,wellesley,on
95320,..,trail,kitchener,..,..,..,wellesley,on
95321,..,trail,kitchener,..,..,..,wellesley,on
95386,..,trail,kitchener,..,..,..,wellesley,on
95387,..,trail,kitchener,..,..,..,wellesley,on
95388,..,trail,kitchener,..,..,..,wellesley,on
95468,..,trail,kitchener,..,herrgott,..,wellesley,on
95491,..,trail,kitchener,..,ament line,..,wellesley,on
95497,..,trail,kitchener,..,ament line,..,wellesley,on
95512,..,trail,kitchener,..,ament line,..,wellesley,on
127533,..,trail,province of ontario,..,..,..,..,on
127728,..,trail,province of ontario,..,..,..,..,on
127757,..,trail,province of ontario,..,..,..,..,on
127779,..,trail,province of ontario,..,..,..,..,on
127872,..,trail,province of ontario,..,..,..,..,on
127945,..,trail,province of ontario,..,..,..,..,on
128049,..,trail,province of ontario,..,..,..,..,on
128119,..,trail,province of ontario,..,..,..,..,on
128152,..,trail,province of ontario,..,..,..,..,on
128332,..,trail,province of ontario,..,..,..,..,on
128493,..,trail,province of ontario,..,..,..,..,on
128511,..,trail,province of ontario,..,..,..,..,on
128586,..,trail,province of ontario,..,..,..,..,on
128682,..,trail,province of ontario,..,..,..,..,on
128684,..,trail,province of ontario,..,..,..,..,on
128833,..,trail,province of ontario,..,..,..,..,on
128839,..,trail,province of ontario,..,..,..,..,on
128911,..,trail,province of ontario,..,..,..,..,on
129075,..,trail,province of ontario,..,..,..,..,on
129352,..,trail,province of ontario,..,..,..,..,on
129353,..,trail,province of ontario,..,..,..,..,on
129381,..,trail,province of ontario,..,..,..,..,on
129456,..,trail,province of ontario,..,..,..,..,on
129544,..,trail,province of ontario,..,..,..,..,on
129636,..,trail,province of ontario,..,..,..,..,on
