Index,Facility_Name,ODRSF_facility_type,Provider,Street_No,Street_Name,Postal_Code,City,Prov_Terr
78990,..,trail,kitchener,..,arnold,..,..,on
78991,..,trail,kitchener,..,idlewood,..,..,on
78992,..,trail,kitchener,..,royal orchard,..,..,on
78993,..,trail,kitchener,..,royal orchard,..,..,on
78994,..,trail,kitchener,..,jubilee,..,..,on
78995,..,trail,kitchener,..,jubilee,..,..,on
78996,..,trail,kitchener,..,apple tree,..,..,on
78997,..,trail,kitchener,..,corfield,..,..,on
78998,..,trail,kitchener,..,pine,..,..,on
78999,..,trail,kitchener,..,activa,..,..,on
79000,..,trail,kitchener,..,springmount,..,..,on
79001,..,trail,kitchener,..,huron,..,..,on
79002,..,trail,kitchener,..,centennial,..,..,on
79003,..,trail,kitchener,..,centennial,..,..,on
79004,..,trail,kitchener,..,cedar,..,..,on
79005,..,trail,kitchener,..,peter,..,..,on
79006,..,trail,kitchener,..,benton,..,..,on
79007,..,trail,kitchener,..,woodbine,..,..,on
79008,..,trail,kitchener,..,woodbine,..,..,on
79009,..,trail,kitchener,..,beckview,..,..,on
79010,..,trail,kitchener,..,ottawa,..,..,on
79011,..,trail,kitchener,..,floral,..,..,on
79012,..,trail,kitchener,..,floral,..,..,on
79013,..,trail,kitchener,..,courtland,..,..,on
79014,..,trail,kitchener,..,courtland,..,..,on
79015,..,trail,kitchener,..,greenbrook,..,..,on
79016,..,trail,kitchener,..,ludolph,..,..,on
79017,..,trail,kitchener,..,ottawa,..,..,on
79018,..,trail,kitchener,..,idle ridge,..,..,on
79019,..,trail,kitchener,..,apple tree,..,..,on
79020,..,trail,kitchener,..,fairway,..,..,on
79021,..,trail,kitchener,..,janine,..,..,on
79022,..,trail,kitchener,..,corfield,..,..,on
79023,..,trail,kitchener,..,pinnacle,..,..,on
79024,..,trail,kitchener,..,kiwanis park,..,..,on
79026,..,trail,kitchener,..,kiwanis park,..,..,on
79027,..,trail,kitchener,..,kiwanis park,..,..,on
79028,..,trail,kitchener,..,kiwanis park,..,..,on
79029,..,trail,kitchener,..,kiwanis park,..,..,on
79030,..,trail,kitchener,..,kiwanis park,..,..,on
79031,..,trail,kitchener,..,eaglecrest,..,..,on
79032,..,trail,kitchener,..,tyson,..,..,on
79033,..,trail,kitchener,..,inge,..,..,on
79034,..,trail,kitchener,..,watermill,..,..,on
79035,..,trail,kitchener,..,blair creek,..,..,on
79036,..,trail,kitchener,..,centennial,..,..,on
79037,..,trail,kitchener,..,crosby,..,..,on
79038,..,trail,kitchener,..,holborn,..,..,on
79039,..,trail,kitchener,..,zeller,..,..,on
