Index,Facility_Name,ODRSF_facility_type,Provider,Street_No,Street_Name,Postal_Code,City,Prov_Terr
35893,Living Levee Trail,trail,cambridge,..,..,..,..,on
35894,Living Levee Trail,trail,cambridge,..,..,..,..,on
35895,Living Levee Trail,trail,cambridge,..,..,..,..,on
35896,Living Levee Trail,trail,cambridge,..,..,..,..,on
35897,Living-Levee Trail/Trans-Canada Trail,trail,kitchener,..,queens,..,cambridge,on
35898,Living-Levee Trail/Trans-Canada Trail,trail,kitchener,..,cedar,..,cambridge,on
35899,Living-Levee Trail/Trans-Canada Trail,trail,kitchener,..,main,..,cambridge,on
35900,Living-Levee Trail/Trans-Canada Trail,trail,kitchener,..,cedar,..,cambridge,on
35901,Living-Levee Trail/Trans-Canada Trail,trail,kitchener,..,..,..,cambridge,on
35902,Living-Levee Trail/Trans-Canada Trail,trail,kitchener,..,water,..,cambridge,on
42781,Maple Bush Dr South Side,trail,cambridge,..,..,..,..,on
43668,Mill Creek Trail,trail,cambridge,..,..,..,..,on
43669,Mill Creek Trail,trail,cambridge,..,..,..,..,on
43670,Mill Creek Trail,trail,cambridge,..,..,..,..,on
43671,Mill Creek Trail,trail,cambridge,..,..,..,..,on
43672,Mill Creek Trail,trail,cambridge,..,..,..,..,on
43673,Mill Creek Trail,trail,cambridge,..,..,..,..,on
43674,Mill Creek Trail,trail,cambridge,..,..,..,..,on
43675,Mill Creek Trail,trail,cambridge,..,..,..,..,on
43676,Mill Creek Trail,trail,cambridge,..,..,..,..,on
43677,Mill Creek Trail,trail,cambridge,..,..,..,..,on
43678,Mill Creek Trail,trail,cambridge,..,..,..,..,on
43679,Mill Creek Trail,trail,cambridge,..,..,..,..,on
43680,Mill Creek Trail,trail,cambridge,..,..,..,..,on
43681,Mill Creek Trail,trail,cambridge,..,..,..,..,on
43682,Mill Creek Trail,trail,cambridge,..,..,..,..,on
43683,Mill Creek Trail,trail,cambridge,..,..,..,..,on
43684,Mill Creek Trail,trail,cambridge,..,..,..,..,on
43685,Mill Creek Trail,trail,cambridge,..,..,..,..,on
43686,Mill Creek Trail,trail,cambridge,..,..,..,..,on
43687,Mill Creek Trail,trail,cambridge,..,..,..,..,on
43688,Mill Creek Trail,trail,cambridge,..,..,..,..,on
43689,Mill Creek Trail,trail,cambridge,..,..,..,..,on
43690,Mill Creek Trail,trail,cambridge,..,..,..,..,on
43691,Mill Creek Trail,trail,cambridge,..,..,..,..,on
43692,Mill Creek Trail,trail,cambridge,..,..,..,..,on
43693,Mill Creek Trail,trail,cambridge,..,..,..,..,on
43694,Mill Creek Trail,trail,cambridge,..,..,..,..,on
43695,Mill Creek Trail,trail,cambridge,..,..,..,..,on
43696,Mill Creek Trail,trail,cambridge,..,..,..,..,on
43697,Mill Creek Trail,trail,cambridge,..,..,..,..,on
43698,Mill Creek Trail,trail,cambridge,..,..,..,..,on
43699,Mill Creek Trail,trail,kitchener,..,..,..,cambridge,on
43700,Mill Creek Trail,trail,kitchener,..,..,..,cambridge,on
43701,Mill Creek Trail,trail,kitchener,..,..,..,cambridge,on
43702,Mill Creek Trail,trail,kitchener,..,..,..,cambridge,on
43731,Mill Pond Trail,trail,cambridge,..,..,..,..,on
43732,Mill Pond Trail,trail,cambridge,..,..,..,..,on
43733,Mill Pond Trail,trail,cambridge,..,..,..,..,on
