Index,Facility_Name,ODRSF_facility_type,Provider,Street_No,Street_Name,Postal_Code,City,Prov_Terr
78239,..,trail,kitchener,..,carson,..,..,on
78240,..,trail,kitchener,..,peachwood,..,..,on
78241,..,trail,kitchener,..,glencliffe,..,..,on
78242,..,trail,kitchener,..,georgian,..,..,on
78243,..,trail,kitchener,..,courtland,..,..,on
78244,..,trail,kitchener,..,courtland,..,..,on
78245,..,trail,kitchener,..,peachwood,..,..,on
78246,..,trail,kitchener,..,carson,..,..,on
78247,..,trail,kitchener,..,stoke,..,..,on
78248,..,trail,kitchener,..,stoke,..,..,on
78249,..,trail,kitchener,..,jubilee,..,..,on
78250,..,trail,kitchener,..,jubilee,..,..,on
78251,..,trail,kitchener,..,deer ridge,..,..,on
78252,..,trail,kitchener,..,deer ridge,..,..,on
78253,..,trail,kitchener,..,deer ridge,..,..,on
78254,..,trail,kitchener,..,schneider,..,..,on
78255,..,trail,kitchener,..,schneider,..,..,on
78256,..,trail,kitchener,..,schneider,..,..,on
78257,..,trail,kitchener,..,schneider,..,..,on
78258,..,trail,kitchener,..,schneider,..,..,on
78259,..,trail,kitchener,..,schneider,..,..,on
78260,..,trail,kitchener,..,rush meadow,..,..,on
78261,..,trail,kitchener,..,sabrina,..,..,on
78262,..,trail,kitchener,..,homestead,..,..,on
78263,..,trail,kitchener,..,hickory heights,..,..,on
78264,..,trail,kitchener,..,rittenhouse,..,..,on
78265,..,trail,kitchener,..,white sands,..,..,on
78266,..,trail,kitchener,..,rittenhouse,..,..,on
78267,..,trail,kitchener,..,commonwealth,..,..,on
78268,..,trail,kitchener,..,homer watson onramp,..,..,on
78269,..,trail,kitchener,..,creek,..,..,on
78270,..,trail,kitchener,..,creek,..,..,on
78271,..,trail,kitchener,..,doon creek,..,..,on
78272,..,trail,kitchener,..,cedarwoods,..,..,on
78273,..,trail,kitchener,..,greenfield,..,..,on
78274,..,trail,kitchener,..,clark,..,..,on
78275,..,trail,kitchener,..,clark,..,..,on
78276,..,trail,kitchener,..,clark,..,..,on
78277,..,trail,kitchener,..,clark,..,..,on
78278,..,trail,kitchener,..,shelley,..,..,on
78279,..,trail,kitchener,..,shelley,..,..,on
78280,..,trail,kitchener,..,otterbein,..,..,on
78281,..,trail,kitchener,..,river,..,..,on
78282,..,trail,kitchener,..,king,..,..,on
78283,..,trail,kitchener,..,homer watson,..,..,on
78284,..,trail,kitchener,..,sunrise,..,..,on
78285,..,trail,kitchener,..,tecumseh,..,..,on
78286,..,trail,kitchener,..,janine,..,..,on
78287,..,trail,kitchener,..,rosebank,..,..,on
