Index,Facility_Name,ODRSF_facility_type,Provider,Street_No,Street_Name,Postal_Code,City,Prov_Terr
51004,Rim Park,trail,kitchener,..,..,..,waterloo,on
51005,Rim Park,trail,kitchener,..,..,..,waterloo,on
51006,Rim Park,trail,kitchener,..,..,..,waterloo,on
51007,Rim Park,trail,kitchener,..,..,..,waterloo,on
51008,Rim Park,trail,kitchener,..,..,..,waterloo,on
51009,Rim Park,trail,kitchener,..,..,..,waterloo,on
51010,Rim Park,trail,kitchener,..,..,..,waterloo,on
51011,Rim Park,trail,kitchener,..,..,..,waterloo,on
51012,Rim Park,trail,kitchener,..,..,..,waterloo,on
51013,Rim Park,trail,kitchener,..,..,..,waterloo,on
51014,Rim Park,trail,kitchener,..,..,..,waterloo,on
51015,Rim Park,trail,kitchener,..,..,..,waterloo,on
51016,Rim Park,trail,kitchener,..,..,..,waterloo,on
51017,Rim Park,trail,kitchener,..,..,..,waterloo,on
51018,Rim Park,trail,kitchener,..,..,..,waterloo,on
51019,Rim Park,trail,kitchener,..,..,..,waterloo,on
51020,Rim Park,trail,kitchener,..,..,..,waterloo,on
51021,Rim Park,trail,kitchener,..,..,..,waterloo,on
51022,Rim Parkrim Park,trail,waterloo region,..,..,..,..,on
51023,Rim Parkrim Park,trail,waterloo region,..,..,..,..,on
51322,Rolling Hills Park,trail,waterloo region,..,..,..,..,on
51323,Rolling Hills Park,trail,waterloo region,..,..,..,..,on
51328,Rose Lea Cres To Bluevale Link,trail,waterloo region,..,..,..,..,on
51329,Rose Lea Cres To Christopher Dr,trail,waterloo region,..,..,..,..,on
51350,Roselea Park,trail,waterloo region,..,..,..,..,on
51351,Roselea Park,trail,waterloo region,..,..,..,..,on
51357,Rosewood Swm Area,trail,waterloo region,..,..,..,..,on
51358,Roslin Ave N To Waterloo Recreation Complex,trail,waterloo region,..,..,..,..,on
51662,Roxton Park,trail,waterloo region,..,..,..,..,on
51663,Roxton Park,trail,waterloo region,..,..,..,..,on
51664,Roxton Park,trail,waterloo region,..,..,..,..,on
51665,Roxton Park,trail,waterloo region,..,..,..,..,on
51666,Roxton Park,trail,kitchener,..,..,..,waterloo,on
51679,Royal Beech Dr To Royal Beech Park,trail,waterloo region,..,..,..,..,on
51680,Royal Beech Park,trail,waterloo region,..,..,..,..,on
51681,Royal Fern Park,trail,waterloo region,..,..,..,..,on
51682,Royal Fern St To Mountain Maple Ave,trail,waterloo region,..,..,..,..,on
51728,Rummelhardt Dr To Royal Beech Dr,trail,waterloo region,..,..,..,..,on
51737,Running Brook Pl To Running Brook Pl,trail,waterloo region,..,..,..,..,on
51765,Sable Crt To Rosette Dr,trail,waterloo region,..,..,..,..,on
51816,Salzburg Dr To ?,trail,waterloo region,..,..,..,..,on
51817,Salzburg Park,trail,waterloo region,..,..,..,..,on
51830,Sandbrooke Hydro Corridor,trail,waterloo region,..,..,..,..,on
51833,Sandowne Park,trail,waterloo region,..,..,..,..,on
51834,Sandringham Dr To Stonebury Cres,trail,waterloo region,..,..,..,..,on
51977,Sauve Cres To Paris Blvd,trail,waterloo region,..,..,..,..,on
52068,Schooner Link,trail,waterloo region,..,..,..,..,on
52081,Seagram Dr,trail,waterloo region,..,..,..,..,on
52082,Seagram Dr,trail,waterloo region,..,..,..,..,on
