Index,Facility_Name,ODRSF_facility_type,Provider,Street_No,Street_Name,Postal_Code,City,Prov_Terr
35679,Lexington Rd,trail,waterloo region,..,..,..,..,on
35786,Lion's Link,trail,waterloo region,..,..,..,..,on
35858,Little Dover Cres To Harbour View Cres,trail,waterloo region,..,..,..,..,on
35859,Little Dover Cres To Spring Tide Crt,trail,waterloo region,..,..,..,..,on
36040,Longwood Dr To Weber St N,trail,waterloo region,..,..,..,..,on
36125,Lucerne Park,trail,waterloo region,..,..,..,..,on
36144,Macgregor Cres To University Ave E,trail,waterloo region,..,..,..,..,on
36174,Magnolia Pl To Pinebrook Park,trail,waterloo region,..,..,..,..,on
36225,Malabar Link,trail,waterloo region,..,..,..,..,on
36299,Manor Ridge Cres To Manor Ridge Swm A,trail,waterloo region,..,..,..,..,on
36300,Manor Ridge Swm A,trail,waterloo region,..,..,..,..,on
36301,Manor Ridge Swm A,trail,waterloo region,..,..,..,..,on
36302,Manor Ridge Swm A,trail,waterloo region,..,..,..,..,on
42782,Maple Forest Lane To Mccrae Park,trail,waterloo region,..,..,..,..,on
42818,Marengo Crt To University Downs Park,trail,waterloo region,..,..,..,..,on
43081,Mary Allen Park,trail,waterloo region,..,..,..,..,on
43082,Mary Allen Park,trail,waterloo region,..,..,..,..,on
43083,Mary Allen Park,trail,waterloo region,..,..,..,..,on
43084,Mary Allen Park,trail,waterloo region,..,..,..,..,on
43087,Mary Johnson Corridor,trail,waterloo region,..,..,..,..,on
43128,Mayberry Crt To Bluestream Rd,trail,waterloo region,..,..,..,..,on
43178,Mccrae Park,trail,waterloo region,..,..,..,..,on
43179,Mccrae Park,trail,waterloo region,..,..,..,..,on
43180,Mccrae Park,trail,waterloo region,..,..,..,..,on
43181,Mccrae Park,trail,waterloo region,..,..,..,..,on
43182,Mccrae Park,trail,waterloo region,..,..,..,..,on
43183,Mccrae Park To Frederick Banting Pl,trail,waterloo region,..,..,..,..,on
43184,Mccrae Park To Royal Beech Crt,trail,waterloo region,..,..,..,..,on
43185,Mccrae Park To Shaughnessy Pl,trail,waterloo region,..,..,..,..,on
43186,Mccrae Pl To Mccrae Park,trail,waterloo region,..,..,..,..,on
43418,Meadowvale Pl To Auburn Dr,trail,waterloo region,..,..,..,..,on
43425,Meaford Dr To Mayfield Ave,trail,waterloo region,..,..,..,..,on
43426,Meersburg Lane To Erbsville Rd,trail,waterloo region,..,..,..,..,on
43509,Melitzer Woodlot,trail,waterloo region,..,..,..,..,on
43510,Melitzer Woodlot,trail,waterloo region,..,..,..,..,on
43511,Melitzer Woodlot,trail,waterloo region,..,..,..,..,on
43512,Melitzer Woodlot,trail,kitchener,..,..,..,waterloo,on
43513,Melitzer Woodlot To Exmoor St,trail,waterloo region,..,..,..,..,on
43849,Milla Corridor To Milla Crt,trail,waterloo region,..,..,..,..,on
43850,Milla Crt To Old Post Park,trail,waterloo region,..,..,..,..,on
43861,Millen Woodlot,trail,waterloo region,..,..,..,..,on
43862,Millen Woodlot,trail,waterloo region,..,..,..,..,on
43863,Millennium Blvd,trail,waterloo region,..,..,..,..,on
43864,Millennium Blvd,trail,waterloo region,..,..,..,..,on
43980,Millstream Dr To Deerfoot Reserve,trail,waterloo region,..,..,..,..,on
44287,Montclair Pl To Mayfield Ave,trail,waterloo region,..,..,..,..,on
44407,Moses Springer Park,trail,kitchener,..,..,..,waterloo,on
44408,Moses Springer Park Facility,trail,waterloo region,..,..,..,..,on
44409,Moses Springer Park Facility,trail,waterloo region,..,..,..,..,on
