Index,Facility_Name,ODRSF_facility_type,Provider,Street_No,Street_Name,Postal_Code,City,Prov_Terr
80548,..,trail,kitchener,..,huron,..,..,on
80549,..,trail,kitchener,..,kilbirnie,..,..,on
80550,..,trail,kitchener,..,kilbirnie,..,..,on
80551,..,trail,kitchener,..,rush meadow,..,..,on
80552,..,trail,kitchener,..,pinnacle,..,..,on
80553,..,trail,kitchener,..,mill park,..,..,on
80554,..,trail,kitchener,..,pinnacle,..,..,on
80555,..,trail,kitchener,..,pinnacle,..,..,on
80556,..,trail,kitchener,..,winding wood,..,..,on
80557,..,trail,kitchener,..,edge,..,..,on
80558,..,trail,kitchener,..,doon mills,..,..,on
80559,..,trail,kitchener,..,trillium,..,..,on
80560,..,trail,kitchener,..,trillium,..,..,on
80561,..,trail,kitchener,..,grand river,..,..,on
80562,..,trail,kitchener,..,wyandotte,..,..,on
80563,..,trail,kitchener,..,vicmount,..,..,on
80564,..,trail,kitchener,..,vicmount,..,..,on
80565,..,trail,kitchener,..,hazelglen,..,..,on
80566,..,trail,kitchener,..,sugar maple,..,..,on
80567,..,trail,kitchener,..,green valley,..,..,on
80568,..,trail,kitchener,..,homer watson,..,..,on
80569,..,trail,kitchener,..,green valley,..,..,on
80570,..,trail,kitchener,..,bridge,..,..,on
80571,..,trail,kitchener,..,rothsay,..,..,on
80572,..,trail,kitchener,..,rothsay,..,..,on
80573,..,trail,kitchener,..,homer watson,..,..,on
80574,..,trail,kitchener,..,river birch,..,..,on
80575,..,trail,kitchener,..,river valley,..,..,on
80576,..,trail,kitchener,..,robert ferrie,..,..,on
80577,..,trail,kitchener,..,steepleridge,..,..,on
80578,..,trail,kitchener,..,westforest,..,..,on
80579,..,trail,kitchener,..,greenbrook,..,..,on
80580,..,trail,kitchener,..,outlook,..,..,on
80581,..,trail,kitchener,..,whisperwood,..,..,on
80582,..,trail,kitchener,..,fischer hallman,..,..,on
80583,..,trail,kitchener,..,shady glen,..,..,on
80584,..,trail,kitchener,..,ira needles,..,..,on
80585,..,trail,kitchener,..,ira needles,..,..,on
80586,..,trail,kitchener,..,ira needles,..,..,on
80587,..,trail,kitchener,..,ira needles,..,..,on
80588,..,trail,kitchener,..,ira needles,..,..,on
80589,..,trail,kitchener,..,westforest,..,..,on
80590,..,trail,kitchener,..,resurrection,..,..,on
80591,..,trail,kitchener,..,resurrection,..,..,on
80592,..,trail,kitchener,..,resurrection,..,..,on
80593,..,trail,kitchener,..,orchid,..,..,on
80594,..,trail,kitchener,..,chopin,..,..,on
80595,..,trail,kitchener,..,crosby,..,..,on
80596,..,trail,kitchener,..,stirling,..,..,on
