Index,Facility_Name,ODRSF_facility_type,Provider,Street_No,Street_Name,Postal_Code,City,Prov_Terr
7003,A.R. Kaufman Public School Soccer Field,sports field,kitchener,11,chopin,..,..,on
7072,Admiral Park Basketball Court,sports field,kitchener,93,roxborough,..,..,on
7073,Admiral Park Tennis Court,sports field,kitchener,93,roxborough,..,..,on
7174,Alpine Public School Soccer Field,sports field,kitchener,75,lucerne,..,..,on
7175,Alpine School Ball Diamond,sports field,kitchener,75,lucerne,..,..,on
8949,Belmont Park Basketball Court,sports field,kitchener,285,belmont,..,..,on
8950,Belmont Park Horseshoe Pitch,sports field,kitchener,285,belmont,..,..,on
8951,Belmont Park Tennis Court,sports field,kitchener,285,belmont,..,..,on
8979,Biehn Park Mini Ball Diamond,sports field,kitchener,135,pioneer,..,..,on
8980,Biehn Park Soccer Field,sports field,kitchener,135,pioneer,..,..,on
9039,Blessed Kateri Separate School Soccer Field,sports field,kitchener,560,pioneer,..,..,on
9041,Blessed Sacrament Separate School Ball Diamond,sports field,kitchener,367,country,..,..,on
9042,Blessed Sacrament Separate School Soccer Field,sports field,kitchener,367,country,..,..,on
9193,Breithaupt Park Ball Diamond 1,sports field,kitchener,350,union,..,..,on
9194,Breithaupt Park Ball Diamond 2,sports field,kitchener,350,union,..,..,on
9195,Breithaupt Park Ball Diamond 3,sports field,kitchener,350,union,..,..,on
9196,Breithaupt Park Horseshoe Pitches,sports field,kitchener,350,margaret,..,..,on
9239,Bridgeport C.C. Basketball Court,sports field,kitchener,20,tyson,..,..,on
9240,Bridgeport C.C. Multi-Purpose Pad,sports field,kitchener,20,tyson,..,..,on
9241,Bridgeport Public School Ball Diamond,sports field,kitchener,59,bridge,..,..,on
9242,Bridgeport Public School Soccer Field,sports field,kitchener,59,bridge,..,..,on
9243,Bridgeport Sportsfield Soccer Field-1,sports field,kitchener,75,bloomingdale,..,..,on
9244,Bridgeport Sportsfield Soccer Field-2,sports field,kitchener,75,bloomingdale,..,..,on
9245,Bridgeport Sportsfields Ball Diamond 2,sports field,kitchener,70,bridge,..,..,on
9246,Bridgeport Sportsfields Ball Diamond 3,sports field,kitchener,70,bridge,..,..,on
9247,Bridgeport Sportsfields Civitan Ball Diamond 1,sports field,kitchener,..,bridge,..,..,on
9248,Bridgeport Sportsfields Joe Thompson Ball Diamond,sports field,kitchener,3,tyson,..,..,on
9258,Brigadoon Public School Ball Diamond,sports field,kitchener,415,caryndale,..,..,on
9259,Brigadoon Public School Half Court,sports field,kitchener,415,caryndale,..,..,on
9260,Brigadoon Public School Soccer Field-1,sports field,kitchener,415,caryndale,..,..,on
9261,Brigadoon Public School Soccer Field-2,sports field,kitchener,415,caryndale,..,..,on
9327,Budd Park Ball Diamond 1,sports field,kitchener,1111,watson,..,..,on
9328,Budd Park Ball Diamond 2,sports field,kitchener,1111,watson,..,..,on
9329,Budd Park Soccer Field-1,sports field,kitchener,1111,watson,..,..,on
9330,Budd Park Soccer Field-2,sports field,kitchener,1111,watson,..,..,on
9331,Budd Park Soccer Field-3,sports field,kitchener,1111,watson,..,..,on
9332,Budd Park Soccer Field-4,sports field,kitchener,1111,watson,..,..,on
9333,Budd Park Soccer Field-5,sports field,kitchener,1111,watson,..,..,on
9334,Budd Park Soccer Field-6,sports field,kitchener,1111,watson,..,..,on
9335,Budd Park Tennis Court,sports field,kitchener,1111,watson,..,..,on
9427,Canadian Martyrs Separate School Ball Diamond 2,sports field,kitchener,50,confederation,..,..,on
9491,Carlyle Park Ball Diamond,sports field,kitchener,580,pioneer,..,..,on
9492,Carlyle Park Soccer Field,sports field,kitchener,580,pioneer,..,..,on
9530,Caryndale Park Ball Diamond,sports field,kitchener,40,hill,..,..,on
9531,Caryndale Park Basketball Court 1,sports field,kitchener,40,hill,..,..,on
9532,Casey Park Ball Diamond,sports field,kitchener,..,casey,..,..,on
9685,Centreville Chicopee C.C. Basketball Court,sports field,kitchener,141,morgan,..,..,on
9713,Chandler Mowat C.C Basketball Court,sports field,kitchener,222,chandler,..,..,on
9773,Cherry Park Ball Diamond 1,sports field,kitchener,84,strange,..,..,on
