Index,Facility_Name,ODRSF_facility_type,Provider,Street_No,Street_Name,Postal_Code,City,Prov_Terr
80348,..,trail,kitchener,..,foxglove,..,..,on
80349,..,trail,kitchener,..,trillium,..,..,on
80350,..,trail,kitchener,..,schneider,..,..,on
80351,..,trail,kitchener,..,trillium,..,..,on
80352,..,trail,kitchener,..,hearth,..,..,on
80353,..,trail,kitchener,..,windale,..,..,on
80354,..,trail,kitchener,..,..,..,..,on
80355,..,trail,kitchener,..,union,..,..,on
80356,..,trail,kitchener,..,maplewood,..,..,on
80357,..,trail,kitchener,..,barwood,..,..,on
80358,..,trail,kitchener,..,pine martin,..,..,on
80359,..,trail,kitchener,..,jubilee,..,..,on
80360,..,trail,kitchener,..,schneider,..,..,on
80361,..,trail,kitchener,..,schneider,..,..,on
80362,..,trail,kitchener,..,hawkswood,..,..,on
80363,..,trail,kitchener,..,ahrens,..,..,on
80364,..,trail,kitchener,..,jubilee,..,..,on
80365,..,trail,kitchener,..,jubilee,..,..,on
80366,..,trail,kitchener,..,jubilee,..,..,on
80367,..,trail,kitchener,..,union,..,..,on
80368,..,trail,kitchener,..,union,..,..,on
80369,..,trail,kitchener,..,denlow,..,..,on
80370,..,trail,kitchener,..,ottawa,..,..,on
80371,..,trail,kitchener,..,ottawa,..,..,on
80372,..,trail,kitchener,..,..,..,..,on
80373,..,trail,kitchener,..,idle ridge,..,..,on
80374,..,trail,kitchener,..,fairway,..,..,on
80375,..,trail,kitchener,..,fairway,..,..,on
80376,..,trail,kitchener,..,fairway,..,..,on
80377,..,trail,kitchener,..,edgewater,..,..,on
80378,..,trail,kitchener,..,woodbine,..,..,on
80379,..,trail,kitchener,..,woodbine,..,..,on
80380,..,trail,kitchener,..,woodbine,..,..,on
80381,..,trail,kitchener,..,hoddle,..,..,on
80382,..,trail,kitchener,..,hoddle,..,..,on
80383,..,trail,kitchener,..,cherry,..,..,on
80384,..,trail,kitchener,..,idlewood,..,..,on
80385,..,trail,kitchener,..,bankside,..,..,on
80386,..,trail,kitchener,..,broken oak,..,..,on
80387,..,trail,kitchener,..,schneider,..,..,on
80388,..,trail,kitchener,..,dill,..,..,on
80389,..,trail,kitchener,..,lynnvalley,..,..,on
80390,..,trail,kitchener,..,mt hope,..,..,on
80391,..,trail,kitchener,..,paulander,..,..,on
80392,..,trail,kitchener,..,westmount,..,..,on
80393,..,trail,kitchener,..,westmount,..,..,on
80394,..,trail,kitchener,..,commonwealth,..,..,on
80395,..,trail,kitchener,..,max becker,..,..,on
80396,..,trail,kitchener,..,grand river,..,..,on
