Index,Facility_Name,ODRSF_facility_type,Provider,Street_No,Street_Name,Postal_Code,City,Prov_Terr
78589,..,trail,kitchener,..,fischer hallman,..,..,on
78590,..,trail,kitchener,..,fischer hallman,..,..,on
78591,..,trail,kitchener,..,fischer hallman,..,..,on
78592,..,trail,kitchener,..,fischer hallman,..,..,on
78593,..,trail,kitchener,..,fischer hallman,..,..,on
78594,..,trail,kitchener,..,fischer hallman,..,..,on
78595,..,trail,kitchener,..,fischer hallman,..,..,on
78596,..,trail,kitchener,..,fischer hallman,..,..,on
78597,..,trail,kitchener,..,fischer hallman,..,..,on
78598,..,trail,kitchener,..,fischer hallman,..,..,on
78599,..,trail,kitchener,..,apple hill,..,..,on
78600,..,trail,kitchener,..,falling green,..,..,on
78601,..,trail,kitchener,..,falling green,..,..,on
78602,..,trail,kitchener,..,shady glen,..,..,on
78603,..,trail,kitchener,..,fischer hallman,..,..,on
78604,..,trail,kitchener,..,fischer hallman,..,..,on
78605,..,trail,kitchener,..,seabrook,..,..,on
78606,..,trail,kitchener,..,seabrook,..,..,on
78607,..,trail,kitchener,..,fischer hallman,..,..,on
78608,..,trail,kitchener,..,seabrook,..,..,on
78609,..,trail,kitchener,..,fischer hallman,..,..,on
78610,..,trail,kitchener,..,seabrook,..,..,on
78611,..,trail,kitchener,..,fischer hallman,..,..,on
78612,..,trail,kitchener,..,fischer hallman,..,..,on
78613,..,trail,kitchener,..,seabrook,..,..,on
78614,..,trail,kitchener,..,seabrook,..,..,on
78615,..,trail,kitchener,..,fischer hallman,..,..,on
78616,..,trail,kitchener,..,seabrook,..,..,on
78617,..,trail,kitchener,..,fischer hallman,..,..,on
78618,..,trail,kitchener,..,seabrook,..,..,on
78619,..,trail,kitchener,..,amand,..,..,on
78620,..,trail,kitchener,..,highland,..,..,on
78621,..,trail,kitchener,..,highland,..,..,on
78622,..,trail,kitchener,..,fischer hallman,..,..,on
78623,..,trail,kitchener,..,ottawa,..,..,on
78624,..,trail,kitchener,..,fischer hallman,..,..,on
78625,..,trail,kitchener,..,fischer hallman,..,..,on
78626,..,trail,kitchener,..,fischer hallman,..,..,on
78627,..,trail,kitchener,..,ottawa,..,..,on
78628,..,trail,kitchener,..,dinison,..,..,on
78629,..,trail,kitchener,..,..,..,..,on
78630,..,trail,kitchener,..,washburn,..,..,on
78631,..,trail,kitchener,..,king,..,..,on
78632,..,trail,kitchener,..,landgren,..,..,on
78633,..,trail,kitchener,..,arbourview,..,..,on
78634,..,trail,kitchener,..,brisbane,..,..,on
78635,..,trail,kitchener,..,brisbane,..,..,on
78636,..,trail,kitchener,..,old country pl,..,..,on
78637,..,trail,kitchener,..,rittenhouse,..,..,on
