Index,Facility_Name,ODRSF_facility_type,Provider,Street_No,Street_Name,Postal_Code,City,Prov_Terr
79896,..,trail,kitchener,..,block line,..,..,on
79897,..,trail,kitchener,..,block line,..,..,on
79898,..,trail,kitchener,..,bridge,..,..,on
79899,..,trail,kitchener,..,nelson,..,..,on
79900,..,trail,kitchener,..,nelson,..,..,on
79901,..,trail,kitchener,..,green valley,..,..,on
79902,..,trail,kitchener,..,homer watson,..,..,on
79903,..,trail,kitchener,..,pioneer,..,..,on
79904,..,trail,kitchener,..,woodbine,..,..,on
79905,..,trail,kitchener,..,woodbine,..,..,on
79906,..,trail,kitchener,..,trillium,..,..,on
79907,..,trail,kitchener,..,trillium,..,..,on
79908,..,trail,kitchener,..,tara,..,..,on
79909,..,trail,kitchener,..,hedgestone,..,..,on
79910,..,trail,kitchener,..,woodbine,..,..,on
79911,..,trail,kitchener,..,robert ferrie,..,..,on
79912,..,trail,kitchener,..,robert ferrie,..,..,on
79913,..,trail,kitchener,..,knox,..,..,on
79914,..,trail,kitchener,..,knox,..,..,on
79915,..,trail,kitchener,..,pine valley,..,..,on
79916,..,trail,kitchener,..,woodbine,..,..,on
79917,..,trail,kitchener,..,barwood,..,..,on
79918,..,trail,kitchener,..,niagara,..,..,on
79919,..,trail,kitchener,..,niagara,..,..,on
79920,..,trail,kitchener,..,manchester,..,..,on
79921,..,trail,kitchener,..,niagara,..,..,on
79922,..,trail,kitchener,..,folkstone,..,..,on
79923,..,trail,kitchener,..,rittenhouse,..,..,on
79924,..,trail,kitchener,..,erinbrook,..,..,on
79925,..,trail,kitchener,..,homer watson onramp,..,..,on
79926,..,trail,kitchener,..,homer watson onramp,..,..,on
79927,..,trail,kitchener,..,homer watson onramp,..,..,on
79928,..,trail,kitchener,..,westmount,..,..,on
79929,..,trail,kitchener,..,westmeadow,..,..,on
79930,..,trail,kitchener,..,joseph,..,..,on
79931,..,trail,kitchener,..,joseph,..,..,on
79932,..,trail,kitchener,..,joseph,..,..,on
79933,..,trail,kitchener,..,greengable,..,..,on
79934,..,trail,kitchener,..,henhoeffer,..,..,on
79935,..,trail,kitchener,..,red clover,..,..,on
79936,..,trail,kitchener,..,st jerome,..,..,on
79937,..,trail,kitchener,..,lennox,..,..,on
79938,..,trail,kitchener,..,secord,..,..,on
79939,..,trail,kitchener,..,eckert,..,..,on
79940,..,trail,kitchener,..,morrison,..,..,on
79941,..,trail,kitchener,..,river,..,..,on
79942,..,trail,kitchener,..,river,..,..,on
79943,..,trail,kitchener,..,morrison,..,..,on
79944,..,trail,kitchener,..,timberlane,..,..,on
