Index,Facility_Name,ODRSF_facility_type,Provider,Street_No,Street_Name,Postal_Code,City,Prov_Terr
27910,Geo Time Trail Forested Hills - E.S.P.A. 19,trail,waterloo region,..,..,..,..,on
27911,Geo Time Trail Vista Hills Hydro Corridor,trail,waterloo region,..,..,..,..,on
27912,Geo Time Trail Vista Hills Hydro Corridor,trail,waterloo region,..,..,..,..,on
27913,Geo Time Trail Vista Hills Reserve,trail,waterloo region,..,..,..,..,on
28117,Glendene Cres To Havelock Dr,trail,waterloo region,..,..,..,..,on
28126,Glenmanor Blvd To Sir Edgar Bauer Catholic School,trail,waterloo region,..,..,..,..,on
28128,Glenridge Dr To Mere-Elisabeth-Bruyere,trail,waterloo region,..,..,..,..,on
28220,Goldthread Park,trail,waterloo region,..,..,..,..,on
28313,Grand Banks Link,trail,waterloo region,..,..,..,..,on
28355,Grand Meadow Pl To Dansbury Dr,trail,waterloo region,..,..,..,..,on
28540,Grangewood Dr To Dunvegan Park,trail,waterloo region,..,..,..,..,on
28542,Grant Cres To Green Acres Dr,trail,waterloo region,..,..,..,..,on
28543,Grant Cres To Williamsburg Link,trail,waterloo region,..,..,..,..,on
28552,Great Trail,trail,waterloo region,..,..,..,..,on
28553,Great Trail,trail,waterloo region,..,..,..,..,on
28554,Great Trail,trail,waterloo region,..,..,..,..,on
28555,Great Trail,trail,waterloo region,..,..,..,..,on
28556,Great Trail/Iron Horse Trail,trail,waterloo region,..,..,..,..,on
28557,Great Trail/Iron Horse Trail,trail,waterloo region,..,..,..,..,on
28559,Great Trail/Iron Horse Trail,trail,waterloo region,..,..,..,..,on
28560,Great Trail/Iron Horse Trail,trail,waterloo region,..,..,..,..,on
28561,Great Trail/Iron Horse Trail,trail,waterloo region,..,..,..,..,on
28562,Great Trail/Iron Horse Trail,trail,waterloo region,..,..,..,..,on
28563,Great Trail/Iron Horse Trail,trail,waterloo region,..,..,..,..,on
28564,Great Trail/Iron Horse Trail,trail,waterloo region,..,..,..,..,on
28565,Great Trail/Iron Horse Trail,trail,waterloo region,..,..,..,..,on
28566,Great Trail/Iron Horse Trail,trail,waterloo region,..,..,..,..,on
28567,Great Trail/Iron Horse Trail,trail,waterloo region,..,..,..,..,on
28568,Great Trail/Iron Horse Trail,trail,waterloo region,..,..,..,..,on
28569,Great Trail/Iron Horse Trail,trail,waterloo region,..,..,..,..,on
28570,Great Trail/Iron Horse Trail,trail,waterloo region,..,..,..,..,on
28571,Great Trail/Laurel Trail,trail,waterloo region,..,..,..,..,on
28572,Great Trail/Laurel Trail,trail,waterloo region,..,..,..,..,on
28573,Great Trail/Laurel Trail,trail,waterloo region,..,..,..,..,on
28574,Great Trail/Laurel Trail,trail,waterloo region,..,..,..,..,on
28575,Great Trail/Laurel Trail,trail,waterloo region,..,..,..,..,on
28576,Great Trail/Laurel Trail,trail,waterloo region,..,..,..,..,on
28577,Great Trail/Laurel Trail,trail,waterloo region,..,..,..,..,on
28578,Great Trail/Laurel Trail,trail,waterloo region,..,..,..,..,on
28579,Great Trail/Laurel Trail,trail,waterloo region,..,..,..,..,on
28580,Great Trail/Laurel Trail,trail,waterloo region,..,..,..,..,on
28581,Great Trail/Laurel Trail,trail,waterloo region,..,..,..,..,on
28582,Great Trail/Laurel Trail,trail,waterloo region,..,..,..,..,on
28583,Great Trail/Laurel Trail,trail,waterloo region,..,..,..,..,on
28584,Great Trail/Laurel Trail,trail,waterloo region,..,..,..,..,on
28585,Great Trail/Laurel Trail,trail,waterloo region,..,..,..,..,on
28586,Great Trail/Laurel Trail,trail,waterloo region,..,..,..,..,on
28587,Great Trail/Laurel Trail,trail,waterloo region,..,..,..,..,on
28588,Great Trail/Laurel Trail,trail,waterloo region,..,..,..,..,on
