Index,Facility_Name,ODRSF_facility_type,Provider,Street_No,Street_Name,Postal_Code,City,Prov_Terr
79645,..,trail,kitchener,..,woolner trail,..,..,on
79646,..,trail,kitchener,..,eden oak,..,..,on
79647,..,trail,kitchener,..,eden oak,..,..,on
79648,..,trail,kitchener,..,jubilee,..,..,on
79649,..,trail,kitchener,..,river ridge,..,..,on
79650,..,trail,kitchener,..,ebydale,..,..,on
79651,..,trail,kitchener,..,ebydale,..,..,on
79652,..,trail,kitchener,..,grand flats trail,..,..,on
79653,..,trail,kitchener,..,grand flats trail,..,..,on
79654,..,trail,kitchener,..,grand flats trail,..,..,on
79655,..,trail,kitchener,..,grand flats trail,..,..,on
79656,..,trail,kitchener,..,eden oak,..,..,on
79657,..,trail,kitchener,..,eden oak,..,..,on
79658,..,trail,kitchener,..,farrier,..,..,on
79659,..,trail,kitchener,..,farrier,..,..,on
79660,..,trail,kitchener,..,amand,..,..,on
79661,..,trail,kitchener,..,amand,..,..,on
79662,..,trail,kitchener,..,amand,..,..,on
79663,..,trail,kitchener,..,amand,..,..,on
79664,..,trail,kitchener,..,amand,..,..,on
79665,..,trail,kitchener,..,amand,..,..,on
79666,..,trail,kitchener,..,amand,..,..,on
79667,..,trail,kitchener,..,amand,..,..,on
79668,..,trail,kitchener,..,seabrook,..,..,on
79669,..,trail,kitchener,..,seabrook,..,..,on
79670,..,trail,kitchener,..,seabrook,..,..,on
79671,..,trail,kitchener,..,amand,..,..,on
79672,..,trail,kitchener,..,amand,..,..,on
79673,..,trail,kitchener,..,fischer hallman,..,..,on
79674,..,trail,kitchener,..,fischer hallman,..,..,on
79675,..,trail,kitchener,..,huron,..,..,on
79676,..,trail,kitchener,..,wabanaki,..,..,on
79677,..,trail,kitchener,..,wabanaki,..,..,on
79678,..,trail,kitchener,..,wabanaki,..,..,on
79679,..,trail,kitchener,..,wabanaki,..,..,on
79680,..,trail,kitchener,..,wabanaki,..,..,on
79681,..,trail,kitchener,..,sedgewood,..,..,on
79682,..,trail,kitchener,..,inge,..,..,on
79683,..,trail,kitchener,..,hollinger,..,..,on
79684,..,trail,kitchener,..,ridgemount,..,..,on
79685,..,trail,kitchener,..,ottawa,..,..,on
79686,..,trail,kitchener,..,guelph,..,..,on
79688,..,trail,kitchener,..,windale,..,..,on
79689,..,trail,kitchener,..,ottawa,..,..,on
79690,..,trail,kitchener,..,..,..,..,on
79691,..,trail,kitchener,..,highland,..,..,on
79692,..,trail,kitchener,..,rockcliffe,..,..,on
79693,..,trail,kitchener,..,homer watson,..,..,on
79694,..,trail,kitchener,..,homer watson,..,..,on
