Index,Facility_Name,ODRSF_facility_type,Provider,Street_No,Street_Name,Postal_Code,City,Prov_Terr
79796,..,trail,kitchener,..,huron,..,..,on
79797,..,trail,kitchener,..,huron,..,..,on
79798,..,trail,kitchener,..,stirling,..,..,on
79799,..,trail,kitchener,..,huron,..,..,on
79800,..,trail,kitchener,..,huron,..,..,on
79801,..,trail,kitchener,..,huron,..,..,on
79802,..,trail,kitchener,..,huron,..,..,on
79803,..,trail,kitchener,..,huron,..,..,on
79804,..,trail,kitchener,..,huron,..,..,on
79805,..,trail,kitchener,..,carlyle,..,..,on
79806,..,trail,kitchener,..,carlyle,..,..,on
79807,..,trail,kitchener,..,pioneer,..,..,on
79808,..,trail,kitchener,..,brookside,..,..,on
79809,..,trail,kitchener,..,fairway,..,..,on
79810,..,trail,kitchener,..,fairway,..,..,on
79811,..,trail,kitchener,..,courtland,..,..,on
79812,..,trail,kitchener,..,keewatin,..,..,on
79813,..,trail,kitchener,..,tami,..,..,on
79814,..,trail,kitchener,..,driftwood,..,..,on
79815,..,trail,kitchener,..,old forest,..,..,on
79816,..,trail,kitchener,..,hillbrook,..,..,on
79817,..,trail,kitchener,..,carlyle,..,..,on
79818,..,trail,kitchener,..,windy ridge,..,..,on
79819,..,trail,kitchener,..,millwood,..,..,on
79820,..,trail,kitchener,..,perin,..,..,on
79821,..,trail,kitchener,..,chopin,..,..,on
79822,..,trail,kitchener,..,lakeside,..,..,on
79823,..,trail,kitchener,..,lakeside,..,..,on
79824,..,trail,kitchener,..,queens,..,..,on
79825,..,trail,kitchener,..,homer watson,..,..,on
79826,..,trail,kitchener,..,eden oak,..,..,on
79827,..,trail,kitchener,..,ottawa,..,..,on
79828,..,trail,kitchener,..,seabrook,..,..,on
79829,..,trail,kitchener,..,shady glen,..,..,on
79830,..,trail,kitchener,..,westmeadow,..,..,on
79831,..,trail,kitchener,..,victoria,..,..,on
79832,..,trail,kitchener,..,shirley,..,..,on
79833,..,trail,kitchener,..,otterbein,..,..,on
79834,..,trail,kitchener,..,homer watson onramp,..,..,on
79835,..,trail,kitchener,..,homer watson onramp,..,..,on
79836,..,trail,kitchener,..,homer watson,..,..,on
79837,..,trail,kitchener,..,idlewood,..,..,on
79838,..,trail,kitchener,..,kenneth,..,..,on
79839,..,trail,kitchener,..,idlewood,..,..,on
79840,..,trail,kitchener,..,franklin,..,..,on
79841,..,trail,kitchener,..,cayuga,..,..,on
79842,..,trail,kitchener,..,homer watson onramp,..,..,on
79843,..,trail,kitchener,..,homer watson onramp,..,..,on
79844,..,trail,kitchener,..,victoria,..,..,on
