Index,Facility_Name,ODRSF_facility_type,Provider,Street_No,Street_Name,Postal_Code,City,Prov_Terr
54456,Sugarbush Park,trail,kitchener,..,..,..,waterloo,on
54457,Sugarbush Park,trail,kitchener,..,..,..,waterloo,on
54458,Sugarbush Park,trail,kitchener,..,weber,..,waterloo,on
54459,Sugarbush Park,trail,kitchener,..,weber,..,waterloo,on
54460,Sugarbush Park To Longwood Dr,trail,waterloo region,..,..,..,..,on
54484,Sundew Swm A # 1,trail,waterloo region,..,..,..,..,on
54485,Sundew Swma 1B,trail,waterloo region,..,..,..,..,on
54486,Sundew Swma 1B,trail,waterloo region,..,..,..,..,on
54487,Sundew Swma 1B,trail,waterloo region,..,..,..,..,on
54495,Sunpoint Cres To Cornerbrook Park,trail,waterloo region,..,..,..,..,on
54665,Sweet Gale St To Buttonbush St,trail,waterloo region,..,..,..,..,on
54797,Tealby Cres To Tealby Swm Area,trail,waterloo region,..,..,..,..,on
54993,The Lion's Gate To Old Post Rd,trail,waterloo region,..,..,..,..,on
55006,The Village At University Gates,trail,waterloo region,..,..,..,..,on
55070,Thornberry Lane To Westvale Public School,trail,waterloo region,..,..,..,..,on
55071,Thornbush Cres To Erb St W,trail,waterloo region,..,..,..,..,on
55072,Thorncrest Grove,trail,waterloo region,..,..,..,..,on
55073,Thorndale Dr To West Wind Park,trail,waterloo region,..,..,..,..,on
55074,Thorndale Park,trail,waterloo region,..,..,..,..,on
55114,Thornview Pl To Willow Wood Pl,trail,waterloo region,..,..,..,..,on
55129,Timbercroft Cres To Laurelwood Park,trail,waterloo region,..,..,..,..,on
62404,Train Station,trail,waterloo region,..,..,..,..,on
62405,Train Station,trail,waterloo region,..,..,..,..,on
62406,Train Station,trail,waterloo region,..,..,..,..,on
62407,Train Station,trail,waterloo region,..,..,..,..,on
62408,Train Station,trail,waterloo region,..,..,..,..,on
62439,Trans Canada Trail,trail,waterloo region,..,..,..,..,on
62440,Trans Canada Trail,trail,waterloo region,..,..,..,..,on
62441,Trans Canada Trail,trail,waterloo region,..,..,..,..,on
62442,Trans Canada Trail,trail,waterloo region,..,..,..,..,on
62478,Trans Canada Trail,trail,waterloo region,..,..,..,..,on
62529,Trans Canada Trail,trail,kitchener,..,university,..,waterloo,on
62530,Trans Canada Trail,trail,kitchener,..,..,..,waterloo,on
62535,Trans Canada Trail,trail,kitchener,..,westmount,..,waterloo,on
62536,Trans Canada Trail,trail,kitchener,..,westmount,..,waterloo,on
62543,Trans Canada Trail,trail,kitchener,..,erb,..,waterloo,on
62544,Trans Canada Trail,trail,kitchener,..,..,..,waterloo,on
62548,Trans Canada Trail,trail,kitchener,..,university,..,waterloo,on
62549,Trans Canada Trail,trail,kitchener,..,..,..,waterloo,on
62565,Trans Canada Trail \ Iron Horse Trail,trail,kitchener,..,..,..,waterloo,on
62566,Trans Canada Trail \ Iron Horse Trail,trail,kitchener,..,caroline,..,kitchener,on
62583,Trans Canada Trail \ Iron Horse Trail,trail,kitchener,..,..,..,waterloo,on
62584,Trans Canada Trail \ Iron Horse Trail \ Laurel Trail,trail,kitchener,..,..,..,waterloo,on
62587,Trans Canada Trail \ Laurel Trail,trail,kitchener,..,university,..,waterloo,on
62618,Trans-Canada Trail,trail,kitchener,..,weber,..,waterloo,on
62636,Trans-Canada Trail,trail,kitchener,..,..,..,waterloo,on
62710,Trans-Canada Trail/Avon Trail,trail,kitchener,..,erbsville,..,waterloo,on
62718,Trans-Canada Trail/Avon Trail,trail,kitchener,..,..,..,waterloo,on
62719,Trans-Canada Trail/Avon Trail,trail,kitchener,..,erbsville,..,waterloo,on
