Index,Facility_Name,ODRSF_facility_type,Provider,Street_No,Street_Name,Postal_Code,City,Prov_Terr
170683,Lynnvalley Park,park,kitchener,26,lynnvalley,..,..,on
170685,Lynnvalley Park Natural Area,park,kitchener,26,lynnvalley,..,..,on
170755,Madison Green,park,kitchener,65,madison,..,..,on
170799,Major Park,park,kitchener,330,breithaupt,..,..,on
170874,Maple Lane Green,park,kitchener,35,breithaupt,..,..,on
170961,Marigold Park,park,kitchener,375,robert,..,..,on
170976,Marisa Park,park,kitchener,201,bridge,..,..,on
170986,Market Green,park,kitchener,31,scott,..,..,on
171135,Mausser Park,park,kitchener,219,stirling,..,..,on
171137,Max Becker Common,park,kitchener,300,becker,..,..,on
171296,Mclennan Park,park,kitchener,901,ottawa,..,..,on
171357,Meadowlane Park,park,kitchener,138,glen,..,..,on
171365,Meadowridge St - Swp,park,kitchener,37,meadowridge,..,..,on
171396,Meinzinger Park,park,kitchener,100,watson,..,..,on
171398,Meinzinger Park (Mto),park,kitchener,..,avalon,..,..,on
171400,Meinzinger Park Natural Area,park,kitchener,..,homer watson,..,..,on
171472,Michael Donnenworth Park,park,kitchener,94,isaiah,..,..,on
171480,Michel Green,park,kitchener,..,charles,..,..,on
171499,Midland Park,park,kitchener,39,midland,..,..,on
171511,Mike Wagner Green (Courtland),park,kitchener,..,madison,..,..,on
171512,Mike Wagner Green (Mill St),park,kitchener,54,mill,..,..,on
171540,Mill St Parkette,park,kitchener,346,mill,..,..,on
171605,Millwood Park,park,kitchener,130,millwood,..,..,on
171608,Millwood Park Natural Area,park,kitchener,..,millwood,..,..,on
171747,Monarch Woods Park,park,kitchener,166,hallman,..,..,on
171783,Montgomery Park,park,kitchener,135,montgomery,..,..,on
171821,Morgan Park,park,kitchener,325,morgan,..,..,on
171848,Morrison Park,park,kitchener,245,morrison,..,..,on
171875,Motz Green,park,kitchener,..,fairway,..,..,on
172048,Natchez Woods,park,kitchener,..,ebydale,..,..,on
172260,Northforest Park,park,kitchener,90,northforest trail,..,..,on
172262,Northforest Trail,park,kitchener,..,glasgowto northforest trail,..,..,on
172467,Oaten Park,park,kitchener,155,rutherford,..,..,on
172504,Oktoberfest Platz,park,kitchener,19,benton,..,..,on
172514,Old Huron Court,park,kitchener,60,old huron,..,..,on
172515,Old Huron Green,park,kitchener,119,huron,..,..,on
172518,Old Mill Green,park,kitchener,..,old mill,..,..,on
172603,Orchard Mill Green,park,kitchener,..,doon,..,..,on
172634,Oscar Lauber Park,park,kitchener,314,louisa,..,..,on
172647,Otterbein Natural Area,park,kitchener,650,otterbein,..,..,on
172665,Overlea Park,park,kitchener,25,overlea,..,..,on
172682,Oxford St Park,park,kitchener,291,oxford,..,..,on
172705,Paige Park,park,kitchener,235,paige,..,..,on
172707,Paige Park Natural Area (Flood Plain),park,kitchener,235,paige,..,..,on
172708,Paige St - Swp,park,kitchener,76,paige,..,..,on
173645,Parkvale Park,park,kitchener,275,parkvale,..,..,on
173647,Parkvale Park Natural Area,park,kitchener,275,parkvale,..,..,on
173822,Peter Hallman Ball Yard,park,kitchener,220,hayward,..,..,on
173835,Petrifying Spring Natural Area,park,kitchener,875,wabanaki,..,..,on
