Index,Facility_Name,ODRSF_facility_type,Provider,Street_No,Street_Name,Postal_Code,City,Prov_Terr
12175,Jack Couch Park (Kmac) Ball Diamond,sports field,kitchener,400,ottawa,..,..,on
12214,Janet Metcalfe Public School,sports field,kitchener,335,seabrook,..,..,on
12270,John Darling Public School Soccer Field,sports field,kitchener,200,rolling meadows,..,..,on
12271,John Darling Public School Soccer Field 2,sports field,kitchener,200,rolling meadows,..,..,on
12289,John Sweeney School Diamond,sports field,kitchener,185,activa,..,..,on
12333,K.C.I. Sportsfields - Scrub Diamond (Removed),sports field,kitchener,21,pine,..,..,on
12334,K.C.I. Sportsfields Soccer Field-1,sports field,kitchener,21,pine,..,..,on
12335,K.C.I. Sportsfields Soccer Field-2,sports field,kitchener,21,pine,..,..,on
12336,K.M.A.C. Skateboard Park,sports field,kitchener,400,east,..,kitchener,on
12359,Kaufman Park Soccer Field-1,sports field,kitchener,104,stirling,..,..,on
12360,Kaufman Park Soccer Field-2,sports field,kitchener,104,stirling,..,..,on
12361,Kaufman Park Tennis Court,sports field,kitchener,104,stirling,..,..,on
12362,Kaufman Park Track And Field,sports field,kitchener,104,stirling,..,..,on
12462,King Edward School Ball Diamond,sports field,kitchener,709,king,..,..,on
12477,Kingsdale Park Ball Diamond,sports field,kitchener,124,cedarwoods,..,..,on
12541,Kitchener Memorial Auditorium Soccer Field,sports field,kitchener,400,east,..,kitchener,on
12545,Kiwanis Park Disk Field 1,sports field,kitchener,1000,park,..,..,on
12546,Kiwanis Park Disk Field 2,sports field,kitchener,1000,park,..,..,on
12547,Kiwanis Park Disk Field 3,sports field,kitchener,1000,park,..,..,on
12548,Kiwanis Park Disk Field 4,sports field,kitchener,1000,park,..,..,on
12549,Kiwanis Park Disk Field 5,sports field,kitchener,1000,park,..,..,on
12550,Kiwanis Park Frisbee Field,sports field,kitchener,1000,park,..,..,on
12551,Kiwanis Park Scrub Baseball Diamond,sports field,kitchener,1000,park,..,..,on
12552,Kiwanis Park Volleyball Courts,sports field,kitchener,1000,park,..,..,on
12769,Knollwood Park Ball Diamond,sports field,kitchener,311,east,..,kitchener,on
12770,Knollwood Park Soccer Field,sports field,kitchener,311,east,..,kitchener,on
12786,Lackner Woods Public School Soccer Field,sports field,kitchener,151,zeller,..,..,on
12918,Laurentian Hills Christian School Soccer Field,sports field,kitchener,11,laurentian,..,..,on
12919,Laurentian Park Soccer Field,sports field,kitchener,715,westmount,..,..,on
12920,Laurentian School Soccer Field,sports field,kitchener,777,westmount,..,..,on
13090,Lions Park Ball Diamond 1,sports field,kitchener,20,rittenhouse,..,..,on
13091,Lions Park Ball Diamond 2,sports field,kitchener,20,rittenhouse,..,..,on
13092,Lions Park Field Hockey Pitch-1,sports field,kitchener,20,rittenhouse,..,..,on
13093,Lions Park Field Hockey Pitch-2,sports field,kitchener,20,rittenhouse,..,..,on
13207,Lynnvalley Park Ball Diamond,sports field,kitchener,26,lynnvalley,..,..,on
13208,Lynnvalley Park Basketball Court,sports field,kitchener,26,lynnvalley,..,..,on
13249,Mackenzie King Public School,sports field,kitchener,51,natchez,..,..,on
13250,Mackenzie King School Ball Diamond,sports field,kitchener,51,natchez,..,..,on
13251,Mackenzie King School Soccer Field,sports field,kitchener,51,natchez,..,..,on
13285,Major Park Baseball Diamond,sports field,kitchener,..,breithaupt,..,..,on
13357,Margaret Avenue Multipurpose Pad,sports field,kitchener,325,louisa,..,..,on
13358,Margaret Avenue School Soccer Field,sports field,kitchener,325,louisa,..,..,on
13359,Margaret Avenue Tennis Court,sports field,kitchener,325,louisa,..,..,on
13502,Mclennan Bike Park,sports field,kitchener,901,ottawa,..,..,on
13503,Mclennan Park Basketball Court 1,sports field,kitchener,901,ottawa,..,..,on
13504,Mclennan Park Basketball Court 2,sports field,kitchener,901,ottawa,..,..,on
13505,Mclennan Park Basketball Net,sports field,kitchener,901,ottawa,..,..,on
13506,Mclennan Park Multi-Purpose Pad,sports field,kitchener,901,ottawa,..,..,on
13507,Mclennan Park Multi-Purpose Pad,sports field,kitchener,901,ottawa,..,..,on
