Index,Facility_Name,ODRSF_facility_type,Provider,Street_No,Street_Name,Postal_Code,City,Prov_Terr
80798,..,trail,kitchener,..,sophia,..,..,on
80799,..,trail,kitchener,..,shelley,..,..,on
80800,..,trail,kitchener,..,wilson,..,..,on
80801,..,trail,kitchener,..,shelley,..,..,on
80802,..,trail,kitchener,..,homer watson,..,..,on
80803,..,trail,kitchener,..,eden oak,..,..,on
80804,..,trail,kitchener,..,eden oak,..,..,on
80805,..,trail,kitchener,..,rivertrail,..,..,on
80806,..,trail,kitchener,..,eden oak,..,..,on
80807,..,trail,kitchener,..,manchester,..,..,on
80808,..,trail,kitchener,..,carson,..,..,on
80809,..,trail,kitchener,..,union,..,..,on
80810,..,trail,kitchener,..,maplewood,..,..,on
80811,..,trail,kitchener,..,union,..,..,on
80812,..,trail,kitchener,..,union,..,..,on
80814,..,trail,kitchener,..,graber,..,..,on
80815,..,trail,kitchener,..,stonehenge,..,..,on
80816,..,trail,kitchener,..,yellow birch,..,..,on
80817,..,trail,kitchener,..,yellow birch,..,..,on
80818,..,trail,kitchener,..,eden oak,..,..,on
80819,..,trail,kitchener,..,commonwealth,..,..,on
80820,..,trail,kitchener,..,huron,..,..,on
80821,..,trail,kitchener,..,huron,..,..,on
80822,..,trail,kitchener,..,strasburg,..,..,on
80823,..,trail,kitchener,..,commonwealth,..,..,on
80824,..,trail,kitchener,..,commonwealth,..,..,on
80825,..,trail,kitchener,..,commonwealth,..,..,on
80826,..,trail,kitchener,..,commonwealth,..,..,on
80827,..,trail,kitchener,..,mcgee,..,..,on
80828,..,trail,kitchener,..,ottawa,..,..,on
80829,..,trail,kitchener,..,ottawa,..,..,on
80830,..,trail,kitchener,..,huron,..,..,on
80831,..,trail,kitchener,..,huron,..,..,on
80832,..,trail,kitchener,..,rothsay,..,..,on
80833,..,trail,kitchener,..,barbara,..,..,on
80834,..,trail,kitchener,..,king,..,..,on
80835,..,trail,kitchener,..,king,..,..,on
80836,..,trail,kitchener,..,king,..,..,on
80837,..,trail,kitchener,..,bent willow,..,..,on
80838,..,trail,kitchener,..,royal orchard,..,..,on
80839,..,trail,kitchener,..,steepleridge,..,..,on
80840,..,trail,kitchener,..,steepleridge,..,..,on
80841,..,trail,kitchener,..,shirley,..,..,on
80842,..,trail,kitchener,..,prince,..,..,on
80843,..,trail,kitchener,..,tyson,..,..,on
80844,..,trail,kitchener,..,tyson,..,..,on
80845,..,trail,kitchener,..,bridge,..,..,on
80846,..,trail,kitchener,..,courtland,..,..,on
80847,..,trail,kitchener,..,courtland,..,..,on
