Index,Facility_Name,ODRSF_facility_type,Provider,Street_No,Street_Name,Postal_Code,City,Prov_Terr
80648,..,trail,kitchener,..,falling green,..,..,on
80649,..,trail,kitchener,..,falling green,..,..,on
80650,..,trail,kitchener,..,eden oak,..,..,on
80651,..,trail,kitchener,..,rivertrail,..,..,on
80652,..,trail,kitchener,..,eden oak,..,..,on
80653,..,trail,kitchener,..,eden oak,..,..,on
80654,..,trail,kitchener,..,smetana,..,..,on
80655,..,trail,kitchener,..,rothsay,..,..,on
80656,..,trail,kitchener,..,parkview,..,..,on
80657,..,trail,kitchener,..,fairway,..,..,on
80658,..,trail,kitchener,..,fairway,..,..,on
80659,..,trail,kitchener,..,fairway,..,..,on
80660,..,trail,kitchener,..,ira needles,..,..,on
80661,..,trail,kitchener,..,university,..,..,on
80662,..,trail,kitchener,..,ira needles,..,..,on
80663,..,trail,kitchener,..,ira needles,..,..,on
80664,..,trail,kitchener,..,ira needles,..,..,on
80665,..,trail,kitchener,..,ira needles,..,..,on
80666,..,trail,kitchener,..,ira needles,..,..,on
80667,..,trail,kitchener,..,weber,..,..,on
80668,..,trail,kitchener,..,bank swallow,..,..,on
80669,..,trail,kitchener,..,fairway,..,..,on
80670,..,trail,kitchener,..,falling green,..,..,on
80671,..,trail,kitchener,..,falling green,..,..,on
80672,..,trail,kitchener,..,falling green,..,..,on
80673,..,trail,kitchener,..,william lewis,..,..,on
80674,..,trail,kitchener,..,winifred,..,..,on
80675,..,trail,kitchener,..,pioneer tower rd,..,..,on
80676,..,trail,kitchener,..,candle,..,..,on
80677,..,trail,kitchener,..,candle,..,..,on
80678,..,trail,kitchener,..,candle,..,..,on
80679,..,trail,kitchener,..,woodbine,..,..,on
80680,..,trail,kitchener,..,woodbine,..,..,on
80681,..,trail,kitchener,..,condor,..,..,on
80682,..,trail,kitchener,..,vicmount,..,..,on
80683,..,trail,kitchener,..,stoke,..,..,on
80684,..,trail,kitchener,..,beaumont,..,..,on
80685,..,trail,kitchener,..,beaumont,..,..,on
80686,..,trail,kitchener,..,beaumont,..,..,on
80687,..,trail,kitchener,..,beaumont,..,..,on
80688,..,trail,kitchener,..,beaumont,..,..,on
80689,..,trail,kitchener,..,beaumont,..,..,on
80690,..,trail,kitchener,..,sims estate,..,..,on
80691,..,trail,kitchener,..,old chicopee,..,..,on
80692,..,trail,kitchener,..,ira needles,..,..,on
80693,..,trail,kitchener,..,eden oak,..,..,on
80694,..,trail,kitchener,..,eden oak,..,..,on
80695,..,trail,kitchener,..,fischer hallman,..,..,on
80696,..,trail,kitchener,..,seabrook,..,..,on
