Index,Facility_Name,ODRSF_facility_type,Provider,Street_No,Street_Name,Postal_Code,City,Prov_Terr
20597,Anndale Park,trail,waterloo region,..,..,..,..,on
20598,Anndale Park,trail,waterloo region,..,..,..,..,on
20599,Anndale Park,trail,kitchener,..,..,..,waterloo,on
20600,Anndale Park,trail,kitchener,..,..,..,waterloo,on
20601,Anndale Park,trail,kitchener,..,..,..,waterloo,on
20602,Anndale Park,trail,kitchener,..,..,..,waterloo,on
20603,Anndale Park To Anndale Rd,trail,waterloo region,..,..,..,..,on
20637,Applegate Crt To Westfield Links,trail,waterloo region,..,..,..,..,on
20938,Ashberry Pl To Keats Way,trail,waterloo region,..,..,..,..,on
20939,Ashberry Pl To Woodbend Cres,trail,waterloo region,..,..,..,..,on
21022,Atlantic Blvd To Rim Park,trail,waterloo region,..,..,..,..,on
21023,Atlantic Park,trail,waterloo region,..,..,..,..,on
21024,Atlantic Park,trail,waterloo region,..,..,..,..,on
21087,Auburn Link,trail,waterloo region,..,..,..,..,on
21088,Auburn Park,trail,waterloo region,..,..,..,..,on
21126,Autumn Willow Park,trail,waterloo region,..,..,..,..,on
21127,Autumn Willow Park,trail,waterloo region,..,..,..,..,on
21128,Autumn Willow Park,trail,waterloo region,..,..,..,..,on
21167,Avon Trail,trail,kitchener,..,..,..,waterloo,on
21168,Avon Trail,trail,kitchener,..,northfield,..,waterloo,on
21169,Avon Trail,trail,kitchener,..,northfield,..,waterloo,on
21204,Bamberg Cres To St. Moritz Park,trail,waterloo region,..,..,..,..,on
21221,Baringham Pl To ?,trail,waterloo region,..,..,..,..,on
21237,Basswood Park To Butternut Ave,trail,waterloo region,..,..,..,..,on
21242,Bauer Pl To King St N,trail,waterloo region,..,..,..,..,on
21389,Bearinger Rd,trail,waterloo region,..,..,..,..,on
21390,Bearinger Rd,trail,waterloo region,..,..,..,..,on
21391,Bearinger Rd,trail,waterloo region,..,..,..,..,on
21392,Bearinger Rd,trail,waterloo region,..,..,..,..,on
21393,Bearinger Rd,trail,waterloo region,..,..,..,..,on
21394,Bearinger Rd,trail,waterloo region,..,..,..,..,on
21395,Bearinger Rd,trail,waterloo region,..,..,..,..,on
21396,Bearinger Rd,trail,waterloo region,..,..,..,..,on
21397,Bearinger Rd,trail,waterloo region,..,..,..,..,on
21398,Bearinger Rd,trail,waterloo region,..,..,..,..,on
21399,Bearinger Rd To Corrie Cres,trail,waterloo region,..,..,..,..,on
21443,Beaver Creek Swm A To Brookmill Pl,trail,waterloo region,..,..,..,..,on
21451,Bechtel Park Reserve,trail,waterloo region,..,..,..,..,on
21452,Bechtel Park Reserve,trail,waterloo region,..,..,..,..,on
21453,Bechtel Park Reserve,trail,waterloo region,..,..,..,..,on
21454,Bechtel Park Reserve,trail,waterloo region,..,..,..,..,on
21455,Bechtel Park Reserve,trail,waterloo region,..,..,..,..,on
21456,Bechtel Park Reserve,trail,waterloo region,..,..,..,..,on
21457,Bechtel Park Reserve,trail,waterloo region,..,..,..,..,on
21459,Bechtel Park Reserve,trail,waterloo region,..,..,..,..,on
21528,Beechwood Dr To Erb St W,trail,waterloo region,..,..,..,..,on
21550,Belgreen Park,trail,waterloo region,..,..,..,..,on
21551,Belgreen Park,trail,waterloo region,..,..,..,..,on
21552,Belgreen Park,trail,waterloo region,..,..,..,..,on
