Index,Facility_Name,ODRSF_facility_type,Provider,Street_No,Street_Name,Postal_Code,City,Prov_Terr
78389,..,trail,kitchener,..,ira needles,..,..,on
78390,..,trail,kitchener,..,ira needles,..,..,on
78391,..,trail,kitchener,..,biehn,..,..,on
78392,..,trail,kitchener,..,old huron,..,..,on
78393,..,trail,kitchener,..,shantz,..,..,on
78394,..,trail,kitchener,..,pioneer ridge,..,..,on
78395,..,trail,kitchener,..,shelley,..,..,on
78396,..,trail,kitchener,..,foxbrook,..,..,on
78397,..,trail,kitchener,..,meadowridge,..,..,on
78398,..,trail,kitchener,..,mistywood,..,..,on
78399,..,trail,kitchener,..,zeller,..,..,on
78400,..,trail,kitchener,..,bridgemill,..,..,on
78401,..,trail,kitchener,..,lennox lewis,..,..,on
78402,..,trail,kitchener,..,brookside,..,..,on
78403,..,trail,kitchener,..,doon village,..,..,on
78404,..,trail,kitchener,..,robert ferrie,..,..,on
78405,..,trail,kitchener,..,robert ferrie,..,..,on
78406,..,trail,kitchener,..,robert ferrie,..,..,on
78407,..,trail,kitchener,..,grovehill,..,..,on
78408,..,trail,kitchener,..,seabrook,..,..,on
78409,..,trail,kitchener,..,trillium,..,..,on
78410,..,trail,kitchener,..,trillium,..,..,on
78411,..,trail,kitchener,..,trillium,..,..,on
78412,..,trail,kitchener,..,trillium,..,..,on
78413,..,trail,kitchener,..,trillium,..,..,on
78414,..,trail,kitchener,..,trillium,..,..,on
78415,..,trail,kitchener,..,cora,..,..,on
78416,..,trail,kitchener,..,doon mills,..,..,on
78417,..,trail,kitchener,..,pine valley,..,..,on
78418,..,trail,kitchener,..,waterford,..,..,on
78419,..,trail,kitchener,..,oneida,..,..,on
78420,..,trail,kitchener,..,oneida,..,..,on
78421,..,trail,kitchener,..,oneida,..,..,on
78422,..,trail,kitchener,..,wyandotte,..,..,on
78423,..,trail,kitchener,..,champlain,..,..,on
78424,..,trail,kitchener,..,lichty,..,..,on
78425,..,trail,kitchener,..,centennial,..,..,on
78426,..,trail,kitchener,..,bound brook,..,..,on
78427,..,trail,kitchener,..,edenbridge,..,..,on
78428,..,trail,kitchener,..,cherry,..,..,on
78429,..,trail,kitchener,..,trailwood,..,..,on
78430,..,trail,kitchener,..,shirley,..,..,on
78431,..,trail,kitchener,..,huck,..,..,on
78432,..,trail,kitchener,..,centennial,..,..,on
78433,..,trail,kitchener,..,victoria,..,..,on
78434,..,trail,kitchener,..,riverbend,..,..,on
78435,..,trail,kitchener,..,pine valley,..,..,on
78436,..,trail,kitchener,..,forwell,..,..,on
78437,..,trail,kitchener,..,daniel,..,..,on
