Index,Facility_Name,ODRSF_facility_type,Provider,Street_No,Street_Name,Postal_Code,City,Prov_Terr
65332,Walker Woods,trail,kitchener,..,..,..,wilmot,on
65333,Walker Woods,trail,kitchener,..,..,..,wilmot,on
65334,Walker Woods,trail,kitchener,..,..,..,wilmot,on
65335,Walker Woods,trail,kitchener,..,..,..,wilmot,on
65336,Walker Woods,trail,kitchener,..,..,..,wilmot,on
65337,Walker Woods,trail,kitchener,..,..,..,wilmot,on
65338,Walker Woods,trail,kitchener,..,..,..,wilmot,on
65339,Walker Woods,trail,kitchener,..,..,..,wilmot,on
65340,Walker Woods,trail,kitchener,..,..,..,wilmot,on
65341,Walker Woods,trail,kitchener,..,..,..,wilmot,on
65342,Walker Woods,trail,kitchener,..,..,..,wilmot,on
65343,Walker Woods,trail,kitchener,..,walker,..,wilmot,on
65344,Walker Woods,trail,kitchener,..,..,..,wilmot,on
65345,Walker Woods,trail,kitchener,..,..,..,wilmot,on
65346,Walker Woods,trail,kitchener,..,..,..,wilmot,on
65347,Walker Woods,trail,kitchener,..,..,..,wilmot,on
67081,Waterloo Landfill,trail,kitchener,..,..,..,wilmot,on
67084,Waterloo Landfill,trail,kitchener,..,..,..,wilmot,on
67097,Waterloo Landfill,trail,kitchener,..,..,..,wilmot,on
67100,Waterloo Landfill,trail,kitchener,..,..,..,wilmot,on
67102,Waterloo Landfill,trail,kitchener,..,..,..,wilmot,on
67105,Waterloo Landfill,trail,kitchener,..,..,..,waterloo,on
95236,..,trail,kitchener,..,..,..,wilmot,on
95322,..,trail,kitchener,..,..,..,wilmot,on
95323,..,trail,kitchener,..,..,..,wilmot,on
95324,..,trail,kitchener,..,..,..,wilmot,on
95325,..,trail,kitchener,..,..,..,wilmot,on
95326,..,trail,kitchener,..,..,..,wilmot,on
95327,..,trail,kitchener,..,..,..,wilmot,on
95328,..,trail,kitchener,..,..,..,wilmot,on
95329,..,trail,kitchener,..,..,..,wilmot,on
95330,..,trail,kitchener,..,..,..,wilmot,on
95331,..,trail,kitchener,..,..,..,wilmot,on
95332,..,trail,kitchener,..,..,..,wilmot,on
95333,..,trail,kitchener,..,..,..,wilmot,on
95334,..,trail,kitchener,..,..,..,wilmot,on
95335,..,trail,kitchener,..,..,..,wilmot,on
95336,..,trail,kitchener,..,..,..,wilmot,on
95337,..,trail,kitchener,..,..,..,wilmot,on
95338,..,trail,kitchener,..,huron,..,wilmot,on
95339,..,trail,kitchener,..,..,..,wilmot,on
95340,..,trail,kitchener,..,..,..,wilmot,on
95341,..,trail,kitchener,..,..,..,wilmot,on
95342,..,trail,kitchener,..,..,..,wilmot,on
95343,..,trail,kitchener,..,..,..,wilmot,on
95344,..,trail,kitchener,..,..,..,wilmot,on
95345,..,trail,kitchener,..,..,..,wilmot,on
95346,..,trail,kitchener,..,..,..,wilmot,on
95347,..,trail,kitchener,..,..,..,wilmot,on
