Index,Facility_Name,ODRSF_facility_type,Provider,Street_No,Street_Name,Postal_Code,City,Prov_Terr
170164,Laurier Park,park,london,380,millbank,..,..,on
170518,London Hyde Park Rotary Link,park,london,1150,gainsborough,..,..,on
170537,Longview Park,park,london,80,longview,..,..,on
170544,Lord Nelson Woods,park,london,1985,wavell,..,..,on
170555,Lorne Avenue Park,park,london,723,lorne,..,..,on
170629,Ltc - Brydges Park,park,london,1305,brydges,..,..,on
170681,Lynngate Grove Park,park,london,69,lynngate,..,..,on
170870,Maple Grove Park,park,london,1260,coronation,..,..,on
170988,Market Lane,park,london,139,dundas,..,..,on
171040,Marr Drain,park,london,601,exeter,..,..,on
171107,Mathers Stream,park,london,7198,clayton,..,..,on
171173,Mc Nay Drain - North / Open Space,park,london,1070,kipps,..,..,on
171174,Mc Nay Drain - South / Open Space,park,london,440,barker,..,..,on
171175,Mc Nay Drain Swm,park,london,637,ridgeview,..,..,on
171204,Mccormick Park,park,london,39,connaught,..,..,on
171206,Mccormick Swm,park,london,77,connaught,..,..,on
171241,Mcgarrell Walk,park,london,450,mcgarrell,..,..,on
171280,Mckillop Park,park,london,650,riverside,..,..,on
171310,Mcmahen Park,park,london,640,adelaide,..,..,on
171351,Meadowgate Park,park,london,3155,meadowgate,..,..,on
171380,Meander Creek Park,park,london,905,blackmaple,..,..,on
171381,Meander Creek Park Swm,park,london,919,blackmaple,..,..,on
171382,Meander Creek Swm,park,london,1205,crosscreek,..,..,on
171386,Medway Arena,park,london,119,sherwood forest,..,..,on
171387,Medway North Swmf,park,london,330,sunningdale,..,..,on
171388,Medway Park,park,london,1045,wonderland,..,..,on
171389,Medway Valley Swm,park,london,153,rivertrace,..,..,on
171439,Meredith Park,park,london,450,nelson,..,..,on
171515,Mildred Barons Park,park,london,444,kathleen,..,..,on
171667,Mitchell A. Baran Park,park,london,10,riverside,..,..,on
171671,Mitchell Park,park,london,651,westwood,..,..,on
171676,Mitches Park,park,london,640,upper queen,..,..,on
171842,Mornington Park,park,london,800,high holborn,..,..,on
171955,Mud Creek East - Central,park,london,630,proudfoot,..,..,on
171956,Mud Creek East - North,park,london,453,oxford,..,..,on
171957,Mud Creek East - South,park,london,635,proudfoot,..,..,on
171997,Murray - Marr Swm,park,london,3526,dingman,..,..,on
172000,Murray Park,park,london,75,cliftonvale,..,..,on
172016,Naiomi Almeida Park,park,london,828,deveron,..,..,on
172088,Nelson Park,park,london,142,kipling,..,..,on
172138,Nicholas Wilson Park,park,london,16,fitzroy,..,..,on
172172,Norlan Ave / Open Space,park,london,99,norlan,..,..,on
172173,Norlan Ave / Open Space - South,park,london,15,meadowlily,..,..,on
172190,North Branch Park 1,park,london,76,tetherwood,..,..,on
172211,North London Athletic Fields,park,london,1225,adelaide,..,..,on
172212,North London Optimist Community Centre,park,london,1345,cheapside,..,..,on
172219,North Mud Creek,park,london,626,wonderland,..,..,on
172245,Northbrook Park,park,london,2135,blackwater,..,..,on
172246,Northbrook Valley,park,london,1625,adelaide,..,..,on
