Index,Facility_Name,ODRSF_facility_type,Provider,Street_No,Street_Name,Postal_Code,City,Prov_Terr
174675,River Forks Park - East,park,london,10,becher,..,..,on
174676,River Forks Park - West,park,london,15,wharncliffe,..,..,on
174695,River Road Golf Course,park,london,1510,hamilton,..,..,on
174696,River Road Park,park,london,2150,river,..,..,on
174701,River Road Swm,park,london,2315,river,..,..,on
174714,Riverbend Park,park,london,1585,riverbend,..,..,on
174763,River's Edge Disc Golf Course And St Julien Skate Park,park,london,15,julien,..,..,on
174771,Riverside Boat Launch,park,london,520,riverside,..,..,on
174776,Riverside Park,park,london,78,riverside,..,..,on
174787,Riverside Walk,park,london,396,riverside,..,..,on
174940,Rollingwood Circle Park,park,london,50,rollingwood,..,..,on
174971,Rosecliffe Park,park,london,35,quinella,..,..,on
174980,Rosel Park,park,london,21,rosel,..,..,on
175009,Ross Park,park,london,1250,richmond,..,..,on
175043,Rotary Square,park,london,128,king,..,..,on
175255,Rowntree Park,park,london,750,whetter,..,..,on
175333,Ruskin Park,park,london,11,ruskin,..,..,on
175431,Salisbury Open Space,park,london,335,salisbury,..,..,on
175487,Sandra Mcinnis Woods,park,london,5,selden,..,..,on
175544,Scanlan Drain,park,london,2270,river,..,..,on
175576,Scenic View Park,park,london,80,chalet,..,..,on
175720,Sevilla Park,park,london,760,sevilla park,..,..,on
175737,Shaftesbury Park,park,london,85,downing,..,..,on
175789,Shelborne Park - North,park,london,860,deveron,..,..,on
175790,Shelborne Park - South,park,london,855,deveron,..,..,on
175791,Shelborne Swm,park,london,1036,shelborne,..,..,on
175835,Sherwood Forest Park,park,london,7,annadale,..,..,on
175925,Silverwoods Park,park,london,50,sycamore,..,..,on
176033,Smith Park,park,london,194,brampton,..,..,on
176053,Snake Creek,park,london,1723,foxwood,..,..,on
176054,Snake Hill Open Space,park,london,910,commissioners,..,..,on
176079,Somerset Woods,park,london,25,fourwinds,..,..,on
176095,South Branch Park,park,london,2,homan,..,..,on
176103,South East Reservoir,park,london,5200,highbury,..,..,on
176120,South Mud Creek,park,london,557,wonderland,..,..,on
176132,South River Valley,park,london,32,pond mills,..,..,on
176152,South West Community Centre,park,london,501,southdale,..,..,on
176163,Southcrest Park,park,london,10,hazelwood,..,..,on
176164,Southcrest Ravine,park,london,188,base line,..,..,on
176165,Southcrest Ravine - North,park,london,180,emery,..,..,on
176174,Southeast Optimist Park,park,london,237,deveron,..,..,on
176193,Southwest Optimist Park,park,london,682,southdale,..,..,on
176194,Southwest Optimist Swm,park,london,881,adirondack,..,..,on
176195,Southwinds Park,park,london,3982,graham,..,..,on
176196,Southwinds Park - North,park,london,7197,clayton,..,..,on
176201,Sovereign Woods,park,london,585,sovereign,..,..,on
176202,Sovereign Woods East,park,london,650,sovereign,..,..,on
176247,Springbank Flats,park,london,67,springbank,..,..,on
176249,Springbank Park,park,london,1085,commissioners,..,..,on
