Index,Facility_Name,ODRSF_facility_type,Provider,Street_No,Street_Name,Postal_Code,City,Prov_Terr
162545,Arthur Ford Park,park,london,671,viscount,..,..,on
162574,Ashley Oaks Park,park,london,65,elvira,..,..,on
162727,Ballymote Trail,park,london,1470,wenige,..,..,on
162826,Basil Grover Park,park,london,555,wharncliffe,..,..,on
163007,Beaverbrook Woods,park,london,780,mapleridge,..,..,on
163093,Bellwood Park - East,park,london,34,bellwood,..,..,on
163094,Bellwood Park - West,park,london,33,bellwood,..,..,on
163103,Belmont Park,park,london,741,lenore,..,..,on
163115,Belvedere Park,park,london,65,victor,..,..,on
163118,Belvedere Place Park,park,london,457,belvedere,..,..,on
163196,Berkshire Park,park,london,510,berkshire,..,..,on
163381,Blackacres Park,park,london,595,blackacres,..,..,on
163388,Blackfriars Park,park,london,2,cummings,..,..,on
163389,Blackfriars Park - North,park,london,2,patrick,..,..,on
163490,Boler Mountain Park,park,london,214,chalet,..,..,on
163491,Boler Road Park,park,london,580,boler,..,..,on
163498,Bonaventure Meadows Park,park,london,150,vaubois,..,..,on
163604,Boyle Community Centre / Park,park,london,530,charlotte,..,..,on
163605,Boyle Park,park,london,1010,princess,..,..,on
163622,Braemar Block,park,london,457,riverside,..,..,on
163744,Briscoe Woods,park,london,130,briscoe,..,..,on
163819,Brookside Park,park,london,29,brookside,..,..,on
163829,Broughdale Park,park,london,246,epworth,..,..,on
163926,Burnett Woods,park,london,1050,crumlin,..,..,on
163938,Burr Reed Woods,park,london,741,redtail,..,..,on
163952,Butler Park,park,london,713,butler,..,..,on
163959,Button Bush Wetland - North,park,london,1270,cranbrook,..,..,on
163960,Button Bush Wetland - South,park,london,1271,cranbrook,..,..,on
163980,Byron Hills Park,park,london,955,byronmanor,..,..,on
163982,Byron Pits Open Space,park,london,1060,byron baseline,..,..,on
163983,Byron River Valley,park,london,211,halls mill,..,..,on
163984,Byron View Park,park,london,2225,colonel talbot,..,..,on
164004,Caesar's Park,park,london,941,commissioners,..,..,on
164051,Camden Crescent Park,park,london,1344,amberwood,..,..,on
164071,Campbell Memorial Park,park,london,380,dundas,..,..,on
164094,Canada Games Aquatic Centre,park,london,1045,wonderland,..,..,on
164127,Cantebury Park,park,london,99,prince of wales,..,..,on
164167,Capulet Park,park,london,40,capulet,..,..,on
164182,Carfrae Park - East,park,london,2,carfrae,..,..,on
164197,Carling Heights Optimist Community Centre,park,london,656,elizabeth,..,..,on
164199,Carling Park,park,london,675,grosvenor,..,..,on
164243,Carriage Hill Park,park,london,139,pinebrook,..,..,on
164253,Carroll Park,park,london,270,ellerslie,..,..,on
164343,Cavendish Park,park,london,136,cavendish,..,..,on
164344,Cavendish Park - East,park,london,72,wyatt,..,..,on
164347,Cayuga Park,park,london,64,cayuga,..,..,on
164376,Cedar Hollow Park,park,london,564,killarney,..,..,on
164377,Cedar Hollow Swmf,park,london,545,killarney,..,..,on
164597,Charles Hunt Park,park,london,50,carfrae,..,..,on
