Index,Facility_Name,ODRSF_facility_type,Provider,Street_No,Street_Name,Postal_Code,City,Prov_Terr
3120,Map 2D - Structures - Public Pool,pool,london,..,..,..,..,on
3121,Map 2D - Structures - Public Pool,pool,london,..,..,..,..,on
3122,Map 2D - Structures - Public Pool,pool,london,..,..,..,..,on
3123,Map 2D - Structures - Public Pool,pool,london,..,..,..,..,on
3124,Map 2D - Structures - Public Pool,pool,london,..,..,..,..,on
3125,Map 2D - Structures - Public Pool,pool,london,..,..,..,..,on
3126,Map 2D - Structures - Public Pool,pool,london,..,..,..,..,on
3127,Map 2D - Structures - Public Pool,pool,london,..,..,..,..,on
3128,Map 2D - Structures - Public Pool,pool,london,..,..,..,..,on
3129,Map 2D - Structures - Public Pool,pool,london,..,..,..,..,on
3130,Map 2D - Structures - Public Pool,pool,london,..,..,..,..,on
3131,Map 2D - Structures - Public Pool,pool,london,..,..,..,..,on
3132,Map 2D - Structures - Public Pool,pool,london,..,..,..,..,on
3133,Map 2D - Structures - Public Pool,pool,london,..,..,..,..,on
3134,Map 2D - Structures - Public Pool,pool,london,..,..,..,..,on
3135,Map 2D - Structures - Public Pool,pool,london,..,..,..,..,on
3136,Map 2D - Structures - Public Pool,pool,london,..,..,..,..,on
3137,Map 2D - Structures - Public Pool,pool,london,..,..,..,..,on
3138,Map 2D - Structures - Public Pool,pool,london,..,..,..,..,on
3139,Map 2D - Structures - Public Pool,pool,london,..,..,..,..,on
3140,Map 2D - Structures - Public Pool,pool,london,..,..,..,..,on
3141,Map 2D - Structures - Public Pool,pool,london,..,..,..,..,on
3142,Map 2D - Structures - Public Pool,pool,london,..,..,..,..,on
3143,Map 2D - Structures - Public Pool,pool,london,..,..,..,..,on
3144,Map 2D - Structures - Public Pool,pool,london,..,..,..,..,on
3145,Map 2D - Structures - Public Pool,pool,london,..,..,..,..,on
3146,Map 2D - Structures - Public Pool,pool,london,..,..,..,..,on
3147,Map 2D - Structures - Public Pool,pool,london,..,..,..,..,on
3148,Map 2D - Structures - Public Pool,pool,london,..,..,..,..,on
3149,Map 2D - Structures - Public Pool,pool,london,..,..,..,..,on
3150,Map 2D - Structures - Public Pool,pool,london,..,..,..,..,on
3151,Map 2D - Structures - Public Pool,pool,london,..,..,..,..,on
3152,Map 2D - Structures - Public Pool,pool,london,..,..,..,..,on
3153,Map 2D - Structures - Public Pool,pool,london,..,..,..,..,on
3154,Map 2D - Structures - Public Pool,pool,london,..,..,..,..,on
3155,Map 2D - Structures - Public Pool,pool,london,..,..,..,..,on
3156,Map 2D - Structures - Public Pool,pool,london,..,..,..,..,on
3157,Map 2D - Structures - Public Pool,pool,london,..,..,..,..,on
3158,Map 2D - Structures - Public Pool,pool,london,..,..,..,..,on
3159,Map 2D - Structures - Public Pool,pool,london,..,..,..,..,on
3306,Medway Community Centre,community centre,london,119,sherwood forest,..,..,on
3573,North London Optimist Community Centre,community centre,london,1345,cheapside,..,..,on
5656,South London Community Centre,community centre,london,1119,jalna,..,..,on
5869,Springbank Gardens Community Centre,community centre,london,285,wonderland,..,..,on
5978,Stoneycreek Community Centre,community centre,london,920,sunningdale,..,..,on
9576,Cedarbrook Gardens Golf,sports field,london,1579,fanshawe park,..,..,on
10703,East Park Golf Gardens,sports field,london,1275,hamilton,..,..,on
10972,Fanshawe Golf Course,sports field,london,2835,sunningdale,..,..,on
11606,Greenhills Country Club,sports field,london,4838,colonel talbot,..,..,on
