Index,Facility_Name,ODRSF_facility_type,Provider,Street_No,Street_Name,Postal_Code,City,Prov_Terr
168291,Herbert Park,park,london,1859,herbert,..,..,on
168316,Heritage Park,park,london,150,bexhill,..,..,on
168342,Heron Haven Park,park,london,204,skyline,..,..,on
168371,Hickory Woods,park,london,1590,warbler woods,..,..,on
168406,Highbury Wetland,park,london,460,killarney,..,..,on
168407,Highbury Woods,park,london,1300,commissioners,..,..,on
168435,Highland Woods,park,london,324,highview,..,..,on
168440,Highview Park,park,london,325,highview,..,..,on
168458,Hill Street Park,park,london,200,hill,..,..,on
168498,Hillside Ravine,park,london,1570,hillside,..,..,on
168612,Horton Park Central,park,london,255,thames,..,..,on
168613,Horton Park North,park,london,1,york,..,..,on
168614,Horton Park South,park,london,75,horton,..,..,on
168616,Horton-Richmond Pocket Park,park,london,250,richmond,..,..,on
168686,Hunt Club Green,park,london,104,fitzwilliam,..,..,on
168695,Huntington Park,park,london,63,meadowridge,..,..,on
168711,Huron Heights Park,park,london,185,mcnay,..,..,on
168714,Huron Street Woods,park,london,500,huron,..,..,on
168718,Huronview Park,park,london,1345,bentley,..,..,on
168722,Hutton Park,park,london,520,hutton,..,..,on
168727,Hyde Park 1B1 Swmf,park,london,1319,hyde park,..,..,on
168728,Hyde Park North Swmf,park,london,1695,hyde park,..,..,on
168729,Hyde Park Ps,park,london,1617,hyde park,..,..,on
168730,Hyde Park Village Green,park,london,1695,hyde park,..,..,on
168888,Ivey Park,park,london,331,thames,..,..,on
168953,Jalna South Park,park,london,1278,jalna,..,..,on
169010,Jaycee Park,park,london,1830,aldersbrook,..,..,on
169059,Jesse Davidson Park,park,london,731,viscount,..,..,on
169241,Jorgenson Park,park,london,1308,norman,..,..,on
169288,Jubilee Park,park,london,1375,clarke,..,..,on
169336,Kains Woods Swm,park,london,1760,oxford,..,..,on
169337,Kains Woods Swmf,park,london,2190,kains,..,..,on
169338,Kains Woods Trail,park,london,2190,kains,..,..,on
169398,Kelly Park,park,london,881,kelly,..,..,on
169448,Kensal Park,park,london,150,chelsea,..,..,on
169449,Kensington Park,park,london,16,fernley,..,..,on
169490,Kilally Fields,park,london,1360,adelaide,..,..,on
169491,Kilally Valley Park,park,london,200,bridle,..,..,on
169492,Kilally Woods (Killarney) Open Space,park,london,545,killarney,..,..,on
169494,Kilbourne Cemetery,park,london,1875,oxford,..,..,on
169640,Kiwanis Park - Central North,park,london,1475,brydges,..,..,on
169642,Kiwanis Park - Central South,park,london,1580,gore,..,..,on
169643,Kiwanis Park - North,park,london,612,hale,..,..,on
169644,Kiwanis Park - South,park,london,1579,gore,..,..,on
169907,Krupp Park,park,london,121,oakside,..,..,on
169933,Labatt Park,park,london,25,wilson,..,..,on
170041,Lambeth Centennial Park,park,london,7112,beattie,..,..,on
170042,Lambeth Centennial Swm,park,london,4322,masterson,..,..,on
170044,Lambeth Optimist Park,park,london,4200,campbell,..,..,on
