Index,Facility_Name,ODRSF_facility_type,Provider,Street_No,Street_Name,Postal_Code,City,Prov_Terr
176469,St. Julien Park,park,london,15,tommy hunter,..,..,on
176471,St. Lawrence Park,park,london,5,lawrence,..,..,on
176502,St. Stephen's Park,park,london,1030,mitchell,..,..,on
176524,Staffordshire Park,park,london,1443,staffordshire,..,..,on
176534,Stanhope Park,park,london,29,shaftesbury,..,..,on
176587,Stephens Farm Park,park,london,887,wenige,..,..,on
176642,Stoney Creek Community Centre,park,london,920,sunningdale,..,..,on
176643,Stoney Creek Meadow Marsh,park,london,735,pinecourt,..,..,on
176644,Stoney Creek Meadows,park,london,1343,adelaide,..,..,on
176645,Stoney Creek Valley - Central,park,london,1580,trossacks,..,..,on
176646,Stoney Creek Valley - Central East,park,london,1540,stackhouse,..,..,on
176647,Stoney Creek Valley - Central West,park,london,625,grenfell,..,..,on
176648,Stoney Creek Valley - North,park,london,626,grenfell,..,..,on
176649,Stoney Creek Valley - South,park,london,1499,adelaide,..,..,on
176650,Stoney Creek Valley - South East,park,london,650,windermere,..,..,on
176651,Stoney Creek Valley North,park,london,1450,privet,..,..,on
176654,Stoneybrook Recreation Field,park,london,815,windermere,..,..,on
176705,Stronach Park,park,london,1221,sandford,..,..,on
176734,Sugarcreek Park,park,london,460,sugarcreek,..,..,on
176750,Summercrest Park,park,london,133,optimist park,..,..,on
176751,Summercrest Swm,park,london,135,optimist park,..,..,on
176777,Sun Valley Park,park,london,1,mackellar,..,..,on
176820,Sunrise Park,park,london,741,redtail,..,..,on
176930,Talbot Park,park,london,3470,settlement,..,..,on
176933,Talbot Village Wetland,park,london,6959,raleigh,..,..,on
176939,Talltree Park,park,london,1715,marconi,..,..,on
176941,Tallwood Valley,park,london,151,sunnyside,..,..,on
177007,Ted Early Sports Complex,park,london,1375,clarke,..,..,on
177008,Ted Early Swm,park,london,1369,clarke,..,..,on
177049,Tetherwood Park,park,london,53,tetherwood,..,..,on
177051,Thames Park,park,london,15,ridout,..,..,on
177052,Thames Valley (E.V. Buchanan) Golf Course,park,london,850,sunninghill,..,..,on
177053,Thamesridge Park,park,london,1605,shore,..,..,on
177064,The Green,park,london,165,elmwood,..,..,on
177094,Third Street Park,park,london,530,third,..,..,on
177099,Thistledown Park,park,london,996,thistledown,..,..,on
177119,Thompson Ravine,park,london,410,scenic,..,..,on
177120,Thompson Road Park,park,london,39,chesterfield,..,..,on
177160,Thornwood Park,park,london,699,thornwood,..,..,on
177164,Three Valley Park,park,london,234,cairn,..,..,on
177221,Tokala Woods,park,london,3150,tokala,..,..,on
177332,Trafalgar Woods,park,london,842,railton,..,..,on
177415,Trooper Mark Wilson Park,park,london,2070,wallingford,..,..,on
177416,Trooper Mark Wilson Swmf,park,london,2080,wallingford,..,..,on
177548,University Heights Park,park,london,290,trott,..,..,on
177682,Uplands North Swmf,park,london,1835,canvas,..,..,on
177683,Uplands North Wetland,park,london,1845,canvas,..,..,on
177691,Uplands Swm,park,london,61,repton,..,..,on
177692,Uplands Trail,park,london,5,northcrest,..,..,on
