Index,Facility_Name,ODRSF_facility_type,Provider,Street_No,Street_Name,Postal_Code,City,Prov_Terr
164653,Chelsea Green - North,park,london,1,adelaide,..,..,on
164657,Cheltenham Park,park,london,43,cheltenham,..,..,on
164679,Chesham Heights Park,park,london,328,castlegrove,..,..,on
164685,Cheswick Park,park,london,88,lacey,..,..,on
164785,City Wide Sports Park,park,london,1510,commissioners,..,..,on
164786,City Wide Sports Swm,park,london,1480,commissioners,..,..,on
164792,Civic Garden Centre Complex,park,london,645,springbank,..,..,on
164802,Clara Brenton Woods,park,london,367,richmeadow,..,..,on
164833,Clarke Road Park,park,london,28,clarke,..,..,on
164855,Clayton Walk Park,park,london,7053,clayton,..,..,on
164857,Cleardale Park,park,london,817,nixon,..,..,on
164915,Cnra Park,park,london,325,egerton,..,..,on
165002,Colville Park,park,london,360,colville,..,..,on
165074,Constitution Park,park,london,725,grenfell,..,..,on
165157,Coronation Park North,park,london,1965,coronation,..,..,on
165259,Coves - Elmwood Gateway,park,london,201,wharncliffe,..,..,on
165260,Coves - Openspace,park,london,18,elmwood,..,..,on
165261,Coves Lookout,park,london,264,greenwood,..,..,on
165320,Creekside Meadows,park,london,1565,privet,..,..,on
165322,Creekside Park,park,london,1480,privet,..,..,on
165346,Cresthaven Park,park,london,104,parks edge,..,..,on
165349,Cresthaven Woods,park,london,745,longworth,..,..,on
165355,Crestwood Woods,park,london,635,boler,..,..,on
165427,Culver Park,park,london,1735,culver,..,..,on
165487,Dalkeith Park,park,london,806,dalkeith,..,..,on
165719,Devon Park,park,london,2890,devon,..,..,on
165726,Devos Dr Swmf,park,london,1457,devos,..,..,on
165755,Dingman Creek Open Space,park,london,4386,dingman,..,..,on
165756,Dingman Ps,park,london,4695,dingman,..,..,on
165757,Dingman Wetlands,park,london,4501,dingman,..,..,on
165797,Doidge Park,park,london,300,cromwell,..,..,on
165962,Dragon Fly Woods,park,london,4230,highbury,..,..,on
165999,Duchess Avenue Park,park,london,26,duchess,..,..,on
166055,Dunkirk Place Park,park,london,15,dunkirk,..,..,on
166086,Dyer Crescent Swmf,park,london,1415,dyer,..,..,on
166112,Earl Nichols Park And Arena,park,london,799,homeview,..,..,on
166142,East Lions Park,park,london,1731,churchill,..,..,on
166187,Ebury Park,park,london,112,ebury,..,..,on
166211,Ed Blake Park,park,london,449,barker,..,..,on
166285,Egelton Woods,park,london,1136,smither,..,..,on
166315,Eldon House,park,london,481,ridout,..,..,on
166392,Elron Park,park,london,600,industrial,..,..,on
166426,Empress Avenue Park,park,london,161,empress,..,..,on
166440,Enterprise Swm,park,london,769,baransway,..,..,on
166516,Essex Park,park,london,30,mcdonald,..,..,on
166559,Evergreen Park,park,london,60,evergreen,..,..,on
166611,Fairhaven Park,park,london,1373,trafalgar,..,..,on
166627,Fairmont Park,park,london,117,tweedsmuir,..,..,on
166629,Fairmont Trail,park,london,290,hale,..,..,on
