Index,Facility_Name,ODRSF_facility_type,Provider,Street_No,Street_Name,Postal_Code,City,Prov_Terr
177779,Vanderlinder Parkette,park,london,3540,settlement,..,..,on
177814,Vauxhall Park,park,london,54,price,..,..,on
177864,Victoria Park,park,london,580,clarence,..,..,on
177901,Village Green Park,park,london,429,village green,..,..,on
177908,Villagewalk Commons,park,london,160,villagewalk,..,..,on
177927,Virginia Park,park,london,225,chambers,..,..,on
177930,Viscount Woods,park,london,1040,viscount,..,..,on
177938,Vista Woods Park,park,london,1075,melsetter,..,..,on
177983,Waldorf Park,park,london,25,beaufort,..,..,on
177988,Walker Drain,park,london,1720,culver,..,..,on
177989,Walker Drain / Swm,park,london,1700,cheapside,..,..,on
178016,Walnut Woods,park,london,1830,coronation,..,..,on
178066,Water Oak Park,park,london,2245,water oak,..,..,on
178102,Watson Street Park,park,london,21,watson,..,..,on
178110,Waubuno Creek - North / Open Space,park,london,100,crumlin,..,..,on
178111,Waubuno Creek - South / Open Space,park,london,2355,river,..,..,on
178167,Wellingsboro Park,park,london,955,willow,..,..,on
178176,Wellington Valley,park,london,56,wellington,..,..,on
178188,Wenige Park,park,london,1251,wenige,..,..,on
178189,Wenige Swm,park,london,1680,milestone,..,..,on
178231,West Lions Park And Kinsmen Recreation Centre,park,london,20,granville,..,..,on
178274,Westbury Park,park,london,3350,singleton,..,..,on
178282,Westdale Park,park,london,1070,quinton,..,..,on
178289,Western Counties Health And Occupation Centre Grounds,park,london,696,wellington,..,..,on
178314,Westminster Optimist Park,park,london,650,osgoode,..,..,on
178316,Westminster Ponds-Dearness Open Space,park,london,710,southdale,..,..,on
178323,Westmount Lions Park,park,london,784,viscount,..,..,on
178324,Westmount Park,park,london,196,mcmaster,..,..,on
178383,Whetherfield Park,park,london,1115,whetherfield,..,..,on
178386,Whisperwood Park,park,london,211,whisperwood,..,..,on
178392,White Oaks Drain,park,london,320,bradley,..,..,on
178393,White Oaks Drain South,park,london,4109,blakie,..,..,on
178394,White Oaks Optimist Park,park,london,560,bradley,..,..,on
178395,White Oaks Park,park,london,1119,jalna,..,..,on
178426,Wickerson Road Swmf,park,london,2097,wickerson,..,..,on
178595,Wilton Grove Park,park,london,41,greenfield,..,..,on
178596,Wilton Grove Swm - North,park,london,1620,wilton grove,..,..,on
178597,Wilton Grove Swm - South,park,london,1617,wilton grove,..,..,on
178601,Winblest Park,park,london,640,winblest,..,..,on
178610,Windermere Fields,park,london,745,windermere,..,..,on
178693,Wonderland Road Park,park,london,427,wonderland,..,..,on
178698,Wood Street Park,park,london,46,wood,..,..,on
178727,Woodhull Ravine,park,london,1940,woodhull,..,..,on
178837,York Park,park,london,10,wortley,..,..,on
