Index,Facility_Name,ODRSF_facility_type,Provider,Street_No,Street_Name,Postal_Code,City,Prov_Terr
172249,Northdale Swm,park,london,995,wenige,..,..,on
172250,Northdale Tributary,park,london,740,thistlewood,..,..,on
172251,Northdale Woods,park,london,641,sprucewood,..,..,on
172253,Northeast Park,park,london,1050,victoria,..,..,on
172266,Northridge Pool,park,london,15,mclean,..,..,on
172307,Norwest Optimist Park,park,london,48,hawthorne,..,..,on
172424,Oak Park,park,london,1207,royal york,..,..,on
172441,Oakland Avenue Park,park,london,235,oakland,..,..,on
172450,Oakridge Optimist Community Park,park,london,825,valetta,..,..,on
172490,Odessa Park,park,london,149,odessa,..,..,on
172637,Osgoode Drive Park,park,london,580,osgoode,..,..,on
172680,Oxford Pcp,park,london,1570,oxford,..,..,on
173619,Parkhurst Park North,park,london,1848,parkhurst,..,..,on
173620,Parkhurst Park South,park,london,1851,parkhurst,..,..,on
173679,Past Presidents Park,park,london,280,millbank,..,..,on
173702,Paul Haggis Park,park,london,2875,bateman,..,..,on
173703,Paul Haggis Swm,park,london,3355,white oak,..,..,on
173722,Pawnee Park,park,london,176,pawnee,..,..,on
173758,Pebblecreek Park,park,london,125,pebblecreek,..,..,on
173759,Pebblecreek Park Central,park,london,2245,torrey pines,..,..,on
173760,Pebblecreek Park East,park,london,2246,torrey pines,..,..,on
173761,Pebblecreek Park Swmf - North,park,london,237,pebblecreek,..,..,on
173762,Pebblecreek Park Swmf - South,park,london,308,callaway,..,..,on
173763,Pebblecreek Park West,park,london,2245,royal oaks,..,..,on
173790,Peppertree Park,park,london,427,castlegrove,..,..,on
173850,Pibline Park,park,london,2125,springridge,..,..,on
173854,Piccadilly Park,park,london,695,waterloo,..,..,on
173886,Pincombe Drain - North,park,london,3035,singleton,..,..,on
173887,Pincombe Drain - South,park,london,1545,wharncliffe,..,..,on
173888,Pincombe Drain Swmf #1,park,london,3150,wonderland,..,..,on
173889,Pincombe Park North,park,london,3555,morgan,..,..,on
173932,Pinnacle Park - East,park,london,1810,pinnacle,..,..,on
173933,Pinnacle Park - West,park,london,1811,pinnacle,..,..,on
173971,Plane Tree Park,park,london,214,plane tree,..,..,on
174026,Pond Edge Berm,park,london,37,ponds edge,..,..,on
174083,Pottersburg Park,park,london,1139,hamilton,..,..,on
174085,Powell Park,park,london,800,superior,..,..,on
174087,Powell Woods,park,london,2245,dauncey,..,..,on
174177,Proudfoot Park - East,park,london,730,proudfoot,..,..,on
174178,Proudfoot Park - West,park,london,693,proudfoot,..,..,on
174253,Queen's Park,park,london,925,dundas,..,..,on
174281,R. H. Cooper Square,park,london,300,dufferin,..,..,on
174339,Raleigh Parkette,park,london,6760,raleigh,..,..,on
174340,Ralph Hamlyn Park,park,london,83,dennis,..,..,on
174541,Remembrance Gardens,park,london,2325,river,..,..,on
174556,Reservoir Park,park,london,869,commissioners,..,..,on
174574,Richard B. Harrison Park,park,london,205,south,..,..,on
174600,Richmond Trail,park,london,1285,richmond,..,..,on
174673,River East Optimist Park,park,london,55,danielle,..,..,on
