Index,Facility_Name,ODRSF_facility_type,Provider,Street_No,Street_Name,Postal_Code,City,Prov_Terr
166678,Fanshawe Golf Course,park,london,2835,sunningdale,..,..,on
166679,Fanshawe Optimist Little League Park,park,london,65,tweed,..,..,on
166681,Fanshawe Ridge North Swmf,park,london,2075,pennyroyal,..,..,on
166686,Farnsborough Park,park,london,1071,farnsborough,..,..,on
166687,Farquharson Arena,park,london,411,tecumseh,..,..,on
166723,Fekete Woods,park,london,2547,boyd,..,..,on
166864,Flanders Park,park,london,145,rhine,..,..,on
166933,Forest Hill Park,park,london,1955,rollingacres,..,..,on
166936,Forest Hill Pond,park,london,765,wenige,..,..,on
166939,Forest Hill Woods,park,london,2123,springridge,..,..,on
166950,Forest View Park,park,london,323,hudson,..,..,on
167010,Fox Hollow Ravine - North,park,london,1955,aldersbrook,..,..,on
167011,Fox Hollow Ravine - South,park,london,1950,aldersbrook,..,..,on
167015,Foxfield District Park,park,london,2384,buroak,..,..,on
167016,Foxfield Woods,park,london,960,foxcreek,..,..,on
167094,Frederick Park,park,london,1940,frederick,..,..,on
167173,Gainsborough Meadows,park,london,102,brandy lane,..,..,on
167175,Gainsborough Valley Park,park,london,510,gainsborough,..,..,on
167203,Garden Plots,park,london,552,crestwood,..,..,on
167236,Gartshore Park,park,london,197,wellington,..,..,on
167274,Genevive Park,park,london,70,genevive,..,..,on
167374,Gibbons Park,park,london,2,grosvenor,..,..,on
167375,Gibbons/Uwo Wetland,park,london,35,debbie,..,..,on
167422,Glanworth Park,park,london,6536,bradish,..,..,on
167427,Glass Avenue Park,park,london,12,glass,..,..,on
167443,Glen Cairn / Open Space,park,london,901,commissioners,..,..,on
167444,Glen Cairn Arena,park,london,370,chippendale,..,..,on
167446,Glen Cairn Park - East,park,london,170,helena,..,..,on
167447,Glen Cairn Park - North,park,london,150,helena,..,..,on
167448,Glen Cairn Park - West,park,london,311,marion,..,..,on
167595,Golden Jubilee Square,park,london,99,dundas,..,..,on
167659,Gore Road Cemetery,park,london,1467,trafalgar,..,..,on
167660,Gore Road Open Space,park,london,3001,gore,..,..,on
167702,Graham Place Park,park,london,3901,graham,..,..,on
167703,Graham Place Swmf,park,london,7268,clayton,..,..,on
167706,Grampian Woods,park,london,265,bournemouth,..,..,on
167731,Grand View Park,park,london,385,grand view,..,..,on
167866,Greenway Park,park,london,50,greenside,..,..,on
167884,Gretna Green Park,park,london,108,lonsdale,..,..,on
167894,Griffith Street Park,park,london,561,griffith,..,..,on
167904,Grosvenor Lodge,park,london,1017,western,..,..,on
167998,Halls Mills Park,park,london,250,halls mill,..,..,on
168004,Hamilton Road Seniors Centre,park,london,525,hamilton,..,..,on
168005,Hamilton Road Swm,park,london,1455,hamilton,..,..,on
168017,Hampton Valley,park,london,320,hyde park,..,..,on
168083,Harris Park,park,london,531,ridout,..,..,on
168131,Hastings Park,park,london,1428,hastings,..,..,on
168174,Hazelden Park,park,london,430,hyde park,..,..,on
168224,Helen Mott Shaw Park,park,london,71,grasmere,..,..,on
