Index,Facility_Name,ODRSF_facility_type,Provider,Street_No,Street_Name,Postal_Code,City,Prov_Terr
17888,Turnberry Soccer,sports field,huron county,29,helena,n0g 2w0,morris turnberry,on
18459,Wingham Golf & Curling Club,sports field,huron county,40292,jamestown,n0g 2w0,morris turnberry,on
54326,Stevenson Tract,trail,huron county,..,..,..,..,on
54327,Stevenson Tract,trail,huron county,..,..,..,..,on
54328,Stevenson Tract,trail,huron county,..,..,..,..,on
54329,Stevenson Tract,trail,huron county,..,..,..,..,on
54330,Stevenson Tract,trail,huron county,..,..,..,..,on
54331,Stevenson Tract,trail,huron county,..,..,..,..,on
54332,Stevenson Tract,trail,huron county,..,..,..,..,on
54333,Stevenson Tract,trail,huron county,..,..,..,..,on
54334,Stevenson Tract,trail,huron county,..,..,..,..,on
54335,Stevenson Tract,trail,huron county,..,..,..,..,on
54336,Stevenson Tract,trail,huron county,..,..,..,..,on
54337,Stevenson Tract,trail,huron county,..,..,..,..,on
137409,..,trail,province of ontario,..,..,..,..,on
137426,..,trail,province of ontario,..,..,..,..,on
137428,..,trail,province of ontario,..,..,..,..,on
137441,..,trail,province of ontario,..,..,..,..,on
137469,..,trail,province of ontario,..,..,..,..,on
137482,..,trail,province of ontario,..,..,..,..,on
137511,..,trail,province of ontario,..,..,..,..,on
137523,..,trail,province of ontario,..,..,..,..,on
137528,..,trail,province of ontario,..,..,..,..,on
137538,..,trail,province of ontario,..,..,..,..,on
