Index,Facility_Name,ODRSF_facility_type,Provider,Street_No,Street_Name,Postal_Code,City,Prov_Terr
1605,Exeter Outdoor Pool,pool,huron county,101,huron,n0m 1s0,south huron,on
2977,Macnaughton-Morrison Trail,trail,huron county,..,..,..,south huron,on
2978,Macnaughton-Morrison Trail,trail,huron county,..,..,..,south huron,on
5654,South Huron Recreational Centre,arena,huron county,94,victoria,n0m 1s1,south huron,on
5655,South Huron Trail,trail,huron county,70,andrew,n0m 1s1,bluewater,on
10914,Exeter Baseball Diamond,sports field,huron county,150,mcconnell,..,south huron,on
10915,Exeter Curling Club,rink,huron county,205,riverside,n0m 1s0,south huron,on
10916,Exeter Golf Club,sports field,huron county,40374,kirkton,n0m 1k0,south huron,on
10917,Exeter Lawn Bowling Club,sports field,huron county,298,main,n0m 1s0,south huron,on
10918,Exeter Public School Tennis Courts,sports field,huron county,93,victoria,..,south huron,on
10919,Exeter Splash Zone,pool,huron county,25600,andrew,n0m 1s1,south huron,on
11811,Hensall Arena Ball Diamond,sports field,huron county,157,oxford,n0m 1x0,south huron,on
12142,Ironwood Golf Club,sports field,huron county,70969,morrison,n0m 1s0,south huron,on
14111,Oakwood Golf Club,sports field,huron county,70671,bluewater,n0m 1t0,south huron,on
16903,South Huron Recreational Ball Diamond,sports field,huron county,94,victoria,n0m 1s1,south huron,on
18130,Wagner Field,sports field,huron county,210,wellington,n0m 1s2,south huron,on
18131,Wagner Field,sports field,huron county,100,nelson,n0m 1s2,south huron,on
36163,Macnaughton-Morrison Trail,trail,huron county,..,..,..,..,on
44406,Morrison Dam Conservation Area,trail,huron county,..,..,..,..,on
96131,..,trail,province of ontario,..,..,..,..,on
96132,..,trail,province of ontario,..,..,..,..,on
96133,..,trail,province of ontario,..,..,..,..,on
96134,..,trail,province of ontario,..,..,..,..,on
96135,..,trail,province of ontario,..,..,..,..,on
96201,..,trail,province of ontario,..,..,..,..,on
96202,..,trail,province of ontario,..,..,..,..,on
96203,..,trail,province of ontario,..,..,..,..,on
96204,..,trail,province of ontario,..,..,..,..,on
96205,..,trail,province of ontario,..,..,..,..,on
96206,..,trail,province of ontario,..,..,..,..,on
96207,..,trail,province of ontario,..,..,..,..,on
96208,..,trail,province of ontario,..,..,..,..,on
96209,..,trail,province of ontario,..,..,..,..,on
96210,..,trail,province of ontario,..,..,..,..,on
96211,..,trail,province of ontario,..,..,..,..,on
96212,..,trail,province of ontario,..,..,..,..,on
96213,..,trail,province of ontario,..,..,..,..,on
96214,..,trail,province of ontario,..,..,..,..,on
96215,..,trail,province of ontario,..,..,..,..,on
96216,..,trail,province of ontario,..,..,..,..,on
96217,..,trail,province of ontario,..,..,..,..,on
96218,..,trail,province of ontario,..,..,..,..,on
96219,..,trail,province of ontario,..,..,..,..,on
96220,..,trail,province of ontario,..,..,..,..,on
96221,..,trail,province of ontario,..,..,..,..,on
96222,..,trail,province of ontario,..,..,..,..,on
96224,..,trail,province of ontario,..,..,..,..,on
96225,..,trail,province of ontario,..,..,..,..,on
96226,..,trail,province of ontario,..,..,..,..,on
