Index,Facility_Name,ODRSF_facility_type,Provider,Street_No,Street_Name,Postal_Code,City,Prov_Terr
253,Bannockburn Conservation Area,trail,huron county,..,..,..,bluewater,on
254,Bannockburn Conservation Area,trail,huron county,..,..,..,bluewater,on
271,Bayfield Arena,arena,huron county,4,jane,n0m 1g0,bluewater,on
272,Bayfield Beach,beach,huron county,56,howard,n0m 1g0,bluewater,on
273,Bayfield Main Beach,beach,huron county,48,long,n0m 1g0,bluewater,on
274,Bayfield Marina,marina,huron county,..,lakeshore,n0m 1g0,bluewater,on
275,Bayfield Marine Services,marina,huron county,20,fishermans,n0m 1g0,bluewater,on
276,Bayfield Pioneer Ball Park,beach,huron county,46,bayfield,..,bluewater,on
443,Bluewater Hay Municipal Park Beach,beach,huron county,33987,sararas,n0m 2t0,zurich,on
2057,Harbour Lights Marina,marina,huron county,27,chart,n0m 1g0,bluewater,on
2124,Hensall Arena,arena,huron county,157,oxford,n0m 1x0,bluewater,on
2131,Heritage Trail,trail,huron county,13,louisa,n0m 1g0,bluewater,on
2232,Houston Heights Beach,beach,huron county,33661,egerton,n0m 1g0,bluewater,on
2633,Klopp Tract- Memorial Garden And Trai,trail,huron county,38402,zurich hensall,n0m 1x0,bluewater,on
4770,Port Blake Conservation Beach,beach,huron county,71151,bluewater,..,south-huron,on
5301,Saint Joseph Road,beach,huron county,72833,bluewater,n0m 2t0,zurich,on
5340,Sawmill Trail,trail,huron county,6,saw,n0m 1g0,bluewater,on
5660,South Shore Marina,marina,huron county,1,lakeshore,n0m 1g0,bluewater,on
6638,Woodland Trail,trail,huron county,17,mill,n0m 1g0,bluewater,on
6691,Zurich Arena (Bluewater Community Centre),arena,huron county,15,east,n0m 2t0,bluewater,on
8845,Bayfield Agricultural Society Grounds,sports field,huron county,..,..,..,bluewater,on
8846,Bayfield Agricultural Society Grounds,sports field,huron county,16,john,n0m 1g0,bluewater,on
8847,Bayfield Soccer Park,sports field,huron county,75672,lidderdale,..,bluewater,on
8850,Bayveiw Golf Course,sports field,huron county,72538,21,n0m 2t0,bluewater,on
9844,Clan Gregor Square,miscellaneous,huron county,..,..,n0m 1g0,bluewater,on
11810,Hensall Arena Ball Diamond,sports field,huron county,157,oxford,n0m 1x0,bluewater,on
11812,Hensall Public School Soccer Fields,sports field,huron county,85,york,..,bluewater,on
15679,Seaforth Community Baseball Diamond,sports field,huron county,..,..,..,bluewater,on
17824,Town & Country Bowling Lanes,miscellaneous,huron county,38120,zurich hensall,n0m 2t0,bluewater,on
18611,Zurich Baseball Diamond,sports field,huron county,24,zurich main,n0m 2t0,bluewater,on
21205,Bannockburn,trail,huron county,..,..,..,..,on
21206,Bannockburn Trail,trail,huron county,..,..,..,..,on
21207,Bannockburn Trail,trail,huron county,..,..,..,..,on
21208,Bannockburn Trail,trail,huron county,..,..,..,..,on
21209,Bannockburn Trail,trail,huron county,..,..,..,..,on
21210,Bannockburn Trail,trail,huron county,..,..,..,..,on
21211,Bannockburn Trail,trail,huron county,..,..,..,..,on
21212,Bannockburn Trail,trail,huron county,..,..,..,..,on
21213,Bannockburn Trail,trail,huron county,..,..,..,..,on
21214,Bannockburn Trail,trail,huron county,..,..,..,..,on
21215,Bannockburn Trail,trail,huron county,..,..,..,..,on
21216,Bannockburn Trail,trail,huron county,..,..,..,..,on
21217,Bannockburn Trail,trail,huron county,..,..,..,..,on
21246,Bayfield Heritage Trail,trail,huron county,..,..,..,..,on
21247,Bayfield Woodland Trail,trail,huron county,..,..,..,..,on
31488,Klopp Driveway,trail,huron county,..,..,..,..,on
31489,Klopp Woodland,trail,huron county,..,..,..,..,on
35746,Linfield Wildlife Area,trail,huron county,..,..,..,..,on
51987,Sawmill Trail,trail,huron county,..,..,..,..,on
