Index,Facility_Name,ODRSF_facility_type,Provider,Street_No,Street_Name,Postal_Code,City,Prov_Terr
1911,Goderich Main Beach,beach,huron county,..,cove,..,goderich,on
1912,Goderich Millennium Trail,trail,huron county,..,..,..,goderich,on
1913,Goderich Recreation & Community Centre,arena,huron county,180,mcdonald,n7a 3n5,goderich,on
1916,Goderich Waterfront Boardwalk,trail,huron county,..,..,..,goderich,on
3003,Maitland Recreation Dept,arena,huron county,190,suncoast,n7a 4n4,goderich,on
3005,Maitland Woods Goderich,trail,huron county,..,..,..,goderich,on
5235,Rotary Cover,beach,huron county,..,cove,..,goderich,on
5898,St. Christopher's Beach,beach,huron county,..,cove,..,goderich,on
7078,Ag Park,sports field,huron county,180,mcdonald,..,goderich,on
11284,G.D.C.I Baseball Diamond,sports field,huron county,297,eldon,n7a 3s1,goderich,on
11325,Gdci Soccer Field,sports field,huron county,51,bennett,n7a 1x5,goderich,on
11326,Gdci Soccer Field,sports field,huron county,260,south,n7a 3m5,goderich,on
11327,Gdci Tennis Club,sports field,huron county,260,south,n7a 3m5,goderich,on
11462,Goderich Lawn Bowling Club,sports field,huron county,110,picton,n7a 3x8,goderich,on
11463,Goderich Recreation & Community Centre Board,sports field,huron county,180,mcdonald,n7a 3n5,goderich,on
11464,Goderich Town Ballpark,sports field,huron county,195,gibbons,n7a 3j6,goderich,on
12320,Judith Gooderham Park,sports field,huron county,80,victoria,n7a 2r9,goderich,on
13108,Little Bowl,miscellaneous,huron county,204,huron,n7a 2z9,goderich,on
13275,Maitland Golf & Country Club,sports field,huron county,25,harbour,..,goderich,on
13276,Maitland Golf & Country Club,sports field,huron county,25,harbour,n7a 1w7,goderich,on
13277,Maitland Recreation Dept,sports field,huron county,190,suncoast,n7a 4n4,goderich,on
13278,Maitland Recreation Dept,miscellaneous,huron county,190,suncoast,n7a 4n4,goderich,on
17409,Suncoast Mall,pool,huron county,397,bayfield,n7a 40000000,goderich,on
28142,Goderich Heritage Walking Tours,trail,huron county,..,..,..,..,on
28143,Goderich Millenium Trail,trail,huron county,..,..,..,..,on
28145,Goderich Waterfront Boardwalk,trail,huron county,..,..,..,..,on
36224,Maitland Woods,trail,huron county,..,..,..,..,on
96012,..,trail,province of ontario,..,..,..,..,on
96063,..,trail,province of ontario,..,..,..,..,on
96138,..,trail,province of ontario,..,..,..,..,on
96273,..,trail,province of ontario,..,..,..,..,on
96275,..,trail,province of ontario,..,..,..,..,on
96276,..,trail,province of ontario,..,..,..,..,on
96277,..,trail,province of ontario,..,..,..,..,on
96278,..,trail,province of ontario,..,..,..,..,on
96279,..,trail,province of ontario,..,..,..,..,on
96280,..,trail,province of ontario,..,..,..,..,on
96281,..,trail,province of ontario,..,..,..,..,on
96282,..,trail,province of ontario,..,..,..,..,on
96283,..,trail,province of ontario,..,..,..,..,on
96284,..,trail,province of ontario,..,..,..,..,on
96285,..,trail,province of ontario,..,..,..,..,on
96286,..,trail,province of ontario,..,..,..,..,on
96287,..,trail,province of ontario,..,..,..,..,on
96288,..,trail,province of ontario,..,..,..,..,on
96289,..,trail,province of ontario,..,..,..,..,on
96290,..,trail,province of ontario,..,..,..,..,on
96309,..,trail,province of ontario,..,..,..,..,on
96310,..,trail,province of ontario,..,..,..,..,on
