Index,Facility_Name,ODRSF_facility_type,Provider,Street_No,Street_Name,Postal_Code,City,Prov_Terr
105,Amberley Beach Road,beach,huron county,256,ashfield,..,goderich,on
212,Ashfield Park,beach,huron county,33702,zion,..,goderich,on
452,Bogies Beach,beach,huron county,33818,bogie,n7a 3y2,goderich,on
1647,Falls Reserve Conservation Area,trail,huron county,80900,falls reserve,n7a 3y1,ashfield colborne wawanosh,on
1915,Goderich To Auburn Rail Trail,trail,huron county,..,..,..,ashfield colborne wawanosh,on
3319,Menesetung Bridge/ Tiger Dunlop Trail,trail,huron county,..,..,..,goderich,on
4761,Point Farms Trail,trail,huron county,82491,bluewater,..,ashfield colborne wawanosh,on
4769,Port Albert Beach,beach,huron county,25,huron,n7a 3x9,goderich,on
14850,Point Farms Mini Golf,sports field,huron county,82522,bluewater,n7a 3x9,ashfield colborne wawanosh,on
17433,Sunset Golf Course,sports field,huron county,33937,golf course,n7a 3y3,ashfield colborne wawanosh,on
26857,Falls Reserve Trail,trail,huron county,..,..,..,..,on
26858,Falls Reserve Trail,trail,huron county,..,..,..,..,on
27855,Gart,trail,huron county,..,..,..,..,on
36212,Maitland Trail,trail,huron county,..,..,..,..,on
36214,Maitland Trail,trail,huron county,..,..,..,..,on
36215,Maitland Trail,trail,huron county,..,..,..,..,on
36216,Maitland Trail,trail,huron county,..,..,..,..,on
36217,Maitland Trail,trail,huron county,..,..,..,..,on
36218,Maitland Trail,trail,huron county,..,..,..,..,on
36219,Maitland Trail,trail,huron county,..,..,..,..,on
36221,Maitland Trail,trail,huron county,..,..,..,..,on
36222,Maitland Trail,trail,huron county,..,..,..,..,on
36223,Maitland Trail,trail,huron county,..,..,..,..,on
43538,Menesetung Trail,trail,huron county,..,..,..,..,on
44372,Moreland Tract,trail,huron county,..,..,..,..,on
44373,Moreland Tract,trail,huron county,..,..,..,..,on
44374,Moreland Tract,trail,huron county,..,..,..,..,on
44375,Moreland Tract,trail,huron county,..,..,..,..,on
44376,Moreland Tract,trail,huron county,..,..,..,..,on
44377,Moreland Tract,trail,huron county,..,..,..,..,on
44378,Moreland Tract,trail,huron county,..,..,..,..,on
44379,Moreland Tract,trail,huron county,..,..,..,..,on
44380,Moreland Tract,trail,huron county,..,..,..,..,on
44381,Moreland Tract,trail,huron county,..,..,..,..,on
44382,Moreland Tract,trail,huron county,..,..,..,..,on
44383,Moreland Tract,trail,huron county,..,..,..,..,on
44384,Moreland Tract,trail,huron county,..,..,..,..,on
44385,Moreland Tract,trail,huron county,..,..,..,..,on
48513,Oconnor Tract,trail,huron county,..,..,..,..,on
49960,Point Farms,trail,huron county,..,..,..,..,on
49961,Point Farms Roads,trail,huron county,..,..,..,..,on
51233,Robertson,trail,huron county,..,..,..,..,on
51234,Robertson,trail,huron county,..,..,..,..,on
52172,Sheppardton Tract,trail,huron county,..,..,..,..,on
52173,Sheppardton Tract,trail,huron county,..,..,..,..,on
52174,Sheppardton Tract,trail,huron county,..,..,..,..,on
52175,Sheppardton Tract,trail,huron county,..,..,..,..,on
52176,Sheppardton Tract,trail,huron county,..,..,..,..,on
52177,Sheppardton Tract,trail,huron county,..,..,..,..,on
