Index,Facility_Name,ODRSF_facility_type,Provider,Street_No,Street_Name,Postal_Code,City,Prov_Terr
800,Central Huron Ymca,arena,huron county,239,bill,n0m 1l0,central huron,on
1110,Clinton Conservation Area,trail,huron county,..,..,..,central huron,on
1112,Clinton Public Pool,pool,huron county,19,park,n0m 1l0,central huron,on
1829,George G. Newton Nature Reserve,trail,huron county,..,..,..,central huron,on
1830,George G. Newton Nature Reserve,trail,huron county,..,..,..,central huron,on
2243,Hullet Marsh Trail,trail,huron county,41378,hydro,n0m 1l0,central huron,on
3004,Maitland Trail,trail,huron county,..,..,..,central huron,on
6526,Weverland Beach,beach,huron county,33470,blacks,n7a 3x8,goderich,on
6639,Woodlands Links Trail,trail,huron county,37858,huron,n0m 1t0,central huron,on
9081,Bluewater Golf Course,sports field,huron county,77416,bluewater,n0m 1g0,central huron,on
9623,Central Huron Secondary School Tennis Courts,sports field,huron county,165,princess,n0m 1l0,central huron,on
9904,Clinton Baseball Diamond,sports field,huron county,129,beech,n0m 1l0,central huron,on
9905,Clinton Christian Reformed Church Soccer Field,sports field,huron county,180,raglan,n0m 1l0,central huron,on
9906,Clinton Elementary Soccer Field,sports field,huron county,27,percival,n0m 1l0,central huron,on
9907,Clinton Lawn Bowling Club,sports field,huron county,..,mary,n0m 1l0,central huron,on
12155,Irwin Street Soccer,sports field,huron county,..,irwin,n0m 1l0,central huron,on
14009,North Huron Community Soccer Fields,sports field,huron county,82974,london,n0m 1h0,central huron,on
16973,St Anne's Catholic School,sports field,huron county,297,smith,n0m 1l0,central huron,on
16974,St Annes Soccer Field,sports field,huron county,27,percival,n0m 1l0,central huron,on
18532,Woodland Golf & Country Club,sports field,huron county,37858,huron,n0m 1l0,central huron,on
27981,George G. Newton Trail,trail,huron county,..,..,..,..,on
27982,George G. Newton Trail,trail,huron county,..,..,..,..,on
28144,Goderich To Guelph Rail Trail,trail,huron county,..,..,..,..,on
29730,Hullett Wildlife Area,trail,huron county,..,..,..,..,on
35915,Lobb Trail,trail,huron county,..,..,..,..,on
36210,Maitland Cemetery,trail,huron county,..,..,..,..,on
36211,Maitland Cemetery,trail,huron county,..,..,..,..,on
36213,Maitland Trail,trail,huron county,..,..,..,..,on
36220,Maitland Trail,trail,huron county,..,..,..,..,on
44747,Naftel's Creek Trail,trail,huron county,..,..,..,..,on
44748,Naftel's Creek Trail,trail,huron county,..,..,..,..,on
44749,Naftel's Creek Trail,trail,huron county,..,..,..,..,on
44750,Naftel's Creek Trail,trail,huron county,..,..,..,..,on
69914,Woodlands Arboretum,trail,huron county,..,..,..,..,on
69915,Woodlands Arboretum,trail,huron county,..,..,..,..,on
96006,..,trail,province of ontario,..,..,..,..,on
96007,..,trail,province of ontario,..,..,..,..,on
96008,..,trail,province of ontario,..,..,..,..,on
96009,..,trail,province of ontario,..,..,..,..,on
96010,..,trail,province of ontario,..,..,..,..,on
96011,..,trail,province of ontario,..,..,..,..,on
96019,..,trail,province of ontario,..,..,..,..,on
96020,..,trail,province of ontario,..,..,..,..,on
96033,..,trail,province of ontario,..,..,..,..,on
96034,..,trail,province of ontario,..,..,..,..,on
96035,..,trail,province of ontario,..,..,..,..,on
96036,..,trail,province of ontario,..,..,..,..,on
96037,..,trail,province of ontario,..,..,..,..,on
96038,..,trail,province of ontario,..,..,..,..,on
