Index,Facility_Name,ODRSF_facility_type,Provider,Street_No,Street_Name,Postal_Code,City,Prov_Terr
1057,Christie Beach,beach,grey county,..,..,..,municipality of meaford,on
2148,Hibou Conservation Area Beach,beach,grey county,..,..,..,city of owen sound,on
2618,Kiowana Beach,beach,grey county,..,..,..,municipality of meaford,on
3225,Massie Hills Ski Trail,trail,grey county,6,concession,..,municipality of meaford,on
3303,Meaford Harbour & Marina,marina,grey county,3,vincent,N4L 1B9,municipality of meaford,on
3304,Meaford Memorial Beach,beach,grey county,181,grant,N4L 1A8,municipality of meaford,on
15649,Scenic City Golf Course,sports field,grey county,203674,highway 26,N4K 5P3,municipality of meaford,on
95837,..,trail,province of ontario,..,..,..,..,on
95868,..,trail,province of ontario,..,..,..,..,on
95940,..,trail,province of ontario,..,..,..,..,on
95945,..,trail,province of ontario,..,..,..,..,on
95949,..,trail,province of ontario,..,..,..,..,on
96116,..,trail,province of ontario,..,..,..,..,on
96119,..,trail,province of ontario,..,..,..,..,on
96149,..,trail,province of ontario,..,..,..,..,on
96448,..,trail,province of ontario,..,..,..,..,on
96884,..,trail,province of ontario,..,..,..,..,on
97073,..,trail,province of ontario,..,..,..,..,on
97107,..,trail,province of ontario,..,..,..,..,on
97217,..,trail,province of ontario,..,..,..,..,on
97237,..,trail,province of ontario,..,..,..,..,on
97485,..,trail,province of ontario,..,..,..,..,on
97820,..,trail,province of ontario,..,..,..,..,on
97824,..,trail,province of ontario,..,..,..,..,on
97849,..,trail,province of ontario,..,..,..,..,on
97884,..,trail,province of ontario,..,..,..,..,on
97886,..,trail,province of ontario,..,..,..,..,on
97915,..,trail,province of ontario,..,..,..,..,on
97916,..,trail,province of ontario,..,..,..,..,on
97926,..,trail,province of ontario,..,..,..,..,on
97927,..,trail,province of ontario,..,..,..,..,on
97950,..,trail,province of ontario,..,..,..,..,on
97954,..,trail,province of ontario,..,..,..,..,on
97955,..,trail,province of ontario,..,..,..,..,on
97956,..,trail,province of ontario,..,..,..,..,on
97957,..,trail,province of ontario,..,..,..,..,on
97958,..,trail,province of ontario,..,..,..,..,on
97959,..,trail,province of ontario,..,..,..,..,on
97960,..,trail,province of ontario,..,..,..,..,on
98020,..,trail,province of ontario,..,..,..,..,on
98191,..,trail,province of ontario,..,..,..,..,on
98471,..,trail,province of ontario,..,..,..,..,on
98557,..,trail,province of ontario,..,..,..,..,on
98579,..,trail,province of ontario,..,..,..,..,on
98614,..,trail,province of ontario,..,..,..,..,on
98619,..,trail,province of ontario,..,..,..,..,on
98692,..,trail,province of ontario,..,..,..,..,on
98707,..,trail,province of ontario,..,..,..,..,on
98733,..,trail,province of ontario,..,..,..,..,on
