Index,Facility_Name,ODRSF_facility_type,Provider,Street_No,Street_Name,Postal_Code,City,Prov_Terr
131310,..,trail,province of ontario,..,..,..,..,on
131315,..,trail,province of ontario,..,..,..,..,on
131321,..,trail,province of ontario,..,..,..,..,on
131323,..,trail,province of ontario,..,..,..,..,on
131365,..,trail,province of ontario,..,..,..,..,on
131366,..,trail,province of ontario,..,..,..,..,on
131367,..,trail,province of ontario,..,..,..,..,on
131368,..,trail,province of ontario,..,..,..,..,on
131372,..,trail,province of ontario,..,..,..,..,on
131373,..,trail,province of ontario,..,..,..,..,on
131375,..,trail,province of ontario,..,..,..,..,on
131377,..,trail,province of ontario,..,..,..,..,on
131379,..,trail,province of ontario,..,..,..,..,on
131380,..,trail,province of ontario,..,..,..,..,on
131385,..,trail,province of ontario,..,..,..,..,on
131386,..,trail,province of ontario,..,..,..,..,on
131387,..,trail,province of ontario,..,..,..,..,on
131389,..,trail,province of ontario,..,..,..,..,on
131391,..,trail,province of ontario,..,..,..,..,on
131392,..,trail,province of ontario,..,..,..,..,on
131393,..,trail,province of ontario,..,..,..,..,on
131394,..,trail,province of ontario,..,..,..,..,on
131399,..,trail,province of ontario,..,..,..,..,on
131403,..,trail,province of ontario,..,..,..,..,on
131404,..,trail,province of ontario,..,..,..,..,on
131405,..,trail,province of ontario,..,..,..,..,on
131406,..,trail,province of ontario,..,..,..,..,on
131407,..,trail,province of ontario,..,..,..,..,on
131408,..,trail,province of ontario,..,..,..,..,on
131409,..,trail,province of ontario,..,..,..,..,on
131410,..,trail,province of ontario,..,..,..,..,on
131411,..,trail,province of ontario,..,..,..,..,on
131500,..,trail,province of ontario,..,..,..,..,on
131642,..,trail,province of ontario,..,..,..,..,on
131961,..,trail,province of ontario,..,..,..,..,on
132015,..,trail,province of ontario,..,..,..,..,on
132347,..,trail,province of ontario,..,..,..,..,on
132452,..,trail,province of ontario,..,..,..,..,on
132610,..,trail,province of ontario,..,..,..,..,on
132615,..,trail,province of ontario,..,..,..,..,on
132729,..,trail,province of ontario,..,..,..,..,on
132989,..,trail,province of ontario,..,..,..,..,on
162990,Beautiful Joe Park,park,grey county,162,edwin,N4L 1000,municipality of meaford,on
165238,County Forest Parking,park,grey county,..,..,..,municipality of meaford,on
171976,Municpal Park Parking,park,grey county,..,..,..,municipality of meaford,on
176564,Station Hill Park,park,grey county,..,sykes,..,municipality of meaford,on
