Index,Facility_Name,ODRSF_facility_type,Provider,Street_No,Street_Name,Postal_Code,City,Prov_Terr
2059,Harbour Trail,trail,grey county,..,..,..,city of owen sound,on
2506,Julie Mcarthur Regional Recreation Centre,community centre,grey county,700,10e,N4K 5S2,city of owen sound,on
2532,Kelso Park Beach,beach,grey county,..,..,..,city of owen sound,on
3985,Owen Sound Marina,marina,grey county,195,24w,N4K 4H5,city of owen sound,on
98470,..,trail,province of ontario,..,..,..,..,on
114968,..,trail,province of ontario,..,..,..,..,on
131305,..,trail,province of ontario,..,..,..,..,on
131334,..,trail,province of ontario,..,..,..,..,on
131341,..,trail,province of ontario,..,..,..,..,on
131342,..,trail,province of ontario,..,..,..,..,on
131349,..,trail,province of ontario,..,..,..,..,on
131350,..,trail,province of ontario,..,..,..,..,on
131351,..,trail,province of ontario,..,..,..,..,on
131353,..,trail,province of ontario,..,..,..,..,on
131355,..,trail,province of ontario,..,..,..,..,on
131356,..,trail,province of ontario,..,..,..,..,on
131364,..,trail,province of ontario,..,..,..,..,on
132067,..,trail,province of ontario,..,..,..,..,on
165224,County Forest Parking,park,grey county,..,..,..,municipality of georgian bluffs,on
169401,Kelso Park Beach,park,grey county,..,..,..,owen sound,on
171978,Municpal Park Parking,park,grey county,..,..,..,owen sound,on
172669,Owen Sound Skate & Bike Park,park,grey county,700,10e,N4K 5S2,owen sound,on
