Index,Facility_Name,ODRSF_facility_type,Provider,Street_No,Street_Name,Postal_Code,City,Prov_Terr
131195,..,trail,province of ontario,..,..,..,..,on
131196,..,trail,province of ontario,..,..,..,..,on
131198,..,trail,province of ontario,..,..,..,..,on
131199,..,trail,province of ontario,..,..,..,..,on
131200,..,trail,province of ontario,..,..,..,..,on
131201,..,trail,province of ontario,..,..,..,..,on
131202,..,trail,province of ontario,..,..,..,..,on
131203,..,trail,province of ontario,..,..,..,..,on
131204,..,trail,province of ontario,..,..,..,..,on
131241,..,trail,province of ontario,..,..,..,..,on
131245,..,trail,province of ontario,..,..,..,..,on
131262,..,trail,province of ontario,..,..,..,..,on
131269,..,trail,province of ontario,..,..,..,..,on
131320,..,trail,province of ontario,..,..,..,..,on
162389,Annual Parking Lot Party,park,grey county,173,bruce,N0H 2P0,town of the blue mountains,on
164423,Cenotaph Parkette,park,grey county,..,bridgeeast highway 26,N0H 2P0,town of the blue mountains,on
165290,Craigleith Provincial Park,park,grey county,209403,highway 26,L9Y 0T6,town of the blue mountains,on
168914,Jack Acres Memorial Park Cenotaph,park,grey county,..,duncan,..,town of the blue mountains,on
170465,Little River Park,park,grey county,4,harbour,N0H 2P0,town of the blue mountains,on
171977,Municpal Park Parking,park,grey county,..,..,..,town of the blue mountains,on
174108,Pretty River Valley Provincial Park,park,grey county,..,pretty,..,town of the blue mountains,on
175784,Sheffield Park Black History Museum,park,grey county,241,clark,N0H 1J0,town of the blue mountains,on
