Index,Facility_Name,ODRSF_facility_type,Provider,Street_No,Street_Name,Postal_Code,City,Prov_Terr
1058,Christie Beach Conservation Area,beach,grey county,..,sunset,..,town of the blue mountains,on
1210,Council Beach,beach,grey county,105,lakewood,N0H 2P0,town of the blue mountains,on
2162,Highest Point On Bruce Trail 540M,trail,grey county,..,..,..,town of the blue mountains,on
2645,Kolapore Uplands Wilderness Ski Trails,trail,grey county,528150,osprey the blue mountain townline,N0H 2,town of the blue mountains,on
2646,Kolapore Uplands Wilderness Trails,trail,grey county,..,grey road 2,..,town of the blue mountains,on
3595,Northwinds Beach,beach,grey county,209605,highway 26,L9Y 0N1,town of the blue mountains,on
14848,Plunge Aquatic Centre,pool,grey county,220,gord canning,L9Y 0V9,town of the blue mountains,on
95933,..,trail,province of ontario,..,..,..,..,on
96056,..,trail,province of ontario,..,..,..,..,on
96263,..,trail,province of ontario,..,..,..,..,on
96264,..,trail,province of ontario,..,..,..,..,on
96418,..,trail,province of ontario,..,..,..,..,on
96424,..,trail,province of ontario,..,..,..,..,on
96445,..,trail,province of ontario,..,..,..,..,on
96446,..,trail,province of ontario,..,..,..,..,on
96447,..,trail,province of ontario,..,..,..,..,on
97229,..,trail,province of ontario,..,..,..,..,on
97230,..,trail,province of ontario,..,..,..,..,on
97233,..,trail,province of ontario,..,..,..,..,on
97318,..,trail,province of ontario,..,..,..,..,on
97322,..,trail,province of ontario,..,..,..,..,on
97323,..,trail,province of ontario,..,..,..,..,on
97622,..,trail,province of ontario,..,..,..,..,on
97867,..,trail,province of ontario,..,..,..,..,on
97879,..,trail,province of ontario,..,..,..,..,on
97880,..,trail,province of ontario,..,..,..,..,on
97881,..,trail,province of ontario,..,..,..,..,on
97882,..,trail,province of ontario,..,..,..,..,on
97883,..,trail,province of ontario,..,..,..,..,on
97909,..,trail,province of ontario,..,..,..,..,on
97910,..,trail,province of ontario,..,..,..,..,on
97911,..,trail,province of ontario,..,..,..,..,on
97912,..,trail,province of ontario,..,..,..,..,on
97913,..,trail,province of ontario,..,..,..,..,on
97921,..,trail,province of ontario,..,..,..,..,on
97922,..,trail,province of ontario,..,..,..,..,on
97928,..,trail,province of ontario,..,..,..,..,on
97945,..,trail,province of ontario,..,..,..,..,on
97951,..,trail,province of ontario,..,..,..,..,on
97992,..,trail,province of ontario,..,..,..,..,on
98009,..,trail,province of ontario,..,..,..,..,on
98010,..,trail,province of ontario,..,..,..,..,on
98318,..,trail,province of ontario,..,..,..,..,on
98437,..,trail,province of ontario,..,..,..,..,on
98459,..,trail,province of ontario,..,..,..,..,on
98497,..,trail,province of ontario,..,..,..,..,on
98517,..,trail,province of ontario,..,..,..,..,on
98617,..,trail,province of ontario,..,..,..,..,on
98687,..,trail,province of ontario,..,..,..,..,on
