Index,Facility_Name,ODRSF_facility_type,Provider,Street_No,Street_Name,Postal_Code,City,Prov_Terr
244,Balmy Beach,beach,grey county,..,..,..,township of georgian bluffs,on
669,Cape Commodore Beach,beach,grey county,..,..,..,township of georgian bluffs,on
1144,Colpoys Beach,beach,grey county,..,grey road 1,..,georgian bluffs,on
2125,Hepworth Management Area (Sawmills Trails),trail,grey county,719533,6,N0H 2T0,township of georgian bluffs,on
5339,Sawmill Ski Trail,trail,grey county,719533,6,N0H 2T0,township of georgian bluffs,on
10092,Cobble Beach Golf Resort,sports field,grey county,221,mcleese,N0H 1S0,township of georgian bluffs,on
12974,Legacy Ridge Golf Club,sports field,grey county,318494,grey road 1,N4K 5N4,township of georgian bluffs,on
18359,Wiarton Golf Club,sports field,grey county,502386,grey road 1,N0H 2T0,township of georgian bluffs,on
95946,..,trail,province of ontario,..,..,..,..,on
96110,..,trail,province of ontario,..,..,..,..,on
96112,..,trail,province of ontario,..,..,..,..,on
96113,..,trail,province of ontario,..,..,..,..,on
96358,..,trail,province of ontario,..,..,..,..,on
97081,..,trail,province of ontario,..,..,..,..,on
97093,..,trail,province of ontario,..,..,..,..,on
97486,..,trail,province of ontario,..,..,..,..,on
97487,..,trail,province of ontario,..,..,..,..,on
97613,..,trail,province of ontario,..,..,..,..,on
97839,..,trail,province of ontario,..,..,..,..,on
97847,..,trail,province of ontario,..,..,..,..,on
97855,..,trail,province of ontario,..,..,..,..,on
97857,..,trail,province of ontario,..,..,..,..,on
97885,..,trail,province of ontario,..,..,..,..,on
97888,..,trail,province of ontario,..,..,..,..,on
97914,..,trail,province of ontario,..,..,..,..,on
97932,..,trail,province of ontario,..,..,..,..,on
97961,..,trail,province of ontario,..,..,..,..,on
97962,..,trail,province of ontario,..,..,..,..,on
97963,..,trail,province of ontario,..,..,..,..,on
97964,..,trail,province of ontario,..,..,..,..,on
97965,..,trail,province of ontario,..,..,..,..,on
97966,..,trail,province of ontario,..,..,..,..,on
97967,..,trail,province of ontario,..,..,..,..,on
97969,..,trail,province of ontario,..,..,..,..,on
97970,..,trail,province of ontario,..,..,..,..,on
97971,..,trail,province of ontario,..,..,..,..,on
97993,..,trail,province of ontario,..,..,..,..,on
97994,..,trail,province of ontario,..,..,..,..,on
97995,..,trail,province of ontario,..,..,..,..,on
98000,..,trail,province of ontario,..,..,..,..,on
98001,..,trail,province of ontario,..,..,..,..,on
98006,..,trail,province of ontario,..,..,..,..,on
98019,..,trail,province of ontario,..,..,..,..,on
98396,..,trail,province of ontario,..,..,..,..,on
98482,..,trail,province of ontario,..,..,..,..,on
98489,..,trail,province of ontario,..,..,..,..,on
98503,..,trail,province of ontario,..,..,..,..,on
98512,..,trail,province of ontario,..,..,..,..,on
98595,..,trail,province of ontario,..,..,..,..,on
