Index,Facility_Name,ODRSF_facility_type,Provider,Street_No,Street_Name,Postal_Code,City,Prov_Terr
26476,Emms / Bloom Walkway,trail,barrie,..,..,..,..,on
26477,Emms / Bloom Walkway,trail,barrie,..,..,..,..,on
26478,Emms / Bloom Walkway,trail,barrie,..,..,..,..,on
26479,Emms / Bloom Walkway,trail,barrie,..,..,..,..,on
45624,Nine Mile Portage,trail,barrie,..,..,..,..,on
48327,North Shore Trail,trail,barrie,..,..,..,..,on
48328,North Shore Trail,trail,barrie,..,..,..,..,on
48329,North Shore Trail,trail,barrie,..,..,..,..,on
48330,North Shore Trail,trail,barrie,..,..,..,..,on
48331,North Shore Trail,trail,barrie,..,..,..,..,on
53760,Simcoe County Loop Trail,trail,barrie,..,..,..,..,on
54989,The Great Trail,trail,barrie,..,..,..,..,on
54990,The Great Trail - Interim Route,trail,barrie,..,..,..,..,on
66693,Waterfront Trail,trail,barrie,..,..,..,..,on
70260,..,trail,barrie,..,..,..,..,on
70261,..,trail,barrie,..,..,..,..,on
70262,..,trail,barrie,..,..,..,..,on
70263,..,trail,barrie,..,..,..,..,on
70264,..,trail,barrie,..,..,..,..,on
70265,..,trail,barrie,..,..,..,..,on
70266,..,trail,barrie,..,..,..,..,on
70267,..,trail,barrie,..,..,..,..,on
70268,..,trail,barrie,..,..,..,..,on
70269,..,trail,barrie,..,..,..,..,on
70270,..,trail,barrie,..,..,..,..,on
70271,..,trail,barrie,..,..,..,..,on
70272,..,trail,barrie,..,..,..,..,on
70273,..,trail,barrie,..,..,..,..,on
70274,..,trail,barrie,..,..,..,..,on
70275,..,trail,barrie,..,..,..,..,on
70276,..,trail,barrie,..,..,..,..,on
70277,..,trail,barrie,..,..,..,..,on
70278,..,trail,barrie,..,..,..,..,on
70279,..,trail,barrie,..,..,..,..,on
70280,..,trail,barrie,..,..,..,..,on
70281,..,trail,barrie,..,..,..,..,on
70282,..,trail,barrie,..,..,..,..,on
70283,..,trail,barrie,..,..,..,..,on
70284,..,trail,barrie,..,..,..,..,on
70285,..,trail,barrie,..,..,..,..,on
70286,..,trail,barrie,..,..,..,..,on
70287,..,trail,barrie,..,..,..,..,on
70288,..,trail,barrie,..,..,..,..,on
70289,..,trail,barrie,..,..,..,..,on
70290,..,trail,barrie,..,..,..,..,on
70291,..,trail,barrie,..,..,..,..,on
70292,..,trail,barrie,..,..,..,..,on
70293,..,trail,barrie,..,..,..,..,on
70294,..,trail,barrie,..,..,..,..,on
