Index,Facility_Name,ODRSF_facility_type,Provider,Street_No,Street_Name,Postal_Code,City,Prov_Terr
131554,..,trail,province of ontario,..,..,..,..,on
131578,..,trail,province of ontario,..,..,..,..,on
131747,..,trail,province of ontario,..,..,..,..,on
131755,..,trail,province of ontario,..,..,..,..,on
131909,..,trail,province of ontario,..,..,..,..,on
131936,..,trail,province of ontario,..,..,..,..,on
132152,..,trail,province of ontario,..,..,..,..,on
132184,..,trail,province of ontario,..,..,..,..,on
132285,..,trail,province of ontario,..,..,..,..,on
132385,..,trail,province of ontario,..,..,..,..,on
132427,..,trail,province of ontario,..,..,..,..,on
132531,..,trail,province of ontario,..,..,..,..,on
132722,..,trail,province of ontario,..,..,..,..,on
132795,..,trail,province of ontario,..,..,..,..,on
133031,..,trail,province of ontario,..,..,..,..,on
133157,..,trail,province of ontario,..,..,..,..,on
133199,..,trail,province of ontario,..,..,..,..,on
162242,Allandale Heights Park,park,barrie,120,bayview,..,..,on
162469,Archie Goodall Park,park,barrie,215,wellington,..,..,on
162604,Assikinack Park,park,barrie,236,little,..,..,on
162825,Barwick Park,park,barrie,49,barwick,..,..,on
162850,Batteaux Park,park,barrie,443,mapleton,..,..,on
162873,Bayshore Park,park,barrie,296,pine,..,..,on
162951,Bear Creek Park,park,barrie,110,hollyy meadow,..,..,on
163172,Berczy Street Park,park,barrie,144,berczy,..,..,on
163406,Blair Park,park,barrie,24,marcus,..,..,on
163770,Brock Park,park,barrie,66,brock,..,..,on
163833,Brown Wood Park,park,barrie,101,brownwood,..,..,on
163865,Brunton Park,park,barrie,..,brunton,..,..,on
164261,Carter Park,park,barrie,33,carter,..,..,on
164269,Cartwright Park,park,barrie,45,cartwright,..,..,on
164325,Catherine Park,park,barrie,30,catherine,..,..,on
164369,Cedar Grove Park,park,barrie,177,golden meadow,..,..,on
164428,Centennial Beach North,park,barrie,..,..,..,..,on
164429,Centennial Beach South,park,barrie,..,lakeshore,..,..,on
164533,Chalmers Park,park,barrie,72,chalmers,..,..,on
164658,Cheltenham Park,park,barrie,..,..,..,..,on
164889,Cloughley Park,park,barrie,33,cloughley,..,..,on
164956,College Heights Park,park,barrie,23,bernick,..,..,on
165148,Coronation Park,park,barrie,76,coronation,..,..,on
165421,Cudia Park,park,barrie,247,dodson,..,..,on
165438,Cumming Park,park,barrie,134,cumming,..,..,on
165441,Cundles West Park,park,barrie,395,cundles,..,..,on
165458,D & J Fralick Park,park,barrie,..,12,..,..,on
165501,D'Ambrosio Park,park,barrie,11,barre,..,..,on
165779,Dock Road Park,park,barrie,..,dock,..,..,on
165780,Dock Road Wharf,park,barrie,199,dock,..,..,on
165840,Donald St Park,park,barrie,18,donald,..,..,on
166066,Dunsmore Park,park,barrie,165,dunsmore,..,..,on
