Index,Facility_Name,ODRSF_facility_type,Provider,Street_No,Street_Name,Postal_Code,City,Prov_Terr
166121,East Bayfield Park,park,barrie,80,livingston,..,..,on
166175,Eastview Community Park,park,barrie,453,grove,..,..,on
166192,Eccles Park,park,barrie,32,eccles,..,..,on
166335,Elizabeth Park,park,barrie,..,..,..,..,on
166422,Emms Park,park,barrie,123,emms,..,..,on
166759,Ferndale Park,park,barrie,..,..,..,..,on
166768,Ferris Park,park,barrie,10,collete,..,..,on
167079,Fred Grant Square,park,barrie,87,fred grant,..,..,on
167212,Garibaldi Lookout,park,barrie,35,garibaldi,..,..,on
167330,Georgian Fields 2,park,barrie,125,hickling,..,..,on
167373,Gibbon Park,park,barrie,25,gibbon,..,..,on
167597,Golden Meadow Park,park,barrie,139,hurst,..,..,on
167832,Greenfield Park,park,barrie,11,greenfield,..,..,on
167960,H.G. Robertson Park,park,barrie,236,grove,..,..,on
168026,Hanmer Park,park,barrie,54,mcdougall,..,..,on
168119,Harvie Park,park,barrie,9,brown,..,..,on
168318,Heritage Park,park,barrie,5,simcoe,..,..,on
168367,Hickling Park,park,barrie,211,johnson,..,..,on
168430,Highland Park,park,barrie,29,maclaren,..,..,on
168548,Holly Community Park,park,barrie,211,emms,..,..,on
168716,Huronia North Park,park,barrie,311,huronia,..,..,on
168719,Hurst Park,park,barrie,34,hurst,..,..,on
168726,Hyde Park,park,barrie,100,the-queensway,..,..,on
168862,Irwin Park,park,barrie,10,irwin,..,..,on
168898,J. Gibbins Park,park,barrie,35,priscilla's,..,..,on
169144,John Edwin Coupe Park,park,barrie,58,worsley,..,..,on
169214,Johnsons Beach Park,park,barrie,2,johnson,..,..,on
169215,Johnsons Beach Parking,park,barrie,81,shanty bay,..,..,on
169376,Kearsey Park,park,barrie,5,powell,..,..,on
169405,Kempenfelt Park,park,barrie,55,kempenfelt,..,..,on
169915,Kuzmich Park,park,barrie,2,golden meadow,..,..,on
170054,Lampman Lane Park,park,barrie,59,lampman,..,..,on
170202,Leacock Park,park,barrie,280,leacock,..,..,on
170265,Lennox Park,park,barrie,319,big bay point,..,..,on
170424,Lions Park,park,barrie,30,sophia,..,..,on
170486,Livingstone Park,park,barrie,130,livingstone,..,..,on
170539,Lonsdale Park,park,barrie,5,lonsdale,..,..,on
170574,Lougheed Park,park,barrie,90,lougheed,..,..,on
170622,Loyalist Park,park,barrie,40,loyalist,..,..,on
170738,Macmorrison Park,park,barrie,160,grove,..,..,on
170751,Madelaine Park,park,barrie,90,madelaine,..,..,on
170792,Maitland Park,park,barrie,210,johnson,..,..,on
170912,Mapleton Park,park,barrie,38,mapleton,..,..,on
170966,Marina,park,barrie,5,simcoe,..,..,on
170967,Marina North,park,barrie,11,15,..,..,on
171044,Marsellus Park,park,barrie,125,marsellus,..,..,on
171156,Mayfair Park,park,barrie,..,mayfair,..,..,on
171202,Mcconkey Park,park,barrie,11,mcconkey,..,..,on
171431,Memorial Square,park,barrie,65,dunlop,..,..,on
