Index,Facility_Name,ODRSF_facility_type,Provider,Street_No,Street_Name,Postal_Code,City,Prov_Terr
171535,Military Heritage Park,park,barrie,225,lakeshore,..,..,on
171640,Minets Point Park,park,barrie,10,brennan,..,..,on
171794,Montserrand Park,park,barrie,49,montserrand,..,..,on
172086,Nelson Lookout,park,barrie,184,blake,..,..,on
172090,Nelson Square,park,barrie,189,blake,..,..,on
172469,Oates Park,park,barrie,24,oates,..,..,on
172641,Osprey Ridge Park,park,barrie,321,livingstone,..,..,on
172709,Painswick Park,park,barrie,231,ashford,..,..,on
173684,Patricia Park,park,barrie,21,patricia,..,..,on
173695,Patterson Place Park,park,barrie,75,moon,..,..,on
173946,Pioneer Park,park,barrie,420,cox mill,..,..,on
174152,Pringle Park,park,barrie,30,pringle,..,..,on
174252,Queens Park,park,barrie,55,ross,..,..,on
174306,Radenhurst Park,park,barrie,39,radenhurst,..,..,on
174471,Red Story Field,park,barrie,19,eccles,..,..,on
174473,Redfern Park,park,barrie,33,redfern,..,..,on
174490,Redpath Park,park,barrie,70,carlton,..,..,on
174808,Riverwood Park,park,barrie,22,kozlov,..,..,on
174855,Robin Court,park,barrie,30,robin,..,..,on
175446,Sam Cancilla Park,park,barrie,157,dunlop,..,..,on
175490,Sandringham Park,park,barrie,101,sandringham,..,..,on
175617,Scott Park,park,barrie,95,scott,..,..,on
175743,Shalom Park,park,barrie,50,shalom,..,..,on
175773,Shear Park,park,barrie,21,holgate,..,..,on
175808,Sheppards Park,park,barrie,366,tollendale mill,..,..,on
175871,Shoreview Park,park,barrie,17,indian,..,..,on
176066,Snowshoe Park,park,barrie,20,snowshoe,..,..,on
176135,South Shore Park,park,barrie,..,..,..,..,on
176400,St Vincent Park,park,barrie,60,blake,..,..,on
176576,Steel Street Park,park,barrie,200,cook,..,..,on
176619,Stollar Park,park,barrie,245,livingstone,..,..,on
176667,Strabane Corridor North,park,barrie,79,steel,..,..,on
176668,Strabane Corridor South,park,barrie,122,napier,..,..,on
176669,Strabane Park,park,barrie,72,strabane,..,..,on
176724,Succession Parkette,park,barrie,130,succession,..,..,on
176763,Summerset Park,park,barrie,137,summerset,..,..,on
176791,Sunnidale Park,park,barrie,..,..,..,..,on
176841,Surrey Park,park,barrie,60,broadfoot,..,..,on
176937,Tall Trees Park,park,barrie,125,springdale,..,..,on
177061,The Gables,park,barrie,250,tollendale mill,..,..,on
177175,Tiffin Launch,park,barrie,105,lakeshore,..,..,on
177223,Tollendale Woods Park,park,barrie,40,royal oak,..,..,on
177491,Tyndale Park,park,barrie,45,tyndale,..,..,on
177760,Valleyview Park North,park,barrie,81,crimson ridge,..,..,on
177761,Valleyview Park South,park,barrie,11,valley view,..,..,on
177777,Vancouver Lookout,park,barrie,399,codrington,..,..,on
177842,Veteran's Woods Park,park,barrie,41,veteran's,..,..,on
177888,Victoria Woods Park,park,barrie,19,lilian,..,..,on
178012,Walnut Crescent,park,barrie,208,walnut,..,..,on
