Index,Facility_Name,ODRSF_facility_type,Provider,Street_No,Street_Name,Postal_Code,City,Prov_Terr
981,Ch1,rink,barrie,..,..,..,..,on
1467,Eas2,rink,barrie,..,..,..,..,on
2687,Lam1,skate park,barrie,..,..,..,..,on
5025,Que1,skate park,barrie,..,..,..,..,on
6805,37316,sports field,barrie,..,..,..,..,on
6806,37316,sports field,barrie,..,..,..,..,on
6807,37316,sports field,barrie,..,..,..,..,on
7360,Ass1,sports field,barrie,..,..,..,..,on
7361,Ass1,miscellaneous,barrie,..,..,..,..,on
8827,Bat1,sports field,barrie,..,..,..,..,on
8840,Bay1,sports field,barrie,..,..,..,..,on
8841,Bay1,sports field,barrie,..,..,..,..,on
8858,Bea3,sports field,barrie,..,..,..,..,on
8859,Bea3,sports field,barrie,..,..,..,..,on
8860,Bea3,sports field,barrie,..,..,..,..,on
9276,Bro1,sports field,barrie,..,..,..,..,on
9277,Bro4,sports field,barrie,..,..,..,..,on
9453,Car2,sports field,barrie,..,..,..,..,on
9565,Cat1,sports field,barrie,..,..,..,..,on
9566,Cat1,sports field,barrie,..,..,..,..,on
9736,Che1,sports field,barrie,..,..,..,..,on
9737,Che1,sports field,barrie,..,..,..,..,on
9908,Clo1,sports field,barrie,..,..,..,..,on
9909,Clo1,sports field,barrie,..,..,..,..,on
10094,Col1,sports field,barrie,..,..,..,..,on
10095,Col1,sports field,barrie,..,..,..,..,on
10176,Cor1,sports field,barrie,..,..,..,..,on
10177,Cor1,sports field,barrie,..,..,..,..,on
10380,Cun1,sports field,barrie,..,..,..,..,on
10381,Cun1,sports field,barrie,..,..,..,..,on
10691,Eas1,sports field,barrie,..,..,..,..,on
10692,Eas1,sports field,barrie,..,..,..,..,on
10693,Eas1,sports field,barrie,..,..,..,..,on
10694,Eas1,sports field,barrie,..,..,..,..,on
10695,Eas1,sports field,barrie,..,..,..,..,on
10696,Eas2,sports field,barrie,..,..,..,..,on
10697,Eas2,sports field,barrie,..,..,..,..,on
10698,Eas2,sports field,barrie,..,..,..,..,on
10808,Eli1,sports field,barrie,..,..,..,..,on
10809,Eli1,sports field,barrie,..,..,..,..,on
11001,Fer1,sports field,barrie,..,..,..,..,on
11002,Fer1,sports field,barrie,..,..,..,..,on
11003,Fer1,sports field,barrie,..,..,..,..,on
11004,Fer1,sports field,barrie,..,..,..,..,on
11005,Fer1,sports field,barrie,..,..,..,..,on
11006,Fer2,sports field,barrie,..,..,..,..,on
11334,Geo4,sports field,barrie,..,..,..,..,on
11466,Gol1,sports field,barrie,..,..,..,..,on
11467,Gol1,sports field,barrie,..,..,..,..,on
