Index,Facility_Name,ODRSF_facility_type,Provider,Street_No,Street_Name,Postal_Code,City,Prov_Terr
10213,Cote Park,sports field,greater sudbury,..,..,..,..,on
10214,Cote Park,sports field,greater sudbury,..,..,..,..,on
10387,Cyril Varney Public School,sports field,greater sudbury,..,..,..,..,on
10434,Delki Dozzi Sports Complex,sports field,greater sudbury,..,..,..,..,on
10435,Delki Dozzi Sports Complex,sports field,greater sudbury,..,..,..,..,on
10436,Delki Dozzi Sports Complex,sports field,greater sudbury,..,..,..,..,on
10437,Delki Dozzi Sports Complex,sports field,greater sudbury,..,..,..,..,on
10438,Delki Dozzi Sports Complex,sports field,greater sudbury,..,..,..,..,on
10520,Don Lita Playground,sports field,greater sudbury,..,..,..,..,on
10562,Dowling,sports field,greater sudbury,..,..,..,..,on
10563,Dowling Ball Fields,sports field,greater sudbury,..,..,..,..,on
10564,Dowling Ball Fields,sports field,greater sudbury,..,..,..,..,on
10565,Dowling Leisure Centre,sports field,greater sudbury,..,..,..,..,on
10566,Dowling Leisure Centre,sports field,greater sudbury,..,..,..,..,on
10567,Dowling Leisure Centre,sports field,greater sudbury,..,..,..,..,on
10568,Downe Playground/Tot Lot,sports field,greater sudbury,..,..,..,..,on
10569,Downe Playground/Tot Lot,sports field,greater sudbury,..,..,..,..,on
10570,Downe Sports Field,sports field,greater sudbury,..,..,..,..,on
10571,Downe Sports Field,sports field,greater sudbury,..,..,..,..,on
10572,Downe Sports Field,sports field,greater sudbury,..,..,..,..,on
10839,Elm West Field Complex,sports field,greater sudbury,..,..,..,..,on
10840,Elm West Field Complex,sports field,greater sudbury,..,..,..,..,on
10847,Elmview Playground,sports field,greater sudbury,..,..,..,..,on
10848,Elmview Playground,sports field,greater sudbury,..,..,..,..,on
10849,Elmview Playground,sports field,greater sudbury,..,..,..,..,on
10891,Ernie Checkeris Public School,sports field,greater sudbury,..,..,..,..,on
10892,Esc L'Horizon,sports field,greater sudbury,..,..,..,..,on
10955,Falconbridge C. C.,sports field,greater sudbury,..,..,..,..,on
10956,Falconbridge Field Complex,sports field,greater sudbury,..,..,..,..,on
10957,Falconbridge Field Complex,sports field,greater sudbury,..,..,..,..,on
10958,Falconbridge Field Complex,sports field,greater sudbury,..,..,..,..,on
10973,Farmdale Playground,sports field,greater sudbury,..,..,..,..,on
10974,Farmdale Playground,sports field,greater sudbury,..,..,..,..,on
11312,Garson Arena,sports field,greater sudbury,..,..,..,..,on
11313,Garson Arena,sports field,greater sudbury,..,..,..,..,on
11511,Gordon Street Playground / Old Skead,sports field,greater sudbury,..,..,..,..,on
11684,Hanmer Secondary School,sports field,greater sudbury,..,..,..,..,on
11685,Hanmer Secondary School,sports field,greater sudbury,..,..,..,..,on
11697,HÃ©ritage,sports field,greater sudbury,..,..,..,..,on
12031,Howard Armstrong Recreation Centre,sports field,greater sudbury,..,..,..,..,on
12032,Howard Armstrong Recreation Centre,sports field,greater sudbury,..,..,..,..,on
12033,Howard Armstrong Recreation Centre,sports field,greater sudbury,..,..,..,..,on
12034,Howard Armstrong Recreation Centre,sports field,greater sudbury,..,..,..,..,on
12035,Howard Armstrong Recreation Centre,sports field,greater sudbury,..,..,..,..,on
12036,Howard Armstrong Recreation Centre,sports field,greater sudbury,..,..,..,..,on
12037,Howard Armstrong Recreation Centre,sports field,greater sudbury,..,..,..,..,on
12038,Howard Armstrong Recreation Centre,sports field,greater sudbury,..,..,..,..,on
12039,Howard Armstrong Recreation Centre,sports field,greater sudbury,..,..,..,..,on
12040,Howard Armstrong Recreation Centre,sports field,greater sudbury,..,..,..,..,on
