Index,Facility_Name,ODRSF_facility_type,Provider,Street_No,Street_Name,Postal_Code,City,Prov_Terr
177574,Unnamed,park,greater sudbury,..,..,..,whitewater,on
177575,Unnamed,park,greater sudbury,..,..,..,..,on
177576,Unnamed,park,greater sudbury,..,kelly lake,..,..,on
177577,Unnamed,park,greater sudbury,..,paris,..,..,on
177578,Unnamed,park,greater sudbury,..,walford,..,..,on
177579,Unnamed,park,greater sudbury,..,kingsmount,..,..,on
177580,Unnamed,park,greater sudbury,..,lonsdale,..,..,on
177581,Unnamed,park,greater sudbury,..,mckim,..,..,on
177582,Unnamed,park,greater sudbury,..,hickory,..,..,on
177583,Unnamed,park,greater sudbury,..,..,..,..,on
177584,Unnamed,park,greater sudbury,..,..,..,..,on
177585,Unnamed,park,greater sudbury,..,..,..,..,on
177586,Unnamed,park,greater sudbury,..,..,..,..,on
177587,Unnamed,park,greater sudbury,..,lynwood,..,..,on
177588,Unnamed,park,greater sudbury,..,o'neil,..,..,on
177589,Unnamed,park,greater sudbury,..,..,..,..,on
177590,Unnamed,park,greater sudbury,..,..,..,..,on
177591,Unnamed,park,greater sudbury,..,..,..,..,on
177592,Unnamed,park,greater sudbury,..,..,..,..,on
177593,Unnamed,park,greater sudbury,295,regional,..,..,on
177594,Unnamed,park,greater sudbury,..,..,..,..,on
177595,Unnamed,park,greater sudbury,..,chief lake,..,..,on
177596,Unnamed,park,greater sudbury,..,lane,..,..,on
177597,Unnamed,park,greater sudbury,..,..,..,daisy,on
177598,Unnamed,park,greater sudbury,..,..,..,daisy,on
177599,Unnamed,park,greater sudbury,..,..,..,daisy,on
177600,Unnamed,park,greater sudbury,17,by-pass,..,..,on
177601,Unnamed,park,greater sudbury,..,bay,..,..,on
177602,Unnamed,park,greater sudbury,..,maclennan,..,..,on
177603,Unnamed,park,greater sudbury,..,..,..,garson,on
177604,Unnamed,park,greater sudbury,..,..,..,garson,on
177605,Unnamed,park,greater sudbury,..,scenic,..,..,on
177606,Unnamed,park,greater sudbury,..,..,..,whitewater,on
177607,Unnamed,park,greater sudbury,..,gordon lake,..,..,on
177608,Unnamed,park,greater sudbury,..,niemi,..,..,on
177609,Unnamed,park,greater sudbury,..,..,..,..,on
177610,Unnamed,park,greater sudbury,..,main,..,..,on
177611,Unnamed,park,greater sudbury,..,autumnwood,..,..,on
177612,Unnamed,park,greater sudbury,..,southview,..,..,on
177613,Unnamed,park,greater sudbury,811,robinson,..,..,on
177614,Unnamed,park,greater sudbury,..,horobin,..,..,on
177615,Unnamed,park,greater sudbury,..,st-nicholas,..,..,on
177616,Unnamed,park,greater sudbury,..,..,..,..,on
177617,Unnamed,park,greater sudbury,..,stewart,..,..,on
177618,Unnamed,park,greater sudbury,..,..,..,..,on
177619,Unnamed,park,greater sudbury,..,avalon,..,..,on
177620,Unnamed,park,greater sudbury,..,..,..,..,on
177621,Unnamed,park,greater sudbury,..,..,..,..,on
177622,Unnamed,park,greater sudbury,..,selkirk,..,..,on
