Index,Facility_Name,ODRSF_facility_type,Provider,Street_No,Street_Name,Postal_Code,City,Prov_Terr
6371,Wahnapitae Community Centre,community centre,greater sudbury,161,glenbower,..,wahnapitae,on
6494,Westmount Community Centre,rink,greater sudbury,..,..,..,..,on
6495,Westmount Community Centre,community centre,greater sudbury,109,kipling,..,sudbury,on
6497,Westmount Playground,splash pad,greater sudbury,..,..,..,..,on
6538,Whitefish Playground Building,rink,greater sudbury,..,..,..,..,on
6543,Whitewater Park,beach,greater sudbury,..,..,..,..,on
9010,Bishop Carter School,sports field,greater sudbury,..,..,..,..,on
9024,Black Lake Playground,sports field,greater sudbury,..,..,..,..,on
9352,C.V.D.C.S.,sports field,greater sudbury,..,..,..,..,on
9407,Cambrian College,sports field,greater sudbury,..,..,..,..,on
9408,Cambrian College,sports field,greater sudbury,..,..,..,..,on
9450,Capreol Lion's Den,sports field,greater sudbury,..,..,..,..,on
9451,Capreol Lion's Den,sports field,greater sudbury,..,..,..,..,on
9452,Capreol Lion's Den,sports field,greater sudbury,..,..,..,..,on
9476,Carling Tot Lot,sports field,greater sudbury,..,..,..,..,on
9493,Carmichael Field Complex,sports field,greater sudbury,..,..,..,..,on
9494,Carmichael Field Complex,sports field,greater sudbury,..,..,..,..,on
9495,Carmichael Field Complex,sports field,greater sudbury,..,..,..,..,on
9496,Carmichael Field Complex,sports field,greater sudbury,..,..,..,..,on
9497,Carol Richard Playground,sports field,greater sudbury,..,..,..,..,on
9575,Cedar Park Playground,sports field,greater sudbury,..,..,..,..,on
9589,Centennial Complex,sports field,greater sudbury,..,..,..,..,on
9590,Centennial Complex,sports field,greater sudbury,..,..,..,..,on
9591,Centennial Complex,sports field,greater sudbury,..,..,..,..,on
9592,Centennial Park,sports field,greater sudbury,..,..,..,..,on
9593,Centennial Park,sports field,greater sudbury,..,..,..,..,on
9601,Centennial Park,sports field,greater sudbury,..,..,..,..,on
9612,Centennial Park,sports field,greater sudbury,..,..,..,..,on
9613,Centennial Park,sports field,greater sudbury,..,..,..,..,on
9616,Centennial Park (Whitefish),sports field,greater sudbury,..,..,..,..,on
9712,Champlain Secondary School,sports field,greater sudbury,..,..,..,..,on
10130,Confederation Complex,sports field,greater sudbury,..,..,..,..,on
10131,Confederation Complex,sports field,greater sudbury,..,..,..,..,on
10132,Confederation Complex,sports field,greater sudbury,..,..,..,..,on
10133,Confederation Complex,sports field,greater sudbury,..,..,..,..,on
10134,Confederation Complex,sports field,greater sudbury,..,..,..,..,on
10135,Confederation Complex,sports field,greater sudbury,..,..,..,..,on
10147,Coniston Centennial Park,sports field,greater sudbury,..,..,..,..,on
10148,Coniston Red Sox Field,sports field,greater sudbury,..,..,..,..,on
10149,Coniston Red Sox Field,sports field,greater sudbury,..,..,..,..,on
10150,Coniston Red Sox Field,sports field,greater sudbury,..,..,..,..,on
10151,Coniston Red Sox Field,sports field,greater sudbury,..,..,..,..,on
10152,Coniston Red Sox Field,sports field,greater sudbury,..,..,..,..,on
10170,Copper Cliff Complex,sports field,greater sudbury,..,..,..,..,on
10171,Copper Cliff Public School,sports field,greater sudbury,..,..,..,..,on
10172,Copper Cliff Tennis Courts,sports field,greater sudbury,..,..,..,..,on
10174,Copper Park,sports field,greater sudbury,..,..,..,..,on
10210,Cote Park,sports field,greater sudbury,..,..,..,..,on
10211,Cote Park,sports field,greater sudbury,..,..,..,..,on
