Index,Facility_Name,ODRSF_facility_type,Provider,Street_No,Street_Name,Postal_Code,City,Prov_Terr
2510,Kalmo,beach,greater sudbury,..,..,..,..,on
2564,Kin Park,rink,greater sudbury,..,..,..,..,on
2611,Kinsmen Sports Complex,rink,greater sudbury,..,..,..,..,on
2612,Kinsmen Sports Complex,splash pad,greater sudbury,..,..,..,..,on
2653,Label Tot Lot,rink,greater sudbury,..,..,..,..,on
2795,Lionel E. Lalonde Centre,rink,greater sudbury,..,..,..,..,on
2821,Lively Outdoor Rink,rink,greater sudbury,..,..,..,..,on
2848,Long Lake Playground,rink,greater sudbury,..,..,..,..,on
2850,Lonsdale Playground,rink,greater sudbury,..,..,..,..,on
3226,Matson Playground,rink,greater sudbury,..,..,..,..,on
3249,Mcclelland Community Centre,arena,greater sudbury,..,..,..,..,on
3260,Mcfarlane Lake Playground And Complex,rink,greater sudbury,..,..,..,..,on
3274,Mclean Playground,rink,greater sudbury,..,..,..,..,on
3305,Meatbird Lake Park,beach,greater sudbury,..,..,..,..,on
3315,Memorial Park,splash pad,greater sudbury,..,..,..,..,on
3416,Moonlight,beach,greater sudbury,..,..,..,..,on
3423,Morel Family Foundation Park,rink,greater sudbury,..,..,..,..,on
3518,Nepahwin Park,beach,greater sudbury,..,..,..,..,on
3519,New,beach,greater sudbury,..,..,..,..,on
3546,Nickel District,pool,greater sudbury,..,..,..,..,on
3642,O'Connor Athletic Park,rink,greater sudbury,..,..,..,..,on
3646,O'Connor Playground,splash pad,greater sudbury,..,..,..,..,on
3653,Oja Sports Complex,rink,greater sudbury,..,..,..,..,on
3679,Onaping Community Centre,community centre,greater sudbury,2,hillside,..,onaping,on
3680,Onaping Falls,pool,greater sudbury,..,..,..,..,on
4002,Panache Road Community Centre,rink,greater sudbury,..,..,..,..,on
4511,Percy Playground,rink,greater sudbury,..,..,..,..,on
5035,Queen's Athletic Sports Complex,rink,greater sudbury,..,..,..,..,on
5082,Raymond Plourde,arena,greater sudbury,..,..,..,..,on
5121,Rg Dow,pool,greater sudbury,..,..,..,..,on
5137,Ridgecrest Playground,rink,greater sudbury,..,..,..,..,on
5138,Ridgecrest Playground,splash pad,greater sudbury,..,..,..,..,on
5173,Riverdale Playground,rink,greater sudbury,..,..,..,..,on
5195,Robinson Playground,rink,greater sudbury,..,..,..,..,on
5222,Rosemarie Playground,rink,greater sudbury,..,..,..,..,on
5277,Russell Beaudry,rink,greater sudbury,..,..,..,..,on
5282,Ryan Heights Playground,rink,greater sudbury,..,..,..,..,on
5430,Silver Lake,beach,greater sudbury,..,..,..,..,on
5441,Simon Lake Park,beach,greater sudbury,..,..,..,..,on
5617,Skead,rink,greater sudbury,..,..,..,..,on
5969,Stewart Park,beach,greater sudbury,..,..,..,..,on
5994,Sudbury Community,arena,greater sudbury,..,..,..,..,on
6022,Sunnyside Playground,rink,greater sudbury,..,..,..,..,on
6040,T.M. Davies Community Centre,arena,greater sudbury,..,..,..,..,on
6041,T.M. Davies Community Centre,community centre,greater sudbury,325,anderson,..,lively,on
6082,Theresa Playground,rink,greater sudbury,..,..,..,..,on
6207,V.L.A. Playground,rink,greater sudbury,..,..,..,..,on
6212,Valley Acres Playground,rink,greater sudbury,..,..,..,..,on
6282,Victory Park,splash pad,greater sudbury,..,..,..,..,on
