Index,Facility_Name,ODRSF_facility_type,Provider,Street_No,Street_Name,Postal_Code,City,Prov_Terr
167687,Grace,park,greater sudbury,..,rita,..,..,on
167714,Grand Marquis,park,greater sudbury,..,edna,..,..,on
167776,Grassy Hill,park,greater sudbury,..,hawthorne,..,..,on
167865,Greenway,park,greater sudbury,..,moonlight beach,..,..,on
168025,Hanmer,park,greater sudbury,4800,notre-dame,..,..,on
168054,Hargreaves/Kingsway Hill,park,greater sudbury,..,kingsway/hargreaves,..,..,on
168296,Heritage,park,greater sudbury,..,kathleen,..,..,on
168390,High Falls Rest Area And Trails,park,greater sudbury,350,144,..,..,on
168473,Hillfield Trails,park,greater sudbury,..,mikkola,..,..,on
168515,Hnatyshyn,park,greater sudbury,..,notre dame,..,..,on
168624,Howard Armstrong Recreation Centre,park,greater sudbury,4040,elmview,..,..,on
168757,I.J. Coady Memorial Arena,park,greater sudbury,13,second,..,..,on
168967,James Jerome Sports Complex,park,greater sudbury,90,centennial,..,..,on
169310,Junction Creek Waterway,park,greater sudbury,..,brady,..,..,on
169341,Kalmo Beach/Sandy Beach,park,greater sudbury,2630,sandy beach,..,..,on
169360,Kathleen-Morin Hilltop,park,greater sudbury,..,..,..,..,on
169363,Katmic Playground,park,greater sudbury,..,serenna,..,..,on
169394,Kelly Lake Trails,park,greater sudbury,..,17,..,..,on
169395,Kelly Lake Trails (Private Property),trail,greater sudbury,..,17,..,..,on
169396,Kelly Lake Trails (Private Property),trail,greater sudbury,..,17,..,..,on
169900,Korpela,park,greater sudbury,2008,greenwood,..,..,on
169942,Lady Ashley,park,greater sudbury,..,lady ashley,..,..,on
170088,Langdon,park,greater sudbury,..,martin,..,..,on
170113,Larchwood,park,greater sudbury,..,144,..,..,on
170130,Lasalle,park,greater sudbury,1545,kennedy,..,..,on
170156,Laurentian,park,greater sudbury,1393,lakeshore,..,..,on
170266,Leo Gerard Workers' Memorial,park,greater sudbury,..,main,..,..,on
170297,Levack Dog Walk,park,greater sudbury,..,..,..,..,on
170409,Lionel E. Lalonde Centre,park,greater sudbury,239,montee,..,..,on
170480,Lively Greenspace,park,greater sudbury,..,eastern,..,..,on
170481,Lively Ski Hill,park,greater sudbury,231,first,..,..,on
170529,Long Lake,park,greater sudbury,..,kantola,..,..,on
170556,Lorne Brady,park,greater sudbury,600,o'neil,..,..,on
170804,Maki Avenue,park,greater sudbury,..,maki,..,..,on
170819,Mallard's Landing,park,greater sudbury,..,pond hollow,..,..,on
170947,Marguerite & Gerry Lougheed,park,greater sudbury,135,eyre,..,..,on
171083,Marymount To Notre Dame,park,greater sudbury,..,tanguay,..,..,on
171240,Mcfarlane Lake,park,greater sudbury,1301,cawthorpe,..,..,on
171326,Mcnaughton Waterfront,park,greater sudbury,..,mcnaughton,..,..,on
171384,Mederic,park,greater sudbury,..,mederic,..,..,on
171413,Memorial,park,greater sudbury,1742,minto,..,..,on
171459,Metcalfe,park,greater sudbury,..,metcalfe,..,..,on
171643,Minnow Lake Dog Park,park,greater sudbury,..,second,..,..,on
171644,Minnow Lake Place,park,greater sudbury,1127,bancroft,..,..,on
171797,Moonlight Beach,park,greater sudbury,527,moonlight beach,..,..,on
171939,Moxam,park,greater sudbury,..,moxam landing,..,..,on
172054,Naughton Community Centre,park,greater sudbury,1955,55,..,..,on
172055,Naughton Trail Centre,park,greater sudbury,1,denis,..,..,on
172093,Nepahwin Lake,park,greater sudbury,1742,paris,..,..,on
