Index,Facility_Name,ODRSF_facility_type,Provider,Street_No,Street_Name,Postal_Code,City,Prov_Terr
12042,Howard Armstrong Recreation Centre,sports field,greater sudbury,..,..,..,..,on
12119,Inco Field,sports field,greater sudbury,..,..,..,..,on
12205,James Jerome Sports Complex,sports field,greater sudbury,..,..,..,..,on
12206,James Jerome Sports Complex,sports field,greater sudbury,..,..,..,..,on
12207,James Jerome Sports Complex,sports field,greater sudbury,..,..,..,..,on
12208,James Jerome Sports Complex,sports field,greater sudbury,..,..,..,..,on
12209,James Jerome Sports Complex,sports field,greater sudbury,..,..,..,..,on
12210,James Jerome Sports Complex,sports field,greater sudbury,..,..,..,..,on
12211,James Jerome Sports Complex,sports field,greater sudbury,..,..,..,..,on
12228,Jean-Ethier-Blais School,sports field,greater sudbury,..,..,..,..,on
12450,Kin Park,sports field,greater sudbury,..,..,..,..,on
12451,Kin Park,sports field,greater sudbury,..,..,..,..,on
12452,Kin Park,sports field,greater sudbury,..,..,..,..,on
12511,Kinsmen Sports Complex,sports field,greater sudbury,..,..,..,..,on
12512,Kinsmen Sports Complex,sports field,greater sudbury,..,..,..,..,on
12513,Kinsmen Sports Complex,sports field,greater sudbury,..,..,..,..,on
12514,Kinsmen Sports Complex,sports field,greater sudbury,..,..,..,..,on
12515,Kinsmen Sports Complex,sports field,greater sudbury,..,..,..,..,on
12516,Kinsmen Sports Complex,sports field,greater sudbury,..,..,..,..,on
12880,Lansing Sports Field,sports field,greater sudbury,..,..,..,..,on
12881,Lansing Sports Field,sports field,greater sudbury,..,..,..,..,on
12895,Larchmont Tot Lot,sports field,greater sudbury,..,..,..,..,on
12896,Larchwood Public School,sports field,greater sudbury,..,..,..,..,on
12905,Lasalle Secondary School,sports field,greater sudbury,..,..,..,..,on
12906,Lasalle Secondary School,sports field,greater sudbury,..,..,..,..,on
12921,Laurentian University,sports field,greater sudbury,..,..,..,..,on
12922,Laurentian University,sports field,greater sudbury,..,..,..,..,on
13024,Levack Ballfield,sports field,greater sudbury,..,..,..,..,on
13025,Levack Public School,sports field,greater sudbury,..,..,..,..,on
13026,Levack Public School,sports field,greater sudbury,..,..,..,..,on
13027,Levack Public School,sports field,greater sudbury,..,..,..,..,on
13073,Lionel E. Lalonde Centre,sports field,greater sudbury,..,..,..,..,on
13094,Lion's Playground,sports field,greater sudbury,..,..,..,..,on
13095,Lion's Playground,sports field,greater sudbury,..,..,..,..,on
13119,Lively High School,sports field,greater sudbury,..,..,..,..,on
13120,Lively Sixth Avenue Playground,sports field,greater sudbury,..,..,..,..,on
13121,Lively Sixth Avenue Playground,sports field,greater sudbury,..,..,..,..,on
13122,Lively Sixth Avenue Playground,sports field,greater sudbury,..,..,..,..,on
13123,Lively Sixth Avenue Playground,sports field,greater sudbury,..,..,..,..,on
13130,Lockerby Secondary School,sports field,greater sudbury,..,..,..,..,on
13131,Lockerby Secondary School,sports field,greater sudbury,..,..,..,..,on
13132,Lo-Ellen Park Community Centre,sports field,greater sudbury,..,..,..,..,on
13133,Lo-Ellen Park Community Centre,sports field,greater sudbury,..,..,..,..,on
13134,Lo-Ellen Park Community Centre,sports field,greater sudbury,..,..,..,..,on
13147,Long Lake Playground,sports field,greater sudbury,..,..,..,..,on
13159,Lorne Brady Sports Complex,sports field,greater sudbury,..,..,..,..,on
13160,Lorne Brady Sports Complex,sports field,greater sudbury,..,..,..,..,on
13161,Lorne Brady Sports Complex,sports field,greater sudbury,..,..,..,..,on
13162,Lorne Brady Sports Complex,sports field,greater sudbury,..,..,..,..,on
