Index,Facility_Name,ODRSF_facility_type,Provider,Street_No,Street_Name,Postal_Code,City,Prov_Terr
17130,St. Charles College,sports field,greater sudbury,..,..,..,..,on
17131,St. Charles College,sports field,greater sudbury,..,..,..,..,on
17132,St. Charles College,sports field,greater sudbury,..,..,..,..,on
17210,St. Onge Tot Lot,sports field,greater sudbury,..,..,..,..,on
17343,St-Pierre School,sports field,greater sudbury,..,..,..,..,on
17387,Sudbury Secondary School,sports field,greater sudbury,..,..,..,..,on
17388,Sudbury Secondary School,sports field,greater sudbury,..,..,..,..,on
17389,Sudbury Secondary School,sports field,greater sudbury,..,..,..,..,on
17432,Sunrise Ridge Park,sports field,greater sudbury,..,..,..,..,on
17681,Terry Fox Sports Complex,sports field,greater sudbury,..,..,..,..,on
17682,Terry Fox Sports Complex,sports field,greater sudbury,..,..,..,..,on
17683,Terry Fox Sports Complex,sports field,greater sudbury,..,..,..,..,on
17684,Terry Fox Sports Complex,sports field,greater sudbury,..,..,..,..,on
17715,Thomas Tot Lot,sports field,greater sudbury,..,..,..,..,on
17898,Twin Forks Sports Complex,sports field,greater sudbury,..,..,..,..,on
17899,Twin Forks Sports Complex,sports field,greater sudbury,..,..,..,..,on
17900,Twin Forks Sports Complex,sports field,greater sudbury,..,..,..,..,on
17901,Twin Forks Sports Complex,sports field,greater sudbury,..,..,..,..,on
17902,Twin Forks Sports Complex,sports field,greater sudbury,..,..,..,..,on
17965,V.L.A. Playground,sports field,greater sudbury,..,..,..,..,on
17968,Valley Acres Playground,sports field,greater sudbury,..,..,..,..,on
18001,Vermilion Lake Park,sports field,greater sudbury,..,..,..,..,on
18132,Wahnapitae Ball Field,sports field,greater sudbury,..,..,..,..,on
18133,Wahnapitae Community Centre,sports field,greater sudbury,..,..,..,..,on
18134,Wahnapitae Community Centre,sports field,greater sudbury,..,..,..,..,on
18135,Wahnapitae Community Centre,sports field,greater sudbury,161,glenbower,..,wahnapitae,on
18295,Westmount Public School,sports field,greater sudbury,..,..,..,..,on
96374,..,trail,province of ontario,..,..,..,..,on
96375,..,trail,province of ontario,..,..,..,..,on
96376,..,trail,province of ontario,..,..,..,..,on
96377,..,trail,province of ontario,..,..,..,..,on
96378,..,trail,province of ontario,..,..,..,..,on
96379,..,trail,province of ontario,..,..,..,..,on
96380,..,trail,province of ontario,..,..,..,..,on
96381,..,trail,province of ontario,..,..,..,..,on
96382,..,trail,province of ontario,..,..,..,..,on
96383,..,trail,province of ontario,..,..,..,..,on
96384,..,trail,province of ontario,..,..,..,..,on
96385,..,trail,province of ontario,..,..,..,..,on
96386,..,trail,province of ontario,..,..,..,..,on
96387,..,trail,province of ontario,..,..,..,..,on
96388,..,trail,province of ontario,..,..,..,..,on
96389,..,trail,province of ontario,..,..,..,..,on
96390,..,trail,province of ontario,..,..,..,..,on
96391,..,trail,province of ontario,..,..,..,..,on
96392,..,trail,province of ontario,..,..,..,..,on
96393,..,trail,province of ontario,..,..,..,..,on
96394,..,trail,province of ontario,..,..,..,..,on
96395,..,trail,province of ontario,..,..,..,..,on
