Index,Facility_Name,ODRSF_facility_type,Provider,Street_No,Street_Name,Postal_Code,City,Prov_Terr
172252,Northeast Hilltop,park,greater sudbury,..,..,..,..,on
173663,Parkwood/Poplar Greenspace,park,greater sudbury,..,..,..,..,on
173783,Penman,park,greater sudbury,..,penman,..,..,on
174063,Portage Avenue Beach,park,greater sudbury,..,portage,..,..,on
174066,Porter,park,greater sudbury,..,danforth,..,..,on
174099,Prescott,park,greater sudbury,26,bloor,..,..,on
174231,Queen Elizabeth,park,greater sudbury,32,dell,..,..,on
174247,Queen's Athletic Field,park,greater sudbury,30,cypress,..,..,on
174286,R.H. Murray,park,greater sudbury,10,henry,..,..,on
174406,Ravine,park,greater sudbury,..,victoria,..,..,on
174607,Rick Mcdonald Complex,park,greater sudbury,158,st agnes,..,..,on
175258,Roxborough Greenbelt,park,greater sudbury,..,roxborough,..,..,on
175390,Sacre Coeur,park,greater sudbury,261,notre-dame,..,..,on
175669,Selkirk,park,greater sudbury,..,selkirk,..,..,on
175902,Silver Lake Beach,park,greater sudbury,..,silver lake,..,..,on
175939,Simon Lake,park,greater sudbury,263,simon lake,..,..,on
176071,Soloy Drive Drainage Channel,park,greater sudbury,..,soloy,..,..,on
176426,St. Charles,park,greater sudbury,..,charlotte,..,..,on
176427,St. Charles College,park,greater sudbury,1940,hawthorne,..,..,on
176436,St. Etienne,park,greater sudbury,..,houle,..,..,on
176440,St. Francis,park,greater sudbury,691,lilac,..,..,on
176500,St. Pierre,park,greater sudbury,70,wilfred,..,..,on
176725,Sudbury Secondary,park,greater sudbury,85,mackenzie,..,..,on
176756,Summerhill,park,greater sudbury,544,summerhill,..,..,on
177037,Terry Fox Complex,park,greater sudbury,17,lasalle,..,..,on
177321,Tower Road,park,greater sudbury,..,tower,..,..,on
177336,Trailridge Greenspace,park,greater sudbury,..,trailridge,..,..,on
177370,Travers,park,greater sudbury,..,..,..,..,on
177552,Unnamed,park,greater sudbury,..,144,..,..,on
177553,Unnamed,park,greater sudbury,..,government,..,..,on
177554,Unnamed,park,greater sudbury,..,bowland's bay,..,..,on
177555,Unnamed,park,greater sudbury,..,pine,..,..,on
177556,Unnamed,park,greater sudbury,..,..,..,..,on
177557,Unnamed,park,greater sudbury,..,selkirk,..,..,on
177558,Unnamed,park,greater sudbury,..,..,..,..,on
177559,Unnamed,park,greater sudbury,..,8/onaping,..,..,on
177560,Unnamed,park,greater sudbury,..,..,..,..,on
177561,Unnamed,park,greater sudbury,..,144,..,..,on
177562,Unnamed,park,greater sudbury,..,arnold,..,..,on
177563,Unnamed,park,greater sudbury,..,martindale,..,..,on
177564,Unnamed,park,greater sudbury,..,riverside,..,..,on
177565,Unnamed,park,greater sudbury,..,attlee,..,..,on
177566,Unnamed,park,greater sudbury,..,high,..,..,on
177567,Unnamed,park,greater sudbury,..,niemi,..,..,on
177568,Unnamed,park,greater sudbury,..,riverside,..,..,on
177569,Unnamed,park,greater sudbury,..,samson,..,..,on
177570,Unnamed,park,greater sudbury,..,east,..,..,on
177571,Unnamed,park,greater sudbury,..,..,..,whitson,on
177572,Unnamed,park,greater sudbury,..,..,..,..,on
