Index,Facility_Name,ODRSF_facility_type,Provider,Street_No,Street_Name,Postal_Code,City,Prov_Terr
85,Algonquin Playground,rink,greater sudbury,..,..,..,..,on
116,Ampitheatre,beach,greater sudbury,..,..,..,..,on
146,Antwerp Playground,rink,greater sudbury,..,..,..,..,on
306,Beaver Lake Sports Club,rink,greater sudbury,..,..,..,..,on
335,Bell Park Main,beach,greater sudbury,..,..,..,..,on
420,Black Lake Playground,rink,greater sudbury,..,..,..,..,on
627,Cambrian,arena,greater sudbury,..,..,..,..,on
643,Camp Sudaca,beach,greater sudbury,..,..,..,..,on
673,Capreol Community Centre,arena,greater sudbury,..,..,..,..,on
674,Capreol Community Centre,community centre,greater sudbury,20,meehan,..,capreol,on
675,Capreol Lakeshore,beach,greater sudbury,..,..,..,..,on
693,Carmichael Community Centre,arena,greater sudbury,..,..,..,..,on
694,Carmichael Community Centre,community centre,greater sudbury,1298,bancroft,..,sudbury,on
695,Carmichael Community Centre,rink,greater sudbury,..,..,..,..,on
699,Carol Richard Playground,rink,greater sudbury,..,..,..,..,on
753,Cedar Park Playground,rink,greater sudbury,..,..,..,..,on
765,Centennial,arena,greater sudbury,..,..,..,..,on
768,Centennial Beach Park,beach,greater sudbury,..,..,..,..,on
772,Centennial Park,rink,greater sudbury,..,..,..,..,on
801,Central Lane,rink,greater sudbury,..,..,..,..,on
1019,Chelmsford Community Centre,arena,greater sudbury,..,..,..,..,on
1020,Chelmsford Community Centre,community centre,greater sudbury,215,edward,..,chelmsford,on
1166,Coniston Playground Association,rink,greater sudbury,..,..,..,..,on
1167,Coniston Toe Blake Memorial,arena,greater sudbury,..,..,..,..,on
1181,Copper Street Tot Lot,rink,greater sudbury,..,..,..,..,on
1207,Cote Park,rink,greater sudbury,..,..,..,..,on
1208,Cote Park,splash pad,greater sudbury,..,..,..,..,on
1322,Delki Dozzi Sports Complex,rink,greater sudbury,..,..,..,..,on
1329,Den Lou Playground Building,rink,greater sudbury,..,..,..,..,on
1354,Diorite Playground,rink,greater sudbury,..,..,..,..,on
1370,Don Lita Playground,rink,greater sudbury,..,..,..,..,on
1402,Dowling Leisure Centre,rink,greater sudbury,..,..,..,..,on
1410,Dr Edgar Leclair Community Centre,arena,greater sudbury,..,..,..,..,on
1411,Dr Edgar Leclair Community Centre,community centre,greater sudbury,158,agnes,..,azilda,on
1478,East End Playground,rink,greater sudbury,..,..,..,..,on
1545,Ella Lake,beach,greater sudbury,..,..,..,..,on
1554,Elm West Playground,rink,greater sudbury,..,..,..,..,on
1560,Elmview Playground,rink,greater sudbury,..,..,..,..,on
1574,English Name Dj Hancock Memorial,splash pad,greater sudbury,..,..,..,..,on
1608,Eyre Playground,rink,greater sudbury,..,..,..,..,on
1632,Falconbridge Field Complex,rink,greater sudbury,..,..,..,..,on
1650,Farmdale Playground,rink,greater sudbury,..,..,..,..,on
1806,Garson Community Centre,arena,greater sudbury,..,..,..,..,on
1807,Garson Community Centre,community centre,greater sudbury,100,church,..,garson,on
1811,Gatchell,pool,greater sudbury,..,..,..,..,on
1848,Gerry Mccrory Countryside Sports Complex,arena,greater sudbury,..,..,..,..,on
1940,Gordon Street,rink,greater sudbury,..,..,..,..,on
2233,Howard Armstrong Recreation Centre,pool,greater sudbury,..,..,..,..,on
2234,Howard Armstrong Recreation Centre,splash pad,greater sudbury,..,..,..,..,on
