Index,Facility_Name,ODRSF_facility_type,Provider,Street_No,Street_Name,Postal_Code,City,Prov_Terr
13164,Lorne Brady Sports Complex,sports field,greater sudbury,..,..,..,..,on
13247,Macdonald-Cartier School,sports field,greater sudbury,..,..,..,..,on
13467,Mcfarlane Field Complex,sports field,greater sudbury,..,..,..,..,on
13500,Mclean Playground,sports field,greater sudbury,..,..,..,..,on
13501,Mclean Playground,sports field,greater sudbury,..,..,..,..,on
13801,Moonlight Beach Field,sports field,greater sudbury,..,..,..,..,on
13816,Morel Family Foundation Park,sports field,greater sudbury,..,..,..,..,on
13917,Naughton Community Centre,sports field,greater sudbury,..,..,..,..,on
14029,Northeastern Elementary School,sports field,greater sudbury,..,..,..,..,on
14113,O'Connor Athletic Park,sports field,greater sudbury,..,..,..,..,on
14114,O'Connor Athletic Park,sports field,greater sudbury,..,..,..,..,on
14119,Oja Sports Complex,sports field,greater sudbury,..,..,..,..,on
14120,Oja Sports Complex,sports field,greater sudbury,..,..,..,..,on
14140,Onaping Falls,sports field,greater sudbury,..,..,..,..,on
14141,Onaping Falls,sports field,greater sudbury,..,..,..,..,on
14276,Panache Road Community Centre,sports field,greater sudbury,..,..,..,..,on
14823,Pius Xii Catholic School,sports field,greater sudbury,..,..,..,..,on
15059,Queen Elizabeth Public School,sports field,greater sudbury,..,..,..,..,on
15088,Queen's Athletic Sports Complex,sports field,greater sudbury,..,..,..,..,on
15089,Queen's Athletic Sports Complex,sports field,greater sudbury,..,..,..,..,on
15116,Quinn And Logan,sports field,greater sudbury,..,..,..,..,on
15117,Quinn And Logan,sports field,greater sudbury,..,..,..,..,on
15121,R. H. Murray Sports Complex,sports field,greater sudbury,..,..,..,..,on
15122,R. H. Murray Sports Complex,sports field,greater sudbury,..,..,..,..,on
15123,R. H. Murray Sports Complex,sports field,greater sudbury,..,..,..,..,on
15124,R. H. Murray Sports Complex,sports field,greater sudbury,..,..,..,..,on
15125,R. H. Murray Sports Complex,sports field,greater sudbury,..,..,..,..,on
15127,R.L Beattie Public School,sports field,greater sudbury,..,..,..,..,on
15128,R.L. Beattie Public School,sports field,greater sudbury,..,..,..,..,on
15169,Ravine Park,sports field,greater sudbury,..,..,..,..,on
15264,Rick Mcdonald Memorial Park,sports field,greater sudbury,..,..,..,..,on
15265,Rick Mcdonald Memorial Park,sports field,greater sudbury,..,..,..,..,on
15266,Rick Mcdonald Memorial Park,sports field,greater sudbury,..,..,..,..,on
15267,Rick Mcdonald Memorial Park,sports field,greater sudbury,..,..,..,..,on
15278,Ridgemount Playground,sports field,greater sudbury,..,..,..,..,on
15279,Ridgemount Playground,sports field,greater sudbury,..,..,..,..,on
15385,Robinson Playground,sports field,greater sudbury,..,..,..,..,on
15553,Ryan Heights Playground,sports field,greater sudbury,..,..,..,..,on
15557,Sacre-Coeur Secondary School,sports field,greater sudbury,..,..,..,..,on
15558,Sacre-Coeur Secondary School,sports field,greater sudbury,..,..,..,..,on
15559,Sacre-Coeur Secondary School,sports field,greater sudbury,..,..,..,..,on
15560,Sacre-Coeur Secondary School,sports field,greater sudbury,..,..,..,..,on
15561,Sacre-Coeur Secondary School,sports field,greater sudbury,..,..,..,..,on
15562,Sacre-Coeur Secondary School,sports field,greater sudbury,..,..,..,..,on
15563,Sacre-Coeur Secondary School,sports field,greater sudbury,..,..,..,..,on
15689,Selkirk Sport Field,sports field,greater sudbury,..,..,..,..,on
15898,Skead Recreation Centre,sports field,greater sudbury,..,..,..,..,on
15899,Skead Recreation Centre,sports field,greater sudbury,..,..,..,..,on
17011,St Charles School,sports field,greater sudbury,..,..,..,..,on
