Index,Facility_Name,ODRSF_facility_type,Provider,Street_No,Street_Name,Postal_Code,City,Prov_Terr
10,A.R. Mcdiarmid Park,park,brandon,638,princess,..,..,mb
192,Argyle Courts Playground,playground,brandon,1600,24th,..,..,mb
499,Brandon Recreation Centre,community centre,brandon,3500,mcdonald,..,..,mb
797,Central Community Centre,community centre,brandon,529,4th,..,..,mb
1199,Coronation Park & Playground,playground,brandon,2309,louise,..,..,mb
1251,Crocus Playground,playground,brandon,238,cornwallis,..,..,mb
1353,Dinsdale Park,park,brandon,120,1st,..,..,mb
1474,East End Community Centre,community centre,brandon,405,park,..,..,mb
1477,East End Paw Park,park,brandon,1008,victoria,..,..,mb
1537,Eleanor Kidd Park & Gardens,park,brandon,500,17th,..,..,mb
1572,Empress Park & Playground,playground,brandon,1320,rosser,..,..,mb
1592,Errol Black Park,park,brandon,123,rosser,..,..,mb
1751,Fox Place Playground,playground,brandon,3605,rosser,..,..,mb
1782,Frederick Street Playground,playground,brandon,307,park,..,..,mb
1809,Garwood Playground,playground,brandon,51,garwood,..,..,mb
1984,Green Acres Community Centre,community centre,brandon,411,queens,..,..,mb
2553,Keystone Habitat For Humanity Playground,playground,brandon,704,rideau,..,..,mb
2554,Keystone Park,park,brandon,1175,18th,..,..,mb
2565,Kin Park & Playground,playground,brandon,1600,1st,..,..,mb
2643,Knowlton Drive Park,park,brandon,1201,knowlton,..,..,mb
2728,Laurence & Louise Playground,playground,brandon,1417,louise,..,..,mb
2800,Lions Memorial Community Park,park,brandon,2720,park,..,..,mb
3525,New Era Leo Lot Playground & Community Garden,playground,brandon,413,louise,..,..,mb
3563,North End Community Centre,community centre,brandon,1313,stickney,..,..,mb
3617,Oak Bluff Park,park,brandon,60,oak bluff,..,..,mb
3988,Pacific Avenue Park,park,brandon,2600,pacific,..,..,mb
4311,Park Community Centre,community centre,brandon,1438,louise,..,..,mb
4312,Park Community Common,park,brandon,355,15th,..,..,mb
4454,Parkdale Community Park & Playground,playground,brandon,201,durum,..,..,mb
4485,Patricia Heights Community Park & Playground,playground,brandon,5,young,..,..,mb
4822,Princess Park,park,brandon,818,princess,..,..,mb
5028,Queen Elizabeth Park & Playground,playground,brandon,200,26th,..,..,mb
5134,Rideau Park,park,brandon,305,park,..,..,mb
5175,Riverheights Pool & Playground,pool,brandon,55,riverheights,..,..,mb
5228,Rosser Avenue Park,park,brandon,4505,rosser,..,..,mb
5444,Simplot Millennium Park,park,brandon,4847,richmond,..,..,mb
5459,Sir Winston Churchill Park & Playground (Hanbury Hill),playground,brandon,600,braecrest,..,..,mb
5946,Stanley Park,park,brandon,1410,princess,..,..,mb
6225,Valleyview Community Centre,community centre,brandon,77,whillier,..,..,mb
6399,Wascana Drive Playground,playground,brandon,44,neepawa,..,..,mb
6421,Waverly Park School,park,brandon,3800,park,..,..,mb
6473,Westaway Playground,playground,brandon,61,westaway,..,..,mb
6511,Westridge Community Centre,community centre,brandon,32,willowdale,..,..,mb
6516,Westview Park,park,brandon,13,weston,..,..,mb
6582,Wilnor Playground,playground,brandon,1820,wilnor,..,..,mb
7144,Alexandra Community Garden,park,brandon,748,12th,..,..,mb
7197,Andrews Field,park,brandon,2000,hilton,..,..,mb
7303,Ashley Neufeld Softball Complex,sports field,brandon,331,10th,..,..,mb
7362,Assiniboine Community College Fields,park,brandon,1345,1st,..,..,mb
