Index,Facility_Name,ODRSF_facility_type,Provider,Street_No,Street_Name,Postal_Code,City,Prov_Terr
1090,Clara Hughes Park,community centre,winnipeg,400,matheson,..,..,mb
1091,Clara Hughes Park Wading Pool,pool,winnipeg,400,matheson,..,..,mb
1185,Cordova Park,community centre,winnipeg,372,cordova,..,..,mb
1186,Cordova Park Wading Pool,pool,winnipeg,372,cordova,..,..,mb
1194,Cornish Library,community centre,winnipeg,20,gate,..,..,mb
1241,Crescentwood C.C,community centre,winnipeg,1170,corydon,..,..,mb
1286,Dakota Park / Dakota C.C,community centre,winnipeg,1188,dakota,..,..,mb
1287,Dakota Park Wading Pool,pool,winnipeg,1188,dakota,..,..,mb
1305,De Graff Bay Park,community centre,winnipeg,111,de-graff,..,..,mb
1307,Dean Findlay Park / Windsor C.C,community centre,winnipeg,99,springside,..,..,mb
1312,Deer Lodge C.C,community centre,winnipeg,323,bruce,..,..,mb
1387,Donwood Park,community centre,winnipeg,440,donwood,..,..,mb
1421,Ducharme Park Wading Pool,pool,winnipeg,65,morrow,..,..,mb
1422,Ducharme Waterplay Park,community centre,winnipeg,65,morrow,..,..,mb
1427,Dufferin Park,community centre,winnipeg,605,alexander,..,..,mb
1428,Dufferin Park Wading Pool,pool,winnipeg,605,alexander,..,..,mb
1457,Earl Grey C.C,community centre,winnipeg,360,cockburn,..,..,mb
1458,Earl Grey Community Centre Wading Pool,pool,winnipeg,360,cockburn,..,..,mb
1471,East Elmwood C.C,community centre,winnipeg,927,beach,..,..,mb
1472,East End Arena & Community Club,arena,winnipeg,517,pandora,..,..,mb
1473,East End C.C,community centre,winnipeg,517,pandora,..,..,mb
1475,East End Cultural & Leisure Centre,community centre,winnipeg,575,larsen,..,..,mb
1476,East End Cultural & Leisure Centre Wading Pool,pool,winnipeg,575,larsen,..,..,mb
1533,Eldon Ross Pool,pool,winnipeg,1887,pacific,..,..,mb
1561,Elmwood Kildonan Pool,pool,winnipeg,909,concordia,..,..,mb
1562,Elmwood Park,community centre,winnipeg,380,henderson,..,..,mb
1564,Elmwood Park Wading Pool,pool,winnipeg,380,henderson,..,..,mb
1565,Elmwood Winter Club,community centre,winnipeg,75,brazier,..,..,mb
1566,Elmwood Winter Club Wading Pool,pool,winnipeg,75,brazier,..,..,mb
1578,Eric Coy Arena,arena,winnipeg,535,oakdale,..,..,mb
1579,Eric Coy Rec Centre,community centre,winnipeg,535,oakdale,..,..,mb
1737,Fort Garry Library,community centre,winnipeg,1360,pembina,..,..,mb
1738,Fort Garry Lion's Pool,pool,winnipeg,969,dowker,..,..,mb
1741,Fort Rouge Leisure Centre,community centre,winnipeg,625,osborne,..,..,mb
1742,Fort Rouge Park,community centre,winnipeg,295,river,..,..,mb
1743,Fort Rouge Spray Pad,splash pad,winnipeg,295,river,..,..,mb
1784,Freight House Pool,pool,winnipeg,200,isabel,..,..,mb
1785,Freight House Recreation And Leisure Centre,community centre,winnipeg,200,isabel,..,..,mb
1803,Garden City C.C,community centre,winnipeg,725,kingsbury,..,..,mb
1810,Gary Hobson Memorial Park / Fort Garry C.C,community centre,winnipeg,880,oakenwald,..,..,mb
1813,Gateway C.C,community centre,winnipeg,1717,gateway,..,..,mb
1817,Gateway Recreation Centre Arena,arena,winnipeg,1717,gateway,..,..,mb
1818,Gateway Spray Pad,splash pad,winnipeg,1717,gateway,..,..,mb
1908,Glenwood C.C,community centre,winnipeg,27,overton,..,..,mb
1909,Glenwood Community Centre Arena,arena,winnipeg,27,overton,..,..,mb
1922,Golden Gate Park / Sturgeon Creek C.C,community centre,winnipeg,210,rita,..,..,mb
1973,Grant Park Athletic Grounds,community centre,winnipeg,500,nathaniel,..,..,mb
1993,Greendell C.C,community centre,winnipeg,75,woodlawn,..,..,mb
2055,Happyland Park,community centre,winnipeg,520,marion,..,..,mb
