Index,Facility_Name,ODRSF_facility_type,Provider,Street_No,Street_Name,Postal_Code,City,Prov_Terr
6457,West Kildonan Memorial Community Centre Wading Pool,pool,winnipeg,346,perth,..,..,mb
6458,West Kildonan Spray Pad,splash pad,winnipeg,346,perth,..,..,mb
6480,Westdale C.C,community centre,winnipeg,550,dale,..,..,mb
6481,Westdale C.C - Pembina Trails Site,trail,winnipeg,6363,rannock,..,..,mb
6483,Westdale Pool,pool,winnipeg,550,dale,..,..,mb
6484,Westdale Spray Pad,splash pad,winnipeg,550,dale,..,..,mb
6507,Weston Memorial C.C,community centre,winnipeg,1625,logan,..,..,mb
6508,Weston Park,community centre,winnipeg,299,lock,..,..,mb
6509,Weston Park Wading Pool,pool,winnipeg,299,lock,..,..,mb
6510,Westridge C.C,community centre,winnipeg,3,marshall,..,..,mb
6544,Whyte Ridge C.C,community centre,winnipeg,145,clocerwood,..,..,mb
6549,Wildwood C.C,community centre,winnipeg,271,north,..,..,mb
6558,William Osler Park,community centre,winnipeg,787,brock,..,..,mb
6559,William Osler Park Wading Pool,pool,winnipeg,787,brock,..,..,mb
6564,William Whyte School Wading Pool,pool,winnipeg,200,powers,..,..,mb
6589,Winakwa C.C,community centre,winnipeg,980,winakwa,..,..,mb
6590,Winakwa Community Centre Wading Pool,pool,winnipeg,980,winakwa,..,..,mb
6599,Windsor Park Pool,pool,winnipeg,333,speers,..,..,mb
6631,Woodhaven Park C.C,community centre,winnipeg,200,glendale,..,..,mb
9136,Bourkevale Lawn Bowling,sports field,winnipeg,100,ferry,..,..,mb
10420,Deer Lodge Tennis Club,sports field,winnipeg,2050,ness,..,..,mb
11295,Garden City Community Centre - Indoor Soccer Complex,sports field,winnipeg,725,kingsbury,..,..,mb
11319,Gateway Community Centre - Indoor Soccer Complex,sports field,winnipeg,1717,gateway,..,..,mb
13309,Mandeville Park / Deer Lodge Tennis Court,sports field,winnipeg,2050,ness,..,..,mb
18447,Windsor Park Golf Course,sports field,winnipeg,1215,archibald,..,..,mb
