Index,Facility_Name,ODRSF_facility_type,Provider,Street_No,Street_Name,Postal_Code,City,Prov_Terr
3171,Maples Community Centre - James Nisbett Site,community centre,winnipeg,70,doubleday,..,..,mb
3172,Maples Multiplex Arena,arena,winnipeg,454,adsum,..,..,mb
3175,Marcy Beaucage Park Wading Pool,pool,winnipeg,640,pepperloaf,..,..,mb
3179,Margaret Grant Pool,pool,winnipeg,685,dalhousie,..,..,mb
3181,Margaret Scott Skatespot,community centre,winnipeg,825,alfred,..,..,mb
3194,Marjorie Park,community centre,winnipeg,245,marjorie,..,..,mb
3195,Marjorie Park Wading Pool,pool,winnipeg,245,marjorie,..,..,mb
3241,Mayfair Recreation Centre,community centre,winnipeg,40,mayfair,..,..,mb
3258,Mcfadyen Park Wading Pool,pool,winnipeg,416,assiniboine,..,..,mb
3259,Mcfadyen Playground,playground,winnipeg,416,assiniboine,..,..,mb
3270,Mckittrick Park,community centre,winnipeg,790,rathgar,..,..,mb
3271,Mckittrick Park Wading Pool,pool,winnipeg,790,rathgar,..,..,mb
3312,Melrose Park C.C,community centre,winnipeg,480,kimberly,..,..,mb
3327,Michaëlle Jean Park (Norquay Community Centre) Wading Pool,pool,winnipeg,65,granville,..,..,mb
3328,Michaëlle Jean Park / Norquay C.C,community centre,winnipeg,65,granville,..,..,mb
3348,Millennium Library Park,community centre,winnipeg,251,donald,..,..,mb
3411,Montrose Park,community centre,winnipeg,631,montrose,..,..,mb
3412,Montrose Park Wading Pool,pool,winnipeg,631,montrose,..,..,mb
3437,Morse Place C.C,community centre,winnipeg,700,munroe,..,..,mb
3438,Morse Place Community Centre Wading Pool,pool,winnipeg,700,munroe,..,..,mb
3482,Munroe Library,community centre,winnipeg,489,london,..,..,mb
3549,Norberry-Glenlee C.C,community centre,winnipeg,26,molgat,..,..,mb
3570,North Kildonan C.C,community centre,winnipeg,1144,kingsford,..,..,mb
3596,Northwood C.C,community centre,winnipeg,1415,burrows,..,..,mb
3597,Northwood C.C - Frank Whyte Site,community centre,winnipeg,1245,fife,..,..,mb
3600,Northwood Cc: Frank Whyte Site Wading Pool,pool,winnipeg,1245,fife,..,..,mb
3601,Northwood Community Centre Wading Pool,pool,winnipeg,1415,burrows,..,..,mb
3606,Norwood C.C,community centre,winnipeg,87,walmer,..,..,mb
3607,Norwood Community Centre Wading Pool,pool,winnipeg,87,walmer,..,..,mb
3609,Norwood Pool,pool,winnipeg,10,cromwell,..,..,mb
3613,Notre Dame Recreation Centre Arena,arena,winnipeg,271,de-la-cathedrale,..,..,mb
3658,Old Exhibition Athletic Grounds,community centre,winnipeg,80,sinclair,..,..,mb
3659,Old Exhibition Athletic Grounds Spray Pad,splash pad,winnipeg,96,sinclair,..,..,mb
3986,Oxford Heights C.C,community centre,winnipeg,359,dowling,..,..,mb
3990,Pacific Dee Park,community centre,winnipeg,1887,pacific,..,..,mb
3991,Pacific Dee Park Wading Pool,pool,winnipeg,1887,pacific,..,..,mb
4001,Pan Am Pool,pool,winnipeg,75,poseidon,..,..,mb
4047,Parc Club Optimist - Saint Boniface - Optimist Club Park,community centre,winnipeg,294,bertrand,..,..,mb
4309,Park City West C.C,community centre,winnipeg,115,sanford fleming,..,..,mb
4310,Park City West Spray Pad,splash pad,winnipeg,115,sanford fleming,..,..,mb
4470,Pascoe Park Wading Pool,pool,winnipeg,155,jordan,..,..,mb
4471,Pascoe Playground,playground,winnipeg,155,jordan,..,..,mb
4501,Peguis Trail Fitness Centre,gym,winnipeg,1400,rothesay,..,..,mb
4509,Pembina Trail Library,trail,winnipeg,2724,pembina,..,..,mb
4553,Pioneer Arena,arena,winnipeg,799,logan,..,..,mb
4824,Pritchard Park Wading Pool,pool,winnipeg,295,pritchard,..,..,mb
4825,Pritchard Playground,playground,winnipeg,295,pritchard,..,..,mb
4833,Provencher Park / Notre Dame C.C,community centre,winnipeg,606,langevin,..,..,mb
4834,Provencher Park Spray Pad,splash pad,winnipeg,620,langevin,..,..,mb
