Index,Facility_Name,ODRSF_facility_type,Provider,Street_No,Street_Name,Postal_Code,City,Prov_Terr
5063,Ralph Brown Community Centre,community centre,winnipeg,460,andrews,..,..,mb
5077,Ray Fennel Sports Centre,community centre,winnipeg,1377,clarence,..,..,mb
5090,Red River C.C,community centre,winnipeg,293,murray,..,..,mb
5125,Richmond Kings Arena,arena,winnipeg,666,silverstone,..,..,mb
5126,Richmond Kings C.C,community centre,winnipeg,666,silverstone,..,..,mb
5127,Richmond Kings C.C - Ryerson Site,community centre,winnipeg,577,dalhousie,..,..,mb
5145,Riel Park,community centre,winnipeg,580,st anne's,..,..,mb
5151,River East Arena,arena,winnipeg,1410,rothesay,..,..,mb
5156,River Heights C.C,community centre,winnipeg,1370,grosvenor,..,..,mb
5157,River Heights Community Centre Arena,arena,winnipeg,1370,grosvenor,..,..,mb
5158,River Heights Library,community centre,winnipeg,1520,corydon,..,..,mb
5160,River Heights Spray Pad,splash pad,winnipeg,1370,grosvenor,..,..,mb
5162,River Osborne C.C - Edna Stefaniuk Gym Site,gym,winnipeg,101,pembina,..,..,mb
5163,River Osborne Wading Pool,pool,winnipeg,466,gertrude,..,..,mb
5184,Riverview C.C,community centre,winnipeg,90,ashland,..,..,mb
5186,Riverview Community Centre Wading Pool,pool,winnipeg,90,ashland,..,..,mb
5188,Robert A Steen Memorial Community Centre Wading Pool,pool,winnipeg,980,palmerston,..,..,mb
5189,Robert A. Steen Memorial C.C,community centre,winnipeg,980,palmerston,..,..,mb
5196,Roblin Park C.C,community centre,winnipeg,640,pepperloaf,..,..,mb
5214,Roosevelt Playground,playground,winnipeg,534,elgin,..,..,mb
5230,Rotary Centenary Park,community centre,winnipeg,761,rosseau,..,..,mb
5231,Rotary Centenary Park Wading Pool,pool,winnipeg,761,rosseau,..,..,mb
5311,Sam Southern Arena,arena,winnipeg,625,osborne,..,..,mb
5332,Sargent Park Arena,arena,winnipeg,1111,wall,..,..,mb
5333,Sargent Park Wading Pool,pool,winnipeg,1106,downing,..,..,mb
5375,Sergeant Tommy Prince Place Pool,pool,winnipeg,90,sinclair,..,..,mb
5380,Seven Oaks Arena,arena,winnipeg,745,kingsbury,..,..,mb
5382,Seven Oaks Pool,pool,winnipeg,444,adsum,..,..,mb
5390,Shaughnessy Park,community centre,winnipeg,74,tyndall,..,..,mb
5391,Shaughnessy Park Wading Pool,pool,winnipeg,74,tyndall,..,..,mb
5392,Shaughnessy Spray Pad,splash pad,winnipeg,74,tyndall,..,..,mb
5429,Silver Heights C.C,community centre,winnipeg,2080,ness,..,..,mb
5452,Sir John Franklin Community Club,community centre,winnipeg,1,sir john franklin,..,..,mb
5456,Sir William Stephenson Library,community centre,winnipeg,765,keewatin,..,..,mb
5461,Sister Mcnamara Park,community centre,winnipeg,760,ross,..,..,mb
5664,Southdale Arena,arena,winnipeg,254,lakewood,..,..,mb
5665,Southdale C.C,community centre,winnipeg,254,lakewood,..,..,mb
5666,Southdale Community Centre Wading Pool,pool,winnipeg,254,lakewood,..,..,mb
5894,St. Boniface Library,community centre,winnipeg,131,provencher,..,..,mb
5896,St. Charles Park Wading Pool,pool,winnipeg,3684,ness,..,..,mb
5904,St. James Assiniboia Centennial Pool,pool,winnipeg,644,parkdale,..,..,mb
5905,St. James Civic Centre,community centre,winnipeg,2055,ness,..,..,mb
5906,St. James Civic Centre Arena,arena,winnipeg,2055,ness,..,..,mb
5907,St. James Civic Centre Pool,pool,winnipeg,2055,ness,..,..,mb
5909,St. James-Assiniboia Library,community centre,winnipeg,1910,portage,..,..,mb
5911,St. John's Park Wading Pool,pool,winnipeg,1,fowler,..,..,mb
5912,St. John's Leisure Centre,community centre,winnipeg,601,aikins,..,..,mb
5913,St. John's Library,community centre,winnipeg,500,salter,..,..,mb
5914,St. John's Park,community centre,winnipeg,20,anderson,..,..,mb
