Index,Facility_Name,ODRSF_facility_type,Provider,Street_No,Street_Name,Postal_Code,City,Prov_Terr
2072,Harrow Park,community centre,winnipeg,1000,fleet,..,..,mb
2073,Harrow Park Wading Pool,pool,winnipeg,1000,fleet,..,..,mb
2113,Henderson Library,community centre,winnipeg,1050,henderson,..,..,mb
2132,Heritage Victoria C.C,community centre,winnipeg,950,sturgeon,..,..,mb
2215,Home Playground,playground,winnipeg,772,sargent,..,..,mb
2216,Home Playground Wading Pool,pool,winnipeg,772,sargent,..,..,mb
2398,Jacob Penner Park,community centre,winnipeg,659,wellington,..,..,mb
2399,Jacob Penner Park Wading Pool,pool,winnipeg,780,mcgee,..,..,mb
2435,Jill Officer Park Spray Pad,splash pad,winnipeg,1400,rothesay,..,..,mb
2466,John M King School Wading Pool,pool,winnipeg,525,agnes,..,..,mb
2468,John Shaley Tot Lot / Sinclair Park C.C,community centre,winnipeg,490,sinclair,..,..,mb
2469,John Steel Park,community centre,winnipeg,300,westwood,..,..,mb
2470,John Steel Park Wading Pool,pool,winnipeg,300,westwood,..,..,mb
2475,John Yuzyk Park Wading Pool,pool,winnipeg,665,radford,..,..,mb
2476,John Yuzyk Park-Sinclair Park C.C - Robertson Site,community centre,winnipeg,665,radford,..,..,mb
2485,Jonathon Toews Sportplex,arena,winnipeg,1188,dakota,..,..,mb
2514,Kapyong Park Wading Pool,pool,winnipeg,340,amherst,..,..,mb
2524,Keenleyside Park,community centre,winnipeg,480,keenleyside,..,..,mb
2525,Keenleyside Park Wading Pool,pool,winnipeg,480,keenleyside,..,..,mb
2527,Keith Bodley Arena,arena,winnipeg,165,sansome,..,..,mb
2557,Kildonan Park,community centre,winnipeg,2015,main,..,..,mb
2558,Kildonan Park Pool,pool,winnipeg,2015,main,..,..,mb
2570,King Edward - Ness Park,community centre,winnipeg,334,king edward,..,..,mb
2571,King Edward And Ness Playground Wading Pool,pool,winnipeg,334,king edward,..,..,mb
2572,King Edward Park,community centre,winnipeg,709,manhatatn,..,..,mb
2574,King Edward Park Wading Pool,pool,winnipeg,709,manhattan,..,..,mb
2578,King George Park,community centre,winnipeg,5,des-meurons,..,..,mb
2600,Kinsmen Allard Arena,arena,winnipeg,80,allard,..,..,mb
2607,Kinsmen Sherbrook Pool,pool,winnipeg,381,sherbrook,..,..,mb
2619,Kirkfield-Westwood C.C,community centre,winnipeg,165,sansome,..,..,mb
2620,Kirkfield-Westwood C.C - Mcbey Site,community centre,winnipeg,3160,mcbey,..,..,mb
2786,Linden Woods C.C,community centre,winnipeg,414,lindenwood,..,..,mb
2787,Lindenwoods Spray Pad,splash pad,winnipeg,414,lindenwood,..,..,mb
2789,Lindsey Wilson Park Spray Pad,splash pad,winnipeg,379,island shore,..,..,mb
2806,Lions Wading Pool,pool,winnipeg,969,dowker,..,..,mb
2825,Lizzie Park Wading Pool,pool,winnipeg,242,lizzie,..,..,mb
2826,Lizzie Playground,playground,winnipeg,242,lizzie,..,..,mb
2840,Lomond Park,community centre,winnipeg,1199,paterson,..,..,mb
2841,Lomond Park Wading Pool,pool,winnipeg,1199,paterson,..,..,mb
2852,Lord Roberts C.C,community centre,winnipeg,725,kylemore,..,..,mb
2862,Louis Riel Library,community centre,winnipeg,1168,dakota,..,..,mb
2957,Luxton C.C,community centre,winnipeg,210,st cross,..,..,mb
2958,Luxton Community Centre Wading Pool,pool,winnipeg,210,cross,..,..,mb
2973,Machray Park,community centre,winnipeg,475,anderson,..,..,mb
2974,Machray Park Spray Pad,splash pad,winnipeg,475,anderson,..,..,mb
2975,Machray Park Wading Pool,pool,winnipeg,475,anderson,..,..,mb
2985,Maginot Arena,arena,winnipeg,910,maginot,..,..,mb
2986,Magnus Eliason Recreation Centre,community centre,winnipeg,430,langside,..,..,mb
2987,Magnus Eliason Recreation Centre Wading Pool,pool,winnipeg,430,langside,..,..,mb
