Index,Facility_Name,ODRSF_facility_type,Provider,Street_No,Street_Name,Postal_Code,City,Prov_Terr
5927,St. Norbert C.C,community centre,winnipeg,3450,pembina,..,..,mb
5928,St. Norbert Community Centre Spray Pad,splash pad,winnipeg,3450,pembina,..,..,mb
5937,St. Vital Centennial Arena,arena,winnipeg,580,anne's,..,..,mb
5938,St. Vital Library,community centre,winnipeg,6,fermor,..,..,mb
5939,St. Vital Pool,pool,winnipeg,5,des-meurons,..,..,mb
5985,Strathcona Recreation Centre Wading Pool,pool,winnipeg,233,mckenzie,..,..,mb
5992,Sturgeon Heights Community Centre Wading Pool,pool,winnipeg,210,rita,..,..,mb
5993,Sturgeon Heights Spray Pad,splash pad,winnipeg,210,rita,..,..,mb
6037,T R Hodgeson Park Wading Pool,pool,winnipeg,303,lockwood,..,..,mb
6038,T. R. Hodgson Park,community centre,winnipeg,303,lockwood,..,..,mb
6067,Terry Sawchuk Arena,arena,winnipeg,901,kimberly,..,..,mb
6120,Tomlinson Park,community centre,winnipeg,111,lemmen,..,..,mb
6121,Tomlinson Park Wading Pool,pool,winnipeg,111,lemmen,..,..,mb
6139,Trafford Playground / Norberry - Glenlee C.C - Glenlee Site,playground,winnipeg,176,worthington,..,..,mb
6147,Transcona Kinsmen Centennial Pool,pool,winnipeg,1101,wabasha,..,..,mb
6148,Transcona Library,community centre,winnipeg,111,victoria,..,..,mb
6149,Transcona Stadium Complex,stadium,winnipeg,1121,wabasha,..,..,mb
6171,Turtle Island Neighbourhood Centre,community centre,winnipeg,510,king,..,..,mb
6172,Turtle Island Recreation Centre Wading Pool,pool,winnipeg,510,king,..,..,mb
6177,Tuxedo C.C,community centre,winnipeg,368,southport,..,..,mb
6181,Tyndall Park C.C - Garden Grove Site,community centre,winnipeg,2370,burrows,..,..,mb
6182,Tyndall Park C.C / Tyndall Park School Wading Pool,pool,winnipeg,2255,king edward,..,..,mb
6183,Tyndall Park School Wading Pool,pool,winnipeg,2221,king edward,..,..,mb
6214,Valley Gardens Cc Spray Pad,splash pad,winnipeg,218,antrim,..,..,mb
6228,Valour C.C,community centre,winnipeg,715,telfer,..,..,mb
6229,Valour C.C - Clifton Site,community centre,winnipeg,1315,strathcona,..,..,mb
6230,Valour C.C - Orioles Site,community centre,winnipeg,444,burnell,..,..,mb
6231,Valour Community Centre - Clifton Site Wading Pool,pool,winnipeg,1315,strathcona,..,..,mb
6232,Valour Community Centre - Isaac Brock Site Wading Pool,pool,winnipeg,715,telfer,..,..,mb
6233,Valour Community Centre - Orioles Site Wading Pool,pool,winnipeg,448,burnell,..,..,mb
6244,Varsity View C.C - Tom Brown Tot Lot,community centre,winnipeg,315,laxdal,..,..,mb
6245,Varsity View Sportsplex,community centre,winnipeg,911,oakdale,..,..,mb
6246,Varsity View Sportsplex Arena,arena,winnipeg,4230,ridgewood,..,..,mb
6249,Vermillion Park,community centre,winnipeg,990,beaverhill,..,..,mb
6250,Vermillion Park Wading Pool,pool,winnipeg,990,beaverhill,..,..,mb
6257,Victor Valde Memorial Park/ South Transcona C.C,community centre,winnipeg,124,borden,..,..,mb
6258,Victor Valde Park Wading Pool,pool,winnipeg,124,borden,..,..,mb
6259,Victoria C.C,community centre,winnipeg,80,derek,..,..,mb
6261,Victoria Jason Park,community centre,winnipeg,255,redonda,..,..,mb
6291,Vimy Arena,arena,winnipeg,255,hamilton,..,..,mb
6292,Vimy Ridge Memorial Park,community centre,winnipeg,821,preston,..,..,mb
6293,Vimy Ridge Memorial Park Spray Pad,splash pad,winnipeg,821,preston,..,..,mb
6294,Vimy Ridge Memorial Park Wading Pool,pool,winnipeg,821,preston,..,..,mb
6381,Walsall Park,community centre,winnipeg,2099,manitoba,..,..,mb
6382,Walsall Park Wading Pool,pool,winnipeg,2099,manitoba,..,..,mb
6419,Waverley Heights C.C,community centre,winnipeg,1885,chancellor,..,..,mb
6420,Waverley Heights Spray Pad,splash pad,winnipeg,1885,chancellor,..,..,mb
6454,West Kildonan Library,community centre,winnipeg,365,jefferson,..,..,mb
6455,West Kildonan Memorial C.C,community centre,winnipeg,346,perth,..,..,mb
