Index,Facility_Name,ODRSF_facility_type,Provider,Street_No,Street_Name,Postal_Code,City,Prov_Terr
164181,Carey Park,park,regina,120,carey,..,..,sk
164207,Carlton Park,park,regina,1450,carlton,..,..,sk
164333,Cathy Lauritsen Memorial Off-Leash Dog Park,park,regina,2110,forget,..,..,sk
164489,Central Park,park,regina,2231,scarth,..,..,sk
164562,Channel Head Park,park,regina,48,woodward,..,..,sk
164746,Church Park,park,regina,85,church,..,..,sk
164750,Church/Blackman Park,park,regina,240,church,..,..,sk
164866,Clermont Park,park,regina,169,cannon,..,..,sk
164950,Coleman Park,park,regina,220,fines,..,..,sk
164999,Columbus Park,park,regina,2940,pasqua,..,..,sk
165045,Confederation Park,park,regina,1700,elphinstone,..,..,sk
165111,Core Community Park,park,regina,1801,montreal,..,..,sk
165257,Coventry Park,park,regina,20,coventry,..,..,sk
165288,Craigie Park,park,regina,40,tremaine,..,..,sk
165319,Creekside Environmental Reserve,park,regina,3250,dewdney,..,..,sk
165323,Creekside Park,park,regina,3700,dewdney,..,..,sk
165337,Crescent Park,park,regina,1109,14th,..,..,sk
165376,Crosbie Park,park,regina,3201,crosbie,..,..,sk
165384,Cross Park,park,regina,2176,cross,..,..,sk
165462,Daffodil Park,park,regina,2128,dufferin,..,..,sk
165479,Dalgliesh Park,park,regina,50,dalgliesh,..,..,sk
165518,Darke Park,park,regina,1115,mcniven,..,..,sk
165679,Derby Park,park,regina,15,derby,..,..,sk
165727,Dewdney Pool Park,park,regina,3355,8th,..,..,sk
165745,Dickinson Park,park,regina,2010,12th,..,..,sk
165802,Dolphin Bay Park,park,regina,26,cardinal,..,..,sk
165803,Dolphin Park,park,regina,54,dolphin,..,..,sk
165810,Dominion Park,park,regina,2735,lacon,..,..,sk
165898,Douglas Crescent Parkette,park,regina,625,douglas park,..,..,sk
165905,Douglas Park / Leibel Field,park,regina,3025,mcdonald,..,..,sk
165916,Dover Park,park,regina,1250,dover,..,..,sk
165944,Dr. A.E. Perry Park,park,regina,40,cowie,..,..,sk
165948,Dr. Ferguson Park,park,regina,129,brotherton,..,..,sk
165981,Dryburgh Park,park,regina,15,dryburgh,..,..,sk
166077,Durham Park,park,regina,85,dolphin,..,..,sk
166164,Eastgate Park Er1,park,regina,3410,eastgate,..,..,sk
166165,Eastgate Park Pr2,park,regina,3502,eastgate,..,..,sk
166177,Eastview Park,park,regina,945,broder,..,..,sk
166226,Edenwold Extension R7,park,regina,129,edenwold,..,..,sk
166227,Edenwold R8 Park,park,regina,140,edenwold,..,..,sk
166361,Ellis Park,park,regina,4740,harbour landing,..,..,sk
166364,Ellison Park,park,regina,4215,sherwood,..,..,sk
166383,Elmview East Park,park,regina,202,elmview,..,..,sk
166387,Elmwood Park,park,regina,1225,shannon,..,..,sk
166394,Elsie Dorsey Park,park,regina,4199,castle,..,..,sk
166407,Emerald Park,park,regina,125,emerald park,..,..,sk
166427,Empress Park,park,regina,1,empress,..,..,sk
166433,Englewood Park,park,regina,165,petersmeyer,..,..,sk
166568,Ewart Park,park,regina,1564,devonshire,..,..,sk
