Index,Facility_Name,ODRSF_facility_type,Provider,Street_No,Street_Name,Postal_Code,City,Prov_Terr
177818,Venture Park,park,regina,7907,venture,..,..,sk
177872,Victoria Park,park,regina,2190,victoria,..,..,sk
177968,W.H. Ford Park,park,regina,6129,dalgliesh,..,..,sk
177987,Walker Crescent Park,park,regina,5633,walker,..,..,sk
178023,Walter Park,park,regina,44,walter,..,..,sk
178058,Wascana Creek Park,park,regina,3910,prince of wales,..,..,sk
178059,Wascana Highlands B,park,regina,..,..,..,..,sk
178060,Wascana Ridge Park,park,regina,..,..,..,..,sk
178061,Wascana View Park,park,regina,3025,wascana,..,..,sk
178099,Watson Park,park,regina,4600,shumiatcher,..,..,sk
178154,Weekes Park,park,regina,120,weekes,..,..,sk
178304,Westhill Park,park,regina,8103,sherwood,..,..,sk
178315,Westminster Park,park,regina,3304,westminster,..,..,sk
178381,Whelan / Radway Park,park,regina,1202,radway,..,..,sk
178461,Wilfred Walker Park,park,regina,1910,wagman,..,..,sk
178526,Williams Crescent Park,park,regina,635,williams,..,..,sk
178540,Williston Park,park,regina,30,williston,..,..,sk
178633,Windsor Park South,park,regina,3200,woodhams,..,..,sk
178734,Woodland Grove Park,park,regina,3507,arbor grove,..,..,sk
178821,Yingst Park,park,regina,216,cavendish,..,..,sk
181321,..,park,regina,..,..,..,..,sk
181322,..,park,regina,..,..,..,..,sk
181323,..,park,regina,1001,agryle,..,..,sk
181324,..,park,regina,..,harbour landing,..,..,sk
181325,..,park,regina,7651,mapleford,..,..,sk
