Index,Facility_Name,ODRSF_facility_type,Provider,Street_No,Street_Name,Postal_Code,City,Prov_Terr
45063,Neighbourhood Path,trail,regina,..,..,..,..,sk
45064,Neighbourhood Path,trail,regina,..,..,..,..,sk
45065,Neighbourhood Path,trail,regina,..,..,..,..,sk
45066,Neighbourhood Path,trail,regina,..,..,..,..,sk
45067,Neighbourhood Path,trail,regina,..,..,..,..,sk
45068,Neighbourhood Path,trail,regina,..,..,..,..,sk
45069,Neighbourhood Path,trail,regina,..,..,..,..,sk
45070,Neighbourhood Path,trail,regina,..,..,..,..,sk
45071,Neighbourhood Path,trail,regina,..,..,..,..,sk
45072,Neighbourhood Path,trail,regina,..,..,..,..,sk
45073,Neighbourhood Path,trail,regina,..,..,..,..,sk
45074,Neighbourhood Path,trail,regina,..,..,..,..,sk
45075,Neighbourhood Path,trail,regina,..,..,..,..,sk
45076,Neighbourhood Path,trail,regina,..,..,..,..,sk
45077,Neighbourhood Path,trail,regina,..,..,..,..,sk
45078,Neighbourhood Path,trail,regina,..,..,..,..,sk
45079,Neighbourhood Path,trail,regina,..,..,..,..,sk
45080,Neighbourhood Path,trail,regina,..,..,..,..,sk
45081,Neighbourhood Path,trail,regina,..,..,..,..,sk
45082,Neighbourhood Path,trail,regina,..,..,..,..,sk
45083,Neighbourhood Path,trail,regina,..,..,..,..,sk
45084,Neighbourhood Path,trail,regina,..,..,..,..,sk
45085,Neighbourhood Path,trail,regina,..,..,..,..,sk
45086,Neighbourhood Path,trail,regina,..,..,..,..,sk
45087,Neighbourhood Path,trail,regina,..,..,..,..,sk
45088,Neighbourhood Path,trail,regina,..,..,..,..,sk
45089,Neighbourhood Path,trail,regina,..,..,..,..,sk
45090,Neighbourhood Path,trail,regina,..,..,..,..,sk
45091,Neighbourhood Path,trail,regina,..,..,..,..,sk
45092,Neighbourhood Path,trail,regina,..,..,..,..,sk
45093,Neighbourhood Path,trail,regina,..,..,..,..,sk
45094,Neighbourhood Path,trail,regina,..,..,..,..,sk
45095,Neighbourhood Path,trail,regina,..,..,..,..,sk
45096,Neighbourhood Path,trail,regina,..,..,..,..,sk
45097,Neighbourhood Path,trail,regina,..,..,..,..,sk
45098,Neighbourhood Path,trail,regina,..,..,..,..,sk
45099,Neighbourhood Path,trail,regina,..,..,..,..,sk
45100,Neighbourhood Path,trail,regina,..,..,..,..,sk
45101,Neighbourhood Path,trail,regina,..,..,..,..,sk
45102,Neighbourhood Path,trail,regina,..,..,..,..,sk
45103,Neighbourhood Path,trail,regina,..,..,..,..,sk
45104,Neighbourhood Path,trail,regina,..,..,..,..,sk
45105,Neighbourhood Path,trail,regina,..,..,..,..,sk
45106,Neighbourhood Path,trail,regina,..,..,..,..,sk
45107,Neighbourhood Path,trail,regina,..,..,..,..,sk
45108,Neighbourhood Path,trail,regina,..,..,..,..,sk
45109,Neighbourhood Path,trail,regina,..,..,..,..,sk
45110,Neighbourhood Path,trail,regina,..,..,..,..,sk
45111,Neighbourhood Path,trail,regina,..,..,..,..,sk
