Index,Facility_Name,ODRSF_facility_type,Provider,Street_No,Street_Name,Postal_Code,City,Prov_Terr
174713,Riverbend Mr-4,park,regina,3100,tregarva,..,..,sk
174716,Riverbend Park Mr-1,park,regina,..,..,..,..,sk
174717,Riverbend Park Mr-2,park,regina,1900,heseltine,..,..,sk
174718,Riverbend Park Mr-3,park,regina,2250,heseltine,..,..,sk
174846,Robert Usher Park,park,regina,1660,9th,..,..,sk
174873,Rochdale Park,park,regina,6829,cunningham,..,..,sk
174957,Rootman Park,park,regina,61,rootman,..,..,sk
174985,Rosemont Park,park,regina,1101,walker,..,..,sk
174987,Rosemont School Park,park,regina,5310,4th,..,..,sk
175033,Rotary Park,park,regina,2738,regina,..,..,sk
175045,Rothwell Fields Park,park,regina,1197,park,..,..,sk
175046,Rothwell Park,park,regina,1201,rothwell,..,..,sk
175346,Ruth Buck Park,park,regina,6208,sherwood,..,..,sk
175348,Ruth Pawson Park,park,regina,20,weekes,..,..,sk
175362,Ryan Park,park,regina,51,ryan,..,..,sk
175508,Sangster Park,park,regina,496,sangster,..,..,sk
175606,Schweitzer Park,park,regina,2715,helmsing,..,..,sk
175630,Scrivener Park,park,regina,255,cannon,..,..,sk
175668,Selinger Park,park,regina,3674,selinger,..,..,sk
175696,Sereda Park,park,regina,7955,barley,..,..,sk
175752,Shannon Park,park,regina,525,shannon,..,..,sk
175760,Sharp Park,park,regina,7401,dewdney,..,..,sk
175806,Sheppard Park,park,regina,255,garnet,..,..,sk
175829,Sherwood / Milne Park,park,regina,5310,sherwood,..,..,sk
175845,Sherwood Park,park,regina,20,wakefield,..,..,sk
175874,Showler Park,park,regina,5303,universal,..,..,sk
176102,South East Ball Diamonds,park,regina,..,33,..,..,sk
176289,Spruce Meadows Park,park,regina,3211,tregarva,..,..,sk
176411,St. Anne Park,park,regina,342,halifax,..,..,sk
176441,St. Francis Park,park,regina,6015,mikkelson,..,..,sk
176450,St. Gregory Park,park,regina,310,upland,..,..,sk
176457,St. James Park / Lewvan Fields,park,regina,2360,pasqua,..,..,sk
176484,St. Mark Park,park,regina,1855,rothwell,..,..,sk
176508,St. Thomas Park,park,regina,700,tyvan,..,..,sk
176531,Stan Oxelgren Memorial Park,park,regina,126,sangster,..,..,sk
176582,Steinson Park Mr1,park,regina,7700,gordon staseson,..,..,sk
176598,Stewart Russell Park,park,regina,1912,7th,..,..,sk
176660,Storey Park,park,regina,15,storey,..,..,sk
176958,Tansley Park,park,regina,2111,norman mackenzie,..,..,sk
177024,Tennis Court Park,park,regina,5401,sherwood,..,..,sk
177089,Theresa Stevenson Park,park,regina,1399,lakeridge,..,..,sk
177170,Tibbits Park,park,regina,4525,montague,..,..,sk
177253,Tony Cote Park,park,regina,1505,anson,..,..,sk
177267,Toothill Park,park,regina,510,toothill,..,..,sk
177349,Transcona Playground,park,regina,725,empress,..,..,sk
177361,Transit Park,park,regina,333,winnipeg,..,..,sk
177446,Turner Park,park,regina,130,bentley,..,..,sk
177460,Tutor Park,park,regina,4975,tutor,..,..,sk
177549,University Park,park,regina,25,michener,..,..,sk
