Index,Facility_Name,ODRSF_facility_type,Provider,Street_No,Street_Name,Postal_Code,City,Prov_Terr
169645,Kiwanis Park Extension,park,regina,2475,elphinstone,..,..,sk
169648,Kiwanis Waterfall Park,park,regina,2755,elphinstone,..,..,sk
169903,Krahn Park,park,regina,7045,maple ridge,..,..,sk
169940,Lacon Park,park,regina,3101,lacon,..,..,sk
169961,Laird Park,park,regina,4310,sherwood,..,..,sk
169998,Lakeridge Park,park,regina,5560,leibel,..,..,sk
170000,Lakeridge Sports Park,park,regina,5451,rochdale,..,..,sk
170026,Lakeview Park,park,regina,2910,athol,..,..,sk
170035,Lakewood Park,park,regina,6024,whelan,..,..,sk
170112,L'Arche Park,park,regina,3215,lakeview,..,..,sk
170272,Leopold Crescent Park,park,regina,3110,18th,..,..,sk
170276,Les Sherman Park North,park,regina,4055,15th,..,..,sk
170277,Les Sherman Park South,park,regina,3955,17th,..,..,sk
170284,Leslie Lawnbowling Park,park,regina,3820,victoria,..,..,sk
170286,Leslie Park,park,regina,3820,victoria,..,..,sk
170476,Litzenberger Park,park,regina,100,rink,..,..,sk
170552,Lorimer Park,park,regina,19,lorimer,..,..,sk
170637,Lucy Eley Park,park,regina,1915,retallack,..,..,sk
170698,M.J. Coldwell Park,park,regina,115,fairview,..,..,sk
170702,Mâmawêyatitân Park,park,regina,3350,7th,..,..,sk
170704,Maat Park,park,regina,..,..,..,..,sk
170707,Mable Brown Park,park,regina,225,mikkelson,..,..,sk
170777,Mahon Park,park,regina,130,brotherton,..,..,sk
170879,Maple Leaf Park,park,regina,1120,14th,..,..,sk
170890,Maple Ridge Park A,park,regina,6918,maple brook,..,..,sk
170891,Maple Ridge Park B,park,regina,6703,maple ridge,..,..,sk
171027,Markwell Park,park,regina,334,markwell,..,..,sk
171045,Marsh Park,park,regina,134,marsh,..,..,sk
171096,Massey Park,park,regina,2355,parliament,..,..,sk
171160,Mayfield Park,park,regina,112,mayfield,..,..,sk
171226,Mcdermid Park / Lions Ball Park,park,regina,230,quebec,..,..,sk
171248,Mcgillivray Park,park,regina,32,mcgillivray,..,..,sk
171258,Mcinnis Park 1,park,regina,115,mcinnis,..,..,sk
171259,Mcinnis Park 2,park,regina,144,mcinnis,..,..,sk
171269,Mckenna Park,park,regina,5033,padwick,..,..,sk
171303,Mcleod Park,park,regina,3500,queen,..,..,sk
171309,Mclurg School Park,park,regina,201,fulton,..,..,sk
171322,Mcmurchy Park,park,regina,250,garnet,..,..,sk
171323,Mcnab Park,park,regina,4802,11th,..,..,sk
171325,Mcnaughton Park,park,regina,54,mcnaughton,..,..,sk
171328,Mcniven Park,park,regina,1010,mcniven,..,..,sk
171336,Mcveety Park,park,regina,1851,jubilee,..,..,sk
171415,Memorial Cross Park,park,regina,4527,ellard,..,..,sk
171449,Merlin Park 3,park,regina,35,lawson,..,..,sk
171507,Mike Badham Park,park,regina,2606,grant,..,..,sk
171534,Milford Park,park,regina,220,cambridge,..,..,sk
171547,Millar Park,park,regina,65,millar,..,..,sk
171905,Mount Pleasant Sport Park,park,regina,750,winnipeg,..,..,sk
171942,Mr-1,park,regina,3311,green moss,..,..,sk
