Index,Facility_Name,ODRSF_facility_type,Provider,Street_No,Street_Name,Postal_Code,City,Prov_Terr
166590,Fairchild Park,park,regina,4401,albulet,..,..,sk
166801,Fines Drive Park,park,regina,499,fines,..,..,sk
166823,Firehall Park,park,regina,281,rink,..,..,sk
166861,Flamingo Park,park,regina,19,flamingo,..,..,sk
166869,Fleet Park,park,regina,1728,fleet,..,..,sk
167109,French Park,park,regina,1055,mcintosh,..,..,sk
167134,Fuhrmann Park,park,regina,170,fuhrmann,..,..,sk
167209,Gardiner Park,park,regina,424,university park,..,..,sk
167210,Gardiner Park Extension,park,regina,1320,truesdale,..,..,sk
167218,Garnet Park,park,regina,3310,avonhurst,..,..,sk
167237,Garuik Park,park,regina,281,trifunov,..,..,sk
167455,Glen Elm Park,park,regina,1501,bond,..,..,sk
167492,Glencairn Park,park,regina,2626,dewdney,..,..,sk
167544,Gocki Park,park,regina,2230,lindsay,..,..,sk
167609,Goldman Park,park,regina,1900,norman mackenzie,..,..,sk
167646,Gordon Park,park,regina,3509,gordon,..,..,sk
167773,Grassick Park,park,regina,5325,dewdney,..,..,sk
167774,Grassick Playground Park,park,regina,901,garnet,..,..,sk
167805,Green Meadow Park Mr-2,park,regina,3598,green bank,..,..,sk
167827,Greenburg Park,park,regina,1956,broder,..,..,sk
167901,Groome Park,park,regina,4420,harbour landing,..,..,sk
168006,Hammerstrom Park,park,regina,402,halifax,..,..,sk
168012,Hampshire Park,park,regina,6410,heffernan,..,..,sk
168032,Hansen Drive Park,park,regina,542,hansen,..,..,sk
168049,Harding Park,park,regina,2952,harding,..,..,sk
168132,Hastings Park,park,regina,216,hastings,..,..,sk
168147,Havilland Park,park,regina,5401,tutor,..,..,sk
168170,Hayworth Crescent Park,park,regina,750,rink,..,..,sk
168212,Heffernan Park,park,regina,6415,heffernan,..,..,sk
168261,Henry Braun Park,park,regina,951,middleton,..,..,sk
168264,Henry Janzen Park,park,regina,390,dalgliesh,..,..,sk
168265,Henry Janzen Park Extension,park,regina,939,dalgliesh,..,..,sk
168452,Hill Park,park,regina,2755,dewdney,..,..,sk
168505,Hind Park,park,regina,20,hind,..,..,sk
168509,Hird Park,park,regina,6530,hird,..,..,sk
168533,Holland Park,park,regina,410,holland,..,..,sk
168594,Hopson Park,park,regina,3100,rochdale,..,..,sk
168634,Howell Park,park,regina,2705,howell,..,..,sk
168650,Hudson Park,park,regina,3890,parliament,..,..,sk
168763,Iannone Park,park,regina,6301,dewalt,..,..,sk
168781,Imperial Park,park,regina,305,rose,..,..,sk
169045,Jenkins Drive Park,park,regina,3706,jenkins,..,..,sk
169071,Jim Cairns Park,park,regina,4712,glass,..,..,sk
169228,Jolly Park,park,regina,2714,swain,..,..,sk
169327,Juniper Park,park,regina,1000,stockton,..,..,sk
169373,Kaytor Park,park,regina,5201,watson,..,..,sk
169411,Ken Jenkins Park,park,regina,210,mcintosh,..,..,sk
169556,Kings Road Park,park,regina,3003,pasqua,..,..,sk
169602,Kinsmen Park North,park,regina,750,pasqua,..,..,sk
