Index,Facility_Name,ODRSF_facility_type,Provider,Street_No,Street_Name,Postal_Code,City,Prov_Terr
171982,Munroe Park,park,regina,31,gardiner,..,..,sk
171992,Murphy Park,park,regina,15,murphy,..,..,sk
172069,Neff Park,park,regina,2827,neff,..,..,sk
172104,New Albert Park,park,regina,5002,mctavish,..,..,sk
172185,Norseman Park,park,regina,5081,beacon,..,..,sk
172197,North East Park (Regina Minor Girls),park,regina,1825,9th,..,..,sk
172239,North West Reservoir Park,park,regina,401,dalgliesh,..,..,sk
172457,Oakview Park,park,regina,84,oakview,..,..,sk
172503,Okimasis Park,park,regina,4200,wild rose,..,..,sk
172593,Optimist Park,park,regina,5221,dewdney,..,..,sk
172677,Oxford Park,park,regina,1512,8th,..,..,sk
172687,Pacer Park,park,regina,2501,anaquod,..,..,sk
172748,Pappas Park,park,regina,60,pappas,..,..,sk
173606,Parkdale Park,park,regina,901,princess,..,..,sk
173629,Parkland Park,park,regina,3210,parkland,..,..,sk
173640,Parkridge Park,park,regina,1243,rossie,..,..,sk
173665,Parliament Park North,park,regina,3325,lakeview,..,..,sk
173666,Parliament Park South,park,regina,3102,parliament,..,..,sk
173674,Pascoe Park,park,regina,3199,19th,..,..,sk
173677,Pasqua / 7Th Avenue Park,park,regina,1301,pasqua,..,..,sk
173678,Pasqua Gate Park,park,regina,634,dalgliesh,..,..,sk
173685,Patricia Park,park,regina,3009,avonhurst,..,..,sk
173697,Patty Cake Play Park,park,regina,1581,robinson,..,..,sk
173752,Peart Park,park,regina,2851,ottawa,..,..,sk
173844,Phillip Park,park,regina,3256,margaret,..,..,sk
173922,Pines Of Normanview Park,park,regina,1098,dorothy,..,..,sk
173969,Plains Minnow Park,park,regina,3401,green lily,..,..,sk
173970,Plainsview Park,park,regina,61,plainsview,..,..,sk
174030,Pony Park,park,regina,3202,mckinley,..,..,sk
174111,Price Park,park,regina,920,mcintosh,..,..,sk
174133,Prince Of Wales Park,park,regina,3800,cumberland,..,..,sk
174137,Prince William Park,park,regina,3860,buckingham,..,..,sk
174157,Procter Park,park,regina,100,procter,..,..,sk
174226,Qu'Appelle Park,park,regina,1301,parker,..,..,sk
174234,Queen Elizabeth Jubilee Park,park,regina,111,broadway,..,..,sk
174245,Queen Street Park,park,regina,4410,queen,..,..,sk
174254,Queen's Park,park,regina,2925,4th,..,..,sk
174310,Rae Park,park,regina,3101,parliament,..,..,sk
174345,Rambler / Craig Park Extension,park,regina,5310,13th,..,..,sk
174346,Rambler Park,park,regina,5215,14th,..,..,sk
174414,Rawlinson Crescent Park,park,regina,3898,28th,..,..,sk
174447,Ready Park,park,regina,3043,arens,..,..,sk
174448,Realtors Park,park,regina,4310,montague,..,..,sk
174526,Regent Pool Park,park,regina,560,elphinstone,..,..,sk
174533,Regina Rugby Park,park,regina,4025,25th,..,..,sk
174534,Reibling Park,park,regina,50,cavendish,..,..,sk
174562,Reves Park,park,regina,3175,harding,..,..,sk
174586,Richardson Park,park,regina,156,shannon,..,..,sk
174604,Rick Hansen Optimist Playground,park,regina,1010,mccarthy,..,..,sk
