Index,Facility_Name,ODRSF_facility_type,Provider,Street_No,Street_Name,Postal_Code,City,Prov_Terr
45313,Neighbourhood Path,trail,regina,..,..,..,..,sk
45314,Neighbourhood Path,trail,regina,..,..,..,..,sk
45315,Neighbourhood Path,trail,regina,..,..,..,..,sk
45316,Neighbourhood Path,trail,regina,..,..,..,..,sk
45317,Neighbourhood Path,trail,regina,..,..,..,..,sk
45318,Neighbourhood Path,trail,regina,..,..,..,..,sk
45319,Neighbourhood Path,trail,regina,..,..,..,..,sk
45320,Neighbourhood Path,trail,regina,..,..,..,..,sk
48605,On Street Bicycle Route,trail,regina,..,..,..,..,sk
48606,On Street Bicycle Route,trail,regina,..,..,..,..,sk
48607,On Street Bicycle Route,trail,regina,..,..,..,..,sk
48608,On Street Bicycle Route,trail,regina,..,..,..,..,sk
48609,On Street Bicycle Route,trail,regina,..,..,..,..,sk
48610,On Street Bicycle Route,trail,regina,..,..,..,..,sk
48611,On Street Bicycle Route,trail,regina,..,..,..,..,sk
54403,Street To Street Connector,trail,regina,..,..,..,..,sk
54404,Street To Street Connector,trail,regina,..,..,..,..,sk
54405,Street To Street Connector,trail,regina,..,..,..,..,sk
54406,Street To Street Connector,trail,regina,..,..,..,..,sk
156185,..,trail,regina,..,..,..,..,sk
161608,1St Avenue Park,park,regina,625,empress,..,..,sk
161744,3Rd Avenue Park,park,regina,4610,3rd,..,..,sk
162012,A.C.T. Ball Park,park,regina,460,elphinstone,..,..,sk
162015,A.E. Wilson Park East,park,regina,6102,brunskill,..,..,sk
162016,A.E. Wilson Park West,park,regina,1010,mccarthy,..,..,sk
162062,Aberdeen Park,park,regina,5320,1st,..,..,sk
162073,Academy Park,park,regina,2,academy park,..,..,sk
162126,Al Pickard Park,park,regina,343,pickard,..,..,sk
162273,Alport Park,park,regina,28,alport,..,..,sk
162366,Angus Road Park,park,regina,435,angus,..,..,sk
162437,Arbor Grove Park,park,regina,3436,olive,..,..,sk
162438,Arboretum Park,park,regina,1430,4th,..,..,sk
162488,Arlington Park,park,regina,35,groome,..,..,sk
162549,Arthur Park,park,regina,4215,sherwood,..,..,sk
162610,Assiniboine Park,park,regina,3355,robinson,..,..,sk
162708,Baker Park,park,regina,8801,sherwood,..,..,sk
162832,Bastedo Park,park,regina,87,mcsherry,..,..,sk
162946,Beacon Park,park,regina,5389,aerial,..,..,sk
163151,Benson Park,park,regina,4550,8th,..,..,sk
163338,Birchwood Park,park,regina,10,norris,..,..,sk
163434,Bloos Park,park,regina,5599,devine,..,..,sk
163548,Bothwell Park,park,regina,94,bothwell,..,..,sk
163742,Brinkworth Park,park,regina,2150,alexandra,..,..,sk
163866,Bruton Park,park,regina,30,church,..,..,sk
163897,Bundon Park,park,regina,7931,gordon staseson,..,..,sk
163961,Button Park,park,regina,6301,7th,..,..,sk
164001,Caen Park,park,regina,3010,princess,..,..,sk
164057,Cameron Park,park,regina,71,cameron,..,..,sk
164117,Cannon Street Park,park,regina,311,cannon,..,..,sk
