Index,Facility_Name,ODRSF_facility_type,Provider,Street_No,Street_Name,Postal_Code,City,Prov_Terr
22007,Bitz,trail,saskatoon,..,..,..,..,sk
22039,Blackburn,trail,saskatoon,..,..,..,..,sk
22040,Blackburn,trail,saskatoon,..,..,..,..,sk
22041,Blackburn,trail,saskatoon,..,..,..,..,sk
22042,Blackburn,trail,saskatoon,..,..,..,..,sk
22053,Blackley,trail,saskatoon,..,..,..,..,sk
22054,Blackley,trail,saskatoon,..,..,..,..,sk
22055,Blackshire,trail,saskatoon,..,..,..,..,sk
22056,Blackthorn,trail,saskatoon,..,..,..,..,sk
22057,Blackthorn,trail,saskatoon,..,..,..,..,sk
22102,Blue,trail,saskatoon,..,..,..,..,sk
22103,Blue,trail,saskatoon,..,..,..,..,sk
22316,Bonli,trail,saskatoon,..,..,..,..,sk
22332,Borden,trail,saskatoon,..,..,..,..,sk
22335,Borland,trail,saskatoon,..,..,..,..,sk
22415,Boychuk,trail,saskatoon,..,..,..,..,sk
22416,Boychuk,trail,saskatoon,..,..,..,..,sk
22417,Boychuk,trail,saskatoon,..,..,..,..,sk
22418,Boychuk,trail,saskatoon,..,..,..,..,sk
22419,Boychuk,trail,saskatoon,..,..,..,..,sk
22420,Boychuk,trail,saskatoon,..,..,..,..,sk
22421,Boychuk,trail,saskatoon,..,..,..,..,sk
22422,Boychuk,trail,saskatoon,..,..,..,..,sk
22423,Boychuk,trail,saskatoon,..,..,..,..,sk
22424,Boychuk,trail,saskatoon,..,..,..,..,sk
22425,Boychuk,trail,saskatoon,..,..,..,..,sk
22426,Boychuk,trail,saskatoon,..,..,..,..,sk
22427,Boychuk,trail,saskatoon,..,..,..,..,sk
22428,Boychuk,trail,saskatoon,..,..,..,..,sk
22429,Boychuk,trail,saskatoon,..,..,..,..,sk
22430,Boychuk,trail,saskatoon,..,..,..,..,sk
22431,Boychuk,trail,saskatoon,..,..,..,..,sk
22432,Boychuk,trail,saskatoon,..,..,..,..,sk
22433,Boychuk,trail,saskatoon,..,..,..,..,sk
22434,Boychuk,trail,saskatoon,..,..,..,..,sk
22435,Boychuk,trail,saskatoon,..,..,..,..,sk
22436,Boychuk,trail,saskatoon,..,..,..,..,sk
22437,Boychuk,trail,saskatoon,..,..,..,..,sk
22438,Boychuk,trail,saskatoon,..,..,..,..,sk
22439,Boychuk,trail,saskatoon,..,..,..,..,sk
22440,Boychuk,trail,saskatoon,..,..,..,..,sk
22441,Boychuk,trail,saskatoon,..,..,..,..,sk
22442,Boychuk,trail,saskatoon,..,..,..,..,sk
22443,Boychuk,trail,saskatoon,..,..,..,..,sk
22444,Boychuk,trail,saskatoon,..,..,..,..,sk
22445,Boychuk,trail,saskatoon,..,..,..,..,sk
22446,Boychuk,trail,saskatoon,..,..,..,..,sk
22447,Boychuk,trail,saskatoon,..,..,..,..,sk
22448,Boychuk,trail,saskatoon,..,..,..,..,sk
