Index,Facility_Name,ODRSF_facility_type,Provider,Street_No,Street_Name,Postal_Code,City,Prov_Terr
17923,Umea Vast - Ball Field #2,sports field,saskatoon,..,..,..,..,sk
17924,Umea Vast - Ball Field #3,sports field,saskatoon,..,..,..,..,sk
17925,Umea Vast - Ball Field #4,sports field,saskatoon,..,..,..,..,sk
17926,Umea Vast - Soccer #5 -Lacrosse Field,sports field,saskatoon,..,..,..,..,sk
18124,W.E. Graham Soccer Field #1,sports field,saskatoon,..,..,..,..,sk
18126,Wa Reid - Ball Field #1,sports field,saskatoon,..,..,..,..,sk
18127,Wa Reid - Ball Field #2,sports field,saskatoon,..,..,..,..,sk
18128,Wa Reid - Ball Field #3,sports field,saskatoon,..,..,..,..,sk
18129,Wa Reid - Ball Field #4,sports field,saskatoon,..,..,..,..,sk
18188,Weaver - Basketball Court #1,sports field,saskatoon,..,..,..,..,sk
18189,Weaver - Basketball Court #2,sports field,saskatoon,..,..,..,..,sk
18190,Weaver - Green #2,sports field,saskatoon,..,..,..,..,sk
18191,Weaver - Soccer #1,sports field,saskatoon,..,..,..,..,sk
18192,Weaver - Soccer #2,sports field,saskatoon,..,..,..,..,sk
18287,Westmount,sports field,saskatoon,..,..,..,..,sk
18288,Westmount - Ball Field #1,sports field,saskatoon,..,..,..,..,sk
18289,Westmount - Basketball Court #1,sports field,saskatoon,..,..,..,..,sk
18290,Westmount - Soccer #1,sports field,saskatoon,..,..,..,..,sk
18311,Westview,sports field,saskatoon,..,..,..,..,sk
18362,Wiggins Park - Green #1,sports field,saskatoon,..,..,..,..,sk
18364,Wildwood,sports field,saskatoon,..,..,..,..,sk
18365,Wildwood - Ball Field #1,sports field,saskatoon,..,..,..,..,sk
18366,Wildwood - Ball Field #2,sports field,saskatoon,..,..,..,..,sk
18367,Wildwood - Ball Field #3,sports field,saskatoon,..,..,..,..,sk
18368,Wildwood - Ball Field #4,sports field,saskatoon,..,..,..,..,sk
18369,Wildwood - Ball Field #5,sports field,saskatoon,..,..,..,..,sk
18370,Wildwood - Basketball Court #1,sports field,saskatoon,..,..,..,..,sk
18371,Wildwood - Green #7,sports field,saskatoon,..,..,..,..,sk
18372,Wildwood - Green #8,sports field,saskatoon,..,..,..,..,sk
18373,Wildwood - Soccer #6,sports field,saskatoon,..,..,..,..,sk
18374,Wildwood - Soccer #7,sports field,saskatoon,..,..,..,..,sk
18375,Wildwood Golf Course,sports field,saskatoon,..,..,..,..,sk
18410,Willowgrove,sports field,saskatoon,..,..,..,..,sk
18411,Willowgrove - Ball Field #2,sports field,saskatoon,..,..,..,..,sk
18412,Willowgrove - Soccer #1,sports field,saskatoon,..,..,..,..,sk
18414,Willows Golf & Country Club,sports field,saskatoon,..,..,..,..,sk
18424,Wilson - Basketball Court #1,sports field,saskatoon,..,..,..,..,sk
18425,Wilson - Basketball Court #2,sports field,saskatoon,..,..,..,..,sk
18426,Wilson - Green #2,sports field,saskatoon,..,..,..,..,sk
18427,Wilson - Soccer #1,sports field,saskatoon,..,..,..,..,sk
18428,Wilson - Soccer #2,sports field,saskatoon,..,..,..,..,sk
18483,Wjl Harvey N - Ball Field #1,sports field,saskatoon,..,..,..,..,sk
18484,Wjl Harvey N - Ball Field #10,sports field,saskatoon,..,..,..,..,sk
18485,Wjl Harvey N - Ball Field #2,sports field,saskatoon,..,..,..,..,sk
18486,Wjl Harvey N - Ball Field #3,sports field,saskatoon,..,..,..,..,sk
18487,Wjl Harvey N - Ball Field #4,sports field,saskatoon,..,..,..,..,sk
18488,Wjl Harvey N - Ball Field #5,sports field,saskatoon,..,..,..,..,sk
18489,Wjl Harvey N - Ball Field #7,sports field,saskatoon,..,..,..,..,sk
18490,Wjl Harvey N - Ball Field #8,sports field,saskatoon,..,..,..,..,sk
