Index,Facility_Name,ODRSF_facility_type,Provider,Street_No,Street_Name,Postal_Code,City,Prov_Terr
10626,Dundonald - Ball Field #2,sports field,saskatoon,..,..,..,..,sk
10627,Dundonald - Ball Field #3,sports field,saskatoon,..,..,..,..,sk
10628,Dundonald - Ball Field #4,sports field,saskatoon,..,..,..,..,sk
10629,Dundonald - Ball Field #6,sports field,saskatoon,..,..,..,..,sk
10630,Dundonald - Soccer #5,sports field,saskatoon,..,..,..,..,sk
10631,Dundonald - Soccer #7,sports field,saskatoon,..,..,..,..,sk
10632,Dundonald - Soccer #8,sports field,saskatoon,..,..,..,..,sk
10699,East College Park,sports field,saskatoon,..,..,..,..,sk
10717,Eastview,sports field,saskatoon,..,..,..,..,sk
10787,Edward Mccourt - Ball Field #1,sports field,saskatoon,..,..,..,..,sk
10874,Erindale,sports field,saskatoon,..,..,..,..,sk
10883,Ernest Lindner - Ball Field #1,sports field,saskatoon,..,..,..,..,sk
10884,Ernest Lindner - Ball Field #2,sports field,saskatoon,..,..,..,..,sk
10885,Ernest Lindner - Ball Field #3,sports field,saskatoon,..,..,..,..,sk
10886,Ernest Lindner - Ball Field #4,sports field,saskatoon,..,..,..,..,sk
10887,Ernest Lindner - Ball Field #5,sports field,saskatoon,..,..,..,..,sk
10888,Ernest Lindner - Soccer #6,sports field,saskatoon,..,..,..,..,sk
10889,Ernest Lindner - Soccer #7,sports field,saskatoon,..,..,..,..,sk
10920,Exhibition,sports field,saskatoon,..,..,..,..,sk
10921,Exhibition - Basketball Court #1,sports field,saskatoon,..,..,..,..,sk
10922,Exhibition - Basketball Court #2,sports field,saskatoon,..,..,..,..,sk
10937,Fairhaven,sports field,saskatoon,..,..,..,..,sk
10976,Father Basil Markle - Green #1,sports field,saskatoon,..,..,..,..,sk
10977,Father Basil Markle - Tennis Court #1,sports field,saskatoon,..,..,..,..,sk
10978,Father Basil Markle - Tennis Court #2,sports field,saskatoon,..,..,..,..,sk
10979,Father Basil Markle - Tennis Court #3,sports field,saskatoon,..,..,..,..,sk
10980,Father Basil Markle - Tennis Court #4,sports field,saskatoon,..,..,..,..,sk
11038,Fitness Circuit & Terry Fox Track,sports field,saskatoon,..,..,..,..,sk
11039,Fitness Circuit & Terry Fox Track - Soccer #1,sports field,saskatoon,..,..,..,..,sk
11134,Forest - Ball Field #1,sports field,saskatoon,..,..,..,..,sk
11135,Forest - Ball Field #2,sports field,saskatoon,..,..,..,..,sk
11136,Forest - Basketball Court #1,sports field,saskatoon,..,..,..,..,sk
11137,Forest - Basketball Court #2,sports field,saskatoon,..,..,..,..,sk
11138,Forest - Soccer #3,sports field,saskatoon,..,..,..,..,sk
11139,Forest - Soccer #4,sports field,saskatoon,..,..,..,..,sk
11140,Forest - Soccer #5,sports field,saskatoon,..,..,..,..,sk
11141,Forest - Soccer #7,sports field,saskatoon,..,..,..,..,sk
11142,Forest - Soccer #8,sports field,saskatoon,..,..,..,..,sk
11143,Forest - Tennis Court #1,sports field,saskatoon,..,..,..,..,sk
11144,Forest - Tennis Court #2,sports field,saskatoon,..,..,..,..,sk
11145,Forest - Tennis Court #3,sports field,saskatoon,..,..,..,..,sk
11152,Forest Grove,sports field,saskatoon,..,..,..,..,sk
11175,Forest -Soccer #6,sports field,saskatoon,..,..,..,..,sk
11252,Fred Mendel - Ball Field #1,sports field,saskatoon,..,..,..,..,sk
11253,Fred Mendel - Ball Field #2,sports field,saskatoon,..,..,..,..,sk
11254,Fred Mendel - Ball Field #3,sports field,saskatoon,..,..,..,..,sk
11255,Fred Mendel - Ball Field #4,sports field,saskatoon,..,..,..,..,sk
11320,Gd Archibald Memorial - Ball Field #1,sports field,saskatoon,..,..,..,..,sk
11321,Gd Archibald Memorial - Basketball Court #1,sports field,saskatoon,..,..,..,..,sk
