Index,Facility_Name,ODRSF_facility_type,Provider,Street_No,Street_Name,Postal_Code,City,Prov_Terr
24729,Cosmopolitan,trail,saskatoon,..,..,..,..,sk
24730,Cosmopolitan,trail,saskatoon,..,..,..,..,sk
24731,Cosmopolitan,trail,saskatoon,..,..,..,..,sk
24732,Cosmopolitan,trail,saskatoon,..,..,..,..,sk
24733,Cosmopolitan,trail,saskatoon,..,..,..,..,sk
24734,Cosmopolitan,trail,saskatoon,..,..,..,..,sk
24735,Cosmopolitan,trail,saskatoon,..,..,..,..,sk
24736,Costigan,trail,saskatoon,..,..,..,..,sk
24737,Costigan,trail,saskatoon,..,..,..,..,sk
24738,Costigan,trail,saskatoon,..,..,..,..,sk
24871,Cowley,trail,saskatoon,..,..,..,..,sk
24897,Crean,trail,saskatoon,..,..,..,..,sk
24898,Crean,trail,saskatoon,..,..,..,..,sk
24941,Crocus,trail,saskatoon,..,..,..,..,sk
24942,Crocus,trail,saskatoon,..,..,..,..,sk
24943,Crocus,trail,saskatoon,..,..,..,..,sk
24944,Crocus,trail,saskatoon,..,..,..,..,sk
24945,Crocus,trail,saskatoon,..,..,..,..,sk
24946,Crocus,trail,saskatoon,..,..,..,..,sk
24947,Crocus,trail,saskatoon,..,..,..,..,sk
24948,Crocus,trail,saskatoon,..,..,..,..,sk
24949,Crocus,trail,saskatoon,..,..,..,..,sk
24950,Crocus,trail,saskatoon,..,..,..,..,sk
24951,Crocus,trail,saskatoon,..,..,..,..,sk
24952,Crocus,trail,saskatoon,..,..,..,..,sk
24953,Crocus,trail,saskatoon,..,..,..,..,sk
24954,Crocus,trail,saskatoon,..,..,..,..,sk
24955,Crocus,trail,saskatoon,..,..,..,..,sk
24956,Crocus,trail,saskatoon,..,..,..,..,sk
24957,Crocus,trail,saskatoon,..,..,..,..,sk
24958,Crocus,trail,saskatoon,..,..,..,..,sk
24959,Crocus,trail,saskatoon,..,..,..,..,sk
24960,Crocus,trail,saskatoon,..,..,..,..,sk
24961,Crocus,trail,saskatoon,..,..,..,..,sk
24962,Crocus,trail,saskatoon,..,..,..,..,sk
24963,Crocus,trail,saskatoon,..,..,..,..,sk
24964,Crocus,trail,saskatoon,..,..,..,..,sk
24965,Crocus,trail,saskatoon,..,..,..,..,sk
24966,Crocus,trail,saskatoon,..,..,..,..,sk
24967,Crocus,trail,saskatoon,..,..,..,..,sk
24968,Crocus,trail,saskatoon,..,..,..,..,sk
24969,Crocus,trail,saskatoon,..,..,..,..,sk
24970,Crocus,trail,saskatoon,..,..,..,..,sk
24971,Crocus,trail,saskatoon,..,..,..,..,sk
24972,Crocus,trail,saskatoon,..,..,..,..,sk
24973,Crocus,trail,saskatoon,..,..,..,..,sk
24974,Crocus,trail,saskatoon,..,..,..,..,sk
24975,Crocus,trail,saskatoon,..,..,..,..,sk
24976,Crocus,trail,saskatoon,..,..,..,..,sk
