Index,Facility_Name,ODRSF_facility_type,Provider,Street_No,Street_Name,Postal_Code,City,Prov_Terr
14675,Parkridge - Ball Field #4,sports field,saskatoon,..,..,..,..,sk
14676,Parkridge - Ball Field #5,sports field,saskatoon,..,..,..,..,sk
14677,Parkridge - Soccer #1,sports field,saskatoon,..,..,..,..,sk
14678,Parkridge - Soccer #6,sports field,saskatoon,..,..,..,..,sk
14731,Peter Pond - Basketball Court #1,sports field,saskatoon,..,..,..,..,sk
14732,Peter Pond - Basketball Court #2,sports field,saskatoon,..,..,..,..,sk
14733,Peter Zakerski Ball Field #1,sports field,saskatoon,..,..,..,..,sk
14734,Peter Zakerski Ball Field #2,sports field,saskatoon,..,..,..,..,sk
14749,Pierre Radisson - Soccer #1,sports field,saskatoon,..,..,..,..,sk
14838,Pleasant Hill,sports field,saskatoon,..,..,..,..,sk
14839,Pleasant Hill - Ball Field #1,sports field,saskatoon,..,..,..,..,sk
14840,Pleasant Hill - Soccer #1,sports field,saskatoon,..,..,..,..,sk
15047,Queen Elizabeth,sports field,saskatoon,..,..,..,..,sk
15308,River Heights,sports field,saskatoon,..,..,..,..,sk
15309,River Landing,sports field,saskatoon,..,..,..,..,sk
15331,Riversdale,sports field,saskatoon,..,..,..,..,sk
15332,Riversdale Kiwanis - Ball Field #1,sports field,saskatoon,..,..,..,..,sk
15333,Riversdale Kiwanis - Ball Field #2,sports field,saskatoon,..,..,..,..,sk
15334,Riversdale Kiwanis - Soccer Field #1,sports field,saskatoon,..,..,..,..,sk
15335,Riversdale Kiwanis - Soccer Field #2,sports field,saskatoon,..,..,..,..,sk
15336,Riversdale Pool,sports field,saskatoon,..,..,..,..,sk
15375,Robert Hunter East - Ball Field #1,sports field,saskatoon,..,..,..,..,sk
15376,Robert Hunter East - Soccer #1,sports field,saskatoon,..,..,..,..,sk
15377,Robert Hunter East - Soccer #2,sports field,saskatoon,..,..,..,..,sk
15388,Rochdale - Ball Field #1,sports field,saskatoon,..,..,..,..,sk
15389,Rochdale - Ball Field #2,sports field,saskatoon,..,..,..,..,sk
15390,Rochdale - Ball Field #3,sports field,saskatoon,..,..,..,..,sk
15391,Rochdale - Ball Field #4,sports field,saskatoon,..,..,..,..,sk
15392,Rochdale - Ball Field #5,sports field,saskatoon,..,..,..,..,sk
15393,Rochdale - Soccer #6,sports field,saskatoon,..,..,..,..,sk
15394,Rochdale - Soccer #7,sports field,saskatoon,..,..,..,..,sk
15454,Rotary - Tennis Court #1,sports field,saskatoon,..,..,..,..,sk
15455,Rotary - Tennis Court #2,sports field,saskatoon,..,..,..,..,sk
15456,Rotary - Tennis Court #3,sports field,saskatoon,..,..,..,..,sk
15457,Rotary - Tennis Court #4,sports field,saskatoon,..,..,..,..,sk
15616,Saskatoon Field House,sports field,saskatoon,..,..,..,..,sk
15617,Saskatoon Forestry Farm Park & Zoo,sports field,saskatoon,..,..,..,..,sk
15619,Sasktel Centre,sports field,saskatoon,..,..,..,..,sk
15657,Schroh Arena,sports field,saskatoon,..,..,..,..,sk
15662,Scott - Ball Field #1,sports field,saskatoon,..,..,..,..,sk
15663,Scott - Ball Field #2,sports field,saskatoon,..,..,..,..,sk
15664,Scott - Soccer #1,sports field,saskatoon,..,..,..,..,sk
15665,Scott - Soccer #2,sports field,saskatoon,..,..,..,..,sk
15666,Scott - Tennis Court #1,sports field,saskatoon,..,..,..,..,sk
15667,Scott - Tennis Court #2,sports field,saskatoon,..,..,..,..,sk
15668,Scott - Tennis Court #3,sports field,saskatoon,..,..,..,..,sk
15669,Scott - Tennis Court #4,sports field,saskatoon,..,..,..,..,sk
15693,Senator J Hnatyshyn - Basketball Court #1,sports field,saskatoon,..,..,..,..,sk
15694,Senator J Hnatyshyn - Basketball Court #2,sports field,saskatoon,..,..,..,..,sk
