Index,Facility_Name,ODRSF_facility_type,Provider,Street_No,Street_Name,Postal_Code,City,Prov_Terr
43024,Marshall Hawthorne,trail,saskatoon,..,..,..,..,sk
43025,Marshall Hawthorne,trail,saskatoon,..,..,..,..,sk
43026,Marshall Hawthorne,trail,saskatoon,..,..,..,..,sk
43027,Marshall Hawthorne,trail,saskatoon,..,..,..,..,sk
43028,Marshall Hawthorne,trail,saskatoon,..,..,..,..,sk
43029,Marshall Hawthorne,trail,saskatoon,..,..,..,..,sk
43030,Marshall Hawthorne,trail,saskatoon,..,..,..,..,sk
43031,Marshall Hawthorne,trail,saskatoon,..,..,..,..,sk
43032,Marshall Hawthorne,trail,saskatoon,..,..,..,..,sk
43033,Marshall Hawthorne,trail,saskatoon,..,..,..,..,sk
43034,Marshall Hawthorne,trail,saskatoon,..,..,..,..,sk
43035,Marshall Hawthorne,trail,saskatoon,..,..,..,..,sk
43036,Marshall Hawthorne,trail,saskatoon,..,..,..,..,sk
43037,Marshall Hawthorne,trail,saskatoon,..,..,..,..,sk
43038,Marshall Hawthorne,trail,saskatoon,..,..,..,..,sk
43039,Marshall Hawthorne,trail,saskatoon,..,..,..,..,sk
43040,Marshall Hawthorne,trail,saskatoon,..,..,..,..,sk
43041,Marshall Hawthorne,trail,saskatoon,..,..,..,..,sk
43042,Marshall Hawthorne,trail,saskatoon,..,..,..,..,sk
43043,Marshall Hawthorne,trail,saskatoon,..,..,..,..,sk
43044,Marshall Hawthorne,trail,saskatoon,..,..,..,..,sk
43045,Marshall Hawthorne,trail,saskatoon,..,..,..,..,sk
43046,Marshall Hawthorne,trail,saskatoon,..,..,..,..,sk
43097,Matheson,trail,saskatoon,..,..,..,..,sk
43144,Mcclocklin,trail,saskatoon,..,..,..,..,sk
43145,Mcclocklin,trail,saskatoon,..,..,..,..,sk
43146,Mccormack,trail,saskatoon,..,..,..,..,sk
43190,Mccully,trail,saskatoon,..,..,..,..,sk
43191,Mccully,trail,saskatoon,..,..,..,..,sk
43280,Mckercher,trail,saskatoon,..,..,..,..,sk
43281,Mckercher,trail,saskatoon,..,..,..,..,sk
43348,Mcormond,trail,saskatoon,..,..,..,..,sk
43349,Mcormond,trail,saskatoon,..,..,..,..,sk
43350,Mcormond,trail,saskatoon,..,..,..,..,sk
43351,Mcormond,trail,saskatoon,..,..,..,..,sk
43352,Mcormond,trail,saskatoon,..,..,..,..,sk
43353,Mcormond,trail,saskatoon,..,..,..,..,sk
43354,Mcormond,trail,saskatoon,..,..,..,..,sk
43355,Mcormond,trail,saskatoon,..,..,..,..,sk
43356,Mcormond,trail,saskatoon,..,..,..,..,sk
43357,Mcormond,trail,saskatoon,..,..,..,..,sk
43358,Mcormond,trail,saskatoon,..,..,..,..,sk
43359,Mcormond,trail,saskatoon,..,..,..,..,sk
43360,Mcormond,trail,saskatoon,..,..,..,..,sk
43361,Mcormond,trail,saskatoon,..,..,..,..,sk
43362,Mcormond,trail,saskatoon,..,..,..,..,sk
43363,Mcormond,trail,saskatoon,..,..,..,..,sk
43364,Mcormond,trail,saskatoon,..,..,..,..,sk
43365,Mcormond,trail,saskatoon,..,..,..,..,sk
