Index,Facility_Name,ODRSF_facility_type,Provider,Street_No,Street_Name,Postal_Code,City,Prov_Terr
170722,Mackay,park,saskatoon,..,..,..,..,sk
170983,Mark Thompson,park,saskatoon,..,..,..,..,sk
171028,Marlborough,park,saskatoon,..,..,..,..,sk
171039,Marr,park,saskatoon,..,..,..,..,sk
171041,Marriot,park,saskatoon,..,..,..,..,sk
171049,Marshall Hawthorne,park,saskatoon,..,..,..,..,sk
171092,Massey,park,saskatoon,..,..,..,..,sk
171352,Meadowgreen,park,saskatoon,..,..,..,..,sk
171359,Meadowlark,park,saskatoon,..,..,..,..,sk
171390,Meewasin,park,saskatoon,..,..,..,..,sk
171434,Mendel,park,saskatoon,..,..,..,..,sk
171778,Montgomery,park,saskatoon,..,..,..,..,sk
171845,Morris T Cherneskey,park,saskatoon,..,..,..,..,sk
171855,Morton,park,saskatoon,..,..,..,..,sk
171907,Mount Royal,park,saskatoon,..,..,..,..,sk
172221,North Park,park,saskatoon,..,..,..,..,sk
172417,Nutana Kiwanis,park,saskatoon,..,..,..,..,sk
172418,Nutana Kiwanis North,park,saskatoon,..,..,..,..,sk
172585,Optimist,park,saskatoon,..,..,..,..,sk
172617,Oren Willson,park,saskatoon,..,..,..,..,sk
172667,Owen Mann,park,saskatoon,..,..,..,..,sk
172688,Pacific,park,saskatoon,..,..,..,..,sk
172846,Parc Canada,park,saskatoon,..,..,..,..,sk
173637,Parkridge,park,saskatoon,..,..,..,..,sk
173687,Patricia Roe,park,saskatoon,..,..,..,..,sk
173709,Paul Mostoway,park,saskatoon,..,..,..,..,sk
173726,Pcr Banting,park,saskatoon,..,..,..,..,sk
173821,Peter H Currie,park,saskatoon,..,..,..,..,sk
173827,Peter Pond,park,saskatoon,..,..,..,..,sk
173830,Peter Zakreski,park,saskatoon,..,..,..,..,sk
173870,Pierre Radisson,park,saskatoon,..,..,..,..,sk
173980,Pleasant Hill,park,saskatoon,..,..,..,..,sk
174034,Poplar,park,saskatoon,..,..,..,..,sk
174097,Prebble,park,saskatoon,..,..,..,..,sk
174104,President Murray,park,saskatoon,..,..,..,..,sk
174376,Raoul Wallenberg,park,saskatoon,..,..,..,..,sk
174441,Rcaf Memorial,park,saskatoon,..,..,..,..,sk
174545,Rendall,park,saskatoon,..,..,..,..,sk
174581,Richards,park,saskatoon,..,..,..,..,sk
174650,Rik Steernberg,park,saskatoon,..,..,..,..,sk
174679,River Landing,park,saskatoon,..,..,..,..,sk
174770,Riversdale Kiwanis,park,saskatoon,..,..,..,..,sk
174832,Robert H Freeland,park,saskatoon,..,..,..,..,sk
174834,Robert Hunter East,park,saskatoon,..,..,..,..,sk
174835,Robert Hunter West,park,saskatoon,..,..,..,..,sk
174871,Rochdale,park,saskatoon,..,..,..,..,sk
174902,Rod V Real,park,saskatoon,..,..,..,..,sk
175000,Rosewood Square,park,saskatoon,..,..,..,..,sk
175018,Rotary,park,saskatoon,..,..,..,..,sk
