Index,Facility_Name,ODRSF_facility_type,Provider,Street_No,Street_Name,Postal_Code,City,Prov_Terr
26069,Dundonald,trail,saskatoon,..,..,..,..,sk
26070,Dundonald,trail,saskatoon,..,..,..,..,sk
26071,Dundonald,trail,saskatoon,..,..,..,..,sk
26072,Dundonald,trail,saskatoon,..,..,..,..,sk
26073,Dundonald,trail,saskatoon,..,..,..,..,sk
26074,Dundonald,trail,saskatoon,..,..,..,..,sk
26075,Dundonald,trail,saskatoon,..,..,..,..,sk
26076,Dundonald,trail,saskatoon,..,..,..,..,sk
26077,Dundonald,trail,saskatoon,..,..,..,..,sk
26078,Dundonald,trail,saskatoon,..,..,..,..,sk
26079,Dundonald,trail,saskatoon,..,..,..,..,sk
26080,Dundonald,trail,saskatoon,..,..,..,..,sk
26081,Dundonald,trail,saskatoon,..,..,..,..,sk
26082,Dundonald,trail,saskatoon,..,..,..,..,sk
26083,Dundonald,trail,saskatoon,..,..,..,..,sk
26084,Dundonald,trail,saskatoon,..,..,..,..,sk
26085,Dundonald,trail,saskatoon,..,..,..,..,sk
26086,Dundonald,trail,saskatoon,..,..,..,..,sk
26087,Dundonald,trail,saskatoon,..,..,..,..,sk
26088,Dundonald,trail,saskatoon,..,..,..,..,sk
26089,Dundonald,trail,saskatoon,..,..,..,..,sk
26090,Dundonald,trail,saskatoon,..,..,..,..,sk
26091,Dundonald,trail,saskatoon,..,..,..,..,sk
26092,Dundonald,trail,saskatoon,..,..,..,..,sk
26093,Dundonald,trail,saskatoon,..,..,..,..,sk
26094,Dundonald,trail,saskatoon,..,..,..,..,sk
26095,Dundonald,trail,saskatoon,..,..,..,..,sk
26096,Dundonald,trail,saskatoon,..,..,..,..,sk
26097,Dundonald,trail,saskatoon,..,..,..,..,sk
26098,Dundonald,trail,saskatoon,..,..,..,..,sk
26101,Dutchak,trail,saskatoon,..,..,..,..,sk
26102,Dutchak,trail,saskatoon,..,..,..,..,sk
26103,Dutchak,trail,saskatoon,..,..,..,..,sk
26104,Dutchak,trail,saskatoon,..,..,..,..,sk
26105,Dutchak,trail,saskatoon,..,..,..,..,sk
26106,Dutchak,trail,saskatoon,..,..,..,..,sk
26107,Dutchak,trail,saskatoon,..,..,..,..,sk
26108,Dutchak,trail,saskatoon,..,..,..,..,sk
26109,Dutchak,trail,saskatoon,..,..,..,..,sk
26110,Dutchak,trail,saskatoon,..,..,..,..,sk
26111,Dutchak,trail,saskatoon,..,..,..,..,sk
26117,E,trail,saskatoon,..,..,..,..,sk
26145,East Centre,trail,saskatoon,..,..,..,..,sk
26226,East Place,trail,saskatoon,..,..,..,..,sk
26269,Easthill,trail,saskatoon,..,..,..,..,sk
26272,Eastman,trail,saskatoon,..,..,..,..,sk
26273,Eastview,trail,saskatoon,..,..,..,..,sk
26291,Edmonton,trail,saskatoon,..,..,..,..,sk
26292,Edmonton,trail,saskatoon,..,..,..,..,sk
