Index,Facility_Name,ODRSF_facility_type,Provider,Street_No,Street_Name,Postal_Code,City,Prov_Terr
165534,Dave King,park,saskatoon,..,..,..,..,sk
165748,Diefenbaker,park,saskatoon,..,..,..,..,sk
165778,Dl Hamilton,park,saskatoon,..,..,..,..,sk
165824,Don Ross,park,saskatoon,..,..,..,..,sk
165837,Donald Koyl,park,saskatoon,..,..,..,..,sk
165847,Donna L Birkmaier,park,saskatoon,..,..,..,..,sk
165938,Dr Gerhard Herzberg North,park,saskatoon,..,..,..,..,sk
165939,Dr Gerhard Herzberg South,park,saskatoon,..,..,..,..,sk
165941,Dr J Valens,park,saskatoon,..,..,..,..,sk
165943,Dr Seager Wheeler,park,saskatoon,..,..,..,..,sk
165961,Draggins Car Club,park,saskatoon,..,..,..,..,sk
166046,Dundonald,park,saskatoon,..,..,..,..,sk
166083,Dutchak,park,saskatoon,..,..,..,..,sk
166213,Ed Jordan,park,saskatoon,..,..,..,..,sk
166268,Edward Mccourt,park,saskatoon,..,..,..,..,sk
166269,Edward S Blain,park,saskatoon,..,..,..,..,sk
166307,Elaine Hnatyshyn,park,saskatoon,..,..,..,..,sk
166308,Elaine Hnatyshyn West,park,saskatoon,..,..,..,..,sk
166472,Ernest Lindner,park,saskatoon,..,..,..,..,sk
166547,Evelyn G Edwards,park,saskatoon,..,..,..,..,sk
166563,Evergreen Square,park,saskatoon,..,..,..,..,sk
166570,Exhibition,park,saskatoon,..,..,..,..,sk
166695,Father Basil Markle,park,saskatoon,..,..,..,..,sk
166916,Forest,park,saskatoon,..,..,..,..,sk
166926,Forest Grove Linkage,park,saskatoon,..,..,..,..,sk
166956,Forestry Farm,park,saskatoon,..,..,..,..,sk
166987,Foster,park,saskatoon,..,..,..,..,sk
167084,Fred Mendel,park,saskatoon,..,..,..,..,sk
167085,Fred Mitchell Memorial,park,saskatoon,..,..,..,..,sk
167117,Friendship,park,saskatoon,..,..,..,..,sk
167142,Funk,park,saskatoon,..,..,..,..,sk
167159,Gabriel Dumont,park,saskatoon,..,..,..,..,sk
167261,Gd Archibald Memorial,park,saskatoon,..,..,..,..,sk
167262,Gd Archibald North,park,saskatoon,..,..,..,..,sk
167263,Gd Archibald West,park,saskatoon,..,..,..,..,sk
167272,Genereux,park,saskatoon,..,..,..,..,sk
167277,Geoff Hughes Baseball Complex,park,saskatoon,..,..,..,..,sk
167289,George Dyck,park,saskatoon,..,..,..,..,sk
167293,George H Clare,park,saskatoon,..,..,..,..,sk
167313,George S Alexander,park,saskatoon,..,..,..,..,sk
167407,Glacier,park,saskatoon,..,..,..,..,sk
167458,Glen H Penner,park,saskatoon,..,..,..,..,sk
167636,Gordie Howe Sports Complex,park,saskatoon,..,..,..,..,sk
167668,Gougeon,park,saskatoon,..,..,..,..,sk
167689,Grace Adam Metawewinihk North,park,saskatoon,..,..,..,..,sk
167690,Grace Adam Metawewinihk South,park,saskatoon,..,..,..,..,sk
167698,Graham,park,saskatoon,..,..,..,..,sk
167890,Greystone,park,saskatoon,..,..,..,..,sk
167902,Grosvenor,park,saskatoon,..,..,..,..,sk
