Index,Facility_Name,ODRSF_facility_type,Provider,Street_No,Street_Name,Postal_Code,City,Prov_Terr
9135,Boughton - Ball Field #2,sports field,saskatoon,..,..,..,..,sk
9206,Brevoort,sports field,saskatoon,..,..,..,..,sk
9207,Brevoort North - Ball Field #1,sports field,saskatoon,..,..,..,..,sk
9208,Brevoort North - Soccer #2,sports field,saskatoon,..,..,..,..,sk
9209,Brevoort South - Green #3,sports field,saskatoon,..,..,..,..,sk
9229,Briarwood,sports field,saskatoon,..,..,..,..,sk
9230,Briarwood - Ball Field #1,sports field,saskatoon,..,..,..,..,sk
9231,Briarwood - Basketball Court #1,sports field,saskatoon,..,..,..,..,sk
9232,Briarwood - Basketball Court #2,sports field,saskatoon,..,..,..,..,sk
9233,Briarwood - Soccer #2,sports field,saskatoon,..,..,..,..,sk
9234,Briarwood Lake - Basketball Court #1,sports field,saskatoon,..,..,..,..,sk
9336,Buena Vista,sports field,saskatoon,..,..,..,..,sk
9337,Buena Vista - Basketball Court #1,sports field,saskatoon,..,..,..,..,sk
9338,Buena Vista - Basketball Court #2,sports field,saskatoon,..,..,..,..,sk
9356,Cahill - Ball Field #1,sports field,saskatoon,..,..,..,..,sk
9434,Canon Smith - Ball Field #1,sports field,saskatoon,..,..,..,..,sk
9435,Canon Smith - Basketball Court #1,sports field,saskatoon,..,..,..,..,sk
9564,Caswell Hill,sports field,saskatoon,..,..,..,..,sk
9816,Churchill - Soccer #1,sports field,saskatoon,..,..,..,..,sk
9854,Clarence Downey Speedskating Oval,sports field,saskatoon,..,..,..,..,sk
10103,College Park,sports field,saskatoon,..,..,..,..,sk
10138,Confederation Park,sports field,saskatoon,..,..,..,..,sk
10206,Cosmo Arena,sports field,saskatoon,..,..,..,..,sk
10207,Cosmo Civic Centre,sports field,saskatoon,..,..,..,..,sk
10208,Cosmo Civic Centre - Basketball Court #1,sports field,saskatoon,..,..,..,..,sk
10209,Cosmo Civic Centre - Basketball Court #2,sports field,saskatoon,..,..,..,..,sk
10329,Crocus - Ball Field #1,sports field,saskatoon,..,..,..,..,sk
10330,Crocus - Ball Field #2,sports field,saskatoon,..,..,..,..,sk
10331,Crocus - Basketball Court #1,sports field,saskatoon,..,..,..,..,sk
10332,Crocus - Soccer #3,sports field,saskatoon,..,..,..,..,sk
10333,Crocus - Soccer #4,sports field,saskatoon,..,..,..,..,sk
10334,Crocus - Tennis Court #1,sports field,saskatoon,..,..,..,..,sk
10358,Cumberland - Green #1,sports field,saskatoon,..,..,..,..,sk
10479,Diefenbaker Ball Field #1,sports field,saskatoon,..,..,..,..,sk
10510,Dl Hamilton - Basketball Court #1,sports field,saskatoon,..,..,..,..,sk
10530,Donna L Birkmaier Ball Field #1,sports field,saskatoon,..,..,..,..,sk
10531,Donna L Birkmaier Ball Field #2,sports field,saskatoon,..,..,..,..,sk
10532,Donna L Birkmaier Soccer Field #3,sports field,saskatoon,..,..,..,..,sk
10533,Donna L Birkmaier Soccer Field #4,sports field,saskatoon,..,..,..,..,sk
10575,Dr Gerhard Herzberg - Ball Field #1,sports field,saskatoon,..,..,..,..,sk
10576,Dr Gerhard Herzberg - Green #2,sports field,saskatoon,..,..,..,..,sk
10577,Dr Gerhard Herzberg - Soccer #3,sports field,saskatoon,..,..,..,..,sk
10578,Dr Gerhard Herzberg - Soccer #4,sports field,saskatoon,..,..,..,..,sk
10579,Dr Seager Wheeler - Ball Field #1,sports field,saskatoon,..,..,..,..,sk
10580,Dr Seager Wheeler - Ball Field #2,sports field,saskatoon,..,..,..,..,sk
10581,Dr Seager Wheeler - Green #1,sports field,saskatoon,..,..,..,..,sk
10582,Dr Seager Wheeler - Soccer #3,sports field,saskatoon,..,..,..,..,sk
10588,Draggins Car Club Ball Field #1,sports field,saskatoon,..,..,..,..,sk
10624,Dundonald,sports field,saskatoon,..,..,..,..,sk
