Index,Facility_Name,ODRSF_facility_type,Provider,Street_No,Street_Name,Postal_Code,City,Prov_Terr
162136,Albert,park,saskatoon,..,..,..,..,sk
162145,Albert Milne,park,saskatoon,..,..,..,..,sk
162146,Albert Oulton,park,saskatoon,..,..,..,..,sk
162147,Albert Recreational Unit,park,saskatoon,..,..,..,..,sk
162202,Alexander Macgillivray Young,park,saskatoon,..,..,..,..,sk
162220,Alfred Bence,park,saskatoon,..,..,..,..,sk
162342,Andrew Macdougall,park,saskatoon,..,..,..,..,sk
162371,Anita Langford,park,saskatoon,..,..,..,..,sk
162373,Anna Mcintosh,park,saskatoon,..,..,..,..,sk
162435,Arbor Creek,park,saskatoon,..,..,..,..,sk
162436,Arbor Creek Linear,park,saskatoon,..,..,..,..,sk
162466,Archibald Mcdonald,park,saskatoon,..,..,..,..,sk
162562,As Wright,park,saskatoon,..,..,..,..,sk
162595,Ashworth Holmes,park,saskatoon,..,..,..,..,sk
162623,Atchison Field,park,saskatoon,..,..,..,..,sk
162628,Atlantic,park,saskatoon,..,..,..,..,sk
162670,Avalon,park,saskatoon,..,..,..,..,sk
162738,Balsam,park,saskatoon,..,..,..,..,sk
163017,Beckett Green,park,saskatoon,..,..,..,..,sk
163263,Bev M Dyck,park,saskatoon,..,..,..,..,sk
163350,Bishop James P Mahoney,park,saskatoon,..,..,..,..,sk
163369,Bitz,park,saskatoon,..,..,..,..,sk
163403,Blair Nelson,park,saskatoon,..,..,..,..,sk
163555,Boughton Park,park,saskatoon,..,..,..,..,sk
163629,Braithwaite,park,saskatoon,..,..,..,..,sk
163668,Brevoort Park North,park,saskatoon,..,..,..,..,sk
163669,Brevoort Park South,park,saskatoon,..,..,..,..,sk
163685,Briarwood,park,saskatoon,..,..,..,..,sk
163687,Briarwood Lake,park,saskatoon,..,..,..,..,sk
163688,Briarwood Linear,park,saskatoon,..,..,..,..,sk
163886,Budz Green,park,saskatoon,..,..,..,..,sk
163887,Buena Vista,park,saskatoon,..,..,..,..,sk
163986,C Jack Mackenzie,park,saskatoon,..,..,..,..,sk
164005,Cahill,park,saskatoon,..,..,..,..,sk
164112,Cannam,park,saskatoon,..,..,..,..,sk
164122,Canon Smith,park,saskatoon,..,..,..,..,sk
164355,Cecil A Wheaton,park,saskatoon,..,..,..,..,sk
164520,Cf Patterson,park,saskatoon,..,..,..,..,sk
164521,Cf Patterson North,park,saskatoon,..,..,..,..,sk
164620,Charlottetown Park,park,saskatoon,..,..,..,..,sk
164691,Chief Darcy Bear,park,saskatoon,..,..,..,..,sk
164739,Christine Morris,park,saskatoon,..,..,..,..,sk
164751,Churchill,park,saskatoon,..,..,..,..,sk
164778,City Hall Square,park,saskatoon,..,..,..,..,sk
164840,Claude Petit,park,saskatoon,..,..,..,..,sk
165170,Cosmopolitan,park,saskatoon,..,..,..,..,sk
165277,Cp Seeley,park,saskatoon,..,..,..,..,sk
165371,Crocus,park,saskatoon,..,..,..,..,sk
165428,Cumberland,park,saskatoon,..,..,..,..,sk
