Index,Facility_Name,ODRSF_facility_type,Provider,Street_No,Street_Name,Postal_Code,City,Prov_Terr
21197,Ball,trail,saskatoon,..,..,..,..,sk
21198,Ball,trail,saskatoon,..,..,..,..,sk
21199,Ball,trail,saskatoon,..,..,..,..,sk
21200,Ball,trail,saskatoon,..,..,..,..,sk
21201,Ball,trail,saskatoon,..,..,..,..,sk
21202,Balsam,trail,saskatoon,..,..,..,..,sk
21203,Balsam,trail,saskatoon,..,..,..,..,sk
21218,Barber,trail,saskatoon,..,..,..,..,sk
21219,Barber,trail,saskatoon,..,..,..,..,sk
21220,Barber,trail,saskatoon,..,..,..,..,sk
21231,Barr,trail,saskatoon,..,..,..,..,sk
21238,Bate,trail,saskatoon,..,..,..,..,sk
21239,Bateman,trail,saskatoon,..,..,..,..,sk
21240,Bateman,trail,saskatoon,..,..,..,..,sk
21241,Batoche,trail,saskatoon,..,..,..,..,sk
21244,Bayfield,trail,saskatoon,..,..,..,..,sk
21245,Bayfield,trail,saskatoon,..,..,..,..,sk
21249,Bayview,trail,saskatoon,..,..,..,..,sk
21460,Beckett,trail,saskatoon,..,..,..,..,sk
21461,Beckett Green,trail,saskatoon,..,..,..,..,sk
21462,Beckett Green,trail,saskatoon,..,..,..,..,sk
21463,Beckett Green,trail,saskatoon,..,..,..,..,sk
21464,Beckett Green,trail,saskatoon,..,..,..,..,sk
21465,Beckett Green,trail,saskatoon,..,..,..,..,sk
21466,Beckett Green,trail,saskatoon,..,..,..,..,sk
21467,Beckett Green,trail,saskatoon,..,..,..,..,sk
21468,Beckett Green,trail,saskatoon,..,..,..,..,sk
21469,Beckett Green,trail,saskatoon,..,..,..,..,sk
21470,Beckett Green,trail,saskatoon,..,..,..,..,sk
21471,Beckett Green,trail,saskatoon,..,..,..,..,sk
21472,Beckett Green,trail,saskatoon,..,..,..,..,sk
21473,Beckett Green,trail,saskatoon,..,..,..,..,sk
21474,Beckett Green,trail,saskatoon,..,..,..,..,sk
21475,Beckett Green,trail,saskatoon,..,..,..,..,sk
21499,Beechdale,trail,saskatoon,..,..,..,..,sk
21500,Beechmont,trail,saskatoon,..,..,..,..,sk
21501,Beechmont,trail,saskatoon,..,..,..,..,sk
21502,Beechmont,trail,saskatoon,..,..,..,..,sk
21503,Beechmont,trail,saskatoon,..,..,..,..,sk
21504,Beechmont,trail,saskatoon,..,..,..,..,sk
21529,Beerling,trail,saskatoon,..,..,..,..,sk
21557,Bell,trail,saskatoon,..,..,..,..,sk
21565,Bellmont,trail,saskatoon,..,..,..,..,sk
21601,Benesh,trail,saskatoon,..,..,..,..,sk
21602,Benesh,trail,saskatoon,..,..,..,..,sk
21836,Berini,trail,saskatoon,..,..,..,..,sk
21837,Berini,trail,saskatoon,..,..,..,..,sk
21838,Berini,trail,saskatoon,..,..,..,..,sk
21839,Berini,trail,saskatoon,..,..,..,..,sk
