Index,Facility_Name,ODRSF_facility_type,Provider,Street_No,Street_Name,Postal_Code,City,Prov_Terr
11323,Gd Archibald Memorial - Soccer #2,sports field,saskatoon,..,..,..,..,sk
11324,Gd Archibald North - Ball Field #1,sports field,saskatoon,..,..,..,..,sk
11335,Geoff Hughes - Ball Field #1,sports field,saskatoon,..,..,..,..,sk
11336,Geoff Hughes - Ball Field #2,sports field,saskatoon,..,..,..,..,sk
11337,Geoff Hughes - Ball Field #3,sports field,saskatoon,..,..,..,..,sk
11362,George Ward Pool,sports field,saskatoon,..,..,..,..,sk
11392,Glacier - Green #1,sports field,saskatoon,..,..,..,..,sk
11450,Glenn Reeve Six Pack - Ball Field #3,sports field,saskatoon,..,..,..,..,sk
11451,Glenn Reeve Six Pack - Ball Field #4,sports field,saskatoon,..,..,..,..,sk
11452,Glenn Reeve Six Pack - Ball Field #5,sports field,saskatoon,..,..,..,..,sk
11453,Glenn Reeve Six Pack - Ball Field #6,sports field,saskatoon,..,..,..,..,sk
11454,Glenn Reeve Six Pack - Ball Field #7,sports field,saskatoon,..,..,..,..,sk
11455,Glenn Reeve Six Pack - Ball Field #8,sports field,saskatoon,..,..,..,..,sk
11496,Gordie Howe - Ball Field #1 - Bob Van Impe Field,sports field,saskatoon,..,..,..,..,sk
11497,Gordie Howe - Ball Field #1 - Cairns Field,sports field,saskatoon,..,..,..,..,sk
11498,Gordie Howe - Ball Field #1 - Joe Gallagher Field,sports field,saskatoon,..,..,..,..,sk
11499,Gordie Howe - Ball Field #1 - Leakos Field,sports field,saskatoon,..,..,..,..,sk
11508,Gordon Howe Bowl,sports field,saskatoon,..,..,..,..,sk
11509,Gordon Howe Campground,sports field,saskatoon,..,..,..,..,sk
11515,Gougeon Park - Ball Field #1,sports field,saskatoon,..,..,..,..,sk
11524,Grace Adam Metawewinhk South - Basketball Court #1,sports field,saskatoon,..,..,..,..,sk
11525,Grace Adam Metawewinhk South - Basketball Court #2,sports field,saskatoon,..,..,..,..,sk
11526,Grace Adam Metawewinihk - Ball Field #1,sports field,saskatoon,..,..,..,..,sk
11626,Greystone - Ball Field #1,sports field,saskatoon,..,..,..,..,sk
11627,Greystone - Soccer #2,sports field,saskatoon,..,..,..,..,sk
11629,Greystone Heights,sports field,saskatoon,..,..,..,..,sk
11631,Grosvenor - Ball Field #1,sports field,saskatoon,..,..,..,..,sk
11632,Grosvenor - Basketball Court #1,sports field,saskatoon,..,..,..,..,sk
11633,Grosvenor - Soccer #2,sports field,saskatoon,..,..,..,..,sk
11676,Hampton Village,sports field,saskatoon,..,..,..,..,sk
11708,Harold Latrace Arenas,sports field,saskatoon,..,..,..,..,sk
11710,Harold Tatler North - Ball Field #3,sports field,saskatoon,..,..,..,..,sk
11711,Harold Tatler North - Ball Field #4,sports field,saskatoon,..,..,..,..,sk
11712,Harold Tatler North - Ball Field #5,sports field,saskatoon,..,..,..,..,sk
11713,Harold Tatler North - Soccer #6,sports field,saskatoon,..,..,..,..,sk
11714,Harold Tatler North - Soccer #7,sports field,saskatoon,..,..,..,..,sk
11715,Harold Tatler South - Ball Field #1,sports field,saskatoon,..,..,..,..,sk
11716,Harold Tatler South - Ball Field #2,sports field,saskatoon,..,..,..,..,sk
11717,Harold Tatler South - Basketball Court #1,sports field,saskatoon,..,..,..,..,sk
11721,Harry Bailey Aquatic Centre,sports field,saskatoon,..,..,..,..,sk
11790,Henry Kelsey - Ball Field #5,sports field,saskatoon,..,..,..,..,sk
11791,Henry Kelsey - Basketball Court #1,sports field,saskatoon,..,..,..,..,sk
11792,Henry Kelsey Ball Field #1,sports field,saskatoon,..,..,..,..,sk
11793,Henry Kelsey Ball Field #2,sports field,saskatoon,..,..,..,..,sk
11794,Henry Kelsey Ball Field #3,sports field,saskatoon,..,..,..,..,sk
11795,Henry Kelsey Ball Field #4,sports field,saskatoon,..,..,..,..,sk
11796,Henry Kelsey Soccer #6,sports field,saskatoon,..,..,..,..,sk
11953,Holiday - Ball Field #1,sports field,saskatoon,..,..,..,..,sk
11954,Holiday - Basketball Court #1,sports field,saskatoon,..,..,..,..,sk
