Index,Facility_Name,ODRSF_facility_type,Provider,Street_No,Street_Name,Postal_Code,City,Prov_Terr
22740,Brighton,trail,saskatoon,..,..,..,..,sk
22741,Brightsand,trail,saskatoon,..,..,..,..,sk
22742,Brightsand,trail,saskatoon,..,..,..,..,sk
22743,Brightsand,trail,saskatoon,..,..,..,..,sk
22754,Broadbent,trail,saskatoon,..,..,..,..,sk
22755,Broadbent,trail,saskatoon,..,..,..,..,sk
22756,Broadway,trail,saskatoon,..,..,..,..,sk
22758,Bronson,trail,saskatoon,..,..,..,..,sk
22773,Brookhurst,trail,saskatoon,..,..,..,..,sk
22774,Brookhurst,trail,saskatoon,..,..,..,..,sk
22779,Brookshire,trail,saskatoon,..,..,..,..,sk
22868,Brudell,trail,saskatoon,..,..,..,..,sk
22903,Buckwold,trail,saskatoon,..,..,..,..,sk
22904,Buckwold,trail,saskatoon,..,..,..,..,sk
22905,Budz,trail,saskatoon,..,..,..,..,sk
22906,Budz,trail,saskatoon,..,..,..,..,sk
22907,Budz Green,trail,saskatoon,..,..,..,..,sk
22908,Budz Green,trail,saskatoon,..,..,..,..,sk
22909,Budz Green,trail,saskatoon,..,..,..,..,sk
22910,Budz Green,trail,saskatoon,..,..,..,..,sk
22911,Budz Green,trail,saskatoon,..,..,..,..,sk
22912,Budz Green,trail,saskatoon,..,..,..,..,sk
22913,Budz Green,trail,saskatoon,..,..,..,..,sk
22914,Budz Green,trail,saskatoon,..,..,..,..,sk
22915,Budz Green,trail,saskatoon,..,..,..,..,sk
22916,Budz Green,trail,saskatoon,..,..,..,..,sk
22917,Budz Green,trail,saskatoon,..,..,..,..,sk
22918,Budz Green,trail,saskatoon,..,..,..,..,sk
22919,Budz Green,trail,saskatoon,..,..,..,..,sk
22920,Budz Green,trail,saskatoon,..,..,..,..,sk
22921,Buena Vista,trail,saskatoon,..,..,..,..,sk
22922,Buena Vista,trail,saskatoon,..,..,..,..,sk
22923,Buena Vista,trail,saskatoon,..,..,..,..,sk
22924,Buena Vista,trail,saskatoon,..,..,..,..,sk
22925,Buena Vista,trail,saskatoon,..,..,..,..,sk
22926,Buena Vista,trail,saskatoon,..,..,..,..,sk
22927,Buena Vista,trail,saskatoon,..,..,..,..,sk
22928,Buena Vista,trail,saskatoon,..,..,..,..,sk
22929,Buena Vista,trail,saskatoon,..,..,..,..,sk
22930,Buena Vista,trail,saskatoon,..,..,..,..,sk
22931,Buena Vista,trail,saskatoon,..,..,..,..,sk
22932,Buena Vista,trail,saskatoon,..,..,..,..,sk
22933,Buena Vista,trail,saskatoon,..,..,..,..,sk
22934,Buena Vista,trail,saskatoon,..,..,..,..,sk
22935,Buena Vista,trail,saskatoon,..,..,..,..,sk
22936,Buena Vista,trail,saskatoon,..,..,..,..,sk
22937,Buena Vista,trail,saskatoon,..,..,..,..,sk
22938,Buena Vista,trail,saskatoon,..,..,..,..,sk
22939,Buena Vista,trail,saskatoon,..,..,..,..,sk
