Index,Facility_Name,ODRSF_facility_type,Provider,Street_No,Street_Name,Postal_Code,City,Prov_Terr
51394,Rotary,trail,saskatoon,..,..,..,..,sk
51395,Rotary,trail,saskatoon,..,..,..,..,sk
51396,Rotary,trail,saskatoon,..,..,..,..,sk
51397,Rotary,trail,saskatoon,..,..,..,..,sk
51398,Rotary,trail,saskatoon,..,..,..,..,sk
51399,Rotary,trail,saskatoon,..,..,..,..,sk
51400,Rotary,trail,saskatoon,..,..,..,..,sk
51401,Rotary,trail,saskatoon,..,..,..,..,sk
51402,Rotary,trail,saskatoon,..,..,..,..,sk
51403,Rotary,trail,saskatoon,..,..,..,..,sk
51404,Rotary,trail,saskatoon,..,..,..,..,sk
51405,Rotary,trail,saskatoon,..,..,..,..,sk
51406,Rotary,trail,saskatoon,..,..,..,..,sk
51407,Rotary,trail,saskatoon,..,..,..,..,sk
51470,Rouillard,trail,saskatoon,..,..,..,..,sk
51471,Rouillard,trail,saskatoon,..,..,..,..,sk
51740,Russell,trail,saskatoon,..,..,..,..,sk
51741,Russell,trail,saskatoon,..,..,..,..,sk
51759,Rutherford,trail,saskatoon,..,..,..,..,sk
51760,Rutherford,trail,saskatoon,..,..,..,..,sk
51761,Rutherford,trail,saskatoon,..,..,..,..,sk
51762,Rutter,trail,saskatoon,..,..,..,..,sk
51763,S,trail,saskatoon,..,..,..,..,sk
51796,Salisbury,trail,saskatoon,..,..,..,..,sk
51797,Salisbury,trail,saskatoon,..,..,..,..,sk
51798,Salisbury,trail,saskatoon,..,..,..,..,sk
51799,Salisbury,trail,saskatoon,..,..,..,..,sk
51893,Saskatchewan,trail,saskatoon,..,..,..,..,sk
51894,Saskatchewan,trail,saskatoon,..,..,..,..,sk
51895,Saskatoon And Forestry Farm,trail,saskatoon,..,..,..,..,sk
51896,Saskatoon And Forestry Farm,trail,saskatoon,..,..,..,..,sk
51897,Saskatoon And Forestry Farm,trail,saskatoon,..,..,..,..,sk
51898,Saskatoon And Forestry Farm,trail,saskatoon,..,..,..,..,sk
51899,Saskatoon And Forestry Farm,trail,saskatoon,..,..,..,..,sk
51900,Saskatoon And Forestry Farm,trail,saskatoon,..,..,..,..,sk
51901,Saskatoon And Forestry Farm,trail,saskatoon,..,..,..,..,sk
51902,Saskatoon And Forestry Farm,trail,saskatoon,..,..,..,..,sk
51903,Saskatoon And Forestry Farm,trail,saskatoon,..,..,..,..,sk
51904,Saskatoon And Forestry Farm,trail,saskatoon,..,..,..,..,sk
51905,Saskatoon And Forestry Farm,trail,saskatoon,..,..,..,..,sk
51906,Saskatoon And Forestry Farm,trail,saskatoon,..,..,..,..,sk
51907,Saskatoon And Forestry Farm,trail,saskatoon,..,..,..,..,sk
51908,Saskatoon And Forestry Farm,trail,saskatoon,..,..,..,..,sk
51909,Saskatoon And Forestry Farm,trail,saskatoon,..,..,..,..,sk
51910,Saskatoon And Forestry Farm,trail,saskatoon,..,..,..,..,sk
51911,Saskatoon And Forestry Farm,trail,saskatoon,..,..,..,..,sk
51912,Saskatoon And Forestry Farm,trail,saskatoon,..,..,..,..,sk
51913,Saskatoon And Forestry Farm,trail,saskatoon,..,..,..,..,sk
51914,Saskatoon And Forestry Farm,trail,saskatoon,..,..,..,..,sk
