Index,Facility_Name,ODRSF_facility_type,Provider,Street_No,Street_Name,Postal_Code,City,Prov_Terr
27732,Gabriel Dumont,trail,saskatoon,..,..,..,..,sk
27733,Gabriel Dumont,trail,saskatoon,..,..,..,..,sk
27734,Gabriel Dumont,trail,saskatoon,..,..,..,..,sk
27735,Gabriel Dumont,trail,saskatoon,..,..,..,..,sk
27736,Gabriel Dumont,trail,saskatoon,..,..,..,..,sk
27737,Gabriel Dumont,trail,saskatoon,..,..,..,..,sk
27738,Gabriel Dumont,trail,saskatoon,..,..,..,..,sk
27739,Gabriel Dumont,trail,saskatoon,..,..,..,..,sk
27740,Gabriel Dumont,trail,saskatoon,..,..,..,..,sk
27741,Gabriel Dumont,trail,saskatoon,..,..,..,..,sk
27742,Gabriel Dumont,trail,saskatoon,..,..,..,..,sk
27743,Gabriel Dumont,trail,saskatoon,..,..,..,..,sk
27744,Gabriel Dumont,trail,saskatoon,..,..,..,..,sk
27745,Gabriel Dumont,trail,saskatoon,..,..,..,..,sk
27746,Gabriel Dumont,trail,saskatoon,..,..,..,..,sk
27756,Galloway,trail,saskatoon,..,..,..,..,sk
27857,Garvie,trail,saskatoon,..,..,..,..,sk
27861,Gathercole,trail,saskatoon,..,..,..,..,sk
27889,Gd Archibald,trail,saskatoon,..,..,..,..,sk
27890,Gd Archibald,trail,saskatoon,..,..,..,..,sk
27891,Gd Archibald,trail,saskatoon,..,..,..,..,sk
27892,Gd Archibald,trail,saskatoon,..,..,..,..,sk
27893,Gd Archibald,trail,saskatoon,..,..,..,..,sk
27894,Gd Archibald,trail,saskatoon,..,..,..,..,sk
27895,Gd Archibald,trail,saskatoon,..,..,..,..,sk
27896,Gd Archibald,trail,saskatoon,..,..,..,..,sk
27901,Genereux,trail,saskatoon,..,..,..,..,sk
27902,Genereux,trail,saskatoon,..,..,..,..,sk
27914,George,trail,saskatoon,..,..,..,..,sk
27915,George,trail,saskatoon,..,..,..,..,sk
27974,George D Archibald Memorial,trail,saskatoon,..,..,..,..,sk
27975,George Dyck,trail,saskatoon,..,..,..,..,sk
27976,George Dyck,trail,saskatoon,..,..,..,..,sk
27977,George Dyck,trail,saskatoon,..,..,..,..,sk
27978,George Dyck,trail,saskatoon,..,..,..,..,sk
27979,George Dyck,trail,saskatoon,..,..,..,..,sk
27980,George Dyck,trail,saskatoon,..,..,..,..,sk
28031,Girgulis,trail,saskatoon,..,..,..,..,sk
28032,Girgulis,trail,saskatoon,..,..,..,..,sk
28033,Girgulis,trail,saskatoon,..,..,..,..,sk
28035,Glacier,trail,saskatoon,..,..,..,..,sk
28036,Glacier,trail,saskatoon,..,..,..,..,sk
28146,Goerzen,trail,saskatoon,..,..,..,..,sk
28228,Gordon,trail,saskatoon,..,..,..,..,sk
28232,Gordon Howe,trail,saskatoon,..,..,..,..,sk
28267,Gougeon,trail,saskatoon,..,..,..,..,sk
28268,Gougeon,trail,saskatoon,..,..,..,..,sk
28269,Gougeon,trail,saskatoon,..,..,..,..,sk
28270,Gougeon,trail,saskatoon,..,..,..,..,sk
