Index,Facility_Name,ODRSF_facility_type,Provider,Street_No,Street_Name,Postal_Code,City,Prov_Terr
24978,Crocus,trail,saskatoon,..,..,..,..,sk
24979,Crocus,trail,saskatoon,..,..,..,..,sk
24980,Crocus,trail,saskatoon,..,..,..,..,sk
24981,Crocus,trail,saskatoon,..,..,..,..,sk
24982,Crocus,trail,saskatoon,..,..,..,..,sk
24983,Crocus,trail,saskatoon,..,..,..,..,sk
24984,Crocus,trail,saskatoon,..,..,..,..,sk
24985,Crocus,trail,saskatoon,..,..,..,..,sk
24986,Crocus,trail,saskatoon,..,..,..,..,sk
24987,Crocus,trail,saskatoon,..,..,..,..,sk
24988,Crocus,trail,saskatoon,..,..,..,..,sk
24989,Crocus,trail,saskatoon,..,..,..,..,sk
24990,Crocus,trail,saskatoon,..,..,..,..,sk
24991,Crocus,trail,saskatoon,..,..,..,..,sk
24992,Crocus,trail,saskatoon,..,..,..,..,sk
24993,Crocus,trail,saskatoon,..,..,..,..,sk
24994,Crocus,trail,saskatoon,..,..,..,..,sk
24995,Crocus,trail,saskatoon,..,..,..,..,sk
24996,Crocus,trail,saskatoon,..,..,..,..,sk
24997,Crocus,trail,saskatoon,..,..,..,..,sk
24998,Crocus,trail,saskatoon,..,..,..,..,sk
24999,Crocus,trail,saskatoon,..,..,..,..,sk
25151,Cumberland,trail,saskatoon,..,..,..,..,sk
25152,Cumberland,trail,saskatoon,..,..,..,..,sk
25179,Dalgleish,trail,saskatoon,..,..,..,..,sk
25276,Dave King,trail,saskatoon,..,..,..,..,sk
25277,Dave King,trail,saskatoon,..,..,..,..,sk
25278,Dave King,trail,saskatoon,..,..,..,..,sk
25279,Dave King,trail,saskatoon,..,..,..,..,sk
25280,Dave King,trail,saskatoon,..,..,..,..,sk
25281,Dave King,trail,saskatoon,..,..,..,..,sk
25282,Dave King,trail,saskatoon,..,..,..,..,sk
25283,Dave King,trail,saskatoon,..,..,..,..,sk
25292,David Knight,trail,saskatoon,..,..,..,..,sk
25293,David Knight,trail,saskatoon,..,..,..,..,sk
25294,Davidson,trail,saskatoon,..,..,..,..,sk
25297,Davies,trail,saskatoon,..,..,..,..,sk
25298,Davies,trail,saskatoon,..,..,..,..,sk
25299,Davies,trail,saskatoon,..,..,..,..,sk
25387,Delaronde,trail,saskatoon,..,..,..,..,sk
25388,Delaronde,trail,saskatoon,..,..,..,..,sk
25389,Delaronde,trail,saskatoon,..,..,..,..,sk
25390,Delaronde,trail,saskatoon,..,..,..,..,sk
25391,Delaronde,trail,saskatoon,..,..,..,..,sk
25392,Delaronde,trail,saskatoon,..,..,..,..,sk
25393,Delayen,trail,saskatoon,..,..,..,..,sk
25394,Delayen,trail,saskatoon,..,..,..,..,sk
25395,Delayen,trail,saskatoon,..,..,..,..,sk
25396,Delayen,trail,saskatoon,..,..,..,..,sk
