Index,Facility_Name,ODRSF_facility_type,Provider,Street_No,Street_Name,Postal_Code,City,Prov_Terr
35601,Les Kerr,trail,saskatoon,..,..,..,..,sk
35602,Les Kerr,trail,saskatoon,..,..,..,..,sk
35603,Les Kerr,trail,saskatoon,..,..,..,..,sk
35604,Les Kerr,trail,saskatoon,..,..,..,..,sk
35605,Les Kerr,trail,saskatoon,..,..,..,..,sk
35606,Les Kerr,trail,saskatoon,..,..,..,..,sk
35607,Les Kerr,trail,saskatoon,..,..,..,..,sk
35608,Les Kerr,trail,saskatoon,..,..,..,..,sk
35665,Lewis,trail,saskatoon,..,..,..,..,sk
35739,Lindsay,trail,saskatoon,..,..,..,..,sk
35903,Lloyd,trail,saskatoon,..,..,..,..,sk
35904,Lloyd,trail,saskatoon,..,..,..,..,sk
35916,Lochrie,trail,saskatoon,..,..,..,..,sk
36047,Lorne,trail,saskatoon,..,..,..,..,sk
36048,Lorne,trail,saskatoon,..,..,..,..,sk
36049,Lorne,trail,saskatoon,..,..,..,..,sk
36086,Louise,trail,saskatoon,..,..,..,..,sk
36087,Louise,trail,saskatoon,..,..,..,..,sk
36091,Lowe,trail,saskatoon,..,..,..,..,sk
36092,Lowe,trail,saskatoon,..,..,..,..,sk
36093,Lowe,trail,saskatoon,..,..,..,..,sk
36094,Lowe,trail,saskatoon,..,..,..,..,sk
36116,Lt Col D Walker,trail,saskatoon,..,..,..,..,sk
36117,Lt Col D Walker,trail,saskatoon,..,..,..,..,sk
36118,Lt Col D Walker,trail,saskatoon,..,..,..,..,sk
36119,Lt Col D Walker,trail,saskatoon,..,..,..,..,sk
36120,Lt Col D Walker,trail,saskatoon,..,..,..,..,sk
36121,Lt Col D Walker,trail,saskatoon,..,..,..,..,sk
36122,Lt Gen Gg Simonds,trail,saskatoon,..,..,..,..,sk
36123,Lt Gen Gg Simonds,trail,saskatoon,..,..,..,..,sk
36124,Lt Gen Gg Simonds,trail,saskatoon,..,..,..,..,sk
36147,Mackenzie,trail,saskatoon,..,..,..,..,sk
36148,Mackenzie,trail,saskatoon,..,..,..,..,sk
36149,Mackenzie,trail,saskatoon,..,..,..,..,sk
36150,Mackie,trail,saskatoon,..,..,..,..,sk
36170,Madison,trail,saskatoon,..,..,..,..,sk
36171,Madison,trail,saskatoon,..,..,..,..,sk
36176,Maguire,trail,saskatoon,..,..,..,..,sk
36177,Main,trail,saskatoon,..,..,..,..,sk
36240,Mallin,trail,saskatoon,..,..,..,..,sk
36241,Mallin,trail,saskatoon,..,..,..,..,sk
36242,Mallin,trail,saskatoon,..,..,..,..,sk
36296,Manek,trail,saskatoon,..,..,..,..,sk
42816,Marcotte,trail,saskatoon,..,..,..,..,sk
42817,Marcotte,trail,saskatoon,..,..,..,..,sk
42822,Market,trail,saskatoon,..,..,..,..,sk
42823,Market,trail,saskatoon,..,..,..,..,sk
42966,Marlborough,trail,saskatoon,..,..,..,..,sk
42967,Marlborough,trail,saskatoon,..,..,..,..,sk
