Index,Facility_Name,ODRSF_facility_type,Provider,Street_No,Street_Name,Postal_Code,City,Prov_Terr
35181,Lanyon,trail,saskatoon,..,..,..,..,sk
35182,Lanyon,trail,saskatoon,..,..,..,..,sk
35183,Lanyon,trail,saskatoon,..,..,..,..,sk
35199,Lashyn,trail,saskatoon,..,..,..,..,sk
35200,Lashyn,trail,saskatoon,..,..,..,..,sk
35284,Laurentian,trail,saskatoon,..,..,..,..,sk
35285,Laurentian,trail,saskatoon,..,..,..,..,sk
35293,Laurier,trail,saskatoon,..,..,..,..,sk
35294,Laurier,trail,saskatoon,..,..,..,..,sk
35296,Laval,trail,saskatoon,..,..,..,..,sk
35318,Laycoe,trail,saskatoon,..,..,..,..,sk
35319,Laycoe,trail,saskatoon,..,..,..,..,sk
35320,Laycoe,trail,saskatoon,..,..,..,..,sk
35321,Laycoe,trail,saskatoon,..,..,..,..,sk
35326,Le May,trail,saskatoon,..,..,..,..,sk
35327,Le May,trail,saskatoon,..,..,..,..,sk
35508,Leif Erickson,trail,saskatoon,..,..,..,..,sk
35509,Leif Erickson,trail,saskatoon,..,..,..,..,sk
35510,Leif Erickson,trail,saskatoon,..,..,..,..,sk
35511,Leif Erickson,trail,saskatoon,..,..,..,..,sk
35567,Lennon,trail,saskatoon,..,..,..,..,sk
35568,Lenore,trail,saskatoon,..,..,..,..,sk
35569,Lenore,trail,saskatoon,..,..,..,..,sk
35570,Lenore,trail,saskatoon,..,..,..,..,sk
35571,Lenore,trail,saskatoon,..,..,..,..,sk
35572,Lenore,trail,saskatoon,..,..,..,..,sk
35573,Lenore,trail,saskatoon,..,..,..,..,sk
35574,Lenore,trail,saskatoon,..,..,..,..,sk
35575,Lenore,trail,saskatoon,..,..,..,..,sk
35576,Lenore,trail,saskatoon,..,..,..,..,sk
35581,Les Kerr,trail,saskatoon,..,..,..,..,sk
35582,Les Kerr,trail,saskatoon,..,..,..,..,sk
35583,Les Kerr,trail,saskatoon,..,..,..,..,sk
35584,Les Kerr,trail,saskatoon,..,..,..,..,sk
35585,Les Kerr,trail,saskatoon,..,..,..,..,sk
35586,Les Kerr,trail,saskatoon,..,..,..,..,sk
35587,Les Kerr,trail,saskatoon,..,..,..,..,sk
35588,Les Kerr,trail,saskatoon,..,..,..,..,sk
35589,Les Kerr,trail,saskatoon,..,..,..,..,sk
35590,Les Kerr,trail,saskatoon,..,..,..,..,sk
35591,Les Kerr,trail,saskatoon,..,..,..,..,sk
35592,Les Kerr,trail,saskatoon,..,..,..,..,sk
35593,Les Kerr,trail,saskatoon,..,..,..,..,sk
35594,Les Kerr,trail,saskatoon,..,..,..,..,sk
35595,Les Kerr,trail,saskatoon,..,..,..,..,sk
35596,Les Kerr,trail,saskatoon,..,..,..,..,sk
35597,Les Kerr,trail,saskatoon,..,..,..,..,sk
35598,Les Kerr,trail,saskatoon,..,..,..,..,sk
35599,Les Kerr,trail,saskatoon,..,..,..,..,sk
