Index,Facility_Name,ODRSF_facility_type,Provider,Street_No,Street_Name,Postal_Code,City,Prov_Terr
44785,Neault,trail,saskatoon,..,..,..,..,sk
44786,Neault,trail,saskatoon,..,..,..,..,sk
44790,Needham,trail,saskatoon,..,..,..,..,sk
44791,Needham,trail,saskatoon,..,..,..,..,sk
44792,Needham,trail,saskatoon,..,..,..,..,sk
44793,Needham,trail,saskatoon,..,..,..,..,sk
45321,Nelson,trail,saskatoon,..,..,..,..,sk
45322,Nelson,trail,saskatoon,..,..,..,..,sk
45323,Nelson,trail,saskatoon,..,..,..,..,sk
45324,Nelson,trail,saskatoon,..,..,..,..,sk
45325,Nelson,trail,saskatoon,..,..,..,..,sk
45326,Nelson,trail,saskatoon,..,..,..,..,sk
45327,Nelson,trail,saskatoon,..,..,..,..,sk
45328,Nelson,trail,saskatoon,..,..,..,..,sk
45329,Nelson,trail,saskatoon,..,..,..,..,sk
45330,Nelson,trail,saskatoon,..,..,..,..,sk
45331,Nelson,trail,saskatoon,..,..,..,..,sk
45332,Nelson,trail,saskatoon,..,..,..,..,sk
45333,Nelson,trail,saskatoon,..,..,..,..,sk
45334,Nelson,trail,saskatoon,..,..,..,..,sk
45335,Nelson,trail,saskatoon,..,..,..,..,sk
45336,Nelson,trail,saskatoon,..,..,..,..,sk
45337,Nelson,trail,saskatoon,..,..,..,..,sk
45338,Nelson,trail,saskatoon,..,..,..,..,sk
45339,Nelson,trail,saskatoon,..,..,..,..,sk
45340,Nelson,trail,saskatoon,..,..,..,..,sk
45341,Nelson,trail,saskatoon,..,..,..,..,sk
45352,Nemeiben,trail,saskatoon,..,..,..,..,sk
45353,Nesbitt,trail,saskatoon,..,..,..,..,sk
45354,Nesbitt,trail,saskatoon,..,..,..,..,sk
45355,Nesbitt,trail,saskatoon,..,..,..,..,sk
45356,Nesslin,trail,saskatoon,..,..,..,..,sk
45357,Nesslin,trail,saskatoon,..,..,..,..,sk
45358,Neusch,trail,saskatoon,..,..,..,..,sk
45359,Neusch,trail,saskatoon,..,..,..,..,sk
45605,Nicholson,trail,saskatoon,..,..,..,..,sk
45626,Nixon,trail,saskatoon,..,..,..,..,sk
45719,Nokomis,trail,saskatoon,..,..,..,..,sk
48240,Nordstrum,trail,saskatoon,..,..,..,..,sk
48241,Nordstrum,trail,saskatoon,..,..,..,..,sk
48242,Nordstrum,trail,saskatoon,..,..,..,..,sk
48245,North,trail,saskatoon,..,..,..,..,sk
48373,Northridge,trail,saskatoon,..,..,..,..,sk
48376,Northumberland,trail,saskatoon,..,..,..,..,sk
48377,Northumberland,trail,saskatoon,..,..,..,..,sk
48447,Nutana Kiwanis,trail,saskatoon,..,..,..,..,sk
48448,Nutana Kiwanis,trail,saskatoon,..,..,..,..,sk
48449,O,trail,saskatoon,..,..,..,..,sk
48509,O'Brien,trail,saskatoon,..,..,..,..,sk
