Index,Facility_Name,ODRSF_facility_type,Provider,Street_No,Street_Name,Postal_Code,City,Prov_Terr
7067,Act Arena,sports field,saskatoon,..,..,..,..,sk
7070,Adelaide,sports field,saskatoon,..,..,..,..,sk
7071,Adelaide - Ball Field #1,sports field,saskatoon,..,..,..,..,sk
7089,Agriplace,sports field,saskatoon,..,..,..,..,sk
7090,Ah Browne - Ball Field #1,sports field,saskatoon,..,..,..,..,sk
7091,Ah Browne - Ball Field #2,sports field,saskatoon,..,..,..,..,sk
7092,Ah Browne - Basketball Court #1,sports field,saskatoon,..,..,..,..,sk
7093,Ah Browne - Basketball Court #2,sports field,saskatoon,..,..,..,..,sk
7094,Ah Browne - Soccer #3,sports field,saskatoon,..,..,..,..,sk
7099,Al Anderson Ball Field #1,sports field,saskatoon,..,..,..,..,sk
7100,Al Anderson Soccer Field #2,sports field,saskatoon,..,..,..,..,sk
7101,Al Anderson Soccer Field #3,sports field,saskatoon,..,..,..,..,sk
7107,Albert - Tennis Court #1,sports field,saskatoon,..,..,..,..,sk
7108,Albert - Tennis Court #2,sports field,saskatoon,..,..,..,..,sk
7110,Albert Recreational Unit - Basketball Court #1,sports field,saskatoon,..,..,..,..,sk
7111,Albert Recreational Unit - Basketball Court #2,sports field,saskatoon,..,..,..,..,sk
7181,Am Young Ball Field #1,sports field,saskatoon,..,..,..,..,sk
7182,Am Young Soccer Field #2,sports field,saskatoon,..,..,..,..,sk
7214,Anna Mcintosh - Ball Field #1,sports field,saskatoon,..,..,..,..,sk
7247,Arbor Creek,sports field,saskatoon,..,..,..,..,sk
7248,Arbor Creek - Ball Field #1,sports field,saskatoon,..,..,..,..,sk
7249,Arbor Creek - Basketball Court #1,sports field,saskatoon,..,..,..,..,sk
7250,Arbor Creek - Basketball Court #2,sports field,saskatoon,..,..,..,..,sk
7251,Arbor Creek - Soccer #2,sports field,saskatoon,..,..,..,..,sk
7255,Archibald Arena,sports field,saskatoon,..,..,..,..,sk
7256,Archibald Mcdonald - Ball Field #1,sports field,saskatoon,..,..,..,..,sk
7257,Archibald Mcdonald - Ball Field #2,sports field,saskatoon,..,..,..,..,sk
7258,Archibald Mcdonald - Ball Field #3,sports field,saskatoon,..,..,..,..,sk
7259,Archibald Mcdonald - Ball Field #4,sports field,saskatoon,..,..,..,..,sk
7260,Archibald Mcdonald - Basketball Court #1,sports field,saskatoon,..,..,..,..,sk
7261,Archibald Mcdonald - Basketball Court #2,sports field,saskatoon,..,..,..,..,sk
7295,As Wright - Ball Field #1,sports field,saskatoon,..,..,..,..,sk
7296,As Wright - Ball Field #2,sports field,saskatoon,..,..,..,..,sk
7297,As Wright - Ball Field #3,sports field,saskatoon,..,..,..,..,sk
7298,As Wright - Ball Field #4,sports field,saskatoon,..,..,..,..,sk
7309,Ashworth Holmes - Basketball Court #1,sports field,saskatoon,..,..,..,..,sk
7310,Ashworth Holmes - Basketball Court #2,sports field,saskatoon,..,..,..,..,sk
7311,Ashworth Holmes - Green #1,sports field,saskatoon,..,..,..,..,sk
7312,Ashworth Holmes - Green #2,sports field,saskatoon,..,..,..,..,sk
7313,Ashworth Holmes - Soccer Field #1,sports field,saskatoon,..,..,..,..,sk
7314,Ashworth Holmes - Tennis Court #,sports field,saskatoon,..,..,..,..,sk
7369,Atlantic - Soccer #1,sports field,saskatoon,..,..,..,..,sk
7370,Atlantic - Soccer #2,sports field,saskatoon,..,..,..,..,sk
7382,Avalon,sports field,saskatoon,..,..,..,..,sk
7383,Avalon - Basketball Court #1,sports field,saskatoon,..,..,..,..,sk
7384,Avalon - Basketball Court #2,sports field,saskatoon,..,..,..,..,sk
9015,Bishop James P Mahoney - Ball Field #1,sports field,saskatoon,..,..,..,..,sk
9016,Bishop James P Mahoney - Soccer #2,sports field,saskatoon,..,..,..,..,sk
9017,Bishop James P Mahoney - Soccer #3,sports field,saskatoon,..,..,..,..,sk
