Index,Facility_Name,ODRSF_facility_type,Provider,Street_No,Street_Name,Postal_Code,City,Prov_Terr
168072,Harold Tatler North,park,saskatoon,..,..,..,..,sk
168073,Harold Tatler South,park,saskatoon,..,..,..,..,sk
168259,Henry Baker,park,saskatoon,..,..,..,..,sk
168266,Henry Kelsey,park,saskatoon,..,..,..,..,sk
168267,Henry Kelsey North,park,saskatoon,..,..,..,..,sk
168292,Herbert S Sears,park,saskatoon,..,..,..,..,sk
168293,Herbert Stewart,park,saskatoon,..,..,..,..,sk
168297,Heritage,park,saskatoon,..,..,..,..,sk
168307,Heritage Green,park,saskatoon,..,..,..,..,sk
168477,Hilliard Gardner,park,saskatoon,..,..,..,..,sk
168528,Holiday,park,saskatoon,..,..,..,..,sk
168529,Holiday Park,park,saskatoon,..,..,..,..,sk
168531,Holland,park,saskatoon,..,..,..,..,sk
168543,Holliston,park,saskatoon,..,..,..,..,sk
168598,Horn,park,saskatoon,..,..,..,..,sk
168626,Howard Harding,park,saskatoon,..,..,..,..,sk
168725,Hyde,park,saskatoon,..,..,..,..,sk
168774,Idylwyld,park,saskatoon,..,..,..,..,sk
168870,Isinger,park,saskatoon,..,..,..,..,sk
168957,James Anderson,park,saskatoon,..,..,..,..,sk
168963,James Girgulis,park,saskatoon,..,..,..,..,sk
169041,Jeffery,park,saskatoon,..,..,..,..,sk
169043,Jeffrey J Charlebois,park,saskatoon,..,..,..,..,sk
169068,Jill Postlethwaite,park,saskatoon,..,..,..,..,sk
169107,John Avant,park,saskatoon,..,..,..,..,sk
169116,John Brockelbank,park,saskatoon,..,..,..,..,sk
169127,John Cameron,park,saskatoon,..,..,..,..,sk
169143,John Duerkop,park,saskatoon,..,..,..,..,sk
169161,John Lake,park,saskatoon,..,..,..,..,sk
169355,Kate Waygood,park,saskatoon,..,..,..,..,sk
169453,Kensington Square,park,saskatoon,..,..,..,..,sk
169476,Kershaw,park,saskatoon,..,..,..,..,sk
169496,Kilburn,park,saskatoon,..,..,..,..,sk
169585,Kinsmen,park,saskatoon,..,..,..,..,sk
169619,Kistikan,park,saskatoon,..,..,..,..,sk
169633,Kiwanis Memorial,park,saskatoon,..,..,..,..,sk
169654,Klombies,park,saskatoon,..,..,..,..,sk
169895,Kopko,park,saskatoon,..,..,..,..,sk
169899,Korpan,park,saskatoon,..,..,..,..,sk
169914,Kusch,park,saskatoon,..,..,..,..,sk
169941,Lacoursiere,park,saskatoon,..,..,..,..,sk
170016,Lakeview,park,saskatoon,..,..,..,..,sk
170031,Lakewood,park,saskatoon,..,..,..,..,sk
170115,Larkhaven,park,saskatoon,..,..,..,..,sk
170136,Latham,park,saskatoon,..,..,..,..,sk
170238,Leif Erickson,park,saskatoon,..,..,..,..,sk
170275,Les Kerr,park,saskatoon,..,..,..,..,sk
170414,Lions Century,park,saskatoon,..,..,..,..,sk
170626,Lt Colonel D Walker,park,saskatoon,..,..,..,..,sk
