Index,Facility_Name,ODRSF_facility_type,Provider,Street_No,Street_Name,Postal_Code,City,Prov_Terr
175317,Rugby Fields,park,saskatoon,..,..,..,..,sk
175525,Saskatoon Golf And Country Club,park,saskatoon,..,..,..,..,sk
175613,Scott,park,saskatoon,..,..,..,..,sk
175666,Sed Industrial #3,park,saskatoon,..,..,..,..,sk
175681,Senator J Hnatyshyn,park,saskatoon,..,..,..,..,sk
175682,Senator James Gladstone,park,saskatoon,..,..,..,..,sk
175882,Sidney L Buckwold,park,saskatoon,..,..,..,..,sk
175888,Sifton,park,saskatoon,..,..,..,..,sk
175915,Silverspring,park,saskatoon,..,..,..,..,sk
175916,Silverspring Linear,park,saskatoon,..,..,..,..,sk
175922,Silverwood,park,saskatoon,..,..,..,..,sk
175923,Silverwood Adilman Linkage,park,saskatoon,..,..,..,..,sk
176302,St Andrews,park,saskatoon,..,..,..,..,sk
176381,St Patrick,park,saskatoon,..,..,..,..,sk
176593,Steve Patola,park,saskatoon,..,..,..,..,sk
176708,Struthers,park,saskatoon,..,..,..,..,sk
176851,Sutherland,park,saskatoon,..,..,..,..,sk
176881,Swick,park,saskatoon,..,..,..,..,sk
176917,Szumigalski,park,saskatoon,..,..,..,..,sk
177086,The Willows,park,saskatoon,..,..,..,..,sk
177157,Thornton,park,saskatoon,..,..,..,..,sk
177212,Tj Quigley,park,saskatoon,..,..,..,..,sk
177417,Trounce,park,saskatoon,..,..,..,..,sk
177502,Umea,park,saskatoon,..,..,..,..,sk
177503,Umea Vast,park,saskatoon,..,..,..,..,sk
177547,University Heights,park,saskatoon,..,..,..,..,sk
177802,Varley,park,saskatoon,..,..,..,..,sk
177852,Victoria,park,saskatoon,..,..,..,..,sk
177971,Wa Reid,park,saskatoon,..,..,..,..,sk
177999,Wallace,park,saskatoon,..,..,..,..,sk
178027,Walter Wood,park,saskatoon,..,..,..,..,sk
178139,Weaver,park,saskatoon,..,..,..,..,sk
178320,Westmount,park,saskatoon,..,..,..,..,sk
178430,Wiggins,park,saskatoon,..,..,..,..,sk
178452,Wildwood,park,saskatoon,..,..,..,..,sk
178477,William Anderson,park,saskatoon,..,..,..,..,sk
178518,William Sarjeant,park,saskatoon,..,..,..,..,sk
178564,Willowgrove Square,park,saskatoon,..,..,..,..,sk
178584,Wilson,park,saskatoon,..,..,..,..,sk
178683,Wjl Harvey,park,saskatoon,..,..,..,..,sk
178684,Wjl Harvey South,park,saskatoon,..,..,..,..,sk
178794,Ww Ashley,park,saskatoon,..,..,..,..,sk
