Index,Facility_Name,ODRSF_facility_type,Provider,Street_No,Street_Name,Postal_Code,City,Prov_Terr
49356,Parkridge,trail,saskatoon,..,..,..,..,sk
49357,Parkridge,trail,saskatoon,..,..,..,..,sk
49358,Parkridge,trail,saskatoon,..,..,..,..,sk
49359,Parkridge,trail,saskatoon,..,..,..,..,sk
49360,Parkridge,trail,saskatoon,..,..,..,..,sk
49361,Parkridge,trail,saskatoon,..,..,..,..,sk
49362,Parkridge,trail,saskatoon,..,..,..,..,sk
49363,Parkridge,trail,saskatoon,..,..,..,..,sk
49364,Parkridge,trail,saskatoon,..,..,..,..,sk
49365,Parkridge,trail,saskatoon,..,..,..,..,sk
49366,Parkridge,trail,saskatoon,..,..,..,..,sk
49367,Parkridge,trail,saskatoon,..,..,..,..,sk
49368,Parkridge,trail,saskatoon,..,..,..,..,sk
49369,Parkridge,trail,saskatoon,..,..,..,..,sk
49370,Parkridge,trail,saskatoon,..,..,..,..,sk
49371,Parkridge,trail,saskatoon,..,..,..,..,sk
49372,Parkridge,trail,saskatoon,..,..,..,..,sk
49373,Parkridge,trail,saskatoon,..,..,..,..,sk
49374,Parkridge,trail,saskatoon,..,..,..,..,sk
49375,Parkridge,trail,saskatoon,..,..,..,..,sk
49376,Parkridge,trail,saskatoon,..,..,..,..,sk
49377,Parkridge,trail,saskatoon,..,..,..,..,sk
49698,Peberdy,trail,saskatoon,..,..,..,..,sk
49699,Peberdy,trail,saskatoon,..,..,..,..,sk
49719,Pembina,trail,saskatoon,..,..,..,..,sk
49720,Pembina,trail,saskatoon,..,..,..,..,sk
49721,Pembina,trail,saskatoon,..,..,..,..,sk
49729,Penryn,trail,saskatoon,..,..,..,..,sk
49730,Penryn,trail,saskatoon,..,..,..,..,sk
49731,Penryn,trail,saskatoon,..,..,..,..,sk
49743,Perreault,trail,saskatoon,..,..,..,..,sk
49744,Perreault,trail,saskatoon,..,..,..,..,sk
49745,Perreault,trail,saskatoon,..,..,..,..,sk
49746,Perreault,trail,saskatoon,..,..,..,..,sk
49747,Perreault,trail,saskatoon,..,..,..,..,sk
49748,Perreault,trail,saskatoon,..,..,..,..,sk
49780,Peter Pond,trail,saskatoon,..,..,..,..,sk
49781,Peter Pond,trail,saskatoon,..,..,..,..,sk
49782,Peter Pond,trail,saskatoon,..,..,..,..,sk
49783,Peter Pond,trail,saskatoon,..,..,..,..,sk
49784,Peter Pond,trail,saskatoon,..,..,..,..,sk
49785,Peter Pond,trail,saskatoon,..,..,..,..,sk
49786,Peter Pond,trail,saskatoon,..,..,..,..,sk
49787,Peter Pond,trail,saskatoon,..,..,..,..,sk
49788,Peter Zakreski,trail,saskatoon,..,..,..,..,sk
49789,Peter Zakreski,trail,saskatoon,..,..,..,..,sk
49790,Peter Zakreski,trail,saskatoon,..,..,..,..,sk
49791,Peter Zakreski,trail,saskatoon,..,..,..,..,sk
49792,Peter Zakreski,trail,saskatoon,..,..,..,..,sk
