Index,Facility_Name,ODRSF_facility_type,Provider,Street_No,Street_Name,Postal_Code,City,Prov_Terr
31038,John Lake,trail,saskatoon,..,..,..,..,sk
31039,John Lake,trail,saskatoon,..,..,..,..,sk
31040,John Lake,trail,saskatoon,..,..,..,..,sk
31041,John Lake,trail,saskatoon,..,..,..,..,sk
31042,John Lake,trail,saskatoon,..,..,..,..,sk
31043,John Lake,trail,saskatoon,..,..,..,..,sk
31044,John Lake,trail,saskatoon,..,..,..,..,sk
31045,John Lake,trail,saskatoon,..,..,..,..,sk
31046,John Lake,trail,saskatoon,..,..,..,..,sk
31105,Johnson,trail,saskatoon,..,..,..,..,sk
31170,Junor,trail,saskatoon,..,..,..,..,sk
31172,K,trail,saskatoon,..,..,..,..,sk
31173,K,trail,saskatoon,..,..,..,..,sk
31227,Keller,trail,saskatoon,..,..,..,..,sk
31228,Kellins,trail,saskatoon,..,..,..,..,sk
31229,Kellins,trail,saskatoon,..,..,..,..,sk
31230,Kellins,trail,saskatoon,..,..,..,..,sk
31231,Kellough,trail,saskatoon,..,..,..,..,sk
31236,Kerr,trail,saskatoon,..,..,..,..,sk
31237,Kerr,trail,saskatoon,..,..,..,..,sk
31238,Kershaw,trail,saskatoon,..,..,..,..,sk
31239,Kershaw,trail,saskatoon,..,..,..,..,sk
31256,Kindrachuk,trail,saskatoon,..,..,..,..,sk
31301,Kingsmere,trail,saskatoon,..,..,..,..,sk
31302,Kingsmere,trail,saskatoon,..,..,..,..,sk
31303,Kingsmere,trail,saskatoon,..,..,..,..,sk
31304,Kingsmere,trail,saskatoon,..,..,..,..,sk
31305,Kingsmere,trail,saskatoon,..,..,..,..,sk
31306,Kingsmere,trail,saskatoon,..,..,..,..,sk
31307,Kingsmere,trail,saskatoon,..,..,..,..,sk
31308,Kinnear,trail,saskatoon,..,..,..,..,sk
31309,Kinnear,trail,saskatoon,..,..,..,..,sk
31310,Kinnear,trail,saskatoon,..,..,..,..,sk
31311,Kinnear,trail,saskatoon,..,..,..,..,sk
31312,Kinnear,trail,saskatoon,..,..,..,..,sk
31313,Kinnear,trail,saskatoon,..,..,..,..,sk
31314,Kinnear,trail,saskatoon,..,..,..,..,sk
31315,Kinnear,trail,saskatoon,..,..,..,..,sk
31316,Kinnear,trail,saskatoon,..,..,..,..,sk
31317,Kinsmen,trail,saskatoon,..,..,..,..,sk
31318,Kinsmen,trail,saskatoon,..,..,..,..,sk
31319,Kinsmen,trail,saskatoon,..,..,..,..,sk
31320,Kinsmen,trail,saskatoon,..,..,..,..,sk
31321,Kinsmen,trail,saskatoon,..,..,..,..,sk
31322,Kinsmen,trail,saskatoon,..,..,..,..,sk
31323,Kinsmen,trail,saskatoon,..,..,..,..,sk
31324,Kinsmen,trail,saskatoon,..,..,..,..,sk
31325,Kinsmen,trail,saskatoon,..,..,..,..,sk
31326,Kinsmen,trail,saskatoon,..,..,..,..,sk
