Index,Facility_Name,ODRSF_facility_type,Provider,Street_No,Street_Name,Postal_Code,City,Prov_Terr
29076,Haslam,trail,saskatoon,..,..,..,..,sk
29077,Haslam,trail,saskatoon,..,..,..,..,sk
29078,Haslam,trail,saskatoon,..,..,..,..,sk
29079,Haslam,trail,saskatoon,..,..,..,..,sk
29116,Heggie,trail,saskatoon,..,..,..,..,sk
29117,Heise,trail,saskatoon,..,..,..,..,sk
29118,Heise,trail,saskatoon,..,..,..,..,sk
29119,Heise,trail,saskatoon,..,..,..,..,sk
29298,Henigman,trail,saskatoon,..,..,..,..,sk
29301,Henry Kelsey,trail,saskatoon,..,..,..,..,sk
29302,Henry Kelsey,trail,saskatoon,..,..,..,..,sk
29303,Henry Kelsey,trail,saskatoon,..,..,..,..,sk
29304,Henry Kelsey,trail,saskatoon,..,..,..,..,sk
29305,Henry Kelsey,trail,saskatoon,..,..,..,..,sk
29306,Henry Kelsey,trail,saskatoon,..,..,..,..,sk
29307,Henry Kelsey,trail,saskatoon,..,..,..,..,sk
29308,Henry Kelsey,trail,saskatoon,..,..,..,..,sk
29309,Henry Kelsey,trail,saskatoon,..,..,..,..,sk
29310,Henry Kelsey,trail,saskatoon,..,..,..,..,sk
29311,Henry Kelsey,trail,saskatoon,..,..,..,..,sk
29312,Henry Kelsey,trail,saskatoon,..,..,..,..,sk
29313,Henry Kelsey,trail,saskatoon,..,..,..,..,sk
29314,Henry Kelsey,trail,saskatoon,..,..,..,..,sk
29315,Henry Kelsey,trail,saskatoon,..,..,..,..,sk
29316,Henry Kelsey,trail,saskatoon,..,..,..,..,sk
29317,Henry Kelsey,trail,saskatoon,..,..,..,..,sk
29318,Henry Kelsey,trail,saskatoon,..,..,..,..,sk
29319,Henry Kelsey,trail,saskatoon,..,..,..,..,sk
29320,Henry Kelsey,trail,saskatoon,..,..,..,..,sk
29321,Henry Kelsey,trail,saskatoon,..,..,..,..,sk
29355,Herbert S Sears,trail,saskatoon,..,..,..,..,sk
29356,Herbert S Sears,trail,saskatoon,..,..,..,..,sk
29357,Herbert S Sears,trail,saskatoon,..,..,..,..,sk
29358,Herbert S Sears,trail,saskatoon,..,..,..,..,sk
29359,Herbert S Sears,trail,saskatoon,..,..,..,..,sk
29360,Herbert Stewart,trail,saskatoon,..,..,..,..,sk
29361,Herbert Stewart,trail,saskatoon,..,..,..,..,sk
29362,Herbert Stewart,trail,saskatoon,..,..,..,..,sk
29363,Herbert Stewart,trail,saskatoon,..,..,..,..,sk
29364,Herbert Stewart,trail,saskatoon,..,..,..,..,sk
29365,Herbert Stewart,trail,saskatoon,..,..,..,..,sk
29366,Herbert Stewart,trail,saskatoon,..,..,..,..,sk
29367,Herbert Stewart,trail,saskatoon,..,..,..,..,sk
29368,Herbert Stewart,trail,saskatoon,..,..,..,..,sk
29369,Herbert Stewart,trail,saskatoon,..,..,..,..,sk
29370,Heritage,trail,saskatoon,..,..,..,..,sk
29371,Heritage,trail,saskatoon,..,..,..,..,sk
29372,Heritage,trail,saskatoon,..,..,..,..,sk
29373,Heritage,trail,saskatoon,..,..,..,..,sk
