Index,Facility_Name,ODRSF_facility_type,Provider,Street_No,Street_Name,Postal_Code,City,Prov_Terr
12538,Kistikan - Green #5,sports field,saskatoon,..,..,..,..,sk
12539,Kistikan Soccer Field #4,sports field,saskatoon,..,..,..,..,sk
12540,Kistikan Soccer Field #5,sports field,saskatoon,..,..,..,..,sk
12805,Lakeridge,sports field,saskatoon,..,..,..,..,sk
12813,Lakeview,sports field,saskatoon,..,..,..,..,sk
12814,Lakeview - Ball Field #1,sports field,saskatoon,..,..,..,..,sk
12815,Lakeview - Ball Field #2,sports field,saskatoon,..,..,..,..,sk
12816,Lakeview - Ball Field #3,sports field,saskatoon,..,..,..,..,sk
12817,Lakeview - Ball Field #4,sports field,saskatoon,..,..,..,..,sk
12818,Lakeview - Ball Field #5,sports field,saskatoon,..,..,..,..,sk
12819,Lakeview - Soccer #6,sports field,saskatoon,..,..,..,..,sk
12820,Lakeview - Soccer #7,sports field,saskatoon,..,..,..,..,sk
12821,Lakeview - Soccer #8,sports field,saskatoon,..,..,..,..,sk
12822,Lakeview - Soccer #9,sports field,saskatoon,..,..,..,..,sk
12823,Lakeview - Tennis Court #1,sports field,saskatoon,..,..,..,..,sk
12824,Lakeview - Tennis Court #2,sports field,saskatoon,..,..,..,..,sk
12825,Lakeview - Tennis Court #3,sports field,saskatoon,..,..,..,..,sk
12838,Lakewood Ball Field #1,sports field,saskatoon,..,..,..,..,sk
12839,Lakewood Ball Field #2,sports field,saskatoon,..,..,..,..,sk
12840,Lakewood Civic Centre,sports field,saskatoon,..,..,..,..,sk
12843,Lakewood Soccer Field #3,sports field,saskatoon,..,..,..,..,sk
12907,Lathey Pool,sports field,saskatoon,..,..,..,..,sk
12943,Lawson Civic Centre,sports field,saskatoon,..,..,..,..,sk
12944,Lawson Heights,sports field,saskatoon,..,..,..,..,sk
12977,Leif Erickson - Green #1,sports field,saskatoon,..,..,..,..,sk
13006,Les Kerr - Ball Field #1,sports field,saskatoon,..,..,..,..,sk
13007,Les Kerr - Ball Field #2,sports field,saskatoon,..,..,..,..,sk
13008,Les Kerr - Ball Field #3,sports field,saskatoon,..,..,..,..,sk
13009,Les Kerr - Ball Field #4,sports field,saskatoon,..,..,..,..,sk
13010,Les Kerr - Ball Field #5,sports field,saskatoon,..,..,..,..,sk
13011,Les Kerr - Ball Field #6,sports field,saskatoon,..,..,..,..,sk
13012,Les Kerr - Soccer #7,sports field,saskatoon,..,..,..,..,sk
13075,Lions Arena,sports field,saskatoon,..,..,..,..,sk
13179,Lt Colonel D Walker - Green #1,sports field,saskatoon,..,..,..,..,sk
13180,Lt General Gg Simonds - Green #1,sports field,saskatoon,..,..,..,..,sk
13417,Massey Place,sports field,saskatoon,..,..,..,..,sk
13434,Mayfair,sports field,saskatoon,..,..,..,..,sk
13436,Mayfair Pool,sports field,saskatoon,..,..,..,..,sk
13543,Meadowgreen,sports field,saskatoon,..,..,..,..,sk
13544,Meadowgreen,sports field,saskatoon,..,..,..,..,sk
13545,Meadowgreen - Basketball Court #1,sports field,saskatoon,..,..,..,..,sk
13546,Meadowgreen - Basketball Court #2,sports field,saskatoon,..,..,..,..,sk
13556,Meadowlark - Basketball Caourt #1,sports field,saskatoon,..,..,..,..,sk
13790,Montgomery Park - Ball Field #1,sports field,saskatoon,..,..,..,..,sk
13794,Montgomery Place,sports field,saskatoon,..,..,..,..,sk
13832,Morris T Cherneskey Ball Field #1,sports field,saskatoon,..,..,..,..,sk
13833,Morris T Cherneskey Ball Field #2,sports field,saskatoon,..,..,..,..,sk
13834,Morris T Cherneskey Ball Field #3,sports field,saskatoon,..,..,..,..,sk
13835,Morris T Cherneskey Soccer Field #1,sports field,saskatoon,..,..,..,..,sk
