Index,Facility_Name,ODRSF_facility_type,Provider,Street_No,Street_Name,Postal_Code,City,Prov_Terr
31416,Kiwanis Memorial,trail,saskatoon,..,..,..,..,sk
31417,Kiwanis Memorial,trail,saskatoon,..,..,..,..,sk
31418,Kiwanis Memorial,trail,saskatoon,..,..,..,..,sk
31419,Kiwanis Memorial,trail,saskatoon,..,..,..,..,sk
31420,Kiwanis Memorial,trail,saskatoon,..,..,..,..,sk
31421,Kiwanis Memorial,trail,saskatoon,..,..,..,..,sk
31422,Kiwanis Memorial,trail,saskatoon,..,..,..,..,sk
31423,Kiwanis Memorial,trail,saskatoon,..,..,..,..,sk
31424,Kiwanis Memorial,trail,saskatoon,..,..,..,..,sk
31425,Kiwanis Memorial,trail,saskatoon,..,..,..,..,sk
31426,Kiwanis Memorial,trail,saskatoon,..,..,..,..,sk
31427,Kiwanis Memorial,trail,saskatoon,..,..,..,..,sk
31428,Kiwanis Memorial,trail,saskatoon,..,..,..,..,sk
31429,Kiwanis Memorial,trail,saskatoon,..,..,..,..,sk
31430,Kiwanis Memorial,trail,saskatoon,..,..,..,..,sk
31431,Kiwanis Memorial,trail,saskatoon,..,..,..,..,sk
31432,Kiwanis Memorial,trail,saskatoon,..,..,..,..,sk
31433,Kiwanis Memorial,trail,saskatoon,..,..,..,..,sk
31434,Kiwanis Memorial,trail,saskatoon,..,..,..,..,sk
31435,Kiwanis Memorial,trail,saskatoon,..,..,..,..,sk
31436,Kiwanis Memorial,trail,saskatoon,..,..,..,..,sk
31437,Kiwanis Memorial,trail,saskatoon,..,..,..,..,sk
31438,Kiwanis Memorial,trail,saskatoon,..,..,..,..,sk
31439,Kiwanis Memorial,trail,saskatoon,..,..,..,..,sk
31440,Kiwanis Memorial,trail,saskatoon,..,..,..,..,sk
31477,Klaehn,trail,saskatoon,..,..,..,..,sk
31478,Klaehn,trail,saskatoon,..,..,..,..,sk
31479,Klaehn,trail,saskatoon,..,..,..,..,sk
31480,Klaehn,trail,saskatoon,..,..,..,..,sk
34826,Knowles,trail,saskatoon,..,..,..,..,sk
34837,Konihowski,trail,saskatoon,..,..,..,..,sk
34838,Konihowski,trail,saskatoon,..,..,..,..,sk
34839,Konihowski,trail,saskatoon,..,..,..,..,sk
34840,Konihowski,trail,saskatoon,..,..,..,..,sk
34841,Konihowski,trail,saskatoon,..,..,..,..,sk
34842,Kootenay,trail,saskatoon,..,..,..,..,sk
34843,Kopko,trail,saskatoon,..,..,..,..,sk
34844,Kopko,trail,saskatoon,..,..,..,..,sk
34845,Korol,trail,saskatoon,..,..,..,..,sk
34846,Korol,trail,saskatoon,..,..,..,..,sk
34848,Kucey,trail,saskatoon,..,..,..,..,sk
34849,Kucey,trail,saskatoon,..,..,..,..,sk
34850,Kusch,trail,saskatoon,..,..,..,..,sk
34851,Kusch,trail,saskatoon,..,..,..,..,sk
34852,Kusch,trail,saskatoon,..,..,..,..,sk
34853,Kusch,trail,saskatoon,..,..,..,..,sk
34854,Kusch,trail,saskatoon,..,..,..,..,sk
34855,Kusch,trail,saskatoon,..,..,..,..,sk
34856,Kusch,trail,saskatoon,..,..,..,..,sk
