Index,Facility_Name,ODRSF_facility_type,Provider,Street_No,Street_Name,Postal_Code,City,Prov_Terr
51916,Saskatoon And Forestry Farm,trail,saskatoon,..,..,..,..,sk
51917,Saskatoon And Forestry Farm,trail,saskatoon,..,..,..,..,sk
51918,Saskatoon And Forestry Farm,trail,saskatoon,..,..,..,..,sk
51919,Saskatoon And Forestry Farm,trail,saskatoon,..,..,..,..,sk
51920,Saskatoon And Forestry Farm,trail,saskatoon,..,..,..,..,sk
51921,Saskatoon And Forestry Farm,trail,saskatoon,..,..,..,..,sk
51922,Saskatoon And Forestry Farm,trail,saskatoon,..,..,..,..,sk
51923,Saskatoon And Forestry Farm,trail,saskatoon,..,..,..,..,sk
51924,Saskatoon And Forestry Farm,trail,saskatoon,..,..,..,..,sk
51925,Saskatoon And Forestry Farm,trail,saskatoon,..,..,..,..,sk
51926,Saskatoon And Forestry Farm,trail,saskatoon,..,..,..,..,sk
51927,Saskatoon And Forestry Farm,trail,saskatoon,..,..,..,..,sk
51928,Saskatoon And Forestry Farm,trail,saskatoon,..,..,..,..,sk
51929,Saskatoon And Forestry Farm,trail,saskatoon,..,..,..,..,sk
51930,Saskatoon And Forestry Farm,trail,saskatoon,..,..,..,..,sk
51931,Saskatoon And Forestry Farm,trail,saskatoon,..,..,..,..,sk
51932,Saskatoon And Forestry Farm,trail,saskatoon,..,..,..,..,sk
51933,Saskatoon And Forestry Farm,trail,saskatoon,..,..,..,..,sk
51934,Saskatoon And Forestry Farm,trail,saskatoon,..,..,..,..,sk
51935,Saskatoon And Forestry Farm,trail,saskatoon,..,..,..,..,sk
51936,Saskatoon And Forestry Farm,trail,saskatoon,..,..,..,..,sk
51937,Saskatoon And Forestry Farm,trail,saskatoon,..,..,..,..,sk
51938,Saskatoon And Forestry Farm,trail,saskatoon,..,..,..,..,sk
51939,Saskatoon And Forestry Farm,trail,saskatoon,..,..,..,..,sk
51940,Saskatoon And Forestry Farm,trail,saskatoon,..,..,..,..,sk
51941,Saskatoon And Forestry Farm,trail,saskatoon,..,..,..,..,sk
51942,Saskatoon And Forestry Farm,trail,saskatoon,..,..,..,..,sk
51943,Saskatoon And Forestry Farm,trail,saskatoon,..,..,..,..,sk
51944,Saskatoon And Forestry Farm,trail,saskatoon,..,..,..,..,sk
51945,Saskatoon And Forestry Farm,trail,saskatoon,..,..,..,..,sk
51946,Saskatoon And Forestry Farm,trail,saskatoon,..,..,..,..,sk
51947,Saskatoon And Forestry Farm,trail,saskatoon,..,..,..,..,sk
51948,Saskatoon And Forestry Farm,trail,saskatoon,..,..,..,..,sk
51949,Saskatoon And Forestry Farm,trail,saskatoon,..,..,..,..,sk
51950,Saskatoon And Forestry Farm,trail,saskatoon,..,..,..,..,sk
51951,Saskatoon And Forestry Farm,trail,saskatoon,..,..,..,..,sk
51952,Saskatoon And Forestry Farm,trail,saskatoon,..,..,..,..,sk
51953,Saskatoon And Forestry Farm,trail,saskatoon,..,..,..,..,sk
51954,Saskatoon And Forestry Farm,trail,saskatoon,..,..,..,..,sk
51955,Saskatoon And Forestry Farm,trail,saskatoon,..,..,..,..,sk
51956,Saskatoon And Forestry Farm,trail,saskatoon,..,..,..,..,sk
51959,Sauer,trail,saskatoon,..,..,..,..,sk
51960,Sauer,trail,saskatoon,..,..,..,..,sk
51972,Saunders,trail,saskatoon,..,..,..,..,sk
51973,Saunders,trail,saskatoon,..,..,..,..,sk
52069,Schuyler,trail,saskatoon,..,..,..,..,sk
52070,Scissons,trail,saskatoon,..,..,..,..,sk
52071,Scissons,trail,saskatoon,..,..,..,..,sk
52094,Sears,trail,saskatoon,..,..,..,..,sk
