Index,Facility_Name,ODRSF_facility_type,Provider,Street_No,Street_Name,Postal_Code,City,Prov_Terr
24278,Coachwood Park - Grnspc_194,trail,lethbridge,160,coachwood,..,..,ab
24279,Coachwood Park - Grnspc_194,trail,lethbridge,160,coachwood,..,..,ab
24280,Coachwood Walkway - Grnspc_296,trail,lethbridge,..,..,..,..,ab
24281,Coalbanks Gate W - Blvd 2 - Grnspc_1089,trail,lethbridge,..,..,..,..,ab
24282,Coalbanks Link Buffer 1 - Grnspc_9578,trail,lethbridge,..,..,..,..,ab
24283,Coalbanks Park - Grnspc_944,trail,lethbridge,100,coalbanks,..,..,ab
24284,Coalbanks Park - Grnspc_944,trail,lethbridge,100,coalbanks,..,..,ab
24285,Coalbanks Park - Grnspc_944,trail,lethbridge,100,coalbanks,..,..,ab
24286,Coalbanks Park - Grnspc_944,trail,lethbridge,100,coalbanks,..,..,ab
24287,Coalbanks Park - Grnspc_944,trail,lethbridge,100,coalbanks,..,..,ab
24288,Coalbanks Park - Grnspc_944,trail,lethbridge,100,coalbanks,..,..,ab
24289,Coalbanks Park - Grnspc_944,trail,lethbridge,100,coalbanks,..,..,ab
24290,Coalbanks Park - Grnspc_944,trail,lethbridge,100,coalbanks,..,..,ab
24291,Coalbanks Park - Grnspc_944,trail,lethbridge,100,coalbanks,..,..,ab
24292,Coalbanks Park - Grnspc_944,trail,lethbridge,100,coalbanks,..,..,ab
24293,Coalbanks School - Grnspc_7147,trail,lethbridge,274,coalbanks,..,..,ab
24294,Coalbanks School - Grnspc_7147,trail,lethbridge,274,coalbanks,..,..,ab
24295,Coalbanks School - Grnspc_7147,trail,lethbridge,274,coalbanks,..,..,ab
24296,Coalbanks School - Grnspc_7147,trail,lethbridge,274,coalbanks,..,..,ab
24297,Coalbanks School - Grnspc_7147,trail,lethbridge,274,coalbanks,..,..,ab
24298,Coalbanks School - Grnspc_7147,trail,lethbridge,274,coalbanks,..,..,ab
24299,Coalbanks School - Grnspc_7147,trail,lethbridge,274,coalbanks,..,..,ab
24300,Coalbanks School - Grnspc_7147,trail,lethbridge,274,coalbanks,..,..,ab
24301,Coalbanks School - Grnspc_7147,trail,lethbridge,274,coalbanks,..,..,ab
24302,Coalbanks School - Grnspc_7147,trail,lethbridge,274,coalbanks,..,..,ab
24303,Coalbanks School - Grnspc_7147,trail,lethbridge,274,coalbanks,..,..,ab
24304,Coalbanks School - Grnspc_7147,trail,lethbridge,274,coalbanks,..,..,ab
24305,Coalbanks School - Grnspc_7147,trail,lethbridge,274,coalbanks,..,..,ab
24306,Coalbanks School - Grnspc_7147,trail,lethbridge,274,coalbanks,..,..,ab
24307,Coalbanks School - Grnspc_7147,trail,lethbridge,274,coalbanks,..,..,ab
24308,Coalbanks School - Grnspc_7147,trail,lethbridge,274,coalbanks,..,..,ab
24309,Coalbanks School - Grnspc_7147,trail,lethbridge,274,coalbanks,..,..,ab
24310,Coalbanks School - Grnspc_7147,trail,lethbridge,274,coalbanks,..,..,ab
24311,Coalbanks School - Grnspc_7147,trail,lethbridge,274,coalbanks,..,..,ab
24312,Coalbanks School - Grnspc_7147,trail,lethbridge,274,coalbanks,..,..,ab
24313,Coalbanks School - Grnspc_7147,trail,lethbridge,274,coalbanks,..,..,ab
24314,Coalbanks School - Grnspc_7147,trail,lethbridge,274,coalbanks,..,..,ab
24315,Coalbanks School - Grnspc_7147,trail,lethbridge,274,coalbanks,..,..,ab
24316,Coalbanks School - Grnspc_7147,trail,lethbridge,274,coalbanks,..,..,ab
24317,Coalbanks School - Grnspc_7147,trail,lethbridge,274,coalbanks,..,..,ab
24318,Coalbanks School - Grnspc_7147,trail,lethbridge,274,coalbanks,..,..,ab
24319,Coalbanks School - Grnspc_7147,trail,lethbridge,274,coalbanks,..,..,ab
24320,Coalbanks School - Grnspc_7147,trail,lethbridge,274,coalbanks,..,..,ab
24321,Coalbanks School - Grnspc_7147,trail,lethbridge,274,coalbanks,..,..,ab
24322,Coalbanks School - Grnspc_7147,trail,lethbridge,274,coalbanks,..,..,ab
24323,Coalbanks School - Grnspc_7147,trail,lethbridge,274,coalbanks,..,..,ab
24324,Coalbanks School - Grnspc_7147,trail,lethbridge,274,coalbanks,..,..,ab
24325,Coalbanks School - Grnspc_7147,trail,lethbridge,274,coalbanks,..,..,ab
24326,Coalbanks School - Grnspc_7147,trail,lethbridge,274,coalbanks,..,..,ab
