Index,Facility_Name,ODRSF_facility_type,Provider,Street_No,Street_Name,Postal_Code,City,Prov_Terr
54812,Ted Petrunia Park - Grnspc_245,trail,lethbridge,1512,18,..,..,ab
54813,Ted Petrunia Park - Grnspc_245,trail,lethbridge,1512,18,..,..,ab
54814,Ted Petrunia Park - Grnspc_245,trail,lethbridge,1512,18,..,..,ab
54815,Ted Petrunia Park - Grnspc_245,trail,lethbridge,1512,18,..,..,ab
54816,Ted Petrunia Park - Grnspc_245,trail,lethbridge,1512,18,..,..,ab
54817,Ted Petrunia Park - Grnspc_245,trail,lethbridge,1512,18,..,..,ab
54818,Ted Petrunia Park - Grnspc_245,trail,lethbridge,1512,18,..,..,ab
54819,Ted Petrunia Park - Grnspc_245,trail,lethbridge,1512,18,..,..,ab
54820,Ted Petrunia Park - Grnspc_245,trail,lethbridge,1512,18,..,..,ab
62731,Transit - North Side Transfer Terminal (Facility),trail,lethbridge,1299,26,..,..,ab
62732,Transit - North Side Transfer Terminal (Facility),trail,lethbridge,1299,26,..,..,ab
62733,Transit - North Side Transfer Terminal (Facility),trail,lethbridge,1299,26,..,..,ab
62734,Transit - North Side Transfer Terminal (Facility),trail,lethbridge,1299,26,..,..,ab
62768,Trinity Park - Grnspc_166,trail,lethbridge,29,trinity,..,..,ab
62769,Trinity Park - Grnspc_166,trail,lethbridge,29,trinity,..,..,ab
62770,Trinity Park - Grnspc_166,trail,lethbridge,29,trinity,..,..,ab
62771,Trinity Park - Grnspc_166,trail,lethbridge,29,trinity,..,..,ab
62772,Trinity Park - Grnspc_166,trail,lethbridge,29,trinity,..,..,ab
62773,Trinity Park - Grnspc_166,trail,lethbridge,29,trinity,..,..,ab
62804,Tudor Entrance Park - Grnspc_270,trail,lethbridge,31,tudor,..,..,ab
62805,Tudor Park - Grnspc_180,trail,lethbridge,120,tudor,..,..,ab
62806,Tudor Park - Grnspc_180,trail,lethbridge,120,tudor,..,..,ab
62807,Tudor Park - Grnspc_180,trail,lethbridge,120,tudor,..,..,ab
62808,Tudor Park - Grnspc_180,trail,lethbridge,120,tudor,..,..,ab
62929,University Drive - Columbia Blvd To Rotary Brook Park - Grnspc_686,trail,lethbridge,..,..,..,..,ab
62930,University Drive - Columbia Blvd To Rotary Brook Park - Grnspc_686,trail,lethbridge,..,..,..,..,ab
62931,University Drive - Columbia Blvd To Rotary Brook Park - Grnspc_686,trail,lethbridge,..,..,..,..,ab
62932,University Drive - Macleod Drive To Rocky Mountain Blvd - Grnspc_692,trail,lethbridge,..,..,..,..,ab
62933,University Drive - Macleod Drive To Rocky Mountain Blvd - Grnspc_692,trail,lethbridge,..,..,..,..,ab
62934,University Drive - Macleod Drive To Rocky Mountain Blvd - Grnspc_692,trail,lethbridge,..,..,..,..,ab
62935,University Drive - Macleod Drive To Rocky Mountain Blvd - Grnspc_692,trail,lethbridge,..,..,..,..,ab
62936,University Drive - Macleod Drive To Rocky Mountain Blvd - Grnspc_692,trail,lethbridge,140,alderson,..,..,ab
62937,University Drive - Macleod Drive To Rocky Mountain Blvd - Grnspc_692,trail,lethbridge,..,..,..,..,ab
62938,University Drive - Mcgill Blvd To Mcleod Drive - Grnspc_687,trail,lethbridge,..,..,..,..,ab
62939,University Drive - Mcgill Blvd To Mcleod Drive - Grnspc_687,trail,lethbridge,..,..,..,..,ab
62940,University Drive - Mcgill Blvd To Mcleod Drive - Grnspc_687,trail,lethbridge,..,..,..,..,ab
62941,University Drive - Mcgill Blvd To Mcleod Drive - Grnspc_687,trail,lethbridge,..,..,..,..,ab
62942,University Drive - Mcgill Blvd To Mcleod Drive - Grnspc_687,trail,lethbridge,..,..,..,..,ab
62943,University Drive - Mcgill Blvd To Mcleod Drive - Grnspc_687,trail,lethbridge,185,laval,..,..,ab
62944,University Drive - Mcgill Blvd To Mcleod Drive - Grnspc_687,trail,lethbridge,..,..,..,..,ab
62945,University Drive - Mcgill Blvd To Mcleod Drive - Grnspc_687,trail,lethbridge,280,mcgill,..,..,ab
62946,University Drive - Mcgill Blvd To Mcleod Drive - Grnspc_687,trail,lethbridge,..,..,..,..,ab
62947,University Drive - Rotary Brook Park To Mcgill Blvd - Grnspc_151,trail,lethbridge,..,..,..,..,ab
62948,University Drive & 40 Ave S - Area 2 - Grnspc_978,trail,lethbridge,..,..,..,..,ab
62949,University Drive & Bridge Drive - Area 3 - Grnspc_892,trail,lethbridge,..,..,..,..,ab
62950,University Drive & Bridge Drive - Area 3 - Grnspc_892,trail,lethbridge,..,..,..,..,ab
62951,University Drive & Heritage Blvd North - Area 1 - Grnspc_35,trail,lethbridge,..,..,..,..,ab
62952,University Drive & Riverglen Link - Area 1 - Grnspc_973,trail,lethbridge,..,..,..,..,ab
62953,University Drive & Rocky Mountain Blvd - Area 2 - Grnspc_970,trail,lethbridge,..,..,..,..,ab
