Index,Facility_Name,ODRSF_facility_type,Provider,Street_No,Street_Name,Postal_Code,City,Prov_Terr
169946,Lafayette Park,park,lethbridge,..,..,..,lethbridge,ab
170020,Lakeview Greenstrip - North,park,lethbridge,..,..,..,lethbridge,ab
170021,Lakeview Greenstrip - South,park,lethbridge,..,..,..,lethbridge,ab
170023,Lakeview Park,park,lethbridge,..,..,..,lethbridge,ab
170131,Lasalle Dry Pond,park,lethbridge,..,..,..,lethbridge,ab
170133,Lasalle Park,park,lethbridge,..,..,..,lethbridge,ab
170167,Laval Court,park,lethbridge,..,..,..,lethbridge,ab
170168,Laval Park,park,lethbridge,..,..,..,lethbridge,ab
170228,Legacy Park,park,lethbridge,..,..,..,lethbridge,ab
170294,Lethbridge Library - Crossings Branch,park,lethbridge,..,..,..,lethbridge,ab
170296,Lethbridge Sports Park,park,lethbridge,..,..,..,lethbridge,ab
170413,Lions Centennial Park,park,lethbridge,..,..,..,lethbridge,ab
170519,London Road Park,park,lethbridge,..,..,..,lethbridge,ab
170625,Loyola Walkway,park,lethbridge,..,..,..,lethbridge,ab
170734,Macleod Drive W - Area 1,park,lethbridge,..,..,..,lethbridge,ab
170735,Macleod Drive W - Area 2,park,lethbridge,..,..,..,lethbridge,ab
170736,Macleod Drive W - Area 3,park,lethbridge,..,..,..,lethbridge,ab
170737,Macleod Walkway,park,lethbridge,..,..,..,lethbridge,ab
171281,Mckillop Park,park,lethbridge,..,..,..,lethbridge,ab
171282,Mckillop Soccer Field,park,lethbridge,..,..,..,lethbridge,ab
171312,Mcmaster Blvd W,park,lethbridge,..,..,..,lethbridge,ab
171638,Miner's Landing Park,park,lethbridge,..,..,..,lethbridge,ab
171680,Mm Drive 19 Ave S To Ccta,park,lethbridge,..,..,..,lethbridge,ab
171681,Mm Drive And 10 Ave S - Area 1,park,lethbridge,..,..,..,lethbridge,ab
171682,Mm Drive And 12 Ave S - Area 1,park,lethbridge,..,..,..,lethbridge,ab
171683,Mm Drive And 12 Ave S - Area 2,park,lethbridge,..,..,..,lethbridge,ab
171684,Mm Drive And 12 Ave S - Area 3,park,lethbridge,..,..,..,lethbridge,ab
171685,Mm Drive And 14 Ave S - Area 1,park,lethbridge,..,..,..,lethbridge,ab
171686,Mm Drive And 14 Ave S - Area 2,park,lethbridge,..,..,..,lethbridge,ab
171687,Mm Drive And 15 Ave S - Area 1,park,lethbridge,..,..,..,lethbridge,ab
171688,Mm Drive And 15 Ave S - Area 2,park,lethbridge,..,..,..,lethbridge,ab
171689,Mm Drive And 16 Ave S - Area 1,park,lethbridge,..,..,..,lethbridge,ab
171690,Mm Drive And 16 Ave S - Area 2,park,lethbridge,..,..,..,lethbridge,ab
171691,Mm Drive And 16 Ave S - Area 3,park,lethbridge,..,..,..,lethbridge,ab
171692,Mm Drive And 16 Ave S - Area 4,park,lethbridge,..,..,..,lethbridge,ab
171693,Mm Drive And 19 Ave S - Area 2,park,lethbridge,..,..,..,lethbridge,ab
171694,Mm Drive And 20 Ave S - Area 1,park,lethbridge,..,..,..,lethbridge,ab
171695,Mm Drive And 20 Ave S - Area 2,park,lethbridge,..,..,..,lethbridge,ab
171696,Mm Drive And 6 Ave S - Area 2,park,lethbridge,..,..,..,lethbridge,ab
171697,Mm Drive And Henderson Lake Blvd S - Area 1,park,lethbridge,..,..,..,lethbridge,ab
171698,Mm Drive And Henderson Lake Blvd S - Area 2,park,lethbridge,..,..,..,lethbridge,ab
171699,Mm Drive And Henderson Lake Blvd S - Area 3,park,lethbridge,..,..,..,lethbridge,ab
171700,Mm Drive And Lakeview Drive S - Area 1,park,lethbridge,..,..,..,lethbridge,ab
171701,Mm Drive And Lakeview Drive S - Area 3,park,lethbridge,..,..,..,lethbridge,ab
171702,Mm Drive At 22 Ave S,park,lethbridge,..,..,..,lethbridge,ab
171703,Mm Drive At Henderson Park - Area 1,park,lethbridge,..,..,..,lethbridge,ab
171704,Mm Drive At Henderson Park - Area 2,park,lethbridge,..,..,..,lethbridge,ab
171705,Mm Drive From 10 Ave S To 12 Ave S - Westside,park,lethbridge,..,..,..,lethbridge,ab
171706,Mm Drive From 7 Ave S To 9 Ave S - Westside,park,lethbridge,..,..,..,lethbridge,ab
