Index,Facility_Name,ODRSF_facility_type,Provider,Street_No,Street_Name,Postal_Code,City,Prov_Terr
51997,Scenic Dr N - East Buffer 1 - Grnspc_1147,trail,lethbridge,..,..,..,..,ab
51998,Scenic Dr N - East Buffer 1 - Grnspc_1147,trail,lethbridge,..,..,..,..,ab
51999,Scenic Dr N - East Buffer 1 - Grnspc_1147,trail,lethbridge,..,..,..,..,ab
52000,Scenic Dr N - West Buffer 1 - Grnspc_1148,trail,lethbridge,..,..,..,..,ab
52001,Scenic Dr N - West Buffer 1 - Grnspc_1148,trail,lethbridge,..,..,..,..,ab
52002,Scenic Dr N And Stafford Dr N - Area 1 - Grnspc_1145,trail,lethbridge,..,..,..,..,ab
52003,Scenic Dr N At Stafford Subdivision - Grnspc_1889,trail,lethbridge,..,..,..,..,ab
52004,Scenic Dr N At Stafford Subdivision - Grnspc_1889,trail,lethbridge,..,..,..,..,ab
52005,Scenic Dr N At Stafford Subdivision - Grnspc_1889,trail,lethbridge,..,..,..,..,ab
52006,Scenic Drive Dog Run - Grnspc_699,trail,lethbridge,1100,6,..,..,ab
52007,Scenic Drive Dog Run - Grnspc_699,trail,lethbridge,1100,6,..,..,ab
52008,Scenic Drive Dog Run - Grnspc_699,trail,lethbridge,1250,6,..,..,ab
52009,Scenic Drive Dog Run - Grnspc_699,trail,lethbridge,1100,6,..,..,ab
52010,Scenic Drive Dog Run - Grnspc_699,trail,lethbridge,1250,6,..,..,ab
52011,Scenic Drive Dog Run - Grnspc_699,trail,lethbridge,1250,6,..,..,ab
52012,Scenic Drive Dog Run - Grnspc_699,trail,lethbridge,1250,6,..,..,ab
52013,Scenic Drive Dog Run - Grnspc_699,trail,lethbridge,1250,6,..,..,ab
52014,Scenic Drive Dog Run - Grnspc_699,trail,lethbridge,1250,6,..,..,ab
52015,Scenic Drive N - East Buffer 2 - Grnspc_1143,trail,lethbridge,..,..,..,..,ab
52016,Scenic Drive N And 26 Ave N - Area 1 - Grnspc_1170,trail,lethbridge,..,..,..,..,ab
52017,Scenic Drive N And 26 Ave N - Area 1 - Grnspc_1170,trail,lethbridge,..,..,..,..,ab
52018,Scenic Drive N And 26 Ave N - Area 1 - Grnspc_1170,trail,lethbridge,..,..,..,..,ab
52019,Scenic Drive N And 26 Ave N - Area 1 - Grnspc_1170,trail,lethbridge,..,..,..,..,ab
52020,Scenic Drive N And 26 Ave N - Area 1 - Grnspc_1170,trail,lethbridge,..,..,..,..,ab
52021,Scenic Drive N And 26 Ave N - Area 2 - Grnspc_1149,trail,lethbridge,..,..,..,..,ab
52022,Scenic Drive N And 26 Ave N - Area 2 - Grnspc_1149,trail,lethbridge,..,..,..,..,ab
52023,Scenic Drive N And 5 Ave N - Area 6 - Grnspc_386,trail,lethbridge,..,..,..,..,ab
52024,Scenic Drive N And 5 Ave N - Area 7 - Grnspc_1928,trail,lethbridge,..,..,..,..,ab
52025,Scenic Drive N And 5 Ave N - Area 8 - Grnspc_613,trail,lethbridge,..,..,..,..,ab
52026,Scenic Drive N And 9 Ave N - Area 1 - Grnspc_631,trail,lethbridge,..,..,..,..,ab
52027,Scenic Drive N And 9 Ave N - Area 4 - Grnspc_852,trail,lethbridge,..,..,..,..,ab
52028,Scenic Drive N And 9 Ave N - Area 5 - Grnspc_5135,trail,lethbridge,..,..,..,..,ab
52029,Scenic Drive S - Cemetery Entrance To Dog Run - Grnspc_499,trail,lethbridge,1150,scenic,..,..,ab
52030,Scenic Drive S - Retention Pond Area 2 - Grnspc_709,trail,lethbridge,..,..,..,..,ab
52031,Scenic Drive S - Retention Pond Area 2 - Grnspc_709,trail,lethbridge,..,..,..,..,ab
52032,Scenic Drive S - Retention Pond Area 2 - Grnspc_709,trail,lethbridge,..,..,..,..,ab
52033,Scenic Drive S At 4 St S - Area 2 - Grnspc_915,trail,lethbridge,..,..,..,..,ab
52034,Scenic Drive S At 4 St S - Area 2 - Grnspc_915,trail,lethbridge,..,..,..,..,ab
52035,Scenic Drive S At Chinook Heights - Grnspc_716,trail,lethbridge,..,..,..,..,ab
52036,Scenic Drive S At Chinook Heights - Grnspc_716,trail,lethbridge,..,..,..,..,ab
52037,Scenic Drive S At Chinook Heights - Grnspc_716,trail,lethbridge,..,..,..,..,ab
52038,Scenic Drive S At Chinook Heights - Grnspc_716,trail,lethbridge,..,..,..,..,ab
52039,Scenic Drive S At Chinook Heights - Grnspc_716,trail,lethbridge,..,..,..,..,ab
52040,Scenic Drive S At Chinook Heights - Grnspc_716,trail,lethbridge,..,..,..,..,ab
52041,Scenic Drive S At Chinook Heights - Grnspc_716,trail,lethbridge,..,..,..,..,ab
52042,Scenic Drive S At Chinook Heights - Grnspc_716,trail,lethbridge,..,..,..,..,ab
52043,Scenic Drive S At Chinook Heights - Grnspc_716,trail,lethbridge,..,..,..,..,ab
52044,Scenic Drive S At Chinook Heights - Grnspc_716,trail,lethbridge,..,..,..,..,ab
52045,Scenic Drive S At The Enmax Centre - Grnspc_490,trail,lethbridge,..,..,..,..,ab
