Index,Facility_Name,ODRSF_facility_type,Provider,Street_No,Street_Name,Postal_Code,City,Prov_Terr
23437,Canyons Park - Grnspc_3868,trail,lethbridge,170,canyon estates,..,..,ab
23438,Canyons Park - Grnspc_3868,trail,lethbridge,170,canyon estates,..,..,ab
23439,Canyons Park - Grnspc_3868,trail,lethbridge,233,canyon estates,..,..,ab
23440,Canyons Park - Grnspc_3868,trail,lethbridge,170,canyon estates,..,..,ab
23441,Canyons Park - Grnspc_3868,trail,lethbridge,170,canyon estates,..,..,ab
23442,Canyons Park - Grnspc_3868,trail,lethbridge,964,canyonview,..,..,ab
23443,Canyons Park - Grnspc_3868,trail,lethbridge,170,canyon estates,..,..,ab
23444,Canyons Park - Grnspc_3868,trail,lethbridge,490,40,..,..,ab
23445,Canyons Park - Grnspc_3868,trail,lethbridge,490,40,..,..,ab
23446,Canyons Park - Grnspc_3868,trail,lethbridge,490,40,..,..,ab
23447,Canyons Park - Grnspc_3868,trail,lethbridge,490,40,..,..,ab
23448,Canyons Park - Grnspc_3868,trail,lethbridge,490,40,..,..,ab
23449,Canyons Park - Grnspc_3868,trail,lethbridge,490,40,..,..,ab
23450,Canyons Park - Grnspc_3868,trail,lethbridge,490,40,..,..,ab
23451,Canyons Park - Grnspc_3868,trail,lethbridge,964,canyonview,..,..,ab
23452,Canyons Park - Grnspc_3868,trail,lethbridge,964,canyonview,..,..,ab
23453,Canyons Park - Grnspc_3868,trail,lethbridge,964,canyonview,..,..,ab
23454,Canyons Park - Grnspc_3868,trail,lethbridge,964,canyonview,..,..,ab
23455,Canyons Park - Grnspc_3868,trail,lethbridge,964,canyonview,..,..,ab
23456,Canyons Park - Grnspc_3868,trail,lethbridge,170,canyon estates,..,..,ab
23457,Canyons Park - Grnspc_3868,trail,lethbridge,170,canyon estates,..,..,ab
23458,Canyonview Place W - Walkway 1 - Grnspc_3871,trail,lethbridge,916,canyonview,..,..,ab
23459,Canyonview Place W - Walkway 2 - Grnspc_3870,trail,lethbridge,915,canyonview,..,..,ab
23460,Canyonview Place W - Walkway 3 - Grnspc_3872,trail,lethbridge,935,canyonview,..,..,ab
23634,Catholic Central High School - West Campus - Grnspc_1374,trail,lethbridge,251,britannia,..,..,ab
23635,Catholic Central High School - West Campus - Grnspc_1374,trail,lethbridge,251,britannia,..,..,ab
23640,Cayuga Walkway - Grnspc_307,trail,lethbridge,70,cayuga,..,..,ab
23654,Cedar Park - Grnspc_273,trail,lethbridge,1317,michigan,..,..,ab
23655,Cedar Park - Grnspc_273,trail,lethbridge,1401,birch,..,..,ab
23656,Cedar Park - Grnspc_273,trail,lethbridge,1317,michigan,..,..,ab
23657,Cedar Park - Grnspc_273,trail,lethbridge,1401,birch,..,..,ab
23658,Cedar Park - Grnspc_273,trail,lethbridge,1401,birch,..,..,ab
23659,Cedar Park - Grnspc_273,trail,lethbridge,1401,birch,..,..,ab
23660,Cedar Park - Grnspc_273,trail,lethbridge,1250,great lakes,..,..,ab
23661,Cedar Park - Grnspc_273,trail,lethbridge,1402,cedar,..,..,ab
23662,Cedar Park - Grnspc_273,trail,lethbridge,1250,great lakes,..,..,ab
23663,Cedar Park - Grnspc_273,trail,lethbridge,1250,great lakes,..,..,ab
23664,Cedar Park - Grnspc_273,trail,lethbridge,1401,birch,..,..,ab
23665,Cedar Park - Grnspc_273,trail,lethbridge,1402,cedar,..,..,ab
23666,Cedar Park - Grnspc_273,trail,lethbridge,1401,birch,..,..,ab
23667,Cedar Park - Grnspc_273,trail,lethbridge,1401,birch,..,..,ab
23668,Cedar Park - Grnspc_273,trail,lethbridge,1402,cedar,..,..,ab
23669,Cedar Park - Grnspc_273,trail,lethbridge,1405,ashgrove,..,..,ab
23670,Cedar Park - Grnspc_273,trail,lethbridge,1401,birch,..,..,ab
23671,Cedar Park - Grnspc_273,trail,lethbridge,1402,cedar,..,..,ab
23672,Cedar Park - Grnspc_273,trail,lethbridge,1250,great lakes,..,..,ab
23673,Cedar Park - Grnspc_273,trail,lethbridge,1250,great lakes,..,..,ab
23674,Cedar Park - Grnspc_273,trail,lethbridge,1250,great lakes,..,..,ab
23675,Cedar Park - Grnspc_273,trail,lethbridge,1401,birch,..,..,ab
