Index,Facility_Name,ODRSF_facility_type,Provider,Street_No,Street_Name,Postal_Code,City,Prov_Terr
54256,Stafford Park - Grnspc_279,trail,lethbridge,22,stafford,..,..,ab
54257,Stafford Park - Grnspc_279,trail,lethbridge,91,stafford,..,..,ab
54258,Stafford Park - Grnspc_279,trail,lethbridge,22,stafford,..,..,ab
54259,Staffordville Park - Grnspc_239,trail,lethbridge,759,10,..,..,ab
54260,Staffordville Park - Grnspc_239,trail,lethbridge,759,10,..,..,ab
54261,Staffordville Park - Grnspc_239,trail,lethbridge,759,10,..,..,ab
54262,Staffordville Park - Grnspc_239,trail,lethbridge,759,10,..,..,ab
54263,Staffordville Park - Grnspc_239,trail,lethbridge,759,10,..,..,ab
54264,Staffordville Park - Grnspc_239,trail,lethbridge,759,10,..,..,ab
54265,Staffordville Park - Grnspc_239,trail,lethbridge,759,10,..,..,ab
54348,Stonecrest Park - Grnspc_50,trail,lethbridge,4855,university,..,..,ab
54349,Stonecrest Park - Grnspc_50,trail,lethbridge,111,stonecrest,..,..,ab
54350,Stonecrest Park - Grnspc_50,trail,lethbridge,111,stonecrest,..,..,ab
54351,Stonecrest Park - Grnspc_50,trail,lethbridge,111,stonecrest,..,..,ab
54352,Stonecrest Park - Grnspc_50,trail,lethbridge,4855,university,..,..,ab
54353,Stonecrest Park - Grnspc_50,trail,lethbridge,4855,university,..,..,ab
54354,Stonecrest Point - Grnspc_3971,trail,lethbridge,175,riverstone,..,..,ab
54355,Stonecrest Point - Grnspc_3971,trail,lethbridge,175,riverstone,..,..,ab
54356,Stonecrest Point - Grnspc_3971,trail,lethbridge,175,riverstone,..,..,ab
54357,Stonecrest Point - Grnspc_3971,trail,lethbridge,175,riverstone,..,..,ab
54358,Stonecrest Point - Grnspc_3971,trail,lethbridge,175,riverstone,..,..,ab
54359,Stonecrest Point - Grnspc_3971,trail,lethbridge,175,riverstone,..,..,ab
54365,Stonehaven Point - Grnspc_1428,trail,lethbridge,505,40,..,..,ab
54367,Stoney Walkway - Grnspc_311,trail,lethbridge,25,stoney,..,..,ab
54480,Sunburst Park - Grnspc_986,trail,lethbridge,211,sunburst,..,..,ab
54481,Sunburst Park - Grnspc_986,trail,lethbridge,211,sunburst,..,..,ab
54482,Sunburst Park - Grnspc_986,trail,lethbridge,211,sunburst,..,..,ab
54483,Sunburst Walkway - Grnspc_987,trail,lethbridge,..,..,..,..,ab
54488,Sundial Park - Grnspc_3925,trail,lethbridge,253,sundial,..,..,ab
54489,Sundial Park - Grnspc_3925,trail,lethbridge,126,sunridge,..,..,ab
54490,Sundial Park - Grnspc_3925,trail,lethbridge,126,sunridge,..,..,ab
54491,Sundial Park - Grnspc_3925,trail,lethbridge,126,sunridge,..,..,ab
54492,Sundial Park - Grnspc_3925,trail,lethbridge,253,sundial,..,..,ab
54496,Sunridge Park - Grnspc_930,trail,lethbridge,13,sunridge,..,..,ab
54497,Sunridge Park - Grnspc_930,trail,lethbridge,13,sunridge,..,..,ab
54498,Sunridge Park - Grnspc_930,trail,lethbridge,13,sunridge,..,..,ab
54499,Sunridge Park - Grnspc_930,trail,lethbridge,13,sunridge,..,..,ab
54500,Sunridge Park - Grnspc_930,trail,lethbridge,13,sunridge,..,..,ab
54501,Sunridge Park - Grnspc_930,trail,lethbridge,13,sunridge,..,..,ab
54502,Sunridge Park - Grnspc_930,trail,lethbridge,13,sunridge,..,..,ab
54503,Sunridge Park - Grnspc_930,trail,lethbridge,13,sunridge,..,..,ab
54504,Sunridge Park - Grnspc_930,trail,lethbridge,13,sunridge,..,..,ab
54505,Sunridge Park - Grnspc_930,trail,lethbridge,13,sunridge,..,..,ab
54506,Sunridge Park - Grnspc_930,trail,lethbridge,13,sunridge,..,..,ab
54507,Sunridge Park - Grnspc_930,trail,lethbridge,13,sunridge,..,..,ab
54508,Sunridge Park - Grnspc_930,trail,lethbridge,13,sunridge,..,..,ab
54509,Sunridge Park - Grnspc_930,trail,lethbridge,13,sunridge,..,..,ab
54510,Sunridge Park - Grnspc_930,trail,lethbridge,13,sunridge,..,..,ab
54511,Sunridge Park - Grnspc_930,trail,lethbridge,13,sunridge,..,..,ab
