Index,Facility_Name,ODRSF_facility_type,Provider,Street_No,Street_Name,Postal_Code,City,Prov_Terr
3667,Oldman River (Botterill Bottom Park),park,lethbridge,..,..,..,..,ab
4490,Pavan Park Lookout 1,park,lethbridge,..,..,..,..,ab
4491,Pavan Park Lookout 2,park,lethbridge,..,..,..,..,ab
4500,Peenaquim Park Dog Run,park,lethbridge,..,..,..,..,ab
4766,Popson Park Boat Launch,park,lethbridge,..,..,..,..,ab
4767,Popson Park Dog Run,park,lethbridge,..,..,..,..,ab
4768,Popson Park Group Picnic Shelter,park,lethbridge,..,..,..,..,ab
5076,Ravine Park (Sugar Bowl) Fitness Circuit,gym,lethbridge,..,..,..,..,ab
5094,Redwood Park Horseshoe Pits,park,lethbridge,..,..,..,..,ab
5183,Riverstone Dog Park,park,lethbridge,..,..,..,..,ab
5232,Rotary Centennial Plaza,splash pad,lethbridge,601,3,..,..,ab
5233,Rotary Centennial Spray Fountain,splash pad,lethbridge,..,galt,..,..,ab
5377,Servus Sports Centre,community centre,lethbridge,2501,28,..,..,ab
5622,Slp Skate Park,skate park,lethbridge,..,..,..,..,ab
5687,Spitz Stadium,stadium,lethbridge,2425,parkside,..,..,ab
5883,St Edwards Fitness Area,gym,lethbridge,1714,st-edward,..,..,ab
5943,Stan Siwik Family Pool,pool,lethbridge,1901,15,..,..,ab
6055,Ted Petrunia Park Horseshoe Pits,park,lethbridge,..,..,..,..,ab
6184,U Of L Community Stadium,stadium,lethbridge,4401,university,..,..,ab
6413,Watermark All-Wheel Park,skate park,lethbridge,317,rocky mountain,..,..,ab
6414,Watermark Fitness Gym,gym,lethbridge,317,rocky mountain,..,..,ab
6492,Westminster Pool,pool,lethbridge,..,..,..,..,ab
6560,William Pearce Park Lake,park,lethbridge,..,..,..,..,ab
6569,Willow Brook Park Horseshoe Pits,park,lethbridge,..,..,..,..,ab
6585,Wilson Middle School - 9 Ave N Fitness Area,gym,lethbridge,2003,9,..,..,ab
6895,28 St N Softball Diamond,sports field,lethbridge,701,28,..,..,ab
6902,43Rd Street Tennis Court,sports field,lethbridge,..,..,..,..,ab
7034,École La Vérendrye Diamond,sports field,lethbridge,2104,6,..,..,ab
7035,École La Vérendrye Junior Soccer Field,sports field,lethbridge,2104,6,..,..,ab
7036,École La Vérendrye Mini Soccer,sports field,lethbridge,2104,6,..,..,ab
7037,École La Vérendrye Soccer Field,sports field,lethbridge,2104,6,..,..,ab
7086,Agnes Davidson Diamond,sports field,lethbridge,2103,20,..,..,ab
7087,Agnes Davidson North Mini Soccer,sports field,lethbridge,2103,20,..,..,ab
7088,Agnes Davidson South Mini Soccer,sports field,lethbridge,2102,20,..,..,ab
7117,Alberta Picnic Shelter,miscellaneous,lethbridge,..,..,..,..,ab
7150,Algonquin Park Basketball Court,sports field,lethbridge,..,..,..,..,ab
7363,Assumption School Diamond,sports field,lethbridge,2219,14,..,..,ab
7364,Assumption School Soccer Fields,sports field,lethbridge,2219,14,..,..,ab
7371,Atso Towaawa Ball Diamonds,sports field,lethbridge,199,jerry potts,..,..,ab
7372,Atso Towaawa Field,sports field,lethbridge,199,jerry potts,..,..,ab
7373,Atso Towaawa Mini Soccer Field,sports field,lethbridge,155,jerry potts,..,..,ab
8308,Baroness Picnic Shelter,miscellaneous,lethbridge,..,..,..,..,ab
8988,Bill Kucheran Field (Lakeview East Diamond),sports field,lethbridge,3101,lakeridge,..,..,ab
9032,Blackwolf Diamond,sports field,lethbridge,286,uplands,..,..,ab
9033,Blackwolf Mini Soccer Fields,sports field,lethbridge,286,uplands,..,..,ab
9034,Blackwolf Park Cricket Pitch,sports field,lethbridge,286,uplands,..,..,ab
9238,Bridge Valley Golf Course,sports field,lethbridge,..,3a,..,..,ab
9433,Canola Harvest Field,sports field,lethbridge,..,..,..,..,ab
9441,Canyoncrest Lookout 1,miscellaneous,lethbridge,..,..,..,..,ab
