Index,Facility_Name,ODRSF_facility_type,Provider,Street_No,Street_Name,Postal_Code,City,Prov_Terr
161674,28 St N And 26 Ave N - Area 2,park,lethbridge,..,..,..,lethbridge,ab
161676,28 St N At 12 Ave N - Eastside Area 1,park,lethbridge,..,..,..,lethbridge,ab
161677,28 St N At 18 Ave N - Southside,park,lethbridge,..,..,..,lethbridge,ab
161678,28 St N Between 26 Ave N & 30 Ave N Eastside - Blvd 1,park,lethbridge,..,..,..,lethbridge,ab
161679,28 St N Between 26 Ave N & 30 Ave N Eastside - Blvd 2,park,lethbridge,..,..,..,lethbridge,ab
161680,28 St N Buffer Eastside At 12 Ave N,park,lethbridge,..,..,..,lethbridge,ab
161681,28 St N Westside - Blvd 1,park,lethbridge,..,..,..,lethbridge,ab
161682,28 St N Westside - Blvd 4,park,lethbridge,..,..,..,lethbridge,ab
161683,28 St N Westside - Blvd 6,park,lethbridge,..,..,..,lethbridge,ab
161684,28 St N Westside - Blvd 7,park,lethbridge,..,..,..,lethbridge,ab
161685,28 St S Walkway North,park,lethbridge,..,..,..,lethbridge,ab
161686,28 St S Walkway South,park,lethbridge,..,..,..,lethbridge,ab
161745,40 Ave S - Blvd 1,park,lethbridge,..,..,..,lethbridge,ab
161793,5 Ave N 23 St N To 26 St N - Northside,park,lethbridge,..,..,..,lethbridge,ab
161794,5 Ave N 26 St N To 28 St N,park,lethbridge,..,..,..,lethbridge,ab
162061,Aberdeen Park,park,lethbridge,..,..,..,lethbridge,ab
162085,Adams Park,park,lethbridge,..,..,..,lethbridge,ab
162225,Algonquin Park,park,lethbridge,..,..,..,lethbridge,ab
162444,Arbourwood Island,park,lethbridge,..,..,..,lethbridge,ab
162445,Arbourwood Walkway - North,park,lethbridge,..,..,..,lethbridge,ab
162446,Arbourwood Walkway - West,park,lethbridge,..,..,..,lethbridge,ab
162605,Assiniboia Park,park,lethbridge,..,..,..,lethbridge,ab
162634,Atso Towaawa Park,park,lethbridge,..,..,..,lethbridge,ab
163386,Blackfoot Park,park,lethbridge,..,..,..,lethbridge,ab
163395,Blackwolf Park,park,lethbridge,..,..,..,lethbridge,ab
163453,Bluefox Blvd At 26 Ave N - Eastside,park,lethbridge,..,..,..,lethbridge,ab
163454,Bluefox Park,park,lethbridge,..,..,..,lethbridge,ab
163673,Brewery Gardens,park,lethbridge,..,..,..,lethbridge,ab
164018,Caledonia - Atlantic Walkway,park,lethbridge,..,..,..,lethbridge,ab
164136,Canyon Close Park,park,lethbridge,..,..,..,lethbridge,ab
164139,Canyon Meadows Park - Stage 1,park,lethbridge,..,..,..,lethbridge,ab
164140,Canyoncrest Park,park,lethbridge,..,..,..,lethbridge,ab
164141,Canyons Park,park,lethbridge,..,..,..,lethbridge,ab
164295,Castle Mountain Road W - Walkway,park,lethbridge,..,..,..,lethbridge,ab
164379,Cedar Park,park,lethbridge,..,..,..,lethbridge,ab
164504,Central Station Park,park,lethbridge,..,..,..,lethbridge,ab
164697,Chilcotin Walkway,park,lethbridge,..,..,..,lethbridge,ab
164709,Chinook Heights Park,park,lethbridge,..,..,..,lethbridge,ab
164710,Chinook Lake Park,park,lethbridge,..,..,..,lethbridge,ab
164712,Chinook Tourist Park,park,lethbridge,..,..,..,lethbridge,ab
164788,Civic Centre,park,lethbridge,..,..,..,lethbridge,ab
164916,Coachwood Park,park,lethbridge,..,..,..,lethbridge,ab
164917,Coachwood Point,park,lethbridge,..,..,..,lethbridge,ab
164919,Coalbanks Park,park,lethbridge,..,..,..,lethbridge,ab
164995,Columbia Park,park,lethbridge,..,..,..,lethbridge,ab
164997,Columbia Place Walkway,park,lethbridge,..,..,..,lethbridge,ab
165182,Cougar Park,park,lethbridge,..,..,..,lethbridge,ab
165183,Couleecreek Park,park,lethbridge,..,..,..,lethbridge,ab
165203,Country Meadows Entrance Pul,park,lethbridge,..,..,..,lethbridge,ab
