Index,Facility_Name,ODRSF_facility_type,Provider,Street_No,Street_Name,Postal_Code,City,Prov_Terr
34903,Lafayette Park - Grnspc_164,trail,lethbridge,10,lafayette,..,..,ab
34904,Lafayette Park - Grnspc_164,trail,lethbridge,10,lafayette,..,..,ab
34905,Lafayette Park - Grnspc_164,trail,lethbridge,10,lafayette,..,..,ab
34906,Lafayette Park - Grnspc_164,trail,lethbridge,10,lafayette,..,..,ab
35027,Lakeview Greenstrip - North - Grnspc_277,trail,lethbridge,1128,glacier,..,..,ab
35028,Lakeview Greenstrip - South - Grnspc_592,trail,lethbridge,1515,lakeview,..,..,ab
35029,Lakeview Greenstrip - South - Grnspc_592,trail,lethbridge,1515,lakeview,..,..,ab
35030,Lakeview Greenstrip - South - Grnspc_592,trail,lethbridge,1515,lakeview,..,..,ab
35031,Lakeview Greenstrip - South - Grnspc_592,trail,lethbridge,3150,lakeridge,..,..,ab
35032,Lakeview Greenstrip - South - Grnspc_592,trail,lethbridge,3150,lakeridge,..,..,ab
35033,Lakeview Greenstrip - South - Grnspc_592,trail,lethbridge,3150,lakeridge,..,..,ab
35034,Lakeview Greenstrip - South - Grnspc_592,trail,lethbridge,3150,lakeridge,..,..,ab
35035,Lakeview Park - Grnspc_276,trail,lethbridge,3101,lakeridge,..,..,ab
35036,Lakeview Park - Grnspc_276,trail,lethbridge,3101,lakeridge,..,..,ab
35037,Lakeview Park - Grnspc_276,trail,lethbridge,1402,glacier,..,..,ab
35038,Lakeview Park - Grnspc_276,trail,lethbridge,1402,glacier,..,..,ab
35039,Lakeview Park - Grnspc_276,trail,lethbridge,1402,glacier,..,..,ab
35040,Lakeview Park - Grnspc_276,trail,lethbridge,3101,lakeridge,..,..,ab
35041,Lakeview Park - Grnspc_276,trail,lethbridge,1402,glacier,..,..,ab
35042,Lakeview Park - Grnspc_276,trail,lethbridge,1402,glacier,..,..,ab
35043,Lakeview Park - Grnspc_276,trail,lethbridge,1402,glacier,..,..,ab
35044,Lakeview Park - Grnspc_276,trail,lethbridge,1402,glacier,..,..,ab
35045,Lakeview Park - Grnspc_276,trail,lethbridge,3101,lakeridge,..,..,ab
35196,Lasalle Dry Pond - Grnspc_7149,trail,lethbridge,213,lasalle,..,..,ab
35197,Lasalle Dry Pond - Grnspc_7149,trail,lethbridge,213,lasalle,..,..,ab
35198,Lasalle Park - Grnspc_3968,trail,lethbridge,487,aquitania,..,..,ab
35297,Laval Court - Grnspc_184,trail,lethbridge,42,laval,..,..,ab
35298,Laval Court - Grnspc_184,trail,lethbridge,42,laval,..,..,ab
35299,Laval Court - Grnspc_184,trail,lethbridge,42,laval,..,..,ab
35300,Laval Court - Grnspc_184,trail,lethbridge,42,laval,..,..,ab
35301,Laval Park - Grnspc_185,trail,lethbridge,176,laval,..,..,ab
35302,Laval Park - Grnspc_185,trail,lethbridge,176,laval,..,..,ab
35303,Laval Park - Grnspc_185,trail,lethbridge,176,laval,..,..,ab
35304,Laval Park - Grnspc_185,trail,lethbridge,176,laval,..,..,ab
35305,Laval Park - Grnspc_185,trail,lethbridge,176,laval,..,..,ab
35306,Laval Park - Grnspc_185,trail,lethbridge,176,laval,..,..,ab
35307,Laval Park - Grnspc_185,trail,lethbridge,176,laval,..,..,ab
35308,Laval Park - Grnspc_185,trail,lethbridge,176,laval,..,..,ab
35309,Laval Park - Grnspc_185,trail,lethbridge,176,laval,..,..,ab
35310,Laval Park - Grnspc_185,trail,lethbridge,176,laval,..,..,ab
35311,Laval Park - Grnspc_185,trail,lethbridge,176,laval,..,..,ab
35380,Legacy Park - Grnspc_9586,trail,lethbridge,400,blackwolf,..,..,ab
35381,Legacy Park - Grnspc_9586,trail,lethbridge,400,blackwolf,..,..,ab
35382,Legacy Park - Grnspc_9586,trail,lethbridge,400,blackwolf,..,..,ab
35383,Legacy Park - Grnspc_9586,trail,lethbridge,400,blackwolf,..,..,ab
35384,Legacy Park - Grnspc_9586,trail,lethbridge,400,blackwolf,..,..,ab
35385,Legacy Park - Grnspc_9586,trail,lethbridge,400,blackwolf,..,..,ab
35386,Legacy Park - Grnspc_9586,trail,lethbridge,400,blackwolf,..,..,ab
35387,Legacy Park - Grnspc_9586,trail,lethbridge,400,blackwolf,..,..,ab
