Index,Facility_Name,ODRSF_facility_type,Provider,Street_No,Street_Name,Postal_Code,City,Prov_Terr
175567,Scenic Drive S From 20 St S To Tudor Blvd S,park,lethbridge,..,..,..,lethbridge,ab
175568,Scenic Drive S From The Dog Run To 10 Ave S,park,lethbridge,..,..,..,lethbridge,ab
175569,Scenic Drive S From The Enmax Centre To 28 St S,park,lethbridge,..,..,..,lethbridge,ab
175570,Scenic Drive S From Tudor Cres S To Retention Pond,park,lethbridge,..,..,..,lethbridge,ab
175571,Scenic Heights Park,park,lethbridge,..,..,..,lethbridge,ab
175693,Sequoia Park,park,lethbridge,..,..,..,lethbridge,ab
175818,Sheridan Park,park,lethbridge,..,..,..,lethbridge,ab
176001,Sixmile Dry Pond,park,lethbridge,..,..,..,lethbridge,ab
176178,Southgate Park,park,lethbridge,..,..,..,lethbridge,ab
176184,Southridge Park,park,lethbridge,..,..,..,lethbridge,ab
176296,Squamish Park,park,lethbridge,..,..,..,lethbridge,ab
176311,St Basils Park,park,lethbridge,..,..,..,lethbridge,ab
176334,St Edward Park,park,lethbridge,..,..,..,lethbridge,ab
176336,St Francis Park,park,lethbridge,..,..,..,lethbridge,ab
176521,Stafford Corner,park,lethbridge,..,..,..,lethbridge,ab
176522,Stafford Park,park,lethbridge,..,..,..,lethbridge,ab
176526,Staffordville Park,park,lethbridge,..,..,..,lethbridge,ab
176630,Stonecrest Park,park,lethbridge,..,..,..,lethbridge,ab
176631,Stonecrest Point,park,lethbridge,..,..,..,lethbridge,ab
176636,Stonehaven Point,park,lethbridge,..,..,..,lethbridge,ab
176652,Stoney Walkway,park,lethbridge,..,..,..,lethbridge,ab
176782,Sunburst Park,park,lethbridge,..,..,..,lethbridge,ab
176786,Sundial Park,park,lethbridge,..,..,..,lethbridge,ab
176818,Sunridge Park,park,lethbridge,..,..,..,lethbridge,ab
176819,Sunridge Road Walkway,park,lethbridge,..,..,..,lethbridge,ab
176973,Tartan Park,park,lethbridge,..,..,..,lethbridge,ab
177009,Ted Petrunia Park,park,lethbridge,..,..,..,lethbridge,ab
177411,Trinity Park,park,lethbridge,..,..,..,lethbridge,ab
177433,Tudor Entrance Park,park,lethbridge,..,..,..,lethbridge,ab
177434,Tudor Park,park,lethbridge,..,..,..,lethbridge,ab
177541,University Drive - Mcgill Blvd To Mcleod Drive,park,lethbridge,..,..,..,lethbridge,ab
177542,University Drive - Rotary Brook Park To Mcgill Blvd,park,lethbridge,..,..,..,lethbridge,ab
177543,University Drive At Heritage Blvd N - Area 2,park,lethbridge,..,..,..,lethbridge,ab
177544,University Drive At Heritage Blvd N - South Entrance,park,lethbridge,..,..,..,lethbridge,ab
177545,University Drive Edgewood Blvd To Heritage Blvd,park,lethbridge,..,..,..,lethbridge,ab
177546,University Drive Ridgewood Blvd To Edgewood Blvd,park,lethbridge,..,..,..,lethbridge,ab
177756,Valleyview Park,park,lethbridge,..,..,..,lethbridge,ab
177811,Vaselenak Field & Churchill Green Space,park,lethbridge,..,..,..,lethbridge,ab
177858,Victoria Houk Park,park,lethbridge,..,..,..,lethbridge,ab
177934,Vista Park,park,lethbridge,..,..,..,lethbridge,ab
177937,Vista Play Area,park,lethbridge,..,..,..,lethbridge,ab
178085,Watermark Park,park,lethbridge,..,..,..,lethbridge,ab
178313,Westminster Community Centre,park,lethbridge,..,..,..,lethbridge,ab
178423,Whoop-Up Drive At Bull Trail Park - North,park,lethbridge,..,..,..,lethbridge,ab
178424,Whoop-Up Drive At Bull Trail Park - South,park,lethbridge,..,..,..,lethbridge,ab
178507,William Pearce Park,park,lethbridge,..,..,..,lethbridge,ab
178545,Willow Brook Park,park,lethbridge,..,..,..,lethbridge,ab
178552,Willow Point Park,park,lethbridge,..,..,..,lethbridge,ab
178657,Winston Churchill Sportsfield,park,lethbridge,..,..,..,lethbridge,ab
