Index,Facility_Name,ODRSF_facility_type,Provider,Street_No,Street_Name,Postal_Code,City,Prov_Terr
9570,Cch Diamond,sports field,lethbridge,425,18,..,..,ab
9779,Children Of St. Martha Diamond,sports field,lethbridge,206,mcmaster,..,..,ab
9780,Children Of St. Martha Soccer Fields,sports field,lethbridge,206,mcmaster,..,..,ab
9841,Civic Athletic Field Track,sports field,lethbridge,604,6,..,..,ab
10089,Coalbanks School Ball Diamond,sports field,lethbridge,274,coalbanks,..,..,ab
10090,Coalbanks School Basketball Court,sports field,lethbridge,274,coalbanks,..,..,ab
10091,Coalbanks School Soccer Field,sports field,lethbridge,274,coalbanks,..,..,ab
10112,Columbia Park Diamond,sports field,lethbridge,..,..,..,..,ab
10340,Crossings Basketball Court 1,sports field,lethbridge,..,..,..,..,ab
10341,Crossings Basketball Court 2,sports field,lethbridge,..,..,..,..,ab
10342,Crossings Basketball Court 3,sports field,lethbridge,..,..,..,..,ab
10343,Crossings Basketball Court 4,sports field,lethbridge,..,..,..,..,ab
10344,Crossings Park - Central Diamond,sports field,lethbridge,50,aquitania,..,..,ab
10345,Crossings Park - East Diamond,sports field,lethbridge,50,aquitania,..,..,ab
10346,Crossings Park - East Fields,sports field,lethbridge,50,aquitania,..,..,ab
10347,Crossings Park - East Tennis Courts (4),sports field,lethbridge,50,aquitania,..,..,ab
10348,Crossings Park - West Diamond,sports field,lethbridge,50,aquitania,..,..,ab
10349,Crossings Park - West Fields,sports field,lethbridge,50,aquitania,..,..,ab
10350,Crossings Park - West Tennis Courts (4),sports field,lethbridge,50,aquitania,..,..,ab
10351,Crossings Park Football Fields,sports field,lethbridge,50,aquitania,..,..,ab
10403,Dave Elton Park Diamonds,sports field,lethbridge,..,..,..,..,ab
10404,Dave Elton Soccer Field,sports field,lethbridge,507,4,..,..,ab
10704,East Slope Lookout,miscellaneous,lethbridge,..,..,..,..,ab
10811,Elizabeth Hall Wetlands - Wildlife Blind Lookout,miscellaneous,lethbridge,..,..,..,..,ab
10825,Elks Community Area Horseshoe Pits,miscellaneous,lethbridge,..,..,..,..,ab
10826,Elks Community Recreation Area,miscellaneous,lethbridge,..,..,..,..,ab
10827,Elks Community Recreation Area Volleyball Court,sports field,lethbridge,..,..,..,..,ab
10908,Evergreen Golf Centre,sports field,lethbridge,5225,24,..,..,ab
11052,Fleetwood Bawden Diamonds,sports field,lethbridge,1222,9,..,..,ab
11053,Fleetwood Bawden Soccer Fields,sports field,lethbridge,1222,9,..,..,ab
11088,Flvt Diamond,sports field,lethbridge,25,stoney,..,..,ab
11089,Flvt Soccer Fields,sports field,lethbridge,25,stoney,..,..,ab
11285,G.S. Lakie Diamond,sports field,lethbridge,50,blackfoot,..,..,ab
11286,G.S. Lakie Field,sports field,lethbridge,50,blackfoot,..,..,ab
11289,Galbraith Soccer Fields,sports field,lethbridge,1801,8a,..,..,ab
11293,Galt Gardens Picnic Area,miscellaneous,lethbridge,..,galt,..,..,ab
11331,General Stewart School Diamond,sports field,lethbridge,215,corvette,..,..,ab
11332,General Stewart School Soccer Field,sports field,lethbridge,215,corvette,..,..,ab
11361,George Vaselenak Miners Library Ball Park,sports field,lethbridge,2011,15,..,..,ab
11367,George Yoshinaka Field,sports field,lethbridge,..,..,..,..,ab
11370,Georgetown Park Basketball Court,sports field,lethbridge,..,..,..,..,ab
11371,Gerald Probe Diamond,sports field,lethbridge,120,rocky mountain,..,..,ab
11372,Gerald Probe Soccer Field,sports field,lethbridge,120,rocky mountain,..,..,ab
11378,Gilbert Patterson Diamonds,sports field,lethbridge,2109,12,..,..,ab
11379,Gilbert Patterson Mini Soccer,sports field,lethbridge,2109,12,..,..,ab
11380,Gilbert Patterson Soccer Fields,sports field,lethbridge,2109,12,..,..,ab
11648,Gunnery Point Picnic Shelter,miscellaneous,lethbridge,..,..,..,..,ab
11657,Gyro Tennis Courts (4),sports field,lethbridge,..,15,..,..,ab
11779,Henderson Horseshoe Club,miscellaneous,lethbridge,..,..,..,..,ab
