Index,Facility_Name,ODRSF_facility_type,Provider,Street_No,Street_Name,Postal_Code,City,Prov_Terr
23021,Bull Trail Park - North - Grnspc_899,trail,lethbridge,45,ridgewood,..,..,ab
23022,Bull Trail Park - North - Grnspc_899,trail,lethbridge,45,ridgewood,..,..,ab
23023,Bull Trail Park - North - Grnspc_899,trail,lethbridge,3890,university,..,..,ab
23024,Bull Trail Park - North - Grnspc_899,trail,lethbridge,320,10,..,..,ab
23025,Bull Trail Park - North - Grnspc_899,trail,lethbridge,45,ridgewood,..,..,ab
23026,Bull Trail Park - North - Grnspc_899,trail,lethbridge,45,ridgewood,..,..,ab
23027,Bull Trail Park - North - Grnspc_899,trail,lethbridge,320,10,..,..,ab
23028,Bull Trail Park - North - Grnspc_899,trail,lethbridge,207,coachwood,..,..,ab
23029,Bull Trail Park - North - Grnspc_899,trail,lethbridge,45,ridgewood,..,..,ab
23030,Bull Trail Park - North - Grnspc_899,trail,lethbridge,3890,university,..,..,ab
23031,Bull Trail Park - North - Grnspc_899,trail,lethbridge,45,ridgewood,..,..,ab
23032,Bull Trail Park - North - Grnspc_899,trail,lethbridge,45,ridgewood,..,..,ab
23033,Bull Trail Park - North - Grnspc_899,trail,lethbridge,290,10,..,..,ab
23034,Bull Trail Park - North - Grnspc_899,trail,lethbridge,74,heritage,..,..,ab
23035,Bull Trail Park - North - Grnspc_899,trail,lethbridge,320,10,..,..,ab
23036,Bull Trail Park - North - Grnspc_899,trail,lethbridge,320,10,..,..,ab
23037,Bull Trail Park - North - Grnspc_899,trail,lethbridge,320,10,..,..,ab
23038,Bull Trail Park - North - Grnspc_899,trail,lethbridge,320,10,..,..,ab
23039,Bull Trail Park - North - Grnspc_899,trail,lethbridge,320,10,..,..,ab
23040,Bull Trail Park - North - Grnspc_899,trail,lethbridge,74,heritage,..,..,ab
23041,Bull Trail Park - North - Grnspc_899,trail,lethbridge,74,heritage,..,..,ab
23042,Bull Trail Park - North - Grnspc_899,trail,lethbridge,70,heritage,..,..,ab
23043,Bull Trail Park - North - Grnspc_899,trail,lethbridge,70,heritage,..,..,ab
23044,Bull Trail Park - North - Grnspc_899,trail,lethbridge,320,10,..,..,ab
23045,Bull Trail Park - North - Grnspc_899,trail,lethbridge,320,10,..,..,ab
23046,Bull Trail Park - North - Grnspc_899,trail,lethbridge,320,10,..,..,ab
23047,Bull Trail Park - North - Grnspc_899,trail,lethbridge,320,10,..,..,ab
23048,Bull Trail Park - North - Grnspc_899,trail,lethbridge,320,10,..,..,ab
23049,Bull Trail Park - South - Grnspc_269,trail,lethbridge,3911,university,..,..,ab
23050,Bull Trail Park - South - Grnspc_269,trail,lethbridge,4401,university,..,..,ab
23051,Bull Trail Park - South - Grnspc_269,trail,lethbridge,4401,university,..,..,ab
23052,Bull Trail Park - South - Grnspc_269,trail,lethbridge,4401,university,..,..,ab
23053,Bull Trail Park - South - Grnspc_269,trail,lethbridge,3911,university,..,..,ab
23054,Bull Trail Park - South - Grnspc_269,trail,lethbridge,3911,university,..,..,ab
23055,Bull Trail Park - South - Grnspc_269,trail,lethbridge,4401,university,..,..,ab
23056,Bull Trail Park - South - Grnspc_269,trail,lethbridge,3911,university,..,..,ab
23057,Bull Trail Park - South - Grnspc_269,trail,lethbridge,4401,university,..,..,ab
23230,Caledonia - Atlantic Walkway - Grnspc_9601,trail,lethbridge,873,atlantic,..,..,ab
23231,Caledonia - Devonia Walkway - Grnspc_5950,trail,lethbridge,301,caledonia,..,..,ab
23232,Caledonia - Devonia Walkway - Grnspc_5950,trail,lethbridge,301,caledonia,..,..,ab
23233,Caledonia Blvd W - Buffer 2 - Grnspc_9599,trail,lethbridge,..,..,..,..,ab
23377,Canyon Close Park - Grnspc_179,trail,lethbridge,91,canyon,..,..,ab
23378,Canyon Close Park - Grnspc_179,trail,lethbridge,91,canyon,..,..,ab
23379,Canyon Close Park - Grnspc_179,trail,lethbridge,91,canyon,..,..,ab
23380,Canyon Cove W - Walkway - Grnspc_933,trail,lethbridge,548,canyon,..,..,ab
23381,Canyon Estates - Walkway - Grnspc_3873,trail,lethbridge,233,canyon estates,..,..,ab
23382,Canyon Meadows Park - Stage 1 - Grnspc_9584,trail,lethbridge,311,canyon meadows,..,..,ab
23383,Canyon Meadows Park - Stage 1 - Grnspc_9584,trail,lethbridge,311,canyon meadows,..,..,ab
23384,Canyon Meadows Park - Stage 1 - Grnspc_9584,trail,lethbridge,311,canyon meadows,..,..,ab
