Index,Facility_Name,ODRSF_facility_type,Provider,Street_No,Street_Name,Postal_Code,City,Prov_Terr
52047,Scenic Drive S From 15 St S To Scenic Hts - Grnspc_700,trail,lethbridge,..,..,..,..,ab
52048,Scenic Drive S From 20 St S To Tudor Blvd S - Grnspc_723,trail,lethbridge,..,..,..,..,ab
52049,Scenic Drive S From 20 St S To Tudor Blvd S - Grnspc_723,trail,lethbridge,..,..,..,..,ab
52050,Scenic Drive S From 20 St S To Tudor Blvd S - Grnspc_723,trail,lethbridge,..,..,..,..,ab
52051,Scenic Drive S From 28 St S To Mm Drive - Grnspc_485,trail,lethbridge,..,..,..,..,ab
52052,Scenic Drive S From Chinook Heights To 15 St S - Grnspc_715,trail,lethbridge,..,..,..,..,ab
52053,Scenic Drive S From Chinook Heights To 15 St S - Grnspc_715,trail,lethbridge,..,..,..,..,ab
52054,Scenic Drive S From Chinook Heights To 15 St S - Grnspc_715,trail,lethbridge,..,..,..,..,ab
52055,Scenic Drive S From Chinook Heights To 15 St S - Grnspc_715,trail,lethbridge,..,..,..,..,ab
52056,Scenic Drive S From Chinook Heights To 15 St S - Grnspc_715,trail,lethbridge,..,..,..,..,ab
52057,Scenic Drive S From The Dog Run To 10 Ave S - Grnspc_703,trail,lethbridge,..,..,..,..,ab
52058,Scenic Drive S From The Enmax Centre To 28 St S - Grnspc_489,trail,lethbridge,..,..,..,..,ab
52059,Scenic Drive S From The Enmax Centre To 28 St S - Grnspc_489,trail,lethbridge,..,..,..,..,ab
52060,Scenic Drive S From Tudor Cres S To Retention Pond - Grnspc_705,trail,lethbridge,..,..,..,..,ab
52061,Scenic Heights Park - Grnspc_197,trail,lethbridge,1608,scenic,..,..,ab
52062,Scenic Heights Park - Grnspc_197,trail,lethbridge,1608,scenic,..,..,ab
52063,Scenic Heights Park - Grnspc_197,trail,lethbridge,1608,scenic,..,..,ab
52064,Scenic Heights Park - Grnspc_197,trail,lethbridge,1608,scenic,..,..,ab
52065,Scenic Heights Park - Grnspc_197,trail,lethbridge,1608,scenic,..,..,ab
52117,Senator Joyce Fairbairn Middle School - Grnspc_9615,trail,lethbridge,301,rocky mountain,..,..,ab
52118,Senator Joyce Fairbairn Middle School - Grnspc_9615,trail,lethbridge,301,rocky mountain,..,..,ab
52119,Senator Joyce Fairbairn Middle School - Grnspc_9615,trail,lethbridge,301,rocky mountain,..,..,ab
52120,Senator Joyce Fairbairn Middle School - Grnspc_9615,trail,lethbridge,301,rocky mountain,..,..,ab
52121,Senator Joyce Fairbairn Middle School - Grnspc_9615,trail,lethbridge,301,rocky mountain,..,..,ab
52122,Senator Joyce Fairbairn Middle School - Grnspc_9615,trail,lethbridge,301,rocky mountain,..,..,ab
52124,Sequoia Park - Grnspc_275,trail,lethbridge,3720,22,..,..,ab
52125,Sequoia Park - Grnspc_275,trail,lethbridge,3800,21,..,..,ab
52126,Sequoia Park - Grnspc_275,trail,lethbridge,3800,21,..,..,ab
52127,Sequoia Park - Grnspc_275,trail,lethbridge,3720,22,..,..,ab
52128,Sequoia Park - Grnspc_275,trail,lethbridge,3720,22,..,..,ab
52199,Sheridan Park - Grnspc_169,trail,lethbridge,925,columbia,..,..,ab
52200,Sheridan Park - Grnspc_169,trail,lethbridge,925,columbia,..,..,ab
52201,Sheridan Park - Grnspc_169,trail,lethbridge,925,columbia,..,..,ab
52202,Sheridan Park - Grnspc_169,trail,lethbridge,925,columbia,..,..,ab
52203,Sheridan Park - Grnspc_169,trail,lethbridge,925,columbia,..,..,ab
52204,Sheridan Park - Grnspc_169,trail,lethbridge,925,columbia,..,..,ab
52205,Sheridan Park - Grnspc_169,trail,lethbridge,925,columbia,..,..,ab
52206,Sheridan Park - Grnspc_169,trail,lethbridge,925,columbia,..,..,ab
52207,Sheridan Park - Grnspc_169,trail,lethbridge,925,columbia,..,..,ab
53370,Sherwood Walkway - Grnspc_309,trail,lethbridge,..,..,..,..,ab
53676,Silkstone Walkway - Grnspc_1054,trail,lethbridge,..,..,..,..,ab
53866,Sixmile Coulee Environmental Reserve - Grnspc_1360,trail,lethbridge,219,prairie rose,..,..,ab
53867,Sixmile Coulee Environmental Reserve - Grnspc_1360,trail,lethbridge,219,prairie rose,..,..,ab
53868,Sixmile Ridge Walkway - South - Grnspc_2491,trail,lethbridge,..,..,..,..,ab
53975,South Lethbridge Reservoir - Grnspc_230,trail,lethbridge,325,mayor magrath,..,..,ab
53976,South Lethbridge Reservoir - Grnspc_230,trail,lethbridge,325,mayor magrath,..,..,ab
53977,South Lethbridge Reservoir - Grnspc_230,trail,lethbridge,325,mayor magrath,..,..,ab
54031,Southgate Blvd S - Blvd 1 - Grnspc_1708,trail,lethbridge,..,..,..,..,ab
54032,Southgate Blvd S - Blvd 2 - Grnspc_1711,trail,lethbridge,..,..,..,..,ab
