Index,Facility_Name,ODRSF_facility_type,Provider,Street_No,Street_Name,Postal_Code,City,Prov_Terr
45589,Nicholas Sheran Park - Grnspc_939,trail,lethbridge,245,mcmaster,..,..,ab
45590,Nicholas Sheran Park - Grnspc_939,trail,lethbridge,245,mcmaster,..,..,ab
45591,Nicholas Sheran Park - Grnspc_939,trail,lethbridge,245,mcmaster,..,..,ab
45592,Nicholas Sheran Park - Grnspc_939,trail,lethbridge,245,mcmaster,..,..,ab
45593,Nicholas Sheran Park - Grnspc_939,trail,lethbridge,245,mcmaster,..,..,ab
45594,Nicholas Sheran Park - Grnspc_939,trail,lethbridge,245,mcmaster,..,..,ab
45595,Nicholas Sheran Park - Grnspc_939,trail,lethbridge,245,mcmaster,..,..,ab
45596,Nicholas Sheran Park - Grnspc_939,trail,lethbridge,245,mcmaster,..,..,ab
45597,Nicholas Sheran Park - Grnspc_939,trail,lethbridge,245,mcmaster,..,..,ab
45598,Nicholas Sheran Park - Grnspc_939,trail,lethbridge,245,mcmaster,..,..,ab
45599,Nicholas Sheran Park - Grnspc_939,trail,lethbridge,245,mcmaster,..,..,ab
45600,Nicholas Sheran Park - Grnspc_939,trail,lethbridge,245,mcmaster,..,..,ab
45601,Nicholas Sheran Park - Grnspc_939,trail,lethbridge,245,mcmaster,..,..,ab
45602,Nicholas Sheran School - Grnspc_150,trail,lethbridge,380,laval,..,..,ab
45603,Nicholas Sheran School - Grnspc_150,trail,lethbridge,380,laval,..,..,ab
45604,Nicholas Sheran School - Grnspc_150,trail,lethbridge,380,laval,..,..,ab
45627,No Associated Green Space,trail,lethbridge,..,..,..,..,ab
45628,No Associated Green Space,trail,lethbridge,..,..,..,..,ab
45629,No Associated Green Space,trail,lethbridge,..,..,..,..,ab
45630,No Associated Green Space,trail,lethbridge,..,..,..,..,ab
45631,No Associated Green Space,trail,lethbridge,..,..,..,..,ab
45632,No Associated Green Space,trail,lethbridge,..,..,..,..,ab
45633,No Associated Green Space,trail,lethbridge,..,..,..,..,ab
45634,No Associated Green Space,trail,lethbridge,..,..,..,..,ab
45635,No Associated Green Space,trail,lethbridge,..,..,..,..,ab
45636,No Associated Green Space,trail,lethbridge,..,..,..,..,ab
45637,No Associated Green Space,trail,lethbridge,..,..,..,..,ab
45638,No Associated Green Space,trail,lethbridge,..,..,..,..,ab
45639,No Associated Green Space,trail,lethbridge,..,..,..,..,ab
45640,No Associated Green Space,trail,lethbridge,..,..,..,..,ab
45641,No Associated Green Space,trail,lethbridge,..,..,..,..,ab
45642,No Associated Green Space,trail,lethbridge,1605,15,..,..,ab
45643,No Associated Green Space,trail,lethbridge,..,..,..,..,ab
45644,No Associated Green Space,trail,lethbridge,..,..,..,..,ab
45645,No Associated Green Space,trail,lethbridge,..,..,..,..,ab
45646,No Associated Green Space,trail,lethbridge,..,..,..,..,ab
45647,No Associated Green Space,trail,lethbridge,..,..,..,..,ab
45648,No Associated Green Space,trail,lethbridge,..,..,..,..,ab
45649,No Associated Green Space,trail,lethbridge,..,..,..,..,ab
45650,No Associated Green Space,trail,lethbridge,..,..,..,..,ab
45651,No Associated Green Space,trail,lethbridge,..,..,..,..,ab
45652,No Associated Green Space,trail,lethbridge,..,..,..,..,ab
45653,No Associated Green Space,trail,lethbridge,..,..,..,..,ab
45654,No Associated Green Space,trail,lethbridge,..,..,..,..,ab
45655,No Associated Green Space,trail,lethbridge,..,..,..,..,ab
45656,No Associated Green Space,trail,lethbridge,..,..,..,..,ab
45657,No Associated Green Space,trail,lethbridge,..,..,..,..,ab
45658,No Associated Green Space,trail,lethbridge,..,..,..,..,ab
45659,No Associated Green Space,trail,lethbridge,..,..,..,..,ab
