Index,Facility_Name,ODRSF_facility_type,Provider,Street_No,Street_Name,Postal_Code,City,Prov_Terr
11781,Henderson Lake,miscellaneous,lethbridge,..,..,..,..,ab
11783,Henderson Lake Golf Club,sports field,lethbridge,2727,parkside,..,..,ab
12230,Jeanne Sauv√© Picnic Area,miscellaneous,lethbridge,..,..,..,..,ab
12281,John Martin Recreation Area,miscellaneous,lethbridge,..,..,..,..,ab
12283,John Martin Recreation Area Volleyball Court,sports field,lethbridge,..,..,..,..,ab
12473,Kings Point Lookout,miscellaneous,lethbridge,..,kings,..,..,ab
12508,Kinsmen Park Basketball Court,sports field,lethbridge,..,..,..,..,ab
12509,Kinsmen Park Tennis Courts (2),sports field,lethbridge,..,..,..,..,ab
12510,Kinsmen Picnic Shelter,miscellaneous,lethbridge,..,..,..,..,ab
12553,Kiwanis Picnic Shelter,miscellaneous,lethbridge,..,..,..,..,ab
12828,Lakeview Greenstrip Basketball Court,sports field,lethbridge,..,..,..,..,ab
12835,Lakeview School Diamonds,sports field,lethbridge,1129,lakeview,..,..,ab
12836,Lakeview School Fields,sports field,lethbridge,1129,lakeview,..,..,ab
12837,Lakeview West Diamond,sports field,lethbridge,3101,lakeridge,..,..,ab
12928,Laval Park Basketball Court,sports field,lethbridge,..,..,..,..,ab
12948,Lci Ball Diamonds,sports field,lethbridge,433,15,..,..,ab
12949,Lci Soccer Fields,sports field,lethbridge,433,15,..,..,ab
12968,Legacy Park Basketball Court 1 (West),sports field,lethbridge,400,blackwolf,..,..,ab
12969,Legacy Park Basketball Court 2 (East),sports field,lethbridge,400,blackwolf,..,..,ab
12970,Legacy Park Tennis Courts (2),sports field,lethbridge,400,blackwolf,..,..,ab
12973,Legacy Ridge East Soccer Field,sports field,lethbridge,281,mildred dobbs,..,..,ab
12975,Legacy Ridge West Soccer Field,sports field,lethbridge,281,mildred dobbs,..,..,ab
13018,Lethbridge (Henderson) Tennis Club,sports field,lethbridge,..,..,..,..,ab
13019,Lethbridge Christian School Fields,sports field,lethbridge,3,st-james,..,..,ab
13020,Lethbridge Country Club,sports field,lethbridge,101,country club,..,..,ab
13021,Lethbridge Curling Club (Atb Centre),rink,lethbridge,74,mauretania,..,..,ab
13022,Lethbridge Sports Park,sports field,lethbridge,..,26,..,..,ab
13023,Lethbridge Sports Park,sports field,lethbridge,..,26,..,..,ab
13083,Lions Centennial Park Basketball Court,sports field,lethbridge,..,..,..,..,ab
13124,Lloyd Nolan Yard,sports field,lethbridge,..,..,..,..,ab
13495,Mckillop Ball Diamonds,sports field,lethbridge,420,21a,..,..,ab
13496,Mckillop Mini Soccer Field,sports field,lethbridge,2010,5,..,..,ab
13497,Mckillop Soccer Field,sports field,lethbridge,420,21a,..,..,ab
13674,Mike Mountain Horse Softball Diamond,sports field,lethbridge,155,jerry potts,..,..,ab
13981,Nicholas Sheran Lake,miscellaneous,lethbridge,..,..,..,..,ab
13983,Nicholas Sheran Park Disc Golf Course,sports field,lethbridge,..,..,..,..,ab
13984,Nicholas Sheran Picnic Shelter,miscellaneous,lethbridge,..,..,..,..,ab
13985,Nicholas Sheran School Diamonds,sports field,lethbridge,380,laval,..,..,ab
13986,Nicholas Sheran School Soccer Field,sports field,lethbridge,380,laval,..,..,ab
13992,Norbridge Park Basketball Court,sports field,lethbridge,..,..,..,..,ab
14135,Oldman River,miscellaneous,lethbridge,..,..,..,..,ab
14278,Paradise Canyon Golf And Country Club,sports field,lethbridge,185,canyon,..,..,ab
14425,Park Meadows School Diamonds,sports field,lethbridge,50,meadowlark,..,..,ab
14426,Park Meadows School Soccer Fields,sports field,lethbridge,50,park meadows,..,..,ab
15214,Redwood Park Bocce Ball Courts,sports field,lethbridge,..,..,..,..,ab
15215,Redwood Park Soccer Fields,sports field,lethbridge,3605,spruce,..,..,ab
15271,Rideau Park Basketball Court,sports field,lethbridge,..,..,..,..,ab
15469,Rotary Picnic Shelter,miscellaneous,lethbridge,..,..,..,..,ab
15544,Rutgers Park Diamond,sports field,lethbridge,..,columbia,..,..,ab
