Index,Facility_Name,ODRSF_facility_type,Provider,Street_No,Street_Name,Postal_Code,City,Prov_Terr
165389,Crossings Wet Pond,park,lethbridge,..,..,..,lethbridge,ab
165480,Dalhousie Carlton Walkway,park,lethbridge,..,..,..,lethbridge,ab
165484,Dalhousie Park,park,lethbridge,..,..,..,lethbridge,ab
165533,Dave Elton Park,park,lethbridge,..,..,..,lethbridge,ab
165646,Demonstration Gardens,park,lethbridge,..,..,..,lethbridge,ab
165808,Dominion Park,park,lethbridge,..,..,..,lethbridge,ab
166248,Edgewood Park - East,park,lethbridge,..,..,..,lethbridge,ab
166249,Edgewood Park - West,park,lethbridge,..,..,..,lethbridge,ab
166334,Elizabeth Mckillop Park,park,lethbridge,..,..,..,lethbridge,ab
166371,Elma Groves Park,park,lethbridge,..,..,..,lethbridge,ab
166470,Ermineview Park,park,lethbridge,..,..,..,lethbridge,ab
166622,Fairmont Blvd East,park,lethbridge,..,..,..,lethbridge,ab
166623,Fairmont Blvd West,park,lethbridge,..,..,..,lethbridge,ab
166624,Fairmont Garden Park,park,lethbridge,..,..,..,lethbridge,ab
166626,Fairmont Park,park,lethbridge,..,..,..,lethbridge,ab
166824,Firelight Park,park,lethbridge,..,..,..,lethbridge,ab
167184,Galt Gardens,park,lethbridge,..,..,..,lethbridge,ab
167186,Galt Museum - Area 1,park,lethbridge,..,..,..,lethbridge,ab
167225,Garry Drive - Buffer 4,park,lethbridge,..,..,..,lethbridge,ab
167226,Garry Drive - Buffer 7,park,lethbridge,..,..,..,lethbridge,ab
167325,Georgetown Park,park,lethbridge,..,..,..,lethbridge,ab
167724,Grand River Park,park,lethbridge,..,..,..,lethbridge,ab
167726,Grand River Walkway - North,park,lethbridge,..,..,..,lethbridge,ab
167727,Grand River Walkway - South,park,lethbridge,..,..,..,lethbridge,ab
167892,Greywolf Walkway,park,lethbridge,..,..,..,lethbridge,ab
167955,Gyro Park,park,lethbridge,..,..,..,lethbridge,ab
168237,Henderson Athletic Park,park,lethbridge,..,..,..,lethbridge,ab
168246,Henderson Park,park,lethbridge,..,..,..,lethbridge,ab
168299,Heritage Circle Park,park,lethbridge,..,..,..,lethbridge,ab
168300,Heritage Close Park,park,lethbridge,..,..,..,lethbridge,ab
168301,Heritage Court Park,park,lethbridge,..,..,..,lethbridge,ab
168309,Heritage Heights At Cpr,park,lethbridge,..,..,..,lethbridge,ab
168321,Heritage Place Park - East,park,lethbridge,..,..,..,lethbridge,ab
168322,Heritage Place Park - West,park,lethbridge,..,..,..,lethbridge,ab
168323,Heritage Point,park,lethbridge,..,..,..,lethbridge,ab
168326,Heritage Road Park,park,lethbridge,..,..,..,lethbridge,ab
168436,Highlands Park,park,lethbridge,..,..,..,lethbridge,ab
168847,Iroquois Park,park,lethbridge,..,..,..,lethbridge,ab
168993,Jane Stafford Walkway,park,lethbridge,..,..,..,lethbridge,ab
168994,Jane Stafford Walkway Extension,park,lethbridge,..,..,..,lethbridge,ab
169088,Jock Palmer Park,park,lethbridge,..,..,..,lethbridge,ab
169487,Keystone Island,park,lethbridge,..,..,..,lethbridge,ab
169488,Keystone Park,park,lethbridge,..,..,..,lethbridge,ab
169549,Kings Park,park,lethbridge,..,..,..,lethbridge,ab
169554,Kings Point,park,lethbridge,..,..,..,lethbridge,ab
169557,Kings Walkway,park,lethbridge,..,..,..,lethbridge,ab
169595,Kinsmen Park,park,lethbridge,..,..,..,lethbridge,ab
169639,Kiwanis Park,park,lethbridge,..,..,..,lethbridge,ab
169888,Kodiak Park,park,lethbridge,..,..,..,lethbridge,ab
