Index,Facility_Name,ODRSF_facility_type,Provider,Street_No,Street_Name,Postal_Code,City,Prov_Terr
45661,No Associated Green Space,trail,lethbridge,..,..,..,..,ab
45662,No Associated Green Space,trail,lethbridge,..,..,..,..,ab
45663,No Associated Green Space,trail,lethbridge,..,..,..,..,ab
45664,No Associated Green Space,trail,lethbridge,..,..,..,..,ab
45665,No Associated Green Space,trail,lethbridge,..,..,..,..,ab
45666,No Associated Green Space,trail,lethbridge,..,..,..,..,ab
45667,No Associated Green Space,trail,lethbridge,..,..,..,..,ab
45668,No Associated Green Space,trail,lethbridge,..,..,..,..,ab
45669,No Associated Green Space,trail,lethbridge,..,..,..,..,ab
45670,No Associated Green Space,trail,lethbridge,..,..,..,..,ab
45671,No Associated Green Space,trail,lethbridge,..,..,..,..,ab
45672,No Associated Green Space,trail,lethbridge,..,..,..,..,ab
45673,No Associated Green Space,trail,lethbridge,53,ermineglen,..,..,ab
45674,No Associated Green Space,trail,lethbridge,172,uplands,..,..,ab
45675,No Associated Green Space,trail,lethbridge,16,coachwood,..,..,ab
45676,No Associated Green Space,trail,lethbridge,..,..,..,..,ab
45677,No Associated Green Space,trail,lethbridge,..,..,..,..,ab
45678,No Associated Green Space,trail,lethbridge,45,tudor,..,..,ab
45679,No Associated Green Space,trail,lethbridge,..,..,..,..,ab
45680,No Associated Green Space,trail,lethbridge,..,..,..,..,ab
45681,No Associated Green Space,trail,lethbridge,..,..,..,..,ab
45682,No Associated Green Space,trail,lethbridge,..,..,..,..,ab
45683,No Associated Green Space,trail,lethbridge,..,..,..,..,ab
45684,No Associated Green Space,trail,lethbridge,..,..,..,..,ab
45685,No Associated Green Space,trail,lethbridge,4050,forestry,..,..,ab
45686,No Associated Green Space,trail,lethbridge,..,..,..,..,ab
45687,No Associated Green Space,trail,lethbridge,..,..,..,..,ab
45688,No Associated Green Space,trail,lethbridge,..,..,..,..,ab
45689,No Associated Green Space,trail,lethbridge,..,..,..,..,ab
45690,No Associated Green Space,trail,lethbridge,..,..,..,..,ab
45691,No Associated Green Space,trail,lethbridge,..,..,..,..,ab
45692,No Associated Green Space,trail,lethbridge,..,..,..,..,ab
45693,No Associated Green Space,trail,lethbridge,..,..,..,..,ab
45694,No Associated Green Space,trail,lethbridge,..,..,..,..,ab
45695,No Associated Green Space,trail,lethbridge,..,..,..,..,ab
45696,No Associated Green Space,trail,lethbridge,..,..,..,..,ab
45697,No Associated Green Space,trail,lethbridge,..,..,..,..,ab
45698,No Associated Green Space,trail,lethbridge,..,..,..,..,ab
45699,No Associated Green Space,trail,lethbridge,..,..,..,..,ab
45700,No Associated Green Space,trail,lethbridge,..,..,..,..,ab
45701,No Associated Green Space,trail,lethbridge,..,..,..,..,ab
45702,No Associated Green Space,trail,lethbridge,..,..,..,..,ab
45703,No Associated Green Space,trail,lethbridge,..,..,..,..,ab
45704,No Associated Green Space,trail,lethbridge,..,..,..,..,ab
45705,No Associated Green Space,trail,lethbridge,..,..,..,..,ab
45706,No Associated Green Space,trail,lethbridge,..,..,..,..,ab
45707,No Associated Green Space,trail,lethbridge,..,..,..,..,ab
45708,No Associated Green Space,trail,lethbridge,..,..,..,..,ab
45709,No Associated Green Space,trail,lethbridge,..,..,..,..,ab
