Index,Facility_Name,ODRSF_facility_type,Provider,Street_No,Street_Name,Postal_Code,City,Prov_Terr
62955,University Drive & Sunridge Blvd - Area 1 - Grnspc_972,trail,lethbridge,..,..,..,..,ab
62956,University Drive & Sunridge Blvd - Area 1 - Grnspc_972,trail,lethbridge,..,..,..,..,ab
62957,University Drive & Sunridge Blvd - Area 1 - Grnspc_972,trail,lethbridge,..,..,..,..,ab
62958,University Drive & Sunridge Blvd - Area 2 - Grnspc_9583,trail,lethbridge,..,..,..,..,ab
62959,University Drive & Sunridge Blvd - Area 2 - Grnspc_9583,trail,lethbridge,..,..,..,..,ab
62960,University Drive & Sunridge Blvd - Area 2 - Grnspc_9583,trail,lethbridge,..,..,..,..,ab
62961,University Drive & Sunridge Blvd - Area 2 - Grnspc_9583,trail,lethbridge,..,..,..,..,ab
62962,University Drive & Whoop-Up Drive - Area 1 - Grnspc_684,trail,lethbridge,..,..,..,..,ab
62963,University Drive & Whoop-Up Drive - Area 2 - Grnspc_333,trail,lethbridge,..,..,..,..,ab
62964,University Drive & Whoop-Up Drive - Area 4 - Grnspc_681,trail,lethbridge,..,..,..,..,ab
62965,University Drive & Whoop-Up Drive - Area 4 - Grnspc_681,trail,lethbridge,..,..,..,..,ab
62966,University Drive & Whoop-Up Drive - Area 4 - Grnspc_681,trail,lethbridge,..,..,..,..,ab
62967,University Drive & Whoop-Up Drive - Area 4 - Grnspc_681,trail,lethbridge,..,..,..,..,ab
62968,University Drive & Whoop-Up Drive - Area 4 - Grnspc_681,trail,lethbridge,375,columbia,..,..,ab
62969,University Drive & Whoop-Up Drive - Area 4 - Grnspc_681,trail,lethbridge,375,columbia,..,..,ab
62970,University Drive & Whoop-Up Drive - Area 4 - Grnspc_681,trail,lethbridge,375,columbia,..,..,ab
62971,University Drive & Whoop-Up Drive - Area 4 - Grnspc_681,trail,lethbridge,375,columbia,..,..,ab
62972,University Drive & Whoop-Up Drive - Area 4 - Grnspc_681,trail,lethbridge,375,columbia,..,..,ab
62973,University Drive & Whoop-Up Drive - Area 4 - Grnspc_681,trail,lethbridge,..,..,..,..,ab
62974,University Drive & Whoop-Up Drive - Area 4 - Grnspc_681,trail,lethbridge,..,..,..,..,ab
62975,University Drive & Whoop-Up Drive - Area 4 - Grnspc_681,trail,lethbridge,..,..,..,..,ab
62976,University Drive & Whoop-Up Drive - Area 5 - Grnspc_920,trail,lethbridge,..,..,..,..,ab
62977,University Drive & Whoop-Up Drive - Area 5 - Grnspc_920,trail,lethbridge,..,..,..,..,ab
62978,University Drive At Canyons Parkway - Area 1 - Grnspc_981,trail,lethbridge,..,..,..,..,ab
62979,University Drive At Canyons Parkway - Area 2 - Grnspc_5137,trail,lethbridge,..,..,..,..,ab
62980,University Drive At Father Leonard Van Tighem School - Grnspc_616,trail,lethbridge,..,..,..,..,ab
62981,University Drive At Heritage Blvd N - Area 2 - Grnspc_321,trail,lethbridge,..,..,..,..,ab
62982,University Drive At Heritage Blvd N - Area 2 - Grnspc_321,trail,lethbridge,..,..,..,..,ab
62983,University Drive At Heritage Blvd N - South Entrance - Grnspc_1047,trail,lethbridge,..,..,..,..,ab
62984,University Drive At Heritage Blvd N - South Entrance - Grnspc_1047,trail,lethbridge,..,..,..,..,ab
62985,University Drive At Riverstone Blvd W - Grnspc_176,trail,lethbridge,..,..,..,..,ab
62986,University Drive At Riverwood Manor - Grnspc_691,trail,lethbridge,..,..,..,..,ab
62987,University Drive At Stadium - Area 1 - Grnspc_1514,trail,lethbridge,..,..,..,..,ab
62988,University Drive At Stadium - Area 2 - Grnspc_1520,trail,lethbridge,..,..,..,..,ab
62989,University Drive At Walsh Drive - Area 2 - Grnspc_762,trail,lethbridge,..,..,..,..,ab
62990,University Drive Edgewood Blvd To Heritage Blvd - Grnspc_1049,trail,lethbridge,2251,university,..,..,ab
62991,University Drive Edgewood Blvd To Heritage Blvd - Grnspc_1049,trail,lethbridge,2251,university,..,..,ab
62992,University Drive Edgewood Blvd To Heritage Blvd - Grnspc_1049,trail,lethbridge,2251,university,..,..,ab
62993,University Drive Edgewood Blvd To Heritage Blvd - Grnspc_1049,trail,lethbridge,2251,university,..,..,ab
62994,University Drive Edgewood Blvd To Heritage Blvd - Grnspc_1049,trail,lethbridge,2251,university,..,..,ab
62995,University Drive Edgewood Blvd To Heritage Blvd - Grnspc_1049,trail,lethbridge,80,heritage,..,..,ab
62996,University Drive Ridgewood Blvd To Bull Trail Park North - Grnspc_873,trail,lethbridge,..,..,..,..,ab
62997,University Drive Ridgewood Blvd To Edgewood Blvd - Grnspc_326,trail,lethbridge,..,..,..,..,ab
62998,University Drive W At Sunridge - Grnspc_977,trail,lethbridge,..,..,..,..,ab
62999,University Drive W At Sunridge - Grnspc_977,trail,lethbridge,..,..,..,..,ab
65047,Valleyview Park - Grnspc_216,trail,lethbridge,502,1,..,..,ab
65048,Valleyview Park - Grnspc_216,trail,lethbridge,502,1,..,..,ab
65049,Valleyview Park - Grnspc_216,trail,lethbridge,115,whoop up,..,..,ab
65050,Valleyview Park - Grnspc_216,trail,lethbridge,502,1,..,..,ab
