Index,Facility_Name,ODRSF_facility_type,Provider,Street_No,Street_Name,Postal_Code,City,Prov_Terr
20665,Aquitania Blvd W - East Buffer 2 - Grnspc_3757,trail,lethbridge,..,..,..,..,ab
20666,Aquitania Blvd W - East Buffer 2 - Grnspc_3757,trail,lethbridge,..,..,..,..,ab
20667,Aquitania Blvd W - East Buffer 2 - Grnspc_3757,trail,lethbridge,..,..,..,..,ab
20668,Aquitania Blvd W - East Buffer 2 - Grnspc_3757,trail,lethbridge,..,..,..,..,ab
20669,Aquitania Blvd W - East Buffer 2 - Grnspc_3757,trail,lethbridge,..,..,..,..,ab
20670,Aquitania Blvd W - West Buffer 1 - Grnspc_3799,trail,lethbridge,..,..,..,..,ab
20671,Aquitania Blvd W - West Buffer 1 - Grnspc_3799,trail,lethbridge,..,..,..,..,ab
20672,Aquitania Blvd W - West Buffer 1 - Grnspc_3799,trail,lethbridge,..,..,..,..,ab
20673,Aquitania Blvd W - West Buffer 1 - Grnspc_3799,trail,lethbridge,..,..,..,..,ab
20674,Aquitania Blvd W - West Buffer 3 - Grnspc_3764,trail,lethbridge,..,..,..,..,ab
20762,Arbourwood Island - Grnspc_2622,trail,lethbridge,..,..,..,..,ab
20763,Arbourwood Island - Grnspc_2622,trail,lethbridge,..,..,..,..,ab
20764,Arbourwood Island - Grnspc_2622,trail,lethbridge,..,..,..,..,ab
20765,Arbourwood Island - Grnspc_2622,trail,lethbridge,..,..,..,..,ab
20766,Arbourwood Island - Grnspc_2622,trail,lethbridge,..,..,..,..,ab
20767,Arbourwood Walkway - West - Grnspc_2484,trail,lethbridge,427,arbourwood,..,..,ab
20994,Assiniboia Park - Grnspc_359,trail,lethbridge,130,jerry potts,..,..,ab
20995,Assiniboia Park - Grnspc_359,trail,lethbridge,130,jerry potts,..,..,ab
20996,Assiniboia Park - Grnspc_359,trail,lethbridge,130,jerry potts,..,..,ab
20997,Assiniboia Park - Grnspc_359,trail,lethbridge,130,jerry potts,..,..,ab
20998,Assiniboia Park - Grnspc_359,trail,lethbridge,130,jerry potts,..,..,ab
20999,Assiniboia Park - Grnspc_359,trail,lethbridge,130,jerry potts,..,..,ab
21000,Assiniboia Park - Grnspc_359,trail,lethbridge,130,jerry potts,..,..,ab
21001,Assiniboia Park - Grnspc_359,trail,lethbridge,130,jerry potts,..,..,ab
21002,Assiniboia Park - Grnspc_359,trail,lethbridge,130,jerry potts,..,..,ab
21003,Assiniboia Park - Grnspc_359,trail,lethbridge,130,jerry potts,..,..,ab
21004,Assiniboia Park - Grnspc_359,trail,lethbridge,130,jerry potts,..,..,ab
21005,Assiniboia Park - Grnspc_359,trail,lethbridge,130,jerry potts,..,..,ab
21011,Atb Centre (Facility),trail,lethbridge,300,britannia,..,..,ab
21012,Atb Centre (Facility),trail,lethbridge,300,britannia,..,..,ab
21013,Atb Centre (Facility),trail,lethbridge,300,britannia,..,..,ab
21026,Atso Towaawa Park - Grnspc_361,trail,lethbridge,199,jerry potts,..,..,ab
21027,Atso Towaawa Park - Grnspc_361,trail,lethbridge,199,jerry potts,..,..,ab
21028,Atso Towaawa Park - Grnspc_361,trail,lethbridge,199,jerry potts,..,..,ab
21029,Atso Towaawa Park - Grnspc_361,trail,lethbridge,199,jerry potts,..,..,ab
21030,Atso Towaawa Park - Grnspc_361,trail,lethbridge,199,jerry potts,..,..,ab
21031,Atso Towaawa Park - Grnspc_361,trail,lethbridge,199,jerry potts,..,..,ab
21032,Atso Towaawa Park - Grnspc_361,trail,lethbridge,199,jerry potts,..,..,ab
21033,Atso Towaawa Park - Grnspc_361,trail,lethbridge,199,jerry potts,..,..,ab
21034,Atso Towaawa Park - Grnspc_361,trail,lethbridge,199,jerry potts,..,..,ab
21035,Atso Towaawa Park - Grnspc_361,trail,lethbridge,199,jerry potts,..,..,ab
21036,Atso Towaawa Park - Grnspc_361,trail,lethbridge,199,jerry potts,..,..,ab
21037,Atso Towaawa Park - Grnspc_361,trail,lethbridge,199,jerry potts,..,..,ab
21038,Atso Towaawa Park - Grnspc_361,trail,lethbridge,199,jerry potts,..,..,ab
21039,Atso Towaawa Park - Grnspc_361,trail,lethbridge,199,jerry potts,..,..,ab
21040,Atso Towaawa Park - Grnspc_361,trail,lethbridge,199,jerry potts,..,..,ab
21661,Benton Buffer - Simon Fraser Blvd To Temple Blvd - Grnspc_170,trail,lethbridge,..,..,..,..,ab
22047,Blackfoot Circle Walkway - Grnspc_160,trail,lethbridge,210,blackfoot,..,..,ab
22048,Blackfoot Park - Grnspc_190,trail,lethbridge,70,blackfoot,..,..,ab
