Index,Facility_Name,ODRSF_facility_type,Provider,Street_No,Street_Name,Postal_Code,City,Prov_Terr
19364,13 St N 44 Ave N To Pavan Park Entrance - Grnspc_628,trail,lethbridge,..,..,..,..,ab
19436,20 Ave Greenstrip - Grnspc_591,trail,lethbridge,2203,20,..,..,ab
19498,23 St N 2 Ave N To 3 Ave N Eastside Area 2 - Grnspc_520,trail,lethbridge,..,..,..,..,ab
19499,23 St N 2 Ave N To 3 Ave N Westside Area 1 - Grnspc_537,trail,lethbridge,..,..,..,..,ab
19500,23 St N 2 Ave N To 3 Ave N Westside Area 2 - Grnspc_1168,trail,lethbridge,204,mayor magrath,..,..,ab
19501,23 St N 3 Ave N To 5 Ave N Eastside - Grnspc_4331,trail,lethbridge,..,..,..,..,ab
19509,26 Ave N 13 St N To 18 St N - Grnspc_1830,trail,lethbridge,..,..,..,..,ab
19510,26 Ave N 18 St N To 23 St N - Grnspc_1179,trail,lethbridge,..,..,..,..,ab
19511,26 Ave N 18 St N To 23 St N - Grnspc_1179,trail,lethbridge,..,..,..,..,ab
19512,26 Ave N 23 St N To 28 St N Southside - Grnspc_1180,trail,lethbridge,..,..,..,..,ab
19513,26 Ave N Erminedale Blvd To Bluefox Blvd - Grnspc_1173,trail,lethbridge,..,..,..,..,ab
19514,26 Ave N Erminedale Blvd To Bluefox Blvd - Grnspc_1173,trail,lethbridge,..,..,..,..,ab
19515,26 Ave N Northside - Area 1 - Grnspc_1175,trail,lethbridge,..,..,..,..,ab
19522,28 St N 14 Ave N To 18 Ave N - Eastside - Grnspc_800,trail,lethbridge,..,..,..,..,ab
19523,28 St N 18 Ave N To 26 Ave N - Eastside - Grnspc_1216,trail,lethbridge,2803,18,..,..,ab
19524,28 St N 18 Ave N To 26 Ave N - Westside - Grnspc_427,trail,lethbridge,..,..,..,..,ab
19525,28 St N 18 Ave N To 26 Ave N - Westside - Grnspc_427,trail,lethbridge,2400,28,..,..,ab
19526,28 St N 5 Ave N To 7 Ave N Eastside - Grnspc_526,trail,lethbridge,701,28,..,..,ab
19527,28 St N 7 Ave N To 9 Ave N Eastside - Grnspc_518,trail,lethbridge,2810,9,..,..,ab
19528,28 St N 7 Ave N To 9 Ave N Eastside - Grnspc_518,trail,lethbridge,2810,9,..,..,ab
19529,28 St N 7 Ave N To 9 Ave N Eastside - Grnspc_518,trail,lethbridge,2810,9,..,..,ab
19530,28 St N 7 Ave N To 9 Ave N Eastside - Grnspc_518,trail,lethbridge,2810,9,..,..,ab
19531,28 St N 7 Ave N To 9 Ave N Eastside - Grnspc_518,trail,lethbridge,2810,9,..,..,ab
19532,28 St N 7 Ave N To 9 Ave N Eastside - Grnspc_518,trail,lethbridge,2810,9,..,..,ab
19533,28 St N And 26 Ave N - Area 1 - Grnspc_1270,trail,lethbridge,..,..,..,..,ab
19534,28 St N And 26 Ave N - Area 2 - Grnspc_1268,trail,lethbridge,..,..,..,..,ab
19535,28 St N And 26 Ave N - Area 2 - Grnspc_1268,trail,lethbridge,..,..,..,..,ab
19536,28 St N And 26 Ave N - Area 2 - Grnspc_1272,trail,lethbridge,..,..,..,..,ab
19537,28 St N At 12 Ave N - Eastside Area 1 - Grnspc_515,trail,lethbridge,..,..,..,..,ab
19538,28 St N At 18 Ave N - Southside - Grnspc_512,trail,lethbridge,2802,18,..,..,ab
19539,28 St N At 18 Ave N - Southside - Grnspc_512,trail,lethbridge,2802,18,..,..,ab
19540,28 St N At 18 Ave N - Southside - Grnspc_512,trail,lethbridge,2802,18,..,..,ab
19541,28 St N Between 26 Ave N & 30 Ave N Eastside - Blvd 1 - Grnspc_1264,trail,lethbridge,..,..,..,..,ab
19542,28 St N Between 26 Ave N & 30 Ave N Eastside - Blvd 1 - Grnspc_1264,trail,lethbridge,..,..,..,..,ab
19543,28 St N Between 26 Ave N & 30 Ave N Eastside - Blvd 2 - Grnspc_1258,trail,lethbridge,..,..,..,..,ab
19544,28 St N Between 26 Ave N & 30 Ave N Eastside - Blvd 2 - Grnspc_1258,trail,lethbridge,..,..,..,..,ab
19545,28 St N Eastside Between 30 Ave N & 35 Ave N - Grnspc_1320,trail,lethbridge,..,..,..,..,ab
19546,28 St N Westside - Blvd 1 - Grnspc_1125,trail,lethbridge,2701,5,..,..,ab
19547,28 St N Westside - Blvd 4 - Grnspc_1131,trail,lethbridge,1106,28,..,..,ab
19548,28 St N Westside - Blvd 4 - Grnspc_1131,trail,lethbridge,1099,27a,..,..,ab
19549,28 St N Westside - Blvd 6 - Grnspc_1132,trail,lethbridge,1206,28,..,..,ab
19550,28 St N Westside - Blvd 7 - Grnspc_1133,trail,lethbridge,..,..,..,..,ab
19551,28 St N Westside - Blvd 7 - Grnspc_1133,trail,lethbridge,..,..,..,..,ab
19552,28 St S Walkway North - Grnspc_5541,trail,lethbridge,..,..,..,..,ab
19553,28 St S Walkway North - Grnspc_5541,trail,lethbridge,..,..,..,..,ab
19576,30 Ave N Southside Blvd 1 - Grnspc_1111,trail,lethbridge,..,..,..,..,ab
19577,30 St N Southside - Blvd 2 - Grnspc_1117,trail,lethbridge,..,..,..,..,ab
19578,30 St N Southside - Blvd 2 - Grnspc_1117,trail,lethbridge,..,..,..,..,ab
19631,36 St N Eastside Blvd 1 - Grnspc_1107,trail,lethbridge,..,..,..,..,ab
