Index,Facility_Name,ODRSF_facility_type,Provider,Street_No,Street_Name,Postal_Code,City,Prov_Terr
15583,Sam Serbu Field (Lakeview Centre Diamond),sports field,lethbridge,3101,lakeridge,..,..,ab
15650,Scenic Drive Dog Run,park,lethbridge,..,..,..,..,ab
15651,Scenic Heights Basketball Court (Lower),sports field,lethbridge,..,..,..,..,ab
15652,Scenic Heights Basketball Court (Upper),sports field,lethbridge,..,..,..,..,ab
15690,Senator Buchanan Diamonds,sports field,lethbridge,1101,7,..,..,ab
15691,Senator Buchanan Soccer Fields,sports field,lethbridge,1101,7,..,..,ab
15692,Senator Buchanan Volleyball Court,sports field,lethbridge,1101,7,..,..,ab
15789,Sheridan Park Basketball Court,sports field,lethbridge,..,..,..,..,ab
15790,Sheridan Park Diamond,sports field,lethbridge,925,columbia,..,..,ab
16880,Softball Valley,sports field,lethbridge,..,..,..,..,ab
17066,St Marys School Fields,sports field,lethbridge,425,18,..,..,ab
17075,St Patrick School Mini Soccer Field,sports field,lethbridge,80,rivergreen,..,..,ab
17078,St Paul School Mini Soccer Fields,sports field,lethbridge,1212,12,..,..,ab
17091,St Teresa School Ball Diamond,sports field,lethbridge,235,mildred dobbs,..,..,ab
17118,St. Basils School Diamond,sports field,lethbridge,402,12,..,..,ab
17119,St. Basils School Mini Soccer,sports field,lethbridge,402,18,..,..,ab
17213,St. Patrick School Diamond,sports field,lethbridge,80,rivergreen,..,..,ab
17255,Staffordville Basketball Court,sports field,lethbridge,..,..,..,..,ab
17489,Ted Petrunia Bowling Green,sports field,lethbridge,1512,18,..,..,ab
17702,The Sugar Bowl,miscellaneous,lethbridge,..,..,..,..,ab
17944,University Of Lethbridge Track,sports field,lethbridge,4401,university,..,..,ab
18170,Watermark Ball Diamond,sports field,lethbridge,317,rocky mountain,..,..,ab
18171,Watermark Basketball Court,sports field,lethbridge,317,rocky mountain,..,..,ab
18172,Watermark North Soccer Field,sports field,lethbridge,317,rocky mountain,..,..,ab
18173,Watermark Pump Track,sports field,lethbridge,317,rocky mountain,..,..,ab
18174,Watermark School South Soccer Field,sports field,lethbridge,317,rocky mountain,..,..,ab
18235,West Highlands Picnic Area,miscellaneous,lethbridge,..,highlands,..,..,ab
18282,Westminster School Diamonds,sports field,lethbridge,402,18,..,..,ab
18283,Westminster School Soccer Field,sports field,lethbridge,402,18,..,..,ab
18284,Westminster Tennis Courts (2),sports field,lethbridge,..,..,..,..,ab
18432,Wilson Middle School Diamonds,sports field,lethbridge,2003,9,..,..,ab
18433,Wilson Middle School Soccer Fields,sports field,lethbridge,2003,9,..,..,ab
18463,Winston Churchill Basketball Court,sports field,lethbridge,..,..,..,..,ab
18464,Winston Churchill Diamond,sports field,lethbridge,1605,15,..,..,ab
18465,Winston Churchill East Fields,sports field,lethbridge,1900,18,..,..,ab
18466,Winston Churchill Football Field,sports field,lethbridge,1605,15,..,..,ab
18467,Winston Churchill School Soccer Fields,sports field,lethbridge,1605,15,..,..,ab
19161,(Not Specified),trail,lethbridge,..,..,..,..,ab
19162,(Not Specified),trail,lethbridge,..,..,..,..,ab
19163,(Not Specified),trail,lethbridge,..,..,..,..,ab
19321,1 Ave N 14 St N To Mm Drive - Grnspc_655,trail,lethbridge,..,..,..,..,ab
19322,1 Ave S At Brewery Gardens - Grnspc_9609,trail,lethbridge,50,1,..,..,ab
19323,1 Ave S At Brewery Gardens - Grnspc_9609,trail,lethbridge,50,1,..,..,ab
19324,1 Ave S At Brewery Gardens - Grnspc_9609,trail,lethbridge,50,1,..,..,ab
19325,1 Ave S At Brewery Gardens - Grnspc_9609,trail,lethbridge,50,1,..,..,ab
19326,1 Ave S At Brewery Gardens - Grnspc_9609,trail,lethbridge,50,1,..,..,ab
19360,13 St N - West Buffer 2 - Grnspc_1824,trail,lethbridge,..,..,..,..,ab
19361,13 St N - West Buffer 2 - Grnspc_1824,trail,lethbridge,..,..,..,..,ab
19362,13 St N - West Buffer 3 - Grnspc_1855,trail,lethbridge,..,..,..,..,ab
