Index,Facility_Name,ODRSF_facility_type,Provider,Street_No,Street_Name,Postal_Code,City,Prov_Terr
79,Alexander Wilderness Park Lookout,park,lethbridge,..,..,..,..,ab
80,Alexander Wilderness Park Picnic Area,park,lethbridge,..,..,..,..,ab
220,Atb Centre,rink,lethbridge,74,mauretania,..,..,ab
363,Bernd Ebel Fitness Area (Kiwanis Park),gym,lethbridge,726,5,..,..,ab
470,Botterill Bottom Park Boat Launch,park,lethbridge,..,..,..,..,ab
471,Botterill Bottom Park Lookout,park,lethbridge,..,..,..,..,ab
590,Bull Trail Park Lookout 1,trail,lethbridge,..,..,..,..,ab
811,Central Station Fitness Area,gym,lethbridge,390,aquitania,..,..,ab
1040,Chinook Lake Outdoor Skating Area,rink,lethbridge,..,..,..,chinook,ab
1042,Chinook Tourist Exercise Area,gym,lethbridge,2805,scenic,..,..,ab
1083,Civic Ice Centre,rink,lethbridge,..,..,..,..,ab
1182,Cor Van Raay Ymca Pool,pool,lethbridge,74,mauretania,..,..,ab
1209,Cottonwood Park Lookout,park,lethbridge,..,..,..,..,ab
1576,Enmax Centre,rink,lethbridge,2510,scenic,..,..,ab
1786,Fritz Sick Memorial Pool,pool,lethbridge,420,11,..,..,ab
1845,Georgetown Park Horseshoe Pits,park,lethbridge,..,..,..,..,ab
2031,Gyro Spray Ground,splash pad,lethbridge,401,laval,..,..,ab
2032,Gyro Spray Park (Nicholas Sheran),splash pad,lethbridge,..,..,..,..,ab
2111,Henderson Ice Centre,rink,lethbridge,..,..,..,..,ab
2112,Henderson Lake Outdoor Skating Area,rink,lethbridge,..,..,..,..,ab
2114,Henderson Park - East Picnic Area,park,lethbridge,..,..,..,..,ab
2115,Henderson Park Boat Launch,park,lethbridge,..,..,..,..,ab
2116,Henderson Pool,pool,lethbridge,2710,parkside,..,..,ab
2341,Indian Battle Park - North Lookout,park,lethbridge,..,..,..,..,ab
2342,Indian Battle Park - South Lookout 1,park,lethbridge,..,..,..,..,ab
2343,Indian Battle Park Horseshoe Pits,park,lethbridge,..,..,..,..,ab
2344,Indian Battle Park Picnic Area 1,park,lethbridge,..,..,..,..,ab
2345,Indian Battle Park Picnic Area 2,park,lethbridge,..,..,..,..,ab
2346,Indian Battle Park Picnic Area 3 (Accessible),park,lethbridge,..,..,..,..,ab
2347,Indian Battle Park Picnic Area 6,park,lethbridge,..,..,..,..,ab
2348,Indian Battle Park Warm-Up Station,gym,lethbridge,200,indian battle,..,..,ab
2568,Kinette Active Park (Lakeview Park),gym,lethbridge,3101,lakeridge,..,..,ab
2605,Kinsmen Park Pickle Ball Courts (4),park,lethbridge,..,..,..,..,ab
2627,Kiwanis Park Horseshoe Pits,park,lethbridge,..,..,..,..,ab
2654,Labor Club Ice Centre,rink,lethbridge,2020,18,..,..,ab
2753,Legacy Park Challenge Course,trail,lethbridge,400,blackwolf,..,..,ab
2754,Legacy Park Fitness Area,gym,lethbridge,400,blackwolf,..,..,ab
2755,Legacy Park Outdoor Skating Area,rink,lethbridge,400,blackwolf,..,..,ab
2756,Legacy Park Skate Plaza,skate park,lethbridge,400,blackwolf,..,..,ab
2757,Legacy Park Sledding Hill,miscellaneous,lethbridge,400,blackwolf,..,..,ab
2768,Lethbridge Elks Bmx Park,park,lethbridge,..,..,..,..,ab
2770,Lethbridge Skate Park,skate park,lethbridge,..,..,..,..,ab
2836,Logan Boulet Arena,rink,lethbridge,..,..,..,..,ab
3236,Max Bell Regional Aquatic Centre,pool,lethbridge,4401,university,..,..,ab
3464,Mountain Bike Park,park,lethbridge,..,..,..,..,ab
3541,Nicholas Sheran Fitness Area,gym,lethbridge,245,mcmaster,..,..,ab
3542,Nicholas Sheran Ice Centre,rink,lethbridge,401,laval,..,..,ab
3543,Nicholas Sheran Lake Outdoor Skating Area,rink,lethbridge,..,..,..,..,ab
3544,Nicholas Sheran Leisure Centre,pool,lethbridge,401,laval,..,..,ab
