Index,Facility_Name,ODRSF_facility_type,Provider,Street_No,Street_Name,Postal_Code,City,Prov_Terr
35648,Lethbridge Nature Reserve - Grnspc_377,trail,lethbridge,300,indian battle,..,..,ab
35649,Lethbridge Nature Reserve - Grnspc_377,trail,lethbridge,300,indian battle,..,..,ab
35650,Lethbridge Nature Reserve - Grnspc_377,trail,lethbridge,300,indian battle,..,..,ab
35651,Lethbridge Nature Reserve - Grnspc_377,trail,lethbridge,300,indian battle,..,..,ab
35652,Lethbridge Nature Reserve - Grnspc_377,trail,lethbridge,35,1,..,..,ab
35653,Lethbridge Nature Reserve - Grnspc_377,trail,lethbridge,300,indian battle,..,..,ab
35654,Lethbridge Nature Reserve - Grnspc_377,trail,lethbridge,300,indian battle,..,..,ab
35655,Lethbridge Nature Reserve - Grnspc_377,trail,lethbridge,300,indian battle,..,..,ab
35656,Lethbridge Nature Reserve - Grnspc_377,trail,lethbridge,300,indian battle,..,..,ab
35657,Lethbridge Nature Reserve - Grnspc_377,trail,lethbridge,300,indian battle,..,..,ab
35658,Lethbridge Nature Reserve - Grnspc_377,trail,lethbridge,300,indian battle,..,..,ab
35659,Lethbridge Nature Reserve - Grnspc_377,trail,lethbridge,300,indian battle,..,..,ab
35660,Lethbridge Nature Reserve - Grnspc_377,trail,lethbridge,300,indian battle,..,..,ab
35661,Lethbridge Nature Reserve - Grnspc_377,trail,lethbridge,300,indian battle,..,..,ab
35662,Lethbridge Nature Reserve - Grnspc_377,trail,lethbridge,35,1,..,..,ab
35663,Lethbridge Nature Reserve - Grnspc_377,trail,lethbridge,300,indian battle,..,..,ab
35779,Lions Centennial Park - Grnspc_718,trail,lethbridge,2402,19,..,..,ab
35780,Lions Centennial Park - Grnspc_718,trail,lethbridge,2402,19,..,..,ab
35781,Lions Centennial Park - Grnspc_718,trail,lethbridge,2402,19,..,..,ab
35782,Lions Centennial Park - Grnspc_718,trail,lethbridge,2402,19,..,..,ab
35783,Lions Centennial Park - Grnspc_718,trail,lethbridge,2402,19,..,..,ab
35784,Lions Centennial Park - Grnspc_718,trail,lethbridge,2402,19,..,..,ab
35785,Lions Centennial Park - Grnspc_718,trail,lethbridge,2402,19,..,..,ab
35926,London Road Park - Grnspc_218,trail,lethbridge,620,7,..,..,ab
35927,London Road Park - Grnspc_218,trail,lethbridge,620,7,..,..,ab
35928,London Road Park - Grnspc_218,trail,lethbridge,620,7,..,..,ab
35929,London Road Park - Grnspc_218,trail,lethbridge,620,7,..,..,ab
36115,Loyola Walkway - Grnspc_1401,trail,lethbridge,379,laval,..,..,ab
36151,Macleod Drive W - Area 1 - Grnspc_6349,trail,lethbridge,..,..,..,..,ab
36152,Macleod Drive W - Area 2 - Grnspc_693,trail,lethbridge,140,alderson,..,..,ab
36153,Macleod Drive W - Area 2 - Grnspc_693,trail,lethbridge,..,..,..,..,ab
36154,Macleod Drive W - Area 2 - Grnspc_693,trail,lethbridge,..,..,..,..,ab
36155,Macleod Drive W - Area 2 - Grnspc_693,trail,lethbridge,..,..,..,..,ab
36156,Macleod Drive W - Area 2 - Grnspc_693,trail,lethbridge,..,..,..,..,ab
36157,Macleod Drive W - Area 2 - Grnspc_693,trail,lethbridge,..,..,..,..,ab
36158,Macleod Drive W - Area 2 - Grnspc_693,trail,lethbridge,..,..,..,..,ab
36159,Macleod Drive W - Area 2 - Grnspc_693,trail,lethbridge,..,..,..,..,ab
36160,Macleod Drive W - Area 2 - Grnspc_693,trail,lethbridge,..,..,..,..,ab
36161,Macleod Drive W - Area 3 - Grnspc_690,trail,lethbridge,..,..,..,..,ab
36162,Macleod Walkway - Grnspc_329,trail,lethbridge,27,crandell,..,..,ab
43085,Mary Cameron Crescent - North Walkway - Grnspc_1921,trail,lethbridge,..,..,..,..,ab
43086,Mary Cameron Crescent - South Walkway - Grnspc_1922,trail,lethbridge,..,..,..,..,ab
43282,Mckillop Park - Grnspc_221,trail,lethbridge,2140,9b,..,..,ab
43332,Mcmaster Blvd W - Buffer 1 - Grnspc_3964,trail,lethbridge,375,columbia,..,..,ab
43333,Mcmaster Blvd W - Grnspc_6350,trail,lethbridge,280,mcgill,..,..,ab
43334,Mcmaster Blvd W - Grnspc_6350,trail,lethbridge,280,mcgill,..,..,ab
43335,Mcmaster Blvd W - Grnspc_6350,trail,lethbridge,280,mcgill,..,..,ab
43336,Mcmaster Blvd W - Grnspc_6350,trail,lethbridge,280,mcgill,..,..,ab
43337,Mcmaster Blvd W - Grnspc_6350,trail,lethbridge,280,mcgill,..,..,ab
