Index,Facility_Name,ODRSF_facility_type,Provider,Street_No,Street_Name,Postal_Code,City,Prov_Terr
176387,St Rita Elem; Ranchlands Community School,park,calgary,..,..,..,..,ab
176394,St Rose Of Lima Elem & Jr High,park,calgary,..,..,..,..,ab
176395,St Sebastian Elem,park,calgary,..,..,..,..,ab
176396,St Stephen Elem & Jr High,park,calgary,..,..,..,..,ab
176397,St Sylvester Elem School,park,calgary,..,..,..,..,ab
176538,Stanley Jones Park,park,calgary,..,..,..,..,ab
176549,Stanley Park; Stanley Park Depot,park,calgary,..,..,..,..,ab
176681,Strathcona Christie Ravine,park,calgary,..,..,..,..,ab
176726,Sue Higgins Park; Southland Natural Area,park,calgary,..,..,..,..,ab
176780,Sunalta Cmty Centre,park,calgary,..,..,..,..,ab
176781,Sunalta Elementary,park,calgary,..,..,..,..,ab
176785,Sundance Elem,park,calgary,..,..,..,..,ab
176790,Sunken Garden Park,park,calgary,..,..,..,..,ab
176809,Sunnyside Community Garden,park,calgary,..,..,..,..,ab
176815,Sunnyside Rosedale Embankment,park,calgary,..,..,..,..,ab
176942,Talon Park,park,calgary,..,..,..,..,ab
176995,Teacher's Corner,park,calgary,..,..,..,..,ab
176999,Techview Park,park,calgary,..,..,..,..,ab
177033,Terrace Road Elem,park,calgary,..,..,..,..,ab
177038,Terry Fox Jr High,park,calgary,..,..,..,..,ab
177081,The Rock,park,calgary,..,..,..,..,ab
177087,The Winston Golf Club; Formally Calgary Elks Lodge & Golf Club,park,calgary,..,..,..,..,ab
177124,Thomson Family Park,park,calgary,..,..,..,..,ab
177138,Thornhill Depot; Murray Copot; Thornhill Pool; Diefenbaker High School,park,calgary,..,..,..,..,ab
177225,Tom Baines School Edgemont Jr High School,park,calgary,..,..,..,..,ab
177227,Tom Campbell's Hill,park,calgary,..,..,..,..,ab
177241,Tomkins Park,park,calgary,..,..,..,..,ab
177252,Tony And Ruby Schmaltz,park,calgary,..,..,..,..,ab
177402,Trico Centre,park,calgary,..,..,..,..,ab
177458,Tuscany School,park,calgary,..,..,..,..,ab
177465,Tuxedo Park Elementary,park,calgary,..,..,..,..,ab
177468,Tweed Park,park,calgary,..,..,..,..,ab
177472,Twelve Mile Coulee Park,park,calgary,..,..,..,..,ab
177489,Tye Street Park,park,calgary,..,..,..,..,ab
177508,Union Cemetery; Union Cemetery Depot,park,calgary,..,..,..,..,ab
177550,University Research Park,park,calgary,..,..,..,..,ab
177702,Upper Elboya Park,park,calgary,..,..,..,..,ab
177734,Valley Ridge Golf Course,park,calgary,..,..,..,..,ab
177735,Valley Ridge Natural Area,park,calgary,..,..,..,..,ab
177763,Valleyview Regional Park,park,calgary,..,..,..,..,ab
177798,Varanger Park,park,calgary,..,..,..,..,ab
177799,Vardell Pathway Park,park,calgary,..,..,..,..,ab
177806,Varsity Acres Elem,park,calgary,..,..,..,..,ab
177808,Varsity Ravine Park,park,calgary,..,..,..,..,ab
177856,Victoria Cross Park,park,calgary,..,..,..,..,ab
177906,Village Square Leisure Centre,park,calgary,..,..,..,..,ab
177915,Vincent Massey Jr High; Westgate Elem,park,calgary,..,..,..,..,ab
177931,Vista Heights Elem,park,calgary,..,..,..,..,ab
177959,W O Mitchell Elem School,park,calgary,..,..,..,..,ab
