Index,Facility_Name,ODRSF_facility_type,Provider,Street_No,Street_Name,Postal_Code,City,Prov_Terr
12,Abbeydale Community Centre,community centre,calgary,821,abbeydale,..,..,ab
17,Acadia Aquatic & Fitness Centre,gym,calgary,9009,fairmount,..,..,ab
18,Acadia Athletic Park,athletic park,calgary,295,90,..,..,ab
19,Acadia Community Centre,community centre,calgary,240,90,..,..,ab
20,Acadia Recreation Complex,arena,calgary,240,90,..,..,ab
57,Albert Park / Radisson Heights Community Centre,community centre,calgary,1310,28,..,..,ab
175,Arbour Lake Community Centre,community centre,calgary,12,arbour lake,..,..,ab
249,Banff Trail Community Centre,community centre,calgary,2115,20,..,..,ab
252,Bankview Community Centre,community centre,calgary,2418,17,..,..,ab
313,Beddington Heights Community Centre,community centre,calgary,375,bermuda,..,..,ab
347,Beltline Aquatic & Fitness Centre,gym,calgary,221,12,..,..,ab
348,Beltline Victoria And Connaught Community Centre,community centre,calgary,1302,6,..,..,ab
387,Big Marlborough Park,rink,calgary,755,madeira,..,..,ab
449,Bob Bahan Aquatic & Fitness Centre,gym,calgary,4812,14,..,..,ab
476,Bowness / Greenwood / Greenbriar Community Centre,community centre,calgary,7904,43,..,..,ab
477,Bowness Community Centre,arena,calgary,7904,43,..,..,ab
478,Bowness Park Lagoon,rink,calgary,8900,48,..,..,ab
479,Bowness Park Wading Pool,pool,calgary,8900,48,..,..,ab
480,Bowness Skatepark,skate park,calgary,4324,77,..,..,ab
481,Bowview Outdoor Pool & Wading Pool,pool,calgary,1910,6,..,..,ab
492,Braeside Community Centre,community centre,calgary,11024,braeside,..,..,ab
512,Brentwood Community Centre,community centre,calgary,5107,33,..,..,ab
517,Brentwood Sportsplex,arena,calgary,1520,northmount,..,..,ab
529,Bridgeland / Riverside Community Centre,community centre,calgary,917,centre,..,..,ab
623,Calgary Marlborough Community Centre,community centre,calgary,636,marlborough,..,..,ab
628,Cambrian Heights Community Centre,community centre,calgary,600,northmount,..,..,ab
659,Canmore Spray Park,splash pad,calgary,2020,chicoutimi,..,..,ab
666,Canyon Meadows Aquatic & Fitness Centre,gym,calgary,89,canova,..,..,ab
667,Canyon Meadows Community Centre,community centre,calgary,848,cantabrian,..,..,ab
672,Capitol Hill Community Centre,community centre,calgary,1531,21,..,..,ab
679,Carburn Park,rink,calgary,67,riverview,..,..,ab
707,Carrington Skatepark,skate park,calgary,37,carrington,..,..,ab
755,Cedarbrae Community Centre,community centre,calgary,11024,oakfield,..,..,ab
1001,Chaparral Residents Association,community centre,calgary,225,chaparral,..,..,ab
1041,Chinook Park/Kelvin Grove/Eagle Ridge Community Centre,community centre,calgary,1015,73,..,..,ab
1086,Cke Skatepark,skate park,calgary,1015,73,..,..,ab
1108,Cliffe Bungalow/Mission Community Association,community centre,calgary,2201,cliff,..,..,ab
1126,Coach Hill/Patterson Heights Community Centre,community centre,calgary,60,patterson,..,..,ab
1239,Crescent Heights Community Centre,community centre,calgary,1101,2,..,..,ab
1257,Crossroads Community Centre,community centre,calgary,1803,14,..,..,ab
1259,Crowchild Twin Arenas,arena,calgary,185,scenic acres,..,..,ab
1260,Crowfoot Arena,arena,calgary,8080,john laurie,..,..,ab
1289,Dalhousie Community Centre,community centre,calgary,5432,dalhart,..,..,ab
1315,Deer Run Community Centre,community centre,calgary,2223,146,..,..,ab
1318,Deer Run Skatepark,skate park,calgary,2223,146,..,..,ab
1369,Don Hartman North East Sportsplex,arena,calgary,5200,68,..,..,ab
1398,Dover Community Centre,community centre,calgary,3033,30,..,..,ab
1469,East Calgary Twin Arenas,arena,calgary,299,erin woods,..,calgary,ab
1504,Eau Claire Plaza Wading Pool & Spray Park,pool,calgary,139,barclay,..,..,ab
