Index,Facility_Name,ODRSF_facility_type,Provider,Street_No,Street_Name,Postal_Code,City,Prov_Terr
12811,Lakeside Greens Golf Club,sports field,chestermere,..,..,..,..,ab
12812,Lakeside Greens Golf Club,sports field,chestermere,..,..,..,..,ab
162385,Anniversary Park,park,chestermere,..,..,..,..,ab
162600,Aspenmere Green Park,park,chestermere,..,..,..,..,ab
162601,Aspenmere Park,park,chestermere,..,..,..,..,ab
163295,Bike Park,park,chestermere,..,..,..,..,ab
164340,Cavendish Beach,park,chestermere,..,..,..,..,ab
165250,Cove Beach,park,chestermere,..,..,..,..,ab
165251,Cove Park 1,park,chestermere,..,..,..,..,ab
165252,Cove Park 2,park,chestermere,..,..,..,..,ab
165254,Cove Storm Pond,park,chestermere,..,..,..,..,ab
165790,Dog Park,park,chestermere,..,..,..,..,ab
166141,East Lakeview Tot Lot,park,chestermere,..,..,..,..,ab
166146,East Merganser Storm Pond,park,chestermere,..,..,..,..,ab
166992,Founders Park,park,chestermere,..,..,..,..,ab
167326,Georgetown Park,park,chestermere,..,..,..,..,ab
168155,Hawkmere Tot Lot,park,chestermere,..,..,..,..,ab
168830,Invermere Storm Pond,park,chestermere,..,..,..,..,ab
169182,John Peake Park,park,chestermere,..,..,..,..,ab
169391,Keith's Park,park,chestermere,..,..,..,..,ab
169580,Kinniburgh Storm Pond,park,chestermere,..,..,..,..,ab
169996,Lakepointe North Park,park,chestermere,..,..,..,..,ab
169997,Lakepointe Storm Pond,park,chestermere,..,..,..,..,ab
170171,Lavender Way Tot Lot,park,chestermere,..,..,..,..,ab
170523,Long Beach Landing,park,chestermere,..,..,..,..,ab
171264,Mcivor Storm Pond,park,chestermere,..,..,..,..,ab
171488,Middle School Park,park,chestermere,..,..,..,..,ab
171554,Millenium Park,park,chestermere,..,..,..,..,ab
172448,Oakmere Tot Lot,park,chestermere,..,..,..,..,ab
173636,Parkmere Park,park,chestermere,..,..,..,..,ab
174323,Rainbow Falls,park,chestermere,..,..,..,..,ab
174324,Rainbow Falls Arm,park,chestermere,..,..,..,..,ab
174325,Rainbow Falls Storm Pond,park,chestermere,..,..,..,..,ab
175498,Sandy Beach,park,chestermere,..,..,..,..,ab
176821,Sunrise Park,park,chestermere,..,..,..,..,ab
176831,Sunset Park,park,chestermere,..,..,..,..,ab
177058,The Boot,park,chestermere,..,..,..,..,ab
177395,Triangle Park,park,chestermere,..,..,..,..,ab
177399,Triangles,park,chestermere,..,..,..,..,ab
178206,West Creek Circle Tot Lot,park,chestermere,..,..,..,..,ab
178207,West Creek Springs,park,chestermere,..,..,..,..,ab
178310,Westmere Hill,park,chestermere,..,..,..,..,ab
178311,Westmere Mr 33,park,chestermere,..,..,..,..,ab
178312,Westmere Springs,park,chestermere,..,..,..,..,ab
181326,..,park,chestermere,..,..,..,..,ab
181327,..,park,chestermere,..,..,..,..,ab
181328,..,park,chestermere,..,..,..,..,ab
181329,..,park,chestermere,..,..,..,..,ab
181330,..,park,chestermere,..,..,..,..,ab
