Index,Facility_Name,ODRSF_facility_type,Provider,Street_No,Street_Name,Postal_Code,City,Prov_Terr
3337,Mid-Sun Skatepark,skate park,calgary,50,midpark,..,..,ab
3354,Millican/Ogden/Lynnwood Community Centre,community centre,calgary,6901,20a,..,..,ab
3355,Millican-Ogden Outdoor Pool,pool,calgary,6901,20a,..,..,ab
3404,Monterey Park Community Centre,community centre,calgary,2707,catalina,..,..,ab
3405,Montgomery Community Centre,community centre,calgary,5003,16,..,..,ab
3456,Mount Pleasant Community Centre,community centre,calgary,..,..,..,..,ab
3457,Mount Pleasant Outdoor Pool,pool,calgary,630,22,..,..,ab
3458,Mount Pleasant Sportsplex,arena,calgary,2408,6,..,..,ab
3460,Mount Royal Community Centre,community centre,calgary,2317,10,..,..,ab
3484,Murray Copot Arena,arena,calgary,6715,centre,..,..,ab
3506,Ne Community Skatepark,skate park,calgary,7556,falconridge,..,..,ab
3521,New Brighton Athletic Park,athletic park,calgary,5801,130,..,..,ab
3522,New Brighton Skatepark,skate park,calgary,5801,130,..,..,ab
3550,Norma Bush Arena,arena,calgary,2424,university,..,..,ab
3565,North Glenmore Park Community Centre,community centre,calgary,2231,longridge,..,..,ab
3566,North Haven Community Centre,community centre,calgary,5003,haven,..,..,ab
3628,Oakridge Ca,arena,calgary,9504,oakfield,..,..,ab
3629,Oakridge Community Centre,community centre,calgary,9504,oakfield,..,..,ab
3677,Olympic Plaza,rink,calgary,228,8,..,..,ab
3683,Optimist Arena,arena,calgary,5020,26,..,..,ab
3684,Optimist Athletic Park,athletic park,calgary,5020,26,..,..,ab
3999,"Palliser, Bayview, Pumphill Community Centre",community centre,calgary,2323,palliser,..,..,ab
4453,Parkdale Community Centre,community centre,calgary,3512,5,..,..,ab
4457,Parkhill/Stanley Park Community Centre,community centre,calgary,4013,stanley,..,..,ab
4459,Parkland Community Centre,community centre,calgary,505,parkvalley,..,..,ab
4510,Penbrooke Meadows Community Centre,community centre,calgary,6100,8,..,..,ab
4547,Pineridge Community Centre,community centre,calgary,6024,rundlehorn,..,..,ab
4765,Pop Davies Athletic Park,athletic park,calgary,6415,ogden,..,..,ab
4797,Prairie Winds Park,rink,calgary,223,castleridge,..,..,ab
4798,Prairie Winds Park Wading Pool & Spray Park,pool,calgary,223,castleridge,..,..,ab
4816,Prince's Island Lagoon,rink,calgary,25,prince's island,..,..,ab
5066,Ramsay Community Centre,community centre,calgary,1136,8,..,..,ab
5070,Ranchlands Community Centre,community centre,calgary,7713,ranchview,..,..,ab
5105,Remington Ymca In Quarry Park,gym,calgary,108,quarry park,..,..,ab
5106,Renfrew Aquatic & Recreation Centre,community centre,calgary,810,13,..,..,ab
5107,Renfrew Athletic Park,athletic park,calgary,810,13,..,..,ab
5108,Renfrew Community Association,community centre,calgary,811,radford,..,..,ab
5130,Richmond/Knob Hill Community Centre,community centre,calgary,2433,26,..,..,ab
5146,Riley Park Wading Pool,pool,calgary,800,12,..,..,ab
5167,Riverbend Community Centre,community centre,calgary,19,rivervalley,..,..,ab
5205,Rocky Ridge Skatepark,skate park,calgary,11300,rocky ridge,..,..,ab
5215,Rose Kohn Arena,arena,calgary,502,heritage,..,..,ab
5218,Rosedale Community Centre,community centre,calgary,901,11,..,..,ab
5223,Rosemont Community Centre,community centre,calgary,2807,10,..,..,ab
5227,Rosscarrock Community Centre,community centre,calgary,4411,10,..,..,ab
5234,Rotary Challenger Park,athletic park,calgary,3688,48,..,..,ab
5237,Rotary Park Spray Park,splash pad,calgary,617,1,..,..,ab
5265,Rundle Community Centre,community centre,calgary,2409,50,..,..,ab
5281,Rutland Park Community Centre,community centre,calgary,3130,40,..,..,ab
