Index,Facility_Name,ODRSF_facility_type,Provider,Street_No,Street_Name,Postal_Code,City,Prov_Terr
1531,Elbow Park Community Centre,community centre,calgary,800,34,..,..,ab
1532,Elboya Heights Community Centre,community centre,calgary,416,park,..,..,ab
1584,Erin Woods Community Centre,community centre,calgary,83,erin park,..,calgary,ab
1590,Ernest Manning Athletic Park,athletic park,calgary,20,springborough,..,..,ab
1591,Ernie Starr Arena,arena,calgary,4808,14,..,..,ab
1628,Fairview Community Centre,community centre,calgary,8038,fairmount,..,..,ab
1633,Falconridge/Castleridge Community Centre,community centre,calgary,95,falshire,..,..,ab
1653,Father David Bauer Arena,arena,calgary,2424,university,..,..,ab
1687,Flames Community Arenas,arena,calgary,2390,47,..,..,ab
1705,Foothills Athletic Park,athletic park,calgary,2424,university,..,..,ab
1720,Forest Heights/ Fonda Community Centre,community centre,calgary,4909,forego,..,..,ab
1727,Forest Lawn Athletic Park,athletic park,calgary,4808,14,..,..,ab
1728,Forest Lawn Community Centre,community centre,calgary,4020,26,..,..,ab
1729,"Forest Lawn Outdoor Pool, Wading Pool & Spray Park",pool,calgary,1706,39,..,..,ab
1760,Frank Mccool Arena,arena,calgary,1900,lake bonavista,..,..,ab
1761,Frank Mccool Athletic Park,athletic park,calgary,1900,lake bonavista,..,..,ab
1827,George Blundun Arena,arena,calgary,5020,26,..,..,ab
1861,Glamorgan Community Centre,community centre,calgary,4207,41,..,..,ab
1892,Glenbrook Community Centre,community centre,calgary,3524,45,..,..,ab
1896,Glendale/Glendale Meadows Community Centre,community centre,calgary,2405,glenmount,..,..,ab
1906,Glenmore Athletic Park,athletic park,calgary,5300,19,..,..,ab
1977,Gray Family Eau Claire Ymca,gym,calgary,101,3,..,..,ab
1980,Great Plains Recreation Facility,arena,calgary,5749,76,..,..,ab
2093,Haysboro Community Centre,community centre,calgary,1204,89,..,..,ab
2123,Henry Viney Arena,arena,calgary,810,13,..,..,ab
2168,Highland Park Community Centre,community centre,calgary,3716,2,..,..,ab
2176,Highwood Community Centre,community centre,calgary,16,harlow,..,..,ab
2177,Highwood Outdoor & Wading Pool,pool,calgary,20,harlow,..,..,ab
2190,Hillhurst/Sunnyside Community Centre,community centre,calgary,1320,5,..,..,ab
2231,Hounsfield Heights/Briar Hill Community Centre,community centre,calgary,1922,14,..,..,ab
2258,Huntington Hills Ca,arena,calgary,520,78,..,..,ab
2259,Huntington Hills Community Centre,community centre,calgary,520,78,..,..,ab
2260,Huntington Hills Skatepark,skate park,calgary,..,64,..,..,ab
2350,Inglewood Community Centre,community centre,calgary,1740,24,..,..,ab
2393,Jack Setters Arena,arena,calgary,2020,69,..,..,ab
2449,Jimmy Condon Arena,arena,calgary,502,heritage,..,..,ab
2534,Ken Bracko Arena,arena,calgary,1001,barlow,..,..,ab
2559,Killarney Aquatic & Recreation Centre,community centre,calgary,1919,29,..,..,ab
2563,Killarney/Glengarry Community Centre,community centre,calgary,2828,28,..,..,ab
2591,Kingsland Community Centre,community centre,calgary,505,78,..,..,ab
2665,Lake Bonavista Community Centre,community centre,calgary,1401,acadia,..,..,ab
2666,Lake Bonavista Downs Community Centre,community centre,calgary,1418,lake ontario,..,..,ab
2667,Lake Bonavista Recreation Centre,arena,calgary,1401,acadia,..,..,ab
2684,Lakeview Community Centre,community centre,calgary,6110,34,..,..,ab
3203,Marlborough Park Community Centre,community centre,calgary,6021,madigan,..,..,ab
3235,Max Bell #2,arena,calgary,1001,barlow,..,..,ab
3267,Mckenzie Lake Community Centre,community centre,calgary,16198,mckenzie lake,..,..,ab
3292,Meadowlark Park Community Centre,community centre,calgary,623,58,..,..,ab
3310,Melcor Ymca At Crowfoot,gym,calgary,8100,john laurie,..,..,ab
