Index,Facility_Name,ODRSF_facility_type,Provider,Street_No,Street_Name,Postal_Code,City,Prov_Terr
167086,Fred Seymour School,park,calgary,..,..,..,..,ab
167197,Garden Crescent,park,calgary,..,..,..,..,ab
167258,Gazebo Park,park,calgary,..,..,..,..,ab
167259,Gazebo Park; Citadel Park School,park,calgary,..,..,..,..,ab
167273,"Genesis Centre, Necc, Saddletowne Regional Park",park,calgary,..,..,..,..,ab
167279,George And Annie Wood Park,park,calgary,..,..,..,..,ab
167292,George Gell Park,park,calgary,..,..,..,..,ab
167304,George Moss Park,park,calgary,..,..,..,..,ab
167399,Gilmour's Park,park,calgary,..,..,..,..,ab
167524,"Glenmore Reservior, Lakeview Golf Course; Glenmore Athletic Park",park,calgary,..,..,..,..,ab
167728,Grand Trunk Park,park,calgary,..,..,..,..,ab
167759,Grant Macewan Elem.,park,calgary,..,..,..,..,ab
167863,Greenview Elem,park,calgary,..,..,..,..,ab
167895,Griffith Woods - Natural Area Environmental Park,park,calgary,..,..,..,..,ab
167950,Guy Weadick Elem School,park,calgary,..,..,..,..,ab
167958,H D Cartwright Jr High,park,calgary,..,..,..,..,ab
168019,Hamptons School,park,calgary,..,..,..,..,ab
168070,Harold Panabaker Jr High; Ethel M Johnson Elem,park,calgary,..,..,..,..,ab
168075,Harold W Riley Elem,park,calgary,..,..,..,..,ab
168095,Harry Huish Park,park,calgary,..,..,..,..,ab
168126,Haskayne Legacy Park,park,calgary,..,..,..,..,ab
168137,Haultain Memorial Elem,park,calgary,..,..,..,..,ab
168138,Haultain School,park,calgary,..,..,..,..,ab
168157,Hawkstone Field,park,calgary,..,..,..,..,ab
168158,Hawkwood Elem; St Maria Goretti Elem,park,calgary,..,..,..,..,ab
168167,Haysboro Elem,park,calgary,..,..,..,..,ab
168251,Henninger Park,park,calgary,..,..,..,..,ab
168282,Henry Wise Wood High School,park,calgary,..,..,..,..,ab
168379,Hidden Valley Lake,park,calgary,..,..,..,..,ab
168384,Hidden Valley School; Valley Creek Elem,park,calgary,..,..,..,..,ab
168420,Highland Community Centre,park,calgary,..,..,..,..,ab
168475,Hillhurst Sunnyside Community Centre,park,calgary,..,..,..,..,ab
168476,Hillhurst Triangle,park,calgary,..,..,..,..,ab
168521,Hofer Park Interfaith Park,park,calgary,..,..,..,..,ab
168546,Holly Acres,park,calgary,..,..,..,..,ab
168562,Holy Angels Elem,park,calgary,..,..,..,..,ab
168564,Holy Cross Elem & Jr High; Valley View Elem; Ian Bazalgette Jr High,park,calgary,..,..,..,..,ab
168684,Humpy Hollow Park,park,calgary,..,..,..,..,ab
168694,Huntington Hills Elem,park,calgary,..,..,..,..,ab
168732,Hydrant Park,park,calgary,..,..,..,..,ab
168795,Inglewood Bird Sanctuary,park,calgary,..,..,..,..,ab
168797,Inglewood Cmty Assoc,park,calgary,..,..,..,..,ab
168799,Inglewood Golf And Curling Club,park,calgary,..,..,..,..,ab
168802,Inglewood Lawn Bowling,park,calgary,..,..,..,..,ab
168805,Inglewood River Promenade; Deane House,park,calgary,..,..,..,..,ab
168806,Inglewood Swimming Pool,park,calgary,..,..,..,..,ab
168825,Inushuk Park,park,calgary,..,..,..,..,ab
168877,Island Park,park,calgary,..,..,..,..,ab
168899,J. H. Woods Park,park,calgary,..,..,..,..,ab
