Index,Facility_Name,ODRSF_facility_type,Provider,Street_No,Street_Name,Postal_Code,City,Prov_Terr
17767,Toboggan Hill,miscellaneous,calgary,..,..,..,..,ab
17768,Toboggan Hill,miscellaneous,calgary,..,..,..,..,ab
17769,Toboggan Hill,miscellaneous,calgary,..,..,..,..,ab
17770,Toboggan Hill,miscellaneous,calgary,..,..,..,..,ab
17771,Toboggan Hill,miscellaneous,calgary,..,..,..,..,ab
17772,Toboggan Hill,miscellaneous,calgary,..,..,..,..,ab
17773,Toboggan Hill,miscellaneous,calgary,..,..,..,..,ab
17774,Toboggan Hill,miscellaneous,calgary,..,..,..,..,ab
17775,Toboggan Hill,miscellaneous,calgary,..,..,..,..,ab
17776,Toboggan Hill,miscellaneous,calgary,..,..,..,..,ab
17777,Toboggan Hill,miscellaneous,calgary,..,..,..,..,ab
17778,Toboggan Hill,miscellaneous,calgary,..,..,..,..,ab
17779,Toboggan Hill,miscellaneous,calgary,..,..,..,..,ab
17780,Toboggan Hill,miscellaneous,calgary,..,..,..,..,ab
17781,Toboggan Hill,miscellaneous,calgary,..,..,..,..,ab
17782,Toboggan Hill,miscellaneous,calgary,..,..,..,..,ab
17783,Toboggan Hill,miscellaneous,calgary,..,..,..,..,ab
17834,Track And Field,sports field,calgary,..,..,..,..,ab
17835,Track And Field,sports field,calgary,..,..,..,..,ab
17836,Track And Field,sports field,calgary,..,..,..,..,ab
17837,Track And Field,sports field,calgary,..,..,..,..,ab
17838,Track And Field,sports field,calgary,..,..,..,..,ab
17839,Track And Field,sports field,calgary,..,..,..,..,ab
17840,Track And Field,sports field,calgary,..,..,..,..,ab
17868,Trico Centre For Family Wellness,community centre,calgary,11150,bonaventure,..,..,ab
17908,Ultimate Frisbee,sports field,calgary,..,..,..,..,ab
17909,Ultimate Frisbee,sports field,calgary,..,..,..,..,ab
17910,Ultimate Frisbee,sports field,calgary,..,..,..,..,ab
17911,Ultimate Frisbee,sports field,calgary,..,..,..,..,ab
17912,Ultimate Frisbee,sports field,calgary,..,..,..,..,ab
17969,Valley Ridge Golf Course,sports field,calgary,11618,valley ridge,..,..,ab
17991,Vecova Centre For Disability Services And Research,community centre,calgary,3304,33,..,..,ab
17998,Velodrome,miscellaneous,calgary,..,..,..,..,ab
18044,Village Square Leisure Centre,community centre,calgary,2623,56,..,..,ab
18054,Vivo For Healthier Generations,community centre,calgary,11950,country,..,..,ab
18056,Volleyball,sports field,calgary,..,..,..,..,ab
18057,Volleyball,sports field,calgary,..,..,..,..,ab
18058,Volleyball,sports field,calgary,..,..,..,..,ab
18059,Volleyball,sports field,calgary,..,..,..,..,ab
18060,Volleyball,sports field,calgary,..,..,..,..,ab
18061,Volleyball,sports field,calgary,..,..,..,..,ab
18462,Winsport,sports field,calgary,88,canada olympic,..,..,ab
84575,..,trail,calgary,..,..,..,..,ab
84576,..,trail,calgary,..,..,..,..,ab
84577,..,trail,calgary,..,..,..,..,ab
84578,..,trail,calgary,..,..,..,..,ab
84579,..,trail,calgary,..,..,..,..,ab
84580,..,trail,calgary,..,..,..,..,ab
84581,..,trail,calgary,..,..,..,..,ab
