Index,Facility_Name,ODRSF_facility_type,Provider,Street_No,Street_Name,Postal_Code,City,Prov_Terr
5294,Saddletowne Ymca,gym,calgary,7556,falconridge,..,..,ab
5342,Scarboro Community Centre,community centre,calgary,1727,14,..,..,ab
5349,Scenic Acres Community Centre,community centre,calgary,8825,scurfield,..,..,ab
5386,Shaganappi Community Centre,community centre,calgary,2608,14,..,..,ab
5395,Shaw Millennium Park,skate park,calgary,1220,9,..,..,ab
5397,Shawnessy Community Centre,community centre,calgary,224,shawmeadows,..,..,ab
5398,Shawnessy Ymca,gym,calgary,333,shawville,..,..,ab
5424,Shouldice Arena,arena,calgary,1515,home,..,..,ab
5425,Shouldice Athletic Park,athletic park,calgary,1515,home,..,..,ab
5431,Silver Springs Community Centre,community centre,calgary,5720,silver ridge,..,..,ab
5432,Silver Springs Outdoor Pool,pool,calgary,5720,silver ridge,..,..,ab
5458,Sir Winston Churchill Aquatic & Rec Ctr,community centre,calgary,1520,northmount,..,..,ab
5466,Skate Park,skate park,calgary,..,..,..,..,ab
5467,Skate Park,skate park,calgary,..,..,..,..,ab
5468,Skate Park,skate park,calgary,..,..,..,..,ab
5469,Skate Park,skate park,calgary,..,..,..,..,ab
5470,Skate Park,skate park,calgary,..,..,..,..,ab
5471,Skate Park,skate park,calgary,..,..,..,..,ab
5472,Skate Park,skate park,calgary,..,..,..,..,ab
5473,Skate Park,skate park,calgary,..,..,..,..,ab
5474,Skate Park,skate park,calgary,..,..,..,..,ab
5475,Skate Park,skate park,calgary,..,..,..,..,ab
5476,Skate Park,skate park,calgary,..,..,..,..,ab
5477,Skate Park,skate park,calgary,..,..,..,..,ab
5487,Skating Rink,rink,calgary,..,..,..,..,ab
5488,Skating Rink,rink,calgary,..,..,..,..,ab
5489,Skating Rink,rink,calgary,..,..,..,..,ab
5490,Skating Rink,rink,calgary,..,..,..,..,ab
5491,Skating Rink,rink,calgary,..,..,..,..,ab
5492,Skating Rink,rink,calgary,..,..,..,..,ab
5493,Skating Rink,rink,calgary,..,..,..,..,ab
5494,Skating Rink,rink,calgary,..,..,..,..,ab
5495,Skating Rink,rink,calgary,..,..,..,..,ab
5496,Skating Rink,rink,calgary,..,..,..,..,ab
5497,Skating Rink,rink,calgary,..,..,..,..,ab
5498,Skating Rink,rink,calgary,..,..,..,..,ab
5499,Skating Rink,rink,calgary,..,..,..,..,ab
5500,Skating Rink,rink,calgary,..,..,..,..,ab
5501,Skating Rink,rink,calgary,..,..,..,..,ab
5502,Skating Rink,rink,calgary,..,..,..,..,ab
5503,Skating Rink,rink,calgary,..,..,..,..,ab
5504,Skating Rink,rink,calgary,..,..,..,..,ab
5505,Skating Rink,rink,calgary,..,..,..,..,ab
5506,Skating Rink,rink,calgary,..,..,..,..,ab
5507,Skating Rink,rink,calgary,..,..,..,..,ab
5508,Skating Rink,rink,calgary,..,..,..,..,ab
5509,Skating Rink,rink,calgary,..,..,..,..,ab
5510,Skating Rink,rink,calgary,..,..,..,..,ab
5511,Skating Rink,rink,calgary,..,..,..,..,ab
