Index,Facility_Name,ODRSF_facility_type,Provider,Street_No,Street_Name,Postal_Code,City,Prov_Terr
164026,Calgary Zoo St George's Island,park,calgary,..,..,..,..,ab
164043,Cambrian Hts Cmty Assoc,park,calgary,..,..,..,..,ab
164102,Canadian Wilds Park,park,calgary,..,..,..,..,ab
164106,Canberra Park,park,calgary,..,..,..,..,ab
164138,Canyon Meadows Elem,park,calgary,..,..,..,..,ab
164151,Capitol Hill Park,park,calgary,..,..,..,..,ab
164154,Cappy Smart Elem,park,calgary,..,..,..,..,ab
164169,Carburn Park; Carburn Park Depot,park,calgary,..,..,..,..,ab
164170,Carburn Park; Riverbend Elem,park,calgary,..,..,..,..,ab
164175,Cardinal Newman Elem & Jr High,park,calgary,..,..,..,..,ab
164179,Cardston Park,park,calgary,..,..,..,..,ab
164266,Cartier Park,park,calgary,..,..,..,..,ab
164274,Cascade Easement,park,calgary,..,..,..,..,ab
164324,Catherine Nichols Gunn Elem,park,calgary,..,..,..,..,ab
164393,Cedarbrae Elem,park,calgary,..,..,..,..,ab
164439,Centennial High School,park,calgary,..,..,..,..,ab
164482,Central Memorial High; Lord Shaughnessy Sr High; Juno Beach Academy,park,calgary,..,..,..,..,ab
164483,Central Memorial Park,park,calgary,..,..,..,..,ab
164507,Centre Main Office (Mayland Heights),park,calgary,..,..,..,..,ab
164512,Century Gardens; Century Gardens Park Depot & Pumphouse,park,calgary,..,..,..,..,ab
164570,Chaparral School,park,calgary,..,..,..,..,ab
164571,Chaparral Tot Lot,park,calgary,..,..,..,..,ab
164635,Chatham Place Park,park,calgary,..,..,..,..,ab
164656,Cheltenham Park,park,calgary,..,..,..,..,ab
164692,Chief Justice Milvain Elem,park,calgary,..,..,..,..,ab
164705,Chinese Cemetery,park,calgary,..,..,..,..,ab
164711,Chinook Stables Depot,park,calgary,..,..,..,..,ab
164727,Chris Akkerman Elem,park,calgary,..,..,..,..,ab
164732,Christ The King; Cranston Elem,park,calgary,..,..,..,..,ab
164744,Chrysler Park,park,calgary,..,..,..,..,ab
164776,City Hall Block,park,calgary,..,..,..,..,ab
164815,Clarence Sansom Community School; Douglas Harkness Community School; St Patrick Elem,park,calgary,..,..,..,..,ab
164936,Col J Fred Scott Elem; St Wilfred Elem; Anne Gale Jr High,park,calgary,..,..,..,..,ab
164973,Colonel Irvine Jr High; Highwood Elem; Highwood Depot,park,calgary,..,..,..,..,ab
164977,Colonel Saunders Elem,park,calgary,..,..,..,..,ab
164979,Colonel Walker Community School,park,calgary,..,..,..,..,ab
164982,Colonel's Island,park,calgary,..,..,..,..,ab
165042,Confederation Golf Course; Confederation Park Depot East/16A Street Depot,park,calgary,..,..,..,..,ab
165048,Confederation Park 1,park,calgary,..,..,..,..,ab
165049,Confederation Park 3,park,calgary,..,..,..,..,ab
165063,Connaught Park; Historically Known As St Stephens Kiwanis Park,park,calgary,..,..,..,..,ab
165072,Constable Slope,park,calgary,..,..,..,..,ab
165122,Cornell Park,park,calgary,..,..,..,..,ab
165160,Corpus Christi Elem,park,calgary,..,..,..,..,ab
165162,Corral Depot,park,calgary,..,..,..,..,ab
165201,Country Hills Tuc Reg Path,park,calgary,..,..,..,..,ab
165256,Coventry Hills School,park,calgary,..,..,..,..,ab
165342,Crescent Park; Crescent Heights Depot,park,calgary,..,..,..,..,ab
165387,Crossing Park Elem,park,calgary,..,..,..,..,ab
