Index,Facility_Name,ODRSF_facility_type,Provider,Street_No,Street_Name,Postal_Code,City,Prov_Terr
162441,Arbour Lake Jr High,park,calgary,..,..,..,..,ab
162442,Arbour Lake Pavilion,park,calgary,..,..,..,..,ab
162463,Archer Island,park,calgary,..,..,..,..,ab
162563,Ascension Of Our Lord Elem & Jr High,park,calgary,..,..,..,..,ab
162695,Babbling Brook Park,park,calgary,..,..,..,..,ab
162709,Baker Park; Baker Park Depot,park,calgary,..,..,..,..,ab
162729,Balmoral Circus,miscellaneous,calgary,..,..,..,..,ab
162759,Bankview Community Centre,park,calgary,..,..,..,..,ab
162760,Bankview Park,park,calgary,..,..,..,..,ab
162766,Banting And Best Elem,park,calgary,..,..,..,..,ab
162770,Barb Scott Park,park,calgary,..,..,..,..,ab
162848,Battalion Park,park,calgary,..,..,..,..,ab
162849,Battalion Park School,park,calgary,..,..,..,..,ab
162978,Beaumont Circus,park,calgary,..,..,..,..,ab
162984,Beaupre Park,park,calgary,..,..,..,..,ab
163117,Belvedere Parkway School,park,calgary,..,..,..,..,ab
163238,Beth Israel Memorial Park,park,calgary,..,..,..,..,ab
163241,Bethany Slope,park,calgary,..,..,..,..,ab
163286,Big Marlborough Park,park,calgary,..,..,..,..,ab
163287,Big Meadowlark Park,park,calgary,..,..,..,..,ab
163345,Birth Place Forest 2002,park,calgary,..,..,..,..,ab
163348,Bishop Carroll Senior High,park,calgary,..,..,..,..,ab
163351,Bishop Mcnally High Shool,park,calgary,..,..,..,..,ab
163385,Blackfoot Depot; Maple Ridge Golf Course,park,calgary,..,..,..,..,ab
163410,Blakiston Park,park,calgary,..,..,..,..,ab
163550,Bottomlands Park,park,calgary,..,..,..,..,ab
163572,Bowglen Park,park,calgary,..,..,..,..,ab
163573,Bowmont Park,park,calgary,..,..,..,..,ab
163574,Bowness High School,park,calgary,..,..,..,..,ab
163575,Bowness Park; Bowness Park Depot,park,calgary,..,..,..,..,ab
163576,Bowness Rd; Point Mckay; Regional Pathway,park,calgary,..,..,..,..,ab
163577,Bowness Recreation Centre,park,calgary,..,..,..,..,ab
163626,Braeside Elem,park,calgary,..,..,..,..,ab
163674,Brewery Triangle,park,calgary,..,..,..,..,ab
163681,Briar Hill Escarpment,park,calgary,..,..,..,..,ab
163682,Briar Hill Park,park,calgary,..,..,..,..,ab
163697,Bridgeland Community,park,calgary,..,..,..,..,ab
163698,Bridgeland Playground,park,calgary,..,..,..,..,ab
163699,Bridgeland Tennis Courts,park,calgary,..,..,..,..,ab
163750,Britannia Cmty,park,calgary,..,..,..,..,ab
163780,Bronconnier Park,park,calgary,..,..,..,..,ab
163880,Buckmaster Park,park,calgary,..,..,..,..,ab
163889,Buffalo Park,park,calgary,..,..,..,..,ab
163934,Burns Rock Garden,park,calgary,..,..,..,..,ab
163935,Burnsland Cemetery; Burnsland Cemetery Depot,park,calgary,..,..,..,..,ab
163954,Butterfly Park,park,calgary,..,..,..,..,ab
164022,Calgary Rugby Union,park,calgary,..,..,..,..,ab
164023,Calgary Science School,park,calgary,..,..,..,..,ab
164024,Calgary Waldorf School,park,calgary,..,..,..,..,ab
