Index,Facility_Name,ODRSF_facility_type,Provider,Street_No,Street_Name,Postal_Code,City,Prov_Terr
171429,Memorial Pathway 1,park,calgary,..,..,..,..,ab
171451,Merrill Park,park,calgary,..,..,..,..,ab
171503,Midsun Jr High; Fishcreek School,park,calgary,..,..,..,..,ab
171571,Millican Park; Beaver Dam Flats,park,calgary,..,..,..,..,ab
171591,Mills Park,park,calgary,..,..,..,..,ab
171761,Monsignor A J Hetherington Elem; Don Hartman Sportsplex,park,calgary,..,..,..,..,ab
171763,Monsignor J J O'Brien Elem & Jr High,park,calgary,..,..,..,..,ab
171764,Monsignor J S Smith Elem & Jr High,park,calgary,..,..,..,..,ab
171771,Montalban Park,park,calgary,..,..,..,..,ab
171777,Monterey Park Elem,park,calgary,..,..,..,..,ab
171780,Montgomery Jr High,park,calgary,..,..,..,..,ab
171870,Mother Mary Greene Elem,park,calgary,..,..,..,..,ab
171904,Mount Pleasant Pool,park,calgary,..,..,..,..,ab
171922,Mountain View Elem,park,calgary,..,..,..,..,ab
171947,Mt Royal Cmty Assoc,park,calgary,..,..,..,..,ab
171980,Munro Park,park,calgary,..,..,..,..,ab
171986,Murdoch Park; Mcdougall Slope,park,calgary,..,..,..,..,ab
172046,Nat Christie Park,park,calgary,..,..,..,..,ab
172081,Nellie Breen Park,park,calgary,..,..,..,..,ab
172082,Nellie Mcclung Elem,park,calgary,..,..,..,..,ab
172105,New Brighton Athletic Park,park,calgary,..,..,..,..,ab
172107,New Brighton Regional Park,park,calgary,..,..,..,..,ab
172108,New Edinburgh Park,park,calgary,..,..,..,..,ab
172148,Nimmons Park,park,calgary,..,..,..,..,ab
172195,North Dalhousie Coulee,park,calgary,..,..,..,..,ab
172198,North Glenmore Cmty Assoc,park,calgary,..,..,..,..,ab
172200,North Glenmore Park; North Glenmore Park Depot,park,calgary,..,..,..,..,ab
172204,North Haven Community,park,calgary,..,..,..,..,ab
172205,North Haven Elem School,park,calgary,..,..,..,..,ab
172213,North Main Office (Confederation) ;Confederation Park 2,park,calgary,..,..,..,..,ab
172218,North Mount Pleasant Arts Centre,park,calgary,..,..,..,..,ab
172235,North Storm Pond,park,calgary,..,..,..,..,ab
172315,Nose Creek,park,calgary,..,..,..,..,ab
172317,Nose Creek Bottomlands,park,calgary,..,..,..,..,ab
172318,Nose Creek In Panorama,park,calgary,..,..,..,..,ab
172319,Nose Hill Park,park,calgary,..,..,..,..,ab
172320,Nose Hill Spring; Dr J K Mulloy Elem,park,calgary,..,..,..,..,ab
172401,Notre Dame Sr High; Northern Hills Depot,park,calgary,..,..,..,..,ab
172419,O S Geiger Elem,park,calgary,..,..,..,..,ab
172493,Ogden Elem,park,calgary,..,..,..,..,ab
172528,Old Refinery Site,park,calgary,..,..,..,..,ab
172547,Oliver Quarry Park,park,calgary,..,..,..,..,ab
172552,Olympic Heights Elem,park,calgary,..,..,..,..,ab
172555,Olympic Plaza; Olympic Plaza Depot,park,calgary,..,..,..,..,ab
172587,Optimist Park,park,calgary,..,..,..,..,ab
172605,Orchard Park,park,calgary,..,..,..,..,ab
172655,Our Lady Of Fatima Elem,park,calgary,..,..,..,..,ab
172657,Our Lady Of The Assumption Elem & Jr High,park,calgary,..,..,..,..,ab
172658,Our Lady Of The Evergreens,park,calgary,..,..,..,..,ab
