Index,Facility_Name,ODRSF_facility_type,Provider,Street_No,Street_Name,Postal_Code,City,Prov_Terr
771,Centennial Park,arena,cochrane,..,..,..,..,ab
783,Centennial Plaza,arena,cochrane,..,..,..,..,ab
1129,Cochrane Arena,arena,cochrane,..,..,..,..,ab
3389,Mitford Ponds,arena,cochrane,..,..,..,..,ab
5367,Seniors On The Bow,arena,cochrane,..,..,..,..,ab
6104,Tim Bannister Memorial Rink,rink,cochrane,..,..,..,..,ab
6693,..,park,cochrane,..,..,..,..,ab
6694,..,park,cochrane,..,..,..,..,ab
6695,..,park,cochrane,..,..,..,..,ab
9137,Bow Ridge,sports field,cochrane,..,..,..,..,ab
10093,Cochrane Rangers,sports field,cochrane,..,..,..,..,ab
10382,Curling Club,rink,cochrane,..,..,..,..,ab
11410,Glen Eagles,sports field,cochrane,..,..,..,..,ab
13428,Matt Kroll,sports field,cochrane,..,..,..,..,ab
13772,Mitford Pond,sports field,cochrane,..,..,..,..,ab
15459,Rotary Park,sports field,cochrane,..,..,..,..,ab
16946,Spray Lakes Indoor,sports field,cochrane,..,..,..,..,ab
18246,West Rock,sports field,cochrane,..,..,..,..,ab
18250,West Terrace,sports field,cochrane,..,..,..,..,ab
18612,..,sports field,cochrane,..,..,..,..,ab
18613,..,sports field,cochrane,..,..,..,..,ab
18614,..,sports field,cochrane,..,..,..,..,ab
18615,..,sports field,cochrane,..,..,..,..,ab
18616,..,sports field,cochrane,..,..,..,..,ab
18617,..,sports field,cochrane,..,..,..,..,ab
18748,..,sports field,cochrane,..,..,..,..,ab
18749,..,sports field,cochrane,..,..,..,..,ab
18750,..,sports field,cochrane,..,..,..,..,ab
18751,..,sports field,cochrane,..,..,..,..,ab
18752,..,sports field,cochrane,..,..,..,..,ab
18753,..,sports field,cochrane,..,..,..,..,ab
18754,..,sports field,cochrane,..,..,..,..,ab
18755,..,sports field,cochrane,..,..,..,..,ab
18820,..,sports field,cochrane,..,..,..,..,ab
18821,..,sports field,cochrane,..,..,..,..,ab
163564,Bow Meadows Place,park,cochrane,..,..,..,..,ab
163988,C. W. Fisher,park,cochrane,..,..,..,..,ab
164229,Carolina Crescent Park,park,cochrane,..,..,..,..,ab
164464,Centennial Park,park,cochrane,..,..,..,..,ab
164506,Centre Island Park,park,cochrane,..,..,..,..,ab
164812,Clarence Copithorne,park,cochrane,..,bow,..,..,ab
165304,Crawford Park,park,cochrane,..,..,..,..,ab
165731,Dewey Blaine Park,park,cochrane,..,..,..,..,ab
166145,East Mcdougal,park,cochrane,..,valley,..,..,ab
166732,Fenton Park,park,cochrane,..,..,..,..,ab
168281,Henry Whitfield Park,park,cochrane,..,valley,..,..,ab
169462,Kerfoot Park,park,cochrane,..,..,..,..,ab
171113,Matt Krol Park,park,cochrane,..,..,..,cochrane,ab
171366,Meadows Court,park,cochrane,..,..,..,..,ab
