Index,Facility_Name,ODRSF_facility_type,Provider,Street_No,Street_Name,Postal_Code,City,Prov_Terr
175738,Shaganappi Golf Course,park,calgary,..,..,..,..,ab
175768,Shaw Millennium Park; Shaw Millennium Park Depot,park,calgary,..,..,..,..,ab
175873,Shouldice Athletic Park,park,calgary,..,..,..,..,ab
175883,Sien Lok Park,park,calgary,..,..,..,..,ab
175884,Sien Lok Riverfront Promenade,park,calgary,..,..,..,..,ab
175892,Signal Hill Library,park,calgary,..,..,..,..,ab
175906,Silver Springs Elem; Pool And Comm. Centre,park,calgary,..,..,..,..,ab
175940,Simons Valley Elem; Monsignor N Anderson Elem,park,calgary,..,..,..,..,ab
175950,Singh Hari Park,park,calgary,..,..,..,..,ab
175963,Sir James Lougheed Elem,park,calgary,..,..,..,..,ab
175983,Sir Wilfrid Laurier Jr High School,park,calgary,..,..,..,..,ab
175989,Sir William Van Horne Sr High; University Elem; Utah Park,park,calgary,..,..,..,..,ab
175990,Sir Winston Churchill High; Capt John Palliser Elem; Brebeuf Jr High;Swc Pool; Nose Hill Library,park,calgary,..,..,..,..,ab
176020,Skyview Ranch Regional - To Be Confirmed,park,calgary,..,..,..,..,ab
176023,Slater Park;Western Irrigation District (Wid),park,calgary,..,..,..,..,ab
176077,Somerset School,park,calgary,..,..,..,..,ab
176078,Somerset Towne Square,park,calgary,..,..,..,..,ab
176080,Somerside Dry Pond,park,calgary,..,..,..,..,ab
176096,South Calgary Park; Alexander Calhoun Library,park,calgary,..,..,..,..,ab
176100,South Dalhousie Coulee,park,calgary,..,..,..,..,ab
176105,South Fish Creek Recreation Complex; Bishop O'Byrne Sr High,park,calgary,..,..,..,..,ab
176107,South Glenmore Park,park,calgary,..,..,..,..,ab
176108,South Glenmore Park;90 Av Depot,park,calgary,..,..,..,..,ab
176180,Southland Lowlands,park,calgary,..,..,..,..,ab
176243,Spring Gardens Depot,park,calgary,..,..,..,..,ab
176299,St Albert The Great School,park,calgary,..,..,..,..,ab
176300,St Alphonsus Elem School,park,calgary,..,..,..,..,ab
176301,St Ambrose Elem & Jr High,park,calgary,..,..,..,..,ab
176303,St Andrews Hts Community,park,calgary,..,..,..,..,ab
176310,St Basil School,park,calgary,..,..,..,..,ab
176312,St Bede Elem; Beddington Elem,park,calgary,..,..,..,..,ab
176315,St Bonaventure Jr High,park,calgary,..,..,..,..,ab
176316,St Boniface Elem,park,calgary,..,..,..,..,ab
176317,St Brigid Elem & Jr High,park,calgary,..,..,..,..,ab
176322,St Catherine Elem,park,calgary,..,..,..,..,ab
176325,St Clare Elem,park,calgary,..,..,..,..,ab
176326,St Cyril Elem & Jr High,park,calgary,..,..,..,..,ab
176327,St Dominic Elem; Central Dalhousie Coulee,park,calgary,..,..,..,..,ab
176335,St Elizabeth Elem & Jr High,park,calgary,..,..,..,..,ab
176339,St Henry Elem School,park,calgary,..,..,..,..,ab
176340,St Isabella Elementary Junior High School,park,calgary,..,..,..,..,ab
176343,St Jerome School,park,calgary,..,..,..,..,ab
176355,St Joseph's School Site,park,calgary,..,..,..,..,ab
176357,St Jude Elem,park,calgary,..,..,..,..,ab
176366,St Mark Elem; Bob Edwards Jr High,park,calgary,..,..,..,..,ab
176368,St Mary's Cemetery,park,calgary,..,..,..,..,ab
176369,St Mary's Cemetery; St Mary's Cemetery Depot,park,calgary,..,..,..,..,ab
176370,St Mary's Park,park,calgary,..,..,..,..,ab
176371,St Mary's Sr High; Pioneer Nurserymen Century Park,park,calgary,..,..,..,..,ab
