Index,Facility_Name,ODRSF_facility_type,Provider,Street_No,Street_Name,Postal_Code,City,Prov_Terr
5613,Skating Rink,rink,calgary,..,..,..,..,ab
5614,Skating Rink,rink,calgary,..,..,..,..,ab
5615,Skating Rink,rink,calgary,..,..,..,..,ab
5616,Skating Rink,rink,calgary,..,..,..,..,ab
5641,South Calgary Community Centre,community centre,calgary,3130,16,..,..,ab
5642,South Calgary Outdoor Pool,pool,calgary,1626,32,..,..,ab
5653,South Health Campus Ymca,gym,calgary,4448,front,..,..,ab
5671,Southland (Ed Whalen Arena),arena,calgary,2000,southland,..,..,ab
5674,Southview Community Centre,community centre,calgary,2020,33,..,..,ab
5676,Southwood Community Centre,community centre,calgary,11,sackville,..,..,ab
5677,Southwood Skatepark,skate park,calgary,11,sackville,..,..,ab
5876,Spruce Cliff Community Centre,community centre,calgary,3375,spruce,..,..,ab
5890,St. Andrews Heights Community Centre,community centre,calgary,2504,13,..,..,ab
5952,Stanley Park Outdoor Pool & Wading Pool,pool,calgary,4011,1a,..,..,ab
5987,Strathcona/Christie Park Community Centre,community centre,calgary,277,strathcona,..,..,ab
5991,Stu Peppard Arena,arena,calgary,5320,19,..,..,ab
6006,Sunalta Community Centre,community centre,calgary,1627,10,..,..,ab
6058,Temple Community Centre,community centre,calgary,167,templegreen,..,..,ab
6091,Thorncliffe / Greenview Ca,arena,calgary,5600,centre,..,..,ab
6092,Thorncliffe/Greenview Community Centre,community centre,calgary,5600,centre,..,..,ab
6095,Thornhill Aquatic & Recreation Centre,community centre,calgary,6715,centre,..,..,ab
6113,Tom Brook Athletic Park,athletic park,calgary,2000,southland,..,..,ab
6167,Triwood Ca,arena,calgary,2244,chicoutimi,..,..,ab
6168,Triwood Community Centre,community centre,calgary,2244,chicoutimi,..,..,ab
6175,Tuscany Community Centre,community centre,calgary,212,tuscany,..,..,ab
6178,Tuxedo Park Community Centre,community centre,calgary,202,29,..,..,ab
6227,Valleyview Spray Park,splash pad,calgary,28,st-se,..,..,ab
6241,Variety Park Spray Park,splash pad,calgary,9035,24,..,..,ab
6243,Varsity Community Centre,community centre,calgary,4303,varsity,..,..,ab
6289,Village Square Arena #1,arena,calgary,2623,56,..,..,ab
6451,West Hillhurst Ca,arena,calgary,1940,6,..,..,ab
6452,West Hillhurst Community Centre,community centre,calgary,1940,6,..,..,ab
6485,Westgate Community Centre,community centre,calgary,4943,8,..,..,ab
6512,Westside Recreation Centre,community centre,calgary,2000,69,..,..,ab
6513,Westside Skatepark,skate park,calgary,2200,69,..,..,ab
6539,Whitehorn Community Centre,community centre,calgary,228,whitehorn,..,..,ab
6550,Wildwood Community Centre,community centre,calgary,4411,spruce,..,..,ab
6572,Willow Park / Mapleridge Community Centre,community centre,calgary,680,acadia,..,..,ab
6598,Windsor Park Community Centre,community centre,calgary,5304,6,..,..,ab
6606,Winston Heights/Mountview Community Centre,community centre,calgary,520,27,..,..,ab
6618,Woodbine Athletic Park,athletic park,calgary,96,woodfield,..,..,ab
6626,Woodcreek Community Centre,community centre,calgary,1991,woodview,..,..,ab
7405,Ball Diamond,sports field,calgary,..,..,..,..,ab
7406,Ball Diamond,sports field,calgary,..,..,..,..,ab
7407,Ball Diamond,sports field,calgary,..,..,..,..,ab
7408,Ball Diamond,sports field,calgary,..,..,..,..,ab
7409,Ball Diamond,sports field,calgary,..,..,..,..,ab
7410,Ball Diamond,sports field,calgary,..,..,..,..,ab
7411,Ball Diamond,sports field,calgary,..,..,..,..,ab
