Index,Facility_Name,ODRSF_facility_type,Provider,Street_No,Street_Name,Postal_Code,City,Prov_Terr
181513,..,park,edmonton,..,..,..,..,ab
181514,..,park,edmonton,4137,alexander,..,..,ab
181515,..,park,edmonton,..,..,..,..,ab
181516,..,park,edmonton,..,..,..,..,ab
181517,..,park,edmonton,..,..,..,..,ab
181518,..,park,edmonton,..,..,..,..,ab
181519,..,park,edmonton,..,..,..,..,ab
181520,..,park,edmonton,..,..,..,..,ab
181521,..,park,edmonton,451,crystallina nera,..,..,ab
181522,..,park,edmonton,454,crystallina nera,..,..,ab
181523,..,park,edmonton,20303,128,..,..,ab
181524,..,park,edmonton,12700,199,..,..,ab
181525,..,park,edmonton,..,..,..,..,ab
181526,..,park,edmonton,3476,keswick,..,..,ab
181527,..,park,edmonton,..,..,..,..,ab
181528,..,park,edmonton,9550,217,..,..,ab
181529,..,park,edmonton,909,east,..,..,ab
181530,..,park,edmonton,2530,price,..,..,ab
181531,..,park,edmonton,..,..,..,..,ab
181532,..,park,edmonton,..,..,..,..,ab
181533,..,park,edmonton,..,..,..,..,ab
181534,..,park,edmonton,..,..,..,..,ab
181535,..,park,edmonton,..,..,..,..,ab
181536,..,park,edmonton,1310,watt,..,..,ab
181537,..,park,edmonton,..,76,..,..,ab
181538,..,park,edmonton,..,..,..,..,ab
181539,..,park,edmonton,..,..,..,..,ab
181540,..,park,edmonton,..,..,..,..,ab
181541,..,park,edmonton,3010,spencer,..,..,ab
181542,..,park,edmonton,..,..,..,..,ab
181543,..,park,edmonton,1615,tamarack,..,..,ab
181544,..,park,edmonton,..,..,..,..,ab
181545,..,park,edmonton,..,..,..,..,ab
181546,..,park,edmonton,..,..,..,..,ab
181547,..,park,edmonton,5120,edgemont,..,..,ab
181548,..,park,edmonton,..,..,..,..,ab
181549,..,park,edmonton,..,..,..,..,ab
181550,..,park,edmonton,..,..,..,..,ab
181551,..,park,edmonton,..,..,..,..,ab
181552,..,park,edmonton,..,..,..,..,ab
181553,..,park,edmonton,..,..,..,..,ab
181554,..,park,edmonton,..,..,..,..,ab
181555,..,park,edmonton,430,tamarack,..,..,ab
181556,..,park,edmonton,7190,edgemont,..,..,ab
181557,..,park,edmonton,..,..,..,..,ab
181558,..,park,edmonton,..,..,..,..,ab
181559,..,park,edmonton,13704,135a,..,..,ab
181560,..,park,edmonton,..,..,..,..,ab
181561,..,park,edmonton,9408,95,..,..,ab
