Index,Facility_Name,ODRSF_facility_type,Provider,Street_No,Street_Name,Postal_Code,City,Prov_Terr
16967,St Andrew,sports field,edmonton,..,..,..,..,ab
16969,St Angela,sports field,edmonton,..,..,..,..,ab
16970,St Anne,sports field,edmonton,..,..,..,..,ab
16971,St Anne,sports field,edmonton,..,..,..,..,ab
16975,St Augustine,sports field,edmonton,..,..,..,..,ab
16976,St Augustine,sports field,edmonton,..,..,..,..,ab
16977,St Augustine,sports field,edmonton,..,..,..,..,ab
16978,St Augustine,sports field,edmonton,..,..,..,..,ab
16979,St Augustine,sports field,edmonton,..,..,..,..,ab
16980,St Augustine,sports field,edmonton,..,..,..,..,ab
16983,St Basil,sports field,edmonton,..,..,..,..,ab
16984,St Basil,sports field,edmonton,..,..,..,..,ab
16985,St Basil,sports field,edmonton,..,..,..,..,ab
16986,St Benedict,sports field,edmonton,..,..,..,..,ab
16987,St Benedict,sports field,edmonton,..,..,..,..,ab
16988,St Benedict,sports field,edmonton,..,..,..,..,ab
16989,St Benedict,sports field,edmonton,..,..,..,..,ab
16992,St Bernadette,sports field,edmonton,..,..,..,..,ab
16993,St Bernadette,sports field,edmonton,..,..,..,..,ab
16994,St Bernadette,sports field,edmonton,..,..,..,..,ab
16995,St Bernard,sports field,edmonton,..,..,..,..,ab
16996,St Bernard,sports field,edmonton,..,..,..,..,ab
16997,St Bonaventure,sports field,edmonton,..,..,..,..,ab
16998,St Bonaventure,sports field,edmonton,..,..,..,..,ab
16999,St Boniface,sports field,edmonton,..,..,..,..,ab
17000,St Boniface,sports field,edmonton,..,..,..,..,ab
17001,St Brendan,sports field,edmonton,..,..,..,..,ab
17002,St Brendan,sports field,edmonton,..,..,..,..,ab
17003,St Brendan,sports field,edmonton,..,..,..,..,ab
17004,St Brides,sports field,edmonton,..,..,..,..,ab
17005,St Brides,sports field,edmonton,..,..,..,..,ab
17006,St Cecilia,sports field,edmonton,..,..,..,..,ab
17007,St Cecilia,sports field,edmonton,..,..,..,..,ab
17008,St Cecilia,sports field,edmonton,..,..,..,..,ab
17009,St Charles,sports field,edmonton,..,..,..,..,ab
17010,St Charles,sports field,edmonton,..,..,..,..,ab
17012,St Clement,sports field,edmonton,..,..,..,..,ab
17013,St Clement,sports field,edmonton,..,..,..,..,ab
17014,St Clement,sports field,edmonton,..,..,..,..,ab
17015,St Dominic,sports field,edmonton,..,..,..,..,ab
17016,St Dominic,sports field,edmonton,..,..,..,..,ab
17017,St Dominic,sports field,edmonton,..,..,..,..,ab
17019,St Edmund,sports field,edmonton,..,..,..,..,ab
17020,St Edmund,sports field,edmonton,..,..,..,..,ab
17021,St Elizabeth,sports field,edmonton,..,..,..,..,ab
17022,St Elizabeth,sports field,edmonton,..,..,..,..,ab
17023,St Elizabeth,sports field,edmonton,..,..,..,..,ab
17025,St Francis X,sports field,edmonton,..,..,..,..,ab
17026,St Francis X,sports field,edmonton,..,..,..,..,ab
