Index,Facility_Name,ODRSF_facility_type,Provider,Street_No,Street_Name,Postal_Code,City,Prov_Terr
5643,South Clareview Community League,community centre,edmonton,..,..,..,..,ab
5901,St. Francis Xavier Sports Centre,community centre,edmonton,9240,163,..,..,ab
6068,Terwillegar Arena,arena,edmonton,2051,leger,..,..,ab
6069,Terwillegar Community Recreation Centre,community centre,edmonton,2051,leger,..,..,ab
6074,The Meadows Arena,arena,edmonton,2704,17,..,..,ab
6075,The Meadows Outdoor Leisure Ice,rink,edmonton,2704,17,..,..,ab
6110,Tipton Arena,arena,edmonton,10849,81,..,..,ab
6145,Trailway Motor Inn Motel,trail,edmonton,3815,gateway,..,..,ab
6194,University Of Alberta Swimming Pools,pool,edmonton,115,89,..,..,ab
6254,Vertically Inclined Park Climbing Gymn,gym,edmonton,8523,argyll,..,..,ab
6265,Victoria Park Iceway,rink,edmonton,12030,river valley,..,..,ab
6268,Victoria Park Ski Trails,trail,edmonton,116,116,..,..,ab
6277,Victoria Trail Apartments,trail,edmonton,14808,26,..,..,ab
6522,Westwood Arena,arena,edmonton,12040,97,..,..,ab
6556,William Hawrelak Park Ski Trails,trail,edmonton,9330,groat,..,..,ab
6649,World Health St Albert Trail,trail,edmonton,13543,st-albert,..,..,ab
6671,Yellowbird (East) Community League,community centre,edmonton,..,..,..,..,ab
7008,Ab Macdonald,sports field,edmonton,..,..,..,..,ab
7009,Ab Macdonald,sports field,edmonton,..,..,..,..,ab
7010,Ab Macdonald,sports field,edmonton,..,..,..,..,ab
7011,Ab O'Leary,sports field,edmonton,..,..,..,..,ab
7012,Ab O'Leary,sports field,edmonton,..,..,..,..,ab
7013,Ab O'Leary,sports field,edmonton,..,..,..,..,ab
7015,Abbottsfield,sports field,edmonton,..,..,..,..,ab
7016,Abbottsfield,sports field,edmonton,..,..,..,..,ab
7017,Abbottsfield,sports field,edmonton,..,..,..,..,ab
7018,Abbottsfield,sports field,edmonton,..,..,..,..,ab
7019,Abbottsfield,sports field,edmonton,..,..,..,..,ab
7024,Ace Tennis Academy,sports field,edmonton,12840,109,..,..,ab
7025,Ace Tennis Academy,sports field,edmonton,12840,109,..,..,ab
7026,Ace Tennis Academy,sports field,edmonton,12840,109,..,..,ab
7027,Ace Tennis Academy,sports field,edmonton,12840,109,..,..,ab
7076,Afton,sports field,edmonton,..,..,..,..,ab
7077,Afton,sports field,edmonton,..,..,..,..,ab
7097,Airway Pk,sports field,edmonton,..,..,..,..,ab
7098,Airway Pk,sports field,edmonton,..,..,..,..,ab
7116,Alberta Avenue,sports field,edmonton,..,..,..,..,ab
7127,Aldergrove,sports field,edmonton,..,..,..,..,ab
7128,Aldergrove,sports field,edmonton,..,..,..,..,ab
7129,Aldergrove,sports field,edmonton,..,..,..,..,ab
7130,Aldergrove,sports field,edmonton,..,..,..,..,ab
7134,Alex Taylor,sports field,edmonton,..,..,..,..,ab
7162,Allendale,sports field,edmonton,..,..,..,..,ab
7163,Allendale,sports field,edmonton,..,..,..,..,ab
7216,Anne Fitzgerald,sports field,edmonton,..,..,..,..,ab
7217,Anne Fitzgerald,sports field,edmonton,..,..,..,..,ab
7218,Anne Fitzgerald,sports field,edmonton,..,..,..,..,ab
7283,Argyll Pk,sports field,edmonton,..,..,..,..,ab
7367,Athlone,sports field,edmonton,..,..,..,..,ab
