Index,Facility_Name,ODRSF_facility_type,Provider,Street_No,Street_Name,Postal_Code,City,Prov_Terr
5,A.C.T. Aquatics And Recreation Centre Pool,pool,edmonton,..,..,..,..,ab
13,Abbottsfield Recreation Centre,community centre,edmonton,3010,119,..,..,ab
32,Act Aquatic & Recreation Centre,community centre,edmonton,2909,113,..,..,ab
195,Argyll Plaza Arena,arena,edmonton,9933,63,..,..,ab
196,Argyll Velodrome Sports Centre,community centre,edmonton,6850,88,..,..,ab
229,Baccarat Casino,casino,edmonton,10128,104,..,..,ab
338,Bellevue Community League,community centre,edmonton,..,..,..,..,ab
400,Bill Hunter Arena,arena,edmonton,9200,163,..,..,ab
461,Bonnie Doon Leisure Centre,community centre,edmonton,8648,81,..,..,ab
462,Bonnie Doon Leisure Centre Pool,pool,edmonton,..,..,..,..,ab
466,Borden Park Outdoor Pool,pool,edmonton,7615,borden park,..,..,ab
467,Borden Park Outdoor Swimming Pool,pool,edmonton,..,..,..,..,ab
589,Bull Pen Gym,gym,edmonton,10121,159,..,..,ab
613,Calder Skating Rink,rink,edmonton,12825,120,..,..,ab
624,Calgary Trail Medicentre,trail,edmonton,10407,51,..,..,ab
625,Callingwood Arena,arena,edmonton,17740,69,..,..,ab
626,Callingwood Recreation Centre,community centre,edmonton,..,..,..,..,ab
670,Capilano Park Ski Trails,trail,edmonton,6750,88,..,..,ab
720,Casino Edmonton,casino,edmonton,7055,argyll,..,..,ab
723,Casino Yellowhead,casino,edmonton,12464,153,..,..,ab
730,Castle Downs Arena,arena,edmonton,11520,153,..,..,ab
731,Castle Downs Outdoor Ice Rink,rink,edmonton,11510,153,..,..,ab
732,Castle Downs Recreation Centre,community centre,edmonton,..,..,..,..,ab
802,Central Lions Senior Citizens Recreation Centre,community centre,edmonton,11113,113,..,..,ab
972,Century Casino,casino,edmonton,13103,fort,..,..,ab
1076,City Hall Outdoor Ice Rink,rink,edmonton,1,sir winston churchill,..,..,ab
1093,Clareview Arena,arena,edmonton,3804,139,..,..,ab
1094,Clareview Community Recreation Centre,community centre,edmonton,3804,139,..,..,ab
1096,Clarke Stadium,stadium,edmonton,11000,stadium,..,..,ab
1152,Commonwealth Community Recreation Centre,community centre,edmonton,11000,stadium,..,..,ab
1154,Community League Building,community centre,edmonton,..,..,..,..,ab
1162,Confederation Arena,arena,edmonton,11204,43,..,..,ab
1163,Confederation Leisure Centre,community centre,edmonton,11204,43,..,..,ab
1164,Confederation Leisure Centre Pool,pool,edmonton,..,..,..,..,ab
1165,Confederation Pool,pool,edmonton,11204,43,..,..,ab
1196,Coronation Arena,arena,edmonton,13500,112,..,..,ab
1248,Crestwood Arena,arena,edmonton,9940,147,..,..,ab
1280,Curves For Women Stadium,stadium,edmonton,8145,112,..,..,ab
1384,Donnan Arena,arena,edmonton,9105,80,..,..,ab
1406,Downtown Community Arena,arena,edmonton,..,..,..,..,ab
1496,Eastglen Leisure Centre,community centre,edmonton,11410,68,..,..,ab
1497,Eastglen Leisure Centre Pool,pool,edmonton,..,..,..,..,ab
1526,Education Gymnasium University Of Alberta,gym,edmonton,113,87,..,..,ab
1563,Elmwood Park Community Rink,rink,edmonton,12505,75,..,..,ab
1604,Evergreen Skating Rink,rink,edmonton,724,evergreen,..,..,ab
1774,Fred Broadstock Outdoor Pool,pool,edmonton,15720,105,..,..,ab
1775,Fred Broadstock Swimming Pool,pool,edmonton,10515,158,..,..,ab
1816,Gateway Recreation Centre,community centre,edmonton,3414,gateway,..,..,ab
1839,George S Hughes Arena,arena,edmonton,10525,72,..,..,ab
