Index,Facility_Name,ODRSF_facility_type,Provider,Street_No,Street_Name,Postal_Code,City,Prov_Terr
176764,Summerside Park,park,edmonton,4130,savaryn,..,..,ab
176877,Sweetgrass Park,park,edmonton,11351,31,..,..,ab
177029,Terra Losa Park,park,edmonton,9503,178,..,..,ab
177046,Terwillegar Heights District Park,park,edmonton,..,23,..,..,ab
177047,Terwillegar Park,park,edmonton,10,rabbit hill,..,..,ab
177048,Terwillegar Towne Neighbourhood Park,park,edmonton,2800,taylor,..,..,ab
177063,The Grange District Park,park,edmonton,..,..,..,..,ab
177070,The Meadows District Park,park,edmonton,2303,17,..,..,ab
177109,Thomas Rhatigan Park,park,edmonton,270,rhatigan,..,..,ab
177127,Thorncliff Park,park,edmonton,8215,175,..,..,ab
177206,Tipaskan Park,park,edmonton,1219,lakewood,..,..,ab
177207,Tipton Park,park,edmonton,10849,81,..,..,ab
177239,Tomas Opalinski Park,park,edmonton,1103,109,..,..,ab
177243,Tomlinson Park,park,edmonton,1765,tomlinson,..,..,ab
177313,Touchdown Park,park,edmonton,12415,129,..,..,ab
177436,Tukquanow Park,park,edmonton,3507,48,..,..,ab
177479,Twin Brooks District & Nature Park,park,edmonton,1510,119,..,..,ab
177480,Twin Brooks Park,park,edmonton,11323,12,..,..,ab
177836,Veterans Park,park,edmonton,10013,102,..,..,ab
177855,Victoria Cross Memorial Park,park,edmonton,11111,108,..,..,ab
177875,Victoria Park,park,edmonton,12130,river valley,..,..,ab
177926,Violet Archer Park,park,edmonton,10920,70,..,..,ab
177963,"W.C. ""Tubby"" Bateman Park",park,edmonton,9703,88,..,..,ab
177967,W.E. Werner Park,park,edmonton,11248,35,..,..,ab
177970,W.P. Wagner Park,park,edmonton,6204,wagner,..,..,ab
177990,Walker Park,park,edmonton,460,watt,..,..,ab
178000,Wallace (Wally) Mcsween Park,park,edmonton,8703,75,..,..,ab
178010,Wally Footz Field,park,edmonton,12104,70,..,..,ab
178024,Walter Polley Park,park,edmonton,10010,89,..,..,ab
178141,Webber Greens Park,park,edmonton,855,lewis greens,..,..,ab
178146,Wedgewood Heights Park,park,edmonton,4314,184,..,..,ab
178156,Weinlos Park,park,edmonton,3103,48,..,..,ab
178173,Wellington Park,park,edmonton,13315,137,..,..,ab
178271,Westbrook Park,park,edmonton,12015,39a,..,..,ab
178327,Westmount Park,park,edmonton,10970,127,..,..,ab
178341,Westridge Park,park,edmonton,505,wolf willow,..,..,ab
178360,Westwood Park,park,edmonton,12139,105,..,..,ab
178404,Whitemud Equestrian Park,park,edmonton,12505,keillor,..,..,ab
178405,Whitemud Park,park,edmonton,13204,fox,..,..,ab
178406,Whitemud Ravine Nature Reserve,park,edmonton,..,..,..,..,ab
178446,Wild Rose Park,park,edmonton,3630,23,..,..,ab
178462,Wilfred Webb Park,park,edmonton,6411,187,..,..,ab
178490,William Bramley-Moore Park,park,edmonton,4711,144,..,..,ab
178498,William Hawrelak Park,park,edmonton,9330,groat,..,..,ab
178559,Willowby Park,park,edmonton,6315,184,..,..,ab
178627,Windsor Park,park,edmonton,11840,87,..,..,ab
178647,Winnifred Stewart Park,park,edmonton,12815,116,..,..,ab
178688,Wolf Willow Ravine,park,edmonton,..,..,..,..,ab
178838,York Park,park,edmonton,5825,140,..,..,ab
