Index,Facility_Name,ODRSF_facility_type,Provider,Street_No,Street_Name,Postal_Code,City,Prov_Terr
168775,Idylwylde Park,park,edmonton,8631,81,..,..,ab
168841,Irene Parlby Park,park,edmonton,9545,100,..,..,ab
168865,Isabelle Connelly Park,park,edmonton,9835,148,..,..,ab
168889,Ivor Dent Sports Park,park,edmonton,175,50,..,..,ab
168894,Izena Ross Park,park,edmonton,12166,fort,..,..,ab
168896,J. Dean Whittaker Park,park,edmonton,13415,105,..,..,ab
168903,J.A. Werner Park,park,edmonton,11420,35,..,..,ab
168922,Jack Horan Park,park,edmonton,16919,99,..,..,ab
168931,Jackie Parker Recreational Area,park,edmonton,4540,50,..,..,ab
168944,Jacob Prins Park,park,edmonton,12037,53,..,..,ab
168954,James A Christianson Park,park,edmonton,400,kirkness,..,..,ab
168966,James Ingram Gullion Park,park,edmonton,..,..,..,..,ab
168969,James Kidney Park,park,edmonton,11821,78,..,..,ab
168976,James Mccrie Douglas Park,park,edmonton,..,..,..,..,ab
168978,James Ramsay Park,park,edmonton,15016,43,..,..,ab
168992,Jane Salisbury Park,park,edmonton,11203,77,..,..,ab
169009,Jasper Place Jubilee Park,park,edmonton,9200,160,..,..,ab
169091,Joe Clarke Athletic Grounds,park,edmonton,11000,stadium,..,..,ab
169095,Joe Morris Park,park,edmonton,10828,78,..,..,ab
169106,John A. Norris Park,park,edmonton,12808,112,..,..,ab
169141,John Devoldere Memorial Park,park,edmonton,16415,83,..,..,ab
169142,John Ducey Park,park,edmonton,10233,96th,..,..,ab
169147,John Fry Park,park,edmonton,9700,28,..,..,ab
169148,John G. Niddrie Park,park,edmonton,12707,111,..,..,ab
169159,John J. Olinyk Park In Beverly Heights,park,edmonton,4626,115,..,..,ab
169178,John Patrick Gillese Park,park,edmonton,671,glenwright,..,..,ab
169204,Johnny Bright Sports Park,park,edmonton,9217,165,..,..,ab
169242,Josef Chelen Park,park,edmonton,6820,135,..,..,ab
169289,Jubilee Park,park,edmonton,4203,120,..,..,ab
169335,Kainai Park,park,edmonton,11714,32a,..,..,ab
169342,Kameyosek Park,park,edmonton,260,lakewood,..,..,ab
169352,Kaskitayo Park,park,edmonton,1975,109,..,..,ab
169359,Kathleen Mcallister Park,park,edmonton,10517,50a,..,..,ab
169387,Keheewin Park,park,edmonton,10710,19,..,..,ab
169413,Ken Newman Park,park,edmonton,10802,150,..,..,ab
169416,Ken Poyser Park,park,edmonton,15110,76,..,..,ab
169429,Kenilworth Field,park,edmonton,8313,68a,..,..,ab
169430,Kenilworth Park,park,edmonton,7104,87,..,..,ab
169435,Kennedale Ravine,park,edmonton,13023,40,..,..,ab
169451,Kensington Park,park,edmonton,12130,134b,..,..,ab
169467,Kernohan Park,park,edmonton,699,clareview,..,..,ab
169483,Keyano Park,park,edmonton,12963,120,..,..,ab
169498,Kildare Park,park,edmonton,14224,74,..,..,ab
169506,Kilkenny Park,park,edmonton,7245,149a,..,..,ab
169511,Killarney Park,park,edmonton,8720,130a,..,..,ab
169531,King Edward Park,park,edmonton,7708,85,..,..,ab
169578,Kiniski Gardens Park,park,edmonton,4120,41,..,..,ab
169579,Kinnaird Park,park,edmonton,8112,111,..,..,ab
169599,Kinsmen Park,park,edmonton,9100,walterdale,..,..,ab
