Index,Facility_Name,ODRSF_facility_type,Provider,Street_No,Street_Name,Postal_Code,City,Prov_Terr
15452,Rosslyn,sports field,edmonton,..,..,..,..,ab
15453,Rosslyn,sports field,edmonton,..,..,..,..,ab
15525,Rundle Golf Course,sports field,edmonton,2902,118,..,..,ab
15526,Rundle Golf Course,sports field,edmonton,..,..,..,..,ab
15527,Rundle Heights,sports field,edmonton,..,..,..,..,ab
15528,Rundle Heights,sports field,edmonton,..,..,..,..,ab
15529,Rundle Heights,sports field,edmonton,..,..,..,..,ab
15530,Rundle Heights,sports field,edmonton,..,..,..,..,ab
15531,Rundle Heights,sports field,edmonton,..,..,..,..,ab
15532,Rundle Heights,sports field,edmonton,..,..,..,..,ab
15533,Rundle Heights,sports field,edmonton,..,..,..,..,ab
15534,Rundle Park Golf Course,sports field,edmonton,2909,118,..,..,ab
15535,Rundle Pk,sports field,edmonton,..,..,..,..,ab
15536,Rundle Pk,sports field,edmonton,..,..,..,..,ab
15548,Rutherford,sports field,edmonton,..,..,..,..,ab
15549,Rutherford,sports field,edmonton,..,..,..,..,ab
15555,S Bruce Smith,sports field,edmonton,..,..,..,..,ab
15556,S Bruce Smith,sports field,edmonton,..,..,..,..,ab
15564,Sacred Heart,sports field,edmonton,..,..,..,..,ab
15571,Sakaw,sports field,edmonton,..,..,..,..,ab
15572,Sakaw,sports field,edmonton,..,..,..,..,ab
15573,Sakaw,sports field,edmonton,..,..,..,..,ab
15574,Sakaw,sports field,edmonton,..,..,..,..,ab
15575,Sakaw,sports field,edmonton,..,..,..,..,ab
15621,Satoo,sports field,edmonton,..,..,..,..,ab
15670,Scott Robertson,sports field,edmonton,..,..,..,..,ab
15671,Scott Robertson,sports field,edmonton,..,..,..,..,ab
15672,Scott Robertson,sports field,edmonton,..,..,..,..,ab
15729,Shamrock Curling Club,rink,edmonton,9330,80,..,..,ab
15775,Sherbrooke,sports field,edmonton,..,..,..,..,ab
15776,Sherbrooke,sports field,edmonton,..,..,..,..,ab
15792,Sherwood,sports field,edmonton,..,..,..,..,ab
15822,Sifton,sports field,edmonton,..,..,..,..,ab
15823,Sifton,sports field,edmonton,..,..,..,..,ab
15824,Sifton,sports field,edmonton,..,..,..,..,ab
15825,Sifton,sports field,edmonton,..,..,..,..,ab
15829,Silver Berry,sports field,edmonton,..,..,..,..,ab
15830,Silver Berry,sports field,edmonton,..,..,..,..,ab
15831,Silver Berry,sports field,edmonton,..,..,..,..,ab
15832,Silver Berry,sports field,edmonton,..,..,..,..,ab
15833,Silver Berry,sports field,edmonton,..,..,..,..,ab
15834,Silver Berry,sports field,edmonton,..,..,..,..,ab
15902,Skyrattler,sports field,edmonton,..,..,..,..,ab
15903,Skyrattler,sports field,edmonton,..,..,..,..,ab
16770,Soccer Centre S,sports field,edmonton,..,..,..,..,ab
16771,Soccer Centre S,sports field,edmonton,..,..,..,..,ab
16772,Soccer Centre S,sports field,edmonton,..,..,..,..,ab
16773,Soccer Centre S,sports field,edmonton,..,..,..,..,ab
16962,Spruce Avenue,sports field,edmonton,..,..,..,..,ab
