Index,Facility_Name,ODRSF_facility_type,Provider,Street_No,Street_Name,Postal_Code,City,Prov_Terr
13293,Malcolm Tweedle,sports field,edmonton,..,..,..,..,ab
13294,Malcolm Tweedle,sports field,edmonton,..,..,..,..,ab
13298,Malmo,sports field,edmonton,..,..,..,..,ab
13299,Malmo,sports field,edmonton,..,..,..,..,ab
13340,Maple Ridge,sports field,edmonton,..,..,..,..,ab
13360,Maria Goretti,sports field,edmonton,..,..,..,..,ab
13390,Mary Hanley,sports field,edmonton,..,..,..,..,ab
13391,Mary Hanley,sports field,edmonton,..,..,..,..,ab
13392,Mary Hanley,sports field,edmonton,..,..,..,..,ab
13393,Mary Hanley,sports field,edmonton,..,..,..,..,ab
13394,Mary Hanley,sports field,edmonton,..,..,..,..,ab
13395,Mary Hanley,sports field,edmonton,..,..,..,..,ab
13396,Mary Hanley,sports field,edmonton,..,..,..,..,ab
13424,Matt Berry,sports field,edmonton,..,..,..,..,ab
13425,Matt Berry,sports field,edmonton,..,..,..,..,ab
13426,Matt Berry,sports field,edmonton,..,..,..,..,ab
13427,Matt Berry,sports field,edmonton,..,..,..,..,ab
13435,Mayfair Golf Course,sports field,edmonton,..,..,..,..,ab
13441,Mayfield,sports field,edmonton,..,..,..,..,ab
13442,Mayfield,sports field,edmonton,..,..,..,..,ab
13446,Mcarthur,sports field,edmonton,..,..,..,..,ab
13447,Mcarthur,sports field,edmonton,..,..,..,..,ab
13453,Mccauley,sports field,edmonton,..,..,..,..,ab
13465,Mcdougall,sports field,edmonton,..,..,..,..,ab
13466,Mcdougall,sports field,edmonton,..,..,..,..,ab
13481,Mckee,sports field,edmonton,..,..,..,..,ab
13482,Mckee,sports field,edmonton,..,..,..,..,ab
13483,Mckee,sports field,edmonton,..,..,..,..,ab
13493,Mckernan,sports field,edmonton,..,..,..,..,ab
13494,Mckernan,sports field,edmonton,..,..,..,..,ab
13513,Mcleod,sports field,edmonton,..,..,..,..,ab
13518,Mcnally,sports field,edmonton,..,..,..,..,ab
13519,Mcnally,sports field,edmonton,..,..,..,..,ab
13520,Mcnally,sports field,edmonton,..,..,..,..,ab
13525,Mcqueen,sports field,edmonton,..,..,..,..,ab
13526,Mcqueen,sports field,edmonton,..,..,..,..,ab
13527,Mcqueen,sports field,edmonton,..,..,..,..,ab
13528,Me Lazerte,sports field,edmonton,..,..,..,..,ab
13529,Me Lazerte,sports field,edmonton,..,..,..,..,ab
13530,Me Lazerte,sports field,edmonton,..,..,..,..,ab
13531,Me Lazerte,sports field,edmonton,..,..,..,..,ab
13532,Me Lazerte,sports field,edmonton,..,..,..,..,ab
13554,Meadowlark,sports field,edmonton,..,..,..,..,ab
13555,Meadowlark,sports field,edmonton,..,..,..,..,ab
13571,Mee Yah Noh,sports field,edmonton,..,..,..,..,ab
13572,Mee Yah Noh,sports field,edmonton,..,..,..,..,ab
13585,Menisa,sports field,edmonton,..,..,..,..,ab
13586,Menisa,sports field,edmonton,..,..,..,..,ab
13587,Menisa,sports field,edmonton,..,..,..,..,ab
