Index,Facility_Name,ODRSF_facility_type,Provider,Street_No,Street_Name,Postal_Code,City,Prov_Terr
167253,Gateway Park,park,edmonton,2404,calgary,..,..,ab
167291,George F. Hustler Memorial Plaza,park,edmonton,9812,96a,..,..,ab
167334,Germaine Dalton Park,park,edmonton,12324,57,..,..,ab
167402,Giovanni Caboto Park,park,edmonton,9403,109a,..,..,ab
167428,Glastonbury Park,park,edmonton,1101,grantham,..,..,ab
167512,Glengarry Park,park,edmonton,8520,132,..,..,ab
167528,Glenora Park,park,edmonton,10410,136,..,..,ab
167534,Glenwood Park,park,edmonton,16430,97,..,..,ab
167554,Gold Bar Community Park,park,edmonton,4620,105,..,..,ab
167555,Gold Bar Park,park,edmonton,10955,50,..,..,ab
167556,Gold Bar Ravine,park,edmonton,4304,106,..,..,ab
167610,Goldstick Park,park,edmonton,4210,101,..,..,ab
167635,Gordan Drynan Park,park,edmonton,10320,166,..,..,ab
167675,Government House Park,park,edmonton,9938,groat,..,..,ab
167679,Gowan Park,park,edmonton,11321,78,..,..,ab
167729,Grand Trunk Park,park,edmonton,13025,112,..,..,ab
167741,Grandview Park,park,edmonton,6223,124,..,..,ab
167760,Grant Notley Park,park,edmonton,11603,100,..,..,ab
167780,Graunke Park,park,edmonton,4949,34,..,..,ab
167833,Greenfield Park,park,edmonton,3755,114,..,..,ab
167864,Greenview Park,park,edmonton,5804,38,..,..,ab
167893,Griesbach Central Park,park,edmonton,2630,sir arthur currie,..,..,ab
167900,Groat Ravine,park,edmonton,10215,connaught,..,..,ab
167914,Grovenor Park,park,edmonton,14325,104,..,..,ab
167934,Guinevere Park,park,edmonton,1704,glastonbury,..,..,ab
167942,Guthrie Ravine,park,edmonton,603,207,..,..,ab
167961,H.W. Heathcote Park,park,edmonton,15,westbrook,..,..,ab
167965,Haddow Park,park,edmonton,2097,haddow,..,..,ab
167982,Hairsine Park,park,edmonton,3120,139,..,..,ab
168092,Harry Farmer Park,park,edmonton,9824,170,..,..,ab
168093,Harry Hardin Park,park,edmonton,5620,101a,..,..,ab
168151,Hawkins Park,park,edmonton,4540,25,..,..,ab
168172,Hazeldean Park,park,edmonton,9630,66,..,..,ab
168226,Helen Nolan Park,park,edmonton,12327,108,..,..,ab
168247,Henderson Park,park,edmonton,3408,riverbend,..,..,ab
168252,Henri Legay Park,park,edmonton,13915,51,..,..,ab
168255,Henrietta Muir Edwards Park,park,edmonton,9812,96a,..,..,ab
168268,Henry Martell Park,park,edmonton,6415,ada,..,..,ab
168271,Henry Singer Park,park,edmonton,14940,142,..,..,ab
168288,Herb Link Park,park,edmonton,12030,162,..,..,ab
168290,Herbert Hart Park,park,edmonton,16103,88,..,..,ab
168341,Hermitage Park,park,edmonton,2115,127,..,..,ab
168395,High Park,park,edmonton,11032,154,..,..,ab
168437,Highlands Park,park,edmonton,6112,113,..,..,ab
168471,Hilldale Park,park,edmonton,17415,106a,..,..,ab
168503,Hillview Park,park,edmonton,375,woodvale,..,..,ab
168540,Hollick-Kenyon Park,park,edmonton,..,..,..,..,ab
168568,Holyrood Park,park,edmonton,8035,95,..,..,ab
168579,Homesteader Park,park,edmonton,575,hermitage,..,..,ab
