Index,Facility_Name,ODRSF_facility_type,Provider,Street_No,Street_Name,Postal_Code,City,Prov_Terr
11609,Greenview,sports field,edmonton,..,..,..,..,ab
11610,Greenview,sports field,edmonton,..,..,..,..,ab
11611,Greenview,sports field,edmonton,..,..,..,..,ab
11612,Greenview,sports field,edmonton,..,..,..,..,ab
11636,Grovenor,sports field,edmonton,..,..,..,..,ab
11637,Grovenor # 1 So,sports field,edmonton,..,..,..,..,ab
11659,Hairsine,sports field,edmonton,..,..,..,..,ab
11660,Hairsine,sports field,edmonton,..,..,..,..,ab
11661,Hairsine,sports field,edmonton,..,..,..,..,ab
11662,Hairsine,sports field,edmonton,..,..,..,..,ab
11663,Hairsine,sports field,edmonton,..,..,..,..,ab
11694,Hardisty,sports field,edmonton,..,..,..,..,ab
11695,Hardisty,sports field,edmonton,..,..,..,..,ab
11696,Hardisty,sports field,edmonton,..,..,..,..,ab
11757,Hazeldean,sports field,edmonton,..,..,..,..,ab
11763,He Beriault,sports field,edmonton,..,..,..,..,ab
11777,Henderson Est,sports field,edmonton,..,..,..,..,ab
11778,Henderson Est,sports field,edmonton,..,..,..,..,ab
11818,Herb Link,sports field,edmonton,..,..,..,..,ab
11819,Herb Link,sports field,edmonton,..,..,..,..,ab
11820,Herb Link,sports field,edmonton,..,..,..,..,ab
11821,Herb Link,sports field,edmonton,..,..,..,..,ab
11822,Herb Link,sports field,edmonton,..,..,..,..,ab
11823,Herb Link # 1 D,sports field,edmonton,..,..,..,..,ab
11824,Herb Link # 1 S,sports field,edmonton,..,..,..,..,ab
11825,Herb Link # 2 D,sports field,edmonton,..,..,..,..,ab
11826,Herb Link # 2 S,sports field,edmonton,..,..,..,..,ab
11827,Herb Link # 3 D,sports field,edmonton,..,..,..,..,ab
11828,Herb Link # 4 S,sports field,edmonton,..,..,..,..,ab
11900,High Park # 1 S,sports field,edmonton,..,..,..,..,ab
11902,High Pk,sports field,edmonton,..,..,..,..,ab
11911,Highlands,sports field,edmonton,..,..,..,..,ab
11912,Highlands,sports field,edmonton,..,..,..,..,ab
11913,Highlands Golf Club,sports field,edmonton,6603,ada,..,..,ab
11919,Hillcrest,sports field,edmonton,..,..,..,..,ab
11920,Hillcrest,sports field,edmonton,..,..,..,..,ab
11932,Hillview,sports field,edmonton,..,..,..,..,ab
11933,Hillview,sports field,edmonton,..,..,..,..,ab
11934,Hillview,sports field,edmonton,..,..,..,..,ab
11941,Hockey Impact Training,rink,edmonton,14225,115,..,..,ab
11961,Hollick Kenyon,sports field,edmonton,..,..,..,..,ab
11962,Hollick-Kenyon,sports field,edmonton,..,..,..,..,ab
11963,Hollick-Kenyon,sports field,edmonton,..,..,..,..,ab
11973,Holy Cross,sports field,edmonton,..,..,..,..,ab
11974,Holy Cross,sports field,edmonton,..,..,..,..,ab
11975,Holy Cross,sports field,edmonton,..,..,..,..,ab
11977,Holy Family,sports field,edmonton,..,..,..,..,ab
11978,Holy Family,sports field,edmonton,..,..,..,..,ab
11979,Holy Family,sports field,edmonton,..,..,..,..,ab
