Index,Facility_Name,ODRSF_facility_type,Provider,Street_No,Street_Name,Postal_Code,City,Prov_Terr
180,Ardrossan Recreation Complex,rink,strathcona county,..,..,..,..,ab
181,Ardrossan Recreation Complex,community centre,strathcona county,..,..,..,..,ab
513,Brentwood Elementary School,splash pad,strathcona county,..,..,..,..,ab
514,Brentwood Elementary School,rink,strathcona county,..,..,..,..,ab
516,Brentwood Rink,rink,strathcona county,27,falcon,..,..,ab
553,Broadmoor Arena,arena,strathcona county,..,..,..,..,ab
554,Broadmoor Lake Park,splash pad,strathcona county,..,..,..,..,ab
1115,Clover Bar Ranch Park,splash pad,strathcona county,..,..,..,..,ab
1116,Clover Bar Ranch Park,rink,strathcona county,..,..,..,..,ab
1138,Collingwood Cove Park,rink,strathcona county,..,..,..,..,ab
1304,Davidson Creek Park,rink,strathcona county,..,..,..,..,ab
1340,Deville / North Cooking Lake Community Hall,rink,strathcona county,..,..,..,..,ab
1568,Emerald Hills Regional Park,rink,strathcona county,..,..,..,..,ab
1872,Glen Allan Recreation Complex,community centre,strathcona county,..,..,..,..,ab
1975,Granville Park,splash pad,strathcona county,..,..,..,..,ab
2081,Hastings Lake Community Hall,rink,strathcona county,..,..,..,..,ab
2603,Kinsmen Leisure Centre,community centre,strathcona county,..,..,..,..,ab
2615,Kinsmen/Westboro Park,splash pad,strathcona county,..,..,..,..,ab
2616,Kinsmen/Westboro Park,rink,strathcona county,..,..,..,..,ab
3261,Mcghan Park,rink,strathcona county,..,..,..,..,ab
3286,Mcpherson Park,rink,strathcona county,..,..,..,..,ab
3349,Millennium Place,community centre,strathcona county,..,..,..,..,ab
3365,Mills Haven Elementary School,rink,strathcona county,..,..,..,..,ab
3472,Moyer Recreation Centre,community centre,strathcona county,..,..,..,..,ab
5060,Rainbow Park,rink,strathcona county,..,..,..,..,ab
5085,Recreation Centre Arena Shell,arena,strathcona county,..,..,..,..,ab
5413,Sherwood Heights Junior High School,rink,strathcona county,..,..,..,..,ab
5418,Sherwood Park Arena/Sports Cen,arena,strathcona county,..,..,..,..,ab
5647,South Cooking Lake Day Use Park,rink,strathcona county,..,..,..,..,ab
5982,Strathcona Athletic Park,rink,strathcona county,..,..,..,..,ab
5983,Strathcona Olympiette Centre,community centre,strathcona county,..,..,..,..,ab
5986,Strathcona Wilderness Centre,community centre,strathcona county,..,..,..,..,ab
6188,Uncas Elementary School,rink,strathcona county,..,..,..,..,ab
6623,Woodbridge Lake Park,splash pad,strathcona county,..,..,..,..,ab
6624,Woodbridge Lake Park,rink,strathcona county,..,..,..,..,ab
7220,Antler Lake Park,sports field,strathcona county,..,..,..,..,ab
7221,Antler Lake Uncas Community Hall,sports field,strathcona county,..,..,..,..,ab
7222,Antler Lake Uncas Community Hall,sports field,strathcona county,..,..,..,..,ab
7264,Ardrossan Athletic Park,sports field,strathcona county,..,..,..,..,ab
7265,Ardrossan Athletic Park,sports field,strathcona county,..,..,..,..,ab
7266,Ardrossan Athletic Park,sports field,strathcona county,..,..,..,..,ab
7267,Ardrossan Athletic Park,sports field,strathcona county,..,..,..,..,ab
7268,Ardrossan Athletic Park,sports field,strathcona county,..,..,..,..,ab
7269,Ardrossan Athletic Park,sports field,strathcona county,..,..,..,..,ab
7270,Ardrossan Athletic Park,sports field,strathcona county,..,..,..,..,ab
7271,Ardrossan Athletic Park,sports field,strathcona county,..,..,..,..,ab
7272,Ardrossan Athletic Park,sports field,strathcona county,..,..,..,..,ab
7273,Ardrossan Athletic Park,sports field,strathcona county,..,..,..,..,ab
7274,Ardrossan Athletic Park,sports field,strathcona county,..,..,..,..,ab
