Index,Facility_Name,ODRSF_facility_type,Provider,Street_No,Street_Name,Postal_Code,City,Prov_Terr
171468,Meyonohk Park,park,edmonton,1840,lakewood,..,..,ab
171476,Michael Phair Park,park,edmonton,10124,104,..,..,ab
171479,Michaels Park,park,edmonton,980,millborne,..,..,ab
171510,Mike Finland Park,park,edmonton,7719,98a,..,..,ab
171536,Mill Creek Ravine Park,park,edmonton,8323,95a,..,..,ab
171546,Mill Woods Park,park,edmonton,2730,66,..,..,ab
171566,Miller Park,park,edmonton,4850,matheson,..,..,ab
171630,Milton Jevning Park,park,edmonton,10524,lauderdale,..,..,ab
171637,Minchau Park,park,edmonton,3724,mill woods,..,..,ab
171679,Miwasin Park,park,edmonton,12415,131a,..,..,ab
171762,"Monsignor Fee Otterson ""Otter"" Park",park,edmonton,..,..,..,..,ab
171765,Monsignor Walter Fitzgerald Park,park,edmonton,7120,180,..,..,ab
171766,Monsignor William Irwin Park,park,edmonton,9814,110,..,..,ab
171791,Montrose Park,park,edmonton,5920,119,..,..,ab
171901,Mount Pleasant Park,park,edmonton,5809,106,..,..,ab
171953,Muchias Park,park,edmonton,3524,25,..,..,ab
172084,Nellie Mcclung Park,park,edmonton,9404,scona,..,..,ab
172125,Newton Park,park,edmonton,5510,121,..,..,ab
172201,North Glenora Park,park,edmonton,13535,109a,..,..,ab
172265,Northmount Park,park,edmonton,9204,140,..,..,ab
172309,Norwester Park,park,edmonton,16703,117,..,..,ab
172314,Norwood Square,park,edmonton,9516,114,..,..,ab
172495,Ogilvie Ridge Park,park,edmonton,951,ogilvie,..,..,ab
172539,Oleskiw Park,park,edmonton,203,walker,..,..,ab
172545,Oliver Park,park,edmonton,10326,118,..,..,ab
172630,Orval Allen Park,park,edmonton,15910,127,..,..,ab
172649,Ottewell Park,park,edmonton,6010,93a,..,..,ab
172652,Otto Leslie Park,park,edmonton,16304,110,..,..,ab
172664,Overlanders Park,park,edmonton,1130,hermitage,..,..,ab
172678,Oxford Park,park,edmonton,13104,155,..,..,ab
172685,Ozerna Park,park,edmonton,7010,158,..,..,ab
173285,Parc Le Cerf,park,edmonton,1610,glastonbury,..,..,ab
173650,Parkview Park,park,edmonton,9135,146,..,..,ab
173686,Patricia Ravine,park,edmonton,16405,78,..,..,ab
173689,Patrick J. Ryan Park,park,edmonton,15804,110,..,..,ab
173705,Paul Kane Park,park,edmonton,10220,121,..,..,ab
173729,Peace Garden Park,park,edmonton,10259,120,..,..,ab
173768,Peggy Holmes Park,park,edmonton,15803,109,..,..,ab
173847,Phoebe Mccullough Park,park,edmonton,16316,107a,..,..,ab
173881,Pilot Sounds District Park,park,edmonton,180,mcconachie,..,..,ab
174009,Pollard Meadows Park,park,edmonton,1751,48,..,..,ab
174036,Poplar District Park,park,edmonton,16410,82,..,..,ab
174078,Post Office Clock Tower,park,edmonton,10145,100,..,..,ab
174117,Primrose Park,park,edmonton,8304,188,..,..,ab
174124,Prince Charles Park,park,edmonton,12449,121,..,..,ab
174136,Prince Rupert Park,park,edmonton,11320,113,..,..,ab
174149,Princess Patricia Park,park,edmonton,10440,108,..,..,ab
174238,Queen Elizabeth Park,park,edmonton,10380,queen elizabeth park,..,..,ab
174241,Queen Mary Park,park,edmonton,11025,110,..,..,ab
