Index,Facility_Name,ODRSF_facility_type,Provider,Street_No,Street_Name,Postal_Code,City,Prov_Terr
13603,Meyonohk,sports field,edmonton,..,..,..,..,ab
13604,Meyonohk,sports field,edmonton,..,..,..,..,ab
13606,Michael Strembitsky,sports field,edmonton,..,..,..,..,ab
13607,Michael Strembitsky,sports field,edmonton,..,..,..,..,ab
13609,Michaels Pk,sports field,edmonton,..,..,..,..,ab
13610,Michaels Pk,sports field,edmonton,..,..,..,..,ab
13611,Michaels Pk,sports field,edmonton,..,..,..,..,ab
13612,Michaels Pk,sports field,edmonton,..,..,..,..,ab
13613,Michaels Pk,sports field,edmonton,..,..,..,..,ab
13676,Mill Creek,sports field,edmonton,..,..,..,..,ab
13680,Mill Woods Community Artificial Turf - Staffed Field,sports field,edmonton,71,23,..,..,ab
13681,Mill Woods Golf Course,sports field,edmonton,4540,50,..,..,ab
13682,Mill Woods Tennis Courts,sports field,edmonton,28,72,..,..,ab
13683,Mill Woods Tennis Courts,sports field,edmonton,28,72,..,..,ab
13684,Mill Woods Tennis Courts,sports field,edmonton,28,72,..,..,ab
13685,Mill Woods Tennis Courts,sports field,edmonton,28,72,..,..,ab
13686,Mill Woods Tennis Courts,sports field,edmonton,28,72,..,..,ab
13687,Mill Woods Tennis Courts,sports field,edmonton,28,72,..,..,ab
13688,Mill Woods Tennis Courts,sports field,edmonton,28,72,..,..,ab
13689,Mill Woods Tennis Courts,sports field,edmonton,28,72,..,..,ab
13690,Mill Woods Tennis Courts,sports field,edmonton,28,72,..,..,ab
13691,Mill Woods Tennis Courts,sports field,edmonton,28,72,..,..,ab
13692,Mill Woods Tennis Courts,sports field,edmonton,28,72,..,..,ab
13693,Mill Woods Tennis Courts,sports field,edmonton,28,72,..,..,ab
13694,Mill Woods Tennis Courts,sports field,edmonton,28,72,..,..,ab
13702,Miller,sports field,edmonton,..,..,..,..,ab
13703,Miller,sports field,edmonton,..,..,..,..,ab
13704,Miller,sports field,edmonton,..,..,..,..,ab
13725,Millwoods Golf Course,sports field,edmonton,..,..,..,..,ab
13726,Millwoods Pk,sports field,edmonton,..,..,..,..,ab
13727,Millwoods Pk,sports field,edmonton,..,..,..,..,ab
13728,Millwoods Pk,sports field,edmonton,..,..,..,..,ab
13729,Millwoods Pk,sports field,edmonton,..,..,..,..,ab
13730,Millwoods Pk,sports field,edmonton,..,..,..,..,ab
13737,Minchau,sports field,edmonton,..,..,..,..,ab
13738,Minchau,sports field,edmonton,..,..,..,..,ab
13739,Minchau,sports field,edmonton,..,..,..,..,ab
13795,Montrose,sports field,edmonton,..,..,..,..,ab
13796,Montrose,sports field,edmonton,..,..,..,..,ab
13849,Mother Theresa,sports field,edmonton,..,..,..,..,ab
13850,Mount Carmel,sports field,edmonton,..,..,..,..,ab
13854,Mount Pleasant,sports field,edmonton,..,..,..,..,ab
13855,Mount Pleasant,sports field,edmonton,..,..,..,..,ab
13856,Mount Pleasant,sports field,edmonton,..,..,..,..,ab
13857,Mount Pleasant,sports field,edmonton,..,..,..,..,ab
13860,Mount Royal,sports field,edmonton,..,..,..,..,ab
13861,Mount Royal,sports field,edmonton,..,..,..,..,ab
13961,Newton,sports field,edmonton,..,..,..,..,ab
14031,Northmount,sports field,edmonton,..,..,..,..,ab
