Index,Facility_Name,ODRSF_facility_type,Provider,Street_No,Street_Name,Postal_Code,City,Prov_Terr
12369,Keheewin,sports field,edmonton,..,..,..,..,ab
12370,Keheewin,sports field,edmonton,..,..,..,..,ab
12371,Keheewin,sports field,edmonton,..,..,..,..,ab
12372,Keheewin,sports field,edmonton,..,..,..,..,ab
12373,Keheewin,sports field,edmonton,..,..,..,..,ab
12374,Keheewin,sports field,edmonton,..,..,..,..,ab
12375,Keheewin,sports field,edmonton,..,..,..,..,ab
12376,Keheewin,sports field,edmonton,..,..,..,..,ab
12377,Keheewin,sports field,edmonton,..,..,..,..,ab
12399,Kenilworth,sports field,edmonton,..,..,..,..,ab
12400,Kenilworth,sports field,edmonton,..,..,..,..,ab
12415,Kensington,sports field,edmonton,..,..,..,..,ab
12416,Kensington,sports field,edmonton,..,..,..,..,ab
12417,Kensington,sports field,edmonton,..,..,..,..,ab
12420,Kernohan,sports field,edmonton,..,..,..,..,ab
12421,Kernohan,sports field,edmonton,..,..,..,..,ab
12422,Kernohan,sports field,edmonton,..,..,..,..,ab
12423,Kernohan,sports field,edmonton,..,..,..,..,ab
12438,Kildare,sports field,edmonton,..,..,..,..,ab
12439,Kildare,sports field,edmonton,..,..,..,..,ab
12440,Kildare,sports field,edmonton,..,..,..,..,ab
12441,Killarney,sports field,edmonton,..,..,..,..,ab
12460,King Edward,sports field,edmonton,..,..,..,..,ab
12461,King Edward,sports field,edmonton,..,..,..,..,ab
12489,Kiniski Gardens,park,edmonton,..,..,..,..,ab
12492,Kiniski Gardens,sports field,edmonton,..,..,..,..,ab
12493,Kiniski Gardens,sports field,edmonton,..,..,..,..,ab
12494,Kiniski Gardens,sports field,edmonton,..,..,..,..,ab
12495,Kiniski Gardens,sports field,edmonton,..,..,..,..,ab
12496,Kiniski Gardens,sports field,edmonton,..,..,..,..,ab
12500,Kinsmen,sports field,edmonton,..,..,..,..,ab
12501,Kinsmen,sports field,edmonton,..,..,..,..,ab
12521,Kirkness,sports field,edmonton,..,..,..,..,ab
12522,Kirkness,sports field,edmonton,..,..,..,..,ab
12523,Kirkness,sports field,edmonton,..,..,..,..,ab
12524,Kirkness,sports field,edmonton,..,..,..,..,ab
12525,Kirkness,sports field,edmonton,..,..,..,..,ab
12526,Kirkness,sports field,edmonton,..,..,..,..,ab
12527,Kirkness,sports field,edmonton,..,..,..,..,ab
12554,Klarvatten,sports field,edmonton,..,..,..,..,ab
12555,Klarvatten,sports field,edmonton,..,..,..,..,ab
12556,Klarvatten,sports field,edmonton,..,..,..,..,ab
12557,Klarvatten,sports field,edmonton,..,..,..,..,ab
12790,Lady Of Fatima,sports field,edmonton,..,..,..,..,ab
12791,Lady Of Peace,sports field,edmonton,..,..,..,..,ab
12792,Lady Prairies,sports field,edmonton,..,..,..,..,ab
12793,Lady Prairies,sports field,edmonton,..,..,..,..,ab
12794,Lago Lindo,sports field,edmonton,..,..,..,..,ab
12795,Lago Lindo,sports field,edmonton,..,..,..,..,ab
