Index,Facility_Name,ODRSF_facility_type,Provider,Street_No,Street_Name,Postal_Code,City,Prov_Terr
17028,St Francis X,sports field,edmonton,..,..,..,..,ab
17029,St Francisa,sports field,edmonton,..,..,..,..,ab
17030,St Francisa,sports field,edmonton,..,..,..,..,ab
17031,St Francisa,sports field,edmonton,..,..,..,..,ab
17032,St Gabriel Sch,sports field,edmonton,..,..,..,..,ab
17033,St Gabriel Sch,sports field,edmonton,..,..,..,..,ab
17034,St Gerard,sports field,edmonton,..,..,..,..,ab
17036,St Hilda,sports field,edmonton,..,..,..,..,ab
17037,St Hilda,sports field,edmonton,..,..,..,..,ab
17038,St James,sports field,edmonton,..,..,..,..,ab
17040,St Jerome,sports field,edmonton,..,..,..,..,ab
17041,St Joseph,sports field,edmonton,..,..,..,..,ab
17043,St Justin,sports field,edmonton,..,..,..,..,ab
17044,St Justin,sports field,edmonton,..,..,..,..,ab
17045,St Kevin,sports field,edmonton,..,..,..,..,ab
17046,St Kevin,sports field,edmonton,..,..,..,..,ab
17047,St Kevin,sports field,edmonton,..,..,..,..,ab
17048,St Leo,sports field,edmonton,..,..,..,..,ab
17049,St Lucy,sports field,edmonton,..,..,..,..,ab
17050,St Lucy,sports field,edmonton,..,..,..,..,ab
17051,St Lucy,sports field,edmonton,..,..,..,..,ab
17052,St Mark,sports field,edmonton,..,..,..,..,ab
17055,St Martha,sports field,edmonton,..,..,..,..,ab
17056,St Martha,sports field,edmonton,..,..,..,..,ab
17057,St Martha,sports field,edmonton,..,..,..,..,ab
17058,St Martin,sports field,edmonton,..,..,..,..,ab
17059,St Martin,sports field,edmonton,..,..,..,..,ab
17060,St Mary,sports field,edmonton,..,..,..,..,ab
17061,St Mary,sports field,edmonton,..,..,..,..,ab
17067,St Matthew,sports field,edmonton,..,..,..,..,ab
17068,St Matthew,sports field,edmonton,..,..,..,..,ab
17069,St Matthew,sports field,edmonton,..,..,..,..,ab
17070,St Monica,sports field,edmonton,..,..,..,..,ab
17071,St Nicholas,sports field,edmonton,..,..,..,..,ab
17072,St Patrick,sports field,edmonton,..,..,..,..,ab
17076,St Paul,sports field,edmonton,..,..,..,..,ab
17079,St Peter,sports field,edmonton,..,..,..,..,ab
17080,St Philip,sports field,edmonton,..,..,..,..,ab
17081,St Philip,sports field,edmonton,..,..,..,..,ab
17082,St Philip,sports field,edmonton,..,..,..,..,ab
17083,St Philip,sports field,edmonton,..,..,..,..,ab
17084,St Richard,sports field,edmonton,..,..,..,..,ab
17085,St Richard,sports field,edmonton,..,..,..,..,ab
17086,St Richard,sports field,edmonton,..,..,..,..,ab
17087,St Rose,sports field,edmonton,..,..,..,..,ab
17088,St Rose,sports field,edmonton,..,..,..,..,ab
17089,St Stanislaus,sports field,edmonton,..,..,..,..,ab
17090,St Stanislaus,sports field,edmonton,..,..,..,..,ab
17092,St Theresa,sports field,edmonton,..,..,..,..,ab
