Index,Facility_Name,ODRSF_facility_type,Provider,Street_No,Street_Name,Postal_Code,City,Prov_Terr
175483,Sandpiper Park,park,strathcona county,..,..,..,..,ab
175729,Shadow Ridge Estates Park,park,strathcona county,..,..,..,..,ab
175839,Sherwood Hills Estates East Park,park,strathcona county,..,..,..,..,ab
175840,Sherwood Hills Estates Park,park,strathcona county,..,..,..,..,ab
175847,Sherwood Park Natural Area,park,strathcona county,..,..,..,..,ab
176098,South Cooking Lake Day Use Park,park,strathcona county,..,..,..,..,ab
176099,South Cooking Lake Passive Park,park,strathcona county,..,..,..,..,ab
176640,Stoneridge Park,park,strathcona county,..,..,..,..,ab
176679,Strathcona Athletic Park,park,strathcona county,..,..,..,..,ab
176682,Strathcona County Bike Skills Park,park,strathcona county,..,..,..,..,ab
176694,Strathcona Station Park,park,strathcona county,..,..,..,..,ab
176695,Strathcona Village Park,park,strathcona county,..,..,..,..,ab
176749,Summercourt Park,park,strathcona county,..,..,..,..,ab
176767,Summerton Park,park,strathcona county,..,..,..,..,ab
176783,Suncrest Park,park,strathcona county,..,..,..,..,ab
176788,Sunflower Park,park,strathcona county,..,..,..,..,ab
177711,Upper Nottingham Lake Park East,park,strathcona county,..,..,..,..,ab
177712,Upper Nottingham Lake Park West,park,strathcona county,..,..,..,..,ab
177895,Viewpoint Park,park,strathcona county,..,..,..,..,ab
178192,Weslake Beach Park,park,strathcona county,..,..,..,..,ab
178706,Woodbridge Lake Park,park,strathcona county,..,..,..,..,ab
178823,Yohemas Park,park,strathcona county,..,..,..,..,ab
178854,Ypres Valley Park,park,strathcona county,..,..,..,..,ab
