Index,Facility_Name,ODRSF_facility_type,Provider,Street_No,Street_Name,Postal_Code,City,Prov_Terr
17094,St Theresa,sports field,edmonton,..,..,..,..,ab
17095,St Theresa,sports field,edmonton,..,..,..,..,ab
17097,St Thomas More,sports field,edmonton,..,..,..,..,ab
17098,St Thomas More,sports field,edmonton,..,..,..,..,ab
17100,St Vladimir,sports field,edmonton,..,..,..,..,ab
17101,St Vladimir,sports field,edmonton,..,..,..,..,ab
17102,St William,sports field,edmonton,..,..,..,..,ab
17185,St. Kateri,sports field,edmonton,..,..,..,..,ab
17186,St. Kateri,sports field,edmonton,..,..,..,..,ab
17187,St. Kateri,sports field,edmonton,..,..,..,..,ab
17188,St. Kateri,sports field,edmonton,..,..,..,..,ab
17308,Steele Heights,sports field,edmonton,..,..,..,..,ab
17309,Steele Heights,sports field,edmonton,..,..,..,..,ab
17310,Steinhauer,sports field,edmonton,..,..,..,..,ab
17311,Steinhauer,sports field,edmonton,..,..,..,..,ab
17312,Steinhauer,sports field,edmonton,..,..,..,..,ab
17346,Stratford,sports field,edmonton,..,..,..,..,ab
17376,Strathearn,sports field,edmonton,..,..,..,..,ab
17377,Strathearn,sports field,edmonton,..,..,..,..,ab
17397,Summerlea,sports field,edmonton,..,..,..,..,ab
17398,Summerlea,sports field,edmonton,..,..,..,..,ab
17399,Summerlea,sports field,edmonton,..,..,..,..,ab
17400,Summerlea,sports field,edmonton,..,..,..,..,ab
17405,Summerside,sports field,edmonton,..,..,..,..,ab
17406,Summerside,sports field,edmonton,..,..,..,..,ab
17407,Summerside,sports field,edmonton,..,..,..,..,ab
17450,Sweetgrass,sports field,edmonton,..,..,..,..,ab
17451,Sweetgrass,sports field,edmonton,..,..,..,..,ab
17452,Sweetgrass,sports field,edmonton,..,..,..,..,ab
17465,Talmud Torah,sports field,edmonton,..,..,..,..,ab
17676,Terrace Heights,sports field,edmonton,..,..,..,..,ab
17686,Terw,sports field,edmonton,..,..,..,..,ab
17687,Terw,sports field,edmonton,..,..,..,..,ab
17688,Tevie Miller,sports field,edmonton,..,..,..,..,ab
17711,Thistle Curling Rink,rink,edmonton,6920,114,..,..,ab
17726,Thorncliffe,sports field,edmonton,..,..,..,..,ab
17727,Thorncliffe,sports field,edmonton,..,..,..,..,ab
17756,Tipaskan,sports field,edmonton,..,..,..,..,ab
17757,Tipaskan,sports field,edmonton,..,..,..,..,ab
17758,Tipaskan,sports field,edmonton,..,..,..,..,ab
17895,Twin Brooks,sports field,edmonton,..,..,..,..,ab
17896,Twin Brooks,sports field,edmonton,..,..,..,..,ab
17897,Twin Brooks,sports field,edmonton,..,..,..,..,ab
17903,Twin Pks,sports field,edmonton,..,..,..,..,ab
17970,Valley Zoo,miscellaneous,edmonton,..,..,..,..,ab
17992,Velma E Baker,sports field,edmonton,..,..,..,..,ab
17993,Velma E Baker,sports field,edmonton,..,..,..,..,ab
17994,Velma E Baker,sports field,edmonton,..,..,..,..,ab
17995,Velma E Baker,sports field,edmonton,..,..,..,..,ab
