Index,Facility_Name,ODRSF_facility_type,Provider,Street_No,Street_Name,Postal_Code,City,Prov_Terr
9446,Capilano Community League & Tennis Club,sports field,edmonton,10810,54,..,..,ab
9447,Capilano Community League & Tennis Club,sports field,edmonton,10810,54,..,..,ab
9448,Capilano Tennis Club,sports field,edmonton,10810,54,..,..,ab
9449,Capilano Tennis Club,sports field,edmonton,10810,54,..,..,ab
9484,Carlisle Park,sports field,edmonton,..,..,..,..,ab
9485,Carlisle Park,sports field,edmonton,..,..,..,..,ab
9486,Carlisle Park,sports field,edmonton,..,..,..,..,ab
9487,Carlisle Park,sports field,edmonton,..,..,..,..,ab
9488,Carlisle Park,sports field,edmonton,..,..,..,..,ab
9489,Carlisle Park,sports field,edmonton,..,..,..,..,ab
9490,Carlisle Park,sports field,edmonton,..,..,..,..,ab
9539,Casselman,sports field,edmonton,..,..,..,..,ab
9540,Casselman,sports field,edmonton,..,..,..,..,ab
9549,Castledowns,sports field,edmonton,..,..,..,..,ab
9550,Castledowns,sports field,edmonton,..,..,..,..,ab
9551,Castledowns,sports field,edmonton,..,..,..,..,ab
9552,Castledowns,sports field,edmonton,..,..,..,..,ab
9553,Castledowns,sports field,edmonton,..,..,..,..,ab
9554,Castledowns,sports field,edmonton,..,..,..,..,ab
9586,Centennial,sports field,edmonton,..,..,..,..,ab
9587,Centennial,sports field,edmonton,..,..,..,..,ab
9852,Clara Tyner,sports field,edmonton,..,..,..,..,ab
9853,Clara Tyner,sports field,edmonton,..,..,..,..,ab
9861,Clareview Field Artificial Turf - Staffed Field,sports field,edmonton,3804,139,..,..,ab
9868,Clarke Field,sports field,edmonton,..,..,..,..,ab
10074,Club Soccer,sports field,edmonton,..,..,..,..,ab
10075,Club Soccer,sports field,edmonton,..,..,..,..,ab
10076,Club Soccer,sports field,edmonton,..,..,..,..,ab
10077,Club Soccer,sports field,edmonton,..,..,..,..,ab
10078,Club Soccer,sports field,edmonton,..,..,..,..,ab
10079,Club Soccer,sports field,edmonton,..,..,..,..,ab
10124,Confederation,sports field,edmonton,..,..,..,..,ab
10125,Confederation,sports field,edmonton,..,..,..,..,ab
10126,Confederation,sports field,edmonton,..,..,..,..,ab
10127,Confederation,sports field,edmonton,..,..,..,..,ab
10128,Confederation,sports field,edmonton,..,..,..,..,ab
10129,Confederation,sports field,edmonton,..,..,..,..,ab
10143,Confederation Park Tennis Courts,sports field,edmonton,43,114,..,..,ab
10144,Confederation Park Tennis Courts,sports field,edmonton,43,114,..,..,ab
10145,Confederation Park Tennis Courts,sports field,edmonton,43,114,..,..,ab
10146,Confederation Park Tennis Courts,sports field,edmonton,43,114,..,..,ab
10183,Coronation,sports field,edmonton,..,..,..,..,ab
10184,Coronation,sports field,edmonton,..,..,..,..,ab
10185,Coronation Park - Staffed Field,sports field,edmonton,135,112,..,..,ab
10189,Coronation Pk,sports field,edmonton,..,..,..,..,ab
10190,Coronation Pk,sports field,edmonton,..,..,..,..,ab
10191,Coronation Pk,sports field,edmonton,..,..,..,..,ab
10192,Coronation Pk,sports field,edmonton,..,..,..,..,ab
10193,Coronation Pk,sports field,edmonton,..,..,..,..,ab
