Index,Facility_Name,ODRSF_facility_type,Provider,Street_No,Street_Name,Postal_Code,City,Prov_Terr
14766,Pine Street Elementary School,sports field,strathcona county,..,..,..,..,ab
14767,Pine Street Elementary School,sports field,strathcona county,..,..,..,..,ab
14768,Pine Street Elementary School,sports field,strathcona county,..,..,..,..,ab
14769,Pine Street Elementary School,sports field,strathcona county,..,..,..,..,ab
14770,Pine Street Elementary School,sports field,strathcona county,..,..,..,..,ab
15134,Rainbow Park,sports field,strathcona county,..,..,..,..,ab
15135,Rainbow Park,sports field,strathcona county,..,..,..,..,ab
15216,Regency Park,sports field,strathcona county,..,..,..,..,ab
15460,Rotary Park At Trillium Centre,sports field,strathcona county,..,..,..,..,ab
15461,Rotary Park At Trillium Centre,sports field,strathcona county,..,..,..,..,ab
15462,Rotary Park At Trillium Centre,sports field,strathcona county,..,..,..,..,ab
15463,Rotary Park At Trillium Centre,sports field,strathcona county,..,..,..,..,ab
15464,Rotary Park At Trillium Centre,sports field,strathcona county,..,..,..,..,ab
15576,Salisbury Athletic Park,sports field,strathcona county,..,..,..,..,ab
15577,Salisbury Athletic Park,sports field,strathcona county,..,..,..,..,ab
15578,Salisbury Athletic Park,sports field,strathcona county,..,..,..,..,ab
15579,Salisbury Athletic Park,sports field,strathcona county,..,..,..,..,ab
15580,Salisbury Athletic Park,sports field,strathcona county,..,..,..,..,ab
15581,Salisbury Athletic Park,sports field,strathcona county,..,..,..,..,ab
15795,Sherwood Heights Junior High School,sports field,strathcona county,..,..,..,..,ab
15796,Sherwood Heights Junior High School,sports field,strathcona county,..,..,..,..,ab
15797,Sherwood Heights Junior High School,sports field,strathcona county,..,..,..,..,ab
15798,Sherwood Heights Junior High School,sports field,strathcona county,..,..,..,..,ab
15799,Sherwood Heights Junior High School,sports field,strathcona county,..,..,..,..,ab
15800,Sherwood Heights Junior High School,sports field,strathcona county,..,..,..,..,ab
15801,Sherwood Heights Junior High School,sports field,strathcona county,..,..,..,..,ab
15802,Sherwood Heights Junior High School,sports field,strathcona county,..,..,..,..,ab
15803,Sherwood Heights Junior High School,sports field,strathcona county,..,..,..,..,ab
15804,Sherwood Heights Junior High School,sports field,strathcona county,..,..,..,..,ab
15805,Sherwood Heights Junior High School,sports field,strathcona county,..,..,..,..,ab
16900,South Cooking Lake Community Hall,sports field,strathcona county,..,..,..,..,ab
17196,St. Luke Catholic School,sports field,strathcona county,..,..,..,..,ab
17197,St. Luke Catholic School,sports field,strathcona county,..,..,..,..,ab
17198,St. Luke Catholic School,sports field,strathcona county,..,..,..,..,ab
17199,St. Luke Catholic School,sports field,strathcona county,..,..,..,..,ab
17200,St. Luke Catholic School,sports field,strathcona county,..,..,..,..,ab
17201,St. Luke Catholic School,sports field,strathcona county,..,..,..,..,ab
17236,St. Theresa Catholic School,sports field,strathcona county,..,..,..,..,ab
17237,St. Theresa Catholic School,sports field,strathcona county,..,..,..,..,ab
17238,St. Theresa Catholic School,sports field,strathcona county,..,..,..,..,ab
17350,Strathcona Athletic Park,sports field,strathcona county,..,..,..,..,ab
17351,Strathcona Athletic Park,sports field,strathcona county,..,..,..,..,ab
17352,Strathcona Athletic Park,sports field,strathcona county,..,..,..,..,ab
17353,Strathcona Athletic Park,sports field,strathcona county,..,..,..,..,ab
17354,Strathcona Athletic Park,sports field,strathcona county,..,..,..,..,ab
17355,Strathcona Athletic Park,sports field,strathcona county,..,..,..,..,ab
17356,Strathcona Athletic Park,sports field,strathcona county,..,..,..,..,ab
17357,Strathcona Athletic Park,sports field,strathcona county,..,..,..,..,ab
17358,Strathcona Athletic Park,sports field,strathcona county,..,..,..,..,ab
