Index,Facility_Name,ODRSF_facility_type,Provider,Street_No,Street_Name,Postal_Code,City,Prov_Terr
181963,..,park,edmonton,13535,134,..,..,ab
181964,..,park,edmonton,..,..,..,..,ab
181965,..,park,edmonton,10920,70,..,..,ab
181966,..,park,edmonton,..,..,..,..,ab
181967,..,park,edmonton,5140,chappelle,..,..,ab
181968,..,park,edmonton,..,..,..,..,ab
181969,..,park,edmonton,..,..,..,..,ab
181970,..,park,edmonton,..,..,..,..,ab
181971,..,park,edmonton,..,..,..,..,ab
181972,..,park,edmonton,..,..,..,..,ab
181973,..,park,edmonton,..,..,..,..,ab
181974,..,park,edmonton,360,orchards,..,..,ab
181975,..,park,edmonton,..,..,..,..,ab
181976,..,park,edmonton,..,..,..,..,ab
181977,..,park,edmonton,..,..,..,..,ab
181978,..,park,edmonton,..,..,..,..,ab
181979,..,park,edmonton,..,..,..,..,ab
181980,..,park,edmonton,..,..,..,..,ab
181981,..,park,edmonton,12040,97,..,..,ab
181982,..,park,edmonton,20703,meridian,..,..,ab
181983,..,park,edmonton,..,..,..,..,ab
181984,..,park,edmonton,10125,97,..,..,ab
181985,..,park,edmonton,9330,groat,..,..,ab
181986,..,park,edmonton,11000,153,..,..,ab
181987,..,park,edmonton,10103,176,..,..,ab
181988,..,park,edmonton,..,..,..,..,ab
181989,..,park,edmonton,..,..,..,..,ab
181990,..,park,edmonton,..,..,..,..,ab
181991,..,park,edmonton,..,..,..,..,ab
181992,..,park,edmonton,420,desroches,..,..,ab
181993,..,park,edmonton,..,..,..,..,ab
181994,..,park,edmonton,4330,126,..,..,ab
181995,..,park,edmonton,..,..,..,..,ab
181996,..,park,edmonton,..,..,..,..,ab
181997,..,park,edmonton,..,..,..,..,ab
181998,..,park,edmonton,..,..,..,..,ab
181999,..,park,edmonton,825,166,..,..,ab
182000,..,park,edmonton,..,..,..,..,ab
182001,..,park,edmonton,..,..,..,..,ab
182002,..,park,edmonton,..,..,..,..,ab
182003,..,park,edmonton,..,..,..,..,ab
182004,..,park,edmonton,..,..,..,..,ab
182005,..,park,edmonton,..,..,..,..,ab
182006,..,park,edmonton,2130,16,..,..,ab
182007,..,park,edmonton,..,..,..,..,ab
182008,..,park,edmonton,3051,paisley,..,..,ab
182009,..,park,edmonton,..,..,..,..,ab
182010,..,park,edmonton,345,charlesworth,..,..,ab
182011,..,park,edmonton,..,terwillegar,..,..,ab
