Index,Facility_Name,ODRSF_facility_type,Provider,Street_No,Street_Name,Postal_Code,City,Prov_Terr
7375,Austin O'Brien,sports field,edmonton,..,..,..,..,ab
7376,Austin O'Brien,sports field,edmonton,..,..,..,..,ab
7377,Austin O'Brien Tennis Courts,sports field,edmonton,61,95,..,..,ab
7378,Austin O'Brien Tennis Courts,sports field,edmonton,61,95,..,..,ab
7379,Avalon,sports field,edmonton,..,..,..,..,ab
7380,Avalon,sports field,edmonton,..,..,..,..,ab
7381,Avalon,sports field,edmonton,..,..,..,..,ab
7389,Avonair Curling Club,rink,edmonton,10607,princess elizabeth,..,..,ab
7391,Avonmore,sports field,edmonton,..,..,..,..,ab
7392,Avonmore,sports field,edmonton,..,..,..,..,ab
8276,Balwin,sports field,edmonton,..,..,..,..,ab
8277,Balwin,sports field,edmonton,..,..,..,..,ab
8278,Balwin,sports field,edmonton,..,..,..,..,ab
8279,Balwin,sports field,edmonton,..,..,..,..,ab
8288,Bannerman,sports field,edmonton,..,..,..,..,ab
8289,Bannerman,sports field,edmonton,..,..,..,..,ab
8834,Baturyn,sports field,edmonton,..,..,..,..,ab
8835,Baturyn,sports field,edmonton,..,..,..,..,ab
8836,Baturyn,sports field,edmonton,..,..,..,..,ab
8837,Baturyn,sports field,edmonton,..,..,..,..,ab
8838,Baturyn,sports field,edmonton,..,..,..,..,ab
8873,Beacon Heights,sports field,edmonton,..,..,..,..,ab
8874,Beacon Heights,sports field,edmonton,..,..,..,..,ab
8883,Bearspaw,sports field,edmonton,..,..,..,..,ab
8886,Beaumaris,sports field,edmonton,..,..,..,..,ab
8887,Beaumaris,sports field,edmonton,..,..,..,..,ab
8888,Beaumaris,sports field,edmonton,..,..,..,..,ab
8889,Beaumaris,sports field,edmonton,..,..,..,..,ab
8907,Belgravia,sports field,edmonton,..,..,..,..,ab
8908,Belgravia,sports field,edmonton,..,..,..,..,ab
8925,Belle Rive,sports field,edmonton,..,..,..,..,ab
8926,Belle Rive,sports field,edmonton,..,..,..,..,ab
8927,Belle Rive,sports field,edmonton,..,..,..,..,ab
8928,Belle Rive,sports field,edmonton,..,..,..,..,ab
8929,Belle Rive,sports field,edmonton,..,..,..,..,ab
8930,Belle Rive,sports field,edmonton,..,..,..,..,ab
8931,Belle Rive,sports field,edmonton,..,..,..,..,ab
8932,Belle Rive,sports field,edmonton,..,..,..,..,ab
8933,Bellevue,sports field,edmonton,..,..,..,..,ab
8934,Bellevue,sports field,edmonton,..,..,..,..,ab
8938,Belmead,sports field,edmonton,..,..,..,..,ab
8939,Belmead,sports field,edmonton,..,..,..,..,ab
8940,Belmead,sports field,edmonton,..,..,..,..,ab
8941,Belmead,sports field,edmonton,..,..,..,..,ab
8942,Belmont,sports field,edmonton,..,..,..,..,ab
8943,Belmont,sports field,edmonton,..,..,..,..,ab
8944,Belmont,sports field,edmonton,..,..,..,..,ab
8945,Belmont,sports field,edmonton,..,..,..,..,ab
8946,Belmont,sports field,edmonton,..,..,..,..,ab
