Index,Facility_Name,ODRSF_facility_type,Provider,Street_No,Street_Name,Postal_Code,City,Prov_Terr
181763,..,park,edmonton,2804,14,..,..,ab
181764,..,park,edmonton,..,..,..,..,ab
181765,..,park,edmonton,2770,maple,..,..,ab
181766,..,park,edmonton,..,..,..,..,ab
181767,..,park,edmonton,980,mcconachie,..,..,ab
181768,..,park,edmonton,..,63,..,..,ab
181769,..,park,edmonton,..,..,..,..,ab
181770,..,park,edmonton,15425,106,..,..,ab
181771,..,park,edmonton,..,..,..,..,ab
181772,..,park,edmonton,..,..,..,..,ab
181773,..,park,edmonton,..,..,..,..,ab
181774,..,park,edmonton,11735,162,..,..,ab
181775,..,park,edmonton,..,..,..,..,ab
181776,..,park,edmonton,..,..,..,..,ab
181777,..,park,edmonton,..,..,..,..,ab
181778,..,park,edmonton,..,..,..,..,ab
181779,..,park,edmonton,..,..,..,..,ab
181780,..,park,edmonton,1385,cunningham,..,..,ab
181781,..,park,edmonton,..,..,..,..,ab
181782,..,park,edmonton,..,..,..,..,ab
181783,..,park,edmonton,..,..,..,..,ab
181784,..,park,edmonton,..,..,..,..,ab
181785,..,park,edmonton,3603,8,..,..,ab
181786,..,park,edmonton,2048,desroches,..,..,ab
181787,..,park,edmonton,..,..,..,..,ab
181788,..,park,edmonton,12325,127,..,..,ab
181789,..,park,edmonton,..,..,..,..,ab
181790,..,park,edmonton,1070,rosenthal,..,..,ab
181791,..,park,edmonton,..,..,..,..,ab
181792,..,park,edmonton,..,..,..,..,ab
181793,..,park,edmonton,12011,226,..,..,ab
181794,..,park,edmonton,..,..,..,..,ab
181795,..,park,edmonton,..,..,..,..,ab
181796,..,park,edmonton,..,..,..,..,ab
181797,..,park,edmonton,..,..,..,..,ab
181798,..,park,edmonton,..,..,..,..,ab
181799,..,park,edmonton,8620,marie-anne,..,..,ab
181800,..,park,edmonton,..,..,..,..,ab
181801,..,park,edmonton,..,..,..,..,ab
181802,..,park,edmonton,12055,177,..,..,ab
181803,..,park,edmonton,3379,chickadee,..,..,ab
181804,..,park,edmonton,21738,94a,..,..,ab
181805,..,park,edmonton,10925,87,..,..,ab
181806,..,park,edmonton,..,..,..,..,ab
181807,..,park,edmonton,1220,adamson,..,..,ab
181808,..,park,edmonton,199,st-nw,..,..,ab
181809,..,park,edmonton,3641,keswick,..,..,ab
181810,..,park,edmonton,..,..,..,..,ab
181811,..,park,edmonton,11031,154,..,..,ab
