Index,Facility_Name,ODRSF_facility_type,Provider,Street_No,Street_Name,Postal_Code,City,Prov_Terr
174272,Quesnell Ravine,park,edmonton,7203,149,..,..,ab
174321,Railtown Park,park,edmonton,10945,103,..,..,ab
174341,Ralph Hopp Park,park,edmonton,6802,130,..,..,ab
174355,Ramsay Ravine,park,edmonton,13105,102,..,..,ab
174538,Reilly Park,park,edmonton,14769,43,..,..,ab
174592,Richfield Park,park,edmonton,7910,36,..,..,ab
174617,Rideau Park,park,edmonton,10605,42,..,..,ab
174655,Rio Park,park,edmonton,15003,rio terrace,..,..,ab
174656,Rio Terrace Park,park,edmonton,15504,76,..,..,ab
174665,Ritchie Park,park,edmonton,7727,98,..,..,ab
174722,Riverdale Park,park,edmonton,9231,100,..,..,ab
174820,Robert Brett Park,park,edmonton,13413,57,..,..,ab
174821,Robert Carter Park,park,edmonton,1078,carter crest,..,..,ab
174937,Rollie Miles Athletic Field,park,edmonton,10480,73,..,..,ab
174954,Ronning Street Neighbourhood Park,park,edmonton,504,ronning,..,..,ab
174958,Roper Park And Natural Area,park,edmonton,6504,roper,..,..,ab
175015,Rosslyn Park,park,edmonton,11015,134,..,..,ab
175288,Royal Gardens Park,park,edmonton,4030,117,..,..,ab
175322,Rundle Heights Playground,park,edmonton,10915,34,..,..,ab
175323,Rundle Park,park,edmonton,2909,113,..,..,ab
175350,Rutherford Park,park,edmonton,8323,95a,..,..,ab
175426,Sakaw Park,park,edmonton,5820,11a,..,..,ab
175458,Samuel Dickson Rotary Park,park,edmonton,10445,131,..,..,ab
175467,Sanctuary Wood,park,edmonton,..,..,..,..,ab
175513,Santa Rosa Park,park,edmonton,6725,121,..,..,ab
175526,Satoo Park,park,edmonton,445,knottwood,..,..,ab
175599,Schonsee Park,park,edmonton,5470,schonsee,..,..,ab
175700,"Sergeant Maynard ""Val"" Vallevand Park",park,edmonton,..,..,..,..,ab
175787,Sheila Bowker Parkdale Park,park,edmonton,11335,85,..,..,ab
175807,Sheppard Park,park,edmonton,2608,49,..,..,ab
175813,Sherbrooke Park,park,edmonton,12956,122,..,..,ab
175826,Sheriff Robertson Park,park,edmonton,8112,111,..,..,ab
175830,Sherwood Community Park,park,edmonton,15430,93,..,..,ab
175891,Sifton Park,park,edmonton,13317,47,..,..,ab
175901,Silver Heights Park,park,edmonton,8777,96,..,..,ab
175986,Sir Wilfrid Laurier Park,park,edmonton,13221,buena vista,..,..,ab
175993,Sir Winston Churchill Square,park,edmonton,10216,99,..,..,ab
175997,Sister Mary Ann Casey Park,park,edmonton,450,youville,..,..,ab
176137,South Terwillegar Park,park,edmonton,..,..,..,..,ab
176286,Spruce Avenue Park,park,edmonton,10240,115,..,..,ab
176412,St. Anne Park,park,edmonton,10208,153,..,..,ab
176438,St. Faith Park,park,edmonton,11714,92,..,..,ab
176494,St. Olga Park,park,edmonton,14704,87,..,..,ab
176551,Star Blanket Park,park,edmonton,2614,39,..,..,ab
176581,Steinhauer Park,park,edmonton,10707,32a,..,..,ab
176692,Strathcona Park,park,edmonton,10139,87,..,..,ab
176696,Strathearn Park,park,edmonton,..,strathern,..,..,ab
176723,Stutchbury Park,park,edmonton,7707,112,..,..,ab
176728,Sue Trigg Natural Area,park,edmonton,4603,151,..,..,ab
