Index,Facility_Name,ODRSF_facility_type,Provider,Street_No,Street_Name,Postal_Code,City,Prov_Terr
11834,Heritage Hills Sports Park,sports field,strathcona county,..,..,..,..,ab
11835,Heritage Hills Sports Park,sports field,strathcona county,..,..,..,..,ab
11839,Heritage Point Park,sports field,strathcona county,..,..,..,..,ab
12225,Jean Vanier Catholic School,sports field,strathcona county,..,..,..,..,ab
12226,Jean Vanier Catholic School,sports field,strathcona county,..,..,..,..,ab
12227,Jean Vanier Catholic School,sports field,strathcona county,..,..,..,..,ab
12308,Josephburg Gymkhana,sports field,strathcona county,..,..,..,..,ab
12309,Josephburg Park,sports field,strathcona county,..,..,..,..,ab
12310,Josephburg Park,sports field,strathcona county,..,..,..,..,ab
12311,Josephburg Park,sports field,strathcona county,..,..,..,..,ab
12312,Josephburg Park,sports field,strathcona county,..,..,..,..,ab
12313,Josephburg Park,sports field,strathcona county,..,..,..,..,ab
12517,Kinsmen/Westboro Park,sports field,strathcona county,..,..,..,..,ab
12518,Kinsmen/Westboro Park,sports field,strathcona county,..,..,..,..,ab
12519,Kinsmen/Westboro Park,sports field,strathcona county,..,..,..,..,ab
13262,Madonna Catholic School,sports field,strathcona county,..,..,..,..,ab
13263,Madonna Catholic School,sports field,strathcona county,..,..,..,..,ab
13264,Madonna Catholic School,sports field,strathcona county,..,..,..,..,ab
13265,Madonna Catholic School,sports field,strathcona county,..,..,..,..,ab
13266,Madonna Catholic School,sports field,strathcona county,..,..,..,..,ab
13468,Mcghan Park,sports field,strathcona county,..,..,..,..,ab
13469,Mcghan Park,sports field,strathcona county,..,..,..,..,ab
13470,Mcghan Park,sports field,strathcona county,..,..,..,..,ab
13471,Mcghan Park,sports field,strathcona county,..,..,..,..,ab
13472,Mcghan Park,sports field,strathcona county,..,..,..,..,ab
13524,Mcpherson Park,sports field,strathcona county,..,..,..,..,ab
13567,Meadowview Park,sports field,strathcona county,..,..,..,..,ab
13701,Millennium Outdoor Soccer Park,sports field,strathcona county,2000,premier,..,..,ab
13712,Mills Haven Elementary School,sports field,strathcona county,..,..,..,..,ab
13713,Mills Haven Elementary School,sports field,strathcona county,..,..,..,..,ab
13714,Mills Haven Elementary School,sports field,strathcona county,..,..,..,..,ab
13715,Mills Haven Elementary School,sports field,strathcona county,..,..,..,..,ab
13716,Mills Haven Elementary School,sports field,strathcona county,..,..,..,..,ab
13717,Mills Haven Elementary School,sports field,strathcona county,..,..,..,..,ab
13718,Mills Haven Elementary School,sports field,strathcona county,..,..,..,..,ab
13747,Ministik School,sports field,strathcona county,..,..,..,..,ab
13748,Ministik School,sports field,strathcona county,..,..,..,..,ab
13749,Ministik School,sports field,strathcona county,..,..,..,..,ab
13750,Ministik School,sports field,strathcona county,..,..,..,..,ab
13751,Ministik School,sports field,strathcona county,..,..,..,..,ab
13955,New Horizons School,sports field,strathcona county,..,..,..,..,ab
13956,New Horizons School,sports field,strathcona county,..,..,..,..,ab
13957,New Horizons School,sports field,strathcona county,..,..,..,..,ab
14030,Northern Bear Golf Club Resort,sports field,strathcona county,51055,222,..,..,ab
14061,Nottingham Park,sports field,strathcona county,..,..,..,..,ab
14062,Nottingham Park,sports field,strathcona county,..,..,..,..,ab
14063,Nottingham Park,sports field,strathcona county,..,..,..,..,ab
14690,Partridge Hill Community Hall,sports field,strathcona county,..,..,..,..,ab
14709,Peacock Park,sports field,strathcona county,..,..,..,..,ab
