Index,Facility_Name,ODRSF_facility_type,Provider,Street_No,Street_Name,Postal_Code,City,Prov_Terr
163288,Big Miller Park,park,edmonton,11,tommy banks,..,..,ab
163384,Blackburne Park,park,edmonton,747,blackwood,..,..,ab
163392,Blackmud Creek Park,park,edmonton,2099,blackmud creek,..,..,ab
163443,Blue Quill Park,park,edmonton,11304,25,..,..,ab
163512,Bonnie Doon Park,park,edmonton,9263,94,..,..,ab
163529,Borden Park,park,edmonton,7507,borden park,..,..,ab
163628,Braids Park,park,edmonton,..,..,..,..,ab
163630,Braithwaite Park,park,edmonton,8018,112,..,..,ab
163638,Brander Gardens Park,park,edmonton,14815,56,..,..,ab
163743,Brintnell Park,park,edmonton,..,..,..,..,ab
163753,Britannia Youngstown Park,park,edmonton,15927,105,..,..,ab
163821,Brookside Park,park,edmonton,5320,143,..,..,ab
163888,Buena Vista Park,park,edmonton,13210,buena vista,..,..,ab
163951,Butler Memorial Park,park,edmonton,15715,stony plain,..,..,ab
163953,Buttercup Farm Park,park,edmonton,5803,113,..,..,ab
164003,Caernarvon Park,park,edmonton,14830,118,..,..,ab
164007,Caine Memorial Park,park,edmonton,5211,107,..,..,ab
164015,Calder Memorial Park,park,edmonton,12721,120,..,..,ab
164028,Callingwood Park,park,edmonton,17740,69,..,..,ab
164055,Cameron Heights Park,park,edmonton,..,..,..,..,ab
164060,Cameron Ravine,park,edmonton,649,cameron heights,..,..,ab
164121,Canon Ridge Park,park,edmonton,1350,hermitage,..,..,ab
164126,Canora Park,park,edmonton,10425,152,..,..,ab
164144,Capilano Community Park,park,edmonton,10810,54,..,..,ab
164146,Capilano Park,park,edmonton,10988,50,..,..,ab
164149,Capilano Ravine,park,edmonton,10236,76,..,..,ab
164205,Carlisle Park,park,edmonton,14240,117,..,..,ab
164208,Carlton Park,park,edmonton,15923,139,..,..,ab
164251,Carrol And Henry Paszek Park,park,edmonton,11023,172,..,..,ab
164293,Castle Downs Park,park,edmonton,11520,153,..,..,ab
164534,Chalmers Park,park,edmonton,12310,131,..,..,ab
164587,Charles Anderson Park,park,edmonton,3803,105,..,..,ab
164589,Charles B Hill Park,park,edmonton,3450,hillview,..,..,ab
164604,Charles Simmonds Park,park,edmonton,7830,115,..,..,ab
164677,Cherrydale Park,park,edmonton,7524,139,..,..,ab
164818,Clareview Park,park,edmonton,3804,139,..,..,ab
164972,Colonel F.C Jamieson Park,park,edmonton,5303,190,..,..,ab
165046,Confederation Park,park,edmonton,11204,43,..,..,ab
165069,Constable Dan Woodall Park,park,edmonton,7304,terwillegar,..,..,ab
165070,Constable Ezio Faraone Park,park,edmonton,11004,97,..,..,ab
165077,Conway Farrell Park,park,edmonton,11700,114,..,..,ab
165153,Coronation Park,park,edmonton,11425,142,..,..,ab
165305,Crawford Plains Park,park,edmonton,4012,12,..,..,ab
165316,Creek's Crossing Park,park,edmonton,3920,38,..,..,ab
165354,Crestwood Park,park,edmonton,14325,96,..,..,ab
165433,Cumberland Park,park,edmonton,14804,129,..,..,ab
165499,Daly Grove Park,park,edmonton,1880,37,..,..,ab
165555,David Ure Park,park,edmonton,14211,57,..,..,ab
165565,Dawson Park,park,edmonton,10298,89,..,..,ab
