Index,Facility_Name,ODRSF_facility_type,Provider,Street_No,Street_Name,Postal_Code,City,Prov_Terr
53364,Sherwood Park,trail,strathcona county,..,..,..,..,ab
53365,Sherwood Park,trail,strathcona county,..,..,..,..,ab
53366,Sherwood Park,trail,strathcona county,..,..,..,..,ab
53367,Sherwood Park,trail,strathcona county,..,..,..,..,ab
159348,..,trail,strathcona county,..,..,..,..,ab
159349,..,trail,strathcona county,..,..,..,..,ab
159350,..,trail,strathcona county,..,..,..,..,ab
159351,..,trail,strathcona county,..,..,..,..,ab
161596,15Th Street Park,park,strathcona county,..,..,..,..,ab
161601,17Th Street Park,park,strathcona county,..,..,..,..,ab
162045,Abbey Park,park,strathcona county,..,..,..,..,ab
162306,Ambleside Park,park,strathcona county,..,..,..,..,ab
162312,Amesbury Park,park,strathcona county,..,..,..,..,ab
162478,Ardrossan Athletic Park,park,strathcona county,..,..,..,..,ab
162479,Ardrossan Second Avenue Natural Park (East),park,strathcona county,..,..,..,..,ab
162480,Ardrossan Second Avenue Park (West),park,strathcona county,..,..,..,..,ab
162511,Armitage Park,park,strathcona county,..,..,..,..,ab
162722,Ball Lake Island Park,park,strathcona county,..,..,..,..,ab
162731,Balmoral Heights Park,park,strathcona county,..,..,..,..,ab
162732,Balmoral Lake Park,park,strathcona county,..,..,..,..,ab
162733,Balmoral North Park,park,strathcona county,..,..,..,..,ab
163283,Big Cypress Park,park,strathcona county,..,..,..,..,ab
163292,Big Willow Park,park,strathcona county,..,..,..,..,ab
163647,Brassie Point Park,park,strathcona county,..,..,..,..,ab
163762,Broadmoor Lake Park,park,strathcona county,..,..,..,..,ab
163763,Broadmoor Village Park,park,strathcona county,..,..,..,..,ab
164073,Campbell Park,park,strathcona county,..,..,..,..,ab
164258,Carson Park,park,strathcona county,..,..,..,..,ab
164275,Cascade Park,park,strathcona county,..,..,..,..,ab
164459,Centennial Park,park,strathcona county,..,..,..,..,ab
164623,Charlton Heights Park,park,strathcona county,..,..,..,..,ab
164637,Chatwin Park,park,strathcona county,..,..,..,..,ab
164738,Christina Park,park,strathcona county,..,..,..,..,ab
164769,Circlewood Park,park,strathcona county,..,..,..,..,ab
164827,Clarkdale Park,park,strathcona county,..,..,..,..,ab
164890,Clover Bar Ranch Lake Park,park,strathcona county,..,..,..,..,ab
164891,Clover Bar Ranch Park,park,strathcona county,..,..,..,..,ab
164963,Collingwood Cove Park,park,strathcona county,..,..,..,..,ab
165079,Cooking Lake Sail Park,park,strathcona county,..,..,..,..,ab
165177,Cottonwood Park,park,strathcona county,..,..,..,..,ab
165284,Craigavon Park,park,strathcona county,..,..,..,..,ab
165297,Cranford Park,park,strathcona county,..,..,..,..,ab
165419,Crystal Heights Park,park,strathcona county,..,..,..,..,ab
165537,Davenport Park,park,strathcona county,..,..,..,..,ab
165556,Davidson Creek Park,park,strathcona county,..,..,..,..,ab
165615,Deermound Dog Off Leash Park,park,strathcona county,..,..,..,..,ab
166404,Emerald Hills Regional Park,park,strathcona county,..,..,..,..,ab
166517,Estates Of Sherwood Park Central Park,park,strathcona county,..,..,..,..,ab
166518,Estates Of Sherwood Park North Retention Pond,park,strathcona county,..,..,..,..,ab
