Index,Facility_Name,ODRSF_facility_type,Provider,Street_No,Street_Name,Postal_Code,City,Prov_Terr
8948,Belmont,sports field,edmonton,..,..,..,..,ab
8952,Belvedere,sports field,edmonton,..,..,..,..,ab
8953,Belvedere,sports field,edmonton,..,..,..,..,ab
8954,Ben Calf Robe,sports field,edmonton,..,..,..,..,ab
9012,Bishop Greschuk,sports field,edmonton,..,..,..,..,ab
9013,Bishop Greschuk,sports field,edmonton,..,..,..,..,ab
9014,Bishop Greschuk,sports field,edmonton,..,..,..,..,ab
9018,Bishop Savaryn,sports field,edmonton,..,..,..,..,ab
9019,Bishop Savaryn,sports field,edmonton,..,..,..,..,ab
9070,Blue Quill,miscellaneous,edmonton,..,..,..,..,ab
9071,Blue Quill,sports field,edmonton,..,..,..,..,ab
9072,Blue Quill,sports field,edmonton,..,..,..,..,ab
9073,Blue Quill,sports field,edmonton,..,..,..,..,ab
9074,Blue Quill,sports field,edmonton,..,..,..,..,ab
9075,Blue Quill,sports field,edmonton,..,..,..,..,ab
9076,Blue Quill,sports field,edmonton,..,..,..,..,ab
9077,Blue Quill Ii,sports field,edmonton,..,..,..,..,ab
9078,Blue Quill Ii,sports field,edmonton,..,..,..,..,ab
9120,Bonnie Doon,sports field,edmonton,..,..,..,..,ab
9121,Bonnie Doon Tennis Courts,sports field,edmonton,81,88,..,..,ab
9122,Bonnie Doon Tennis Courts,sports field,edmonton,81,88,..,..,ab
9123,Bonnie Doon Tennis Courts,sports field,edmonton,81,88,..,..,ab
9124,Bonnie Doon Tennis Courts,sports field,edmonton,81,88,..,..,ab
9129,Borden Pk,sports field,edmonton,..,..,..,..,ab
9151,Braemar,sports field,edmonton,..,..,..,..,ab
9152,Braemar,sports field,edmonton,..,..,..,..,ab
9153,Braemar,sports field,edmonton,..,..,..,..,ab
9154,Braemar,sports field,edmonton,..,..,..,..,ab
9183,Brander Gardens,sports field,edmonton,..,..,..,..,ab
9184,Brander Gardens,sports field,edmonton,..,..,..,..,ab
9262,Brightview,sports field,edmonton,..,..,..,..,ab
9263,Brightview,sports field,edmonton,..,..,..,..,ab
9267,Britannia,sports field,edmonton,..,..,..,..,ab
9307,Brookside,sports field,edmonton,..,..,..,..,ab
9308,Brookside,sports field,edmonton,..,..,..,..,ab
9353,Caernarvon,sports field,edmonton,..,..,..,..,ab
9354,Caernarvon,sports field,edmonton,..,..,..,..,ab
9355,Caernarvon,sports field,edmonton,..,..,..,..,ab
9359,Calder,sports field,edmonton,..,..,..,..,ab
9360,Calder,sports field,edmonton,..,..,..,..,ab
9398,Callingwood Pk,sports field,edmonton,..,..,..,..,ab
9399,Callingwood Pk,sports field,edmonton,..,..,..,..,ab
9400,Callingwood Pk,sports field,edmonton,..,..,..,..,ab
9401,Callingwood Pk,sports field,edmonton,..,..,..,..,ab
9402,Callingwood Pk,sports field,edmonton,..,..,..,..,ab
9403,Callingwood Pk,sports field,edmonton,..,..,..,..,ab
9404,Callingwood Pk,sports field,edmonton,..,..,..,..,ab
9443,Capilano,sports field,edmonton,..,..,..,..,ab
9444,Capilano,sports field,edmonton,..,..,..,..,ab
