Index,Facility_Name,ODRSF_facility_type,Provider,Street_No,Street_Name,Postal_Code,City,Prov_Terr
166520,Estates Of Sherwood Park Sport Field Park,park,strathcona county,..,..,..,..,ab
166529,Eton Park,park,strathcona county,..,..,..,..,ab
166893,Florian Park,park,strathcona county,..,..,..,..,ab
166969,Forrest Green Park,park,strathcona county,..,..,..,..,ab
166994,Fountain Creek Lake Park,park,strathcona county,..,..,..,..,ab
166995,Fountain Creek Park,park,strathcona county,..,..,..,..,ab
166996,Fountain Creek Sports Park,park,strathcona county,..,..,..,..,ab
167013,Foxboro Lake Park,park,strathcona county,..,..,..,..,ab
167014,Foxboro Park,park,strathcona county,..,..,..,..,ab
167017,Foxhaven Park,park,strathcona county,..,..,..,..,ab
167138,Fultonvale Park,park,strathcona county,..,..,..,..,ab
167201,Garden Park,park,strathcona county,..,..,..,..,ab
167214,Garland Park,park,strathcona county,..,..,..,..,ab
167397,Gillies Park,park,strathcona county,..,..,..,..,ab
167398,Gilmore Park,park,strathcona county,..,..,..,..,ab
167707,Granada Natural Park,park,strathcona county,..,..,..,..,ab
167768,Granville Park,park,strathcona county,..,..,..,..,ab
167841,Greengrove Park,park,strathcona county,..,..,..,..,ab
168286,Herb Belcourt Park,park,strathcona county,..,..,..,..,ab
168310,Heritage Hills Park,park,strathcona county,..,..,..,..,ab
168312,Heritage Hills Sports Park,park,strathcona county,..,..,..,..,ab
168324,Heritage Point Park,park,strathcona county,..,..,..,..,ab
169267,Josephburg Park,park,strathcona county,..,..,..,..,ab
169606,Kinsmen/Westboro Park,park,strathcona county,..,..,..,..,ab
169991,Lakeland Ridge Park,park,strathcona county,..,..,..,..,ab
170454,Little Cypress Park,park,strathcona county,..,..,..,..,ab
170472,Little Willow Park,park,strathcona county,..,..,..,..,ab
170829,Malvern Park,park,strathcona county,..,..,..,..,ab
170973,Marion Park,park,strathcona county,..,..,..,..,ab
171170,Maywood Park,park,strathcona county,..,..,..,..,ab
171242,Mcghan Park,park,strathcona county,..,..,..,..,ab
171330,Mcpherson Park,park,strathcona county,..,..,..,..,ab
171364,Meadowood Park,park,strathcona county,..,..,..,..,ab
171376,Meadowview Park,park,strathcona county,..,..,..,..,ab
171456,Merryvale Park,park,strathcona county,..,..,..,..,ab
171561,Millennium Place Athletic Park,park,strathcona county,..,..,..,..,ab
172179,Normandy Drive Park,park,strathcona county,..,..,..,..,ab
172406,Nottingham Green Park,park,strathcona county,..,..,..,..,ab
172408,Nottingham Park,park,strathcona county,..,..,..,..,ab
173612,Parker Park,park,strathcona county,..,..,..,..,ab
173742,Peacock Park,park,strathcona county,..,..,..,..,ab
174156,Privet Park,park,strathcona county,..,..,..,..,ab
174329,Rainbow Park,park,strathcona county,..,..,..,..,ab
174520,Regency Park,park,strathcona county,..,..,..,..,ab
174624,Ridge North Park,park,strathcona county,..,..,..,..,ab
174630,Ridge South Park,park,strathcona county,..,..,..,..,ab
174648,Riediger Park,park,strathcona county,..,..,..,..,ab
174856,Robin Hood Park,park,strathcona county,..,..,..,..,ab
175040,Rotary Park At Trillium Centre,park,strathcona county,..,..,..,..,ab
