Index,Facility_Name,ODRSF_facility_type,Provider,Street_No,Street_Name,Postal_Code,City,Prov_Terr
12797,Lago Lindo,sports field,edmonton,..,..,..,..,ab
12866,Landsdowne,sports field,edmonton,..,..,..,..,ab
12867,Landsdowne,sports field,edmonton,..,..,..,..,ab
12886,Laperle E,sports field,edmonton,..,..,..,..,ab
12887,Laperle E,sports field,edmonton,..,..,..,..,ab
12888,Laperle E,sports field,edmonton,..,..,..,..,ab
12889,Laperle W,sports field,edmonton,..,..,..,..,ab
12890,Laperle W,sports field,edmonton,..,..,..,..,ab
12891,Laperle W,sports field,edmonton,..,..,..,..,ab
12892,Laperle W,sports field,edmonton,..,..,..,..,ab
12893,Laperle W,sports field,edmonton,..,..,..,..,ab
12894,Laperle W,sports field,edmonton,..,..,..,..,ab
12910,Lauderdale,sports field,edmonton,..,..,..,..,ab
12911,Lauderdale,sports field,edmonton,..,..,..,..,ab
12912,Lauderdale,sports field,edmonton,..,..,..,..,ab
12923,Laurier Heights,sports field,edmonton,..,..,..,..,ab
12924,Laurier Heights,sports field,edmonton,..,..,..,..,ab
12925,Laurier Heights,sports field,edmonton,..,..,..,..,ab
12926,Laurier Heights,sports field,edmonton,..,..,..,..,ab
12927,Laurier Heights,sports field,edmonton,..,..,..,..,ab
12947,Lawton,sports field,edmonton,..,..,..,..,ab
12965,Lee Ridge,sports field,edmonton,..,..,..,..,ab
12966,Lee Ridge,sports field,edmonton,..,..,..,..,ab
12967,Lee Ridge,sports field,edmonton,..,..,..,..,ab
13031,Lewis Estates Golf Course,sports field,edmonton,259,lewis estate,..,..,ab
13154,Lorelei,sports field,edmonton,..,..,..,..,ab
13155,Lorelei,sports field,edmonton,..,..,..,..,ab
13156,Lorelei,sports field,edmonton,..,..,..,..,ab
13157,Lorelei,sports field,edmonton,..,..,..,..,ab
13186,Ly Cairns,sports field,edmonton,..,..,..,..,ab
13187,Lymburn,sports field,edmonton,..,..,..,..,ab
13188,Lymburn,sports field,edmonton,..,..,..,..,ab
13189,Lymburn,sports field,edmonton,..,..,..,..,ab
13190,Lymburn,sports field,edmonton,..,..,..,..,ab
13191,Lymburn,sports field,edmonton,..,..,..,..,ab
13192,Lymburn,sports field,edmonton,..,..,..,..,ab
13193,Lymburn # 3 Soc,sports field,edmonton,..,..,..,..,ab
13209,Lynnwood,sports field,edmonton,..,..,..,..,ab
13210,Lynnwood,sports field,edmonton,..,..,..,..,ab
13211,Lynnwood,sports field,edmonton,..,..,..,..,ab
13212,Lynnwood,sports field,edmonton,..,..,..,..,ab
13213,Lynnwood,sports field,edmonton,..,..,..,..,ab
13232,M A Kostek,sports field,edmonton,..,..,..,..,ab
13233,M A Kostek,sports field,edmonton,..,..,..,..,ab
13234,M Butterworth,sports field,edmonton,..,..,..,..,ab
13235,M Butterworth,sports field,edmonton,..,..,..,..,ab
13236,M Lavallee,sports field,edmonton,..,..,..,..,ab
13237,M Lavallee,sports field,edmonton,..,..,..,..,ab
13238,M Lavallee,sports field,edmonton,..,..,..,..,ab
