Index,Facility_Name,ODRSF_facility_type,Provider,Street_No,Street_Name,Postal_Code,City,Prov_Terr
11987,Holyrood,sports field,edmonton,..,..,..,..,ab
11996,Homesteader,sports field,edmonton,..,..,..,..,ab
11997,Homesteader,sports field,edmonton,..,..,..,..,ab
11998,Homesteader,sports field,edmonton,..,..,..,..,ab
12020,Horse Hill,sports field,edmonton,..,..,..,..,ab
12021,Horse Hill,sports field,edmonton,..,..,..,..,ab
12022,Horse Hill,sports field,edmonton,..,..,..,..,ab
12116,Idywylde,sports field,edmonton,..,..,..,..,ab
12117,Idywylde,sports field,edmonton,..,..,..,..,ab
12126,Inglewood,sports field,edmonton,..,..,..,..,ab
12127,Inglewood # 1 D,sports field,edmonton,..,..,..,..,ab
12128,Inglewood # 1 S,sports field,edmonton,..,..,..,..,ab
12129,Inglewood # 2 S,sports field,edmonton,..,..,..,..,ab
12130,Inglewood # 4 D,sports field,edmonton,..,..,..,..,ab
12172,Ja Fife,sports field,edmonton,..,..,..,..,ab
12173,Ja Fife,sports field,edmonton,..,..,..,..,ab
12182,Jackson Heights,sports field,edmonton,..,..,..,..,ab
12183,Jackson Heights,sports field,edmonton,..,..,..,..,ab
12196,James Gibbons,sports field,edmonton,..,..,..,..,ab
12217,Jasper Place,sports field,edmonton,..,..,..,..,ab
12218,Jasper Place,sports field,edmonton,..,..,..,..,ab
12219,Jasper Place Bowl Artificial Turf - Staffed Field,sports field,edmonton,90,163,..,..,ab
12220,Jasper Place Curling Club,rink,edmonton,16521,107,..,..,ab
12224,Jc Bowen,sports field,edmonton,..,..,..,..,ab
12229,Jeanne D'Arc,sports field,edmonton,..,..,..,..,ab
12245,Jh Picard,sports field,edmonton,..,..,..,..,ab
12252,Jj Bowlen,sports field,edmonton,..,..,..,..,ab
12253,Jj Bowlen,sports field,edmonton,..,..,..,..,ab
12261,John Barnett,sports field,edmonton,..,..,..,..,ab
12262,John Barnett,sports field,edmonton,..,..,..,..,ab
12263,John Barnett,sports field,edmonton,..,..,..,..,ab
12274,John Fry Park - Staffed Field,sports field,edmonton,97,28,..,..,ab
12275,John Fry Pk E,sports field,edmonton,..,..,..,..,ab
12276,John Fry Pk E,sports field,edmonton,..,..,..,..,ab
12285,John Paul I,sports field,edmonton,..,..,..,..,ab
12286,John Paul I,sports field,edmonton,..,..,..,..,ab
12287,John Paul I,sports field,edmonton,..,..,..,..,ab
12288,John Paul I,sports field,edmonton,..,..,..,..,ab
12291,John Thompson,sports field,edmonton,..,..,..,..,ab
12292,John Thompson,sports field,edmonton,..,..,..,..,ab
12315,Jp Bowl,sports field,edmonton,..,..,..,..,ab
12319,Jubilee Pk,sports field,edmonton,..,..,..,..,ab
12330,K Therrian,sports field,edmonton,..,..,..,..,ab
12331,K Therrian,sports field,edmonton,..,..,..,..,ab
12332,K Therrian,sports field,edmonton,..,..,..,..,ab
12339,Kameyosek,sports field,edmonton,..,..,..,..,ab
12340,Kameyosek,sports field,edmonton,..,..,..,..,ab
12349,Kaskitayo,miscellaneous,edmonton,..,..,..,..,ab
12352,Kaskitayo,sports field,edmonton,..,..,..,..,ab
