Index,Facility_Name,ODRSF_facility_type,Provider,Street_No,Street_Name,Postal_Code,City,Prov_Terr
14898,Prince Rupert,sports field,edmonton,..,..,..,..,ab
14899,Prince Rupert,sports field,edmonton,..,..,..,..,ab
14904,Princeton,sports field,edmonton,..,..,..,..,ab
14905,Princeton,sports field,edmonton,..,..,..,..,ab
14906,Princeton,sports field,edmonton,..,..,..,..,ab
14907,Princeton,sports field,edmonton,..,..,..,..,ab
15041,Queen Alexandra,sports field,edmonton,..,..,..,..,ab
15042,Queen Alexandra,sports field,edmonton,..,..,..,..,ab
15043,Queen Alexandra,sports field,edmonton,..,..,..,..,ab
15044,Queen Elizabeth,sports field,edmonton,..,..,..,..,ab
15045,Queen Elizabeth,sports field,edmonton,..,..,..,..,ab
15046,Queen Elizabeth,sports field,edmonton,..,..,..,..,ab
15065,Queen Elizabeth Tennis Courts,sports field,edmonton,132,94,..,..,ab
15066,Queen Elizabeth Tennis Courts,sports field,edmonton,132,94,..,..,ab
15067,Queen Elizabeth Tennis Courts,sports field,edmonton,132,94,..,..,ab
15068,Queen Elizabeth Tennis Courts,sports field,edmonton,132,94,..,..,ab
15069,Queen Elizabeth Tennis Courts,sports field,edmonton,132,94,..,..,ab
15070,Queen Mary Pk,sports field,edmonton,..,..,..,..,ab
15071,Queen Mary Pk,sports field,edmonton,..,..,..,..,ab
15150,Ramsey Heights,sports field,edmonton,..,..,..,..,ab
15151,Ramsey Heights,sports field,edmonton,..,..,..,..,ab
15152,Ramsey Heights,sports field,edmonton,..,..,..,..,ab
15153,Ramsey Heights,sports field,edmonton,..,..,..,..,ab
15233,Richard Secord,sports field,edmonton,..,..,..,..,ab
15234,Richard Secord,sports field,edmonton,..,..,..,..,ab
15235,Richard Secord,sports field,edmonton,..,..,..,..,ab
15272,Rideau Pk,sports field,edmonton,..,..,..,..,ab
15289,Rio Terrace,sports field,edmonton,..,..,..,..,ab
15290,Rio Terrace,sports field,edmonton,..,..,..,..,ab
15292,Ritchie,sports field,edmonton,..,..,..,..,ab
15293,Ritchie,sports field,edmonton,..,..,..,..,ab
15313,River Valley,sports field,edmonton,..,..,..,..,ab
15316,Riverbend,sports field,edmonton,..,..,..,..,ab
15317,Riverbend,sports field,edmonton,..,..,..,..,ab
15318,Riverbend,sports field,edmonton,..,..,..,..,ab
15319,Riverbend Tennis Club,sports field,edmonton,14710,53,..,..,ab
15320,Riverbend Tennis Club,sports field,edmonton,14710,53,..,..,ab
15321,Riverbend Tennis Club,sports field,edmonton,14710,53,..,..,ab
15322,Riverbend Tennis Club,sports field,edmonton,14710,53,..,..,ab
15323,Riverdale,sports field,edmonton,..,..,..,..,ab
15324,Riverdale,sports field,edmonton,..,..,..,..,ab
15340,Riverside Golf Course,sports field,edmonton,8630,rowland,..,..,ab
15342,Riverside Golf Course Ski Trails,trail,edmonton,..,84,..,..,ab
15367,Rj Scott,sports field,edmonton,..,..,..,..,ab
15368,Rj Scott,sports field,edmonton,..,..,..,..,ab
15414,Rollie Miles,sports field,edmonton,..,..,..,..,ab
15415,Rollie Miles Athletic Park - Staffed Field,sports field,edmonton,10480,73,..,..,ab
15449,Rosslyn,sports field,edmonton,..,..,..,..,ab
15450,Rosslyn,sports field,edmonton,..,..,..,..,ab
