Index,Facility_Name,ODRSF_facility_type,Provider,Street_No,Street_Name,Postal_Code,City,Prov_Terr
165641,Delton Park,park,edmonton,12325,88,..,..,ab
165642,Delwood Park,park,edmonton,7505,delwood,..,..,ab
165682,Dermott District Park,park,edmonton,8205,90,..,..,ab
165738,Diamond Park,park,edmonton,9813,101,..,..,ab
165848,Donnan Park,park,edmonton,9105,80,..,..,ab
165892,Doug Kelly Park,park,edmonton,5645,208,..,..,ab
165920,Dovercourt Park,park,edmonton,13510,dovercourt,..,..,ab
165945,Dr. Anne Anderson Park,park,edmonton,10515,162,..,..,ab
165949,Dr. Francis Crang Park,park,edmonton,10503,48,..,..,ab
165958,Dr. Wilbert Mcintyre Park,park,edmonton,8303,104,..,..,ab
165960,Dr. William Rowan Park,park,edmonton,8830,152b,..,..,ab
166011,Duggan Park,park,edmonton,3728,106,..,..,ab
166027,Duncan Innes Park,park,edmonton,8102,80,..,..,ab
166061,Dunluce Park,park,edmonton,11620,162,..,..,ab
166093,E.L. Hill Park,park,edmonton,10518,86,..,..,ab
166113,Earl Samis Park,park,edmonton,5680,hardisty,..,..,ab
166180,Eastwood Park,park,edmonton,8508,118,..,..,ab
166184,Eaux Claires Park,park,edmonton,16003,95,..,..,ab
166214,Eddy Mark Shaske Jr. Park,park,edmonton,8751,153,..,..,ab
166229,Edgar Millen Park,park,edmonton,11424,fort,..,..,ab
166251,Edinboro Park,park,edmonton,9304,118,..,..,ab
166258,Edmonton Grads Park,park,edmonton,12103,109,..,..,ab
166305,Ekota Park,park,edmonton,1415,knottwood,..,..,ab
166356,Ellingson Park,park,edmonton,11104,65,..,..,ab
166395,Elsinore Chambery Park,park,edmonton,17604,104,..,..,ab
166419,Emily Murphy Park,park,edmonton,11904,emily murphy park,..,..,ab
166424,Empire Park,park,edmonton,4804,107,..,..,ab
166469,Ermineskin Park,park,edmonton,10704,25,..,..,ab
166538,Eusebio Garcia Park,park,edmonton,9225,179,..,..,ab
166543,Evansdale Park,park,edmonton,9123,150,..,..,ab
166583,F.W. Barclay Park,park,edmonton,14613,90,..,..,ab
166654,Faith Clifton / Alan Macdonald Memorial Park,park,edmonton,13725,101,..,..,ab
166660,Falconer Heights Park,park,edmonton,1124,falconer,..,..,ab
166699,Father Ivor Daniel Park,park,edmonton,7415,18,..,..,ab
166885,Floden Park,park,edmonton,4209,111,..,..,ab
166931,Forest Heights Park,park,edmonton,10104,84,..,..,ab
166971,Forsland Park,park,edmonton,8003,99a,..,..,ab
166978,Fort Edmonton Park,park,edmonton,7000,fort edmonton park,..,..,ab
167037,Frank And Etta Wilde Park,park,edmonton,9615,176,..,..,ab
167066,Fraser Park,park,edmonton,14720,21,..,..,ab
167077,Fred A. Moire Park,park,edmonton,9004,100,..,..,ab
167078,Fred Broadstock Park,park,edmonton,10515,158,..,..,ab
167136,Fulton Place Park,park,edmonton,10340,56,..,..,ab
167137,Fulton Ravine,park,edmonton,10680,wayne gretzky,..,..,ab
167151,G.Edmund Kelly Park,park,edmonton,15005,79,..,..,ab
167152,G.H.V. Bulyea Park,park,edmonton,300,bulyea,..,..,ab
167161,Gaby Haas Park,park,edmonton,5434,112,..,..,ab
167179,Gallagher Park,park,edmonton,9411,97,..,..,ab
167213,Gariepy Park,park,edmonton,17404,57,..,..,ab
