Index,Facility_Name,ODRSF_facility_type,Provider,Street_No,Street_Name,Postal_Code,City,Prov_Terr
1903,Glengarry Community League & Outdoor Rink,rink,edmonton,13325,89,..,..,ab
1919,Gold Bar Park Ski Trails,trail,edmonton,109,50,..,..,ab
1927,Goldstick Park Ski Trails,trail,edmonton,..,42,..,..,ab
1959,Grand Trunk Arena,arena,edmonton,13025,112,..,..,ab
1960,Grand Trunk Fitness And Leisure Centre,community centre,edmonton,13025,112,..,..,ab
1961,Grand Trunk Fitness And Leisure Centre Pool,pool,edmonton,..,..,..,..,ab
1969,Grandview Heights Community Rink,rink,edmonton,6223,124,..,..,ab
2064,Hardisty Fitness And Leisure Centre,community centre,edmonton,10535,65,..,..,ab
2065,Hardisty Fitness And Leisure Centre Pool,pool,edmonton,..,..,..,..,ab
2089,Hawrelak Park Outdoor Ice Rinks,rink,edmonton,9330,groat,..,..,ab
2171,Highlands And District Community League,community centre,edmonton,..,..,..,..,ab
2394,Jackie Parker Park Outdoor Ice Rink,rink,edmonton,4540,50,..,..,ab
2414,Jasper Place Fitness And Leisure Centre,community centre,edmonton,9200,163,..,..,ab
2415,Jasper Place Fitness And Leisure Centre Pool,pool,edmonton,..,..,..,..,ab
2539,Kenilworth Arena,arena,edmonton,8313,68a,..,..,ab
2560,Killarney Community League,community centre,edmonton,..,..,..,..,ab
2573,King Edward Park Community League,community centre,edmonton,8008,81,..,..,ab
2601,Kinsmen Arena,arena,edmonton,1979,111,..,..,ab
2606,Kinsmen Park Ski Trails,trail,edmonton,9100,walterdale,..,..,ab
2609,Kinsmen Sports Centre,community centre,edmonton,9100,walterdale,..,..,ab
2610,Kinsmen Sports Centre Pool,pool,edmonton,..,..,..,..,ab
2842,Londonderry Arena,arena,edmonton,14520,66,..,..,ab
2843,Londonderry Fitness And Leisure Centre,community centre,edmonton,14528,66,..,..,ab
2844,Londonderry Fitness And Leisure Centre Pool,pool,edmonton,..,..,..,..,ab
3278,Mcleod Community League,community centre,edmonton,..,..,..,..,ab
3296,Meadows Community Recreation Centre,community centre,edmonton,2704,17,..,..,ab
3329,Michael Cameron Arena,arena,edmonton,10404,56,..,..,ab
3341,Mill Creek Outdoor Pool,pool,edmonton,9555,84,..,..,ab
3343,Mill Woods Arena,arena,edmonton,7207,28,..,..,ab
3344,Mill Woods Recreation Centre,community centre,edmonton,7207,28,..,..,ab
3345,Mill Woods Recreation Centre Pool,pool,edmonton,..,..,..,..,ab
3409,Montrose Community League (1992),community centre,edmonton,..,..,..,..,ab
3589,Northgate Lions Senior Citizens Recreation Centre,community centre,edmonton,7524,139,..,..,ab
3651,Ogilvie Ridge Community League,community centre,edmonton,..,..,..,..,ab
3670,O'Leary Fitness And Leisure Centre,community centre,edmonton,8804,132,..,..,ab
3671,O'Leary Fitness And Leisure Centre Pool,pool,edmonton,..,..,..,..,ab
3672,Oliver Arena,arena,edmonton,10335,119,..,..,ab
3673,Oliver Swimming Pool,pool,edmonton,10315,119,..,..,ab
3994,Palace Casino,casino,edmonton,8882,170,..,..,ab
4004,Panther Gym Kickboxing Boxing & Karate Studio,gym,edmonton,11104,102,..,..,ab
4516,Peter Hemingway Fitness And Leisure Centre,community centre,edmonton,13808,111,..,..,ab
4517,Peter Hemingway Fitness And Leisure Centre Pool,pool,edmonton,..,..,..,..,ab
5026,Queen Elizabeth Outdoor Pool,pool,edmonton,9170,walterdale,..,..,ab
5032,Queen Elizabeth Swimming Pool,pool,edmonton,9100,walterdale,..,..,ab
5034,Queen Mary Park Community League,community centre,edmonton,..,..,..,..,ab
5045,R W Tegler Youth & Sports Centre,community centre,edmonton,3805,118,..,..,ab
5267,Rundle Park Iceway,rink,edmonton,2909,113,..,..,ab
5275,Russ Barnes Arena,arena,edmonton,6725,121,..,..,ab
5335,Saville Sports Centre,community centre,edmonton,11610,65,..,..,ab
