Index,Facility_Name,ODRSF_facility_type,Provider,Street_No,Street_Name,Postal_Code,City,Prov_Terr
10771,Edmonton Minor Soccer Association,sports field,edmonton,..,..,..,..,ab
10772,Edmonton Minor Soccer Association,sports field,edmonton,..,..,..,..,ab
10773,Edmonton Minor Soccer Association,sports field,edmonton,..,..,..,..,ab
10774,Edmonton Minor Soccer Association,sports field,edmonton,..,..,..,..,ab
10775,Edmonton Minor Soccer Association,sports field,edmonton,..,..,..,..,ab
10776,Edmonton Soccer Centre - East,sports field,edmonton,12720,victoria,..,..,ab
10777,Edmonton Soccer Centre - East,sports field,edmonton,12720,victoria,..,..,ab
10778,Edmonton Soccer Centre - East,sports field,edmonton,12720,victoria,..,..,ab
10779,Edmonton Soccer Centre - East,sports field,edmonton,12720,victoria,..,..,ab
10780,Edmonton Soccer Centre - South,sports field,edmonton,6520,roper,..,..,ab
10781,Edmonton Soccer Centre - South,sports field,edmonton,6520,roper,..,..,ab
10782,Edmonton Soccer Centre - West,sports field,edmonton,17415,106a,..,..,ab
10783,Edmonton Soccer Centre - West,sports field,edmonton,17415,106a,..,..,ab
10784,Edmonton Soccer Centre - West,sports field,edmonton,17415,106a,..,..,ab
10785,Edmonton Soccer Centre - West,sports field,edmonton,17415,106a,..,..,ab
10786,Edmonton Valley Zoo,miscellaneous,edmonton,13315,buena vista,..,..,ab
10803,Ekota,sports field,edmonton,..,..,..,..,ab
10804,Ekota,sports field,edmonton,..,..,..,..,ab
10816,Elizabeth Seton,sports field,edmonton,..,..,..,..,ab
10831,Ellerslie,sports field,edmonton,..,..,..,..,ab
10832,Ellerslie,sports field,edmonton,..,..,..,..,ab
10833,Ellerslie,sports field,edmonton,..,..,..,..,ab
10834,Ellerslie,sports field,edmonton,..,..,..,..,ab
10835,Ellerslie,sports field,edmonton,..,..,..,..,ab
10850,Elmwood,sports field,edmonton,..,..,..,..,ab
10851,Elmwood,sports field,edmonton,..,..,..,..,ab
10852,Elmwood,sports field,edmonton,..,..,..,..,ab
10877,Ermineskin,sports field,edmonton,..,..,..,..,ab
10878,Ermineskin,sports field,edmonton,..,..,..,..,ab
10879,Ermineskin,sports field,edmonton,..,..,..,..,ab
10880,Ermineskin,sports field,edmonton,..,..,..,..,ab
10881,Ermineskin,sports field,edmonton,..,..,..,..,ab
10882,Ermineskin,sports field,edmonton,..,..,..,..,ab
10903,Evansdale,sports field,edmonton,..,..,..,..,ab
10904,Evansdale,sports field,edmonton,..,..,..,..,ab
10905,Evansdale,sports field,edmonton,..,..,..,..,ab
10906,Evansdale,sports field,edmonton,..,..,..,..,ab
10985,Father Lacombe,sports field,edmonton,..,..,..,..,ab
10986,Father Lacombe,sports field,edmonton,..,..,..,..,ab
10987,Father Lacombe,sports field,edmonton,..,..,..,..,ab
11012,Field,sports field,edmonton,..,..,..,..,ab
11074,Floden Pk,sports field,edmonton,..,..,..,..,ab
11124,Foote Field,sports field,edmonton,..,..,..,..,ab
11125,Foote Field,sports field,edmonton,..,..,..,..,ab
11126,Foote Field,sports field,edmonton,..,..,..,..,ab
11127,Foote Field,sports field,edmonton,..,..,..,..,ab
11128,Foote Field,sports field,edmonton,..,..,..,..,ab
11129,Foote Field,sports field,edmonton,..,..,..,..,ab
11153,Forest Heights,sports field,edmonton,..,..,..,..,ab
