Index,Facility_Name,ODRSF_facility_type,Provider,Street_No,Street_Name,Postal_Code,City,Prov_Terr
14041,Nor'Wester Athletic Association,sports field,edmonton,..,..,..,..,ab
14042,Nor'Wester Athletic Association,sports field,edmonton,..,..,..,..,ab
14043,Nor'Wester Athletic Association,sports field,edmonton,..,..,..,..,ab
14044,Norwood,sports field,edmonton,..,..,..,..,ab
14045,Norwood,sports field,edmonton,..,..,..,..,ab
14053,Notre Dame,sports field,edmonton,..,..,..,..,ab
14054,Notre Dame,sports field,edmonton,..,..,..,..,ab
14055,Notre Dame,sports field,edmonton,..,..,..,..,ab
14056,Notre Dame,sports field,edmonton,..,..,..,..,ab
14117,Ogilvie,sports field,edmonton,..,..,..,..,ab
14118,Ogilvie,sports field,edmonton,..,..,..,..,ab
14134,Old Scona,sports field,edmonton,..,..,..,..,ab
14136,Oleskiw,sports field,edmonton,..,..,..,..,ab
14137,Oliver,sports field,edmonton,..,..,..,..,ab
14138,Oliver,sports field,edmonton,..,..,..,..,ab
14174,Ormsby Place,sports field,edmonton,..,..,..,..,ab
14175,Ormsby Place,sports field,edmonton,..,..,..,..,ab
14176,Ormsby Place,sports field,edmonton,..,..,..,..,ab
14177,Ormsby Place,sports field,edmonton,..,..,..,..,ab
14213,Ottewell,sports field,edmonton,..,..,..,..,ab
14214,Ottewell Curling Club & Golf Driving Range,sports field,edmonton,4205,102,..,..,ab
14215,Ottewell Curling Club & Golf Driving Range,sports field,edmonton,4205,102,..,..,ab
14216,Ottewell Curling Club & Golf Driving Range,sports field,edmonton,4205,102,..,..,ab
14234,Our Lady Prair,sports field,edmonton,..,..,..,..,ab
14239,Overlander,sports field,edmonton,..,..,..,..,ab
14240,Overlander,sports field,edmonton,..,..,..,..,ab
14241,Overlander,sports field,edmonton,..,..,..,..,ab
14242,Overlander,sports field,edmonton,..,..,..,..,ab
14248,Oxford Pk,sports field,edmonton,..,..,..,..,ab
14249,Oxford Pk,sports field,edmonton,..,..,..,..,ab
14252,Ozerna,sports field,edmonton,..,..,..,..,ab
14253,Ozerna,sports field,edmonton,..,..,..,..,ab
14254,Ozerna,sports field,edmonton,..,..,..,..,ab
14692,Pat Heights,sports field,edmonton,..,..,..,..,ab
14693,Pat Heights,sports field,edmonton,..,..,..,..,ab
14824,Pkallen,sports field,edmonton,..,..,..,..,ab
14825,Pkallen,sports field,edmonton,..,..,..,..,ab
14826,Pkdale,sports field,edmonton,..,..,..,..,ab
14827,Pkdale,sports field,edmonton,..,..,..,..,ab
14828,Pkdale,sports field,edmonton,..,..,..,..,ab
14829,Pkview,sports field,edmonton,..,..,..,..,ab
14830,Pkview,sports field,edmonton,..,..,..,..,ab
14841,Pleasantview,sports field,edmonton,..,..,..,..,ab
14852,Pollard Meadows,sports field,edmonton,..,..,..,..,ab
14853,Pollard Meadows,sports field,edmonton,..,..,..,..,ab
14879,Potter Greens,sports field,edmonton,..,..,..,..,ab
14880,Potter Greens,sports field,edmonton,..,..,..,..,ab
14890,Primrose,sports field,edmonton,..,..,..,..,ab
14891,Primrose,sports field,edmonton,..,..,..,..,ab
