Index,Facility_Name,ODRSF_facility_type,Provider,Street_No,Street_Name,Postal_Code,City,Prov_Terr
169623,Kitchener Park,park,edmonton,11411,103,..,..,ab
169627,Kittlitz Park,park,edmonton,2850,36a,..,..,ab
169650,Klarvatten Park,park,edmonton,200,klarvatten,..,..,ab
169922,La Perle Park,park,edmonton,18527,97a,..,..,ab
169954,Lago Lindo Park,park,edmonton,17221,95,..,..,ab
170106,Lansdowne Park,park,edmonton,4915,124,..,..,ab
170117,Larkspur Park,park,edmonton,2928,41,..,..,ab
170141,Lauderdale Park,park,edmonton,12935,107,..,..,ab
170163,Laurier Heights Park,park,edmonton,14405,85,..,..,ab
170219,Lee Ridge Park,park,edmonton,460,millbourne,..,..,ab
170262,Lendrum Place Park,park,edmonton,11325,57,..,..,ab
170318,Light Horse Park,park,edmonton,10324,85,..,..,ab
170326,Lilliput Park,park,edmonton,9637,74,..,..,ab
170521,Londonderry Athletic Grounds,park,edmonton,14627,72,..,..,ab
170547,Lorelei Park,park,edmonton,16220,103,..,..,ab
170557,Lorne Larsen Park,park,edmonton,12020,106,..,..,ab
170561,Lorne Street Park,park,edmonton,9120,113,..,..,ab
170581,Louise Mckinney Riverfront Park,park,edmonton,9529,grierson hill,..,..,ab
170663,Lymburn Park,park,edmonton,..,..,..,..,ab
170686,Lynnwood Athetic Field,park,edmonton,15625,81,..,..,ab
170688,Lynnwood Park,park,edmonton,15525,84,..,..,ab
170720,Macewan Park,park,edmonton,250,macewan,..,..,ab
170723,Mackenzie & Mann Park,park,edmonton,10431,113,..,..,ab
170724,Mackenzie Ravine,park,edmonton,9320,142,..,..,ab
170725,Mackinnon Ravine Park,park,edmonton,14212,summit,..,..,ab
170746,Mactaggart Park,park,edmonton,4110,mactaggart,..,..,ab
170769,Magrath Heights Park,park,edmonton,243,magrath,..,..,ab
170810,Malcolm Groat Park,park,edmonton,10760,132,..,..,ab
170811,Malcolm Maccrimmon Park,park,edmonton,10403,29a,..,..,ab
170812,Malcolm Tweddle Park,park,edmonton,2347,millbourne,..,..,ab
170865,Maple Downs Park,park,edmonton,1615,66,..,..,ab
170872,Maple Grove Park,park,edmonton,..,97,..,..,ab
170880,Maple Leaf Park,park,edmonton,14300,102a,..,..,ab
171066,Mary Burlie Park,park,edmonton,10465,97,..,..,ab
171069,Mary Finlay Park,park,edmonton,10150,80,..,..,ab
171075,Mary Lobay Park,park,edmonton,400,reeves,..,..,ab
171089,Maskepetoon Park,park,edmonton,10915,29a,..,..,ab
171110,Matt Berry Park,park,edmonton,15950,59a,..,..,ab
171124,Maude Bell Park,park,edmonton,7320,77,..,..,ab
171130,Maurice Poirier Park,park,edmonton,10816,67,..,..,ab
171161,Mayfield Park,park,edmonton,10945,161,..,..,ab
171165,Mayliewan Park,park,edmonton,7503,161a,..,..,ab
171234,Mcdougall Park,park,edmonton,10031,macdonald,..,..,ab
171271,Mckenzie & Mackinnon Ravine,park,edmonton,9407,142,..,..,ab
171279,Mckernan Park,park,edmonton,7535,112,..,..,ab
171304,Mcleod Park,park,edmonton,14503,59,..,..,ab
171332,Mcqueen Park,park,edmonton,10825,mcqueen,..,..,ab
171361,Meadowlark Park,park,edmonton,15961,92,..,..,ab
171436,Menisa Park,park,edmonton,943,knottwood,..,..,ab
