Index,Facility_Name,ODRSF_facility_type,Provider,Street_No,Street_Name,Postal_Code,City,Prov_Terr
168906,J.C. Mackie Park,park,grand prairie,..,..,..,..,ab
168915,Jack Bird Park,park,grand prairie,..,..,..,..,ab
168918,Jack Durrant Park,park,grand prairie,..,..,..,..,ab
168920,Jack Fitzallen Park,park,grand prairie,..,..,..,..,ab
168930,Jack Soars Park,park,grand prairie,..,..,..,..,ab
169073,Jim Kluyt Park,park,grand prairie,..,..,..,..,ab
169167,John Mcauley Park,park,grand prairie,..,..,..,..,ab
169172,John Miedema Park,park,grand prairie,..,..,..,..,ab
169196,John Wallace Park,park,grand prairie,..,..,..,..,ab
169202,Johnny & Sylvia Macdonald Park,park,grand prairie,..,..,..,..,ab
169252,Joseph Mark Park,park,grand prairie,..,..,..,..,ab
169290,Jubilee Park,park,grand prairie,..,..,..,..,ab
169304,Julienne & Alexis Campbell Park,park,grand prairie,..,..,..,..,ab
169420,Ken Svenson Park,park,grand prairie,..,..,..,..,ab
169917,Kyra Paull Park,park,grand prairie,..,..,..,..,ab
170234,Legion Field,park,grand prairie,..,..,..,..,ab
170321,Liliane Matheson Park,park,grand prairie,..,..,..,..,ab
170369,Linda Cowell Park,park,grand prairie,..,..,..,..,ab
170428,Lion's Park,park,grand prairie,..,..,..,..,ab
170533,Longmate Park,park,grand prairie,..,..,..,..,ab
170554,Lorna Mcilroy Park,park,grand prairie,..,..,..,..,ab
170727,Macklin Field,park,grand prairie,..,92a,..,..,ab
170930,Marcel Lafleur Park,park,grand prairie,..,..,..,..,ab
171106,Mates Family Park,park,grand prairie,..,..,..,..,ab
171201,Mcconachie Park,park,grand prairie,..,..,..,..,ab
171437,Menzies Family Park,park,grand prairie,..,..,..,..,ab
171457,Merv Crouse Park,park,grand prairie,..,..,..,..,ab
171509,Mike Fedyna Park,park,grand prairie,..,..,..,..,ab
171641,Minhas Family Park,park,grand prairie,..,..,..,..,ab
171757,Monkman Park,park,grand prairie,..,..,..,..,ab
172085,Nelson Archibald Park,park,grand prairie,..,..,..,..,ab
172473,Oatway Family Park,park,grand prairie,..,..,..,..,ab
172505,Olaf Hanson Park,park,grand prairie,..,..,..,..,ab
173642,Parkside Community Park,park,grand prairie,..,..,..,..,ab
173725,Payton Kriska Park,park,grand prairie,..,..,..,..,ab
173745,Pearcy Park,park,grand prairie,..,93,..,..,ab
173797,Percy Tooley Park,park,grand prairie,..,..,..,..,ab
173800,Perky Mccullough Park,park,grand prairie,..,..,..,..,ab
174839,Robert Keys Park,park,grand prairie,..,..,..,..,ab
175025,Rotary Field,park,grand prairie,..,..,..,..,ab
175277,Roy Peterson Park,park,grand prairie,..,..,..,..,ab
175335,Russell Bowen Park,park,grand prairie,..,..,..,..,ab
175337,Russell Burgess Park,park,grand prairie,..,..,..,..,ab
175521,Sargent Community Park,park,grand prairie,..,..,..,..,ab
176231,Spiers Park,park,grand prairie,..,..,..,..,ab
176462,St. Joe's High School Sportsfields,park,grand prairie,..,..,..,..,ab
176922,T.W.H. Paul Park,park,grand prairie,..,129a,..,..,ab
177104,Thomas Kerr Park,park,grand prairie,..,..,..,..,ab
177230,Tom Gorman Park,park,grand prairie,..,..,..,..,ab
