Index,Facility_Name,ODRSF_facility_type,Provider,Street_No,Street_Name,Postal_Code,City,Prov_Terr
3650,Off-Leash Dog Park,park,grand prairie,..,..,..,..,ab
4838,Public Outdoor Rink,rink,grand prairie,..,..,..,..,ab
4839,Public Outdoor Rink,rink,grand prairie,..,..,..,..,ab
4840,Public Outdoor Rink,rink,grand prairie,..,..,..,..,ab
4841,Public Outdoor Rink,rink,grand prairie,..,..,..,..,ab
4842,Public Outdoor Rink,rink,grand prairie,..,..,..,..,ab
4843,Public Outdoor Rink,rink,grand prairie,..,..,..,..,ab
4844,Public Outdoor Rink,rink,grand prairie,..,..,..,..,ab
4845,Public Outdoor Rink,rink,grand prairie,..,..,..,..,ab
4846,Public Outdoor Rink,rink,grand prairie,..,..,..,..,ab
4847,Public Outdoor Rink,rink,grand prairie,..,..,..,..,ab
4848,Public Outdoor Rink,rink,grand prairie,..,..,..,..,ab
4849,Public Outdoor Rink,rink,grand prairie,..,..,..,..,ab
4850,Public Outdoor Rink,rink,grand prairie,..,..,..,..,ab
4851,Public Outdoor Rink,rink,grand prairie,..,..,..,..,ab
4852,Public Outdoor Rink,rink,grand prairie,..,..,..,..,ab
4853,Public Outdoor Rink,rink,grand prairie,..,..,..,..,ab
4854,Public Outdoor Rink,rink,grand prairie,..,..,..,..,ab
4855,Public Outdoor Rink,rink,grand prairie,..,..,..,..,ab
4856,Public Outdoor Rink,rink,grand prairie,..,..,..,..,ab
4857,Public Outdoor Rink,rink,grand prairie,..,..,..,..,ab
4858,Public Outdoor Rink,rink,grand prairie,..,..,..,..,ab
4859,Public Outdoor Rink,rink,grand prairie,..,..,..,..,ab
4860,Public Outdoor Rink,rink,grand prairie,..,..,..,..,ab
4861,Public Outdoor Rink,rink,grand prairie,..,..,..,..,ab
4862,Public Outdoor Rink,rink,grand prairie,..,..,..,..,ab
4863,Public Outdoor Rink,rink,grand prairie,..,..,..,..,ab
4864,Public Outdoor Rink,rink,grand prairie,..,..,..,..,ab
4865,Public Outdoor Rink,rink,grand prairie,..,..,..,..,ab
4866,Public Outdoor Rink,rink,grand prairie,..,..,..,..,ab
4867,Public Outdoor Rink,rink,grand prairie,..,..,..,..,ab
4868,Public Outdoor Rink,rink,grand prairie,..,..,..,..,ab
4869,Public Outdoor Rink,rink,grand prairie,..,..,..,..,ab
4870,Public Outdoor Rink,rink,grand prairie,..,..,..,..,ab
4871,Public Outdoor Rink,rink,grand prairie,..,..,..,..,ab
4872,Public Outdoor Rink,rink,grand prairie,..,..,..,..,ab
4873,Public Outdoor Rink,rink,grand prairie,..,..,..,..,ab
4874,Public Outdoor Rink,rink,grand prairie,..,..,..,..,ab
4875,Public Outdoor Rink,rink,grand prairie,..,..,..,..,ab
4876,Public Outdoor Rink,rink,grand prairie,..,..,..,..,ab
4877,Public Outdoor Rink,rink,grand prairie,..,..,..,..,ab
4878,Public Outdoor Rink,rink,grand prairie,..,..,..,..,ab
4879,Public Outdoor Rink,rink,grand prairie,..,..,..,..,ab
4880,Public Outdoor Rink,rink,grand prairie,..,..,..,..,ab
4881,Public Outdoor Rink,rink,grand prairie,..,..,..,..,ab
4882,Public Outdoor Rink,rink,grand prairie,..,..,..,..,ab
4883,Public Outdoor Rink,rink,grand prairie,..,..,..,..,ab
4884,Public Outdoor Rink,rink,grand prairie,..,..,..,..,ab
4885,Public Outdoor Rink,rink,grand prairie,..,..,..,..,ab
