Index,Facility_Name,ODRSF_facility_type,Provider,Street_No,Street_Name,Postal_Code,City,Prov_Terr
294,Bear Creek Pool,pool,grand prairie,..,..,..,..,ab
1128,Coca Cola Centre,rink,grand prairie,..,..,..,..,ab
1265,Crystal Centre - Revolution Arena,rink,grand prairie,..,..,..,..,ab
1266,Crystal Centre - Revolution Arena,arena,grand prairie,..,..,..,..,ab
1296,Dave Barr Arena,rink,grand prairie,..,..,..,..,ab
1297,Dave Barr Arena,arena,grand prairie,..,..,..,..,ab
2030,Gymniks,gym,grand prairie,..,..,..,..,ab
2192,Hillside Park Building And Rink,rink,grand prairie,..,..,..,..,ab
2759,Leisure Centre - Indoor Pool Closed To Public,pool,grand prairie,..,..,..,..,ab
2863,Low Board (Skating),skate park,grand prairie,..,..,..,..,ab
2864,Low Board (Skating),skate park,grand prairie,..,..,..,..,ab
2865,Low Board (Skating),skate park,grand prairie,..,..,..,..,ab
2866,Low Board (Skating),skate park,grand prairie,..,..,..,..,ab
2867,Low Board (Skating),skate park,grand prairie,..,..,..,..,ab
2868,Low Board (Skating),skate park,grand prairie,..,..,..,..,ab
2869,Low Board (Skating),skate park,grand prairie,..,..,..,..,ab
2870,Low Board (Skating),skate park,grand prairie,..,..,..,..,ab
2871,Low Board (Skating),skate park,grand prairie,..,..,..,..,ab
2872,Low Board (Skating),skate park,grand prairie,..,..,..,..,ab
2873,Low Board (Skating),skate park,grand prairie,..,..,..,..,ab
2874,Low Board (Skating),skate park,grand prairie,..,..,..,..,ab
2875,Low Board (Skating),skate park,grand prairie,..,..,..,..,ab
2876,Low Board (Skating),skate park,grand prairie,..,..,..,..,ab
2877,Low Board (Skating),skate park,grand prairie,..,..,..,..,ab
2878,Low Board (Skating),skate park,grand prairie,..,..,..,..,ab
2879,Low Board (Skating),skate park,grand prairie,..,..,..,..,ab
2880,Low Board (Skating),skate park,grand prairie,..,..,..,..,ab
2881,Low Board (Skating),skate park,grand prairie,..,..,..,..,ab
2882,Low Board (Skating),skate park,grand prairie,..,..,..,..,ab
2883,Low Board (Skating),skate park,grand prairie,..,..,..,..,ab
2884,Low Board (Skating),skate park,grand prairie,..,..,..,..,ab
2885,Low Board (Skating),skate park,grand prairie,..,..,..,..,ab
2886,Low Board (Skating),skate park,grand prairie,..,..,..,..,ab
2887,Low Board (Skating),skate park,grand prairie,..,..,..,..,ab
2888,Low Board (Skating),skate park,grand prairie,..,..,..,..,ab
2889,Low Board (Skating),skate park,grand prairie,..,..,..,..,ab
2890,Low Board (Skating),skate park,grand prairie,..,..,..,..,ab
2891,Low Board (Skating),skate park,grand prairie,..,..,..,..,ab
2892,Low Board (Skating),skate park,grand prairie,..,..,..,..,ab
2893,Low Board (Skating),skate park,grand prairie,..,..,..,..,ab
2894,Low Board (Skating),skate park,grand prairie,..,..,..,..,ab
2895,Low Board (Skating),skate park,grand prairie,..,..,..,..,ab
2896,Low Board (Skating),skate park,grand prairie,..,..,..,..,ab
2897,Low Board (Skating),skate park,grand prairie,..,..,..,..,ab
2898,Low Board (Skating),skate park,grand prairie,..,..,..,..,ab
2899,Low Board (Skating),skate park,grand prairie,..,..,..,..,ab
2900,Low Board (Skating),skate park,grand prairie,..,..,..,..,ab
2901,Low Board (Skating),skate park,grand prairie,..,..,..,..,ab
2902,Low Board (Skating),skate park,grand prairie,..,..,..,..,ab
