Index,Facility_Name,ODRSF_facility_type,Provider,Street_No,Street_Name,Postal_Code,City,Prov_Terr
162014,A.E. Galway Park,park,grand prairie,101,115,..,..,ab
162082,Adair Family Park,park,grand prairie,..,..,..,..,ab
162218,Alexis Trimm Park,park,grand prairie,..,..,..,..,ab
162235,Allan Hauger Park,park,grand prairie,..,..,..,..,ab
162256,Alloway Point,park,grand prairie,..,..,..,..,ab
162338,Andrew Carlisle Park,park,grand prairie,..,..,..,..,ab
162354,Angie Crerar Park,park,grand prairie,..,..,..,..,ab
162378,Annie Higbee Park,park,grand prairie,..,..,..,..,ab
162470,Archie Harvey Park,park,grand prairie,..,..,..,..,ab
162681,Avondale Park,park,grand prairie,..,..,..,..,ab
162799,Barney Michaels Park,park,grand prairie,78,115,..,..,ab
163233,Bessent Park,park,grand prairie,..,..,..,..,ab
163239,Beth Sheehan Park,park,grand prairie,..,..,..,..,ab
163275,Bickell's Pond,park,grand prairie,..,..,..,..,ab
163298,Bill Beattie Park,park,grand prairie,..,..,..,..,ab
163428,Bloomfield Park,park,grand prairie,89,st/102,..,..,ab
163571,Bowes Family Park,park,grand prairie,..,..,..,..,ab
164259,Carter Eschyschyn Park,park,grand prairie,..,..,..,..,ab
164265,Carter Rycroft Park,park,grand prairie,..,..,..,..,ab
164556,Chandelier Park,park,grand prairie,..,..,..,..,ab
164606,Charles Turner Park,park,grand prairie,..,..,..,..,ab
164873,Clifford Hook Park,park,grand prairie,..,..,..,..,ab
165374,Croken Park,park,grand prairie,..,..,..,..,ab
165454,Cyril Clarke Park,park,grand prairie,..,..,..,..,ab
165473,Dalen Park,park,grand prairie,..,..,..,..,ab
165591,Deane Toews Park,park,grand prairie,..,..,..,..,ab
165673,Denyse Gaboury Park,park,grand prairie,..,..,..,..,ab
165744,Dickinsfield Park,park,grand prairie,..,..,..,..,ab
165838,Donald Patrick Park,park,grand prairie,..,..,..,..,ab
166377,Elmer Logan Park,park,grand prairie,..,..,..,..,ab
166400,Elvera Grotkowski Park,park,grand prairie,..,..,..,..,ab
166533,Eugene Cashman Park,park,grand prairie,..,..,..,..,ab
166548,Evelyn Mcbryan Park,park,grand prairie,..,..,..,..,ab
166896,Flowerdale Park,park,grand prairie,..,90th,..,..,ab
167038,Frank Donald Park,park,grand prairie,..,..,..,..,ab
167040,Frank Guthrie Park,park,grand prairie,..,..,..,..,ab
167047,Frank Spicer Park,park,grand prairie,..,119a,..,..,ab
167150,G.A. James Park,park,grand prairie,..,..,..,..,ab
167160,Gabriel Mason Park,park,grand prairie,..,..,..,..,ab
167308,George Repka Park,park,grand prairie,..,..,..,..,ab
167664,Gorman Park,park,grand prairie,..,..,..,..,ab
167686,Graban Park,park,grand prairie,..,..,..,..,ab
167946,Guy Ireland Point,park,grand prairie,..,..,..,..,ab
168100,Harry Schneider Park,park,grand prairie,..,..,..,..,ab
168101,Harry Watcher Park,park,grand prairie,..,..,..,..,ab
168180,Head & Salmond Family Park,park,grand prairie,..,..,..,..,ab
168248,Henderson Park,park,grand prairie,..,..,..,..,ab
168363,Hibbs & Fredette Family Park,park,grand prairie,..,..,..,..,ab
168836,Ira Mclaughlin Park,park,grand prairie,..,..,..,..,ab
