Index,Facility_Name,ODRSF_facility_type,Provider,Street_No,Street_Name,Postal_Code,City,Prov_Terr
176597,Stewart Park,park,chilliwack,..,..,..,..,bc
176691,Strathcona Park,park,chilliwack,..,..,..,..,bc
176834,Sunset View Park,park,chilliwack,..,..,..,..,bc
176875,Swanson Park,park,chilliwack,..,..,..,..,bc
177068,The Landing,park,chilliwack,..,..,..,..,bc
177093,Third Avenue Park,park,chilliwack,..,..,..,..,bc
177107,Thomas Park,park,chilliwack,..,..,..,..,bc
177158,Thornton Creek Natural Area,park,chilliwack,..,..,..,..,bc
177275,Topley Park,park,chilliwack,..,..,..,..,bc
177324,Townsend Park,park,chilliwack,..,..,..,..,bc
177482,Twin Creeks Park,park,chilliwack,..,..,..,..,bc
177687,Uplands Park,park,chilliwack,..,..,..,..,bc
177815,Vedder Park,park,chilliwack,..,..,..,..,bc
177833,Veterans Memorial Park,park,chilliwack,..,..,..,..,bc
177874,Victoria Park,park,chilliwack,..,..,..,..,bc
177982,Walden Park,park,chilliwack,..,..,..,..,bc
177986,Walker Creek Natural Area,park,chilliwack,..,..,..,..,bc
178097,Watson Glen Park,park,chilliwack,..,..,..,..,bc
178100,Watson Park,park,chilliwack,..,..,..,..,bc
178144,Webster Park,park,chilliwack,..,..,..,..,bc
178153,Weeden Park,park,chilliwack,..,..,..,..,bc
178180,Wells Landing Park,park,chilliwack,..,..,..,..,bc
178347,Westview Park,park,chilliwack,..,..,..,..,bc
178593,Wilson Park,park,chilliwack,..,..,..,..,bc
178811,Yarrow Community Park,park,chilliwack,..,..,..,..,bc
178812,Yarrow Pioneer Park,park,chilliwack,..,..,..,..,bc
178813,Yarrow Sportsfield,park,chilliwack,..,..,..,..,bc
