Index,Facility_Name,ODRSF_facility_type,Provider,Street_No,Street_Name,Postal_Code,City,Prov_Terr
62359,Trail - Walker Creek Trail,trail,chilliwack,..,..,..,..,bc
62360,Trail - Walker Creek Trail,trail,chilliwack,..,..,..,..,bc
62361,Trail - Walker Creek Trail,trail,chilliwack,..,..,..,..,bc
62362,Trail - Walker Creek Trail,trail,chilliwack,..,..,..,..,bc
62363,Trail - Walker Creek Trail,trail,chilliwack,..,..,..,..,bc
62364,Trail - Walker Creek Trail,trail,chilliwack,..,..,..,..,bc
62365,Trail - Walker Creek Trail,trail,chilliwack,..,..,..,..,bc
62366,Trail - Walker Creek Trail,trail,chilliwack,..,..,..,..,bc
62367,Trail - Walker Creek Trail,trail,chilliwack,..,..,..,..,bc
62368,Trail - Walker Creek Trail,trail,chilliwack,..,..,..,..,bc
62369,Trail - Walker Creek Trail,trail,chilliwack,..,..,..,..,bc
62370,Trail - Walker Creek Trail,trail,chilliwack,..,..,..,..,bc
62371,Trail - Walker Creek Trail,trail,chilliwack,..,..,..,..,bc
62372,Trail - Walker Creek Trail,trail,chilliwack,..,..,..,..,bc
62373,Trail - Walker Creek Trail,trail,chilliwack,..,..,..,..,bc
62374,Trail - Walker Creek Trail,trail,chilliwack,..,..,..,..,bc
62375,Trail - Walker Creek Trail,trail,chilliwack,..,..,..,..,bc
62376,Trail - Walker Creek Trail,trail,chilliwack,..,..,..,..,bc
62377,Trail - Walker Creek Trail,trail,chilliwack,..,..,..,..,bc
62378,Trail - Walker Creek Trail,trail,chilliwack,..,..,..,..,bc
62379,Trail - Walker Creek Trail,trail,chilliwack,..,..,..,..,bc
62380,Trail - Walker Creek Trail,trail,chilliwack,..,..,..,..,bc
62381,Trail - Walker Creek Trail,trail,chilliwack,..,..,..,..,bc
62382,Trail - Walker Creek Trail,trail,chilliwack,..,..,..,..,bc
62383,Trail - Walker Creek Trail,trail,chilliwack,..,..,..,..,bc
62384,Trail - Walker Creek Trail,trail,chilliwack,..,..,..,..,bc
62385,Trail - Walker Creek Trail,trail,chilliwack,..,..,..,..,bc
62386,Trail - Walker Creek Trail,trail,chilliwack,..,..,..,..,bc
62387,Trail - Walker Creek Trail,trail,chilliwack,..,..,..,..,bc
62388,Trail - Walker Creek Trail,trail,chilliwack,..,..,..,..,bc
62389,Trail - Walker Creek Trail,trail,chilliwack,..,..,..,..,bc
62390,Trail - Walker Creek Trail,trail,chilliwack,..,..,..,..,bc
62391,Trail - Walker Creek Trail,trail,chilliwack,..,..,..,..,bc
62392,Trail - Walker Creek Trail,trail,chilliwack,..,..,..,..,bc
62393,Trail - Walker Creek Trail,trail,chilliwack,..,..,..,..,bc
62394,Trail - Walker Creek Trail,trail,chilliwack,..,..,..,..,bc
62395,Trail - Walker Creek Trail,trail,chilliwack,..,..,..,..,bc
62396,Trail - Walker Creek Trail,trail,chilliwack,..,..,..,..,bc
62397,Trail - Walker Creek Trail,trail,chilliwack,..,..,..,..,bc
62398,Trail - Walker Creek Trail,trail,chilliwack,..,..,..,..,bc
162232,All Sappers Memorial Park,park,chilliwack,..,..,..,..,bc
162234,Allan Creek Park,park,chilliwack,..,..,..,..,bc
162282,Amadis Park,park,chilliwack,..,..,..,..,bc
162417,Apple Tree Park,park,chilliwack,..,..,..,..,bc
162512,Armitage Park,park,chilliwack,..,..,..,..,bc
162592,Ashwell Park,park,chilliwack,..,..,..,..,bc
162597,Aspen Park,park,chilliwack,..,..,..,..,bc
162622,Atchelitz Park,park,chilliwack,..,..,..,..,bc
162735,Balmoral Park,park,chilliwack,..,..,..,..,bc
