Index,Facility_Name,ODRSF_facility_type,Provider,Street_No,Street_Name,Postal_Code,City,Prov_Terr
163218,Bert Brink Wildlife Management Area,park,chilliwack,..,..,..,..,bc
163489,Bole & Fletcher Park,park,chilliwack,..,..,..,..,bc
163517,Bonny Park,park,chilliwack,..,..,..,..,bc
163726,Bridlewood Natural Area,park,chilliwack,..,..,..,..,bc
163834,Browne Creek Wetlands,park,chilliwack,..,..,..,..,bc
164221,Carmel Park,park,chilliwack,..,..,..,..,bc
164263,Carter Park,park,chilliwack,..,..,..,..,bc
164463,Centennial Park,park,chilliwack,..,..,..,..,bc
164478,Central Community Park,park,chilliwack,..,..,..,..,bc
164629,Chartwell Park,park,chilliwack,..,..,..,..,bc
164640,Cheam Centre,park,chilliwack,..,..,..,..,bc
164641,Cheamview Park,park,chilliwack,..,..,..,..,bc
164652,Chehalis Park,park,chilliwack,..,..,..,..,bc
164698,Chilliwack Heritage Park,park,chilliwack,..,..,..,..,bc
164699,Chilliwack Track And Field,park,chilliwack,..,..,..,..,bc
164894,Clover Park,park,chilliwack,..,..,..,..,bc
165012,Community Forest,park,chilliwack,..,..,..,..,bc
165090,Coote & Auburn Park,park,chilliwack,..,..,..,..,bc
165091,Coote Park,park,chilliwack,..,..,..,..,bc
165141,Cornwall Park,park,chilliwack,..,..,..,..,bc
165324,Creekside Park,park,chilliwack,..,..,..,..,bc
165367,Crimson Ridge Park,park,chilliwack,..,..,..,..,bc
165386,Crossing Park,park,chilliwack,..,..,..,..,bc
165432,Cumberland Park,park,chilliwack,..,..,..,..,bc
165564,Davis Park,park,chilliwack,..,..,..,..,bc
166181,Eaton Brook Natural Area,park,chilliwack,..,..,..,..,bc
166218,Eden Park,park,chilliwack,..,..,..,..,bc
166280,Edwards Park,park,chilliwack,..,..,..,..,bc
166408,Emerald Park,park,chilliwack,..,..,..,..,bc
166573,Exhibition Field,park,chilliwack,..,..,..,..,bc
166600,Fairfield Park,park,chilliwack,..,..,..,..,bc
166751,Fern Park,park,chilliwack,..,..,..,..,bc
166780,Fiesta Park,park,chilliwack,..,..,..,..,bc
166923,Forest Gate Park,park,chilliwack,..,..,..,..,bc
167068,Fraser River Ecological Reserve,park,chilliwack,..,..,..,..,bc
167199,Garden Drive Park,park,chilliwack,..,..,..,..,bc
167224,Garrison Woodlot,park,chilliwack,..,..,..,..,bc
167424,Glasgow Park,park,chilliwack,..,..,..,..,bc
167788,Great Blue Heron Nature Reserve,park,chilliwack,..,..,..,..,bc
167816,Greenacres Square,park,chilliwack,..,..,..,..,bc
167933,Guinet Park,park,chilliwack,..,..,..,..,bc
167953,Gwynne Vaughan Park,park,chilliwack,..,..,..,..,bc
168171,Hazel Park,park,chilliwack,..,..,..,..,bc
168388,Higginson Park,park,chilliwack,..,..,..,..,bc
168454,Hill Park,park,chilliwack,..,..,..,..,bc
168479,Hillkeep Regional Park,park,chilliwack,..,..,..,..,bc
168504,Hilton Park,park,chilliwack,..,..,..,..,bc
168590,Hope River Park,park,chilliwack,..,..,..,..,bc
168756,Hymar Park,park,chilliwack,..,..,..,..,bc
