Index,Facility_Name,ODRSF_facility_type,Provider,Street_No,Street_Name,Postal_Code,City,Prov_Terr
168985,James Street Park,park,chilliwack,..,..,..,..,bc
169082,Jinkerson Park,park,chilliwack,..,..,..,..,bc
169206,Johnson Park,park,chilliwack,..,..,..,..,bc
169351,Karson Park,park,chilliwack,..,..,..,..,bc
169356,Katherine Tye Ecological Reserve,park,chilliwack,..,..,..,..,bc
169450,Kensington Park,park,chilliwack,..,..,..,..,bc
169598,Kinsmen Park,park,chilliwack,..,..,..,..,bc
169603,Kinsmen Park On Portage,park,chilliwack,..,..,..,..,bc
170154,Laurelwood Park,park,chilliwack,..,..,..,..,bc
170184,Lawrence Park,park,chilliwack,..,..,..,..,bc
170198,Lazenby Park,park,chilliwack,..,..,..,..,bc
170312,Lexw Qw√≤:M Park,park,chilliwack,..,..,..,..,bc
170391,Lindy's Park,park,chilliwack,..,..,..,..,bc
170463,Little Mountain Park,park,chilliwack,..,..,..,..,bc
170514,Lombardy Park,park,chilliwack,..,..,..,..,bc
170803,Majuba Heritage Park,park,chilliwack,..,..,..,..,bc
170860,Manuel Park,park,chilliwack,..,..,..,..,bc
170883,Maple Park,park,chilliwack,..,..,..,..,bc
170925,Marble Hill Natural Area,park,chilliwack,..,..,..,..,bc
171223,Mccutcheon Park,park,chilliwack,..,..,..,..,bc
171230,Mcdonald Park,park,chilliwack,..,..,..,..,bc
171347,Meadowbrook Park,park,chilliwack,..,..,..,..,bc
171405,Mellard Park,park,chilliwack,..,..,..,..,bc
171670,Mitchell Gardens,park,chilliwack,..,..,..,..,bc
171672,Mitchell Park,park,chilliwack,..,..,..,..,bc
171911,Mount Thom Park,park,chilliwack,..,..,..,..,bc
171936,Mountview Park,park,chilliwack,..,..,..,..,bc
172152,Nixon Road Park,park,chilliwack,..,..,..,..,bc
172414,Nowell Park,park,chilliwack,..,..,..,..,bc
173613,Parker Park,park,chilliwack,..,..,..,..,bc
173712,Paula Park,park,chilliwack,..,..,..,..,bc
173739,Peach Park,park,chilliwack,..,..,..,..,bc
173744,Pearce Park,park,chilliwack,..,..,..,..,bc
173749,Pearson Park,park,chilliwack,..,..,..,..,bc
173963,Pirie Brook Natural Area,park,chilliwack,..,..,..,..,bc
174166,Promontory Road Park,park,chilliwack,..,..,..,..,bc
174167,Promontory West Park,park,chilliwack,..,..,..,..,bc
174766,Rivers Edge Woodlot,park,chilliwack,..,..,..,..,bc
174977,Rosedale Park,park,chilliwack,..,..,..,..,bc
175276,Roy Park,park,chilliwack,..,..,..,..,bc
175368,Ryder Lake Park,park,chilliwack,..,..,..,..,bc
175433,Salish Park,park,chilliwack,..,..,..,..,bc
175436,Salmon Ridge Natural Area,park,chilliwack,..,..,..,..,bc
175515,Sapper Park,park,chilliwack,..,..,..,..,bc
175519,Sardis Park,park,chilliwack,..,..,..,..,bc
175520,Sardis Sports Fields,park,chilliwack,..,..,..,..,bc
175781,Sheffield Dog Off Leash Area,park,chilliwack,..,..,..,..,bc
176012,Skelton Park,park,chilliwack,..,..,..,..,bc
176173,Southdowne Park,park,chilliwack,..,..,..,..,bc
