Index,Facility_Name,ODRSF_facility_type,Provider,Street_No,Street_Name,Postal_Code,City,Prov_Terr
168755,Hyland Creek Park,park,surrey,..,..,..,..,bc
168827,Invergarry Park,park,surrey,..,..,..,..,bc
168834,Iona Park,park,surrey,..,..,..,..,bc
168871,Island - 6324 172A St,park,surrey,..,..,..,..,bc
168872,Island - 6350 172A St,park,surrey,..,..,..,..,bc
168910,J.R. Douglas Park,park,surrey,..,..,..,..,bc
168925,Jack 'N Jill Tot-Lot,park,surrey,..,..,..,..,bc
169063,Jessie Lee Park,park,surrey,..,..,..,..,bc
169090,Joe Brown Park,park,surrey,..,..,..,..,bc
169193,John Tompson Park,park,surrey,..,..,..,..,bc
169216,Johnston Heights Park,park,surrey,..,..,..,..,bc
169334,Kabaddi Park,park,surrey,..,..,..,..,bc
169364,Katzie Park,park,surrey,..,..,..,..,bc
169382,Keery Park,park,surrey,..,..,..,..,bc
169441,Kennedy Park,park,surrey,..,..,..,..,bc
169444,Kennedy Trail Park,park,surrey,..,..,..,..,bc
169481,Kettle Crescent Park,park,surrey,..,..,..,..,bc
169505,Kilkee Drive Park,park,surrey,..,..,..,..,bc
169649,Kiyo Park,park,surrey,..,..,..,..,bc
169913,Kurtenacker Park,park,surrey,..,..,..,..,bc
169916,Kwomais Point Park,park,surrey,..,..,..,..,bc
170121,Laronde Park,park,surrey,..,..,..,..,bc
170139,Latimer Park,park,surrey,..,..,..,..,bc
170408,Lionel Courchene Park,park,surrey,..,..,..,..,bc
170699,M.J. Norris Park,park,surrey,..,..,..,..,bc
170764,Magee Park,park,surrey,..,..,..,..,bc
170867,Maple Green Park,park,surrey,..,..,..,..,bc
170885,Maple Park,park,surrey,..,..,..,..,bc
171262,Mcintyre Park,park,surrey,..,..,..,..,bc
171274,Mckenzie Park,park,surrey,..,..,..,..,bc
171306,Mcleod Park,park,surrey,..,..,..,..,bc
171378,Meagan Anne Macdougall Park,park,surrey,..,..,..,..,bc
171441,Meridian By The Sea Park,park,surrey,..,..,..,..,bc
171443,Meridian Park,park,surrey,..,..,..,..,bc
171718,Moffat Memorial Park,park,surrey,..,..,..,..,bc
171818,Morgan Creek Park,park,surrey,..,..,..,..,bc
171819,Morgan Grove,park,surrey,..,..,..,..,bc
171820,Morgan Heights Linear Park,park,surrey,..,..,..,..,bc
171836,Morningside Park,park,surrey,..,..,..,..,bc
171879,Mound Farm Park,park,surrey,..,..,..,..,bc
171923,Mountain View Park,park,surrey,..,..,..,..,bc
171954,Mud Bay Park,park,surrey,..,..,..,..,bc
172123,Newton Athletic Park,park,surrey,..,..,..,..,bc
172127,Newton Reservoir Park,park,surrey,..,..,..,..,bc
172132,Nichol Estates Park,park,surrey,..,..,..,..,bc
172194,North Creek Park,park,surrey,..,..,..,..,bc
172227,North Point Park,park,surrey,..,..,..,..,bc
172234,North Slope Buffer,park,surrey,..,..,..,..,bc
172236,North Surrey Community Park,park,surrey,..,..,..,..,bc
