Index,Facility_Name,ODRSF_facility_type,Provider,Street_No,Street_Name,Postal_Code,City,Prov_Terr
13965,Newton Athletic Park - Basketball - Half Courts,sports field,surrey,..,..,..,..,bc
13966,Newton Athletic Park - Basketball Courts,sports field,surrey,..,..,..,..,bc
13967,Newton Athletic Park - Tennis Courts,sports field,surrey,..,..,..,..,bc
13968,Newton Athletic Park - Tennis Courts,sports field,surrey,..,..,..,..,bc
13969,Newton Athletic Park - Tennis Courts,sports field,surrey,..,..,..,..,bc
13970,Newton Athletic Park - Tennis Courts,sports field,surrey,..,..,..,..,bc
13971,Newton Athletic Park - Tennis Courts,sports field,surrey,..,..,..,..,bc
13972,Newton Athletic Park - Tennis Courts,sports field,surrey,..,..,..,..,bc
13973,Newton Athletic Park - Tennis Courts,sports field,surrey,..,..,..,..,bc
13974,Newton Athletic Park - Tennis Courts,sports field,surrey,..,..,..,..,bc
13975,Newton Athletic Park - Volleyball Courts,sports field,surrey,..,..,..,..,bc
13976,Newton Athletic Park - Volleyball Courts,sports field,surrey,..,..,..,..,bc
13977,Newton Reservoir Park - Basketball Courts,sports field,surrey,..,..,..,..,bc
13987,Nico Wynd Golf Course,sports field,surrey,..,..,..,..,bc
14122,Ola Fit For Life,community centre,surrey,5738,175,V3S 5T7,..,bc
14144,Open Door Centre For Healing Arts,community centre,surrey,14885,60,V3S 1R8,..,bc
14154,Ora Yoga And Fitness,community centre,surrey,15288,54a,V3S 6T4,..,bc
14156,Orange Theory Fitness,community centre,surrey,15355,24,V3X 1G1,..,bc
14157,Orangetheory Fitness,community centre,surrey,12101,72,V3W 2M1,..,bc
14250,Oxygen Yoga & Fitness,miscellaneous,surrey,17449,10,V3S 2X6,..,bc
14251,Oxygen Yoga & Fitness Fraser Heights Surrey Inc,gym,surrey,15989,108,V4N 1J6,..,bc
14427,Park_Playgrounds,sports field,surrey,..,..,..,..,bc
14428,Park_Sports_Fields,sports field,surrey,..,..,..,..,bc
14429,Park_Sports_Fields,sports field,surrey,..,..,..,..,bc
14430,Park_Sports_Fields,sports field,surrey,..,..,..,..,bc
14431,Park_Sports_Fields,sports field,surrey,..,..,..,..,bc
14432,Park_Sports_Fields,sports field,surrey,..,..,..,..,bc
14433,Park_Sports_Fields,sports field,surrey,..,..,..,..,bc
14434,Park_Sports_Fields,sports field,surrey,..,..,..,..,bc
14435,Park_Sports_Fields,sports field,surrey,..,..,..,..,bc
14436,Park_Sports_Fields,sports field,surrey,..,..,..,..,bc
14437,Park_Sports_Fields,sports field,surrey,..,..,..,..,bc
14438,Park_Sports_Fields,sports field,surrey,..,..,..,..,bc
14439,Park_Sports_Fields,sports field,surrey,..,..,..,..,bc
14440,Park_Sports_Fields,sports field,surrey,..,..,..,..,bc
14441,Park_Sports_Fields,sports field,surrey,..,..,..,..,bc
14442,Park_Sports_Fields,sports field,surrey,..,..,..,..,bc
14443,Park_Sports_Fields,sports field,surrey,..,..,..,..,bc
14444,Park_Sports_Fields,sports field,surrey,..,..,..,..,bc
14445,Park_Sports_Fields,sports field,surrey,..,..,..,..,bc
14446,Park_Sports_Fields,sports field,surrey,..,..,..,..,bc
14447,Park_Sports_Fields,sports field,surrey,..,..,..,..,bc
14448,Park_Sports_Fields,sports field,surrey,..,..,..,..,bc
14449,Park_Sports_Fields,sports field,surrey,..,..,..,..,bc
14450,Park_Sports_Fields,sports field,surrey,..,..,..,..,bc
14451,Park_Sports_Fields,sports field,surrey,..,..,..,..,bc
14452,Park_Sports_Fields,sports field,surrey,..,..,..,..,bc
14453,Park_Sports_Fields,sports field,surrey,..,..,..,..,bc
14454,Park_Sports_Fields,sports field,surrey,..,..,..,..,bc
