Index,Facility_Name,ODRSF_facility_type,Provider,Street_No,Street_Name,Postal_Code,City,Prov_Terr
70028,Yorkson Creek Trail And Greenway,trail,township of langley,..,..,..,..,bc
70029,Yorkson Creek Trail And Greenway,trail,township of langley,..,..,..,..,bc
70030,Yorkson Creek Trail And Greenway,trail,township of langley,..,..,..,..,bc
70031,Yorkson Creek Trail And Greenway,trail,township of langley,..,..,..,..,bc
70032,Yorkson Creek Trail And Greenway,trail,township of langley,..,..,..,..,bc
70033,Yorkson Creek Trail And Greenway,trail,township of langley,..,..,..,..,bc
70034,Yorkson Creek Trail And Greenway,trail,township of langley,..,..,..,..,bc
70035,Yorkson Creek Trail And Greenway,trail,township of langley,..,..,..,..,bc
70036,Yorkson Creek Trail And Greenway,trail,township of langley,..,..,..,..,bc
70050,Ziegler Trail,trail,township of langley,..,..,..,..,bc
162167,Aldergrove Athletic Park,park,township of langley,..,..,..,aldergrove,bc
162180,Aldergrove Regional Park,park,township of langley,..,..,..,..,bc
162181,Aldergrove Rotary Park,park,township of langley,..,..,..,aldergrove,bc
162192,Alex Hope Park,park,township of langley,..,..,..,walnut grove,bc
162550,Arthur Rose Park,park,township of langley,..,..,..,murrayville,bc
163070,Bell Park,park,township of langley,..,..,..,brookswood,bc
163460,Bluff Park,park,township of langley,..,..,..,..,bc
163617,Brae Island Regional Park,park,township of langley,..,..,..,fort langley,bc
163823,Brookswood Park,park,township of langley,..,..,..,brookswood,bc
163824,Brookswood Skateboard Park,park,township of langley,..,..,..,brookswood,bc
163832,Brown Park,park,township of langley,..,..,..,..,bc
164084,Campbell Valley Regional Park,park,township of langley,..,..,..,..,bc
165321,Creekside Park,park,township of langley,..,..,..,aldergrove,bc
165669,Denny Ross Memorial Park,park,township of langley,..,..,..,murrayville,bc
165677,Derby Hills Park,park,township of langley,..,..,..,walnut grove,bc
165680,Derby Reach Regional Park,park,township of langley,..,..,..,..,bc
165763,Discovery Towne Park,park,township of langley,..,..,..,walnut grove,bc
165789,Dog Off Leash Park,park,township of langley,..,..,..,walnut grove,bc
165886,Dorothy Peacock Park,park,township of langley,..,..,..,walnut grove,bc
166124,East Brookswood Park,park,township of langley,..,..,..,brookswood,bc
166147,East Munday Park,park,township of langley,..,..,..,walnut grove,bc
166350,Ellens Park,park,township of langley,..,..,..,willoughby,bc
166854,Five Corners Park,park,township of langley,..,..,..,murrayville,bc
166941,Forest Hills Park,park,township of langley,..,..,..,walnut grove,bc
166943,Forest Knolls Park,park,township of langley,..,..,..,..,bc
166981,Fort Langley Community Park,park,township of langley,..,..,..,fort langley,bc
167290,George E Ross Park,park,township of langley,..,..,..,aldergrove,bc
167478,Glen Valley Regional Park,park,township of langley,..,..,..,..,bc
167542,Gloucester Park,park,township of langley,..,..,..,gloucester,bc
168398,High Point Park,park,township of langley,..,..,..,..,bc
168560,Holmstead Park,park,township of langley,..,..,..,walnut grove,bc
168648,Hudson Bay Park,park,township of langley,..,..,..,fort langley,bc
168934,Jackman Wetlands Park,park,township of langley,..,..,..,..,bc
168958,James Anderson Park,park,township of langley,..,..,..,willoughby,bc
168965,James Hill Park,park,township of langley,..,..,..,murrayville,bc
168968,James Kennedy Park,park,township of langley,..,..,..,walnut grove,bc
169287,Jubilee Park,park,township of langley,..,..,..,murrayville,bc
169393,Kelly Lake Trail Park,park,township of langley,..,..,..,..,bc
169586,Kinsmen Heritage Park,park,township of langley,..,..,..,aldergrove,bc
