Index,Facility_Name,ODRSF_facility_type,Provider,Street_No,Street_Name,Postal_Code,City,Prov_Terr
27549,Fraser Foreshore Trail,trail,burnaby,..,..,..,..,bc
27550,Fraser Foreshore Trail,trail,burnaby,..,..,..,..,bc
27551,Fraser Foreshore Trail,trail,burnaby,..,..,..,..,bc
27552,Fraser Foreshore Trail,trail,burnaby,..,..,..,..,bc
27553,Fraser Foreshore Trail,trail,burnaby,..,..,..,..,bc
27554,Fraser Foreshore Trail,trail,burnaby,..,..,..,..,bc
27555,Fraser Foreshore Trail,trail,burnaby,..,..,..,..,bc
27556,Fraser Foreshore Trail,trail,burnaby,..,..,..,..,bc
27557,Fraser Foreshore Trail,trail,burnaby,..,..,..,..,bc
27558,Fraser Foreshore Trail,trail,burnaby,..,..,..,..,bc
27559,Fraser Foreshore Trail,trail,burnaby,..,..,..,..,bc
27560,Fraser Foreshore Trail,trail,burnaby,..,..,..,..,bc
27561,Fraser Foreshore Trail,trail,burnaby,..,..,..,..,bc
27562,Fraser Foreshore Trail,trail,burnaby,..,..,..,..,bc
27563,Fraser Foreshore Trail,trail,burnaby,..,..,..,..,bc
27564,Fraser Foreshore Trail,trail,burnaby,..,..,..,..,bc
27696,Function Junction Trail,trail,burnaby,..,..,..,..,bc
27697,Function Junction Trail,trail,burnaby,..,..,..,..,bc
27897,Gear Jammer Trail,trail,burnaby,..,..,..,..,bc
27898,Gear Jammer Trail,trail,burnaby,..,..,..,..,bc
27899,Gear Jammer Trail,trail,burnaby,..,..,..,..,bc
28141,Gnome's Home Trail,trail,burnaby,..,..,..,..,bc
28880,Hang Your Hat,trail,burnaby,..,..,..,..,bc
28881,Hang Your Hat,trail,burnaby,..,..,..,..,bc
28882,Hang Your Hat,trail,burnaby,..,..,..,..,bc
28883,Hang Your Hat,trail,burnaby,..,..,..,..,bc
28884,Hang Your Hat,trail,burnaby,..,..,..,..,bc
28885,Hang Your Hat,trail,burnaby,..,..,..,..,bc
30864,Jim's Jungle Trail,trail,burnaby,..,..,..,..,bc
30865,Jim's Jungle Trail,trail,burnaby,..,..,..,..,bc
36113,Lower Snake Trail,trail,burnaby,..,..,..,..,bc
43518,Mel's Trail,trail,burnaby,..,..,..,..,bc
43519,Mel's Trail,trail,burnaby,..,..,..,..,bc
43520,Mel's Trail,trail,burnaby,..,..,..,..,bc
43521,Mel's Trail,trail,burnaby,..,..,..,..,bc
43522,Mel's Trail,trail,burnaby,..,..,..,..,bc
43523,Mel's Trail,trail,burnaby,..,..,..,..,bc
43650,Midtown Bikeway,trail,burnaby,..,..,..,..,bc
44094,Mission Avenue Walkway,trail,burnaby,..,..,..,..,bc
44095,Mission Avenue Walkway,trail,burnaby,..,..,..,..,bc
44494,Mountain Air Trail,trail,burnaby,..,..,..,..,bc
44495,Mountain Air Trail,trail,burnaby,..,..,..,..,bc
44496,Mountain Air Trail,trail,burnaby,..,..,..,..,bc
44776,Nature Trail,trail,burnaby,..,..,..,..,bc
45607,Nicole's Trail,trail,burnaby,..,..,..,..,bc
48320,North Road Trail,trail,burnaby,..,..,..,..,bc
48321,North Road Trail,trail,burnaby,..,..,..,..,bc
48322,North Road Trail,trail,burnaby,..,..,..,..,bc
48323,North Road Trail,trail,burnaby,..,..,..,..,bc
