Index,Facility_Name,ODRSF_facility_type,Provider,Street_No,Street_Name,Postal_Code,City,Prov_Terr
161358,..,trail,white rock,..,..,..,..,bc
161359,..,trail,white rock,..,..,..,..,bc
161360,..,trail,white rock,..,..,..,..,bc
161361,..,trail,white rock,..,..,..,..,bc
161362,..,trail,white rock,..,..,..,..,bc
161363,..,trail,white rock,..,..,..,..,bc
161364,..,trail,white rock,..,..,..,..,bc
161365,..,trail,white rock,..,..,..,..,bc
161366,..,trail,white rock,..,..,..,..,bc
161367,..,trail,white rock,..,..,..,..,bc
161368,..,trail,white rock,..,..,..,..,bc
161369,..,trail,white rock,..,..,..,..,bc
161370,..,trail,white rock,..,..,..,..,bc
161371,..,trail,white rock,..,..,..,..,bc
161372,..,trail,white rock,..,..,..,..,bc
161373,..,trail,white rock,..,..,..,..,bc
161374,..,trail,white rock,..,..,..,..,bc
161375,..,trail,white rock,..,..,..,..,bc
161376,..,trail,white rock,..,..,..,..,bc
161377,..,trail,white rock,..,..,..,..,bc
161378,..,trail,white rock,..,..,..,..,bc
161379,..,trail,white rock,..,..,..,..,bc
161380,..,trail,white rock,..,..,..,..,bc
161381,..,trail,white rock,..,..,..,..,bc
161382,..,trail,white rock,..,..,..,..,bc
162786,Barge Park,park,white rock,13689,malabar,..,..,bc
162897,Bayview Park,park,white rock,14568,marine,..,..,bc
163191,Bergstrom Entrance Park,park,white rock,13600,marine,..,..,bc
163870,Bryant Park,park,white rock,..,15131thrift,..,..,bc
164469,Centennial Park,park,white rock,14600,bluff,..,..,bc
164789,Civic Centre,park,white rock,15322,buena vista,..,..,bc
164941,Coldicutt Park,park,white rock,14064,marine,..,..,bc
165539,Davey Park,park,white rock,1131,finlay,..,..,bc
166411,Emerson Park,park,white rock,15707,columbia,..,..,bc
167168,Gage Park,park,white rock,15100,columbia,..,..,bc
167553,Goggs Park,park,white rock,15497,goggs,..,..,bc
168520,Hodgson Park,park,white rock,15050,bluff,..,..,bc
168656,Hughes Park,park,white rock,14785,marine,..,..,bc
170610,Lower Finlay Park,park,white rock,951,finlay,..,..,bc
170713,Maccaud Park,park,white rock,1475,kent,..,..,bc
170970,Marine Dr Linear Park,park,white rock,..,marine,..,..,bc
171425,Memorial Park,park,white rock,15000,marine,..,..,bc
173727,Peace Arch Elementary Park,park,white rock,1319,stevens,..,..,bc
175039,Rotary Park,park,white rock,15479,buena vista,..,..,bc
175347,Ruth Johnston,park,white rock,14600,bluff,..,..,bc
175507,Sanford Park,park,white rock,14925,prospect,..,..,bc
176528,Stager Park,park,white rock,15205,columbia,..,..,bc
177307,Totem Site,park,white rock,15400,marine,..,..,bc
