Index,Facility_Name,ODRSF_facility_type,Provider,Street_No,Street_Name,Postal_Code,City,Prov_Terr
164268,Cartwright Lookout,park,surrey,..,..,..,..,bc
164366,Cedar Greens Park,park,surrey,..,..,..,..,bc
164371,Cedar Grove Park,park,surrey,..,..,..,..,bc
164375,Cedar Hills Park,park,surrey,..,..,..,..,bc
164567,Chantrell Creek Park,park,surrey,..,..,..,..,bc
164568,Chantrell Park,park,surrey,..,..,..,..,bc
164602,Charles Richardson Nature Reserve,park,surrey,..,..,..,..,bc
164700,Chimney Heights Park,park,surrey,..,..,..,..,bc
164701,Chimney Hill Park,park,surrey,..,..,..,..,bc
164742,Christopherson Steps - 120E,park,surrey,..,..,..,..,bc
164761,Churchland Park,park,surrey,..,..,..,..,bc
164839,Claude Harvie Park,park,surrey,..,..,..,..,bc
164849,Clayton Dog-Off-Leash Park,park,surrey,..,..,..,..,bc
164850,Clayton Hill Park,park,surrey,..,..,..,..,bc
164851,Clayton Park,park,surrey,..,..,..,..,bc
164897,Clover Ridge Berm,park,surrey,..,..,..,..,bc
164898,Clover Ridge Park,park,surrey,..,..,..,..,bc
164900,Cloverdale Athletic Park,park,surrey,..,..,..,..,bc
164901,Cloverdale Ball Park,park,surrey,..,..,..,..,bc
164902,Cloverdale Easement,park,surrey,..,..,..,..,bc
164903,Cloverdale Heights Park,park,surrey,..,..,..,..,bc
164920,Coast Meridian Park,park,surrey,..,..,..,..,bc
164945,Colebrook Park,park,surrey,..,..,..,..,bc
165165,Corrigan Park,park,surrey,..,..,..,..,bc
165174,Cottontail Tot-Lot,park,surrey,..,..,..,..,bc
165179,Cottonwood Park,park,surrey,..,..,..,..,bc
165181,Cougar Creek Park,park,surrey,..,..,..,..,bc
165272,Coyote Creek Park,park,surrey,..,..,..,..,bc
165275,Coyote Springs Park,park,surrey,..,..,..,..,bc
165333,Crescent Beach,park,surrey,..,..,..,..,bc
165340,Crescent Park,park,surrey,..,..,..,..,bc
165526,Darts Hill Garden Park,park,surrey,..,..,..,..,bc
165558,Davidson Park,park,surrey,..,..,..,..,bc
165640,Delta View Park,park,surrey,..,..,..,..,bc
165794,Dogwood Park,park,surrey,..,..,..,..,bc
165811,Dominion Park,park,surrey,..,..,..,..,bc
165816,Don Christian Park,park,surrey,..,..,..,..,bc
165817,Don Christian Park / Cloverdale Youth Centre,park,surrey,..,..,..,..,bc
165902,Douglas Park,park,surrey,..,..,..,..,bc
166007,Dufferin Park,park,surrey,..,..,..,..,bc
166067,Dunsmuir Farm,park,surrey,..,..,..,..,bc
166152,East View Park,park,surrey,..,..,..,..,bc
166153,East View Trail Park,park,surrey,..,..,..,..,bc
166246,Edgewood Park,park,surrey,..,..,..,..,bc
166323,Elgin Estates Park,park,surrey,..,..,..,..,bc
166324,Elgin Heritage Park,park,surrey,..,..,..,..,bc
166325,Elgin Heritage Park / Stewart Farm / Wards Marina,park,surrey,..,..,..,..,bc
166349,Ellendale Park,park,surrey,..,..,..,..,bc
166445,Enver Creek Park,park,surrey,..,..,..,..,bc
