Index,Facility_Name,ODRSF_facility_type,Provider,Street_No,Street_Name,Postal_Code,City,Prov_Terr
176118,South Meridian Park,park,surrey,..,..,..,..,bc
176136,South Surrey Athletic Park,park,surrey,..,..,..,..,bc
176181,Southmere Village Park,park,surrey,..,..,..,..,bc
176284,Springwood Forest Park,park,surrey,..,..,..,..,bc
176291,Spruce Park,park,surrey,..,..,..,..,bc
176559,Starr Park,park,surrey,..,..,..,..,bc
176699,Strawberry Hill Park,park,surrey,..,..,..,..,bc
176737,Sullivan Elementary School Park,park,surrey,..,..,..,..,bc
176738,Sullivan Heights Park,park,surrey,..,..,..,..,bc
176739,Sullivan Park,park,surrey,..,..,..,..,bc
176758,Summerhill Park,park,surrey,..,..,..,..,bc
176768,Summerwynd Park,park,surrey,..,..,..,..,bc
176807,Sunnyside Acres Urban Forest Park,park,surrey,..,..,..,..,bc
176810,Sunnyside Lawn Cemetery,park,surrey,..,..,..,..,bc
176812,Sunnyside Park,park,surrey,..,..,..,..,bc
176825,Sunrise Ridge Park,park,surrey,..,..,..,..,bc
176838,Surrey Bend,park,surrey,..,..,..,..,bc
176839,Surrey Lake,park,surrey,..,..,..,..,bc
176840,Surrey Nature Centre At Green Timbers Park,park,surrey,..,..,..,..,bc
176842,Surrey Public Wharf,park,surrey,..,..,..,..,bc
176920,T.E. Scott Park,park,surrey,..,..,..,..,bc
176944,Tamanawis Park,park,surrey,..,..,..,..,bc
176954,Tannery Park,park,surrey,..,..,..,..,bc
177062,The Glades,park,surrey,..,..,..,..,bc
177215,Todd Crescent Park,park,surrey,..,..,..,..,bc
177226,Tom Binnie Park,park,surrey,..,..,..,..,bc
177231,Tom Hopkins Ravine Park,park,surrey,..,..,..,..,bc
177237,Tom Thumb Tot-Lot,park,surrey,..,..,..,..,bc
177496,Tynehead Park,park,surrey,..,..,..,..,bc
177680,Unwin Park,park,surrey,..,..,..,..,bc
177876,Victoria Park,park,surrey,..,..,..,..,bc
177974,Wade Park,park,surrey,..,..,..,..,bc
178015,Walnut Park,park,surrey,..,..,..,..,bc
178046,Ware Park,park,surrey,..,..,..,..,bc
178101,Watson Park,park,surrey,..,..,..,..,bc
178216,West Fraser Heights Park,park,surrey,..,..,..,..,bc
178235,West Newton Community Park,park,surrey,..,..,..,..,bc
178263,West Village Park,park,surrey,..,..,..,..,bc
178375,Whalley Athletic Park,park,surrey,..,..,..,..,bc
178376,Whalley Reservoir Park,park,surrey,..,..,..,..,bc
178459,Wildwood Park,park,surrey,..,..,..,..,bc
178482,William Beagle Park,park,surrey,..,..,..,..,bc
178523,William Watson Park,park,surrey,..,..,..,..,bc
178575,Wills Brook Park,park,surrey,..,..,..,..,bc
178660,Winter Crescent Park,park,surrey,..,..,..,..,bc
178740,Woodland Park,park,surrey,..,..,..,..,bc
178771,Woodward Hill Park,park,surrey,..,..,..,..,bc
178787,Wrayton Park,park,surrey,..,..,..,..,bc
183040,..,park,surrey,..,..,..,..,bc
