Index,Facility_Name,ODRSF_facility_type,Provider,Street_No,Street_Name,Postal_Code,City,Prov_Terr
172422,Oak Meadows Park,park,surrey,..,..,..,..,bc
172475,Ocean Cliff Park,park,surrey,..,..,..,..,bc
172476,Ocean Estates Park,park,surrey,..,..,..,..,bc
172477,Ocean Park Terrace,park,surrey,..,..,..,..,bc
172546,Oliver Park,park,surrey,..,..,..,..,bc
172598,Orchard Grove Park,park,surrey,..,..,..,..,bc
172671,Owl Park,park,surrey,..,..,..,..,bc
172738,Panorama Heights Park,park,surrey,..,..,..,..,bc
172740,Panorama Park,park,surrey,..,..,..,..,bc
172743,Panorama Park / Firehall #11,park,surrey,..,..,..,..,bc
172744,Panorama Village Park,park,surrey,..,..,..,..,bc
173662,Parkwood Village Park,park,surrey,..,..,..,..,bc
173728,Peace Arch Park,park,surrey,..,..,..,..,bc
173826,Peter Pan Park,park,surrey,..,..,..,..,bc
173856,Pickard Park,park,surrey,..,..,..,..,bc
173949,Pioneer Park,park,surrey,..,..,..,..,bc
174039,Poplar Park,park,surrey,..,..,..,..,bc
174051,Port Kells Community Hall,park,surrey,..,..,..,..,bc
174052,Port Kells Park,park,surrey,..,..,..,..,bc
174110,Price Creek Park,park,surrey,..,..,..,..,bc
174143,Princess Margaret Park,park,surrey,..,..,..,..,bc
174186,Provinceton Park,park,surrey,..,..,..,..,bc
174199,Puss In Boots Park,park,surrey,..,..,..,..,bc
174235,Queen Elizabeth Meadows Park,park,surrey,..,..,..,..,bc
174242,Queen Mary Park,park,surrey,..,..,..,..,bc
174284,R.A. Nicholson Park,park,surrey,..,..,..,..,bc
174410,Ravine Park,park,surrey,..,..,..,..,bc
174494,Redwood Park,park,surrey,..,..,..,..,bc
174638,Ridgeview Park,park,surrey,..,..,..,..,bc
174782,Riverside Park,park,surrey,..,..,..,..,bc
174851,Robertson Drive Park,park,surrey,..,..,..,..,bc
174857,Robin Park,park,surrey,..,..,..,..,bc
174867,Robson Park,park,surrey,..,..,..,..,bc
174869,Robson Ravine,park,surrey,..,..,..,..,bc
174982,Rosemary Heights Park,park,surrey,..,..,..,..,bc
174984,Rosemary Wynde,park,surrey,..,..,..,..,bc
175289,Royal Heights Park,park,surrey,..,..,..,..,bc
175291,Royal Kwantlen Park,park,surrey,..,..,..,..,bc
175673,Semiahmoo Trail - 103B,park,surrey,..,..,..,..,bc
175674,Semiahmoo Trail - 103C,park,surrey,..,..,..,..,bc
175675,Semiahmoo Trail - 113B,park,surrey,..,..,..,..,bc
175676,Semiahmoo Trail - 123A,park,surrey,..,..,..,..,bc
175677,Semiahmoo Trail - 123E,park,surrey,..,..,..,..,bc
175678,Semiahmoo Trail Park,park,surrey,..,..,..,..,bc
175685,Senator Reid Park,park,surrey,..,..,..,..,bc
175695,Sequoia Ridge Park,park,surrey,..,..,..,..,bc
175703,Serpentine Headwaters Park,park,surrey,..,..,..,..,bc
175704,Serpentine Heights Park,park,surrey,..,..,..,..,bc
175750,Shannon Hill Park,park,surrey,..,..,..,..,bc
