Index,Facility_Name,ODRSF_facility_type,Provider,Street_No,Street_Name,Postal_Code,City,Prov_Terr
5317,Sandcastle Fitness Club,gym,surrey,1938,152,V4A 4N6,..,bc
5364,Semiahmoo Athletic Club Ltd,gym,surrey,1990,152,V4A 4N6,..,bc
5368,"Senior's Wellness Park; Francis Park, 15951 83 Ave",park,surrey,15951,83,..,..,bc
5388,Shannon Hall,community centre,surrey,6050,176,..,..,bc
5419,She's Fit Health Club Langley Ltd,gym,surrey,6039,196,V3S 7X4,..,bc
5420,She's Fit Health Club Surrey Ltd,gym,surrey,15355,fraser,V3R 3P3,..,bc
5478,"Skate Park (Chuck Bailey); Tom Binnie Park (Olympic Venue Site), 10665 City Parkway",skate park,surrey,10665,city,..,..,bc
5479,"Skate Park; Bear Creek Youth Park, 8400 King George Blvd",skate park,surrey,8400,king george,..,..,bc
5481,"Skate Park; Fraser Heights Park, 10588 160 St",skate park,surrey,10588,160,..,..,bc
5482,"Skate Park; Guildford Recreation Centre & Library Grounds, 15101 105 Ave",skate park,surrey,15101,105,..,..,bc
5483,"Skate Park; Royal Kwantlen Park, 13035 104 Ave",skate park,surrey,13035,104,..,..,bc
5484,"Skate Park; South Surrey Athletic Park, 1925 148 St",skate park,surrey,1925,148,..,..,bc
5485,"Skate Park; Surrey Sport & Leisure Complex Grounds, 16555 Fraser Hwy",skate park,surrey,16555,fraser,..,..,bc
5661,South Surrey Ice Arena,arena,surrey,..,..,..,..,bc
5662,South Surrey Indoor Pool,pool,surrey,..,..,..,..,bc
5663,South Surrey Rotary Fieldhouse,community centre,surrey,2197,148,..,..,bc
5679,Spark Fitness & Red Tiger Martial Arts,gym,surrey,17610,65a,V3S 5N4,..,bc
5847,Splitz Gymnastics Centres Ltd,gym,surrey,17533,64,V3S 1Y8,..,bc
5848,"Sport Court; Dufferin Park,17375 2 Ave",park,surrey,17375,2,..,..,bc
5964,Steve Nash Sports Club,gym,surrey,13821,103,V3T 5B5,..,bc
6028,Surrey Athletics,gym,surrey,14640,64,V3S 1X7,..,bc
6029,Surrey Sport And Leisure Complex Arena,arena,surrey,..,..,..,..,bc
6030,Surrey Sport And Leisure Complex Indoor Pool,pool,surrey,..,..,..,..,bc
6136,"Track; North Surrey Community Park, 15848 97A Ave",park,surrey,15848,97a,..,..,bc
6395,Ward's Marina,marina,surrey,..,..,..,..,bc
6423,Wayland Sports Surrey Ltd,gym,surrey,13260,78,V3W 0H6,..,bc
6536,White Rock Gymnastics & Diving Training Academy,gym,surrey,15272,croydon,V3S 0Z5,..,bc
6808,(Crossfit Renegade) Renegade Athletics,community centre,surrey,6468,king george,V3W 4Z3,..,bc
6809,"1 Practice Tennis Half Court & Wall #2; Clayton Park, 18513 70 Ave",sports field,surrey,18513,70,..,..,bc
6810,"1 Practice Tennis Half Court & Wall #2; Fleetwood Park, 15802 80 Ave",sports field,surrey,15802,80,..,..,bc
6811,"1 Practice Tennis Half Court & Wall #2; Kennedy Park, 9058 Holt Rd",sports field,surrey,9058,holt,..,..,bc
6812,"1 Practice Tennis Half Court & Wall #3; Fraser Heights Park, 10588 160 St",sports field,surrey,10588,160,..,..,bc
6813,"1 Tennis Court; Bridgeview Park, 11475 126A St",sports field,surrey,11475,126a,..,..,bc
6814,"1 Tennis Court; Cloverdale Heights Park, 5880 Aberdeen St",sports field,surrey,5880,aberdeen,..,..,bc
6815,"1 Tennis Court; Douglas Park, 15044 99A Ave",sports field,surrey,15044,99a,..,..,bc
6816,110A - Games Court - Basketball Courts,sports field,surrey,..,..,..,..,bc
6874,"2 Practice Tennis Half Courts & Wall #2; Maple Green Park, 8959 150 St",sports field,surrey,8959,150,..,..,bc
6875,"2 Practice Tennis Half Courts & Wall #3; Crescent Park School Grounds, 2440 128 St",sports field,surrey,2440,128,..,..,bc
6876,"2 Tennis Courts #1; Crescent Park School Grounds, 2440 128 St",sports field,surrey,2440,128,..,..,bc
6877,"2 Tennis Courts #1; Fleetwood Park, 15802 80 Ave",sports field,surrey,15802,80,..,..,bc
6878,"2 Tennis Courts #1; Fraser Heights Park, 10588 160 St",sports field,surrey,10588,160,..,..,bc
6879,"2 Tennis Courts #1; Maple Green Park, 8959 150 St",sports field,surrey,8959,150,..,..,bc
6880,"2 Tennis Courts #2; Crescent Park School Grounds, 2440 128 St",sports field,surrey,2440,128,..,..,bc
6881,"2 Tennis Courts; Alderwood Park, 1761 Lilac Dr",sports field,surrey,1761,lilac,..,..,bc
6882,"2 Tennis Courts; Bell Park, 1782 136 St",sports field,surrey,1782,136,..,..,bc
6883,"2 Tennis Courts; Bob Rutledge Park, 5424 - 148 St",sports field,surrey,5424,148,..,..,bc
6884,"2 Tennis Courts; Clayton Park, 18513 70 Ave",sports field,surrey,18513,70,..,..,bc
6885,"2 Tennis Courts; Goldstone Park, 5850 146 St",sports field,surrey,5850,146,..,..,bc
6886,"2 Tennis Courts; Greenaway Park, 17905 60 Ave",sports field,surrey,17905,60,..,..,bc
