Index,Facility_Name,ODRSF_facility_type,Provider,Street_No,Street_Name,Postal_Code,City,Prov_Terr
163939,Burrard View Park,park,vancouver,650,penticton,..,..,bc
164029,Callister Park,park,vancouver,2875,oxford,..,..,bc
164039,Cambie Park,park,vancouver,500,54th,..,..,bc
164048,Cambridge Park,park,vancouver,2099,wall,..,..,bc
164161,Captain Cook Park,park,vancouver,3398,54th,..,..,bc
164171,Cardero Park,park,vancouver,1601,bayshore,..,..,bc
164184,Cariboo Park,park,vancouver,3450,29th,..,..,bc
164195,Carleton Park,park,vancouver,3450,price,..,..,bc
164223,Carnarvon Park,park,vancouver,2995,19th,..,..,bc
164231,Carolina Park,park,vancouver,2100,carolina,..,..,bc
164267,Cartier Park,park,vancouver,390,36th,..,..,bc
164359,Cedar Cottage Park,park,vancouver,2650,clark,..,..,bc
164529,Chaldecott Park,park,vancouver,4175,wallace,..,..,bc
164544,Champlain Heights Park,park,vancouver,3351,maquinna,..,..,bc
164599,Charles Park,park,vancouver,3400,charles,..,..,bc
164702,China Creek North Park,park,vancouver,1001,7th,..,..,bc
164703,China Creek South Park,park,vancouver,1255,10th,..,..,bc
164724,Choklit Park,park,vancouver,..,..,..,..,bc
164822,Clark Park,park,vancouver,1500,14th,..,..,bc
164885,Clinton Park,park,vancouver,2690,grant,..,..,bc
164918,Coal Harbour Park,park,vancouver,500,broughton,..,..,bc
164965,Collingwood Park,park,vancouver,5275,mckinnon,..,..,bc
164996,Columbia Park,park,vancouver,5908,alberta,..,..,bc
165062,Connaught Park,park,vancouver,2390,10th,..,..,bc
165317,Creekside - Cc Park,park,vancouver,1,athletes,..,..,bc
165318,Creekside - Science World Park,park,vancouver,1455,quebec,..,..,bc
165328,Creekway Park,park,vancouver,2957,bridgeway,..,..,bc
165548,David Lam Park,park,vancouver,1300,pacific,..,..,bc
165613,Deering Island Park,park,vancouver,3530,deering island,..,..,bc
165622,Delamont Park,park,vancouver,2091,7th,..,..,bc
165723,Devonshire Park,park,vancouver,1250,devonshire,..,..,bc
165904,Douglas Park,park,vancouver,801,22nd,..,..,bc
166114,Earles Park,park,vancouver,2801,41st,..,..,bc
166185,Ebisu Park,park,vancouver,8810,olser,..,..,bc
166186,Eburne Park,park,vancouver,950,71st,..,..,bc
166366,Elm Park,park,vancouver,5800,elm,..,..,bc
166434,English Bay Beach Park,park,vancouver,1700,beach,..,..,bc
166989,Foster Park,park,vancouver,5501,aberdeen,..,..,bc
167075,Fraserview Park,park,vancouver,7595,victoria,..,..,bc
167202,Garden Park,park,vancouver,1851,garden,..,..,bc
167243,Gaston Park,park,vancouver,3470,crowley,..,..,bc
167268,General Brock Park,park,vancouver,2301,brock,..,..,bc
167317,George Wainborn Park,park,vancouver,450,beach,..,..,bc
167413,Gladstone-Riverside Park,park,vancouver,2500,kent,..,..,bc
167470,Glen Park,park,vancouver,3999,glen,..,..,bc
167647,Gordon Park,park,vancouver,6675,commercial,..,..,bc
167744,Grandview Park,park,vancouver,1657,charles,..,..,bc
167765,Granville Island Water Park,park,vancouver,..,..,..,..,bc
167766,Granville Loop Park,park,vancouver,1435,5th,..,..,bc
