Index,Facility_Name,ODRSF_facility_type,Provider,Street_No,Street_Name,Postal_Code,City,Prov_Terr
17391,Sullivan Park - Tennis Courts,sports field,surrey,..,..,..,..,bc
17396,Summerhill Park - Basketball - Half Courts,sports field,surrey,..,..,..,..,bc
17425,Sunnyside Park - Tennis Courts,sports field,surrey,..,..,..,..,bc
17426,Sunnyside Park - Tennis Courts,sports field,surrey,..,..,..,..,bc
17431,Sunrise Executive Par 3 Golf Course,sports field,surrey,..,..,..,..,bc
17435,Surrey Golf Course,sports field,surrey,..,..,..,..,bc
17436,Surrey Masters Martial Arts,community centre,surrey,10708,136a,V3T 5G6,..,bc
17437,Surrey Sport & Leisure Complex Grounds - Basketball Courts,sports field,surrey,..,..,..,..,bc
17438,Surrey Tennis Centre,sports field,surrey,5891,144,V3X 1A6,..,bc
17462,T.E. Scott Elementary School Park - Volleyball Courts,sports field,surrey,..,..,..,..,bc
17473,Tamanawis Park - Basketball Courts,sports field,surrey,..,..,..,..,bc
17603,"Tennis Courts; Hazelgrove Park, 7080 190 St",sports field,surrey,7080,190,..,..,bc
17743,Thrive Movement Studio Inc,community centre,surrey,1552,128,V4A 3T7,..,bc
17784,Tom Binnie Park - Basketball Courts,sports field,surrey,..,..,..,..,bc
17951,Unwin Park - Basketball/Hockey Courts,sports field,surrey,..,..,..,..,bc
17982,Vamp Strength & Wellness,community centre,surrey,3033,king george,V4P 1B8,..,bc
17990,Vayusha Yoga,miscellaneous,surrey,2630,croydon,V3Z 6T3,..,bc
18099,"Volleyball Court #1; Fleetwood Park, 15802 80 Ave",sports field,surrey,15802,80,..,..,bc
18100,"Volleyball Court #1; South Surrey Athletic Park, 1925 148 St",sports field,surrey,1925,148,..,..,bc
18101,"Volleyball Court #2; Fleetwood Park, 15802 80 Ave",sports field,surrey,15802,80,..,..,bc
18102,"Volleyball Court #2; South Surrey Athletic Park, 1925 148 St",sports field,surrey,1925,148,..,..,bc
18103,"Volleyball Court #3; South Surrey Athletic Park, 1925 148 St",sports field,surrey,1925,148,..,..,bc
18105,"Volleyball Court; Crescent Beach, 12160 Beecher St",sports field,surrey,12160,beecher,..,..,bc
18106,"Volleyball Court; Don Christian Park, 6220 184 St",sports field,surrey,6220,184,..,..,bc
18107,"Volleyball Court; Kettle Crescent Park, 15434 Kildare Dr",sports field,surrey,15434,kildare,..,..,bc
18108,"Volleyball Court; Strawberry Hill Park, 7676 122 St",sports field,surrey,7676,122,..,..,bc
18109,"Volleyball Court; T.E. Scott Elementary School Park, 6998 148 St",sports field,surrey,6998,148,..,..,bc
18204,Wee-Dance Inc,community centre,surrey,15272,croydon,V3S 0C5,..,bc
18331,Whalley Reservoir Grounds - Basketball Courts,sports field,surrey,..,..,..,..,bc
18332,Whalley Reservoir Grounds - Basketball Courts,sports field,surrey,..,..,..,..,bc
18333,Whalley Reservoir Grounds - Tennis Courts,sports field,surrey,..,..,..,..,bc
18334,Whalley Reservoir Grounds - Tennis Courts,sports field,surrey,..,..,..,..,bc
18344,White Rock B J J,community centre,surrey,1959,152,V4A 9000,..,bc
18506,Woo Kim Tae Kwon Do And Fitness,community centre,surrey,19390,68,V4N 6A9,..,bc
18552,World Kickboxing & Xtrem Fitness,miscellaneous,surrey,12682,82,V3W 3G1,..,bc
65354,Walking_Routes,trail,surrey,..,..,..,..,bc
65355,Walking_Routes,trail,surrey,..,..,..,..,bc
65356,Walking_Routes,trail,surrey,..,..,..,..,bc
65357,Walking_Routes,trail,surrey,..,..,..,..,bc
65358,Walking_Routes,trail,surrey,..,..,..,..,bc
65359,Walking_Routes,trail,surrey,..,..,..,..,bc
65360,Walking_Routes,trail,surrey,..,..,..,..,bc
65361,Walking_Routes,trail,surrey,..,..,..,..,bc
65362,Walking_Routes,trail,surrey,..,..,..,..,bc
65363,Walking_Routes,trail,surrey,..,..,..,..,bc
65364,Walking_Routes,trail,surrey,..,..,..,..,bc
65365,Walking_Routes,trail,surrey,..,..,..,..,bc
65366,Walking_Routes,trail,surrey,..,..,..,..,bc
65367,Walking_Routes,trail,surrey,..,..,..,..,bc
