Index,Facility_Name,ODRSF_facility_type,Provider,Street_No,Street_Name,Postal_Code,City,Prov_Terr
14656,Park_Sports_Fields,sports field,surrey,..,..,..,..,bc
14657,Park_Sports_Fields,sports field,surrey,..,..,..,..,bc
14658,Park_Sports_Fields,sports field,surrey,..,..,..,..,bc
14659,Park_Sports_Fields,sports field,surrey,..,..,..,..,bc
14660,Park_Sports_Fields,sports field,surrey,..,..,..,..,bc
14661,Park_Sports_Fields,sports field,surrey,..,..,..,..,bc
14662,Park_Sports_Fields,sports field,surrey,..,..,..,..,bc
14663,Park_Sports_Fields,sports field,surrey,..,..,..,..,bc
14664,Park_Sports_Fields,sports field,surrey,..,..,..,..,bc
14665,Park_Sports_Fields,sports field,surrey,..,..,..,..,bc
14666,Park_Sports_Fields,sports field,surrey,..,..,..,..,bc
14667,Park_Sports_Fields,sports field,surrey,..,..,..,..,bc
14668,Park_Sports_Fields,sports field,surrey,..,..,..,..,bc
14669,Park_Sports_Fields,sports field,surrey,..,..,..,..,bc
14670,Park_Sports_Fields,sports field,surrey,..,..,..,..,bc
14671,Park_Sports_Fields,sports field,surrey,..,..,..,..,bc
14688,Parkwood Village Park - Basketball/Hockey Courts,sports field,surrey,..,..,..,..,bc
14707,Peace Portal Golf Course,sports field,surrey,..,..,..,..,bc
14834,"Planned Volleyball Court; Newton Athletic Park, 7395 128 St",sports field,surrey,7395,128,..,..,bc
14910,Project Climbing Centre,community centre,surrey,17828,65a,V3S 1Z3,..,bc
15343,Riverside Park - Basketball Courts,sports field,surrey,..,..,..,..,bc
15382,Robertson Drive Park - Basketball Courts,sports field,surrey,..,..,..,..,bc
15386,Robson Park - Tennis Courts,sports field,surrey,..,..,..,..,bc
15387,Robson Park - Tennis Courts,sports field,surrey,..,..,..,..,bc
15424,Roots Core Conditioning,miscellaneous,surrey,17665,66a,V3S 2A7,..,bc
15484,Royal Kwantlen Park - Basketball Courts,sports field,surrey,..,..,..,..,bc
15485,Royal Kwantlen Park - Tennis Courts,sports field,surrey,..,..,..,..,bc
15486,Royal Kwantlen Park - Tennis Courts,sports field,surrey,..,..,..,..,bc
15582,Salute Pilates & Yoga Studio Ltd,gym,surrey,17660,65a,V3S 5N4,..,bc
15721,Seung Ri Wttu Black Belt Academy Inc,community centre,surrey,2355,king george,V4A 5A4,..,bc
15961,Smiling Hearts Yoga And Fitness Ltd,community centre,surrey,18810,72,V4N 5X8,..,bc
15968,Snap Fitness Cloverdale,community centre,surrey,16796,64,V3S 3Y2,..,bc
16812,Softball City,sports field,surrey,..,..,..,..,bc
16892,South Asian Arts,miscellaneous,surrey,12827,76,V3W 2V3,..,bc
16906,South Surrey Athletic Park - Basketball Courts,sports field,surrey,..,..,..,..,bc
16907,South Surrey Athletic Park - Tennis Courts,sports field,surrey,..,..,..,..,bc
16908,South Surrey Athletic Park - Tennis Courts,sports field,surrey,..,..,..,..,bc
16909,South Surrey Athletic Park - Tennis Courts,sports field,surrey,..,..,..,..,bc
16910,South Surrey Athletic Park - Tennis Courts,sports field,surrey,..,..,..,..,bc
16911,South Surrey Athletic Park - Volleyball Courts,sports field,surrey,..,..,..,..,bc
16912,South Surrey Athletic Park - Volleyball Courts,sports field,surrey,..,..,..,..,bc
16913,South Surrey Athletic Park - Volleyball Courts,sports field,surrey,..,..,..,..,bc
16914,South Surrey Athletic Park - Volleyball Courts,sports field,surrey,..,..,..,..,bc
16941,Spinco,community centre,surrey,17449,56,V3S 2X6,..,bc
16942,Spinhouse Cycling Studio,community centre,surrey,16041,24,V3Z 9H7,..,bc
17258,Stallions Cricket Centre,sports field,surrey,12886,anvil,V3W 80000000,..,bc
17259,Stallions Cricket Centre,sports field,surrey,12886,anvil,V3W 80000000,..,bc
17378,Strawberry Hill Park - Volleyball Courts,sports field,surrey,..,..,..,..,bc
17384,Strong House,community centre,surrey,14620,64,V3S 1X7,..,bc
