Index,Facility_Name,ODRSF_facility_type,Provider,Street_No,Street_Name,Postal_Code,City,Prov_Terr
11759,Hazelgrove Park - Tennis Courts,sports field,surrey,..,..,..,..,bc
11760,Hazelgrove Park - Tennis Courts,sports field,surrey,..,..,..,..,bc
11761,Hazelmere Golf & Tennis Club,sports field,surrey,..,..,..,..,bc
11762,Hazelnut Meadows Community Park - Basketball Courts,sports field,surrey,..,..,..,..,bc
11869,Hi Knoll Golf Centre,sports field,surrey,4955,192,V3S 0L5,..,bc
11937,Hive Surrey The,miscellaneous,surrey,11125,124,V3V 4V2,..,bc
11939,"Hockey Court #1; Maple Green Park, 8959 150 St",sports field,surrey,8959,150,..,..,bc
11959,Holland Park - Basketball - Half Courts,sports field,surrey,..,..,..,..,bc
11960,Holland Park - Basketball - Half Courts,sports field,surrey,..,..,..,..,bc
11967,Holly Park - Basketball - Half Courts,sports field,surrey,..,..,..,..,bc
12074,Hummingbird Park - Tennis Courts,sports field,surrey,..,..,..,..,bc
12075,Hummingbird Park - Tennis Courts,sports field,surrey,..,..,..,..,bc
12136,Innovative Fitness,miscellaneous,surrey,15303,31,V3S 6X2,..,bc
12305,Jong Kim Martial Arts & Supplies,miscellaneous,surrey,12827,76,V3W 1000000,..,bc
12342,Karp Personal Training & Rehabilitation,miscellaneous,surrey,7635,king george,V3W 5B1,..,bc
12407,Kennedy Park - Tennis Courts,sports field,surrey,..,..,..,..,bc
12408,Kennedy Park - Tennis Courts,sports field,surrey,..,..,..,..,bc
12409,Kennedy Park - Tennis Courts,sports field,surrey,..,..,..,..,bc
12410,Kennedy Park - Tennis Courts,sports field,surrey,..,..,..,..,bc
12411,Kennedy Park - Tennis Courts,sports field,surrey,..,..,..,..,bc
12412,Kennedy Park - Tennis Courts,sports field,surrey,..,..,..,..,bc
12413,Kennedy Park - Tennis Courts,sports field,surrey,..,..,..,..,bc
12418,Kensington Prairie School Grounds - Basketball - Half Courts,sports field,surrey,..,..,..,..,bc
12426,Kettle Crescent Park - Volleyball Courts,sports field,surrey,..,..,..,..,bc
12431,Kick It Taekuondo Ltd,community centre,surrey,13631,80,V3W 1H9,..,bc
12868,Langley Cheer & Athletics Ltd,community centre,surrey,19292,60,V3S 3M2,..,bc
12954,Leaps & Bounds Personal Training & Clinical Exercise Inc.,community centre,surrey,3033,king george,V4P 1B8,..,bc
13028,Level Up Fitness,community centre,surrey,8655,130,V3W 1V9,..,bc
13117,Live Well Exercise Clinic Guildford,community centre,surrey,15117,101,V3R 8P7,..,bc
13118,Live2Play Fitness Corp,miscellaneous,surrey,5858,176,V3S 400,..,bc
13173,Love Of Avery Kind,miscellaneous,surrey,2753,ohara,V4A 30000,..,bc
13185,Lvfit Inc,community centre,surrey,19581,fraser,V3S 6K7,..,bc
13279,Majestic Youth Services,sports field,surrey,8528,123,V3W 3V6,..,bc
13327,Maple Green Park - Basketball - Half Courts,sports field,surrey,..,..,..,..,bc
13328,Maple Green Park - Basketball - Half Courts,sports field,surrey,..,..,..,..,bc
13329,Maple Green Park - Hockey Courts,rink,surrey,..,..,..,..,bc
13330,Maple Green Park - Tennis Courts,sports field,surrey,..,..,..,..,bc
13331,Maple Green Park - Tennis Courts,sports field,surrey,..,..,..,..,bc
13332,Maple Green Park - Tennis Courts,sports field,surrey,..,..,..,..,bc
13333,Maple Green Park - Tennis Courts,sports field,surrey,..,..,..,..,bc
13594,Meridian By The Sea Park - Tennis Courts,sports field,surrey,..,..,..,..,bc
13595,Meridian By The Sea Park - Tennis Courts,sports field,surrey,..,..,..,..,bc
13740,Mindful Movement Pilates,community centre,surrey,1667,128,V4A 3V2,..,bc
13822,Morgan Creek Golf Course,sports field,surrey,..,..,..,..,bc
13823,Morgan Creek Park - Tennis Courts,sports field,surrey,..,..,..,..,bc
13824,Morgan Creek Park - Tennis Courts,sports field,surrey,..,..,..,..,bc
13954,New Horizons Event Center,miscellaneous,surrey,17660,65a,V3S 5N4,..,bc
13962,Newton Athletic Park - Basketball - Half Courts,sports field,surrey,..,..,..,..,bc
13963,Newton Athletic Park - Basketball - Half Courts,sports field,surrey,..,..,..,..,bc
