Index,Facility_Name,ODRSF_facility_type,Provider,Street_No,Street_Name,Postal_Code,City,Prov_Terr
162125,Al Cleaver Park,park,surrey,..,..,..,..,bc
162164,Alder Park,park,surrey,..,..,..,..,bc
162188,Alderwood Park,park,surrey,..,..,..,..,bc
162217,Alexandra Tot-Lot,park,surrey,..,..,..,..,bc
162309,Amelia Adams Park,park,surrey,..,..,..,..,bc
162452,Arbutus Park,park,surrey,..,..,..,..,bc
162598,Aspen Park,park,surrey,..,..,..,..,bc
162649,August Drive Park,park,surrey,..,..,..,..,bc
162711,Bakerview Park,park,surrey,..,..,..,..,bc
162772,Barbara Creek Park,park,surrey,..,..,..,..,bc
162801,Barnston Park,park,surrey,..,..,..,..,bc
162814,Barry Mather Park,park,surrey,..,..,..,..,bc
162863,Bay Ridge Park,park,surrey,..,..,..,..,bc
162896,Bayview Park,park,surrey,..,..,..,..,bc
162908,Bayview Woods Park,park,surrey,..,..,..,..,bc
162950,Bear Creek Heights Park,park,surrey,..,..,..,..,bc
162952,Bear Creek Park,park,surrey,..,..,..,..,bc
162953,Bear Creek Park / Surrey Arts Centre,park,surrey,..,..,..,..,bc
162996,Beaver Creek Heights Park,park,surrey,..,..,..,..,bc
162999,Beaver Creek Park,park,surrey,..,..,..,..,bc
163053,Bel-Air Park,park,surrey,..,..,..,..,bc
163063,Bell Estates Park,park,surrey,..,..,..,..,bc
163071,Bell Park,park,surrey,..,..,..,..,bc
163127,Ben Stevenson View Park,park,surrey,..,..,..,..,bc
163198,Berkshire Park,park,surrey,..,..,..,..,bc
163255,Betty Huff Park,park,surrey,..,..,..,..,bc
163390,Blackie Spit,park,surrey,..,..,..,..,bc
163465,Blumsen Park,park,surrey,..,..,..,..,bc
163472,Bob Rutledge Park,park,surrey,..,..,..,..,bc
163478,Bog Park,park,surrey,..,..,..,..,bc
163492,Bolivar Park,park,surrey,..,..,..,..,bc
163496,Bonaccord Creek Park,park,surrey,..,..,..,..,bc
163497,Bonaccord Park,park,surrey,..,..,..,..,bc
163514,Bonnie Schrenk Park,park,surrey,..,..,..,..,bc
163525,Boothroyd Park,park,surrey,..,..,..,..,bc
163536,Bose Forest Park,park,surrey,..,..,..,..,bc
163547,Bothwell Elementary School Park,park,surrey,..,..,..,..,bc
163549,Bothwell Park,park,surrey,..,..,..,..,bc
163691,Briarwood Park,park,surrey,..,..,..,..,bc
163708,Bridgeview Park,park,surrey,..,..,..,..,bc
163709,Bridgeview Park / Bridgeview Community Hall,park,surrey,..,..,..,..,bc
163727,Bridlewood Park,park,surrey,..,..,..,..,bc
163754,British Manor Park,park,surrey,..,..,..,..,bc
163815,Brooks Crescent Park,park,surrey,..,..,..,..,bc
163822,Brookside Park,park,surrey,..,..,..,..,bc
163841,Brownsville Bar Park,park,surrey,..,..,..,..,bc
163867,Bryan Place Park,park,surrey,..,..,..,..,bc
163873,Bucci Park,park,surrey,..,..,..,..,bc
163874,Buchamer Park,park,surrey,..,..,..,..,bc
