Index,Facility_Name,ODRSF_facility_type,Provider,Street_No,Street_Name,Postal_Code,City,Prov_Terr
6888,"2 Tennis Courts; Meridian By The Sea Park, 2040 150 St",sports field,surrey,2040,150,..,..,bc
6889,"2 Tennis Courts; Morgan Creek Park, 3302 156A St",sports field,surrey,3302,156a,..,..,bc
6890,"2 Tennis Courts; Robson Park, 12576 100 Ave",sports field,surrey,12576,100,..,..,bc
6891,"2 Tennis Courts; Royal Kwantlen Park, 13035 104 Ave",sports field,surrey,13035,104,..,..,bc
6892,"2 Tennis Courts; Sullivan Park, 6272 152 St",sports field,surrey,6272,152,..,..,bc
6893,"2 Tennis Courts; Sunnyside Park, 15455 26 Ave",sports field,surrey,15455,26,..,..,bc
6896,30 Minute Hit North Surrey,community centre,surrey,15148,fraser,V3R 3P1,..,bc
6897,30 Minute Hit South Surrey,miscellaneous,surrey,2404,king george,V4P 1H5,..,bc
6899,"4 Tennis Courts #2; Fraser Heights Park, 10588 160 St",sports field,surrey,10588,160,..,..,bc
6900,"4 Tennis Courts; Cloverdale Athletic Park, 6330 168 St",sports field,surrey,6330,168,..,..,bc
6901,"4 Tennis Courts; South Surrey Athletic Park, 1925 148 St",sports field,surrey,1925,148,..,..,bc
6903,"6 Tennis Courts #1; Kennedy Park, 9058 Holt Rd",sports field,surrey,9058,holt,..,..,bc
6965,"8 Tennis Courts; Newton Athletic Park, 7395 128 St",sports field,surrey,7395,128,..,..,bc
7066,Acrofit Aerial Fitness,community centre,surrey,6039,196,V3S 7X4,..,bc
7131,Alderwood Park - Basketball/Hockey Courts,sports field,surrey,..,..,..,..,bc
7132,Alderwood Park - Tennis Courts,sports field,surrey,..,..,..,..,bc
7133,Alderwood Park - Tennis Courts,sports field,surrey,..,..,..,..,bc
7184,Ambush Paintball,community centre,surrey,15896,72,V4N 0T3,..,bc
7212,Anh Ngoc Billards,community centre,surrey,13744,104,V3T 1W5,..,bc
7223,Anytime Fitness,community centre,surrey,6350,120,V3X 3K1,..,bc
7225,Anytime Fitness,gym,surrey,10310,152,V3R 4G8,..,bc
7262,Arcus Community Resources Ltd,miscellaneous,surrey,12388,pattullo,V3V 8C3,..,bc
7284,Aries Martial Arts Academy Ltd,community centre,surrey,13279,72,V3W 2N5,..,bc
7285,Aries Martial Arts Cloverdale Ltd,miscellaneous,surrey,17828,65a,V3S 1Z3,..,bc
7288,Armoury Baseball Training Academy,sports field,surrey,19232,enterprise,V3S 6J9,..,bc
7365,Ata Legacy Martial Arts,community centre,surrey,15358,67,V3S 7C6,..,bc
7400,Balanced Fitness Studio,community centre,surrey,10422,168,V4N 1R9,..,bc
8626,"Basketball Court; 110A - Games Court, 12151 Sullivan St",sports field,surrey,12151,sullivan,..,..,bc
8627,"Basketball Court; Bear Creek Youth Park, 8400 King George Blvd",sports field,surrey,8400,king george,..,..,bc
8628,"Basketball Court; Bob Rutledge Park, 5424 - 148 St",sports field,surrey,5424,148,..,..,bc
8629,"Basketball Court; Bridgeview Park, 11475 126A St",sports field,surrey,11475,126a,..,..,bc
8630,"Basketball Court; Cloverdale Heights Park, 5880 Aberdeen St",sports field,surrey,5880,aberdeen,..,..,bc
8631,"Basketball Court; Cloverdale Youth Park Grounds, 17848 64 Ave",sports field,surrey,17848,64,..,..,bc
8632,"Basketball Court; Evergreen Tot-Lot - Vip Site, 15112 87B Ave",sports field,surrey,15112,87b,..,..,bc
8633,"Basketball Court; Fleetwood Park, 15802 80 Ave",sports field,surrey,15802,80,..,..,bc
8634,"Basketball Court; Fraser Heights Park, 10588 160 St",sports field,surrey,10588,160,..,..,bc
8635,"Basketball Court; Guildford Heights Park, 10310 154 St",sports field,surrey,10310,154,..,..,bc
8636,"Basketball Court; Hazelgrove Park, 7080 190 St",sports field,surrey,7080,190,..,..,bc
8637,"Basketball Court; Hazelnut Meadows Community Park, 14069 68 Ave",sports field,surrey,14069,68,..,..,bc
8638,"Basketball Court; Newton Reservoir Park, 6275 128 St",sports field,surrey,6275,128,..,..,bc
8639,"Basketball Court; Riverside Park, 14875 108A Ave",sports field,surrey,14875,108a,..,..,bc
8640,"Basketball Court; Robertson Drive Park, 12730 92 Ave",sports field,surrey,12730,92,..,..,bc
8641,"Basketball Court; Royal Kwantlen Park, 13035 104 Ave",sports field,surrey,13035,104,..,..,bc
8642,"Basketball Court; South Surrey Athletic Park, 1925 148 St",sports field,surrey,1925,148,..,..,bc
8643,"Basketball Court; Surrey Sport & Leisure Complex Grounds, 16555 Fraser Hwy",sports field,surrey,16555,fraser,..,..,bc
8644,"Basketball Court; Tamanawis Park, 12515 64 Ave",sports field,surrey,12515,64,..,..,bc
8645,"Basketball Court; Tom Binnie Park, 10665 City Parkway",sports field,surrey,10665,city,..,..,bc
8646,"Basketball Half Court #1; Holland Park, 13428 Old Yale Road",sports field,surrey,13428,old yale,..,..,bc
8647,"Basketball Half Court #1; Kensington Prairie School Grounds, 16824 32 Ave",sports field,surrey,16824,32,..,..,bc
