Index,Facility_Name,ODRSF_facility_type,Provider,Street_No,Street_Name,Postal_Code,City,Prov_Terr
68,Aldergrove Community Arena,arena,township of langley,..,..,..,..,bc
71,Aldergrove Outdoor Pool,pool,township of langley,..,..,..,..,bc
1740,Fort Langley Outdoor Pool,pool,township of langley,..,..,..,..,bc
1837,George Preston Recreation Centre - Arena,arena,township of langley,..,..,..,..,bc
6309,W.C. Blair Recreation Centre,community centre,township of langley,..,..,..,..,bc
20055,Airport Creek Trail,trail,township of langley,..,..,..,..,bc
20056,Airport Creek Trail,trail,township of langley,..,..,..,..,bc
20057,Airport Creek Trail,trail,township of langley,..,..,..,..,bc
20058,Airport Creek Trail,trail,township of langley,..,..,..,..,bc
20059,Airport Creek Trail,trail,township of langley,..,..,..,..,bc
20297,Aldergrove Athletic Park Paths,trail,township of langley,..,..,..,..,bc
20298,Aldergrove Athletic Park Paths,trail,township of langley,..,..,..,..,bc
20325,Aldergrove Rotary Park Paths,trail,township of langley,..,..,..,..,bc
20326,Alex Hope Park Paths,trail,township of langley,..,..,..,..,bc
20447,Anderson Trail,trail,township of langley,..,..,..,..,bc
20448,Anderson Trail,trail,township of langley,..,..,..,..,bc
20449,Anderson Trail,trail,township of langley,..,..,..,..,bc
20749,Arboretum Paths,trail,township of langley,..,..,..,..,bc
20752,Arbour Ribbon Trail,trail,township of langley,..,..,..,..,bc
20753,Arbour Ribbon Trail,trail,township of langley,..,..,..,..,bc
20754,Arbour Ribbon Trail,trail,township of langley,..,..,..,..,bc
20755,Arbour Ribbon Trail,trail,township of langley,..,..,..,..,bc
20756,Arbour Ribbon Trail,trail,township of langley,..,..,..,..,bc
20757,Arbour Ribbon Trail,trail,township of langley,..,..,..,..,bc
20758,Arbour Ribbon Trail,trail,township of langley,..,..,..,..,bc
20759,Arbour Ribbon Trail,trail,township of langley,..,..,..,..,bc
20760,Arbour Ribbon Trail,trail,township of langley,..,..,..,..,bc
20761,Arbour Ribbon Trail,trail,township of langley,..,..,..,..,bc
21178,Back Trail,trail,township of langley,..,..,..,..,bc
21179,Back Trail,trail,township of langley,..,..,..,..,bc
21180,Back Trail,trail,township of langley,..,..,..,..,bc
21181,Back Trail,trail,township of langley,..,..,..,..,bc
21187,Bakerview Trail,trail,township of langley,..,..,..,..,bc
21188,Bakerview Trail,trail,township of langley,..,..,..,..,bc
21189,Bakerview Trail,trail,township of langley,..,..,..,..,bc
21190,Bakerview Trail,trail,township of langley,..,..,..,..,bc
21559,Bell Park Paths,trail,township of langley,..,..,..,..,bc
21560,Bell Park Paths,trail,township of langley,..,..,..,..,bc
21848,Bertrand Creek Trail,trail,township of langley,..,..,..,..,bc
21849,Bertrand Creek Trail,trail,township of langley,..,..,..,..,bc
21850,Bertrand Creek Trail,trail,township of langley,..,..,..,..,bc
21851,Bertrand Creek Trail,trail,township of langley,..,..,..,..,bc
21852,Bertrand Creek Trail,trail,township of langley,..,..,..,..,bc
21853,Bertrand Creek Trail,trail,township of langley,..,..,..,..,bc
21854,Bertrand Creek Trail Pedestrian Bridge,trail,township of langley,..,..,..,..,bc
22146,Bluff Trail,trail,township of langley,..,..,..,..,bc
22147,Bluff Trail,trail,township of langley,..,..,..,..,bc
22148,Bluff Trail,trail,township of langley,..,..,..,..,bc
22294,Bog Trail,trail,township of langley,..,..,..,..,bc
