Index,Facility_Name,ODRSF_facility_type,Provider,Street_No,Street_Name,Postal_Code,City,Prov_Terr
170094,Langley Passive Park,park,township of langley,..,..,..,brookswood,bc
170095,Langley Skateboard Park,park,township of langley,..,..,..,willowbrook,bc
170402,Linton Harris Park,park,township of langley,..,..,..,..,bc
170676,Lynn Fripps Park,park,township of langley,..,..,..,willoughby,bc
170968,Marina Park,park,township of langley,..,..,..,fort langley,bc
171200,Mcclughan Park,park,township of langley,..,..,..,walnut grove,bc
171295,Mclellan Forest Natural Park,park,township of langley,..,..,..,..,bc
171298,Mcleod Athletic Park,park,township of langley,..,..,..,murrayville,bc
171299,Mcleod Athletic Park (Community Portion),park,township of langley,..,..,..,murrayville,bc
171318,Mcmillan Park,park,township of langley,..,..,..,..,bc
171367,Meadows Edge Park,park,township of langley,..,..,..,willowbrook,bc
171513,Milaster Passive Park,park,township of langley,..,..,..,..,bc
171624,Milner Park,park,township of langley,..,..,..,..,bc
171972,Municipal Natural Park,park,township of langley,..,..,..,..,bc
172003,Murrays Corner Park,park,township of langley,..,..,..,murrayville,bc
172004,Murrayville Outdoor Activity Park,park,township of langley,..,..,..,murrayville,bc
172051,National Park,park,township of langley,..,..,..,fort langley,bc
172156,Noel Booth Community Park,park,township of langley,..,..,..,brookswood,bc
172533,Old Yale Park,park,township of langley,..,..,..,..,bc
172646,Otter Park,park,township of langley,..,..,..,..,bc
173641,Parkside Centennial,park,township of langley,..,..,..,aldergrove,bc
173843,Philip Jackman Park,park,township of langley,..,..,..,aldergrove,bc
174027,Ponder Park,park,township of langley,..,..,..,..,bc
174067,Porter Park,park,township of langley,..,..,..,murrayville,bc
174285,R.C. Garnett Park,park,township of langley,..,..,..,willoughby,bc
174497,Rees-Callard Natural Park,park,township of langley,..,..,..,brookswood,bc
174577,Richard Bulpitt Park,park,township of langley,..,..,..,willoughby,bc
175243,Routley Park,park,township of langley,..,..,..,willoughby,bc
176274,Springfield Park,park,township of langley,..,..,..,aldergrove,bc
176577,Steele Park,park,township of langley,..,..,..,..,bc
177013,Telegraph Trail Park,park,township of langley,..,..,..,walnut grove,bc
177272,Topham Park,park,township of langley,..,..,..,walnut grove,bc
177796,Vannetta Park,park,township of langley,..,..,..,aldergrove,bc
178013,Walnut Grove Community Park,park,township of langley,..,..,..,walnut grove,bc
178053,Warren Place Park,park,township of langley,..,..,..,willowbrook,bc
178230,West Langley Park,park,township of langley,..,..,..,walnut grove,bc
178264,West Willoughby Park,park,township of langley,..,..,..,willoughby,bc
178432,Wiggins Place Park,park,township of langley,..,..,..,willowbrook,bc
178528,Williams Park,park,township of langley,..,..,..,..,bc
178543,Willoughby Community Park,park,township of langley,..,..,..,willoughby,bc
178554,Willowbrook Park,park,township of langley,..,..,..,willowbrook,bc
178665,Wiser Natural Park,park,township of langley,..,..,..,brookswood,bc
178732,Woodland Drive Park,park,township of langley,..,..,..,willowbrook,bc
178817,Yeomans Heritage Parkette,park,township of langley,..,..,..,walnut grove,bc
178847,Yorkson Community Park,park,township of langley,..,..,..,willoughby,bc
178857,Zazulak Park,park,township of langley,..,..,..,brookswood,bc
