Index,Facility_Name,ODRSF_facility_type,Provider,Street_No,Street_Name,Postal_Code,City,Prov_Terr
29086,Hatchery Service Rd,trail,maple ridge,..,..,..,metro vancouver,bc
29093,Hayes Trail,trail,maple ridge,..,..,..,metro vancouver,bc
29094,Hayes Trail,trail,maple ridge,..,..,..,city of maple ridge,bc
29095,Hayes Trail,trail,maple ridge,..,..,..,city of maple ridge,bc
29096,Hayes Trail,trail,maple ridge,..,..,..,city of maple ridge,bc
29097,Hayes Trail,trail,maple ridge,..,..,..,city of maple ridge,bc
29098,Hayes Trail,trail,maple ridge,..,..,..,city of maple ridge,bc
29639,Hinch Trail,trail,maple ridge,..,..,..,city of maple ridge,bc
29640,Hinch Trail,trail,maple ridge,..,..,..,city of maple ridge,bc
29641,Hinch Trail,trail,maple ridge,..,..,..,city of maple ridge,bc
29642,Hinch Trail,trail,maple ridge,..,..,..,city of maple ridge,bc
29643,Hinch Trail,trail,maple ridge,..,..,..,city of maple ridge,bc
29677,Homestead,trail,maple ridge,..,..,..,city of maple ridge,bc
29691,Horsemans,trail,maple ridge,..,..,..,city of maple ridge,bc
29692,Horsemans,trail,maple ridge,..,..,..,city of maple ridge,bc
29693,Horseshoe Creek,trail,maple ridge,..,..,..,city of maple ridge,bc
29698,Hot Rocks,trail,maple ridge,..,..,..,city of maple ridge,bc
29699,Hot Rocks,trail,maple ridge,..,..,..,city of maple ridge,bc
29700,Hot Rocks,trail,maple ridge,..,..,..,city of maple ridge,bc
29707,How-D Trail,trail,maple ridge,..,..,..,city of maple ridge,bc
29708,How-D Trail,trail,maple ridge,..,..,..,city of maple ridge,bc
30856,Jerry Sulina Dyke Trail,trail,maple ridge,..,..,..,city of maple ridge,bc
30857,Jerry Sulina Dyke Trail,trail,maple ridge,..,..,..,city of maple ridge,bc
30859,Jim Hadgkiss,trail,maple ridge,..,..,..,city of maple ridge,bc
30860,Jim Hadgkiss,trail,maple ridge,..,..,..,city of maple ridge,bc
30861,Jim Hadgkiss,trail,maple ridge,..,..,..,city of maple ridge,bc
30862,Jim Hadgkiss,trail,maple ridge,..,..,..,city of maple ridge,bc
31139,Jordan,trail,maple ridge,..,..,..,city of maple ridge,bc
31140,Jordan,trail,maple ridge,..,..,..,city of maple ridge,bc
31199,Kanaka Creek Park,trail,maple ridge,..,..,..,metro vancouver,bc
31200,Kanaka Creek Park,trail,maple ridge,..,..,..,city of maple ridge,bc
31201,Kanaka Way,trail,maple ridge,..,..,..,city of maple ridge,bc
31202,Kanaka Way,trail,maple ridge,..,..,..,city of maple ridge,bc
31203,Kanaka Way,trail,maple ridge,..,..,..,city of maple ridge,bc
31204,Kanaka Way,trail,maple ridge,..,..,..,city of maple ridge,bc
31249,Killer Hill,trail,maple ridge,..,..,..,city of maple ridge,bc
31250,Killer Hill,trail,maple ridge,..,..,..,city of maple ridge,bc
31251,Killer Hill,trail,maple ridge,..,..,..,city of maple ridge,bc
31252,Killer Hill,trail,maple ridge,..,..,..,city of maple ridge,bc
31253,Kin,trail,maple ridge,..,..,..,city of maple ridge,bc
31254,Kin,trail,maple ridge,..,..,..,city of maple ridge,bc
31255,Kin,trail,maple ridge,..,..,..,city of maple ridge,bc
31376,Kirkpatrick,trail,maple ridge,..,..,..,city of maple ridge,bc
31377,Kirkpatrick,trail,maple ridge,..,..,..,city of maple ridge,bc
35185,Larch Trail,trail,maple ridge,..,..,..,city of maple ridge,bc
35186,Larch Trail,trail,maple ridge,..,..,..,city of maple ridge,bc
35187,Larch Trail,trail,maple ridge,..,..,..,city of maple ridge,bc
35188,Larch Trail,trail,maple ridge,..,..,..,city of maple ridge,bc
35189,Larch Trail,trail,maple ridge,..,..,..,city of maple ridge,bc
