Index,Facility_Name,ODRSF_facility_type,Provider,Street_No,Street_Name,Postal_Code,City,Prov_Terr
167784,Grays Park,park,vancouver,4850,st caterines,..,..,bc
167898,Grimmett Park,park,vancouver,169,19th,..,..,bc
167923,Guelph Park,park,vancouver,2390,brunswick,..,..,bc
167964,Hadden/Vanier Park,park,vancouver,900,chestnut,..,..,bc
168041,Harbour Green Park,park,vancouver,1199,cordova,..,..,bc
168129,Hastings Community Park,park,vancouver,3000,pender,..,..,bc
168130,Hastings Mill Park,park,vancouver,1575,alma,..,..,bc
168133,Hastings Park,park,vancouver,2901,hastings,..,..,bc
168200,Heather Park,park,vancouver,702,18th,..,..,bc
168231,Helmcken Park,park,vancouver,1103,pacific,..,..,bc
168470,Hillcrest Park,park,vancouver,4501,clancy loranger,..,..,bc
168507,Hinge Park,park,vancouver,215,1st,..,..,bc
168678,Humm Park,park,vancouver,7250,humm,..,..,bc
169017,Jean Beaty Park,park,vancouver,3393,point grey,..,..,bc
169054,Jericho Beach Park,park,vancouver,3941,point grey,..,..,bc
169156,John Hendry (Trout Lake) Park,park,vancouver,3300,victoria,..,..,bc
169232,Jonathan Rogers Park,park,vancouver,110,7th,..,..,bc
169353,Kaslo Park,park,vancouver,2851,7th,..,..,bc
169452,Kensington Park,park,vancouver,5175,dumfries,..,..,bc
169470,Kerrisdale Centennial Park,park,vancouver,5898,yew,..,..,bc
169471,Kerrisdale Park,park,vancouver,5670,east,..,..,bc
169539,Kingcrest Park,park,vancouver,4150,knight,..,..,bc
169582,Kinross Ravine Park,park,vancouver,3350,marine,..,..,bc
169625,Kitsilano Beach Park,park,vancouver,1499,arbutus,..,..,bc
170087,Langara Park,park,vancouver,..,49th,..,..,bc
170150,Laurel Landbridge Park,park,vancouver,2200,laurel,..,..,bc
170716,Macdonald Park,park,vancouver,300,44th,..,..,bc
170731,Maclean Park,park,vancouver,710,keefer,..,..,bc
170797,Major Matthews Park,park,vancouver,2627,manitoba,..,..,bc
170817,Malkin Park,park,vancouver,6001,balaclava,..,..,bc
170873,Maple Grove Park,park,vancouver,6875,yew,..,..,bc
170942,Margaret Pigott Park,park,vancouver,2743,point grey,..,..,bc
171035,Marpole Park,park,vancouver,1410,72nd,..,..,bc
171147,May & Lorne Brown Park,park,vancouver,801,beach,..,..,bc
171184,Mcbride Park,park,vancouver,3350,4th,..,..,bc
171199,Mccleery Park,park,vancouver,6501,marine,..,..,bc
171245,Mcgill Park,park,vancouver,2305,mcgill,..,..,bc
171333,Mcspadden Park,park,vancouver,2125,victoria,..,..,bc
171403,Melbourne Park,park,vancouver,3530,vanness,..,..,bc
171430,Memorial South Park,park,vancouver,5950,prince albert,..,..,bc
171433,Memorial West Park,park,vancouver,4701,dunbar,..,..,bc
171711,Moberly Park,park,vancouver,7646,prince albert,..,..,bc
171785,Montgomery Park,park,vancouver,1040,43rd,..,..,bc
171857,Morton Park,park,vancouver,1800,morton,..,..,bc
171859,Mosaic Creek Park,park,vancouver,1475,charles,..,..,bc
171902,Mount Pleasant Park,park,vancouver,3161,ontario,..,..,bc
172023,Nanaimo Park,park,vancouver,2390,46th,..,..,bc
172106,New Brighton Park,park,vancouver,500,windermere,..,..,bc
172183,Norquay Park,park,vancouver,5050,wales,..,..,bc
