Index,Facility_Name,ODRSF_facility_type,Provider,Street_No,Street_Name,Postal_Code,City,Prov_Terr
4407,Park_Playgrounds,playground,surrey,..,..,..,..,bc
4408,Park_Playgrounds,playground,surrey,..,..,..,..,bc
4409,Park_Playgrounds,playground,surrey,..,..,..,..,bc
4410,Park_Playgrounds,playground,surrey,..,..,..,..,bc
4411,Park_Playgrounds,playground,surrey,..,..,..,..,bc
4412,Park_Playgrounds,playground,surrey,..,..,..,..,bc
4413,Park_Playgrounds,playground,surrey,..,..,..,..,bc
4414,Park_Playgrounds,playground,surrey,..,..,..,..,bc
4415,Park_Playgrounds,playground,surrey,..,..,..,..,bc
4416,Park_Playgrounds,playground,surrey,..,..,..,..,bc
4417,Park_Playgrounds,playground,surrey,..,..,..,..,bc
4418,Park_Playgrounds,playground,surrey,..,..,..,..,bc
4419,Park_Playgrounds,playground,surrey,..,..,..,..,bc
4420,Park_Playgrounds,playground,surrey,..,..,..,..,bc
4421,Park_Playgrounds,playground,surrey,..,..,..,..,bc
4422,Park_Playgrounds,playground,surrey,..,..,..,..,bc
4423,Park_Playgrounds,playground,surrey,..,..,..,..,bc
4424,Park_Playgrounds,playground,surrey,..,..,..,..,bc
4425,Park_Playgrounds,playground,surrey,..,..,..,..,bc
4426,Park_Playgrounds,playground,surrey,..,..,..,..,bc
4427,Park_Playgrounds,playground,surrey,..,..,..,..,bc
4428,Park_Playgrounds,playground,surrey,..,..,..,..,bc
4429,Park_Playgrounds,playground,surrey,..,..,..,..,bc
4430,Park_Playgrounds,playground,surrey,..,..,..,..,bc
4431,Park_Playgrounds,playground,surrey,..,..,..,..,bc
4432,Park_Playgrounds,playground,surrey,..,..,..,..,bc
4433,Park_Playgrounds,playground,surrey,..,..,..,..,bc
4434,Park_Playgrounds,playground,surrey,..,..,..,..,bc
4435,Park_Playgrounds,playground,surrey,..,..,..,..,bc
4436,Park_Playgrounds,playground,surrey,..,..,..,..,bc
4437,Park_Playgrounds,playground,surrey,..,..,..,..,bc
4438,Park_Playgrounds,playground,surrey,..,..,..,..,bc
4439,Park_Playgrounds,playground,surrey,..,..,..,..,bc
4440,Park_Playgrounds,playground,surrey,..,..,..,..,bc
4441,Park_Playgrounds,playground,surrey,..,..,..,..,bc
4442,Park_Playgrounds,playground,surrey,..,..,..,..,bc
4443,Park_Playgrounds,playground,surrey,..,..,..,..,bc
4444,Park_Playgrounds,playground,surrey,..,..,..,..,bc
4445,Park_Playgrounds,playground,surrey,..,..,..,..,bc
4446,Park_Playgrounds,playground,surrey,..,..,..,..,bc
4447,Park_Playgrounds,playground,surrey,..,..,..,..,bc
4448,Park_Playgrounds,playground,surrey,..,..,..,..,bc
4449,Park_Playgrounds,playground,surrey,..,..,..,..,bc
4450,Park_Playgrounds,playground,surrey,..,..,..,..,bc
4451,Park_Playgrounds,playground,surrey,..,..,..,..,bc
4452,Park_Playgrounds,playground,surrey,..,..,..,..,bc
4531,Pilath Hall House,community centre,surrey,11113,148,..,..,bc
4780,Port Kells Community Hall,community centre,surrey,18918,88,..,..,bc
5261,"Rubber Safety Surface; West Village Park, 13231 103A Ave",park,surrey,13231,103a,..,..,bc
