Index,Facility_Name,ODRSF_facility_type,Provider,Street_No,Street_Name,Postal_Code,City,Prov_Terr
19155,280,trail,maple ridge,..,..,..,city of maple ridge,bc
19156,280,trail,maple ridge,..,..,..,city of maple ridge,bc
19157,280,trail,maple ridge,..,..,..,city of maple ridge,bc
19158,280,trail,maple ridge,..,..,..,city of maple ridge,bc
19159,284,trail,maple ridge,..,..,..,city of maple ridge,bc
19160,287,trail,maple ridge,..,..,..,city of maple ridge,bc
19365,130 Connector,trail,maple ridge,..,..,..,city of maple ridge,bc
19844,Abernethey Trail,trail,maple ridge,..,..,..,city of maple ridge,bc
19845,Abernethey Trail,trail,maple ridge,..,..,..,city of maple ridge,bc
19846,Abernethey Trail,trail,maple ridge,..,..,..,city of maple ridge,bc
19910,Access Rd,trail,maple ridge,..,..,..,metro vancouver,bc
19911,Access Rd,trail,maple ridge,..,..,..,metro vancouver,bc
20136,Albion,trail,maple ridge,..,..,..,city of maple ridge,bc
20137,Albion,trail,maple ridge,..,..,..,city of maple ridge,bc
20138,Albion,trail,maple ridge,..,..,..,city of maple ridge,bc
20139,Albion,trail,maple ridge,..,..,..,city of maple ridge,bc
20140,Albion,trail,maple ridge,..,..,..,city of maple ridge,bc
20141,Albion,trail,maple ridge,..,..,..,city of maple ridge,bc
20142,Albion,trail,maple ridge,..,..,..,city of maple ridge,bc
20143,Albion,trail,maple ridge,..,..,..,city of maple ridge,bc
20144,Albion,trail,maple ridge,..,..,..,city of maple ridge,bc
20145,Albion,trail,maple ridge,..,..,..,city of maple ridge,bc
20146,Albion,trail,maple ridge,..,..,..,city of maple ridge,bc
20147,Albion,trail,maple ridge,..,..,..,city of maple ridge,bc
20148,Albion,trail,maple ridge,..,..,..,city of maple ridge,bc
20149,Albion,trail,maple ridge,..,..,..,city of maple ridge,bc
20150,Albion,trail,maple ridge,..,..,..,city of maple ridge,bc
20151,Albion,trail,maple ridge,..,..,..,city of maple ridge,bc
20285,Albion Sports Complex,trail,maple ridge,..,..,..,city of maple ridge,bc
20286,Albion Sports Complex,trail,maple ridge,..,..,..,city of maple ridge,bc
20287,Albion Sports Complex,trail,maple ridge,..,..,..,city of maple ridge,bc
20288,Albion Sports Complex,trail,maple ridge,..,..,..,city of maple ridge,bc
20289,Albion Sports Complex,trail,maple ridge,..,..,..,city of maple ridge,bc
20290,Albion Sports Complex,trail,maple ridge,..,..,..,city of maple ridge,bc
20291,Albion Sports Complex,trail,maple ridge,..,..,..,city of maple ridge,bc
20292,Albion Sports Complex,trail,maple ridge,..,..,..,city of maple ridge,bc
20293,Albion Sports Complex,trail,maple ridge,..,..,..,city of maple ridge,bc
20294,Alco North,trail,maple ridge,..,..,..,city of maple ridge,bc
20295,Alco North,trail,maple ridge,..,..,..,city of maple ridge,bc
20363,Alexander Robinson,trail,maple ridge,..,..,..,city of maple ridge,bc
20395,Allco,trail,maple ridge,..,..,..,city of maple ridge,bc
20396,Allco,trail,maple ridge,..,..,..,city of maple ridge,bc
20397,Allco,trail,maple ridge,..,..,..,city of maple ridge,bc
20398,Allco,trail,maple ridge,..,..,..,city of maple ridge,bc
20399,Allco,trail,maple ridge,..,..,..,city of maple ridge,bc
20400,Allco,trail,maple ridge,..,..,..,city of maple ridge,bc
20401,Allco,trail,maple ridge,..,..,..,city of maple ridge,bc
20402,Allco,trail,maple ridge,..,..,..,city of maple ridge,bc
20403,Allco,trail,maple ridge,..,..,..,city of maple ridge,bc
