Index,Facility_Name,ODRSF_facility_type,Provider,Street_No,Street_Name,Postal_Code,City,Prov_Terr
43126,Maya Creek Trail,trail,township of langley,..,..,..,..,bc
43127,Maya Creek Trail,trail,township of langley,..,..,..,..,bc
43135,Maysfield Trail,trail,township of langley,..,..,..,..,bc
43136,Mcbride-Station Trail,trail,township of langley,..,..,..,..,bc
43137,Mcbride-Station Trail,trail,township of langley,..,..,..,..,bc
43138,Mcburnie Trail,trail,township of langley,..,..,..,..,bc
43139,Mcburnie Trail,trail,township of langley,..,..,..,..,bc
43140,Mcburnie Trail,trail,township of langley,..,..,..,..,bc
43141,Mcburnie Trail,trail,township of langley,..,..,..,..,bc
43142,Mcburnie Trail,trail,township of langley,..,..,..,..,bc
43143,Mcburnie Trail,trail,township of langley,..,..,..,..,bc
43285,Mclarty Trail,trail,township of langley,..,..,..,..,bc
43286,Mclarty Trail,trail,township of langley,..,..,..,..,bc
43287,Mclarty Trail,trail,township of langley,..,..,..,..,bc
43288,Mclarty Trail,trail,township of langley,..,..,..,..,bc
43289,Mclarty Trail,trail,township of langley,..,..,..,..,bc
43290,Mclarty Trail,trail,township of langley,..,..,..,..,bc
43291,Mclarty Trail,trail,township of langley,..,..,..,..,bc
43292,Mclarty Trail,trail,township of langley,..,..,..,..,bc
43293,Mclarty Trail,trail,township of langley,..,..,..,..,bc
43294,Mclarty Trail,trail,township of langley,..,..,..,..,bc
43295,Mclarty Trail,trail,township of langley,..,..,..,..,bc
43296,Mclarty Trail,trail,township of langley,..,..,..,..,bc
43297,Mclarty Trail,trail,township of langley,..,..,..,..,bc
43298,Mclarty Trail,trail,township of langley,..,..,..,..,bc
43299,Mclarty Trail,trail,township of langley,..,..,..,..,bc
43300,Mclarty Trail,trail,township of langley,..,..,..,..,bc
43301,Mclarty Trail,trail,township of langley,..,..,..,..,bc
43302,Mclarty Trail,trail,township of langley,..,..,..,..,bc
43303,Mclarty Trail,trail,township of langley,..,..,..,..,bc
43304,Mclarty Trail,trail,township of langley,..,..,..,..,bc
43305,Mclarty Trail,trail,township of langley,..,..,..,..,bc
43306,Mclarty Trail,trail,township of langley,..,..,..,..,bc
43307,Mclarty Trail,trail,township of langley,..,..,..,..,bc
43308,Mclarty Trail,trail,township of langley,..,..,..,..,bc
43309,Mclarty Trail,trail,township of langley,..,..,..,..,bc
43328,Mcleod Park Pathways,trail,township of langley,..,..,..,..,bc
43329,Mcleod Park Pathways,trail,township of langley,..,..,..,..,bc
43330,Mcleod Park Pathways,trail,township of langley,..,..,..,..,bc
44712,Murrays Corner Park Paths,trail,township of langley,..,..,..,..,bc
44713,Murrays Corner Park Paths,trail,township of langley,..,..,..,..,bc
44714,Murrays Corner Park Paths,trail,township of langley,..,..,..,..,bc
44715,Murrays Corner Park Paths,trail,township of langley,..,..,..,..,bc
44716,Murrays Corner Park Paths,trail,township of langley,..,..,..,..,bc
44717,Murrays Corner Park Paths,trail,township of langley,..,..,..,..,bc
44718,Murrays Corner Park Paths,trail,township of langley,..,..,..,..,bc
44719,Murrays Corner Park Paths,trail,township of langley,..,..,..,..,bc
44720,Murrays Corner Park Paths,trail,township of langley,..,..,..,..,bc
44721,Murrayville Bike Route,trail,township of langley,..,..,..,..,bc
