Index,Facility_Name,ODRSF_facility_type,Provider,Street_No,Street_Name,Postal_Code,City,Prov_Terr
166561,Evergreen Park,park,surrey,..,..,..,..,bc
166564,Evergreen Tot-Lot,park,surrey,..,..,..,..,bc
166566,Evershine Park,park,surrey,..,..,..,..,bc
166738,Fergus Watershed Biodiversity Preserve,park,surrey,..,..,..,..,bc
166752,Fern Park,park,surrey,..,..,..,..,bc
166871,Fleetwood Meadows Park,park,surrey,..,..,..,..,bc
166874,Fleetwood Park,park,surrey,..,..,..,..,bc
166975,Forsyth Park,park,surrey,..,..,..,..,bc
167030,Francis Park,park,surrey,..,..,..,..,bc
167042,Frank Hurt Park,park,surrey,..,..,..,..,bc
167064,Fraser Heights Park,park,surrey,..,..,..,..,bc
167070,Fraser View Park,park,surrey,..,..,..,..,bc
167071,Fraser Wood Park,park,surrey,..,..,..,..,bc
167073,Fraserglen Park,park,surrey,..,..,..,..,bc
167102,Freedom Dog-Off-Leash Park,park,surrey,..,..,..,..,bc
167133,Frost Road Park,park,surrey,..,..,..,..,bc
167139,Fun Fun Park,park,surrey,..,..,..,..,bc
167535,Glenwood Park,park,surrey,..,..,..,..,bc
167552,Godwin Farm Biodiversity Preserve,park,surrey,..,..,..,..,bc
167611,Goldstone Park,park,surrey,..,..,..,..,bc
167628,Goodrich Place Park,park,surrey,..,..,..,..,bc
167740,Grandview Heights Linear Park,park,surrey,..,..,..,..,bc
167778,Gratitude Garden,park,surrey,..,..,..,..,bc
167812,Green Timbers Park,park,surrey,..,..,..,..,bc
167813,Green Timbers Urban Forest Park,park,surrey,..,..,..,..,bc
167818,Greenaway Park,park,surrey,..,..,..,..,bc
167849,Greenridge Park,park,surrey,..,..,..,..,bc
167930,Guildford Heights Park,park,surrey,..,..,..,..,bc
167931,Guildford Recreation Centre,park,surrey,..,..,..,..,bc
167947,Guy Richardson Park,park,surrey,..,..,..,..,bc
168110,Hartnell Park,park,surrey,..,..,..,..,bc
168162,Hawthorne Rotary Park,park,surrey,..,..,..,..,bc
168163,Hawthorne Square,park,surrey,..,..,..,..,bc
168166,Hayle Place Park,park,surrey,..,..,..,..,bc
168175,Hazelgrove Park,park,surrey,..,..,..,..,bc
168176,Hazelnut Meadows Community Park,park,surrey,..,..,..,..,bc
168178,Hazelwood Grove Park,park,surrey,..,..,..,..,bc
168234,Hemlock Park / North Works Yard,park,surrey,..,..,..,..,bc
168263,Henry Houston Scott Park,park,surrey,..,..,..,..,bc
168336,Heritage Woods Park,park,surrey,..,..,..,..,bc
168344,Heron Park,park,surrey,..,..,..,..,bc
168447,Hi-Knoll Park,park,surrey,..,..,..,..,bc
168468,Hillcrest Park,park,surrey,..,..,..,..,bc
168514,Hjorth Road Park,park,surrey,..,..,..,..,bc
168534,Holland Park,park,surrey,..,..,..,..,bc
168549,Holly Park,park,surrey,..,..,..,..,bc
168680,Hummingbird Park,park,surrey,..,..,..,..,bc
168687,Hunt Road Park,park,surrey,..,..,..,..,bc
168689,Hunter Park,park,surrey,..,..,..,..,bc
