Index,Facility_Name,ODRSF_facility_type,Provider,Street_No,Street_Name,Postal_Code,City,Prov_Terr
87,Alice Mckay,community centre,surrey,6050,176,..,..,bc
317,Beecher Place,community centre,surrey,12160,beecher,..,..,bc
389,"Bike Park; Cloverdale Athletic Park, 6330 168 St",athletic park,surrey,6330,168,..,..,bc
390,"Bike Park; Fun Fun Park, 1472 - 128 St",park,surrey,1472,128,..,..,bc
391,"Bike Park; Invergarry Park, 14400 Currie Dr",park,surrey,14400,currie,..,..,bc
392,"Bike Park; Latimer Park, 2786 192 St",park,surrey,2786,192,..,..,bc
393,"Bike Park; Panorama Park, 12863 60 Ave",park,surrey,12941,60,..,..,bc
394,"Bike Park; Port Kells Park, 19340 88 Ave",park,surrey,19340,88,..,..,bc
395,"Bike Park; South Surrey Athletic Park, 1925 148 St",athletic park,surrey,1925,148,..,..,bc
424,Blackie Spit Dog Off-Leash Swimming Beach,beach,surrey,..,..,..,..,bc
534,Bridgeview Community Centre,community centre,surrey,11475,126a,..,..,bc
1063,Chuck Bailey Recreation Centre,community centre,surrey,..,..,..,..,bc
1105,Clayton Community Hall,community centre,surrey,18513,70,..,..,bc
1119,Cloverdale Ice Arena,arena,surrey,..,..,..,..,bc
1120,Cloverdale Mini Rec Centre,community centre,surrey,..,..,..,..,bc
1123,Cloverdale Recreation Centre,community centre,surrey,..,..,..,..,bc
1124,Club 16 Trevor Linden Fitness South Surrey,gym,surrey,16050,24,V3Z 0R5,..,bc
1367,Don Christian Recreation Centre,community centre,surrey,..,..,..,..,bc
1413,Dreams Gymnastics Inc,gym,surrey,14666,64,V3S 1X7,..,bc
1540,Elgin Community Hall,community centre,surrey,14250,crescent,..,..,bc
1619,Fairgrounds - Area Lighting/Infrastructure,community centre,surrey,6050,176,..,..,bc
1678,Fit For Women Gym Ltd,gym,surrey,10039,whalley,V3T 4G1,..,bc
1679,"Fitness Area; Bear Creek Park, 13750 88 Ave",park,surrey,13750,88,..,..,bc
1680,"Fitness Area; Frank Hurt Park, 13828 77 Ave",park,surrey,13828,77,..,..,bc
1681,"Fitness Circuit; Crescent Park, 2585 132 St",park,surrey,2585,132,..,..,bc
1682,"Fitness Circuit; Hazelgrove Park, 7080 190 St",park,surrey,7080,190,..,..,bc
1683,Fitness Expert Health Club Ltd,gym,surrey,7500,120,V3W 3N1,..,bc
1689,Fleetwood Community Centre,community centre,surrey,15996,84,..,..,bc
1771,Fraser Downs Racetrack & Casino,casino,surrey,..,..,..,..,bc
1772,Fraser Heights Recreation Centre,community centre,surrey,..,..,..,..,bc
1790,Funplex,playground,surrey,12070,88,V3W 3J2,..,bc
1910,Go Bananas Funky Monkey Fun Park,park,surrey,13853,104,V3T 1W8,..,bc
1929,Good Life Fitness Centres Inc,gym,surrey,12992,76,V3W 2V6,..,bc
1968,Grandview Heights Aquatic Centre,pool,surrey,..,..,..,..,bc
2020,Guildford Recreation Centre,community centre,surrey,..,..,..,..,bc
2021,Guildford Recreation Centre & Library Grounds - Skate Park,skate park,surrey,..,..,..,..,bc
2199,Hjorth Road Pool,pool,surrey,..,..,..,..,bc
2208,Holly Pool,pool,surrey,..,..,..,..,bc
2540,Kennedy Community Hall,community centre,surrey,8870,120,..,..,bc
2657,"Lacrosse Box #1; Unwin Park, 13313 68 Ave",park,surrey,13313,68,..,..,bc
2658,"Lacrosse Box; Holly Park, 10706 148 St",park,surrey,10706,148,..,..,bc
2659,"Lacrosse Box; Royal Kwantlen Park, 13035 104 Ave",park,surrey,13035,104,..,..,bc
2660,"Lacrosse Box; Tom Binnie Park (Olympic Venue Site), 10665 City Parkway",park,surrey,10665,city,..,..,bc
3322,Meridian Centre,community centre,surrey,2040,150,..,..,bc
3418,Moorefitliving Fitness Consulting,gym,surrey,2430,king george,V4P 1H5,..,bc
3427,Morgan Play Center,playground,surrey,15850,26,V3Z 2N6,..,bc
3488,My Gym Children's Fitness Centre,gym,surrey,2429,152,V4P 1N4,..,bc
3531,Newton Arena,arena,surrey,..,..,..,..,bc
3532,Newton Community Hall,community centre,surrey,13730,72,..,..,bc
