Index,Facility_Name,ODRSF_facility_type,Provider,Street_No,Street_Name,Postal_Code,City,Prov_Terr
10290,Crescent Park School Grounds - Tennis Courts,sports field,surrey,..,..,..,..,bc
10291,Crescent Park School Grounds - Tennis Courts,sports field,surrey,..,..,..,..,bc
10292,Crescent Park School Grounds - Tennis Courts,sports field,surrey,..,..,..,..,bc
10293,Crescent Park School Grounds - Tennis Courts,sports field,surrey,..,..,..,..,bc
10294,Crescent Park School Grounds - Tennis Courts,sports field,surrey,..,..,..,..,bc
10352,Crux Fitness Cloverdale,community centre,surrey,19232,enterprise,V3S 6S8,..,bc
10517,Don Christian Park - Basketball/Hockey Courts,sports field,surrey,..,..,..,..,bc
10518,Don Christian Park - Volleyball Courts,sports field,surrey,..,..,..,..,bc
10519,Don Christian Park - Volleyball Courts,sports field,surrey,..,..,..,..,bc
10554,Douglas Park - Tennis Courts,sports field,surrey,..,..,..,..,bc
10589,Dragon's Den Pure Defense,community centre,surrey,15515,24,V4A 2J4,..,bc
10598,Drive 365 Fitness And Health Inc,community centre,surrey,15272,croydon,V3S 0Z5,..,bc
10609,Dufferin Park - Basketball/Hockey Courts,sports field,surrey,..,..,..,..,bc
10669,Eaglequest Golf Course,sports field,surrey,..,..,..,..,bc
10859,Endless Shore Yoga And Meditation,community centre,surrey,2570,king george,V4P 1H5,..,bc
10909,Evergreen Tot-Lot - Basketball Courts,sports field,surrey,..,..,..,..,bc
10910,Evershine Park - Basketball/Hockey Courts,sports field,surrey,..,..,..,..,bc
10911,Evershine Park - Volleyball Courts,sports field,surrey,..,..,..,..,bc
10912,Evershine Park - Volleyball Courts,sports field,surrey,..,..,..,..,bc
11036,Fit Body Athletics & Rehabilition Inc,community centre,surrey,8181,120a,V3W 3P2,..,bc
11037,Fit4Less By Good Life,community centre,surrey,8066,120,V3H 3N3,..,bc
11040,"Fitness Circuit; Newton Senior Centre Grounds, 13775 70 Ave",miscellaneous,surrey,13775,70,..,..,bc
11058,Fleetwood Park - Basketball Courts,sports field,surrey,..,..,..,..,bc
11059,Fleetwood Park - Tennis Courts,sports field,surrey,..,..,..,..,bc
11060,Fleetwood Park - Tennis Courts,sports field,surrey,..,..,..,..,bc
11061,Fleetwood Park - Tennis Courts,sports field,surrey,..,..,..,..,bc
11062,Fleetwood Park - Volleyball Courts,sports field,surrey,..,..,..,..,bc
11063,Fleetwood Park - Volleyball Courts,sports field,surrey,..,..,..,..,bc
11073,Flint Sport & Fitness,community centre,surrey,5511,192,V3S 800000,..,bc
11233,Fraser Heights Black Belt Academy,miscellaneous,surrey,10833,160,V4N 1P3,..,bc
11234,Fraser Heights Park - Basketball Courts,sports field,surrey,..,..,..,..,bc
11235,Fraser Heights Park - Tennis Courts,sports field,surrey,..,..,..,..,bc
11236,Fraser Heights Park - Tennis Courts,sports field,surrey,..,..,..,..,bc
11237,Fraser Heights Park - Tennis Courts,sports field,surrey,..,..,..,..,bc
11238,Fraser Heights Park - Tennis Courts,sports field,surrey,..,..,..,..,bc
11239,Fraser Heights Park - Tennis Courts,sports field,surrey,..,..,..,..,bc
11240,Fraser Heights Park - Tennis Courts,sports field,surrey,..,..,..,..,bc
11241,Fraser Heights Park - Tennis Courts,sports field,surrey,..,..,..,..,bc
11374,Gesshinkai Karate Vancouver Inc,community centre,surrey,16793,60,V3S 3X7,..,bc
11473,Golden Glory Fitness And Martial Arts,community centre,surrey,2336,king george,V4A 5A5,..,bc
11480,Goldstone Park - Basketball Courts,sports field,surrey,..,..,..,..,bc
11481,Goldstone Park - Tennis Courts,sports field,surrey,..,..,..,..,bc
11482,Goldstone Park - Tennis Courts,sports field,surrey,..,..,..,..,bc
11533,Gracie Dojo (Canada),community centre,surrey,15358,67,V3S 7C6,..,bc
11566,Gravity Mixed Martial Arts Inc,miscellaneous,surrey,12824,anvil,V3W 80000000,..,bc
11582,Greenaway Park - Tennis Courts,sports field,surrey,..,..,..,..,bc
11583,Greenaway Park - Tennis Courts,sports field,surrey,..,..,..,..,bc
11641,Guildford Heights Park - Basketball Courts,sports field,surrey,..,..,..,..,bc
11649,Gurmat Education And Meditation Center Inc,community centre,surrey,13478,78,V3W 8J6,..,bc
