Index,Facility_Name,ODRSF_facility_type,Provider,Street_No,Street_Name,Postal_Code,City,Prov_Terr
8649,"Basketball Half Court #2; Holland Park, 13428 Old Yale Road",sports field,surrey,13428,old yale,..,..,bc
8650,"Basketball Half Court #2; Maple Green Park, 8959 150 St",sports field,surrey,8959,150,..,..,bc
8651,"Basketball Half Court #2; Newton Athletic Park, 7395 128 St",sports field,surrey,7395,128,..,..,bc
8652,"Basketball Half Court #3; Maple Green Park, 8959 150 St",sports field,surrey,8959,150,..,..,bc
8653,"Basketball Half Court #3; Newton Athletic Park, 7395 128 St",sports field,surrey,7395,128,..,..,bc
8654,"Basketball Half Court #4; Newton Athletic Park, 7395 128 St",sports field,surrey,7395,128,..,..,bc
8655,"Basketball Half Court; Bonaccord Park, 14962 98 Ave",sports field,surrey,14962,98,..,..,bc
8656,"Basketball Half Court; Holly Park, 10706 148 St",sports field,surrey,10706,148,..,..,bc
8657,"Basketball Half Court; Summerhill Park (Tot-Lot), 13089 Summerhill Cres",sports field,surrey,13089,summerhill,..,..,bc
8819,"Basketball/Hockey Court; Alderwood Park, 1761 Lilac Dr",sports field,surrey,1761,lilac,..,..,bc
8820,"Basketball/Hockey Court; Clayton Park, 18513 70 Ave",sports field,surrey,18513,70,..,..,bc
8821,"Basketball/Hockey Court; Cloverdale Athletic Park, 6330 168 St",sports field,surrey,6330,168,..,..,bc
8822,"Basketball/Hockey Court; Don Christian Park, 6220 184 St",sports field,surrey,6220,184,..,..,bc
8824,"Basketball/Hockey Court; Goldstone Park, 5850 146 St",sports field,surrey,5850,146,..,..,bc
8825,"Basketball/Hockey Court; Parkwood Village Park, 12901 73 Ave",sports field,surrey,12901,73,..,..,bc
8826,"Basketball/Hockey Court; Unwin Park, 13313 68 Ave",sports field,surrey,13313,68,..,..,bc
8881,Bear Creek Youth Park - Basketball Courts,sports field,surrey,..,..,..,..,bc
8915,Bell Park - Tennis Courts,sports field,surrey,..,..,..,..,bc
8916,Bell Park - Tennis Courts,sports field,surrey,..,..,..,..,bc
8976,Bhangramatics Academy Inc,community centre,surrey,12827,76,V3W 2V3,..,bc
9086,Bob Rutledge Park - Basketball Courts,sports field,surrey,..,..,..,..,bc
9087,Bob Rutledge Park - Tennis Courts,sports field,surrey,..,..,..,..,bc
9088,Bob Rutledge Park - Tennis Courts,sports field,surrey,..,..,..,..,bc
9110,Bollywood Hungama Entertainment Group Ltd,community centre,surrey,8140,128,V3W 1R1,..,bc
9111,Bonaccord Park - Basketball - Half Courts,sports field,surrey,..,..,..,..,bc
9249,Bridgeview Park - Basketball Courts,sports field,surrey,..,..,..,..,bc
9250,Bridgeview Park - Tennis Courts,sports field,surrey,..,..,..,..,bc
9714,Changlife Fitness And Martial Arts Inc,community centre,surrey,8645,160,V4N 4P5,..,bc
9715,Chang's Taekwondo Martial Arts,community centre,surrey,19232,enterprise,V3S 2J4,..,bc
9887,Clayton Hills Golf Course,sports field,surrey,5640,188,V3S 4N5,..,bc
9888,Clayton Park - Basketball/Hockey Courts,sports field,surrey,..,..,..,..,bc
9889,Clayton Park - Bocce Courts,sports field,surrey,..,..,..,..,bc
9890,Clayton Park - Tennis Courts,sports field,surrey,..,..,..,..,bc
9891,Clayton Park - Tennis Courts,sports field,surrey,..,..,..,..,bc
9892,Clayton Park - Tennis Courts,sports field,surrey,..,..,..,..,bc
9922,Cloverdale Athletic Park - Basketball/Hockey Courts,sports field,surrey,..,..,..,..,bc
9923,Cloverdale Athletic Park - Tennis Courts,sports field,surrey,..,..,..,..,bc
9924,Cloverdale Athletic Park - Tennis Courts,sports field,surrey,..,..,..,..,bc
9925,Cloverdale Athletic Park - Tennis Courts,sports field,surrey,..,..,..,..,bc
9926,Cloverdale Athletic Park - Tennis Courts,sports field,surrey,..,..,..,..,bc
9927,Cloverdale Black Belt Academy Inc,community centre,surrey,17700,10,V3S 1C7,..,bc
9928,Cloverdale Curling Rink,rink,surrey,..,..,..,..,bc
9929,Cloverdale Heights Park - Basketball Courts,sports field,surrey,..,..,..,..,bc
9930,Cloverdale Heights Park - Tennis Courts,sports field,surrey,..,..,..,..,bc
9935,Cloverdale Youth Park - Basketball Courts,sports field,surrey,..,..,..,..,bc
9936,Cloverdale Youth Park - Basketball Courts,sports field,surrey,..,..,..,..,bc
10073,Club Pilates South Surrey,community centre,surrey,2245,160,V3Z 9N6,..,bc
10080,Club16 Trevor Linden Fitness (Newton) Ltd.,miscellaneous,surrey,6899,king george,V3W 5A1,..,bc
10288,Crescent Beach - Volleyball Courts,sports field,surrey,..,..,..,..,bc
