Index,Facility_Name,ODRSF_facility_type,Provider,Street_No,Street_Name,Postal_Code,City,Prov_Terr
172584,Oppenheimer Park,park,vancouver,400,powell,..,..,bc
172679,Oxford Park,park,vancouver,2050,wall,..,..,bc
172694,Pacific Spirit Park,park,vancouver,4000,king edward,..,..,bc
172736,Pandora Park,park,vancouver,2325,franklin,..,..,bc
173588,Park Site On Blenheim,park,vancouver,3500,quadra,..,..,bc
173589,Park Site On Puget Drive,park,vancouver,4309,puget,..,..,bc
173590,Park Site On Quesnel Drive,park,vancouver,4301,quesnel,..,..,bc
173591,Park Site On Shaughnessy Street,park,vancouver,..,shaughnessy,..,..,bc
173592,Park Site On Trafalgar Street,park,vancouver,4600,trafalgar,..,..,bc
173593,Park Site On Trinity Street,park,vancouver,2303,wall,..,..,bc
173952,Pioneer Place (Pigeon Park),park,vancouver,399,carrall,..,..,bc
174000,Point Grey Park Site At Stephens Street,park,vancouver,2699,point grey,..,..,bc
174001,Point Grey Park Site At Trafalgar Street,park,vancouver,2601,point grey,..,..,bc
174002,Point Grey Park Site At Trutch Street,park,vancouver,3215,point grey,..,..,bc
174065,Portal Park,park,vancouver,1099,hastings,..,..,bc
174112,Price Park,park,vancouver,3650,price,..,..,bc
174128,Prince Edward Park,park,vancouver,3773,prince edward,..,..,bc
174135,Prince Of Wales Park,park,vancouver,4780,haggart,..,..,bc
174207,Quadra West Park,park,vancouver,3250,quadra,..,..,bc
174411,Ravine Park,park,vancouver,2159,36th,..,..,bc
174548,Renfrew Community Park,park,vancouver,2929,22nd,..,..,bc
174549,Renfrew Ravine Park,park,vancouver,3900,renfrew,..,..,bc
174651,Riley Park,park,vancouver,50,30th,..,..,bc
174738,Riverfront Park,park,vancouver,2750,kent,..,..,bc
174796,Riverview Park,park,vancouver,1751,66th,..,..,bc
174868,Robson Park,park,vancouver,599,kingsway,..,..,bc
174981,Rosemary Brown Park,park,vancouver,..,11th,..,..,bc
174986,Rosemont Park,park,vancouver,3101,rosemont,..,..,bc
175010,Ross Park,park,vancouver,7402,ross,..,..,bc
175328,Rupert Park,park,vancouver,1600,rupert,..,..,bc
175414,Sahalli Park,park,vancouver,..,..,..,..,bc
175440,Salsbury Park,park,vancouver,1806,adanac,..,..,bc
175649,Seaforth Peace Park,park,vancouver,1620,chestnut,..,..,bc
175754,Shannon Park,park,vancouver,1575,62nd,..,..,bc
175764,Shaughnessy Park,park,vancouver,1300,the-crescent,..,..,bc
176029,Slocan Park,park,vancouver,2750,29th,..,..,bc
176205,Spanish Banks Beach Park,beach,vancouver,4801,marine,..,..,bc
176684,Strathcona Linear Park,park,vancouver,787,prior,..,..,bc
176814,Sunnyside Park,park,vancouver,1100,17th,..,..,bc
176827,Sunset Beach Park,park,vancouver,1204,beach,..,..,bc
176832,Sunset Park,park,vancouver,404,51st,..,..,bc
176850,Sutcliffe Park,park,vancouver,1318,cartwright,..,..,bc
176974,Tatlow Park,park,vancouver,2845,3rd,..,..,bc
176994,Tea Swamp Park,park,vancouver,266,15th,..,..,bc
177018,Templeton Park,park,vancouver,700,templeton,..,..,bc
177159,Thornton Park,park,vancouver,1166,main,..,..,bc
177167,Thunderbird Park,park,vancouver,3485,2nd,..,..,bc
177208,Tisdall Park,park,vancouver,6210,tisdall,..,..,bc
177330,Trafalgar Park,park,vancouver,2610,23rd,..,..,bc
