Index,Facility_Name,ODRSF_facility_type,Provider,Street_No,Street_Name,Postal_Code,City,Prov_Terr
697,Carnegie Centre,community centre,vancouver,401,main,..,..,bc
1179,Coopers' Park,park,vancouver,1020,marinaside,..,vancouver,bc
1227,Crab Park At Portside,park,vancouver,101,waterfront,..,vancouver,bc
1343,Devonian Harbour Park,park,vancouver,1929,georgia,..,vancouver,bc
1447,Dusty Greenwell Park,park,vancouver,2799,wall,..,vancouver,bc
1569,Emery Barnes Park,park,vancouver,..,davie,..,..,bc
1600,Evelyne Saller Centre,community centre,vancouver,320,alexander,..,..,bc
1602,Everett Crowley Park,park,vancouver,8200,kerr,..,vancouver,bc
1631,Falaise Park,park,vancouver,3434,falaise,..,vancouver,bc
1773,Fraser River Park,park,vancouver,8705,angus,..,vancouver,bc
1819,Gathering Place Community Centre,community centre,vancouver,609,helmcken,..,..,bc
1836,George Park,park,vancouver,500,63rd,..,vancouver,bc
2043,Hadden Park,park,vancouver,1905,ogden,..,vancouver,bc
2562,Killarney Park,park,vancouver,6205,kerr,..,vancouver,bc
2584,Kingscrest Park,park,vancouver,4150,knight,..,vancouver,bc
3486,Musqueam Park,park,vancouver,4000,marine,..,vancouver,bc
3495,Nat Bailey Stadium Park,stadium,vancouver,4601,ontario,..,vancouver,bc
3514,Nelson Park,park,vancouver,1030,bute,..,vancouver,bc
5027,Queen Elizabeth Park,park,vancouver,4600,cambie,..,vancouver,bc
5043,Quilchena Park,park,vancouver,4590,magnolia,..,vancouver,bc
5080,Ray-Cam Co-Operative Center,community centre,vancouver,920,hastings,..,..,bc
5668,Southeast False Creek Park,park,vancouver,215,1st,..,vancouver,bc
5678,Spanish Banks Park,park,vancouver,4801,marine,..,vancouver,bc
5681,Sparwood Park,park,vancouver,6998,arlington,..,vancouver,bc
5947,Stanley Park,park,vancouver,2000,georgia,..,vancouver,bc
5984,Strathcona Park,park,vancouver,857,malkin,..,vancouver,bc
6024,Sunset Beach,beach,vancouver,1204,beach,..,vancouver,bc
6025,Sunset Park,park,vancouver,300,53rd,..,vancouver,bc
6051,Tecumseh Park,park,vancouver,1751,45th,..,..,bc
6208,Valdez Park,park,vancouver,3210,22nd,..,..,bc
6779,..,park,vancouver,89,expo,..,..,bc
11242,Fraserview Golf Course,sports field,vancouver,7800,vivian,..,vancouver,bc
84269,..,trail,burnaby,..,..,..,..,bc
162063,Aberdeen Park,park,vancouver,3525,foster,..,..,bc
162094,Adanac Park,park,vancouver,1025,boundary,..,..,bc
162216,Alexandra Park,park,vancouver,1755,beach,..,..,bc
162227,Alice Townley Park,park,vancouver,1775,woodland,..,..,bc
162262,Almond Park,park,vancouver,3600,12th,..,..,bc
162348,Andy Livingstone Park,park,vancouver,89,expo,..,..,bc
162365,Angus Park,park,vancouver,3600,angus,..,..,bc
162449,Arbutus Greenway Park,park,vancouver,..,..,..,..,bc
162453,Arbutus Park,park,vancouver,7601,arbutus,..,..,bc
162456,Arbutus Village Park,park,vancouver,4202,valley,..,..,bc
162540,Art Phillips Park,park,vancouver,625,burrard,..,..,bc
162569,Ash Park,park,vancouver,8288,ash,..,..,bc
162840,Bates Park,park,vancouver,669,fellowes,..,..,bc
162948,Beaconsfield Park,park,vancouver,3215,slocan,..,..,bc
163476,Bobolink Park,park,vancouver,2510,hoylake,..,..,bc
163625,Braemar Park,park,vancouver,895,27th,..,..,bc
