Index,Facility_Name,ODRSF_facility_type,Provider,Street_No,Street_Name,Postal_Code,City,Prov_Terr
21337,BC Parkway,trail,burnaby,..,..,..,..,bc
21338,BC Parkway,trail,burnaby,..,..,..,..,bc
21339,BC Parkway,trail,burnaby,..,..,..,..,bc
21340,BC Parkway,trail,burnaby,..,..,..,..,bc
21341,BC Parkway,trail,burnaby,..,..,..,..,bc
23061,Burnaby Mountain Urban Trail,trail,burnaby,..,..,..,..,bc
23062,Burnaby Mountain Urban Trail,trail,burnaby,..,..,..,..,bc
23063,Burnaby Mountain Urban Trail,trail,burnaby,..,..,..,..,bc
23064,Burnaby Mountain Urban Trail,trail,burnaby,..,..,..,..,bc
23065,Burnaby Mountain Urban Trail,trail,burnaby,..,..,..,..,bc
23066,Burnaby Mountain Urban Trail,trail,burnaby,..,..,..,..,bc
23067,Burnaby Mountain Urban Trail,trail,burnaby,..,..,..,..,bc
23068,Burnaby Mountain Urban Trail,trail,burnaby,..,..,..,..,bc
23069,Burnaby Mountain Urban Trail,trail,burnaby,..,..,..,..,bc
23070,Burnaby Mountain Urban Trail,trail,burnaby,..,..,..,..,bc
23071,Burnaby Mountain Urban Trail,trail,burnaby,..,..,..,..,bc
23072,Burnaby Mountain Urban Trail,trail,burnaby,..,..,..,..,bc
23073,Burnaby Mountain Urban Trail,trail,burnaby,..,..,..,..,bc
23074,Burnaby Mountain Urban Trail,trail,burnaby,..,..,..,..,bc
23075,Burnaby Mountain Urban Trail,trail,burnaby,..,..,..,..,bc
23076,Burnaby Mountain Urban Trail,trail,burnaby,..,..,..,..,bc
23077,Burnaby Mountain Urban Trail,trail,burnaby,..,..,..,..,bc
23078,Burnaby Mountain Urban Trail,trail,burnaby,..,..,..,..,bc
23079,Burnaby Mountain Urban Trail,trail,burnaby,..,..,..,..,bc
23080,Burnaby Mountain Urban Trail,trail,burnaby,..,..,..,..,bc
23081,Burnaby Mountain Urban Trail,trail,burnaby,..,..,..,..,bc
23119,Burnwood Trail,trail,burnaby,..,..,..,..,bc
23120,Burnwood Trail,trail,burnaby,..,..,..,..,bc
23465,Cardiac Hill Trail,trail,burnaby,..,..,..,..,bc
23810,Central Valley Greenway,trail,burnaby,..,..,..,..,bc
23811,Central Valley Greenway,trail,burnaby,..,..,..,..,bc
23812,Central Valley Greenway,trail,burnaby,..,..,..,..,bc
23813,Central Valley Greenway,trail,burnaby,..,..,..,..,bc
23814,Central Valley Greenway,trail,burnaby,..,..,..,..,bc
23815,Central Valley Greenway,trail,burnaby,..,..,..,..,bc
23816,Central Valley Greenway,trail,burnaby,..,..,..,..,bc
23817,Central Valley Greenway,trail,burnaby,..,..,..,..,bc
23818,Central Valley Greenway,trail,burnaby,..,..,..,..,bc
23819,Central Valley Greenway,trail,burnaby,..,..,..,..,bc
23820,Central Valley Greenway,trail,burnaby,..,..,..,..,bc
23821,Central Valley Greenway,trail,burnaby,..,..,..,..,bc
23822,Central Valley Greenway,trail,burnaby,..,..,..,..,bc
23823,Central Valley Greenway,trail,burnaby,..,..,..,..,bc
23824,Central Valley Greenway,trail,burnaby,..,..,..,..,bc
23825,Central Valley Greenway,trail,burnaby,..,..,..,..,bc
23826,Century Gardens Trail,trail,burnaby,..,..,..,..,bc
23827,Century Gardens Trail,trail,burnaby,..,..,..,..,bc
23828,Century Gardens Trail,trail,burnaby,..,..,..,..,bc
23829,Century Gardens Trail,trail,burnaby,..,..,..,..,bc
