Index,Facility_Name,ODRSF_facility_type,Provider,Street_No,Street_Name,Postal_Code,City,Prov_Terr
6780,..,playground,white rock,..,..,..,..,bc
6781,..,playground,white rock,..,..,..,..,bc
6782,..,playground,white rock,..,..,..,..,bc
6783,..,playground,white rock,..,..,..,..,bc
6784,..,playground,white rock,..,..,..,..,bc
8339,Baseball Field,sports field,white rock,..,..,..,..,bc
12025,Horseshoe Pits,sports field,white rock,..,..,..,..,bc
12788,Lacrosse Box,sports field,white rock,..,..,..,..,bc
12937,Lawn Bowling - Dolphin St,sports field,white rock,..,..,..,..,bc
12938,Lawn Bowling North Bluff Ave,sports field,white rock,..,..,..,..,bc
16790,Soccer Field / Track,sports field,white rock,..,..,..,..,bc
17596,Tennis Courts - Club,sports field,white rock,..,..,..,..,bc
17602,Tennis Courts Public,sports field,white rock,..,..,..,..,bc
18873,..,sports field,white rock,..,..,..,..,bc
18874,..,sports field,white rock,..,..,..,..,bc
18875,..,sports field,white rock,..,..,..,..,bc
18876,..,sports field,white rock,..,..,..,..,bc
18877,..,sports field,white rock,..,..,..,..,bc
18878,..,sports field,white rock,..,..,..,..,bc
18879,..,sports field,white rock,..,..,..,..,bc
18880,..,sports field,white rock,..,..,..,..,bc
18881,..,sports field,white rock,..,..,..,..,bc
18882,..,sports field,white rock,..,..,..,..,bc
18883,..,sports field,white rock,..,..,..,..,bc
18884,..,sports field,white rock,..,..,..,..,bc
18885,..,sports field,white rock,..,..,..,..,bc
18886,..,sports field,white rock,..,..,..,..,bc
18887,..,sports field,white rock,..,..,..,..,bc
18888,..,sports field,white rock,..,..,..,..,bc
18889,..,sports field,white rock,..,..,..,..,bc
18890,..,sports field,white rock,..,..,..,..,bc
18891,..,sports field,white rock,..,..,..,..,bc
18892,..,sports field,white rock,..,..,..,..,bc
18893,..,sports field,white rock,..,..,..,..,bc
18894,..,sports field,white rock,..,..,..,..,bc
18895,..,sports field,white rock,..,..,..,..,bc
18896,..,sports field,white rock,..,..,..,..,bc
18897,..,sports field,white rock,..,..,..,..,bc
18898,..,sports field,white rock,..,..,..,..,bc
18899,..,sports field,white rock,..,..,..,..,bc
18900,..,sports field,white rock,..,..,..,..,bc
18901,..,sports field,white rock,..,..,..,..,bc
18902,..,sports field,white rock,..,..,..,..,bc
18903,..,sports field,white rock,..,..,..,..,bc
18904,..,sports field,white rock,..,..,..,..,bc
18905,..,sports field,white rock,..,..,..,..,bc
18906,..,sports field,white rock,..,..,..,..,bc
18907,..,sports field,white rock,..,..,..,..,bc
18908,..,sports field,white rock,..,..,..,..,bc
