Index,Facility_Name,ODRSF_facility_type,Provider,Street_No,Street_Name,Postal_Code,City,Prov_Terr
169047,Jennifer Park,park,saanich,..,..,..,..,bc
169347,Kardum Park,park,saanich,..,..,..,..,bc
169432,Kenmore Park,park,saanich,..,..,..,..,bc
169456,Kentwood Park,park,saanich,..,..,..,..,bc
169527,King Alfred Park,park,saanich,..,..,..,..,bc
169555,King's Pond Park,park,saanich,..,..,..,..,bc
169877,Knockan Hill Park,park,saanich,..,..,..,..,bc
169894,Konukson Park,park,saanich,..,..,..,..,bc
169963,Lake Access,park,saanich,..,..,..,..,bc
170046,Lambrick Park,park,saanich,..,..,..,..,bc
170197,Layritz Park,park,saanich,..,..,..,..,bc
170222,Leeds Park,park,saanich,..,..,..,..,bc
170496,Lochside Park,park,saanich,..,..,..,..,bc
170508,Logan Park,park,saanich,..,..,..,..,bc
170510,Lohbrunner Park,park,saanich,..,..,..,..,bc
170795,Majestic Park,park,saanich,..,..,..,..,bc
170827,Maltwood Park,park,saanich,..,..,..,..,bc
170944,Margaret Wright Park,park,saanich,..,..,..,..,bc
170963,Marigold Park,park,saanich,..,..,..,..,bc
171123,Mattick's Wood Park,park,saanich,..,..,..,..,bc
171167,Maynard Park,park,saanich,..,..,..,..,bc
171183,Mcbriar Park,park,saanich,..,..,..,..,bc
171320,Mcminn Park,park,saanich,..,..,..,..,bc
171321,Mcmorran Park,park,saanich,..,..,..,..,bc
171339,Meadow Park,park,saanich,..,..,..,..,bc
171769,Montague Park,park,saanich,..,..,..,..,bc
171799,Moor Park,park,saanich,..,..,..,..,bc
171882,Mount Douglas Park,park,saanich,..,..,..,..,bc
171912,Mount Tolmie Park,park,saanich,..,..,..,..,bc
171913,Mount View Park,park,saanich,..,..,..,..,bc
172180,Normandy Park,park,saanich,..,..,..,..,bc
172455,Oakview Park,park,saanich,..,..,..,..,bc
172575,Onyx Park,park,saanich,..,..,..,..,bc
172660,Outerbridge Park,park,saanich,..,..,..,..,bc
172729,Panama Hill Park,park,saanich,..,..,..,..,bc
173557,Park,park,saanich,..,..,..,..,bc
173611,Parker Park,park,saanich,..,..,..,..,bc
173660,Parkwood Park,park,saanich,..,..,..,..,bc
173741,Peacock Hill Park,park,saanich,..,..,..,..,bc
173798,Perez Park,park,saanich,..,..,..,..,bc
173848,Phyllis Park,park,saanich,..,..,..,..,bc
173975,Playfair Park,park,saanich,..,..,..,..,bc
174029,Pondwood Park,park,saanich,..,..,..,..,bc
174172,Prospect Lake Park,park,saanich,..,..,..,..,bc
174225,Qu'Appelle Park,park,saanich,..,..,..,..,bc
174273,Quick's Bottom Park,park,saanich,..,..,..,..,bc
174327,Rainbow Park,park,saanich,..,..,..,..,bc
174333,Rainbow Ridge Park,park,saanich,..,..,..,..,bc
174532,Regina Park,park,saanich,..,..,..,..,bc
