Index,Facility_Name,ODRSF_facility_type,Provider,Street_No,Street_Name,Postal_Code,City,Prov_Terr
164092,Camrose Park,park,saanich,..,..,..,..,bc
164273,Casa Marcia Park,park,saanich,..,..,..,..,bc
164312,Catalina Park,park,saanich,..,..,..,..,bc
164351,Cecelia Creek Falls Park,park,saanich,..,..,..,..,bc
164374,Cedar Hill Park,park,saanich,..,..,..,..,bc
164513,Century Park,park,saanich,..,..,..,..,bc
164624,Charlton Park,park,saanich,..,..,..,..,bc
164636,Chatterton Hill Park,park,saanich,..,..,..,..,bc
164809,Claremont-Goddard Park,park,saanich,..,..,..,..,bc
164989,Colquitz Park,park,saanich,..,..,..,..,bc
165009,Commonwealth Place Park,park,saanich,..,..,..,..,bc
165093,Copley East Park,park,saanich,..,..,..,..,bc
165094,Copley West Park,park,saanich,..,..,..,..,bc
165109,Cordova Bay Park,park,saanich,..,..,..,..,bc
165286,Craigflower-Kosapsom Park,park,saanich,..,..,..,..,bc
165296,Cranford Park,park,saanich,..,..,..,..,bc
165448,Cuthbert Holmes Park,park,saanich,..,..,..,..,bc
165857,Donwood Park,park,saanich,..,..,..,..,bc
165884,Doris Page Park,park,saanich,..,..,..,..,bc
165910,Doumac Park,park,saanich,..,..,..,..,bc
166019,Dunbar Park,park,saanich,..,..,..,..,bc
166230,Edge Park,park,saanich,..,..,..,..,bc
166417,Emily Carr Park,park,saanich,..,..,..,..,bc
166521,Estelline Park,park,saanich,..,..,..,..,bc
166589,Fairburn Park,park,saanich,..,..,..,..,bc
166655,Faithwood Park,park,saanich,..,..,..,..,bc
166656,Falaise Park,park,saanich,..,..,..,..,bc
166727,Feltham Park,park,saanich,..,..,..,..,bc
166758,Ferndale Forest Park,park,saanich,..,..,..,..,bc
167004,Fowler Park,park,saanich,..,..,..,..,bc
167036,Francisco Park,park,saanich,..,..,..,..,bc
167421,Glanford Park,park,saanich,..,..,..,..,bc
167423,Glasgow Park,park,saanich,..,..,..,..,bc
167494,Glencoe Cove-Kwatsech Park,park,saanich,..,..,..,..,bc
167495,Glencraig Park,park,saanich,..,..,..,..,bc
167642,Gordon Head East Park,park,saanich,..,..,..,..,bc
167643,Gordon Head North Park,park,saanich,..,..,..,..,bc
167661,Gore-Peace Memorial Park,park,saanich,..,..,..,..,bc
167662,Gorge Park,park,saanich,..,..,..,..,bc
167663,Gorge Waterway Park,park,saanich,..,..,..,..,bc
167680,Goward Park,park,saanich,..,..,..,..,bc
167685,Goy Park,park,saanich,..,..,..,..,bc
167761,Grant Park,park,saanich,..,..,..,..,bc
168015,Hampton Park,park,saanich,..,..,..,..,bc
168116,Harvest Lane Park,park,saanich,..,..,..,..,bc
168551,Hollydene Park,park,saanich,..,..,..,..,bc
168599,Horner Park,park,saanich,..,..,..,..,bc
168622,Houlihan Park,park,saanich,..,..,..,..,bc
168724,Hyacinth Park,park,saanich,..,..,..,..,bc
