Index,Facility_Name,ODRSF_facility_type,Provider,Street_No,Street_Name,Postal_Code,City,Prov_Terr
162834,Bastion Square,park,victoria,..,..,..,..,bc
162860,Bay And Government Parkette,park,victoria,..,..,..,..,bc
162944,Beacon Hill Park,park,victoria,..,..,..,..,bc
163045,Begbie Green,park,victoria,..,..,..,..,bc
163047,Begbie Parkways,park,victoria,..,..,..,..,bc
163085,Belleville Street Greens,park,victoria,..,..,..,..,bc
163099,Belmont Green,park,victoria,..,..,..,..,bc
163396,Blackwood Green,park,victoria,..,..,..,..,bc
163411,Blanshard Parkway,park,victoria,..,..,..,..,bc
163695,Bridgehead Green,park,victoria,..,..,..,..,bc
163704,Bridges Park,park,victoria,..,..,..,..,bc
163802,Brooke Street Park,park,victoria,..,..,..,..,bc
163908,Burleith Park,park,victoria,..,..,..,..,bc
163948,Bushby Park,park,victoria,..,..,..,..,bc
164326,Catherine Street Green,park,victoria,..,..,..,..,bc
164349,Cecelia Cove Park,park,victoria,..,..,..,..,bc
164352,Cecelia Ravine Park,park,victoria,..,..,..,..,bc
164468,Centennial Park,park,victoria,..,..,..,..,bc
164475,Centennial Square,park,victoria,..,..,..,..,bc
164493,Central Park,park,victoria,..,..,..,..,bc
164576,Chapman Park,park,victoria,..,..,..,..,bc
164600,Charles Redfern Green,park,victoria,..,..,..,..,bc
164844,Clawthorpe Avenue Park,park,victoria,..,..,..,..,bc
164895,Clover Point Park,park,victoria,..,..,..,..,bc
165364,Cridge Memorial Park,park,victoria,..,..,..,..,bc
165490,Dallas Road Beach,park,victoria,..,..,..,..,bc
165550,David Spencer Park,park,victoria,..,..,..,..,bc
165842,Doncaster Green,park,victoria,..,..,..,..,bc
166040,Dundas Green,park,victoria,..,..,..,..,bc
166474,Ernest Todd Parkette,park,victoria,..,..,..,..,bc
166596,Fairfield Green,park,victoria,..,..,..,..,bc
166754,Fern Street Playlot,park,victoria,..,..,..,..,bc
166836,Fisgard Green,park,victoria,..,..,..,..,bc
166845,Fisherman's Wharf Park,park,victoria,..,..,..,..,bc
167053,Franklin Green,park,victoria,..,..,..,..,bc
167189,Garbally Landing,park,victoria,..,..,..,..,bc
167409,Gladstone Mall,park,victoria,..,..,..,..,bc
167625,Gonzales Green,park,victoria,..,..,..,..,bc
167681,Gower Park,park,victoria,..,..,..,..,bc
167967,Haegert Park,park,victoria,..,..,..,..,bc
168081,Harris Green,park,victoria,..,..,..,..,bc
168294,Hereward Green,park,victoria,..,..,..,..,bc
168443,Highview Playlot,park,victoria,..,..,..,..,bc
168445,Highview Street Park,park,victoria,..,..,..,..,bc
168496,Hillside Park,park,victoria,..,..,..,..,bc
168535,Holland Point Park,park,victoria,..,..,..,..,bc
168554,Hollywood Park,park,victoria,..,..,..,..,bc
168667,Humber Green,park,victoria,..,..,..,..,bc
168857,Irving Park,park,victoria,..,..,..,..,bc
