Index,Facility_Name,ODRSF_facility_type,Provider,Street_No,Street_Name,Postal_Code,City,Prov_Terr
490,Boys And Girls Club,community centre,victoria,1240,yates,..,..,bc
600,Burnside Gorge Community Centre,community centre,victoria,471,cecelia,..,..,bc
1175,Cook Street Village Activity Centre,community centre,victoria,380,cook,..,..,bc
1267,Crystal Pool And Fitness Centre,pool,victoria,2275,quadra,..,..,bc
1616,Fairfield Gonzales Community Centre,community centre,victoria,1330,fairfield,..,..,bc
1665,Fernwood Community Association,community centre,victoria,1921,fernwood,..,..,bc
1666,Fernwood Community Centre,community centre,victoria,1923,fernwood,..,..,bc
1805,Garry Oak Room,community centre,victoria,1335,thurlow,..,..,bc
2405,James Bay Community School Centre,community centre,victoria,140,oswego,..,..,bc
2406,James Bay New Horizons Activity Centre,community centre,victoria,234,menzies,..,..,bc
3626,Oaklands Community Centre And Neighbourhood House,community centre,victoria,2827,belmont,..,..,bc
5023,Quadra Village Community Centre,community centre,victoria,901,kings,..,..,bc
5334,Save-On-Foods Memorial Centre,stadium,victoria,1925,blanshard,..,..,bc
6280,Victoria West Community Centre,community centre,victoria,521,craigflower,..,..,bc
8285,Banfield Park,sports field,victoria,..,..,..,..,bc
8286,Banfield Park,sports field,victoria,..,..,..,..,bc
8302,Barnard Park,sports field,victoria,..,..,..,..,bc
8875,Beacon Hill Park,sports field,victoria,..,..,..,..,bc
8876,Beacon Hill Park,sports field,victoria,..,..,..,..,bc
9571,Cecelia Ravine Park,sports field,victoria,..,..,..,..,bc
9572,Cecelia Ravine Park,sports field,victoria,..,..,..,..,bc
9619,Centennial Square,miscellaneous,victoria,1,centennial,..,..,bc
9625,Central Park,sports field,victoria,..,..,..,..,bc
9626,Central Park,sports field,victoria,..,..,..,..,bc
10890,Ernest Todd Parkette,sports field,victoria,..,..,..,..,bc
11220,Franklin Green,sports field,victoria,..,..,..,..,bc
11968,Hollywood Park,sports field,victoria,..,..,..,..,bc
14089,Oaklands Park,sports field,victoria,..,..,..,..,bc
14090,Oaklands Park,sports field,victoria,..,..,..,..,bc
14091,Oaklands Park,sports field,victoria,..,..,..,..,bc
14092,Oaklands Park,sports field,victoria,..,..,..,..,bc
14093,Oaklands Park,sports field,victoria,..,..,..,..,bc
14094,Oaklands Park,sports field,victoria,..,..,..,..,bc
14196,Oswald Park,sports field,victoria,..,..,..,..,bc
17251,Stadacona Park,sports field,victoria,..,..,..,..,bc
17252,Stadacona Park,sports field,victoria,..,..,..,..,bc
17800,Topaz Park,sports field,victoria,..,..,..,..,bc
18032,Victoria West Park,sports field,victoria,..,..,..,..,bc
18033,Victoria West Park,sports field,victoria,..,..,..,..,bc
18391,William Stevenson Memorial Park,sports field,victoria,..,..,..,..,bc
162091,Adanac Green,park,victoria,..,..,..,..,bc
162206,Alexander Park,park,victoria,..,..,..,..,bc
162274,Alston Green,park,victoria,..,..,..,..,bc
162454,Arbutus Park,park,victoria,..,..,..,..,bc
162493,Arm Street Park,park,victoria,..,..,..,..,bc
162541,Arthur Currie Green,park,victoria,..,..,..,..,bc
162671,Avalon Green,park,victoria,..,..,..,..,bc
162720,Balfour Playlot,park,victoria,..,..,..,..,bc
162754,Banfield Park,park,victoria,..,..,..,..,bc
