Index,Facility_Name,ODRSF_facility_type,Provider,Street_No,Street_Name,Postal_Code,City,Prov_Terr
174666,Rithet's Bog Conservation Area,park,saanich,..,..,..,..,bc
174667,Rithetwood Park,park,saanich,..,..,..,..,bc
174931,Rogers Court Park,park,saanich,..,..,..,..,bc
174932,Rogers Park,park,saanich,..,..,..,..,bc
174976,Rosedale Park,park,saanich,..,..,..,..,bc
175248,Rowan Park,park,saanich,..,..,..,..,bc
175315,Rudd Park,park,saanich,..,..,..,..,bc
175358,Rutledge Park,park,saanich,..,..,..,..,bc
175542,Sayward Hill Park,park,saanich,..,..,..,..,bc
175638,Sea Ridge Park,park,saanich,..,..,..,..,bc
175736,Shadywood Park,park,saanich,..,..,..,..,bc
175886,Sierra Park,park,saanich,..,..,..,..,bc
176129,South Prospect Lake Park,park,saanich,..,..,..,..,bc
176149,South Valley Park,park,saanich,..,..,..,..,bc
176281,Springridge Park,park,saanich,..,..,..,..,bc
176657,Stoneywood Park,park,saanich,..,..,..,..,bc
176665,Story Lane Park,park,saanich,..,..,..,..,bc
176700,Strawberry Knoll Park,park,saanich,..,..,..,..,bc
176863,Swan Creek Park,park,saanich,..,..,..,..,bc
176864,Swan Lake Christmas Hill Nature Sanctuary,park,saanich,..,..,..,..,bc
176866,Swan Lake Nature Sanctuary,park,saanich,..,..,..,..,bc
176989,Taylor Park,park,saanich,..,..,..,..,bc
177180,Tillicum Park,park,saanich,..,..,..,..,bc
177224,Tolmie Park,park,saanich,..,..,..,..,bc
177457,Tuscan Park,park,saanich,..,..,..,..,bc
177492,Tyndall Park,park,saanich,..,..,..,..,bc
177507,Underwood Park,park,saanich,..,..,..,..,bc
177724,Valewood Park,park,saanich,..,..,..,..,bc
177797,Vantreight Park,park,saanich,..,..,..,..,bc
177847,Vic Derman Park,park,saanich,..,..,..,..,bc
177894,Viewpoint Park,park,saanich,..,..,..,..,bc
178145,Wedgepoint Park,park,saanich,..,..,..,..,bc
178148,Wedgewood Park,park,saanich,..,..,..,..,bc
178366,Wetherby Park,park,saanich,..,..,..,..,bc
178401,Whitehead Park,park,saanich,..,..,..,..,bc
178451,Wildflower Park,park,saanich,..,..,..,..,bc
181237,..,park,saanich,..,..,..,..,bc
181238,..,park,saanich,..,..,..,..,bc
181239,..,park,saanich,..,..,..,..,bc
181240,..,park,saanich,..,..,..,..,bc
181241,..,park,saanich,..,..,..,..,bc
181242,..,park,saanich,..,..,..,..,bc
181243,..,park,saanich,..,..,..,..,bc
181244,..,park,saanich,..,..,..,..,bc
181245,..,park,saanich,..,..,..,..,bc
181246,..,park,saanich,..,..,..,..,bc
181247,..,park,saanich,..,..,..,..,bc
181248,..,park,saanich,..,..,..,..,bc
181249,..,park,saanich,..,..,..,..,bc
