Index,Facility_Name,ODRSF_facility_type,Provider,Street_No,Street_Name,Postal_Code,City,Prov_Terr
752,Cedar Hill Community Recreation Centre,community centre,saanich,..,..,..,..,bc
1794,G.R. Pearkes Community Recreation Centre,community centre,saanich,..,..,..,..,bc
162110,Agate Park,park,saanich,..,..,..,..,bc
162248,Allenby Park,park,saanich,..,..,..,..,bc
162289,Ambassador Park,park,saanich,..,..,..,..,bc
162380,Annie Park,park,saanich,..,..,..,..,bc
162448,Arbutus Cove Park,park,saanich,..,..,..,..,bc
162450,Arbutus Park,park,saanich,..,..,..,..,bc
162668,Autumnwood Park,park,saanich,..,..,..,..,bc
162728,Balmacarra Park,park,saanich,..,..,..,..,bc
162859,Baxter Park,park,saanich,..,..,..,..,bc
162910,Beach Access,beach,saanich,..,..,..,..,bc
162911,Beach Access,beach,saanich,..,..,..,..,bc
162912,Beach Access,beach,saanich,..,..,..,..,bc
162913,Beach Access,beach,saanich,..,..,..,..,bc
162914,Beach Access,beach,saanich,..,..,..,..,bc
162915,Beach Access,beach,saanich,..,..,..,..,bc
162916,Beach Access,beach,saanich,..,..,..,..,bc
162917,Beach Access,beach,saanich,..,..,..,..,bc
162918,Beach Access,beach,saanich,..,..,..,..,bc
162919,Beach Access,beach,saanich,..,..,..,..,bc
162920,Beach Access,beach,saanich,..,..,..,..,bc
162921,Beach Access,beach,saanich,..,..,..,..,bc
162922,Beach Access,beach,saanich,..,..,..,..,bc
162923,Beach Access,beach,saanich,..,..,..,..,bc
162924,Beach Access,beach,saanich,..,..,..,..,bc
162925,Beach Access,beach,saanich,..,..,..,..,bc
162926,Beach Access,beach,saanich,..,..,..,..,bc
162927,Beach Access,beach,saanich,..,..,..,..,bc
162928,Beach Access,beach,saanich,..,..,..,..,bc
162930,Beach Access,beach,saanich,..,..,..,..,bc
163018,Beckton Park,park,saanich,..,..,..,..,bc
163019,Beckwith Park,park,saanich,..,..,..,..,bc
163149,Benson Park,park,saanich,..,..,..,..,bc
163207,Bernard Park,park,saanich,..,..,..,..,bc
163361,Bisley Park,park,saanich,..,..,..,..,bc
163405,Blair Park,park,saanich,..,..,..,..,bc
163417,Blenkinsop Lake Park,park,saanich,..,..,..,..,bc
163556,Boulderwood Hill Park,park,saanich,..,..,..,..,bc
163565,Bow Park,park,saanich,..,..,..,..,bc
163619,Braefoot Park,park,saanich,..,..,..,..,bc
163761,Broadmead Park,park,saanich,..,..,..,..,bc
163775,Brodick Park,park,saanich,..,..,..,..,bc
163836,Browning Park,park,saanich,..,..,..,..,bc
163850,Bruce Hutchison Park,park,saanich,..,..,..,..,bc
163871,Brydon Park,park,saanich,..,..,..,..,bc
163999,Cadboro-Gyro Park,park,saanich,..,..,..,..,bc
164014,Caldecote Park,park,saanich,..,..,..,..,bc
164031,Calvert Park,park,saanich,..,..,..,..,bc
