Index,Facility_Name,ODRSF_facility_type,Provider,Street_No,Street_Name,Postal_Code,City,Prov_Terr
176082,Songhees Hillside Park,park,victoria,..,..,..,..,bc
176084,Songhees Park,park,victoria,..,..,..,..,bc
176122,South Park,park,victoria,..,..,..,..,bc
176232,Spirit Garden,park,victoria,..,..,..,..,bc
176323,St Charles Green,park,victoria,..,..,..,..,bc
176518,Stadacona Park,park,victoria,..,..,..,..,bc
176573,Steamcrane Quay,park,victoria,..,..,..,..,bc
176743,Sumas Park,park,victoria,..,..,..,..,bc
176772,Summit Park,park,victoria,..,..,..,..,bc
177022,Tenas Park,park,victoria,..,..,..,..,bc
177031,Terrace Park,park,victoria,..,..,..,..,bc
177268,Topaz Park,park,victoria,..,..,..,..,bc
177345,Transcanada Parkette,park,victoria,..,..,..,..,bc
177396,Triangle Park,park,victoria,..,..,..,..,bc
177698,Upper Causeway,park,victoria,..,..,..,..,bc
177707,Upper Memorial Green,park,victoria,..,..,..,..,bc
177828,Verrinder Park,park,victoria,..,..,..,..,bc
177844,Viaduct Park,park,victoria,..,..,..,..,bc
177885,Victoria West Park,park,victoria,..,..,..,..,bc
177935,Vista Park,park,victoria,..,..,..,..,bc
178047,Wark Street Park,park,victoria,..,..,..,..,bc
178193,Wesley Park,park,victoria,..,..,..,..,bc
178254,West Song Walkway,park,victoria,..,..,..,..,bc
178521,William Stevenson Memorial Park,park,victoria,..,..,..,..,bc
178578,Wilmer Green,park,victoria,..,..,..,..,bc
