Index,Facility_Name,ODRSF_facility_type,Provider,Street_No,Street_Name,Postal_Code,City,Prov_Terr
169084,Joan Crescent Green,park,victoria,..,..,..,..,bc
169209,Johnson Street Bridge West Green,park,victoria,..,..,..,..,bc
169211,Johnson Street Greens,park,victoria,..,..,..,..,bc
169330,Jutland Green,park,victoria,..,..,..,..,bc
169550,Kings Park,park,victoria,..,..,..,..,bc
169631,Kiwanis Green,park,victoria,..,..,..,..,bc
170151,Laurel Point Park,park,victoria,..,..,..,..,bc
170243,Leighton Green,park,victoria,..,..,..,..,bc
170308,Lewis Park,park,victoria,..,..,..,..,bc
170329,Lime Bay Beach,park,victoria,..,..,..,..,bc
170331,Lime Bay Park,park,victoria,..,..,..,..,bc
170468,Little Ross Bay Green,park,victoria,..,..,..,..,bc
170613,Lower Memorial Green,park,victoria,..,..,..,..,bc
170717,Macdonald Park,park,victoria,..,..,..,..,bc
170749,Maddison Green,park,victoria,..,..,..,..,bc
170831,Manchester Green,park,victoria,..,..,..,..,bc
170914,Maplewood Green,park,victoria,..,..,..,..,bc
171042,Mars Street Park,park,victoria,..,..,..,..,bc
171077,Mary Street Park,park,victoria,..,..,..,..,bc
171152,Mayfair Green,park,victoria,..,..,..,..,bc
171864,Moss Rocks Park,park,victoria,..,..,..,..,bc
171948,Mt Stephen Park,park,victoria,..,..,..,..,bc
172443,Oaklands Green,park,victoria,..,..,..,..,bc
172445,Oaklands Park,park,victoria,..,..,..,..,bc
172543,Olive Street Green,park,victoria,..,..,..,..,bc
172643,Oswald Park,park,victoria,..,..,..,..,bc
172734,Pandora Green,park,victoria,..,..,..,..,bc
173774,Pemberton Park,park,victoria,..,..,..,..,bc
173785,Penwill Green,park,victoria,..,..,..,..,bc
173954,Pioneer Square,park,victoria,..,..,..,..,bc
173998,Point Ellice Park,park,victoria,..,..,..,..,bc
174203,Quadra Heights Park,park,victoria,..,..,..,..,bc
174205,Quadra Park,park,victoria,..,..,..,..,bc
174249,Queens Avenue Playlot,park,victoria,..,..,..,..,bc
174319,Railspur Boardwalk,park,victoria,..,..,..,..,bc
174331,Rainbow Park,park,victoria,..,..,..,..,bc
174438,Raynor Park,park,victoria,..,..,..,..,bc
174474,Redfern Park,park,victoria,..,..,..,..,bc
174498,Reeson Park,park,victoria,..,..,..,..,bc
174518,Regatta Point Park,park,victoria,..,..,..,..,bc
174836,Robert J. Porter Park,park,victoria,..,..,..,..,bc
175283,Royal Athletic Park,park,victoria,..,..,..,..,bc
175329,Rupert Terrace Green,park,victoria,..,..,..,..,bc
175365,Ryan Street Green,park,victoria,..,..,..,..,bc
175410,Saghalie Park,park,victoria,..,..,..,..,bc
175634,Scurrah Green,park,victoria,..,..,..,..,bc
175670,Selkirk Green,park,victoria,..,..,..,..,bc
175793,Shelbourne Green,park,victoria,..,..,..,..,bc
175853,Ship's Point Park,park,victoria,..,..,..,..,bc
