Index,Facility_Name,ODRSF_facility_type,Provider,Street_No,Street_Name,Postal_Code,City,Prov_Terr
309,Beban Park Pool,pool,nanaimo,..,..,..,..,bc
1107,Cliff Mcnabb Arena,arena,nanaimo,..,..,..,..,bc
1757,Frank Crane Arena,arena,nanaimo,..,..,..,..,bc
3674,Oliver Woods Community Centre,community centre,nanaimo,6000,oliver,..,..,bc
162186,Alderway Park,park,nanaimo,5685,alder,..,..,bc
162254,Allison Way Park,park,nanaimo,3409,allison,..,..,bc
162267,Alpen Way Park,park,nanaimo,498,alpen,..,..,bc
162318,Amsterdam Park,park,nanaimo,5455,arnhem,..,..,bc
162331,Anchor Way Park,park,nanaimo,20,anchor,..,..,bc
162421,Applegreen Park,park,nanaimo,309,applegreen,..,..,bc
162439,Arbot Road Park,park,nanaimo,2430,arbot,..,..,bc
162451,Arbutus Park,park,nanaimo,291,rovere,..,..,bc
162477,Ardoon Place Park,park,nanaimo,2702,labieux,..,..,bc
162800,Barney Moriez Park,park,nanaimo,450,poplar,..,..,bc
162812,Barrington Park,park,nanaimo,..,..,..,..,bc
162817,Barsby Park,park,nanaimo,51,barsby,..,..,bc
162836,Bastion Square Park,park,nanaimo,94,front,..,..,bc
162875,Bayshore Park,park,nanaimo,..,bayshore,..,..,bc
162934,Beach Estates Park,park,nanaimo,2140,departure bay,..,..,bc
162973,Beaufort Park,park,nanaimo,69,lorne,..,..,bc
163012,Beban Park,park,nanaimo,2300,bowen,..,..,bc
163123,Ben Gunn Park,park,nanaimo,..,..,..,..,bc
163293,Biggs Road Park,park,nanaimo,4000,landmark,..,..,bc
163372,Black Diamond Park,park,nanaimo,281,black diamond,..,..,bc
163382,Blackbeard Park,park,nanaimo,..,..,..,..,bc
163450,Blueback Beach Access,park,nanaimo,..,blueback,..,..,bc
163477,Bob-O-Link Park,park,nanaimo,1663,bob-o-link,..,..,bc
163513,Bonnie Drive Park,park,nanaimo,..,bonnie,..,..,bc
163560,Bourbon Park,park,nanaimo,2227,bourbon,..,..,bc
163570,Bowen Park,park,nanaimo,500,bowen,..,..,bc
163611,Brackenwood Park,park,nanaimo,2331,briarwood,..,..,bc
163612,Brackenwood Park 2,park,nanaimo,2350,brackenwood,..,..,bc
163643,Brannen Lake Boat Launch,park,nanaimo,5500,dunster,..,..,bc
163653,Brechin Boat Ramp,park,nanaimo,..,..,..,..,bc
163665,Breonna Schonner Park,park,nanaimo,5986,breonna,..,..,bc
163766,Broadway Park,park,nanaimo,5946,broadway,..,..,bc
163828,Brookwood Park,park,nanaimo,5740,brookwood,..,..,bc
163844,Bruce Avenue Park,park,nanaimo,330,bruce,..,..,bc
163845,Bruce Avenue Park 2,park,nanaimo,329,bruce,..,..,bc
163957,Butternut Park,park,nanaimo,4370,butternut,..,..,bc
163958,Buttertubs Marsh Park,park,nanaimo,1780,jingle pot,..,..,bc
163991,Cable Bay Trail,park,nanaimo,..,..,..,..,bc
164019,Caledonia Park,park,nanaimo,110,wall,..,..,bc
164037,Camas Park,park,nanaimo,141,westwood,..,..,bc
164038,Cambie Park,park,nanaimo,390,cambie,..,..,bc
164050,Camcrest Park,park,nanaimo,..,..,..,..,bc
164147,Capilano Park 1,park,nanaimo,910,capilano,..,..,bc
164148,Capilano Park 2,park,nanaimo,972,capilano,..,..,bc
164163,Captain Flint Park,park,nanaimo,..,..,..,..,bc
