Index,Facility_Name,ODRSF_facility_type,Provider,Street_No,Street_Name,Postal_Code,City,Prov_Terr
169087,Joan Point Park,park,nanaimo,1080,phoenix,..,..,bc
169198,John Weeks Park,park,nanaimo,1407,island,..,..,bc
169235,Jordan Avenue Park,park,nanaimo,4851,jordan,..,..,bc
169237,Jordan/Nova Park,park,nanaimo,827,jordan,..,..,bc
169388,Keighley Park,park,nanaimo,2019,bay,..,..,bc
169457,Kentwood Park,park,nanaimo,693,kentwood,..,..,bc
169460,Kenwill Park,park,nanaimo,5363,kenwill,..,..,bc
169473,Kerry Lane Park,park,nanaimo,5790,kerry,..,..,bc
169526,Kinette Evergreen Park,park,nanaimo,451,ninth,..,..,bc
169601,Kinsmen Park,park,nanaimo,2730,departure bay,..,..,bc
169884,Knowles Park,park,nanaimo,..,..,..,..,bc
169893,Kolby Park,park,nanaimo,993,kolby,..,..,bc
169897,Koram Park,park,nanaimo,1610,townsite,..,..,bc
169955,Laguna 2,park,nanaimo,..,..,..,..,bc
169956,Laguna Park,park,nanaimo,..,..,..,..,bc
169957,Laguna Park 3,park,nanaimo,4900,laguna,..,..,bc
170028,Lakeview Park,park,nanaimo,4351,lakeview,..,..,bc
170069,Lancashire Park,park,nanaimo,2106,lancashire,..,..,bc
170086,Langara,park,nanaimo,1327,langara,..,..,bc
170138,Latimer Park,park,nanaimo,..,lancashire,..,..,bc
170268,Leo Terrace Park,park,nanaimo,1997,leo,..,..,bc
170307,Lewis Park,park,nanaimo,6466,lewis,..,..,bc
170399,Linley Point Gyro Park,park,nanaimo,5074,linley valley,..,..,bc
170400,Linley Valley Cottle Lake Park,park,nanaimo,3669,rock city,..,..,bc
170401,Linley Valley Park,park,nanaimo,5600,vanderneuk,..,..,bc
170431,Lions Square Park,park,nanaimo,280,wallace,..,..,bc
170528,Long John Silver Park,park,nanaimo,..,..,..,..,bc
170568,Lost Lake Trail,park,nanaimo,4877,lost lake,..,..,bc
170569,Lotus Pinnatus Park,park,nanaimo,100,lotus pinnatus,..,..,bc
170571,Loudon Park And Trail,park,nanaimo,4295,victoria,..,..,bc
170762,Maffeo Sutton Park,park,nanaimo,..,comox,..,..,bc
170816,Malibu Terrace Park,park,nanaimo,5747,malibu,..,..,bc
170857,Mansfield Park,park,nanaimo,800,st andrews,..,..,bc
171149,May Richards Bennett Pioneer Park,park,nanaimo,6700,dover,..,..,bc
171249,Mcgirr Community Park,park,nanaimo,6277,mcgirr,..,..,bc
171250,Mcgirr Sports Fields,park,nanaimo,6175,mcgirr,..,..,bc
171254,Mcgregor Park,park,nanaimo,108,front,..,..,bc
171257,Mcguffie Park,park,nanaimo,4665,mcguffie,..,..,bc
171288,Mckinnon Place Park,park,nanaimo,153,mckinnon,..,..,bc
171596,Millstone Park I,park,nanaimo,301,millstone,..,..,bc
171597,Millstone Park Ii,park,nanaimo,680,riverside,..,..,bc
171736,Mollys Marsh Park,park,nanaimo,..,..,..,..,bc
171749,Monashee Park,park,nanaimo,6040,monashee,..,..,bc
171834,Morningside Beach Access,park,nanaimo,..,morningside,..,..,bc
171835,Morningside Park,park,nanaimo,1001,morningside,..,..,bc
171843,Morrell Nature Sanctuary,park,nanaimo,787,nanaimo lakes,..,..,bc
172020,Nanaimo Aquatic Centre,park,nanaimo,741,third,..,..,bc
172021,Nanaimo Lakes Road Park,park,nanaimo,..,..,..,..,bc
172066,Neck Point Park,park,nanaimo,..,..,..,..,bc
