Index,Facility_Name,ODRSF_facility_type,Provider,Street_No,Street_Name,Postal_Code,City,Prov_Terr
172153,Nob Hill Park,park,nanaimo,400,milford,..,..,bc
172158,Norasea Park,park,nanaimo,5651,norasea,..,..,bc
172257,Northfield Marsh Park,park,nanaimo,2268,sun valley,..,..,bc
172258,Northfield Nature Park,park,nanaimo,2667,starlight,..,..,bc
172405,Nottingham Drive Park,park,nanaimo,356,nottingham,..,..,bc
172409,Nottingham Park 2,park,nanaimo,454,nottingham,..,..,bc
172410,Nottingham Park 3,park,nanaimo,457,nottingham,..,..,bc
172412,Nova Park,park,nanaimo,536,nova,..,..,bc
172415,Noye Park,park,nanaimo,5521,noye,..,..,bc
172478,Ocean Pearl Park,park,nanaimo,1209,ocean pearl,..,..,bc
172480,Oceanview Park,park,nanaimo,5310,laguna,..,..,bc
172513,Old Harewood School Sports Field,park,nanaimo,502,howard,..,..,bc
172548,Oliver Woods Park,park,nanaimo,6000,oliver,..,..,bc
172595,Orchard Circle Park 1,park,nanaimo,4117,orchard,..,..,bc
172596,Orchard Circle Park 2,park,nanaimo,4154,orchard,..,..,bc
173581,Park Gully Park,park,nanaimo,2930,haliday,..,..,bc
173659,Parkway Park,park,nanaimo,6150,parkway,..,..,bc
173661,Parkwood Park,park,nanaimo,6195,parkwood,..,..,bc
173723,Pawson Gyro Park,park,nanaimo,410,machleary,..,..,bc
173750,Pearson Park,park,nanaimo,..,terminal,..,..,bc
173838,Petroglyph Park,park,nanaimo,990,island,..,..,bc
173937,Pioneer Cemetery Park,park,nanaimo,10,wallace,..,..,bc
173956,Pioneer Square Park,park,nanaimo,28,nicol,..,..,bc
173960,Piper Park,park,nanaimo,100,cameron,..,..,bc
173961,Pipers Lagoon Park,park,nanaimo,3600,3600,..,..,bc
173962,Pirates Park,park,nanaimo,..,..,..,..,bc
173968,Place Road Beach Access,park,nanaimo,..,..,..,..,bc
173972,Planta Park,park,nanaimo,3455,stephenson point,..,..,bc
173984,Pleasant Valley Park,park,nanaimo,6150,doumont,..,..,bc
174046,Porpoise Place Park,park,nanaimo,5625,porpoise,..,..,bc
174068,Porter Road Park,park,nanaimo,75,porter,..,..,bc
174189,Pryde Ave Park,park,nanaimo,170,pryde,..,..,bc
174233,Queen Elizabeth Ii Promenade,park,nanaimo,..,newcastle,..,..,bc
174313,Rafter Road Park,park,nanaimo,6074,icarus,..,..,bc
174322,Railway/Connaught Park,park,nanaimo,..,..,..,..,bc
174359,Ranchview Park,park,nanaimo,159,ranchview,..,..,bc
174409,Ravine Park,park,nanaimo,2669,labieux,..,..,bc
174558,Reservoir Park,park,nanaimo,..,..,..,..,bc
174582,Richards Marsh Park,park,nanaimo,9,ranchview,..,..,bc
174847,Roberta Road Park,park,nanaimo,..,..,..,..,bc
174859,Robin's Den Park,park,nanaimo,..,..,..,..,bc
174860,Robins Park,park,nanaimo,..,..,..,..,bc
174878,Rock City Park,park,nanaimo,3660,rock city,..,..,bc
174879,Rock Ridge Park,park,nanaimo,3849,jingle pot,..,..,bc
174899,Rocky Point 1 Park,park,nanaimo,5021,winchelsea,..,..,bc
174900,Rocky Point 2 Park,park,nanaimo,5026,winchelsea,..,..,bc
174960,Rosamond Park,park,nanaimo,1,rosamond,..,..,bc
175016,Rosstown Road Park,park,nanaimo,2443,rosstown,..,..,bc
175021,Rotary Bowl-Serauxman Stadium,park,nanaimo,745,third,..,..,bc
