Index,Facility_Name,ODRSF_facility_type,Provider,Street_No,Street_Name,Postal_Code,City,Prov_Terr
175292,Royal Oak Park,park,nanaimo,310,arbot,..,..,bc
175351,Rutherford Park,park,nanaimo,5317,rutherford,..,..,bc
175352,Rutherford Park 2,park,nanaimo,5633,rutherford,..,..,bc
175363,Ryan Road Park,park,nanaimo,270,ryan,..,..,bc
175427,Salal Park,park,nanaimo,4095,salal,..,..,bc
175434,Salish Park,park,nanaimo,11,stewart,..,..,bc
175488,Sandra Road Park,park,nanaimo,3682,sandra,..,..,bc
175541,Saxer Park,park,nanaimo,6500,dover,..,..,bc
175600,Schook Park,park,nanaimo,6748,schook,..,..,bc
175639,Seabold Rotary Park,park,nanaimo,6695,seabold,..,..,bc
175650,Sealand Park,park,nanaimo,6209,sealand,..,..,bc
175661,Sechelt Drive Park,park,nanaimo,6238,sechelt,..,..,bc
175728,Shadow Mountain Park,park,nanaimo,6021,hammond bay,..,..,bc
175763,Shaughnessy Park,park,nanaimo,630,shaughnessy,..,..,bc
175803,Shenton Park,park,nanaimo,3831,shenton,..,..,bc
175879,Sid Clark Gyro Park,park,nanaimo,850,wentworth,..,..,bc
176047,Smugglers Park,park,nanaimo,..,..,..,..,bc
176159,Southampton Park,park,nanaimo,6544,southampton,..,..,bc
176198,Southwood Park,park,nanaimo,1080,park,..,..,bc
176275,Springfield Place Park,park,nanaimo,5373,fillinger,..,..,bc
176446,St. George Ravine Park,park,nanaimo,980,terminal,..,..,bc
176525,Staffordshire Park,park,nanaimo,2810,staffordshire,..,..,bc
176589,Stephenson Point Beach Access 3,park,nanaimo,3338,stephenson point,..,..,bc
176590,Stephenson Point Park,park,nanaimo,3263,stephenson point,..,..,bc
176612,Stirling/Deering Park,park,nanaimo,850,stirling,..,..,bc
176735,Sugarloaf Mountain Park,park,nanaimo,3160,marion,..,..,bc
176824,Sunrise Place Park,park,nanaimo,3675,sunrise,..,..,bc
176945,Tamara Park,park,nanaimo,2817,tamara,..,..,bc
176991,Taylor Place Park,park,nanaimo,273,wakesiah,..,..,bc
177090,Theresa Terrace Park,park,nanaimo,2599,theresa,..,..,bc
177095,Third Street Park,park,nanaimo,750,third,..,..,bc
177163,Three Lagoon Islands Park,park,nanaimo,..,..,..,..,bc
177168,Thunderbird Park 1,park,nanaimo,1100,thunderbird,..,..,bc
177169,Thunderbird Park 2,park,nanaimo,1130,thunderbird,..,..,bc
177325,Townsite Triangle Park,park,nanaimo,..,..,..,..,bc
177340,Tralee Park,park,nanaimo,1155,tralee,..,..,bc
177341,Tralee Road Park,park,nanaimo,2240,tralee,..,..,bc
177405,Trillium Park,park,nanaimo,3960,trillium,..,..,bc
177427,Trumpeter Park,park,nanaimo,1001,trumpeter,..,..,bc
177447,Turner/Carlton Park,park,nanaimo,5697,turner,..,..,bc
177688,Uplands Park 1,park,nanaimo,3608,uplands,..,..,bc
177689,Uplands Park 2,park,nanaimo,3675,uplands,..,..,bc
177731,Valley Oak Park,park,nanaimo,1900,jingle pot,..,..,bc
177891,View Street Park,park,nanaimo,..,view,..,..,bc
178009,Walley Creek Trail Park,park,nanaimo,..,..,..,..,bc
178029,Wandl,park,nanaimo,3760,glen oaks,..,..,bc
178045,Wardropper Park,park,nanaimo,2957,departure bay,..,..,bc
178174,Wellington Park,park,nanaimo,3170,ross,..,..,bc
178197,Wessex Lane Park,park,nanaimo,364,wessex,..,..,bc
