Index,Facility_Name,ODRSF_facility_type,Provider,Street_No,Street_Name,Postal_Code,City,Prov_Terr
166154,East Wellington Road Park,park,nanaimo,2191,wellington,..,..,bc
166242,Edgewater Pond Park,park,nanaimo,6080,island,..,..,bc
166294,Egli Park,park,nanaimo,2361,westhill,..,..,bc
166306,Elaine Hamilton Park,park,nanaimo,1631,naylor,..,..,bc
166343,Elks Park,park,nanaimo,940,comox,..,..,bc
166388,Elmwood Park,park,nanaimo,3977,elmwood,..,..,bc
166416,Emery Way Park,park,nanaimo,203,emery,..,..,bc
166443,Entwhistle Park,park,nanaimo,5291,entwhistle,..,..,bc
166444,Entwhistle/Cabriolet Park,park,nanaimo,5250,entwhistle,..,..,bc
166522,Estevan Park,park,nanaimo,1885,estevan,..,..,bc
166552,Everest Drive Park,park,nanaimo,6635,everest,..,..,bc
166753,Fern Road Park,park,nanaimo,2235,fern,..,..,bc
166783,Fillinger Waterfront Park 1,park,nanaimo,..,..,..,..,bc
166784,Fillinger Waterfront Park 2,park,nanaimo,4986,fillinger,..,..,bc
166857,Flagstone Park,park,nanaimo,1813,flagstone,..,..,bc
166922,Forest Drive Gyro Park,park,nanaimo,2035,forest,..,..,bc
167116,Friar Tuck Beach Access,park,nanaimo,..,hammond bay,..,nanaimo,bc
167182,Gallows Point Light Park,park,nanaimo,..,..,..,..,bc
167328,Georgia Park,park,nanaimo,18,front,..,..,bc
167329,Georgia Triangle Park,park,nanaimo,6156,shoreline,..,..,bc
167465,Glen Oaks Park 1,park,nanaimo,..,..,..,..,bc
167466,Glen Oaks Park 3,park,nanaimo,244,crestline,..,..,bc
167467,Glen Oaks Park 4,park,nanaimo,3825,glen oaks,..,..,bc
167753,Granite Road Park,park,nanaimo,3237,granite park,..,..,bc
167802,Green Lake (R.O.W.),park,nanaimo,..,jenkins,..,..,bc
167817,Greenaway Park,park,nanaimo,2040,stonecrop,..,..,bc
167912,Groveland Gyro Park,park,nanaimo,..,..,..,..,bc
167954,Gyro (Waddington) Park,park,nanaimo,711,waddington,..,..,bc
168040,Harambe Park,park,nanaimo,1738,harambe,..,..,bc
168053,Harewood Centennial Park (Sherry Fields),park,nanaimo,..,..,..,..,bc
168102,Harry Wipper Park,park,nanaimo,5050,hammond bay,..,..,bc
168121,Harwell Park,park,nanaimo,1620,college,..,..,bc
168149,Hawk Point Park,park,nanaimo,100,hawk point,..,..,bc
168161,Hawthorne Park,park,nanaimo,638,sarum rise,..,..,bc
168188,Healy Road Park,park,nanaimo,2043,healy,..,..,bc
168378,Hidden Treasure Park,park,nanaimo,..,..,..,..,bc
168538,Holland Road Park,park,nanaimo,190,holland,..,..,bc
168609,Horth Park,park,nanaimo,2745,horth,..,..,bc
168617,Hosanna Park,park,nanaimo,1599,extension,..,..,bc
168625,Howard Ave Park,park,nanaimo,265,howard,..,..,bc
168764,Icarus Drive Park,park,nanaimo,5981,icarus,..,..,bc
168828,Invermere Beach Access,park,nanaimo,6420,invermere,..,..,bc
168887,Italian Square Park,park,nanaimo,626,terminal,..,..,bc
168926,Jack Point And Biggs Park,park,nanaimo,..,..,..,..,bc
168947,Jacob's Lane Walkway,park,nanaimo,5431,hammond bay,..,..,bc
168997,Janes Park,park,nanaimo,859,brookfield,..,..,bc
169036,Jeevans Road Park,park,nanaimo,5431,jeevans,..,..,bc
169064,Jesters Way Park,park,nanaimo,1392,jesters,..,..,bc
169080,Jingle Pot Park,park,nanaimo,3921,jingle pot,..,..,bc
