Index,Facility_Name,ODRSF_facility_type,Provider,Street_No,Street_Name,Postal_Code,City,Prov_Terr
164165,Captain Morgan Park,park,nanaimo,..,..,..,..,bc
164183,Cariboo Park,park,nanaimo,380,cariboo,..,..,bc
164219,Carmanah Park,park,nanaimo,6051,sierra,..,..,bc
164245,Carriage Way Park,park,nanaimo,5093,carriage,..,..,bc
164248,Carrington Park,park,nanaimo,5708,carrington,..,..,bc
164311,Cat Stream Watercourse Park,park,nanaimo,..,..,..,..,bc
164322,Catherine Gisborne Garden,park,nanaimo,..,anchor,..,..,bc
164331,Cathers Lake Beach Access 4,park,nanaimo,..,..,..,..,bc
164332,Cathers Lake Park,park,nanaimo,2213,michigan,..,..,bc
164584,Charlaine Boat Ramp,park,nanaimo,..,hammond bay,..,..,bc
164631,Chase River Estuary Park,park,nanaimo,..,..,..,..,bc
164632,Chase River Watercourse Park,park,nanaimo,708,bruce,..,..,bc
164682,Chesterlea Park,park,nanaimo,343,chesterlea,..,..,bc
164707,Chinese Memorial Gardens Park,park,nanaimo,105,st george,..,..,bc
164762,Cilaire Park 1,park,nanaimo,181,cilaire,..,..,bc
164763,Cilaire Park 2,park,nanaimo,121,cilaire,..,..,bc
164768,Cinnabar Valley Park (Stacey),park,nanaimo,2004,cinnabar,..,..,bc
164817,Clarence Way Park,park,nanaimo,..,..,..,..,bc
164875,Cliffside Park,park,nanaimo,5527,cliffside,..,..,bc
164938,Colbourne Park,park,nanaimo,5380,colbourne,..,..,bc
164954,Colinwood Park,park,nanaimo,5388,colinwood,..,..,bc
164961,Colliery Dam Park,park,nanaimo,..,..,..,..,bc
165022,Comox Park Gyro 1,park,nanaimo,445,comox,..,..,bc
165173,Cottle Creek Park,park,nanaimo,605,nottingham,..,..,bc
165190,Country Club Park 1,park,nanaimo,3058,rock city,..,..,bc
165191,Country Club Park 2,park,nanaimo,2912,glen eagle,..,..,bc
165192,Country Club Park 3,park,nanaimo,3399,country club,..,..,bc
165200,Country Hills Park,park,nanaimo,1899,white blossom,..,..,bc
165265,Cowling Park,park,nanaimo,108,cowling,..,..,bc
165418,Crystal Brook Park,park,nanaimo,2449,crystal brook,..,..,bc
165492,Dallas Square Park,park,nanaimo,85,front,..,..,bc
165561,Davies Lane Park,park,nanaimo,123,davies,..,..,bc
165571,Daynes Park,park,nanaimo,5957,cathedral,..,..,bc
165628,Delia Park,park,nanaimo,3724,delia,..,..,bc
165666,Dennie Park,park,nanaimo,6193,dennie,..,..,bc
165674,Departure Bay Centennial Park,park,nanaimo,..,..,..,..,bc
165675,Departure Ravine Park,park,nanaimo,3321,departure bay,..,..,bc
165714,Deverill Square Gyro 2 Park,park,nanaimo,200,irwin,..,..,bc
165769,Diver Lake Park,park,nanaimo,2430,black franks,..,..,bc
165793,Dogwood Park,park,nanaimo,849,dogwood,..,..,bc
165876,Doreen Place Park,park,nanaimo,565,doreen,..,..,bc
165896,Douglas & Eighth Park,park,nanaimo,303,eighth,..,..,bc
165972,Driftwood Park,park,nanaimo,6030,parkway,..,..,bc
165990,Dublin Park,park,nanaimo,5270,dublin,..,..,bc
166013,Duggan Road Park,park,nanaimo,2161,duggan,..,..,bc
166020,Dunbar Park,park,nanaimo,6636,green acres,..,..,bc
166068,Dunster Park,park,nanaimo,5445,dunster,..,..,bc
166078,Durham Park,park,nanaimo,423,pine,..,..,bc
166090,E & N Trail (Future),park,nanaimo,..,doumont,..,..,bc
