Index,Facility_Name,ODRSF_facility_type,Provider,Street_No,Street_Name,Postal_Code,City,Prov_Terr
170978,Maritime Center Discovery Fishing Pier,park,campbell river,..,..,..,..,bc
171080,Maryland Park,park,campbell river,..,..,..,..,bc
171189,Mccallum Park,park,campbell river,..,..,..,..,bc
171263,Mcivor Lake Park,park,campbell river,..,..,..,mcivor lake,bc
172256,Northern Welcome Sign,park,campbell river,..,..,..,..,bc
172416,Nunns Creek Park,park,campbell river,..,..,..,campbellton east,bc
173563,Park,park,campbell river,..,..,..,willow point south,bc
173779,Penfield Park,park,campbell river,..,..,..,willow point north,bc
173780,Penfield Park West (Dog Park),park,campbell river,..,..,..,..,bc
173905,Pinecrest Park,park,campbell river,..,..,..,..,bc
174399,Raven Park,park,campbell river,..,..,..,campbell river north,bc
174400,Raven/Baikie Park,park,campbell river,..,..,..,campbell river north,bc
174842,Robert Ostler Park,park,campbell river,..,..,..,..,bc
174866,Robron Park,park,campbell river,..,..,..,..,bc
175020,Rotary Beach Park North,park,campbell river,..,..,..,..,bc
175314,Ruby Park,park,campbell river,..,..,..,..,bc
175656,Seawalk,park,campbell river,..,..,..,..,bc
175694,Sequoia Park,park,campbell river,..,..,..,..,bc
175717,Seventeenth Avenue Park,park,campbell river,..,..,..,campbellton west,bc
175792,Shelbourne,park,campbell river,..,..,..,..,bc
175936,Simms Creek Greenway,park,campbell river,..,..,..,willow point north,bc
175938,Simms Park,park,campbell river,..,..,..,willow point north,bc
176101,South Dogwood St. Greenspace,park,campbell river,..,..,..,south dogwood,bc
176237,Spirit Square,park,campbell river,..,..,..,..,bc
176835,Superior Park,park,campbell river,..,..,..,..,bc
176893,Sybil Andrews,park,campbell river,..,..,..,..,bc
177727,Vallejo Park,park,campbell river,..,..,..,campbell river north,bc
178062,Washington Park,park,campbell river,..,..,..,willow point south,bc
178546,Willow Creek Greenway,park,campbell river,..,..,..,willow point north,bc
178553,Willow Point Park (Sportsplex),park,campbell river,..,..,..,willow point north,bc
