Index,Facility_Name,ODRSF_facility_type,Provider,Street_No,Street_Name,Postal_Code,City,Prov_Terr
161393,"""House On The Hill""",park,campbell river,..,..,..,..,bc
162000,883 South Island Highway Park,park,campbell river,..,..,..,..,bc
162086,Adams Park,park,campbell river,..,..,..,..,bc
162420,Applegate Park,park,campbell river,..,..,..,willow point south,bc
162699,Baikie Island,park,campbell river,..,..,..,campbell river north,bc
162783,Barclay Park,park,campbell river,..,..,..,painter barkley,bc
163003,Beaver Lodge Forest Lands,park,campbell river,..,..,..,..,bc
163289,Big Rock Boat Ramp,park,campbell river,..,..,..,..,bc
163290,Big Rock Park North,park,campbell river,..,..,..,..,bc
163291,Big Rock Park South,park,campbell river,..,..,..,..,bc
163569,Bowen Park,park,campbell river,..,..,..,willow point south,bc
164047,Cambridge Park,park,campbell river,..,..,..,willow point north,bc
164083,Campbell River Museum,park,campbell river,..,..,..,merecroft,bc
164088,Campbelton Entrance,park,campbell river,..,..,..,..,bc
164089,Campbelton Park,park,campbell river,..,..,..,campbellton,bc
164414,Cedric Jones Park,park,campbell river,..,..,..,merecroft,bc
164461,Centennial Park,park,campbell river,..,..,..,merecroft,bc
164626,Charstate Park,park,campbell river,..,..,..,..,bc
165152,Coronation Park,park,campbell river,..,..,..,merecroft,bc
165280,Cr Cemetary,park,campbell river,..,..,..,..,bc
165281,Cr Cemetary Ii,park,campbell river,..,..,..,..,bc
165569,Daybreak Park,park,campbell river,..,..,..,..,bc
165597,Dedicated As Park - Downtown,park,campbell river,..,..,..,..,bc
165598,Dedicated As Park - Perth Rd,park,campbell river,..,..,..,..,bc
165599,Dedicated As Park - Seymor Pacific Building,park,campbell river,..,..,..,..,bc
165743,Dick Murphy Park,park,campbell river,..,..,..,..,bc
165762,Discovery Crescent Park,park,campbell river,..,..,..,..,bc
165800,Dolly Varden Park,park,campbell river,..,..,..,holly hills,bc
166245,Edgewood Park,park,campbell river,..,..,..,..,bc
166338,Elk Falls Provincial Park,park,campbell river,..,..,..,elk falls,bc
166362,Ellis Park,park,campbell river,..,..,..,..,bc
167044,Frank James Park,park,campbell river,..,..,..,..,bc
167061,Franzen Park,park,campbell river,..,..,..,quinsam,bc
167260,Gazelle Park,park,campbell river,..,..,..,..,bc
167327,Georgia Park,park,campbell river,..,..,..,willow point south,bc
167978,Haig Brown,park,campbell river,..,..,..,..,bc
168088,Harrogate Park,park,campbell river,..,..,..,willow point south,bc
168313,Heritage Meadows Park,park,campbell river,..,..,..,..,bc
168373,Hidden Harbour Park North,park,campbell river,..,..,..,merecroft,bc
168374,Hidden Harbour Park South,park,campbell river,..,..,..,..,bc
168448,Hilchey Park,park,campbell river,..,..,..,willow point north,bc
168808,Inland Highway Welcome Sign,park,campbell river,..,..,..,..,bc
169013,Jaycee Park (Lift Station No. 8),park,campbell river,..,..,..,..,bc
169292,Jubilee Parkway - Greenways Loop,park,campbell river,..,..,..,..,bc
169409,Ken Forde,park,campbell river,..,..,..,..,bc
169410,Ken Forde Boat Ramp Park,park,campbell river,..,..,..,willow point south,bc
170129,Larwood Park,park,campbell river,..,..,..,..,bc
170227,Legacy Estates,park,campbell river,..,..,..,..,bc
170317,Lift Station No. 7,park,campbell river,..,..,..,..,bc
