Index,Facility_Name,ODRSF_facility_type,Provider,Street_No,Street_Name,Postal_Code,City,Prov_Terr
19435,1St Street Trail,trail,courtenay,..,..,..,..,bc
22902,Buckstone,trail,courtenay,..,..,..,..,bc
24629,Copperfield Trail,trail,courtenay,..,copperfield,..,..,bc
24630,Copperfield Trail,trail,courtenay,..,copperfield,..,..,bc
25087,Crown Isle The Rise,trail,courtenay,..,..,..,..,bc
25153,Cumberland Rd To 20Th St Trail,trail,courtenay,..,..,..,..,bc
29091,Hawk Greenway,trail,courtenay,..,..,..,..,bc
29695,Hospital/College Walkway,trail,courtenay,..,..,..,..,bc
29868,Hurford Hill Trails,trail,courtenay,..,..,..,..,bc
29869,Hurford Hill Trails,trail,courtenay,..,..,..,..,bc
29964,Idiens Greenway,trail,courtenay,..,..,..,..,bc
35580,Lerwick Forest Trail,trail,courtenay,..,..,..,..,bc
35674,Lewis Park,trail,courtenay,..,..,..,..,bc
43853,Millard Creek Greenway,trail,courtenay,..,..,..,..,bc
43854,Millard Creek Greenway,trail,courtenay,..,29th,..,..,bc
44404,Morrison Creek Greenway,trail,courtenay,..,..,..,..,bc
44405,Morrison Creek Greenway,trail,courtenay,..,..,..,..,bc
44541,Muir/Mclauchlin Park Trail,trail,courtenay,..,..,..,..,bc
44542,Muir/Mclauchlin Park Trail,trail,courtenay,..,..,..,..,bc
44543,Muir/Mclauchlin Park Trail,trail,courtenay,..,muir,..,..,bc
44544,Muir/Mclauchlin Park Trail,trail,courtenay,..,..,..,..,bc
48282,North Island College Greenway,trail,courtenay,..,muir,..,..,bc
48283,North Island College Greenway,trail,courtenay,..,dingwall carmanah,..,..,bc
49848,Piercy Creek Greenway,trail,courtenay,..,..,..,..,bc
49849,Piercy Creek Greenway,trail,courtenay,..,..,..,..,bc
49850,Piercy Creek Greenway,trail,courtenay,..,..,..,..,bc
50414,Puntledge River Greenway,trail,courtenay,..,..,..,..,bc
51457,Rotary Riverside Trail,trail,courtenay,..,..,..,..,bc
51458,Rotary Riverside Trail,trail,courtenay,..,..,..,..,bc
51459,Rotary Riverside Trail,trail,courtenay,..,..,..,..,bc
51460,Rotary Riverside Trail,trail,courtenay,..,..,..,..,bc
51461,Rotary Riverside Trail,trail,courtenay,..,..,..,..,bc
51462,Rotary Trail,trail,courtenay,..,..,..,..,bc
52076,Sd 71 Trails,trail,courtenay,..,..,..,..,bc
53819,Sims Millenium Park,trail,courtenay,..,..,..,..,bc
54978,The Courtenay Riverway,trail,courtenay,..,..,..,..,bc
54979,The Courtenay Riverway,trail,courtenay,..,..,..,..,bc
65039,Valley View Greenway,trail,courtenay,..,..,..,..,bc
65040,Valley View Greenway,trail,courtenay,..,..,..,..,bc
65041,Valley View Greenway,trail,courtenay,..,..,..,..,bc
65042,Valley View Greenway,trail,courtenay,..,..,..,..,bc
65043,Valley View Greenway,trail,courtenay,..,..,..,..,bc
65044,Valley View Greenway,trail,courtenay,..,..,..,..,bc
65045,Valley View Greenway,trail,courtenay,..,..,..,..,bc
65261,Vmp Walkway,trail,courtenay,..,..,..,..,bc
70887,..,trail,courtenay,..,..,..,..,bc
70888,..,trail,courtenay,..,..,..,..,bc
70889,..,trail,courtenay,..,..,..,..,bc
70890,..,trail,courtenay,..,..,..,..,bc
