Index,Facility_Name,ODRSF_facility_type,Provider,Street_No,Street_Name,Postal_Code,City,Prov_Terr
70892,..,trail,courtenay,..,..,..,..,bc
77452,..,trail,courtenay,..,..,..,..,bc
77453,..,trail,courtenay,..,..,..,..,bc
161664,26Th Buffer Park,park,courtenay,..,..,..,..,bc
162122,Air Park With Rotary Skypark,park,courtenay,..,..,..,..,bc
162336,Anderton & 1St,park,courtenay,..,..,..,..,bc
162474,Arden Road,park,courtenay,..,..,..,..,bc
162593,Ashwood Park,park,courtenay,..,..,..,..,bc
162697,Back Road Memorial,park,courtenay,..,..,..,..,bc
162954,Bear James Park,park,courtenay,..,..,..,..,bc
163308,Bill Moore Park,park,courtenay,..,..,..,..,bc
163437,Blue Jay Park,park,courtenay,..,..,..,..,bc
164142,Capes Park,park,courtenay,..,..,..,..,bc
164871,Cliffe & 5Th,park,courtenay,..,..,..,..,bc
165038,Condensory Park,park,courtenay,..,..,..,..,bc
165087,Cooper Park,park,courtenay,..,..,..,..,bc
165175,Cottonwood Community Garden,park,courtenay,..,..,..,..,bc
165243,Courtenay Marina Park,park,courtenay,..,..,..,..,bc
165244,Courtenay Riverway,park,courtenay,..,..,..,..,bc
165249,Cousins Park,park,courtenay,..,..,..,..,bc
165409,Crown Isle Park,park,courtenay,..,..,..,..,bc
165410,Crown Isle Park 150 Year Grove,park,courtenay,..,..,..,..,bc
165411,Crown Land,park,courtenay,..,..,..,..,bc
165416,Cruikshank Park,park,courtenay,..,..,..,..,bc
165429,Cumberland & 20Th,park,courtenay,..,..,..,..,bc
165792,Dogwood Park,park,courtenay,..,..,..,..,bc
166313,Elderberry Park,park,courtenay,..,..,..,..,bc
166832,First Street Park,park,courtenay,..,..,..,..,bc
166849,Fitzgerald Park,park,courtenay,..,..,..,..,bc
167180,Galloway Park,park,courtenay,..,..,..,..,bc
167800,Green Belt Park,park,courtenay,..,..,..,..,bc
168062,Harmston Park,park,courtenay,..,..,..,..,bc
168148,Hawk Glen Park,park,courtenay,..,..,..,..,bc
168208,Hebrides Park,park,courtenay,..,..,..,..,bc
168517,Hobson Park,park,courtenay,..,..,..,..,bc
168708,Hurford Hill Nature Park,park,courtenay,..,..,..,..,bc
168767,Idiens Park,park,courtenay,..,..,..,..,bc
168826,Inverclyde Park,park,courtenay,..,..,..,..,bc
169866,Knights Of Columbus Park,park,courtenay,..,..,..,..,bc
169905,Krebs/Larsen Park,park,courtenay,..,..,..,..,bc
170180,Lawrence Burns Park,park,courtenay,..,..,..,..,bc
170273,Lerwick Nature Park,park,courtenay,..,..,..,..,bc
170306,Lewis Park,park,courtenay,..,..,..,..,bc
170806,Malahat Storm Park,park,courtenay,..,..,..,..,bc
170813,Malcolm-Morrison Sr. Park,park,courtenay,..,..,..,..,bc
170884,Maple Park,park,courtenay,..,..,..,..,bc
171052,Martin Park,park,courtenay,..,..,..,..,bc
171329,Mcphee Meadows,park,courtenay,..,..,..,..,bc
171548,Millard Creek Park,park,courtenay,..,..,..,..,bc
