Index,Facility_Name,ODRSF_facility_type,Provider,Street_No,Street_Name,Postal_Code,City,Prov_Terr
171846,Morrison Creek Park,park,courtenay,..,..,..,..,bc
171961,Muir/Mclauchlin Park,park,courtenay,..,..,..,..,bc
173568,Park,park,courtenay,..,..,..,..,bc
173863,Piercy Creek Greenway,park,courtenay,..,..,..,..,bc
173911,Pinegrove Park,park,courtenay,..,..,..,..,bc
174196,Puntledge Park,park,courtenay,..,..,..,..,bc
174779,Riverside Park,park,courtenay,..,..,..,..,bc
174997,Rosewall Buffer Park,park,courtenay,..,..,..,..,bc
175274,Roy Morrison Park,park,courtenay,..,..,..,..,bc
175497,Sandwick Park,park,courtenay,..,..,..,..,bc
175662,Second Street Park,park,courtenay,..,..,..,..,bc
175937,Simms Millennium Park,park,courtenay,..,..,..,..,bc
176121,South Of City Park,park,courtenay,..,..,..,..,bc
176533,Standard Park,park,courtenay,..,..,..,..,bc
176822,Sunrise Park,park,courtenay,..,..,..,..,bc
176849,Sussex Park,park,courtenay,..,..,..,..,bc
176972,Tarling Park,park,courtenay,..,..,..,..,bc
177080,The Ridge Park,park,courtenay,..,..,..,..,bc
177426,Trumpeter Glen Park,park,courtenay,..,..,..,..,bc
177744,Valley View Greenway,park,courtenay,..,..,..,..,bc
177745,Valley View Park,park,courtenay,..,..,..,..,bc
177787,Vanier Nature Park,park,courtenay,..,..,..,..,bc
177979,Walbran Park,park,courtenay,..,..,..,..,bc
178473,Willemar Park,park,courtenay,..,..,..,..,bc
178712,Woodcote Park,park,courtenay,..,..,..,..,bc
