Index,Facility_Name,ODRSF_facility_type,Provider,Street_No,Street_Name,Postal_Code,City,Prov_Terr
54420,Stump Lake East,trail,district of squamish,..,..,..,..,bc
54472,Summer's Eve,trail,district of squamish,..,..,..,..,bc
54473,Summers Eve Connector,trail,district of squamish,..,..,..,..,bc
54626,Swan Trail,trail,district of squamish,..,..,..,..,bc
54627,Swan Trail North,trail,district of squamish,..,..,..,..,bc
54666,Sweet Judy,trail,district of squamish,..,..,..,..,bc
54667,Sweeter The Barry,trail,district of squamish,..,..,..,..,bc
54673,Swimming Hole Access,trail,district of squamish,..,..,..,..,bc
54678,Take The Do-Nut,trail,district of squamish,..,..,..,..,bc
54685,Tamiami,trail,district of squamish,..,..,..,..,bc
54796,Tazer's Alternate,trail,district of squamish,..,..,..,..,bc
54960,The Barber Chair,trail,district of squamish,..,..,..,..,bc
54980,The Covenant,trail,district of squamish,..,..,..,..,bc
54984,The Graduate,trail,district of squamish,..,..,..,..,bc
55001,The Raaa,trail,district of squamish,..,..,..,..,bc
55069,Thompson Trail,trail,district of squamish,..,..,..,..,bc
55130,Tims Dark Roast,trail,district of squamish,..,..,..,..,bc
55148,To Solarium Climbing,trail,district of squamish,..,..,..,..,bc
55159,Toboggan Trail,trail,district of squamish,..,..,..,..,bc
55195,Tongue 'N' Groove,trail,district of squamish,..,..,..,..,bc
55289,Town Dyke Trail,trail,district of squamish,..,..,..,..,bc
55292,Tracks From Hell,trail,district of squamish,..,..,..,..,bc
62746,Treasure Trail,trail,district of squamish,..,..,..,..,bc
62747,Tree Hugger,trail,district of squamish,..,..,..,..,bc
62753,Trestle,trail,district of squamish,..,..,..,..,bc
62809,Tunnel Rock Connector,trail,district of squamish,..,..,..,..,bc
62833,Tweedle Dum And Tweedle Dee,trail,district of squamish,..,..,..,..,bc
62850,Two Cycle,trail,district of squamish,..,..,..,..,bc
62851,Two Fist,trail,district of squamish,..,..,..,..,bc
62852,Two-Stroke Smoke,trail,district of squamish,..,..,..,..,bc
63056,Unknown,trail,district of squamish,..,..,..,..,bc
64543,Up Among The Firs,trail,district of squamish,..,..,..,..,bc
64569,Upper Moss Loop,trail,district of squamish,..,..,..,..,bc
65046,Valleycliffe Trail,trail,district of squamish,..,..,..,..,bc
65055,Value Added,trail,district of squamish,..,..,..,..,bc
65225,View Point Trail,trail,district of squamish,..,..,..,..,bc
66679,Water Front Trail,trail,district of squamish,..,..,..,..,bc
67544,White Bronco,trail,district of squamish,..,..,..,..,bc
67551,White Rabbit,trail,district of squamish,..,..,..,..,bc
68156,Wizard Sleeve,trail,district of squamish,..,..,..,..,bc
68259,Wonderland,trail,district of squamish,..,..,..,..,bc
69924,Woodpecker,trail,district of squamish,..,..,..,..,bc
69925,Woodpecker,trail,district of squamish,..,..,..,..,bc
69962,Word Of Mouth Lower,trail,district of squamish,..,..,..,..,bc
69963,Word Of Mouth Upper,trail,district of squamish,..,..,..,..,bc
69965,Wormhole,trail,district of squamish,..,..,..,..,bc
70059,Zombie Crawl,trail,district of squamish,..,..,..,..,bc
70060,Zombie Crawl,trail,district of squamish,..,..,..,..,bc
70086,..,trail,district of squamish,..,..,..,..,bc
