Index,Facility_Name,ODRSF_facility_type,Provider,Street_No,Street_Name,Postal_Code,City,Prov_Terr
20444,Ancient Cedars Trail,trail,whistler,..,..,..,..,bc
24533,Comfortably Numb,trail,whistler,..,..,..,..,bc
24536,Comfortably Numb,trail,whistler,..,..,..,..,bc
24538,Comfortably Numb (North Secret),trail,whistler,..,..,..,..,bc
27797,Gargamel,trail,whistler,..,..,..,..,bc
27800,Gargamel Emergency Exit Only,trail,whistler,..,..,..,..,bc
29711,Howler (Upper),trail,whistler,..,..,..,..,bc
30840,Jeff's Trail,trail,whistler,..,..,..,..,bc
31248,Kill Me Thrill Me,trail,whistler,..,..,..,..,bc
48310,North Of Town,trail,whistler,..,..,..,..,bc
48884,Out There,trail,whistler,..,..,..,..,bc
50545,Rainbow-Flank North,trail,whistler,..,..,..,..,bc
50546,Rainbow-Flank North,trail,whistler,..,..,..,..,bc
50547,Rainbow-Flank North,trail,whistler,..,..,..,..,bc
52075,Screaming Cat Lake,trail,whistler,..,..,..,..,bc
52145,Shadow Lake Trail,trail,whistler,..,..,..,..,bc
52146,Shadow Lake Trail,trail,whistler,..,..,..,..,bc
52147,Shadow Lake Trail,trail,whistler,..,..,..,..,bc
52148,Shadow Lake Trail,trail,whistler,..,..,..,..,bc
52149,Shadow Lake Trail,trail,whistler,..,..,..,..,bc
52150,Shadow Lake Trail,trail,whistler,..,..,..,..,bc
52151,Shadow Lake Trail,trail,whistler,..,..,..,..,bc
52152,Shadow Lake Trail,trail,whistler,..,..,..,..,bc
52153,Shadow Lake Trail,trail,whistler,..,..,..,..,bc
52154,Shadow Lake Trail,trail,whistler,..,..,..,..,bc
53417,Showh Lake Connector Trail,trail,whistler,..,..,..,..,bc
62401,Trail 26,trail,whistler,..,..,..,..,bc
70037,Young Lust,trail,whistler,..,..,..,..,bc
70047,Zanarchy,trail,whistler,..,..,..,..,bc
