Index,Facility_Name,ODRSF_facility_type,Provider,Street_No,Street_Name,Postal_Code,City,Prov_Terr
24878,Cracked Patella,trail,district of squamish,..,..,..,..,bc
24899,Credit Line,trail,district of squamish,..,..,..,..,bc
25075,Crouching Squirrel Hidden Monkey,trail,district of squamish,..,..,..,..,bc
25101,Crumpit Creek Cruise,trail,district of squamish,..,..,..,..,bc
25331,Debeck's Grind,trail,district of squamish,..,..,..,..,bc
25338,Deep Ends,trail,district of squamish,..,..,..,..,bc
25493,Dentville Trail,trail,district of squamish,..,..,..,..,bc
25494,Dentville Trail,trail,district of squamish,..,..,..,..,bc
25495,Dentville Trail,trail,district of squamish,..,..,..,..,bc
25496,Dentville Trail,trail,district of squamish,..,..,..,..,bc
25601,Dike Trail,trail,district of squamish,..,..,..,..,bc
25604,Dipper Trail,trail,district of squamish,..,..,..,..,bc
25605,Dipper Trail,trail,district of squamish,..,..,..,..,bc
25606,Dirk's Diggler,trail,district of squamish,..,..,..,..,bc
25607,Dirty Hippy,trail,district of squamish,..,..,..,..,bc
25608,Dirty Jane,trail,district of squamish,..,..,..,..,bc
25609,Dirty Jane Too,trail,district of squamish,..,..,..,..,bc
25623,Discovery Trail,trail,district of squamish,..,..,..,..,bc
25633,Doggie Style,trail,district of squamish,..,..,..,..,bc
25862,Down In The Cedars,trail,district of squamish,..,..,..,..,bc
25982,Dryden Trail,trail,district of squamish,..,..,..,..,bc
26033,Dump Express,trail,district of squamish,..,..,..,..,bc
26131,Eaglewind Trail,trail,district of squamish,..,..,..,..,bc
26132,Eaglewind Trail,trail,district of squamish,..,..,..,..,bc
26274,Echo Lake,trail,district of squamish,..,..,..,..,bc
26280,Edgewater Trail,trail,district of squamish,..,..,..,..,bc
26290,Edith Lake Access,trail,district of squamish,..,..,..,..,bc
26465,Emerald Forest,trail,district of squamish,..,..,..,..,bc
26481,End Hole Connector,trail,district of squamish,..,..,..,..,bc
26483,Endo,trail,district of squamish,..,..,..,..,bc
26486,Entrails,trail,district of squamish,..,..,..,..,bc
26865,Farside,trail,district of squamish,..,..,..,..,bc
26866,Farside Access Connector,trail,district of squamish,..,..,..,..,bc
26867,Fartherside Trail,trail,district of squamish,..,..,..,..,bc
26875,Fathand,trail,district of squamish,..,..,..,..,bc
26892,Father Son And Holy Cow,trail,district of squamish,..,..,..,..,bc
26928,Fern Grotto,trail,district of squamish,..,..,..,..,bc
26968,Finch Creek Loop,trail,district of squamish,..,..,..,..,bc
27014,Fire Fingers,trail,district of squamish,..,..,..,..,bc
27098,Five Pt Hill,trail,district of squamish,..,..,..,..,bc
27178,Flower Rock,trail,district of squamish,..,..,..,..,bc
27179,Follow Your Nose,trail,district of squamish,..,..,..,..,bc
27462,Forgotten Trail,trail,district of squamish,..,..,..,..,bc
27518,Four Lakes,trail,district of squamish,..,..,..,..,bc
27519,Four Lakes,trail,district of squamish,..,..,..,..,bc
27520,Four Lakes Trail - Alice Lake,trail,district of squamish,..,..,..,..,bc
27521,Four Lakes Trail Alice Lake,trail,district of squamish,..,..,..,..,bc
27860,Gather Loop,trail,district of squamish,..,..,..,..,bc
28127,Glenn's Carwash,trail,district of squamish,..,..,..,..,bc
