Index,Facility_Name,ODRSF_facility_type,Provider,Street_No,Street_Name,Postal_Code,City,Prov_Terr
23163,Cable Guy Return,trail,whistler,..,..,..,..,bc
23164,Cableguy,trail,whistler,..,..,..,..,bc
23200,Cal-Cheak,trail,whistler,..,..,..,..,bc
23201,Cal-Cheak,trail,whistler,..,..,..,..,bc
23202,Cal-Cheak,trail,whistler,..,..,..,..,bc
23627,Cat Scratch Fever,trail,whistler,..,..,..,..,bc
23628,Cat Scratch Left,trail,whistler,..,..,..,..,bc
23799,Central Scrutinizer,trail,whistler,..,..,..,..,bc
23892,Cheakamus Suspension Bridge,trail,whistler,..,..,..,..,bc
23893,Cheap Thrills,trail,whistler,..,..,..,..,bc
24532,Comfortably Numb,trail,whistler,..,..,..,..,bc
24534,Comfortably Numb,trail,whistler,..,..,..,..,bc
24535,Comfortably Numb,trail,whistler,..,..,..,..,bc
24537,Comfortably Numb,trail,whistler,..,..,..,..,bc
24571,Connector,trail,whistler,..,..,..,..,bc
24572,Connector,trail,whistler,..,..,..,..,bc
24896,Creamsicle Rainbow,trail,whistler,..,..,..,..,bc
25157,Cut Yer Bars,trail,whistler,..,..,..,..,bc
25158,Cut Yer Bars,trail,whistler,..,..,..,..,bc
25159,Cut Yer Bars,trail,whistler,..,..,..,..,bc
25160,Cut Yer Bars,trail,whistler,..,..,..,..,bc
25161,Cut Yer Bars,trail,whistler,..,..,..,..,bc
25162,Cut Yer Bars,trail,whistler,..,..,..,..,bc
25222,Danimal Middle,trail,whistler,..,..,..,..,bc
25223,Danimal North,trail,whistler,..,..,..,..,bc
25224,Danimal South,trail,whistler,..,..,..,..,bc
25225,Danimal South,trail,whistler,..,..,..,..,bc
25229,Dark Crystal,trail,whistler,..,..,..,..,bc
25268,Darwin'S,trail,whistler,..,..,..,..,bc
25403,Deliniator,trail,whistler,..,..,..,..,bc
25602,Dinah Moe Humm,trail,whistler,..,..,..,..,bc
25603,Dinah Moe Humm,trail,whistler,..,..,..,..,bc
25610,Disco Boy,trail,whistler,..,..,..,..,bc
25758,Donkey Puncher,trail,whistler,..,..,..,..,bc
25838,Don'T Look Back,trail,whistler,..,..,..,..,bc
26112,Dwarf Nebula,trail,whistler,..,..,..,..,bc
26320,Elephant Bridge,trail,whistler,..,..,..,..,bc
26321,Elephant Bridge Connector,trail,whistler,..,..,..,..,bc
26457,Emerald Forest,trail,whistler,..,..,..,..,bc
26458,Emerald Forest,trail,whistler,..,..,..,..,bc
26459,Emerald Forest,trail,whistler,..,..,..,..,bc
26460,Emerald Forest,trail,whistler,..,..,..,..,bc
26461,Emerald Forest,trail,whistler,..,..,..,..,bc
26462,Emerald Forest,trail,whistler,..,..,..,..,bc
26463,Emerald Forest,trail,whistler,..,..,..,..,bc
26464,Emerald Forest,trail,whistler,..,..,..,..,bc
26466,Emerald Forest 2,trail,whistler,..,..,..,..,bc
26467,Emerald Forest 2,trail,whistler,..,..,..,..,bc
26482,End Of The Line,trail,whistler,..,..,..,..,bc
