Index,Facility_Name,ODRSF_facility_type,Provider,Street_No,Street_Name,Postal_Code,City,Prov_Terr
51088,Riverside,trail,whistler,..,..,..,..,bc
51089,Riverside,trail,whistler,..,..,..,..,bc
51090,Riverside,trail,whistler,..,..,..,..,bc
51091,Riverside,trail,whistler,..,..,..,..,bc
51092,Riverside,trail,whistler,..,..,..,..,bc
51093,Riverside,trail,whistler,..,..,..,..,bc
51094,Riverside,trail,whistler,..,..,..,..,bc
51095,Riverside,trail,whistler,..,..,..,..,bc
51096,Riverside,trail,whistler,..,..,..,..,bc
51097,Riverside,trail,whistler,..,..,..,..,bc
51098,Riverside,trail,whistler,..,..,..,..,bc
51099,Riverside,trail,whistler,..,..,..,..,bc
51100,Riverside,trail,whistler,..,..,..,..,bc
51208,Roam In The Loam,trail,whistler,..,..,..,..,bc
51209,Roam In The Loam,trail,whistler,..,..,..,..,bc
51235,Robin Yer Eggs,trail,whistler,..,..,..,..,bc
51318,Roll Yer Bones Left,trail,whistler,..,..,..,..,bc
51319,Roll Yer Bones Right,trail,whistler,..,..,..,..,bc
51708,Rubbish,trail,whistler,..,..,..,..,bc
51736,Runaway Train,trail,whistler,..,..,..,..,bc
51739,Rush Hour,trail,whistler,..,..,..,..,bc
52073,Scotia Creek Climb,trail,whistler,..,..,..,..,bc
52078,Sea To Sky Trail Connector,trail,whistler,..,..,..,..,bc
52079,Sea To Sky Trail Connector,trail,whistler,..,..,..,..,bc
52099,Section 102,trail,whistler,..,..,..,..,bc
52100,Section 102,trail,whistler,..,..,..,..,bc
52103,See Colours And Puke,trail,whistler,..,..,..,..,bc
53372,Shit Happens,trail,whistler,..,..,..,..,bc
53373,Shit Happens,trail,whistler,..,..,..,..,bc
53374,Shit Happens,trail,whistler,..,..,..,..,bc
53375,Shit Happens (South),trail,whistler,..,..,..,..,bc
53412,Short Bus,trail,whistler,..,..,..,..,bc
53864,Sirloin,trail,whistler,..,..,..,..,bc
53865,Siwash,trail,whistler,..,..,..,..,bc
53923,Soap & Old Clothes,trail,whistler,..,..,..,..,bc
53933,Son Of Mr. Greenjeans,trail,whistler,..,..,..,..,bc
54158,Spruce Grove Connector,trail,whistler,..,..,..,..,bc
54159,Spruce Grove Connector,trail,whistler,..,..,..,..,bc
54160,Spruce Grove Connector,trail,whistler,..,..,..,..,bc
54161,Spruce Grove Connector,trail,whistler,..,..,..,..,bc
54419,Stu Inn,trail,whistler,..,..,..,..,bc
54545,Surf's Up,trail,whistler,..,..,..,..,bc
54981,The Crazy Train,trail,whistler,..,..,..,..,bc
54983,The Golden Door,trail,whistler,..,..,..,..,bc
55005,The Torture Never Stops,trail,whistler,..,..,..,..,bc
55116,Three Birds,trail,whistler,..,..,..,..,bc
55145,Tin Pants,trail,whistler,..,..,..,..,bc
55146,Tin Pants,trail,whistler,..,..,..,..,bc
55149,Toads Of The Short Forest,trail,whistler,..,..,..,..,bc
