Index,Facility_Name,ODRSF_facility_type,Provider,Street_No,Street_Name,Postal_Code,City,Prov_Terr
509,Brennan Park Arena,arena,district of squamish,..,..,..,..,bc
510,Brennan Park Pool,pool,district of squamish,..,..,..,..,bc
2395,Jacks Trail Park,park,district of squamish,..,..,..,..,bc
3530,Newport Beach,beach,district of squamish,..,..,..,..,bc
6140,Trailhead: Chief,trail,district of squamish,..,..,..,..,bc
6142,Trailhead: Perth Drive,trail,district of squamish,..,..,..,..,bc
6143,Trailhead: Squamish Estuary Trails,trail,district of squamish,..,..,..,..,bc
7154,All Weather Sports Field,sports field,district of squamish,..,..,..,..,bc
15115,Quest University Sports Field,sports field,district of squamish,..,..,..,..,bc
16944,Sports Fields,sports field,district of squamish,..,..,..,..,bc
19502,239 East,trail,district of squamish,..,..,..,..,bc
19575,3 Virgins,trail,district of squamish,..,..,..,..,bc
19581,31 Seconds,trail,district of squamish,..,..,..,..,bc
19649,4-Play,trail,district of squamish,..,..,..,..,bc
19652,5 Point Hill - North Side,trail,district of squamish,..,..,..,..,bc
19653,5 Point Southside,trail,district of squamish,..,..,..,..,bc
19654,50 Shades Of Green,trail,district of squamish,..,..,..,..,bc
19655,50 Shades Of Green Part 2,trail,district of squamish,..,..,..,..,bc
19686,5Pt -> Raaa Connector,trail,district of squamish,..,..,..,..,bc
19890,Access,trail,district of squamish,..,..,..,..,bc
19891,Access,trail,district of squamish,..,..,..,..,bc
19892,Access,trail,district of squamish,..,..,..,..,bc
19894,Access,trail,district of squamish,..,..,..,..,bc
19895,Access,trail,district of squamish,..,..,..,..,bc
19897,Access,trail,district of squamish,..,..,..,..,bc
19898,Access,trail,district of squamish,..,..,..,..,bc
19909,Access Connector,trail,district of squamish,..,..,..,..,bc
19913,Access Road,trail,district of squamish,..,..,..,..,bc
19914,Access Road,trail,district of squamish,..,..,..,..,bc
19916,Access Trail,trail,district of squamish,..,..,..,..,bc
19917,Access Trail,trail,district of squamish,..,..,..,..,bc
19918,Access Trail,trail,district of squamish,..,..,..,..,bc
19919,Access Trail,trail,district of squamish,..,..,..,..,bc
19920,Access Trail,trail,district of squamish,..,..,..,..,bc
20015,Aggregates,trail,district of squamish,..,..,..,..,bc
20016,Aggregates,trail,district of squamish,..,..,..,..,bc
20017,Aggregates,trail,district of squamish,..,..,..,..,bc
20018,Aggregates,trail,district of squamish,..,..,..,..,bc
20296,Alder Trail,trail,district of squamish,..,..,..,..,bc
20394,Alice Lake Park Road,trail,district of squamish,..,..,..,..,bc
20438,Amblepath Trail,trail,district of squamish,..,..,..,..,bc
20439,Amblepath Trail,trail,district of squamish,..,..,..,..,bc
20655,Apron Trail,trail,district of squamish,..,..,..,..,bc
20863,Aristotle Drive,trail,district of squamish,..,..,..,..,bc
20897,Around The Rock,trail,district of squamish,..,..,..,..,bc
20991,Aspen Trail,trail,district of squamish,..,..,..,..,bc
21129,Avalanche,trail,district of squamish,..,..,..,..,bc
21938,Bighorn Trail,trail,district of squamish,..,..,..,..,bc
21961,Birth Of A Stream North,trail,district of squamish,..,..,..,..,bc
