Index,Facility_Name,ODRSF_facility_type,Provider,Street_No,Street_Name,Postal_Code,City,Prov_Terr
19771,99'Er,trail,whistler,..,..,..,..,bc
19786,A Cut Above,trail,whistler,..,..,..,..,bc
19787,A La Mode,trail,whistler,..,..,..,..,bc
19824,A River Runs Through It,trail,whistler,..,..,..,..,bc
19825,A River Runs Through It,trail,whistler,..,..,..,..,bc
19826,A River Runs Through It,trail,whistler,..,..,..,..,bc
19827,A Rockwork Orange,trail,whistler,..,..,..,..,bc
19869,Ac/Dc,trail,whistler,..,..,..,..,bc
20441,Ampm,trail,whistler,..,..,..,..,bc
20442,Ampm,trail,whistler,..,..,..,..,bc
20443,Anal Intruder,trail,whistler,..,..,..,..,bc
20862,Area 56,trail,whistler,..,..,..,..,bc
21170,Azreal,trail,whistler,..,..,..,..,bc
21171,Azreal,trail,whistler,..,..,..,..,bc
21172,B.C.'S,trail,whistler,..,..,..,..,bc
21173,B.C.'S,trail,whistler,..,..,..,..,bc
21174,Baby Snakes,trail,whistler,..,..,..,..,bc
21175,Babylon By Bike (Lower),trail,whistler,..,..,..,..,bc
21176,Babylon By Bike (Lower),trail,whistler,..,..,..,..,bc
21177,Babylon By Bike (Upper),trail,whistler,..,..,..,..,bc
21235,Barts Dark Trail,trail,whistler,..,..,..,..,bc
21236,Barts Dark Trail,trail,whistler,..,..,..,..,bc
21364,Bc's Left,trail,whistler,..,..,..,..,bc
21367,Bear Back Climb,trail,whistler,..,..,..,..,bc
21444,Beaver Pass,trail,whistler,..,..,..,..,bc
21445,Beaver Pass,trail,whistler,..,..,..,..,bc
21446,Beaver Pass,trail,whistler,..,..,..,..,bc
21447,Beaver Pond,trail,whistler,..,..,..,..,bc
21933,Big Kahuna,trail,whistler,..,..,..,..,bc
21935,Big Timber,trail,whistler,..,..,..,..,bc
21936,Big Timber,trail,whistler,..,..,..,..,bc
21937,Big Timber,trail,whistler,..,..,..,..,bc
21952,Billy Climb,trail,whistler,..,..,..,..,bc
21953,Billy Epic,trail,whistler,..,..,..,..,bc
21954,Binty'S,trail,whistler,..,..,..,..,bc
21955,Binty'S,trail,whistler,..,..,..,..,bc
22120,Blueberry,trail,whistler,..,..,..,..,bc
22121,Blueberry,trail,whistler,..,..,..,..,bc
22122,Blueberry,trail,whistler,..,..,..,..,bc
22123,Blueberry,trail,whistler,..,..,..,..,bc
22124,Blueberry,trail,whistler,..,..,..,..,bc
22125,Blueberry,trail,whistler,..,..,..,..,bc
22145,Bluey Epic,trail,whistler,..,..,..,..,bc
22288,Bob's Rebob,trail,whistler,..,..,..,..,bc
22289,Bob's Rebob,trail,whistler,..,..,..,..,bc
22290,Bob's Rebob,trail,whistler,..,..,..,..,bc
22291,Bob's Rebob,trail,whistler,..,..,..,..,bc
22292,Bob's Rebob Lower,trail,whistler,..,..,..,..,bc
22293,Bob's Rebob Upper,trail,whistler,..,..,..,..,bc
