Index,Facility_Name,ODRSF_facility_type,Provider,Street_No,Street_Name,Postal_Code,City,Prov_Terr
28221,Golf Ball Trail,trail,district of squamish,..,..,..,..,bc
28222,Golf Course Trail,trail,district of squamish,..,..,..,..,bc
28223,Golf Course Trail,trail,district of squamish,..,..,..,..,bc
28281,Gouranga,trail,district of squamish,..,..,..,..,bc
28282,Gouranga Rock Ride,trail,district of squamish,..,..,..,..,bc
28354,Grand Doug Trail,trail,district of squamish,..,..,..,..,bc
28534,Grand Wall Trail,trail,district of squamish,..,..,..,..,bc
28741,Grinch Toes,trail,district of squamish,..,..,..,..,bc
28817,Hairy Barry,trail,district of squamish,..,..,..,..,bc
28818,Hairy Bomber,trail,district of squamish,..,..,..,..,bc
29087,Haulback,trail,district of squamish,..,..,..,..,bc
29502,High Cliff Trail,trail,district of squamish,..,..,..,..,bc
29514,High Trail,trail,district of squamish,..,..,..,..,bc
29515,High Trail,trail,district of squamish,..,..,..,..,bc
29724,Hueso,trail,district of squamish,..,..,..,..,bc
29847,Hunter Highway,trail,district of squamish,..,..,..,..,bc
29962,Icy Hole Connector,trail,district of squamish,..,..,..,..,bc
29963,Icy Hole Of Death,trail,district of squamish,..,..,..,..,bc
30016,In And Out Burger,trail,district of squamish,..,..,..,..,bc
30617,Inner Loop Connector,trail,district of squamish,..,..,..,..,bc
30631,Intestinal Fortitude,trail,district of squamish,..,..,..,..,bc
30721,Jacks,trail,district of squamish,..,..,..,..,bc
31167,Judd Beach Access,trail,district of squamish,..,..,..,..,bc
31169,Juniper Trail,trail,district of squamish,..,..,..,..,bc
31208,Katimavik Connector,trail,district of squamish,..,..,..,..,bc
31247,Kiki,trail,district of squamish,..,..,..,..,bc
34876,Labour Of Love,trail,district of squamish,..,..,..,..,bc
34878,Lacking Head,trail,district of squamish,..,..,..,..,bc
34976,Lakeside Trail East,trail,district of squamish,..,..,..,..,bc
35138,Landslide,trail,district of squamish,..,..,..,..,bc
35192,Larry's Loop,trail,district of squamish,..,..,..,..,bc
35193,Larry's North-West Exit,trail,district of squamish,..,..,..,..,bc
35194,Larry's Shortcut,trail,district of squamish,..,..,..,..,bc
35195,Larvicide,trail,district of squamish,..,..,..,..,bc
35333,Leave Of Absence,trail,district of squamish,..,..,..,..,bc
35863,Live Wire,trail,district of squamish,..,..,..,..,bc
35919,Loggers Creek Nature Loop,trail,district of squamish,..,..,..,..,bc
35920,Logger's Creek Nature Trail,trail,district of squamish,..,..,..,..,bc
35921,Loggers Creek Nature Trail South Access,trail,district of squamish,..,..,..,..,bc
35924,Loggers Trail,trail,district of squamish,..,..,..,..,bc
36043,Loop Trail,trail,district of squamish,..,..,..,..,bc
36069,Lost Connector,trail,district of squamish,..,..,..,..,bc
36085,Lost Loop,trail,district of squamish,..,..,..,..,bc
36106,Lower Gouranga,trail,district of squamish,..,..,..,..,bc
36107,Lower Gouranga 2,trail,district of squamish,..,..,..,..,bc
36109,Lower Powersmart,trail,district of squamish,..,..,..,..,bc
36129,Lumberjack'S,trail,district of squamish,..,..,..,..,bc
36130,Lumberjack's Connector,trail,district of squamish,..,..,..,..,bc
36175,Magnolia Trail Loop,trail,district of squamish,..,..,..,..,bc
