Index,Facility_Name,ODRSF_facility_type,Provider,Street_No,Street_Name,Postal_Code,City,Prov_Terr
30725,Jake Lakes North,trail,whistler,..,..,..,..,bc
30791,Jane Lake South,trail,whistler,..,..,..,..,bc
30792,Jane Lakes,trail,whistler,..,..,..,..,bc
30793,Jane Lakes,trail,whistler,..,..,..,..,bc
30813,Jaws,trail,whistler,..,..,..,..,bc
30814,Jaws,trail,whistler,..,..,..,..,bc
30841,Jelly Roll Gumdrop,trail,whistler,..,..,..,..,bc
31171,Just Another Bike Trail,trail,whistler,..,..,..,..,bc
31207,Kashmir,trail,whistler,..,..,..,..,bc
31244,Khyber Pass,trail,whistler,..,..,..,..,bc
34847,Korova Milk Bar,trail,whistler,..,..,..,..,bc
34866,Kush,trail,whistler,..,..,..,..,bc
35201,Last Call,trail,whistler,..,..,..,..,bc
35503,Legalize It,trail,whistler,..,..,..,..,bc
35609,Less,trail,whistler,..,..,..,..,bc
35922,Logger's Lake Loop,trail,whistler,..,..,..,..,bc
35923,Logger's Lake Loop,trail,whistler,..,..,..,..,bc
36044,Lord Of The Squirrels,trail,whistler,..,..,..,..,bc
36070,Lost Lake Trail,trail,whistler,..,..,..,..,bc
36071,Lost Lake Trail,trail,whistler,..,..,..,..,bc
36072,Lost Lake Trail,trail,whistler,..,..,..,..,bc
36073,Lost Lake Trail,trail,whistler,..,..,..,..,bc
36074,Lost Lake Trail,trail,whistler,..,..,..,..,bc
36075,Lost Lake Trail,trail,whistler,..,..,..,..,bc
36076,Lost Lake Trail,trail,whistler,..,..,..,..,bc
36077,Lost Lake Trail,trail,whistler,..,..,..,..,bc
36078,Lost Lake Trail,trail,whistler,..,..,..,..,bc
36079,Lost Lake Trail,trail,whistler,..,..,..,..,bc
36080,Lost Lake Trail,trail,whistler,..,..,..,..,bc
36081,Lost Lake Trail,trail,whistler,..,..,..,..,bc
36082,Lost Lake Trail,trail,whistler,..,..,..,..,bc
36083,Lost Lake Trail,trail,whistler,..,..,..,..,bc
36084,Lost Lake Trail,trail,whistler,..,..,..,..,bc
36095,Lower Ac/Dc,trail,whistler,..,..,..,..,bc
36096,Lower Ai,trail,whistler,..,..,..,..,bc
36097,Lower Beaver Pass,trail,whistler,..,..,..,..,bc
36110,Lower Ridge,trail,whistler,..,..,..,..,bc
36111,Lower Ridge,trail,whistler,..,..,..,..,bc
36114,Lower Yer Saddle,trail,whistler,..,..,..,..,bc
36126,Lucy In The Sky With Diamonds,trail,whistler,..,..,..,..,bc
36173,Magic,trail,whistler,..,..,..,..,bc
36294,Mandatory Suicide,trail,whistler,..,..,..,..,bc
36295,Mandatory Suicide Right,trail,whistler,..,..,..,..,bc
43514,Mel's Dilemma,trail,whistler,..,..,..,..,bc
43515,Mel's Dilemma,trail,whistler,..,..,..,..,bc
43516,Mel's Dilemma Main,trail,whistler,..,..,..,..,bc
43517,Mel's Dilemma Upper,trail,whistler,..,..,..,..,bc
43633,Micro Climate,trail,whistler,..,..,..,..,bc
43634,Middle Of Nowhere,trail,whistler,..,..,..,..,bc
