Index,Facility_Name,ODRSF_facility_type,Provider,Street_No,Street_Name,Postal_Code,City,Prov_Terr
50648,Ray Peters Trail,trail,district of squamish,..,..,..,..,bc
50816,Reefer Rip,trail,district of squamish,..,..,..,..,bc
50967,Rigs In Zen,trail,district of squamish,..,..,..,..,bc
51025,Ring Creek Falls,trail,district of squamish,..,..,..,..,bc
51027,Ring Creek Rip,trail,district of squamish,..,..,..,..,bc
51028,Ring Creek Rip (Tom Route),trail,district of squamish,..,..,..,..,bc
51029,Ring Creek Trail,trail,district of squamish,..,..,..,..,bc
51052,River Access,trail,district of squamish,..,..,..,..,bc
51053,River Access,trail,district of squamish,..,..,..,..,bc
51054,River Access,trail,district of squamish,..,..,..,..,bc
51055,River Access,trail,district of squamish,..,..,..,..,bc
51056,River Access,trail,district of squamish,..,..,..,..,bc
51057,River Access,trail,district of squamish,..,..,..,..,bc
51058,River Access,trail,district of squamish,..,..,..,..,bc
51168,Riverside Trail,trail,district of squamish,..,..,..,..,bc
51321,Rollercoaster,trail,district of squamish,..,..,..,..,bc
51326,Room With A View,trail,district of squamish,..,..,..,..,bc
51330,Rose Park Trail,trail,district of squamish,..,..,..,..,bc
51463,Rotary Trail,trail,district of squamish,..,..,..,..,bc
51738,Rupert,trail,district of squamish,..,..,..,..,bc
51742,Rusty Bucket,trail,district of squamish,..,..,..,..,bc
51743,Rusty Bucket,trail,district of squamish,..,..,..,..,bc
51764,S&M Connector,trail,district of squamish,..,..,..,..,bc
52129,Serpentine,trail,district of squamish,..,..,..,..,bc
52143,Seven Stitches,trail,district of squamish,..,..,..,..,bc
52144,Seven Up,trail,district of squamish,..,..,..,..,bc
52164,Shannon Falls To Olsen Cr,trail,district of squamish,..,..,..,..,bc
53683,Silver Spoon,trail,district of squamish,..,..,..,..,bc
53869,Skate Bowl Access,trail,district of squamish,..,..,..,..,bc
53887,Skid Trail,trail,district of squamish,..,..,..,..,bc
53897,Sleepy Hollow,trail,district of squamish,..,..,..,..,bc
53900,Smashier,trail,district of squamish,..,..,..,..,bc
53901,Smashiter,trail,district of squamish,..,..,..,..,bc
53902,Smashiter,trail,district of squamish,..,..,..,..,bc
53903,Smashiter,trail,district of squamish,..,..,..,..,bc
53918,Snack Trail,trail,district of squamish,..,..,..,..,bc
53925,Sock Puppet,trail,district of squamish,..,..,..,..,bc
53932,Somewhere Over There,trail,district of squamish,..,..,..,..,bc
53937,South,trail,district of squamish,..,..,..,..,bc
53980,South Side,trail,district of squamish,..,..,..,..,bc
54100,Spencer's Big Gay Ride,trail,district of squamish,..,..,..,..,bc
54180,Squamish River Dyke,trail,district of squamish,..,..,..,..,bc
54181,Squamish River Dyke,trail,district of squamish,..,..,..,..,bc
54182,Squamish River Dyke,trail,district of squamish,..,..,..,..,bc
54183,Squamish River Dyke,trail,district of squamish,..,..,..,..,bc
54184,Squamish River Dyke,trail,district of squamish,..,..,..,..,bc
54185,Squamish River Dyke,trail,district of squamish,..,..,..,..,bc
54186,Squatter's Cabin,trail,district of squamish,..,..,..,..,bc
54266,Staircase,trail,district of squamish,..,..,..,..,bc
