Index,Facility_Name,ODRSF_facility_type,Provider,Street_No,Street_Name,Postal_Code,City,Prov_Terr
1539,Elfin Lakes Trailhead Parking,trail,district of squamish,..,..,..,..,bc
6141,Trailhead: Climb Trail,trail,district of squamish,..,..,..,..,bc
19414,19Th Hole,trail,district of squamish,..,..,..,..,bc
19437,20 Year Trail,trail,district of squamish,..,..,..,..,bc
19688,Jan-25,trail,district of squamish,..,..,..,..,bc
19689,Jan-27,trail,district of squamish,..,..,..,..,bc
19690,Feb-27,trail,district of squamish,..,..,..,..,bc
19691,May-27,trail,district of squamish,..,..,..,..,bc
19692,Jun-27,trail,district of squamish,..,..,..,..,bc
19717,Jan-02,trail,district of squamish,..,..,..,..,bc
19886,Access,trail,district of squamish,..,..,..,..,bc
19893,Access,trail,district of squamish,..,..,..,..,bc
19896,Access,trail,district of squamish,..,..,..,..,bc
19899,Access,trail,district of squamish,..,..,..,..,bc
19912,Access Road,trail,district of squamish,..,..,..,..,bc
20429,Al's Habrich,trail,district of squamish,..,..,..,..,bc
20457,Angry Midget,trail,district of squamish,..,..,..,..,bc
20611,Another Man's Gold,trail,district of squamish,..,..,..,..,bc
20612,Another Roadside Attraction,trail,district of squamish,..,..,..,..,bc
20614,Antithesis,trail,district of squamish,..,..,..,..,bc
20858,Are You Kidding,trail,district of squamish,..,..,..,..,bc
20859,Are You Kidding Me,trail,district of squamish,..,..,..,..,bc
20860,Are You Kidding?,trail,district of squamish,..,..,..,..,bc
20861,Are You Kidding?,trail,district of squamish,..,..,..,..,bc
20898,Around The Swamp,trail,district of squamish,..,..,..,..,bc
21234,Barry's Dark Hole,trail,district of squamish,..,..,..,..,bc
21530,Beggars Gulch,trail,district of squamish,..,..,..,..,bc
21531,Beggar's Gulch South,trail,district of squamish,..,..,..,..,bc
21845,Bernoe's Crossing,trail,district of squamish,..,..,..,..,bc
21960,Birdwire,trail,district of squamish,..,..,..,..,bc
22038,Blackberry,trail,district of squamish,..,..,..,..,bc
22077,Blaine's Lament,trail,district of squamish,..,..,..,..,bc
22100,Blindside,trail,district of squamish,..,..,..,..,bc
22273,Bob Mcintosh Memorial,trail,district of squamish,..,..,..,..,bc
22330,Bonsai,trail,district of squamish,..,..,..,..,bc
23198,Cakewalk,trail,district of squamish,..,..,..,..,bc
23199,Cakewalk - Full Nelson Access,trail,district of squamish,..,..,..,..,bc
23468,Carey's Cut,trail,district of squamish,..,..,..,..,bc
23626,Cat Lake Connector,trail,district of squamish,..,..,..,..,bc
23636,Catnap,trail,district of squamish,..,..,..,..,bc
23890,Cheakamus Lake,trail,whistler,..,..,..,..,bc
23907,Cheshire Cat Access,trail,district of squamish,..,..,..,..,bc
23916,Chief Backside Trail,trail,district of squamish,..,..,..,..,bc
24236,Clearcut Sidehill,trail,district of squamish,..,..,..,..,bc
24573,Connector,trail,district of squamish,..,..,..,..,bc
24574,Connector,trail,district of squamish,..,..,..,..,bc
24575,Connector,trail,district of squamish,..,..,..,..,bc
24576,Connector,trail,district of squamish,..,..,..,..,bc
24577,Connector,trail,district of squamish,..,..,..,..,bc
