Index,Facility_Name,ODRSF_facility_type,Provider,Street_No,Street_Name,Postal_Code,City,Prov_Terr
53908,Smoked Meat,trail,district of squamish,..,..,..,..,bc
54165,Spumoni Claim Access,trail,district of squamish,..,..,..,..,bc
54166,Spur Link,trail,district of squamish,..,..,..,..,bc
54297,Steam Donkey,trail,district of squamish,..,..,..,..,bc
54345,Stlatmlhalem Sintlatm,trail,district of squamish,..,..,..,..,bc
54346,Stl'Lhalem Sintl',trail,district of squamish,..,..,..,..,bc
54389,Stp,trail,district of squamish,..,..,..,..,bc
54552,Suspension Bridge,trail,district of squamish,..,..,..,..,bc
54674,Switchback Cutoff,trail,district of squamish,..,..,..,..,bc
54821,Teeter Totter,trail,district of squamish,..,..,..,..,bc
54977,The Bypass,trail,district of squamish,..,..,..,..,bc
55147,Tinder,trail,district of squamish,..,..,..,..,bc
55276,Top Of Shannon Falls,trail,district of squamish,..,..,..,..,bc
62399,Trail 21,trail,whistler,..,..,..,..,bc
62400,Trail 26,trail,whistler,..,..,..,..,bc
62402,Trail 26 Loop,trail,whistler,..,..,..,..,bc
62403,Trail To A View,trail,district of squamish,..,..,..,..,bc
62756,Triac Spur North,trail,district of squamish,..,..,..,..,bc
62757,Triac Spur South,trail,district of squamish,..,..,..,..,bc
62760,Tricycle,trail,district of squamish,..,..,..,..,bc
62796,Ts061,trail,district of squamish,..,..,..,..,bc
62797,Ts061,trail,district of squamish,..,..,..,..,bc
62798,Ts068,trail,district of squamish,..,..,..,..,bc
64559,Upper Half Nelson,trail,district of squamish,..,..,..,..,bc
64567,Upper Mad Hatter,trail,district of squamish,..,..,..,..,bc
64571,Upper Powersmart,trail,district of squamish,..,..,..,..,bc
65226,View Spur,trail,district of squamish,..,..,..,..,bc
65315,Wahoo,trail,district of squamish,..,..,..,..,bc
65330,Walk It - Ride It,trail,district of squamish,..,..,..,..,bc
67663,Widowmaker,trail,district of squamish,..,..,..,..,bc
67664,Widowmaker,trail,district of squamish,..,..,..,..,bc
67665,Widowmaker,trail,district of squamish,..,..,..,..,bc
67666,Widowmaker,trail,district of squamish,..,..,..,..,bc
68145,With A Twist,trail,whistler,..,..,..,..,bc
68260,Wonderland Loop,trail,district of squamish,..,..,..,..,bc
68261,Wonderland Loop,trail,district of squamish,..,..,..,..,bc
68262,Wonderland Loop,trail,district of squamish,..,..,..,..,bc
69966,Wray's Way,trail,district of squamish,..,..,..,..,bc
70040,Your Mom,trail,district of squamish,..,..,..,..,bc
70041,Your Sister,trail,district of squamish,..,..,..,..,bc
95057,..,trail,district of squamish,..,..,..,..,bc
95058,..,trail,district of squamish,..,..,..,..,bc
95059,..,trail,district of squamish,..,..,..,..,bc
95060,..,trail,district of squamish,..,..,..,..,bc
95061,..,trail,district of squamish,..,..,..,..,bc
95062,..,trail,district of squamish,..,..,..,..,bc
95063,..,trail,district of squamish,..,..,..,..,bc
95064,..,trail,district of squamish,..,..,..,..,bc
95065,..,trail,district of squamish,..,..,..,..,bc
