Index,Facility_Name,ODRSF_facility_type,Provider,Street_No,Street_Name,Postal_Code,City,Prov_Terr
26489,Eps,trail,whistler,..,..,..,..,bc
26859,Far Out,trail,whistler,..,..,..,..,bc
26861,Farside,trail,whistler,..,..,..,..,bc
26862,Farside,trail,whistler,..,..,..,..,bc
26863,Farside,trail,whistler,..,..,..,..,bc
26864,Farside,trail,whistler,..,..,..,..,bc
27184,Foreplay,trail,whistler,..,..,..,..,bc
27514,Fountain Of Love,trail,whistler,..,..,..,..,bc
27515,Fountain Of Love,trail,whistler,..,..,..,..,bc
27516,Fountain Of Love,trail,whistler,..,..,..,..,bc
27517,Fountain Of Love Access,trail,whistler,..,..,..,..,bc
27796,Garbage,trail,whistler,..,..,..,..,bc
27798,Gargamel,trail,whistler,..,..,..,..,bc
27799,Gargamel,trail,whistler,..,..,..,..,bc
27900,Gee I Like Your Pants,trail,whistler,..,..,..,..,bc
28021,Get Over It,trail,whistler,..,..,..,..,bc
28147,Golden Boner,trail,whistler,..,..,..,..,bc
28535,Grand Wazoo,trail,whistler,..,..,..,..,bc
28615,Green Monster,trail,whistler,..,..,..,..,bc
28767,Gypsy Drum,trail,whistler,..,..,..,..,bc
28886,Happy Hour,trail,whistler,..,..,..,..,bc
29115,Heavy Flow,trail,whistler,..,..,..,..,bc
29491,Hey Bud,trail,whistler,..,..,..,..,bc
29492,Hey Bud Light,trail,whistler,..,..,..,..,bc
29503,High Industry,trail,whistler,..,..,..,..,bc
29512,High Side,trail,whistler,..,..,..,..,bc
29513,High Society,trail,whistler,..,..,..,..,bc
29603,Hihi,trail,whistler,..,..,..,..,bc
29644,Hind Sight,trail,whistler,..,..,..,..,bc
29687,Hooktender,trail,whistler,..,..,..,..,bc
29696,Hot Dog Alley,trail,whistler,..,..,..,..,bc
29710,Howler,trail,whistler,..,..,..,..,bc
29712,Hs - Industrial,trail,whistler,..,..,..,..,bc
30009,I'M Not Satisfied,trail,whistler,..,..,..,..,bc
30369,Industrial Disease,trail,whistler,..,..,..,..,bc
30370,Industrial Disease Bypass,trail,whistler,..,..,..,..,bc
30371,Industrial Waste,trail,whistler,..,..,..,..,bc
30626,Instant Gratification,trail,whistler,..,..,..,..,bc
30628,Interpretive Forest Loop,trail,whistler,..,..,..,..,bc
30629,Interpretive Forest Loop,trail,whistler,..,..,..,..,bc
30630,Interpretive Forest Loop,trail,whistler,..,..,..,..,bc
30632,Into The Mystic,trail,whistler,..,..,..,..,bc
30633,Into The Mystic,trail,whistler,..,..,..,..,bc
30634,Into The Mystic,trail,whistler,..,..,..,..,bc
30635,Into The Mystic,trail,whistler,..,..,..,..,bc
30636,Into The Mystic,trail,whistler,..,..,..,..,bc
30710,It's Business Time,trail,whistler,..,..,..,..,bc
30716,Jabt Rock Roll,trail,whistler,..,..,..,..,bc
30723,Jake Lakes,trail,whistler,..,..,..,..,bc
