Index,Facility_Name,ODRSF_facility_type,Provider,Street_No,Street_Name,Postal_Code,City,Prov_Terr
27686,Fsr,trail,district of squamish,..,..,..,..,bc
27687,Fsr,trail,district of squamish,..,..,..,..,bc
27688,Fsr,trail,district of squamish,..,..,..,..,bc
27689,Fsr,trail,district of squamish,..,..,..,..,bc
27690,Fsr,trail,district of squamish,..,..,..,..,bc
27691,Fsr,trail,district of squamish,..,..,..,..,bc
27692,Fsr Road,trail,district of squamish,..,..,..,..,bc
27693,Full Nelson,trail,district of squamish,..,..,..,..,bc
27694,Fun In The Sun,trail,district of squamish,..,..,..,..,bc
27700,Fvdr Garden,trail,district of squamish,..,..,..,..,bc
27755,Galactic Scheisse,trail,district of squamish,..,..,..,..,bc
28740,Grin And Holler,trail,district of squamish,..,..,..,..,bc
28819,Half Nelson,trail,district of squamish,..,..,..,..,bc
29099,Heads Up,trail,district of squamish,..,..,..,..,bc
29140,Hell's Stairway,trail,district of squamish,..,..,..,..,bc
29141,Help The Girls,trail,district of squamish,..,..,..,..,bc
29299,Henrietta Lake Trail,trail,district of squamish,..,..,..,..,bc
29516,Highball,trail,district of squamish,..,..,..,..,bc
29604,Hike A Bike,trail,district of squamish,..,..,..,..,bc
29675,Home Brew,trail,district of squamish,..,..,..,..,bc
29686,Hoods In The Woods,trail,district of squamish,..,..,..,..,bc
29886,Hybrid,trail,district of squamish,..,..,..,..,bc
29957,Hydro Hill,trail,district of squamish,..,..,..,..,bc
29958,Hydro Hill Incl. Steep D/H,trail,district of squamish,..,..,..,..,bc
30015,Imba Smart,trail,district of squamish,..,..,..,..,bc
31198,K In A Day,trail,district of squamish,..,..,..,..,bc
33257,Kml_259,trail,district of north vancouver,..,..,..,..,bc
33360,Kml_2682,trail,district of north vancouver,..,..,..,..,bc
33424,Kml_274,trail,district of north vancouver,..,..,..,..,bc
33487,Kml_2797,trail,district of north vancouver,..,..,..,..,bc
34713,Kml_899,trail,district of north vancouver,..,..,..,..,bc
34716,Kml_900,trail,district of north vancouver,..,..,..,..,bc
34717,Kml_901,trail,district of north vancouver,..,..,..,..,bc
35295,Lava Flow Hill,trail,district of squamish,..,..,..,..,bc
35336,Legacy (Climbing Trail),trail,district of squamish,..,..,..,..,bc
35337,Legacy Climb Connector,trail,district of squamish,..,..,..,..,bc
35747,Link To Mccrae's Trail,trail,district of squamish,..,..,..,..,bc
35748,Link To Mccrae's Trail,trail,district of squamish,..,..,..,..,bc
35860,Little Joe Poke,trail,district of squamish,..,..,..,..,bc
36088,Low Down Part 1,trail,district of squamish,..,..,..,..,bc
36089,Low Down Part 2,trail,district of squamish,..,..,..,..,bc
36090,Low Down Part 3,trail,district of squamish,..,..,..,..,bc
36108,Lower Hydro Hill,trail,district of squamish,..,..,..,..,bc
36112,Lower Skookum,trail,district of squamish,..,..,..,..,bc
36168,Mad Hatter,trail,district of squamish,..,..,..,..,bc
36169,Made In The Shade,trail,district of squamish,..,..,..,..,bc
36293,Man Boobs,trail,district of squamish,..,..,..,..,bc
42820,Marionette,trail,district of squamish,..,..,..,..,bc
43187,Mccrae's Trail,trail,district of squamish,..,..,..,..,bc
