Index,Facility_Name,ODRSF_facility_type,Provider,Street_No,Street_Name,Postal_Code,City,Prov_Terr
162005,8Th St Park,park,kamloops,1153,8th,..,..,bc
162060,Aberdeen Hills Park,park,kamloops,1245,howe,..,..,bc
162075,Acadia Park,park,kamloops,1067,acadia,..,..,bc
162144,Albert Mcgowan Park,park,kamloops,2025,summit,..,..,bc
162240,Allan Powers Park,park,kamloops,330,centre,..,..,bc
162532,Arrowstone Park,park,kamloops,220,arrowstone,..,..,bc
162837,Batchelor Nature Park,park,kamloops,1750,batchelor,..,..,bc
162838,Batchelor Park,park,kamloops,810,ord,..,..,bc
162909,BC Wildlife Park,park,kamloops,9077,dallas,..,..,bc
163105,Belmont Park,park,kamloops,709,cumberland,..,..,bc
163481,Bogetti Park,park,kamloops,5308,bogetti,..,..,bc
163624,Braemar Park,park,kamloops,667,braemar,..,..,bc
163773,Brocklehurst Park,park,kamloops,2470,fleetwood,..,..,bc
164046,Cambridge Park,park,kamloops,637,cambridge,..,..,bc
164063,Cammeray Park,park,kamloops,4705,cammeray,..,..,bc
164067,Campbell Creek Nature Park,park,kamloops,9080,trans-canada,..,..,bc
164070,Campbell Creek Park,park,kamloops,8701,dallas,..,..,bc
164145,Capilano Park,park,kamloops,1440,capilano,..,..,bc
164704,China Road Park,park,kamloops,7100,china,..,..,bc
164994,Columbia Lookout,park,kamloops,610,columbia,..,..,bc
165060,Connaught Park,park,kamloops,225,connaught,..,..,bc
165264,Cowan Park,park,kamloops,697,cowan,..,..,bc
165350,Crestline Park,park,kamloops,750,crestline,..,..,bc
165489,Dallas Park,park,kamloops,5998,todd hill,..,..,bc
165493,Dallas-Barnhartvale Nature Park,park,kamloops,1210,eliza,..,..,bc
165809,Dominion Park,park,kamloops,1351,dominion,..,..,bc
166005,Dufferin Park,park,kamloops,1840,hillside,..,..,bc
166239,Edgemount Park,park,kamloops,2235,edgemount,..,..,bc
166574,Exhibition Park,park,kamloops,1055,river,..,..,bc
167169,Gaglardi Square,park,kamloops,173,seymour,..,..,bc
167463,Glen Nevis Park,park,kamloops,818,gleneagles,..,..,bc
167506,Gleneagles Park,park,kamloops,309,chino,..,..,bc
167656,Gordonhorn Park,park,kamloops,301,gorndonhorn,..,..,bc
167747,Grandview-Dufferin Park,park,kamloops,461,dufferin,..,..,bc
167861,Greenstone Park,park,kamloops,325,pemberton,..,..,bc
168389,High Canada Place Park,park,kamloops,2090,high forest,..,..,bc
168431,Highland Park,park,kamloops,2350,pacific,..,..,bc
168587,Hook Park,park,kamloops,1545,collingwood,..,..,bc
168653,Hugh Allan Park,park,kamloops,1997,pacific,..,..,bc
168683,Humphrey Sanctuary Nature Park,park,kamloops,1801,springhill,..,..,bc
168829,Invermere Park,park,kamloops,845,invermere,..,..,bc
169325,Juniper Dog Park,park,kamloops,2150,qu'appelle,..,..,bc
169326,Juniper Park,park,kamloops,2150,qu'appelle,..,..,bc
169328,Juniper West,park,kamloops,1940,qu'appelle,..,..,bc
169343,Kamloops Bike Ranch,park,kamloops,1105,highland,..,..,bc
169433,Kenna Cartwright Nature Park,park,kamloops,2000,hillside,..,..,bc
169588,Kinsmen North Park,park,kamloops,605,comox,..,..,bc
169605,Kinsmen South Park,park,kamloops,975,pleasant,..,..,bc
170261,Len Haughton Park,park,kamloops,595,lister,..,..,bc
