Index,Facility_Name,ODRSF_facility_type,Provider,Street_No,Street_Name,Postal_Code,City,Prov_Terr
171180,Mcbeth Park,park,kamloops,675,mcbeth,..,..,bc
171227,Mcdonald Dog Park,park,kamloops,262,king,..,..,bc
171229,Mcdonald Park,park,kamloops,262,king,..,..,bc
171260,Mcintosh Park,park,kamloops,502,battle,..,..,bc
171293,Mclean Park,park,kamloops,1190,mclean,..,..,bc
171418,Memorial Hill Park,park,kamloops,225,paul,..,..,bc
171655,Mission Flats Nature Park,park,kamloops,2710,mission flats,..,..,bc
171760,Monmouth Park,park,kamloops,172,monmouth,..,..,bc
171808,Moose Park,park,kamloops,385,schubert,..,..,bc
172231,North River Park,park,kamloops,1715,north-river,..,..,bc
172616,Ord Road Dog Park,park,kamloops,2785,ord,..,..,bc
172663,Overlander Park,park,kamloops,247,kitchener,..,..,bc
172696,Pacific Way Park,park,kamloops,2320,pacific,..,..,bc
173574,Park By Subdivision,park,kamloops,946,ida,..,..,bc
173598,Parkcrest Park,park,kamloops,2393,parkcrest,..,..,bc
173807,Perryville Park,park,kamloops,855,mcqueen,..,..,bc
173831,Peterson Creek Nature Park,park,kamloops,1440,glenfair,..,..,bc
173926,Pineview Valley Park,park,kamloops,1925,hugh allan,..,..,bc
173947,Pioneer Park,park,kamloops,40,7th,..,..,bc
174122,Prince Charles Park,park,kamloops,1145,nicola,..,..,bc
174311,Rae-Mor Park,park,kamloops,113,arab run,..,..,bc
174328,Rainbow Park,park,kamloops,670,mccurrach,..,..,bc
174597,Richmond Park,park,kamloops,601,richmond,..,..,bc
174703,River Street Dog Park,park,kamloops,1110,river,..,..,bc
174767,Rivers Trail Park Bridge,park,kamloops,350,victoria,..,..,bc
174768,Rivers Trail Park Place,park,kamloops,894,lorne,..,..,bc
174769,Rivers Trail Park Westsyde,park,kamloops,2525,oak hills,..,..,bc
174777,Riverside Park,park,kamloops,100,lorne,..,..,bc
174963,Rose Hill Park,park,kamloops,1335,rosehill,..,..,bc
175392,Saddleback Park,park,kamloops,2110,grasslands,..,..,bc
175412,Sahali Park,park,kamloops,435,arrowstone,..,..,bc
175413,Sahali Terrace Nature Park,park,kamloops,980,3rd,..,..,bc
175604,Schubert Park Lookout,park,kamloops,230,schubert,..,..,bc
175812,Sherbrooke Park,park,kamloops,1026,sherbrooke,..,..,bc
175889,Sifton Loop Trail,park,kamloops,2075,sifton,..,..,bc
175890,Sifton Park,park,kamloops,2046,sifton,..,..,bc
175951,Singh Street Soccer Bowl,park,kamloops,1615,ord,..,..,bc
176016,Skyline Park,park,kamloops,401,aberdeen,..,..,bc
176190,Southview Park,park,kamloops,1564,southview,..,..,bc
176214,Spartan Park,park,kamloops,1610,spartan,..,..,bc
176236,Spirit Square,park,kamloops,502,mackenzie,..,..,bc
176283,Springview Park,park,kamloops,1765,springview,..,..,bc
176685,Strathcona Lookout,park,kamloops,550,strathcona,..,..,bc
176690,Strathcona Park,park,kamloops,550,strathcona,..,..,bc
177117,Thompson Park,park,kamloops,6500,beaver,..,..,bc
177217,Todd Hill Park,park,kamloops,1550,todd,..,..,bc
177315,Tournament Capital Ranch,park,kamloops,5355,yellowhead,..,..,bc
177754,Valleyview Centennial Park,park,kamloops,2288,park,..,..,bc
177755,Valleyview Nature Park,park,kamloops,220,valleyview,..,..,bc
