Index,Facility_Name,ODRSF_facility_type,Provider,Street_No,Street_Name,Postal_Code,City,Prov_Terr
169652,Klo Creek Regional Park,park,kelowna,3730,field,..,..,bc
169883,Knowles Heritage Park,park,kelowna,865,bernard,..,..,bc
169887,Knox Mountain Park,park,kelowna,450,knox mountain,..,..,bc
169909,Kuipers' Peak Mountain Park,park,kelowna,792,kuipers,..,..,bc
169966,Lake Avenue Beach Access,park,kelowna,128,mctavish,..,..,bc
170005,Lakeshore Road Beach Access,park,kelowna,4100,lakeshore,..,..,bc
170210,Lebanon Creek Greenway,park,kelowna,5554,mountainside,..,..,bc
170327,Lillooet Park,park,kelowna,2180,summit,..,..,bc
170497,Lochview Road Beach Access,park,kelowna,190,lochview,..,..,bc
170515,Lombardy Park,park,kelowna,1320,wilson,..,..,bc
170565,Loseth Park,park,kelowna,1535,loseth,..,..,bc
170567,Lost Creek Park,park,kelowna,155,lost creek,..,..,bc
170645,Lund Park,park,kelowna,1250,lund,..,..,bc
170659,Luxmoore Linear Park,park,kelowna,3603,luxmoore,..,..,bc
170784,Main Street Park,park,kelowna,411,providence,..,..,bc
170839,Manhattan Drive Beach Access,park,kelowna,842,manhattan,..,..,bc
170920,Mappin Court Park,park,kelowna,2673,mappin,..,..,bc
171053,Martin Park,park,kelowna,1434,graham,..,..,bc
171064,Mary Ann Collinson Memorial Park,park,kelowna,1250,pridham,..,..,bc
171105,Matera Glen Park,park,kelowna,250,glen park,..,..,bc
171125,Maude Roxby Wetland,park,kelowna,340,francis,..,..,bc
171284,Mckinley Landing Park,park,kelowna,2186,bennett,..,..,bc
171285,Mckinley Mountain Park,park,kelowna,1798,shayler,..,..,bc
171335,Mctavish Avenue Beach Access,park,kelowna,122,mctavish,..,..,bc
171395,Meikle Avenue Beach Access,park,kelowna,252,meikle,..,..,bc
171549,Millard Glen Park,park,kelowna,1840,millard,..,..,bc
171551,Millbridge Park,park,kelowna,1999,bowes,..,..,bc
171654,Mission Creek Regional Park,park,kelowna,2363,springfield,..,..,bc
171658,Mission Recreation Park,park,kelowna,4105,gordon,..,..,bc
171659,Mission Ridge Park,park,kelowna,900,bullock,..,..,bc
171811,Moraine Park,park,kelowna,700,moraine,..,..,bc
171928,Mountainside Park,park,kelowna,5437,chute lake,..,..,bc
171959,Mugford Park,park,kelowna,425,stetson,..,..,bc
171984,Munson Pond Park,park,kelowna,2855,burtch,..,..,bc
172011,Myra Bellevue Provincial Park,park,kelowna,..,sallows,..,..,bc
172018,Naito Park,park,kelowna,115,naito,..,..,bc
172121,Newport Glen Park,park,kelowna,130,applebrooke,..,..,bc
172199,North Glenmore Dog Park,park,kelowna,2150,glenmore,..,..,bc
172501,Okanagan Mountain Park,park,kelowna,5902,lakeshore,..,..,bc
172640,Osprey Park,park,kelowna,2600,richter,..,..,bc
172690,Pacific Court Park,park,kelowna,1961,pacific,..,..,bc
173621,Parkinson Recreation Park,park,kelowna,1800,parkinson,..,..,bc
174028,Ponds Community Park,park,kelowna,1213,frost,..,..,bc
174113,Priest Creek Linear Park,park,kelowna,315,balldock,..,..,bc
174185,Providence Park,park,kelowna,350,providence,..,..,bc
174210,Quail Place Park,park,kelowna,2500,quail,..,..,bc
174211,Quail Ridge Linear Park,park,kelowna,..,quail,..,..,bc
174229,Quarry Park,park,kelowna,4882,quarry,..,..,bc
174275,Quilchena Park,park,kelowna,347,quilchena,..,..,bc
