Index,Facility_Name,ODRSF_facility_type,Provider,Street_No,Street_Name,Postal_Code,City,Prov_Terr
164277,Cascia Linear Park,park,kelowna,430,cascia,..,..,bc
164291,Cassiar Park,park,kelowna,669,cassiar,..,..,bc
164357,Cedar Avenue Beach Access,park,kelowna,3090,walnut,..,..,bc
164360,Cedar Creek Park,park,kelowna,5200,lakeshore,..,..,bc
164485,Central Okanagan Sailing Association,park,kelowna,4220,hobson,..,..,bc
164688,Chichester Wetland Park,park,kelowna,250,sumac,..,..,bc
164780,City Park,park,kelowna,1600,abbott,..,..,bc
164805,Clarance Greenspace,park,kelowna,823,clarance,..,..,bc
164960,Collett Road Beach Access,park,kelowna,379,collett,..,..,bc
165078,Cook Road Boat Launch,park,kelowna,3786,lakeshore,..,..,bc
165383,Cross Glen Park,park,kelowna,207,biggar,..,..,bc
165443,Curlew Park,park,kelowna,5210,lark,..,..,bc
165560,Davie Park,park,kelowna,300,davie,..,..,bc
165728,Dewdney Road #1 Beach Access,park,kelowna,1840,dewdney,..,..,bc
165729,Dewdney Road #3 Beach Access,park,kelowna,2046,dewdney,..,..,bc
165730,Dewdney Road #5 Beach Access,park,kelowna,2254,dewdney,..,..,bc
165753,Dilworth Soccer Park,park,kelowna,950,dilworth,..,..,bc
166012,Duggan Park,park,kelowna,1494,bernard,..,..,bc
166139,East Kelowna Park,park,kelowna,2741,kelowna,..,..,bc
166255,Edith Gay Park,park,kelowna,305,moyer,..,..,bc
166316,Eldorado Road Beach Access,park,kelowna,402,eldorado,..,..,bc
166363,Ellison Dog Park,park,kelowna,4720,old vernon,..,..,bc
166439,Enterprise Park,park,kelowna,2500,enterprise,..,..,bc
166610,Fairhall Park,park,kelowna,2448,fairhall,..,..,bc
166691,Farris Road Beach Access,park,kelowna,4644,farris,..,..,bc
166693,Fascieux Creek Wetland,park,kelowna,3320,casorso,..,..,bc
167026,Francis Avenue Beach Access,park,kelowna,330,francis,..,..,bc
167370,Gerstmar Park,park,kelowna,955,gerstmar,..,..,bc
167622,Golfview Park,park,kelowna,810,valley,..,..,bc
167630,Gopher Creek Linear Park,park,kelowna,1723,lynrick,..,..,bc
167936,Guisachan Heritage Park,park,kelowna,1060,cameron,..,..,bc
168085,Harris Park,park,kelowna,1287,harris,..,..,bc
168109,Hartman Park,park,kelowna,1250,hartman,..,..,bc
168112,Hartwick Park,park,kelowna,1480,lambert,..,..,bc
168113,Harvard Road Linear Park,park,kelowna,2901,harvard,..,..,bc
168376,Hidden Lake Park,park,kelowna,1188,long ridge,..,..,bc
168393,High Noon Park,park,kelowna,4720,old vernon,..,..,bc
168456,Hill Spring Park,park,kelowna,..,redstem,..,..,bc
168518,Hobson Road Beach Access,park,kelowna,4222,hobson,..,..,bc
168550,Hollydell Park,park,kelowna,905,hollydell,..,..,bc
168553,Hollywood Park,park,kelowna,415,hollywood,..,..,bc
168916,Jack Brow Park,park,kelowna,900,guy,..,..,bc
168929,Jack Robertson Memorial Park,park,kelowna,1655,willow,..,..,bc
169065,Jewell Park,park,kelowna,327,providence,..,..,bc
169207,Johnson Park,park,kelowna,2540,johnson,..,..,bc
169354,Kasugai Gardens,park,kelowna,1435,water,..,..,bc
169400,Kelowna Memorial Cemetery,park,kelowna,1991,bernard,..,..,bc
169475,Kerry Park,park,kelowna,1480,mill,..,..,bc
169482,Kettle Valley Sports Field - Leased Land,park,kelowna,410,providence,..,..,bc
