Index,Facility_Name,ODRSF_facility_type,Provider,Street_No,Street_Name,Postal_Code,City,Prov_Terr
285,Beach House,beach,kelowna,236,beach,..,..,bc
384,Beyond The Crux Climbing Gym Inc,gym,kelowna,685,finns,..,kelowna,bc
1408,Downtown Marina Inc,marina,kelowna,210,bernard,..,..,bc
1788,Fun Bugs Playground,playground,kelowna,1855,spall,..,..,bc
1814,Gateway Casinos & Entertainment Ltd,casino,kelowna,1300,water,..,..,bc
3654,Okanagan Marina Ltd,marina,kelowna,500,cook,..,kelowna,bc
4458,Parkinson Recreation Centre,community centre,kelowna,1800,parkinson,..,..,bc
5280,Rutland Arena,arena,kelowna,645,dodd,..,kelowna,bc
6077,The Okanagan Gymnastics Centre,gym,kelowna,365,hartman,..,..,bc
11388,Gini Basketball,sports field,kelowna,821,tronson,..,..,bc
12379,Kelowna Chiefs Hockey Ltd,rink,kelowna,645,dodd,..,kelowna,bc
12380,Kelowna Curling Club,rink,kelowna,551,recreation,..,..,bc
12382,Kelowna Falcons Baseball Ltd,sports field,kelowna,663,recreation,..,..,bc
12775,Konecsni Hockey Skating,rink,kelowna,466,yates,..,..,bc
13608,Michaelbrook Golf Course,sports field,kelowna,1085,lexington,..,..,bc
13950,Network Zoo Ltd.,miscellaneous,kelowna,105,bertram,..,..,bc
15727,Shadow Ridge Golf Club,sports field,kelowna,3770,bulman,..,..,bc
18551,World Beat Family Golf & Recreation Centre Inc,sports field,kelowna,625,old vernon,..,..,bc
18569,Yardhouse Baseball Inc,sports field,kelowna,360,spedding,..,..,bc
95025,..,trail,district of lake county,..,..,..,..,bc
95026,..,trail,district of lake county,..,..,..,..,bc
95029,..,trail,district of lake county,..,..,..,..,bc
162052,Abbott Park,park,kelowna,2955,abbott,..,..,bc
162330,Anchor Park,park,kelowna,1691,ellis,..,..,bc
162685,Avonlea Park,park,kelowna,274,avonlea,..,..,bc
162726,Ballou Park,park,kelowna,1859,ballou,..,..,bc
162756,Bankhead Park,park,kelowna,1400,bankhead,..,..,bc
162793,Barlee Park,park,kelowna,1898,barlee,..,..,bc
162931,Beach Avenue Beach Access,park,kelowna,188,beach,..,..,bc
163057,Belgo Park,park,kelowna,895,belgo,..,..,bc
163075,Bella Vista Park,park,kelowna,2342,loseth,..,..,bc
163087,Bellevue Creek Greenway,park,kelowna,781,varney,..,..,bc
163107,Belmont Park,park,kelowna,4444,belmont,..,..,bc
163124,Ben Lee Park,park,kelowna,900,houghton,..,..,bc
163226,Bertram Creek Regional Park,park,kelowna,5680,lakeshore,..,..,bc
163342,Birkdale Park,park,kelowna,363,prestwick,..,..,bc
163407,Blair Pond Park,park,kelowna,333,clifton,..,..,bc
163451,Bluebird Beach Park,park,kelowna,4006,lakeshore,..,..,bc
163452,Bluebird Road North Beach Access,park,kelowna,3930,bluebird,..,..,bc
163602,Boyce-Gyro Beach Park,park,kelowna,3400,lakeshore,..,..,bc
163620,Braeloch Road Beach Access,park,kelowna,388,braeloch,..,..,bc
163689,Briarwood Park,park,kelowna,310,primrose,..,..,bc
163739,Brighton Park,park,kelowna,559,milton,..,..,bc
163922,Burne Avenue Beach Access,park,kelowna,272,burne,..,..,bc
164000,Cadder Avenue Beach Access,park,kelowna,2094,abbott,..,..,bc
164030,Calmels Park,park,kelowna,1059,calmels,..,..,bc
164058,Cameron Park,park,kelowna,2345,richter,..,..,bc
164137,Canyon Falls Park,park,kelowna,1856,canyon falls,..,..,bc
164224,Carney Park,park,kelowna,1890,capistrano,..,..,bc
