Index,Facility_Name,ODRSF_facility_type,Provider,Street_No,Street_Name,Postal_Code,City,Prov_Terr
174477,Redlich Pond Park,park,kelowna,1646,gillard,..,..,bc
174492,Redridge Park,park,kelowna,4805,westridge,..,..,bc
174598,Richmond Park,park,kelowna,1625,richmond,..,..,bc
174849,Robert's Lake Regional Park,park,kelowna,956,curtis,..,..,bc
175019,Rotary Beach Park,park,kelowna,3726,lakeshore,..,..,bc
175027,Rotary Marsh Park,park,kelowna,1050,sunset,..,..,bc
175250,Rowcliffe Park,park,kelowna,536,rowcliffe,..,..,bc
175265,Roxby Square,park,kelowna,250,33,..,..,bc
175285,Royal Avenue Beach Access,park,kelowna,2188,abbott,..,..,bc
175353,Rutland Bluff Linear Park,park,kelowna,180,froelich,..,..,bc
175354,Rutland Centennial Park,park,kelowna,250,rutland,..,..,bc
175355,Rutland Lions Park,park,kelowna,175,gray,..,..,bc
175356,Rutland Recreation Park,park,kelowna,645,dodd,..,..,bc
175524,Sarsons Beach Park,park,kelowna,4398,hobson,..,..,bc
175558,Scenic Canyon Regional Park,park,kelowna,3801,field,..,..,bc
175672,Selkirk Park,park,kelowna,2500,selkirk,..,..,bc
175852,Shetland Park,park,kelowna,3010,shetland,..,..,bc
176087,Sonora Park,park,kelowna,1634,sonora,..,..,bc
176112,South Kelowna Centennial Park,park,kelowna,4194,spiers,..,..,bc
176182,Southridge Detention Pond,park,kelowna,5010,ridge,..,..,bc
176183,Southridge Drive Recreation Corridor,park,kelowna,4885,ridge,..,..,bc
176188,Southridge Park,park,kelowna,715,southcrest,..,..,bc
176578,Steele Road Recreation Corridor,park,kelowna,1248,steele,..,..,bc
176600,Still Pond Park,park,kelowna,550,still pond,..,..,bc
176601,Stillingfleet Park,park,kelowna,1250,mcbride,..,..,bc
176680,Strathcona Beach Park,park,kelowna,2290,abbott,..,..,bc
176711,Stuart Park,park,kelowna,1430,water,..,..,bc
176741,Sumac Park,park,kelowna,372,phipps,..,..,bc
176765,Summerside Park,park,kelowna,3858,summerside,..,..,bc
176771,Summit Park,park,kelowna,2280,summit,..,..,bc
176830,Sunset Drive Park,park,kelowna,1055,sunset,..,..,bc
176853,Sutherland Bay Park,park,kelowna,700,ellis,..,..,bc
176858,Sutton Glen Park,park,kelowna,464,sutton,..,..,bc
177030,Terrace Hill Park,park,kelowna,180,terrace hill,..,..,bc
177123,Thomson Creek,park,kelowna,4188,lakeshore,..,..,bc
177125,Thomson Marsh Park,park,kelowna,4125,gordon,..,..,bc
177730,Valley Glen Wetland,park,kelowna,530,valley,..,..,bc
177911,Vimy Avenue Beach Access,park,kelowna,176,vimy,..,..,bc
178017,Walrod Park,park,kelowna,825,walrod,..,..,bc
178068,Water Street Boat Launch,park,kelowna,1354,water,..,..,bc
178080,Waterfront Park,park,kelowna,1200,water,..,..,bc
178082,Waterfront Walkway - El Dorado Hotel/Manteo Resort,park,kelowna,510,cook,..,..,bc
178083,Waterfront Walkway - Mission Shores,park,kelowna,3882,truswell,..,..,bc
178105,Watt Park,park,kelowna,3175,watt,..,..,bc
178106,Watt Road Beach Access,park,kelowna,3274,watt,..,..,bc
178198,West Avenue Beach Access,park,kelowna,340,west,..,..,bc
178415,Whitman Glen Park,park,kelowna,308,whitman,..,..,bc
178435,Wigglesworth Park,park,kelowna,444,wigglesworth,..,..,bc
178585,Wilson Creek Linear Park,park,kelowna,..,gordon,..,..,bc
