Index,Facility_Name,ODRSF_facility_type,Provider,Street_No,Street_Name,Postal_Code,City,Prov_Terr
25993,Duchess Park,trail,prince george,..,..,..,..,bc
25994,Duchess Park,trail,prince george,..,..,..,..,bc
25995,Duchess Park,trail,prince george,..,..,..,..,bc
26509,Eric'S,trail,prince george,..,..,..,..,bc
26923,Ferguson Lake Trail,trail,prince george,..,..,..,..,bc
27013,Fir Thur Up The Creek,trail,prince george,..,..,..,..,bc
27368,Forests For The World Trail,trail,prince george,..,..,..,..,bc
27369,Forests For The World Trail,trail,prince george,..,..,..,..,bc
27370,Forests For The World Trail,trail,prince george,..,..,..,..,bc
27371,Forests For The World Trail,trail,prince george,..,..,..,..,bc
27372,Forests For The World Trail,trail,prince george,..,..,..,..,bc
27373,Forests For The World Trail,trail,prince george,..,..,..,..,bc
27374,Forests For The World Trail,trail,prince george,..,..,..,..,bc
27375,Forests For The World Trail,trail,prince george,..,..,..,..,bc
27376,Forests For The World Trail,trail,prince george,..,..,..,..,bc
27377,Forests For The World Trail,trail,prince george,..,..,..,..,bc
27378,Forests For The World Trail,trail,prince george,..,..,..,..,bc
27379,Forests For The World Trail,trail,prince george,..,..,..,..,bc
27380,Forests For The World Trail,trail,prince george,..,..,..,..,bc
27381,Forests For The World Trail,trail,prince george,..,..,..,..,bc
27382,Forests For The World Trail,trail,prince george,..,..,..,..,bc
27383,Forests For The World Trail,trail,prince george,..,..,..,..,bc
27384,Forests For The World Trail,trail,prince george,..,..,..,..,bc
27385,Forests For The World Trail,trail,prince george,..,..,..,..,bc
27386,Forests For The World Trail,trail,prince george,..,..,..,..,bc
27387,Forests For The World Trail,trail,prince george,..,..,..,..,bc
27388,Forests For The World Trail,trail,prince george,..,..,..,..,bc
27389,Forests For The World Trail,trail,prince george,..,..,..,..,bc
27390,Forests For The World Trail,trail,prince george,..,..,..,..,bc
27391,Forests For The World Trail,trail,prince george,..,..,..,..,bc
27392,Forests For The World Trail,trail,prince george,..,..,..,..,bc
27393,Forests For The World Trail,trail,prince george,..,..,..,..,bc
27394,Forests For The World Trail,trail,prince george,..,..,..,..,bc
27395,Forests For The World Trail,trail,prince george,..,..,..,..,bc
27396,Forests For The World Trail,trail,prince george,..,..,..,..,bc
27397,Forests For The World Trail,trail,prince george,..,..,..,..,bc
27398,Forests For The World Trail,trail,prince george,..,..,..,..,bc
27399,Forests For The World Trail,trail,prince george,..,..,..,..,bc
27400,Forests For The World Trail,trail,prince george,..,..,..,..,bc
27401,Forests For The World Trail,trail,prince george,..,..,..,..,bc
27402,Forests For The World Trail,trail,prince george,..,..,..,..,bc
27403,Forests For The World Trail,trail,prince george,..,..,..,..,bc
27404,Forests For The World Trail,trail,prince george,..,..,..,..,bc
27405,Forests For The World Trail,trail,prince george,..,..,..,..,bc
27406,Forests For The World Trail,trail,prince george,..,..,..,..,bc
27407,Forests For The World Trail,trail,prince george,..,..,..,..,bc
27408,Forests For The World Trail,trail,prince george,..,..,..,..,bc
27409,Forests For The World Trail,trail,prince george,..,..,..,..,bc
27410,Forests For The World Trail,trail,prince george,..,..,..,..,bc
