Index,Facility_Name,ODRSF_facility_type,Provider,Street_No,Street_Name,Postal_Code,City,Prov_Terr
7399,Baker Park: Playground,sports field,prince george,..,..,..,..,bc
8275,Balsum Park: Joe Martin Field,sports field,prince george,..,..,..,..,bc
8900,Bednesti Park,sports field,prince george,..,..,..,..,bc
8901,Bednesti Park,sports field,prince george,..,..,..,..,bc
9192,Bravery Park: Diamond 1,sports field,prince george,..,..,..,..,bc
9503,Carrie Jane Gray: Basketball Court,sports field,prince george,..,..,..,..,bc
9504,Carrie Jane Gray: Bmx Track,sports field,prince george,..,..,..,..,bc
9505,Carrie Jane Gray: Carrie Jane Gray Field,sports field,prince george,..,..,..,..,bc
9506,Carrie Jane Gray: Citizen Field,sports field,prince george,..,..,..,..,bc
9507,Carrie Jane Gray: Horseshoe Pitch,sports field,prince george,..,..,..,..,bc
9508,Carrie Jane Gray: Lacrosse Box,sports field,prince george,..,..,..,..,bc
9509,Carrie Jane Gray: Minor Boys Field,sports field,prince george,..,..,..,..,bc
9510,Carrie Jane Gray: Minor Girls Field,sports field,prince george,..,..,..,..,bc
9511,Carrie Jane Gray: Ron Wiley Field,sports field,prince george,..,..,..,..,bc
9512,Carrie Jane Gray: Rotary Field,sports field,prince george,..,..,..,..,bc
9513,Carrie Jane Gray: Skateboard Park,sports field,prince george,..,..,..,..,bc
9514,Carrie Jane Gray: Spruce City Mens,sports field,prince george,..,..,..,..,bc
9515,Carrie Jane Gray: Tennis Courts,sports field,prince george,..,..,..,..,bc
9622,Central Fort George School: Tennis Courts,sports field,prince george,..,..,..,..,bc
9721,Charella Park: Basketball Court,sports field,prince george,..,..,..,..,bc
9722,Charella Park: Playground,sports field,prince george,..,..,..,..,bc
9772,Cherry Park,sports field,prince george,..,..,..,..,bc
9778,Chief Memorial Park: Diamond 1,sports field,prince george,..,..,..,..,bc
9851,Clapperton Park: Playground,sports field,prince george,..,..,..,..,bc
9895,Clearwood Park: Basketball Court,sports field,prince george,..,..,..,..,bc
9896,Clearwood Park: Playground,sports field,prince george,..,..,..,..,bc
9897,Clearwood Park: Tennis Court,sports field,prince george,..,..,..,..,bc
10101,College Heights Secondary Baseball Diamonds,sports field,prince george,..,..,..,..,bc
10102,College Heights Secondary: Tennis Courts,sports field,prince george,..,..,..,..,bc
10242,Coyle Park: Playground,sports field,prince george,..,..,..,..,bc
10244,Cpl Darren Fitzpartick Bravery Park: Playground,sports field,prince george,..,..,..,..,bc
10601,Duchess Park: Bike Park,sports field,prince george,..,..,..,..,bc
10602,Duchess Park: Dog Park,sports field,prince george,..,..,..,..,bc
10603,Duchess Park: Playground,sports field,prince george,..,..,..,..,bc
10604,Duchess Park: Soccer Field,sports field,prince george,..,..,..,..,bc
10605,Duchess Park: Tennis Court,sports field,prince george,..,..,..,..,bc
10606,Duchess Park: Tennis Courts,sports field,prince george,..,..,..,..,bc
10668,Eaglenest Park: Tennis Courts,sports field,prince george,..,..,..,..,bc
10762,Edgewood Park: Diamond 1,sports field,prince george,..,..,..,..,bc
10923,Exhibition Park: Glen Thompson Fields,sports field,prince george,..,..,..,..,bc
10924,Exhibition Park: Ice Oval,sports field,prince george,..,..,..,..,bc
10925,Exhibition Park: Rotary Fields,sports field,prince george,..,..,..,..,bc
10926,Exhibition Park: Womens Soccer Fields,sports field,prince george,..,..,..,..,bc
10935,Fairburn Park: Playground,sports field,prince george,..,..,..,..,bc
10936,Fairburn Park: Tennis Courts,sports field,prince george,..,..,..,..,bc
10945,Fairmont Park: Playground,sports field,prince george,..,..,..,..,bc
11094,Foot Park: Playground,sports field,prince george,..,..,..,..,bc
11261,Freeman Park: Chuck Caudell,sports field,prince george,..,..,..,..,bc
11262,Freeman Park: John Dinsmore,sports field,prince george,..,..,..,..,bc
