Index,Facility_Name,ODRSF_facility_type,Provider,Street_No,Street_Name,Postal_Code,City,Prov_Terr
176710,Stuart Park,park,prince george,..,..,..,..,bc
176897,Sycamore Park,park,prince george,..,..,..,..,bc
177012,Teichman Park,park,prince george,..,..,..,..,bc
177504,Unbc Connector Trail,park,prince george,..,..,..,..,bc
177764,Valleyview Reserve,park,prince george,..,..,..,..,bc
177788,Vanier Park,park,prince george,..,..,..,..,bc
177817,Vellencher,park,prince george,..,..,..,..,bc
177841,Veteran's Plaza,park,prince george,..,..,..,..,bc
177949,Volunteer Park,park,prince george,..,..,..,..,bc
177998,Wallace,park,prince george,..,..,..,..,bc
178095,Watrous Park,park,prince george,..,..,..,..,bc
178297,Westgate Frontage,park,prince george,..,..,..,..,bc
178298,Westgate Park,park,prince george,..,..,..,..,bc
178530,Williams Park,park,prince george,..,..,..,..,bc
178590,Wilson Park,park,prince george,..,..,..,..,bc
178651,Winslow,park,prince george,..,..,..,..,bc
178695,Wood Innovation Square,park,prince george,..,..,..,..,bc
178860,Zimmaro Park,park,prince george,..,..,..,..,bc
181042,..,park,prince george,..,..,..,..,bc
181043,..,park,prince george,..,..,..,..,bc
181044,..,park,prince george,..,..,..,..,bc
181045,..,park,prince george,..,..,..,..,bc
181046,..,park,prince george,..,..,..,..,bc
181047,..,park,prince george,..,..,..,..,bc
181048,..,park,prince george,..,..,..,..,bc
181049,..,park,prince george,..,..,..,..,bc
181050,..,park,prince george,..,..,..,..,bc
181051,..,park,prince george,..,..,..,..,bc
181052,..,park,prince george,..,..,..,..,bc
181053,..,park,prince george,..,..,..,..,bc
181054,..,park,prince george,..,..,..,..,bc
181055,..,park,prince george,..,..,..,..,bc
181056,..,park,prince george,..,..,..,..,bc
181057,..,park,prince george,..,..,..,..,bc
181058,..,park,prince george,..,..,..,..,bc
181059,..,park,prince george,..,..,..,..,bc
181060,..,park,prince george,..,..,..,..,bc
181061,..,park,prince george,..,..,..,..,bc
181062,..,park,prince george,..,..,..,..,bc
181063,..,park,prince george,..,..,..,..,bc
181064,..,park,prince george,..,..,..,..,bc
181065,..,park,prince george,..,..,..,..,bc
181066,..,park,prince george,..,..,..,..,bc
181067,..,park,prince george,..,..,..,..,bc
181068,..,park,prince george,..,..,..,..,bc
181069,..,park,prince george,..,..,..,..,bc
181070,..,park,prince george,..,..,..,..,bc
181071,..,park,prince george,..,..,..,..,bc
181072,..,park,prince george,..,..,..,..,bc
