Index,Facility_Name,ODRSF_facility_type,Provider,Street_No,Street_Name,Postal_Code,City,Prov_Terr
166515,Essex Park,park,prince george,..,..,..,..,bc
166576,Exhibition Park (Fields),park,prince george,..,..,..,..,bc
166577,Exibition Park,park,prince george,..,..,..,..,bc
166588,Fairburn Park,park,prince george,..,..,..,..,bc
166628,Fairmont Park,park,prince george,..,..,..,..,bc
166741,Ferguson Lake Nature Reserve,park,prince george,..,..,..,..,bc
166827,First Avenue,park,prince george,..,..,..,..,bc
166840,Fish Trap Island,park,prince george,..,..,..,..,bc
166860,Flamingo Park,park,prince george,..,..,..,..,bc
166906,Foot Park,park,prince george,..,..,..,..,bc
166957,Forests For The World,park,prince george,..,..,..,..,bc
166986,Foster,park,prince george,..,..,..,..,bc
167067,Fraser River Benchland Park,park,prince george,..,..,..,..,bc
167106,Freeman Park,park,prince george,..,..,..,..,bc
167107,Freimuller Park,park,prince george,..,..,..,..,bc
167411,Gladstone Park,park,prince george,..,..,..,..,bc
167461,Glen Lyon Park,park,prince george,..,..,..,..,bc
167638,Gordon Bryant Park,park,prince george,..,..,..,..,bc
167985,Haldi Road Park,park,prince george,..,..,..,..,bc
168007,Hammond Park,park,prince george,..,..,..,..,bc
168076,Harper Park,park,prince george,..,..,..,..,bc
168096,Harry Loder Park,park,prince george,..,..,..,..,bc
168177,Hazelton Park,park,prince george,..,..,..,..,bc
168201,Heather Road Park,park,prince george,..,..,..,..,bc
168325,Heritage River Trail System,park,prince george,..,..,..,..,bc
168354,Hesse Park,park,prince george,..,..,..,..,bc
168453,Hill Park,park,prince george,..,..,..,..,bc
168652,Hudson's Bay Wetland Nature Park,park,prince george,..,..,..,..,bc
168794,Ingledew Park,park,prince george,..,..,..,..,bc
168935,Jackpine Park,park,prince george,..,..,..,..,bc
169008,Jasper Park,park,prince george,..,..,..,..,bc
169018,Jean De Brebeuf Park,park,prince george,..,..,..,..,bc
169399,Kelly Park,park,prince george,..,..,..,..,bc
169566,Kingsley Park,park,prince george,..,..,..,..,bc
169635,Kiwanis Park,park,prince george,..,..,..,..,bc
169908,Krystal,park,prince george,..,..,..,..,bc
170033,Lakewood Park,park,prince george,..,..,..,..,bc
170140,Latrobe Park,park,prince george,..,..,..,..,bc
170313,Lheidli T'Enneh Memorial Park,park,prince george,..,..,..,..,bc
170558,Lorne Park,park,prince george,..,..,..,..,bc
170624,Loyola Park,park,prince george,..,..,..,..,bc
170807,Malaspina Park,park,prince george,..,..,..,..,bc
171088,Masich Place Stadium,park,prince george,..,..,..,..,bc
171225,Mcdermid,park,prince george,..,..,..,..,bc
171231,Mcdougal Park,park,prince george,..,..,..,..,bc
171244,Mcgill Park,park,prince george,..,..,..,..,bc
171313,Mcmaster Park,park,prince george,..,..,..,..,bc
171316,Mcmillan Ck. Fishing Park,park,prince george,..,..,..,..,bc
171317,Mcmillan Creek Regional Park,park,prince george,..,..,..,..,bc
