Index,Facility_Name,ODRSF_facility_type,Provider,Street_No,Street_Name,Postal_Code,City,Prov_Terr
171557,Millennium Park,park,prince george,..,..,..,..,bc
171805,Moore's Meadow Park,park,prince george,..,..,..,..,bc
171810,Moosehart Park,park,prince george,..,..,..,..,bc
171812,Moran Park,park,prince george,..,..,..,..,bc
171828,Moriarty Park,park,prince george,..,..,..,..,bc
171958,Mueller,park,prince george,..,..,..,..,bc
172063,Nechako Cutbanks Park,park,prince george,..,..,..,..,bc
172064,Nechako Park,park,prince george,..,..,..,..,bc
172065,Nechako Riverside Park,park,prince george,..,..,..,..,bc
172165,Nordic Park,park,prince george,..,..,..,..,bc
172193,North College Park,park,prince george,..,..,..,..,bc
172220,North Nechako Park,park,prince george,..,..,..,..,bc
172481,Ochakwin Park,park,prince george,..,..,..,..,bc
172576,Opal,park,prince george,..,..,..,..,bc
172653,Otway Ski Centre,park,prince george,..,..,..,..,bc
172699,Paddlewheel Park,park,prince george,..,..,..,..,bc
173638,Parkridge Creek Park,park,prince george,..,..,..,..,bc
173639,Parkridge Heights Park,park,prince george,..,..,..,..,bc
173747,Pearson Park,park,prince george,..,..,..,..,bc
173806,Perry Park,park,prince george,..,..,..,..,bc
173899,Pine Valley Golf Course,park,prince george,..,..,..,..,bc
173902,Pinecone Park,park,prince george,..,..,..,..,bc
174092,Poyner Park,park,prince george,..,..,..,..,bc
174187,Prudente Park,park,prince george,..,..,..,..,bc
174195,Punchaw Park,park,prince george,..,..,..,..,bc
174278,Quinson Park,park,prince george,..,..,..,..,bc
174326,Rainbow Park,park,prince george,..,..,..,..,bc
174455,Recreation Place,park,prince george,..,..,..,..,bc
174551,Renison Park,park,prince george,..,..,..,..,bc
174636,Ridgeview Park,park,prince george,..,..,..,..,bc
174944,Romanin,park,prince george,..,..,..,..,bc
174947,Ron Brent Park,park,prince george,..,..,..,..,bc
175343,Rustad Park,park,prince george,..,..,..,..,bc
175398,Sadler,park,prince george,..,..,..,..,bc
175399,Sadler Park #2,park,prince george,..,..,..,..,bc
175474,Sanderson Park,park,prince george,..,..,..,..,bc
175706,Seton Park,park,prince george,..,..,..,..,bc
175723,Seymour Park,park,prince george,..,..,..,..,bc
175949,Sinclair Park,park,prince george,..,..,..,..,bc
176063,Snowdrop Park,park,prince george,..,..,..,..,bc
176106,South Fort George Family Res. Centre,park,prince george,..,..,..,..,bc
176185,Southridge Park,park,prince george,..,..,..,..,bc
176344,St John Park,park,prince george,..,..,..,..,bc
176365,St Lawrence,park,prince george,..,..,..,..,bc
176367,St Mary Park,park,prince george,..,..,..,..,bc
176372,St Mathew Park,park,prince george,..,..,..,..,bc
176557,Starlane Park,park,prince george,..,..,..,..,bc
176568,Stauble Park,park,prince george,..,..,..,..,bc
176610,Stirling Park,park,prince george,..,..,..,..,bc
