Index,Facility_Name,ODRSF_facility_type,Provider,Street_No,Street_Name,Postal_Code,City,Prov_Terr
11500,Gordon Bryant Park: Basketball Court,sports field,prince george,..,..,..,..,bc
11501,Gordon Bryant Park; Playground,sports field,prince george,..,..,..,..,bc
11672,Hammond Park: Basketball Court,sports field,prince george,..,..,..,..,bc
11718,Harper Park: Basketball Court,sports field,prince george,..,..,..,..,bc
11719,Harper Park: Playground,sports field,prince george,..,..,..,..,bc
11723,Harry Loader Park: Diamond 1,sports field,prince george,..,..,..,..,bc
11724,Harry Loder Park: Basketball Court,sports field,prince george,..,..,..,..,bc
11726,Harwin Elementary: Seasonal Ice Court,sports field,prince george,..,..,..,..,bc
11766,Heather Road: Diamond 1,sports field,prince george,..,..,..,..,bc
11767,Heather Road: Diamond 2,sports field,prince george,..,..,..,..,bc
11768,Heather Road: Diamond 3,sports field,prince george,..,..,..,..,bc
11829,Heritage (Dp Todd): Tennis Courts,sports field,prince george,..,..,..,..,bc
12378,Kelly Road Secondary: Tennis Courts,sports field,prince george,..,..,..,..,bc
12842,Lakewood School: Tennis Courts,sports field,prince george,..,..,..,..,bc
12909,Latrobe Park: Playground,sports field,prince george,..,..,..,..,bc
13035,Lheidli T’Enneh Memorial Park,sports field,prince george,..,..,..,..,bc
13036,Lheidli T’Enneh Memorial Park: Gyro Field,sports field,prince george,..,..,..,..,bc
13037,Lheidli T'Enneh Memorial Park: Spray Park,sports field,prince george,..,..,..,..,bc
13038,Lheidli T’Enneh Memorial Park: Tennis Court,sports field,prince george,..,..,..,..,bc
13039,Lheidli T’Enneh Memorial Park: Volleyball Sand,sports field,prince george,..,..,..,..,bc
13291,Malaspina Park: Seasonal Ice Court,sports field,prince george,..,..,..,..,bc
13411,Masich Place Stadium: Fitness Equipment,sports field,prince george,..,..,..,..,bc
13412,Masich Place Stadium: Jumping Pit,sports field,prince george,..,..,..,..,bc
13413,Masich Place Stadium: Jumping Pit,sports field,prince george,..,..,..,..,bc
13414,Masich Place Stadium: Masich Football Field,sports field,prince george,..,..,..,..,bc
13415,Masich Place Stadium: Masich Place Track,sports field,prince george,..,..,..,..,bc
13416,Masich Place Stadium: Pole Vault,sports field,prince george,..,..,..,..,bc
13515,Mcmaster Park: Playground,sports field,prince george,..,..,..,..,bc
13813,Moran Park: Soccer Field,sports field,prince george,..,..,..,..,bc
13928,Nechako Park: Diamond 1,sports field,prince george,..,..,..,..,bc
13929,Nechako Park: Diamond 2,sports field,prince george,..,..,..,..,bc
13993,Nordic Park: Playground,sports field,prince george,..,..,..,..,bc
14004,North College Park: Tennis Courts,sports field,prince george,..,..,..,..,bc
14262,Paddlewheel Park: Playground,sports field,prince george,..,..,..,..,bc
14679,Parkridge Heights: Diamond 1,sports field,prince george,..,..,..,..,bc
14680,Parkridge Heights: Playground,sports field,prince george,..,..,..,..,bc
14713,Pedon Hill School: Tennis Courts,sports field,prince george,..,..,..,..,bc
14882,Poyner Park: Playground,sports field,prince george,..,..,..,..,bc
14921,Prudente Park: Basketball Court,sports field,prince george,..,..,..,..,bc
14922,Prudente Park: Playground,sports field,prince george,..,..,..,..,bc
15118,Quinson Elementary: Seasonal Ice Court,sports field,prince george,..,..,..,..,bc
15219,Renison Park: Playground,sports field,prince george,..,..,..,..,bc
15282,Ridgeview Park: Tennis Court,sports field,prince george,..,..,..,..,bc
15868,Sinclair Park: Playground,sports field,prince george,..,..,..,..,bc
15869,Sinclair Park: Tennis Court,sports field,prince george,..,..,..,..,bc
16901,South Ft George Family Res. Centre Basketball Court,sports field,prince george,..,..,..,..,bc
16902,South Ft George Family Res. Centre Tennis Courts,sports field,prince george,..,..,..,..,bc
16928,Southridge Park: Lacrosse Box,sports field,prince george,..,..,..,..,bc
17062,St Mary Park: Basketball Court,sports field,prince george,..,..,..,..,bc
