Index,Facility_Name,ODRSF_facility_type,Provider,Street_No,Street_Name,Postal_Code,City,Prov_Terr
81487,..,trail,prince george,..,..,..,..,bc
81488,..,trail,prince george,..,..,..,..,bc
81489,..,trail,prince george,..,..,..,..,bc
81490,..,trail,prince george,..,..,..,..,bc
162056,Aberdeen,park,prince george,..,..,..,..,bc
162074,Acadia Park,park,prince george,..,..,..,..,bc
162398,Antler Park,park,prince george,..,..,..,..,bc
162654,Austin,park,prince george,..,..,..,..,bc
162693,Azure Park,park,prince george,..,..,..,..,bc
162707,Baker Park,park,prince george,..,..,..,..,bc
162739,Balsum Park,park,prince george,..,..,..,..,bc
163028,Bednesti Park,park,prince george,..,..,..,..,bc
163031,Beech Park,park,prince george,..,..,..,..,bc
163399,Blair,park,prince george,..,..,..,..,bc
163470,Bob Martin Park,park,prince george,..,..,..,..,bc
163662,Brentwood,park,prince george,..,..,..,..,bc
163731,Brigade Park,park,prince george,..,..,..,..,bc
163976,Byng Park,park,prince george,..,..,..,..,bc
164072,Campbell Park,park,prince george,..,..,..,..,bc
164095,Canada Games Plaza,park,prince george,..,..,..,..,bc
164191,Carle Park,park,prince george,..,..,..,..,bc
164204,Carlisle Park,park,prince george,..,..,..,..,bc
164246,Carrie Jane Gray Park,park,prince george,..,..,..,..,bc
164418,Cemetery,park,prince george,..,..,..,..,bc
164551,Chancellor Park,park,prince george,..,..,..,..,bc
164581,Charella Park,park,prince george,..,..,..,..,bc
164673,Cherry Park,park,prince george,..,..,..,..,bc
164693,Chief Memorial Park,park,prince george,..,..,..,..,bc
164741,Christopher Park,park,prince george,..,..,..,..,bc
164801,Clapperton Park,park,prince george,..,..,..,..,bc
164860,Clearwood Park,park,prince george,..,..,..,..,bc
165013,Community Foundation,park,prince george,..,..,..,..,bc
165015,Community Gardens,park,prince george,..,..,..,..,bc
165058,Connaught Hill Park,park,prince george,..,..,..,..,bc
165116,Corless Park,park,prince george,..,..,..,..,bc
165176,Cottonwood Island Park,park,prince george,..,..,..,..,bc
165271,Coyle Park,park,prince george,..,..,..,..,bc
165278,Cpl Darren Fitzpatrick Bravery Park,park,prince george,..,..,..,..,bc
165293,Cranbrook Hill Greenway,park,prince george,..,..,..,..,bc
165366,Crieff Park,park,prince george,..,..,..,..,bc
165368,Crocker Park,park,prince george,..,..,..,..,bc
165373,Croft,park,prince george,..,..,..,..,bc
165629,Delisle,park,prince george,..,..,..,..,bc
165749,Diefenbaker Park,park,prince george,..,..,..,..,bc
166000,Duchess Park,park,prince george,..,..,..,..,bc
166104,Eaglenest Park,park,prince george,..,..,..,..,bc
166243,Edgewood Park,park,prince george,..,..,..,..,bc
166310,Elder Citiizens Recreation Association,park,prince george,..,..,..,..,bc
166327,Elgin Park,park,prince george,..,..,..,..,bc
