Index,Facility_Name,ODRSF_facility_type,Provider,Street_No,Street_Name,Postal_Code,City,Prov_Terr
29676,Homecoming,trail,prince george,..,..,..,..,bc
29713,Hudsonatms Bay Wetland Nature Park,trail,prince george,..,..,..,..,bc
29714,Hudsonatms Bay Wetland Nature Park,trail,prince george,..,..,..,..,bc
29715,Hudsonatms Bay Wetland Nature Park Trail,trail,prince george,..,..,..,..,bc
29716,Hudsonatms Bay Wetland Nature Park Trail,trail,prince george,..,..,..,..,bc
29717,Hudsonatms Bay Wetland Nature Park Trail,trail,prince george,..,..,..,..,bc
29718,Hudsonatms Bay Wetland Nature Park Trail,trail,prince george,..,..,..,..,bc
29719,Hudsonatms Bay Wetland Nature Park Trail,trail,prince george,..,..,..,..,bc
29720,Hudsonatms Bay Wetland Nature Park Trail,trail,prince george,..,..,..,..,bc
29721,Hudsonatms Bay Wetland Nature Park Trail,trail,prince george,..,..,..,..,bc
29722,Hudsonatms Bay Wetland Nature Park Trail,trail,prince george,..,..,..,..,bc
29723,Hudsonatms Bay Wetland Nature Park Trail,trail,prince george,..,..,..,..,bc
29959,Iceman Cutoff,trail,prince george,..,..,..,..,bc
29960,Iceman Cutoff,trail,prince george,..,..,..,..,bc
29961,Iceman Cutoff,trail,prince george,..,..,..,..,bc
30821,Jean De Brebeuf Park Trail,trail,prince george,..,..,..,..,bc
30822,Jean De Brebeuf Park Trail,trail,prince george,..,..,..,..,bc
30823,Jean De Brebeuf Park Trail,trail,prince george,..,..,..,..,bc
30824,Jean De Brebeuf Park Trail,trail,prince george,..,..,..,..,bc
31168,Junior National,trail,prince george,..,..,..,..,bc
35202,Latrobe Park,trail,prince george,..,..,..,..,bc
35203,Latrobe Park Trail,trail,prince george,..,..,..,..,bc
35322,Lc Gunn Trail,trail,prince george,..,..,..,..,bc
35504,Legs,trail,prince george,..,..,..,..,bc
35505,Legs,trail,prince george,..,..,..,..,bc
35506,Legs,trail,prince george,..,..,..,..,bc
35680,Lheidli Tatmenneh Memorial Park,trail,prince george,..,..,..,..,bc
35681,Lheidli Tatmenneh Memorial Park,trail,prince george,..,..,..,..,bc
35682,Lheidli Tatmenneh Memorial Park,trail,prince george,..,..,..,..,bc
35683,Lheidli Tatmenneh Memorial Park,trail,prince george,..,..,..,..,bc
35684,Lheidli Tatmenneh Memorial Park,trail,prince george,..,..,..,..,bc
35685,Lheidli Tatmenneh Memorial Park,trail,prince george,..,..,..,..,bc
35686,Lheidli Tatmenneh Memorial Park,trail,prince george,..,..,..,..,bc
35687,Lheidli Tatmenneh Memorial Park,trail,prince george,..,..,..,..,bc
35688,Lheidli Tatmenneh Memorial Park,trail,prince george,..,..,..,..,bc
35689,Lheidli Tatmenneh Memorial Park,trail,prince george,..,..,..,..,bc
35690,Lheidli Tatmenneh Memorial Park,trail,prince george,..,..,..,..,bc
35691,Lheidli Tatmenneh Memorial Park,trail,prince george,..,..,..,..,bc
35692,Lheidli Tatmenneh Memorial Park,trail,prince george,..,..,..,..,bc
35693,Lheidli Tatmenneh Memorial Park,trail,prince george,..,..,..,..,bc
35694,Lheidli Tatmenneh Memorial Park,trail,prince george,..,..,..,..,bc
35695,Lheidli Tatmenneh Memorial Park,trail,prince george,..,..,..,..,bc
35696,Lheidli Tatmenneh Memorial Park,trail,prince george,..,..,..,..,bc
35697,Lheidli Tatmenneh Memorial Park,trail,prince george,..,..,..,..,bc
35698,Lheidli Tatmenneh Memorial Park,trail,prince george,..,..,..,..,bc
35699,Lheidli Tatmenneh Memorial Park,trail,prince george,..,..,..,..,bc
35700,Lheidli Tatmenneh Memorial Park,trail,prince george,..,..,..,..,bc
35701,Lheidli Tatmenneh Memorial Park,trail,prince george,..,..,..,..,bc
35702,Lheidli Tatmenneh Memorial Park,trail,prince george,..,..,..,..,bc
