Index,Facility_Name,ODRSF_facility_type,Provider,Street_No,Street_Name,Postal_Code,City,Prov_Terr
101,Alsek / Blanchard,playground,whitehorse,..,..,..,..,..
102,Alsek Park,playground,whitehorse,..,..,..,..,..
665,Canyon,playground,whitehorse,..,..,..,..,..
1180,Copper Ridge Park,playground,whitehorse,..,..,..,..,..
1246,Crestview Park,playground,whitehorse,..,..,..,..,..
1349,Dieppe Park,playground,whitehorse,..,..,..,..,..
1359,Dolly Varden Park,playground,whitehorse,..,..,..,..,..
1450,Eagle - Heron Drive - Prarmigan Place,playground,whitehorse,..,..,..,..,..
1451,Eagle Park,playground,whitehorse,..,..,..,..,..
1954,Grainger Park,playground,whitehorse,..,..,..,..,..
2019,Guild Hall Park,playground,whitehorse,..,..,..,..,..
2135,Heron Drive Park,playground,whitehorse,..,..,..,..,..
2149,Hickory / Wann Park,playground,whitehorse,..,..,..,..,..
2154,Hidden Valley Park,playground,whitehorse,..,..,..,..,..
2187,Hillcrest Park,playground,whitehorse,..,..,..,..,..
2441,Jim Light Park (Sports Admin Building),playground,whitehorse,..,..,..,..,..
2774,Liard Park,playground,whitehorse,..,..,..,..,..
2837,Logan Park,playground,whitehorse,..,..,..,..,..
3213,Mary Lake Park,playground,whitehorse,..,..,..,..,..
3264,Mcintyre,playground,whitehorse,..,..,..,..,..
3428,Morley / Peel,playground,whitehorse,..,..,..,..,..
3553,Normandy Park,playground,whitehorse,..,..,..,..,..
3698,Ortona Park,playground,whitehorse,..,..,..,..,..
4540,Pine Street Park,playground,whitehorse,..,..,..,..,..
4548,Pineridge Park,playground,whitehorse,..,..,..,..,..
5240,Rotary Peace Park,playground,whitehorse,..,..,..,..,..
5241,Rotary Peace Water Park,playground,whitehorse,..,..,..,..,..
5307,Salmon Trail Park,trail,whitehorse,..,..,..,..,..
5383,Seventh Avenue And Black Street,playground,whitehorse,..,..,..,..,..
5878,Spruce Hill Park,playground,whitehorse,..,..,..,..,..
5942,Stan Mccowan Place,playground,whitehorse,..,..,..,..,..
6046,Tamarack Park,playground,whitehorse,..,..,..,..,..
6226,Valleyview Park,playground,whitehorse,..,..,..,..,..
6616,Wolf Creek Park,playground,whitehorse,..,..,..,..,..
159392,..,trail,whitehorse,..,..,..,..,..
159393,..,trail,whitehorse,..,..,..,..,..
159395,..,trail,whitehorse,..,..,..,..,..
159396,..,trail,whitehorse,..,..,..,..,..
159397,..,trail,whitehorse,..,..,..,..,..
159398,..,trail,whitehorse,..,..,..,..,..
159399,..,trail,whitehorse,..,..,..,..,..
159400,..,trail,whitehorse,..,..,..,..,..
159401,..,trail,whitehorse,..,..,..,..,..
159403,..,trail,whitehorse,..,..,..,..,..
159404,..,trail,whitehorse,..,..,..,..,..
159406,..,trail,whitehorse,..,..,..,..,..
159408,..,trail,whitehorse,..,..,..,..,..
159410,..,trail,whitehorse,..,..,..,..,..
159411,..,trail,whitehorse,..,..,..,..,..
