Index,Facility_Name,ODRSF_facility_type,Provider,Street_No,Street_Name,Postal_Code,City,Prov_Terr
163533,Borealis Park,park,yellowknife,..,..,..,..,nt
164777,City Hall Park,park,yellowknife,..,..,..,..,nt
165644,Demelt Park,park,yellowknife,..,..,..,..,nt
165871,Doornbros Park,park,yellowknife,..,..,..,..,nt
166968,Forrest Drive Park,park,yellowknife,..,..,..,..,nt
167125,Fritz Theil Park,park,yellowknife,..,..,..,..,nt
167691,Grace Lake Park,park,yellowknife,..,..,..,..,nt
168023,Hank Koenen Park,park,yellowknife,..,..,..,..,nt
168610,Horton Cresent Park,park,yellowknife,..,..,..,..,nt
169269,Josephine Walcer Park,park,yellowknife,..,..,..,..,nt
170053,Lamoureux Park,park,yellowknife,..,..,..,..,nt
170137,Latham Island Park,park,yellowknife,..,..,..,..,nt
170771,Magrum Park,park,yellowknife,..,..,..,..,nt
171668,Mitchell Drive Park,park,yellowknife,..,..,..,..,nt
171941,Moyle Park,park,yellowknife,..,..,..,..,nt
172540,Olexin Park,park,yellowknife,..,..,..,..,nt
172627,Orser Park,park,yellowknife,..,..,..,..,nt
172650,Otto Drive Park,park,yellowknife,..,..,..,..,nt
173614,Parker Recreation Field,park,yellowknife,..,..,..,..,nt
173882,Pilots Monument Park,park,yellowknife,..,..,..,..,nt
174295,Raccine Park,park,yellowknife,..,..,..,..,nt
175024,Rotary Centennial Park,park,yellowknife,..,..,..,..,nt
175602,School Draw Park,park,yellowknife,..,..,..,..,nt
176073,Somba K'E Family Park,park,yellowknife,..,..,..,..,nt
176611,Stirling Park,park,yellowknife,..,..,..,..,nt
177248,Tommy Forrest Ball Park,park,yellowknife,..,..,..,..,nt
178104,Watt Drive Park,park,yellowknife,..,..,..,..,nt
