facility_name,index,odhf_facility_type,street_no,street_name,postal_code,city,province
Pei Cancer Treatment Centre,6153,Hospitals,60,riverside drive,C1A 8T5,charlottetown,pe
Polyclinic Professional Centre,6154,Ambulatory health care services,199,grafton street,C1A 1L2,charlottetown,pe
Sherwood Home,6161,Nursing and residential care facilities,75,murchison lane,C1N 7N5,charlottetown,pe
Queen Elizabeth Hospital,S148,Hospitals,60,Riverside Dr,C1A 8T5,Charlottetown,pe
Prince Edward Home,S150,Nursing and residential care facilities,75,Maypoint Rd,C1E 3H1,Charlottetown,pe
Sherwood Home,S154,Nursing and residential care facilities,75,Muchison Ln,C1A 7N5,Charlottetown,pe
Charlottetown Walk-in Clinic,S157,Ambulatory health care services,22,St Peters Rd,C1A 5N1,Charlottetown,pe
Downtown Walk-in Clinic,S161,Ambulatory health care services,220,Water St,C1A 9M5,Charlottetown,pe
Sherwood Walk-in Clinic,S162,Ambulatory health care services,15,Brackley Point Rd,C1A 6Y1,Charlottetown,pe
Andrews of Charlottetown,S169,Nursing and residential care facilities,73,Malpeque Rd,C1E 1S3,Charlottetown,pe
Andrews of Park West,S172,Nursing and residential care facilities,22,Richmond St,C1A 1H4,Charlottetown,pe
Bevan Lodge,S176,Nursing and residential care facilities,8,Ellis Rd,C1A 8N4,Charlottetown,pe
Champion Lodge,S178,Nursing and residential care facilities,48,Green St,C1A 2E8,Charlottetown,pe
Charlotte Residence,S179,Nursing and residential care facilities,39,All Souls Ln,C1A 1P9,Charlottetown,pe
Corrigan Home,S181,Nursing and residential care facilities,22,Hemlock Crt,C1A 8E3,Charlottetown,pe
Geneva Villa,S183,Nursing and residential care facilities,78,Walthan Dr,C1A 4T8,Charlottetown,pe
Langille House,S187,Nursing and residential care facilities,212,Kent St,C1A 1P2,Charlottetown,pe
Old Rose Lodge,S192,Nursing and residential care facilities,319,Queen St,C1A 4C4,Charlottetown,pe
Hillsborough Psychiatric Hospital,S193,Hospitals,115,Deacon Grove Ln,C1A 7N5,Charlottetown,pe
Grafton House,S195,Nursing and residential care facilities,37,Grafton St,C1A 1K6,Charlottetown,pe
Emerson Lodge,S196,Nursing and residential care facilities,36,Kent St,C1A 1M8,Charlottetown,pe
Smith Lodge,S198,Nursing and residential care facilities,35,Weymouth St,C1A 4Y3,Charlottetown,pe
Stamper Residence,S200,Nursing and residential care facilities,29,Fitzroy St,C1A 1R2,Charlottetown,pe
Tenderwood Lodge,S201,Nursing and residential care facilities,15,Hawthorne Av,C1A 5X8,Charlottetown,pe
the Mount Continuing Care Community,S203,Nursing and residential care facilities,141,Mount Edward Rd,C1A 5T1,Charlottetown,pe
Valley House,S206,Nursing and residential care facilities,92,Longworth Av,C1A 5A7,Charlottetown,pe
Whisperwood Villa,S208,Nursing and residential care facilities,160,St Peters Rd,C1A 5P8,Charlottetown,pe
Garden Home,S210,Nursing and residential care facilities,310,North River Rd,C1A 3M4,Charlottetown,pe
Pei Atlantic Baptist Home,S211,Nursing and residential care facilities,16,Centennial Dr,C1A 6C5,Charlottetown,pe
the Polyclinic,S213,Ambulatory health care services,199,Grafton St,C1A 1L2,Charlottetown,pe
Beach Grove Home,S215,Nursing and residential care facilities,200,Beach Grove Rd,C1E 1L3,Charlottetown,pe
16 Garfield Street,S217,Ambulatory health care services,16,Garfield St,C1A 6A5,Charlottetown,pe
Parkdale Medical Centre,S218,Ambulatory health care services,30,Linden Av,C1A 5Y9,Charlottetown,pe
Four Neighbourhoods Health Services,S219,Ambulatory health care services,152,St Peters Rd,C1A 5P8,Charlottetown,pe
Provincial Palliative Care Centre,S220,Nursing and residential care facilities,93,Murchison Ln,C1C 0G3,Charlottetown,pe
165 John Yeo Drive,S221,Nursing and residential care facilities,165,John Yeo Dr,C1E 3J3,Charlottetown,pe
Mona Wilson Building,S222,Ambulatory health care services,55,McGill Av,C1A 7N8,Charlottetown,pe
Charlottetown Area Health Centre,S223,Ambulatory health care services,1,Rochford St,C1A 9L2,Charlottetown,pe
Murchison House,S224,Ambulatory health care services,124,Deacon Grove Ln,C1A 7N5,Charlottetown,pe
