facility_name,index,odhf_facility_type,street_no,street_name,postal_code,city,province
VILLA DU REPOS INC,S57,Nursing and residential care facilities,125,MURPHY AVE,J0S 1K0,MONCTON,nb
Villa Heritage Inc,S58,Nursing and residential care facilities,500,ELMWOOD DR,J0S 1K0,MONCTON,nb
Mcnair Manor - 11 Beechwood,S59,Nursing and residential care facilities,11,BEECHWOOD AVE,J0S 1K0,MONCTON,nb
Mcnair Manor- 44 Beechwood,S60,Nursing and residential care facilities,44,BEECHWOOD AVE,J0S 1K0,MONCTON,nb
Mcnair Manor - Riverview,S61,Nursing and residential care facilities,137,WHITEPINE RD,J0S 1K0,RIVERVIEW,nb
Church Court,S62,Nursing and residential care facilities,80,CHURCH ST,J0S 1K0,MONCTON,nb
Serenacare Inc,S63,Nursing and residential care facilities,4,BRIARLEA DR,J0S 1K0,MONCTON,nb
Serenacare by Serene Living Inc,S64,Nursing and residential care facilities,15,LADY RUSSELL ST,J0S 1K0,MONCTON,nb
Hillside View Special Care Home Inc,S65,Nursing and residential care facilities,560,FRONT MOUNTAIN RD,J0S 1K0,MONCTON,nb
Protem Health Services Inc. - 77 Gorge Road,S66,Nursing and residential care facilities,77,GORGE RD,J0S 1K0,MONCTON,nb
Protem Health Services Inc. - 61 Gorge Road,S67,Nursing and residential care facilities,61,GORGE RD,J0S 1K0,MONCTON,nb
Protem Health Services Inc. - 71 Gorge Road,S68,Nursing and residential care facilities,71,GORGE RD,J0S 1K0,MONCTON,nb
Protem Health Services Inc. - 2069 Mountain Road,S69,Nursing and residential care facilities,2069,MOUNTAIN RD,J0S 1K0,MONCTON,nb
Protem Health Services Inc. - 2166 Mountain Road,S70,Nursing and residential care facilities,2166,MOUNTAIN RD,J0S 1K0,MONCTON,nb
Residence Beaux Souvenirs Ltee,S71,Nursing and residential care facilities,393,AMIRAULT ST,J0S 1K0,DIEPPE,nb
Residence Moncton - Aile Victoria i,S72,Nursing and residential care facilities,240,JOHN ST,J0S 1K0,MONCTON,nb
Maison Renaissance Ltee,S73,Nursing and residential care facilities,62,BOTSFORD ST,J0S 1K0,MONCTON,nb
FAUBOURG DU MASCARET,S74,Nursing and residential care facilities,171,MORTON AVE,J0S 1K0,MONCTON,nb
Shannex Rlc Ltd. - Pavillon Richard,S75,Nursing and residential care facilities,189,MORTON AVE,J0S 1K0,MONCTON,nb
the Briarlea 4,S76,Nursing and residential care facilities,599,RYAN ST,J0S 1K0,MONCTON,nb
Foyer Chez Nous Moncton,S77,Nursing and residential care facilities,30,BURLINGTON AVE,J0S 1K0,MONCTON,nb
Golden Years Estate Ltd,S78,Nursing and residential care facilities,25,JABEZ ST,J0S 1K0,MONCTON,nb
LA RÉSIDENCE SIESTA LTÉE,S79,Nursing and residential care facilities,508,ELMWOOD DR,J0S 1K0,MONCTON,nb
Clinique Dr. Louis Bourque,S8,Ambulatory health care services,1116,Mountain Road,J0S 1K0,Moncton,nb
the Kenneth e. Spencer Nursing Home Inc.,S80,Nursing and residential care facilities,35, Atlantic Baptist Avenue.,E1E 4N3,Moncton,nb
VILLA DU REPOS INC.,S83,Nursing and residential care facilities,125, avenue Murphy Avenue,E1A 8V2,Moncton,nb
Clinique Providence,S9,Ambulatory health care services,565,Elmwood Drive,J0S 1K0,Moncton,nb
