facility_name,index,odhf_facility_type,street_no,street_name,postal_code,city,province
CENTRE D'ONCOLOGIE DR-LÉON-RICHARD,2042,Ambulatory health care services,37,rue providence,E1C 8X3,moncton,nb
Centre Hospitalier Universitaire Dr-Georges-l.-Dumont,2044,Hospitals,330,ave université,E1C 2Z3,moncton,nb
the Moncton Hospital,2091,Hospitals,135,macbeath ave,E1C 6Z8,moncton,nb
Residence Lefebvre,4949,Nursing and residential care facilities,15,rue paquette,P0L 1V0,moonbeam,on
Dr. Georges-l.-Dumont University Hospital Centre,S10,Ambulatory health care services,330,Université Avenue,J0S 1K0,Moncton,nb
Trinity Medical Clinic,S11,Ambulatory health care services,89,Trinity Drive,J0S 1K0,Moncton,nb
Moncton North After Hours Medical Clinic,S12,Ambulatory health care services,1633,Mountain Road,J0S 1K0,Moncton,nb
Mountain Road After Hours Clinic,S13,Ambulatory health care services,1789,Mountain Road,J0S 1K0,Moncton,nb
Main Street Family Medical Clinic,S14,Ambulatory health care services,165,Main Street,J0S 1K0,Moncton,nb
Shannex Rlc Ltd. - Pavillon Richard,S147,Nursing and residential care facilities,189,rue Morton Street,E1A 9V6,Moncton,nb
Autumn Lee Retirement Home Ii,S18,Nursing and residential care facilities,2031,MOUNTAIN RD,J0S 1K0,MONCTON,nb
Birchmount Lodge,S19,Nursing and residential care facilities,144,BIRCHMOUNT DR,J0S 1K0,MONCTON,nb
Lefurgey Residence,S20,Nursing and residential care facilities,30,LEFURGEY AVE,J0S 1K0,MONCTON,nb
Lj Jaillet Residence Inc.,S21,Nursing and residential care facilities,30,LOCKHART AVE,J0S 1K0,MONCTON,nb
Maison Bonheur,S22,Nursing and residential care facilities,406,HIGH ST,J0S 1K0,MONCTON,nb
Manoir Notre-Dame Manor,S23,Nursing and residential care facilities,110,MURPHY AVE,J0S 1K0,MONCTON,nb
Open Arms Special Care Home,S24,Nursing and residential care facilities,98,GLENGROVE RD,J0S 1K0,MONCTON,nb
Residence Aventure,S25,Nursing and residential care facilities,1076,ELMWOOD DR,J0S 1K0,MONCTON,nb
Residence Collette Residence Inc.,S26,Nursing and residential care facilities,64,STEADMAN ST,J0S 1K0,MONCTON,nb
Smith Special Care Home Ltd,S27,Nursing and residential care facilities,56,DORCHESTER ST,J0S 1K0,MONCTON,nb
Sunset Village,S28,Nursing and residential care facilities,45,LEOPOLD F. BELLIVEAU DR,J0S 1K0,MONCTON,nb
Residence Mcdougall,S29,Nursing and residential care facilities,37,MCDOUGALL AVE,J0S 1K0,MONCTON,nb
Brae Manor,S30,Nursing and residential care facilities,101,ELLERDALE AVE,J0S 1K0,MONCTON,nb
the Briarlea,S31,Nursing and residential care facilities,75,BRIARLEA DR,J0S 1K0,MONCTON,nb
Carey House (the),S32,Nursing and residential care facilities,337,CAMERON ST,J0S 1K0,MONCTON,nb
Trueman House,S33,Nursing and residential care facilities,265,CHURCH ST,J0S 1K0,MONCTON,nb
Sunshine House,S34,Nursing and residential care facilities,164,PARK ST,J0S 1K0,MONCTON,nb
Residence Helene Residence Inc,S35,Nursing and residential care facilities,46,WINNIPEG ST,J0S 1K0,MONCTON,nb
Grass Home Ltd.,S36,Nursing and residential care facilities,774,COVERDALE RD,J0S 1K0,RIVERVIEW,nb
ALOUETTE SPECIAL CARE HOME/FOYER DE SOINS SPECIAUX,S37,Nursing and residential care facilities,2100,AMIRAULT ST,J0S 1K0,DIEPPE,nb
AUBERGE DU SOLEIL,S38,Nursing and residential care facilities,125,AUCOIN ST,J0S 1K0,DIEPPE,nb
Daly's Home Care Inc,S39,Nursing and residential care facilities,28,TRIDER CT,J0S 1K0,RIVERVIEW,nb
Emery House,S40,Nursing and residential care facilities,88,EMERY ST,J0S 1K0,RIVERVIEW,nb
Burns Manor,S41,Nursing and residential care facilities,26,BROMLEY AVE,J0S 1K0,MONCTON,nb
Mazerolle Special Care Home Ltd.,S42,Nursing and residential care facilities,448,GAUVIN RD,J0S 1K0,DIEPPE,nb
Residence Bellevue,S43,Nursing and residential care facilities,36,CHARTERSVILLE RD,J0S 1K0,DIEPPE,nb
RESIDENCE DU MARAIS LTEE,S44,Nursing and residential care facilities,371,AMIRAULT ST,J0S 1K0,DIEPPE,nb
Residence Moncton - Aile Centennaire,S45,Nursing and residential care facilities,270,JOHN ST,J0S 1K0,MONCTON,nb
RÉSIDENCE OASIS RESIDENCE INC,S46,Nursing and residential care facilities,855,AMIRAULT ST,J0S 1K0,DIEPPE,nb
RESIDENCE REINE DE LA PAIX,S47,Nursing and residential care facilities,700,CHAMPLAIN ST,J0S 1K0,DIEPPE,nb
Residence Virginia Inc,S48,Nursing and residential care facilities,175,VIRGINIA AVE,J0S 1K0,DIEPPE,nb
Residence Austin Inc,S49,Nursing and residential care facilities,620,LATOUR ST,J0S 1K0,DIEPPE,nb
Salvus Clinic,S5,Ambulatory health care services,22,Church Street,J0S 1K0,Moncton,nb
"Shannex Rlc Limited, Canterbury Hall",S50,Nursing and residential care facilities,824,COVERDALE RD,J0S 1K0,RIVERVIEW,nb
Camden Park Terrace,S51,Nursing and residential care facilities,55,CAMDEN CRES,J0S 1K0,MONCTON,nb
Shar's Care,S52,Nursing and residential care facilities,53,WELDON ST,J0S 1K0,MONCTON,nb
Shar's Care Ii,S53,Nursing and residential care facilities,72,BOTSFORD ST,J0S 1K0,MONCTON,nb
the Kenneth e. Spencer Nursing Home Inc.,S54,Nursing and residential care facilities,35,ATLANTIC BAPTIST AVE,J0S 1K0,MONCTON,nb
Shannex Rlc Ltd. - Monarch Hall,S55,Nursing and residential care facilities,826,COVERDALE RD,J0S 1K0,RIVERVIEW,nb
