facility_name,index,odhf_facility_type,street_no,street_name,postal_code,city,province
CENTRE D'ACTIVITÉS DE JOUR DE QUÉBEC - LOUIS-XIV (2436),S248,Ambulatory health care services,2436, boulevard Louis-XIV,G1C 1B3,Québec,qc
ATELIER DE QUÉBEC - CENTRE PLACE DE NEMOURS,S249,Ambulatory health care services,905, rue de Nemours,G1H 6Z5,Québec,qc
CENTRE D'ACTIVITÉS DE JOUR DE QUÉBEC - RACINE,S250,Ambulatory health care services,341, rue Racine,G2B 1E9,Québec,qc
CENTRE DE RÉADAPTATION EN DÉPENDANCE DE QUÉBEC,S253,Ambulatory health care services,2525, chemin de la Canardière,G1J 2G3,Québec,qc
HÔPITAL CHAUVEAU,S262,Hospitals,11999, rue de l'Hôpital,G2A 2T7,Québec,qc
FOYER DE GROUPE POUR LES JEUNES EN DIFFICULTÉ D'ADAPTATION DE LIMOILOU,S267,Nursing and residential care facilities,2995, avenue Valmont-Martin,G1L 4P8,Québec,qc
FOYER DE GROUPE POUR LES JEUNES EN DIFFICULTÉ D'ADAPTATION PIERRE-BOUCHER,S268,Nursing and residential care facilities,1810, 26e Rue,G1J 1J4,Québec,qc
CENTRE DE RÉADAPTATION EN DÉFICIENCE PHYSIQUE MADELEINE-BERGERON,S275,Ambulatory health care services,1088, route de l'Église,G1V 3V9,Québec,qc
ATELIER DE LA PLACE DE LA 80E RUE,S276,Ambulatory health care services,1190,boulevard Louis-XIV,G1H 6P2,Québec,qc
CENTRE D'ACTIVITÉS DE JOUR DU CENTRE COMMUNAUTAIRE EDWARD-LAVERGNE,S277,Ambulatory health care services,390, rue Arago Ouest,G1K 2J3,Québec,qc
CENTRE D'ACTIVITÉS DE JOUR DU PRESBYTÈRE SAINTE-CÉCILE,S278,Ambulatory health care services,9150, avenue Jean-Paquin,G1G 4Y4,Québec,qc
CENTRE D'HÉBERGEMENT ET DE SOINS DE LONGUE DURÉE CÔTÉ-JARDIN,S290,Nursing and residential care facilities,880, avenue Painchaud,G1S 0A3,Québec,qc
CENTRE D'HÉBERGEMENT DU BOISÉ,S292,Nursing and residential care facilities,3690, boulevard Neilson,G1W 0A9,Québec,qc
SAINT BRIGID'S HOME,S305,Nursing and residential care facilities,1645, chemin Saint-Louis,G1S 4M3,Québec,qc
CENTRE D'HÉBERGEMENT DE LIMOILOU,S306,Nursing and residential care facilities,1401, chemin de la Canardière,G1J 0A6,Québec,qc
CENTRE D'ACTIVITÉS DE JOUR LA VILLA RINGFIELD,S334,Ambulatory health care services,1185, avenue La Sarre,G1L 3S3,Québec,qc
CENTRE D'ACTIVITÉS DE JOUR DU CHEMIN SAINTE-FOY,S336,Ambulatory health care services,3645, chemin Sainte-Foy,G1X 1T1,Québec,qc
CENTRE D'ACTIVITÉS DE JOUR - LOYOLA,S337,Ambulatory health care services,3261, rue Loyola,G1E 2R9,Québec,qc
CENTRE D'ACTIVITÉS DE JOUR DE QUÉBEC - LOUIS-XIV (1289),S338,Ambulatory health care services,1289, boulevard Louis-XIV,G2L 1M1,Québec,qc
CENTRE D'ACTIVITÉS DE JOUR DE QUÉBEC - VALCARTIER,S339,Ambulatory health care services,11127, boulevard Valcartier,G2N 1V4,Québec,qc
CENTRE DE PÉDOPSYCHIATRIE - RÉSIDENCE DU SACRÉ-COEUR,S347,Hospitals,1, avenue du Sacré-Coeur,G1N 2W1,Québec,qc
CHSLD DOMAINE SAINT-DOMINIQUE S.E.C.,S354,Nursing and residential care facilities,1045, boulevard René-Lévesque Ouest,G1S 1V3,Québec,qc
SERVICES EXTERNES DE QUÉBEC - DES SANTOLINES,S374,Ambulatory health care services,7843, rue des Santolines,G1G 0G3,Québec,qc
CENTRE D'ACTIVITÉS DE JOUR ET ATELIER DE TRAVAIL JACQUES-BÉDARD,S375,Ambulatory health care services,641, rue Jacques-Bédard,G2N 1C5,Québec,qc
CENTRE D'ACTIVITÉS DE JOUR DE QUÉBEC - CENTRE DUROCHER,S376,Ambulatory health care services,290, rue de Carillon,G1K 5B2,Québec,qc
CENTRE D'HÉBERGEMENT ROY-ROUSSEAU,S377,Nursing and residential care facilities,2579, chemin de la Canardière,G1J 2G2,Québec,qc
CENTRE D'HÉBERGEMENT ST-JEAN-EUDES,S400,Nursing and residential care facilities,6000, 3e Avenue Ouest,G1H 7J5,Québec,qc
MAISON LE PETIT BLANCHON,S408,Nursing and residential care facilities,2720, rue Claisse,G1P 3E4,Québec,qc
FOYER DE GROUPE POUR LES JEUNES EN DIFFICULTÉ D'ADAPTATION DE SAINTE-FOY,S442,Nursing and residential care facilities,1618, chemin Sainte-Foy,G1S 2P4,Québec,qc
CENTRE D'ACCUEIL LE PROGRAMME DE PORTAGE,S465,Nursing and residential care facilities,150, rue Saint-Joseph Est,G1K 3A7,Québec,qc
GROUPE DE MÉDECINE DE FAMILLE UNIVERSITAIRE LAURIER,S496,Hospitals,2875, boulevard Laurier,G1V 2M2,Québec,qc
CENTRE D'HÉBERGEMENT LOUIS-HÉBERT,S524,Nursing and residential care facilities,1550, rue de la Pointe-Aux-Lièvres,G1L 4M8,Québec,qc
FOYER DE GROUPE POUR LES JEUNES EN DIFFICULTÉ D'ADAPTATION SAINT-LOUIS,S525,Nursing and residential care facilities,1560, chemin Saint-Louis,G1S 1G2,Québec,qc
FOYER DE GROUPE POUR LES JEUNES EN DIFFICULTÉ D'ADAPTATION DU PARC-PLEAU,S526,Nursing and residential care facilities,12, rue du Parc-Pleau,G2A 1S2,Québec,qc
CENTRE D'HÉBERGEMENT DES CHUTES,S554,Nursing and residential care facilities,700, boulevard des Chutes,G1E 2B7,Québec,qc
CENTRE D'HÉBERGEMENT YVONNE-SYLVAIN,S555,Nursing and residential care facilities,3365, rue Guimont,G1E 2H1,Québec,qc
CLSC ET GROUPE DE MÉDECINE DE FAMILLE UNIVERSITAIRE DE MAIZERETS,S607,Hospitals,2480, chemin de la Canardière,G1J 2G1,Québec,qc
INSTITUT UNIVERSITAIRE EN SANTÉ MENTALE DE QUÉBEC,S612,Hospitals,2601, chemin de la Canardière,G1J 2G3,Québec,qc
PAVILLON CENTRE HOSPITALIER DE L'UNIVERSITÉ LAVAL,S624,Hospitals,2705, boulevard Laurier,G1V 4G2,Québec,qc
HÔPITAL DE L'ENFANT-JÉSUS,S637,Hospitals,1401, 18e Rue,G1J 1Z4,Québec,qc
HÔPITAL JEFFERY HALE,S653,Hospitals,1250, chemin Sainte-Foy,G1S 2M6,Québec,qc
CENTRE DE SERVICES AMBULATOIRES EN SANTÉ MENTALE SAINT-VALLIER,S671,Hospitals,388, rue Saint-Vallier Ouest,G1K 1K6,Québec,qc
GROUPE DE MÉDECINE DE FAMILLE UNIVERSITAIRE QUATRE-BOURGEOIS,S692,Hospitals,2690, chemin des Quatre-Bourgeois,G1V 0B7,Québec,qc
CENTRE D'HÉBERGEMENT PAUL-TRIQUET,S745,Nursing and residential care facilities,789, rue de Belmont,G1V 4V2,Québec,qc
CENTRE D'HÉBERGEMENT DU FAUBOURG,S759,Nursing and residential care facilities,925, avenue Turnbull,G1R 2X6,Québec,qc
CENTRE D'HÉBERGEMENT SAINT-ANTOINE,S760,Nursing and residential care facilities,1451, boulevard Père-Lelièvre,G1M 1N8,Québec,qc
CENTRE D'HÉBERGEMENT SAINT-AUGUSTIN,S767,Nursing and residential care facilities,2135, rue de la Terrasse-Cadieux,G1C 1Z2,Québec,qc
CENTRE D'HÉBERGEMENT EN SANTÉ MENTALE LOUIS-XIV,S827,Nursing and residential care facilities,855, boulevard Louis-XIV,G1H 1A6,Québec,qc
CENTRE D'ACTIVITÉS DE JOUR ET SERVICES EXTERNES DE QUÉBEC - LAPIERRE,S856,Ambulatory health care services,1092, avenue Lapierre,G3E 1Z3,Québec,qc
