facility_name,index,odhf_facility_type,street_no,street_name,postal_code,city,province
MAISON DE NAISSANCE MIMOSA,S1057,Ambulatory health care services,182, rue de Saint-Romuald,G6W 3G9,Lévis,qc
CLSC DE SAINT-ROMUALD,S1120,Ambulatory health care services,200-1205, boulevard Guillaume-Couture,G6W 0J6,Lévis,qc
CENTRE DE SERVICES AMBULATOIRES DE LÉVIS,S1201,Hospitals,106, rue Jean-XXIII,G6V 2K1,Lévis,qc
CENTRE DE RÉADAPTATION EN DÉFICIENCE PHYSIQUE DE CHARNY,S1332,Ambulatory health care services,9500, boulevard du Centre-Hospitalier,G6X 0A1,Lévis,qc
CENTRE DE PROTECTION ET DE RÉADAPTATION POUR LES JEUNES EN DIFFICULTÉ D'ADAPTATION DE SAINT-ROMUALD,S1385,Nursing and residential care facilities,1120, boulevard Guillaume-Couture,G6W 5M6,Lévis,qc
CENTRE DE PROTECTION ET DE RÉADAPTATION POUR LES JEUNES EN DIFFICULTÉ D'ADAPTATION DE LÉVIS,S1398,Nursing and residential care facilities,200, rue Monseigneur-Bourget,G6V 2Y9,Lévis,qc
CENTRE DE SERVICES AMBULATOIRES EN SANTÉ MENTALE DE LÉVIS,S1399,Hospitals,101, rue Saint-Dominique,G6V 2M8,Lévis,qc
HÔTEL-DIEU DE LÉVIS,S1409,Hospitals,143, rue Wolfe,G6V 3Z1,Lévis,qc
PAVILLON BELLEVUE,S1451,Nursing and residential care facilities,99, rue Monseigneur-Bourget,G6V 9V2,Lévis,qc
CENTRE D'ACCUEIL SAINT-JOSEPH DE LÉVIS,S1462,Nursing and residential care facilities,5445, rue Saint-Louis,G6V 4G9,Lévis,qc
CENTRE D'ACTIVITÉS DE JOUR EN DÉFICIENCE INTELLECTUELLE ET EN TROUBLES DU SPECTRE DE L'AUTISME DESJARDINS-EST,S1533,Ambulatory health care services,7245, boulevard de la Rive-Sud,G6V 7A3,Lévis,qc
CENTRE D'ACTIVITÉS DE JOUR EN DÉFICIENCE INTELLECTUELLE ET EN TROUBLES DU SPECTRE DE L'AUTISME DE SAINT-ROMUALD,S1534,Ambulatory health care services,260, rue de Saint-Romuald,G6W 3H2,Lévis,qc
CENTRE DE RÉADAPTATION EN DÉFICIENCE INTELLECTUELLE ET EN TROUBLES DU SPECTRE DE L'AUTISME DE LÉVIS,S1601,Ambulatory health care services,55, rue du Mont-Marie,G6V 0B8,Lévis,qc
CENTRE D'HEBERGEMENT CHAMPLAIN - CHANOINE-AUDET,S1690,Nursing and residential care facilities,2155, chemin du Sault,G6W 2K7,Lévis,qc
CENTRE DE SERVICES EXTERNES POUR LES AÎNÉS DE SAINT-ROMUALD,S1703,Nursing and residential care facilities,2157, chemin du Sault,G6W 2K7,Lévis,qc
FOYER DE GROUPE POUR LES JEUNES EN DIFFICULTÉ D'ADAPTATION VINCENT-CHAGNON,S259,Nursing and residential care facilities,27, rue Vincent-Chagnon,G6V 4V6,Lévis,qc
CENTRE DE SERVICES AMBULATOIRES EN PÉDOPSYCHIATRIE DE LÉVIS,S369,Hospitals,6550, rue Saint-Georges,G6V 6X2,Lévis,qc
FOYER DE GROUPE POUR LES JEUNES EN DIFFICULTÉ D'ADAPTATION DE SAINT-ROMUALD,S567,Nursing and residential care facilities,253, rue Garnier,G6W 3N7,Lévis,qc
CENTRE MULTISERVICES DE SANTÉ ET DE SERVICES SOCIAUX PAUL-GILBERT,S618,Hospitals,9330, boulevard du Centre-Hospitalier,G6X 1L6,Lévis,qc
CENTRE MULTISERVICES DE SANTÉ ET DE SERVICES SOCIAUX DE LÉVIS,S695,Ambulatory health care services,99, rue du Mont-Marie,G6V 0M4,Lévis,qc
CENTRE MULTISERVICES DE SANTÉ ET DE SERVICES SOCIAUX MONSEIGNEUR-BOURGET,S700,Ambulatory health care services,100, rue Monseigneur-Bourget,G6V 2Y9,Lévis,qc
GROUPE DE MÉDECINE DE FAMILLE UNIVERSITAIRE DE LÉVIS,S852,Hospitals,100-1205, boulevard Guillaume-Couture,G6W 0J4,Lévis,qc
