facility_name,index,odhf_facility_type,street_no,street_name,postal_code,city,province
CLSC CAMIRAND,S1011,Ambulatory health care services,50, rue Camirand,J1H 4J5,Sherbrooke,qc
CLSC J-OLIVIER-CAMIRAND,S1019,Ambulatory health care services,95, rue Camirand,J1H 4J6,Sherbrooke,qc
CLSC KING EST,S1020,Ambulatory health care services,356, rue King Ouest,J1H 1R4,Sherbrooke,qc
CHUS - HÔPITAL FLEURIMONT,S1050,Hospitals,3001, 12e Avenue Nord,J1H 5N4,Sherbrooke,qc
CHUS - HÔTEL-DIEU DE SHERBROOKE,S1061,Hospitals,580, rue Bowen Sud,J1G 2E8,Sherbrooke,qc
MAISON DE NAISSANCE DE L'ESTRIE,S1111,Ambulatory health care services,65, rue de la Croix,J1C 0M2,Sherbrooke,qc
CLSC MURRAY,S1123,Ambulatory health care services,500, rue Murray,J1G 2K6,Sherbrooke,qc
POINT DE SERVICE SHERBROOKE,S1404,Nursing and residential care facilities,340, rue Dufferin,J1H 4M7,Sherbrooke,qc
CENTRE DE RÉADAPTATION POUR LES JEUNES EN DIFFICULTÉ D'ADAPTATION VAL-DU-LAC,S1436,Nursing and residential care facilities,8475, chemin Blanchette,J1N 3A3,Sherbrooke,qc
CHSLD SAINT-JOSEPH,S1539,Nursing and residential care facilities,611, boulevard Queen-Victoria,J1H 3R6,Sherbrooke,qc
ATELIER ET CENTRE D'ACTIVITES DE JOUR SHERBROOKE - PROSPECT,S1545,Ambulatory health care services,1621, rue Prospect,J1J 1K4,Sherbrooke,qc
CENTRE D'ACTIVITES DE JOUR DE SHERBROOKE - FAIRMOUNT,S1600,Ambulatory health care services,1010, rue Fairmount,J1H 3N3,Sherbrooke,qc
CENTRE DE RÉADAPTATION EN DÉFICIENCE PHYSIQUE LE TOURET,S1628,Ambulatory health care services,4076, boulevard de l'Université,J1N 2Y1,Sherbrooke,qc
CHSLD SAINT-VINCENT-DE-PAUL,S1704,Nursing and residential care facilities,300, rue King Est,J1G 1B1,Sherbrooke,qc
CENTRE DE RÉADAPTATION EN DÉPENDANCE JEAN-PATRICE-CHIASSON,S1725,Nursing and residential care facilities,1930, rue King Ouest,J1J 2E2,Sherbrooke,qc
FOYER DE GROUPE POUR LES JEUNES EN DIFFICULTÉ D'ADAPTATION KELLY,S1727,Nursing and residential care facilities,671, rue Longpré,J1G 3C1,Sherbrooke,qc
RESSOURCE L'ENVOLÉE,S261,Ambulatory health care services,355, rue Thibault,J1H 6N5,Sherbrooke,qc
CENTRE D'ACTIVITÉS DE JOUR DE SHERBROOKE - QUEEN,S265,Ambulatory health care services,36, rue Queen,J1M 1H9,Sherbrooke,qc
CENTRE D'HÉBERGEMENT ET DE SOINS DE LONGUE DURÉE VIGI SHERMONT,S280,Nursing and residential care facilities,3220, 12e Avenue Nord,J1H 5H3,Sherbrooke,qc
CENTRE D'HÉBERGEMENT CHAMPLAIN-DE-LA-ROSE-BLANCHE,S350,Nursing and residential care facilities,60, rue Jean-Maurice,J1G 1V5,Sherbrooke,qc
CENTRE DE RÉADAPTATION POUR LES MÈRES ET LEURS ENFANTS VILLA MARIE-CLAIRE,S382,Nursing and residential care facilities,470, rue Victoria,J1H 3J2,Sherbrooke,qc
CLSC ET CENTRE DE SERVICES AMBULATOIRES BELVÉDÈRE,S603,Hospitals,1095, Belvédère Sud,J1H 4C6,Sherbrooke,qc
CLSC ET GROUPE DE MÉDECINE DE FAMILLE UNIVERSITAIRE SPEID,S608,Hospitals,8, rue Speid,J1M 1R6,Sherbrooke,qc
HÔPITAL ET CHSLD D'YOUVILLE,S625,Hospitals,1036, rue Belvédère Sud,J1H 4C4,Sherbrooke,qc
HÔPITAL ET CHSLD ARGYLL,S639,Hospitals,375, rue Argyll,J1J 3H5,Sherbrooke,qc
UNITÉ DE CONFINEMENT COMMUNAUTAIRE,S668,Hospitals,1820, rue Galt Ouest,J1K 1H9,Sherbrooke,qc
CLSC ET GROUPE DE MÉDECINE DE FAMILLE UNIVERSITAIRE KING EST,S923,Hospitals,1200, rue King Est,J1G 1E4,Sherbrooke,qc
