facility_name,index,odhf_facility_type,street_no,street_name,postal_code,city,province
CH DE L'UNIVERSITÉ DE MONTRÉAL (CHUM) - HÔPITAL SAINT-LUC,6820,Hospitals,1058,rue saint-denis,H2X 3J4,montréal,qc
HÔPITAL LOUIS-H. LAFONTAINE,8052,Hospitals,7401,rue hochelaga,H1N 3M5,montréal,qc
HÔPITAL RIVIÈRE-DES-PRAIRIES,8072,Hospitals,7070,boul perras,H1E 1A4,montréal,qc
JEWISH ELDERCARE CENTRE,8129,Nursing and residential care facilities,5725,victoria ave,H3W 3H6,montréal,qc
LE CAMPUS DE LACHINE DU CUSM,8140,Nursing and residential care facilities,650,16e ave,H8S 3N5,lachine,qc
MCGILL UNIVERSITY HEALTH CENTRE - MONTRÉAL CHEST INSTITUTE,8253,Hospitals,3650,st urbain,H2X 2P4,montréal,qc
SHRINERS HOSPITAL FOR CHILDREN,8492,Hospitals,1529,cedar ave,H3G 1A6,montréal,qc
HÔPITAL MAISONNEUVE-ROSEMONT,S1006,Hospitals,5415, boulevard de l'Assomption,H1T 2M4,Montréal,qc
CENTRE METROPOLITAIN DE CHIRURGIE PLASTIQUE,S1017,Hospitals,999, rue de Salaberry,H3L 1L2,Montréal,qc
VILLA MEDICA,S1039,Hospitals,225, rue Sherbrooke Est,H2X 1C9,Montréal,qc
CLSC DE PIERREFONDS,S1063,Ambulatory health care services,13800, boulevard Gouin Ouest,H8Z 3H6,Montréal,qc
CLSC DE DORVAL-LACHINE,S1064,Ambulatory health care services,1900, rue Notre-Dame,H8S 2G2,Montréal,qc
CLSC DE SAINT-HENRI,S1065,Ambulatory health care services,3833, rue Notre-Dame Ouest,H4C 1P8,Montréal,qc
CLSC DE VERDUN,S1066,Ambulatory health care services,400, rue de l'Église,H4G 2M4,Montréal,qc
CLSC DE MONTRÉAL-NORD,S1068,Ambulatory health care services,11441, boulevard Lacordaire,H1G 4J9,Montréal,qc
CLSC D'AHUNTSIC,S1069,Ambulatory health care services,1165, boulevard Henri-Bourassa Est,H2C 3K2,Montréal,qc
CLSC DE VILLERAY,S1070,Ambulatory health care services,1425, rue Jarry Est,H2E 1A7,Montréal,qc
CLSC DE LA PETITE-PATRIE,S1071,Ambulatory health care services,6520, rue de Saint-Vallier,H2S 2P7,Montréal,qc
CLSC DU PLATEAU-MONT-ROYAL,S1103,Ambulatory health care services,4625, avenue de Lorimier,H2H 2B4,Montréal,qc
CLSC SAINT-URBAIN,S1105,Ambulatory health care services,55, avenue du Mont-Royal Ouest,H2T 2S5,Montréal,qc
CLSC DE SAINT-LOUIS-DU-PARC,S1113,Ambulatory health care services,15, avenue du Mont-Royal Ouest,H2T 2R9,Montréal,qc
HÔPITAL DE VERDUN,S1115,Hospitals,4000, boulevard LaSalle,H4G 2A3,Montréal,qc
CLSC DES FAUBOURGS,S1124,Ambulatory health care services,2187, rue Larivière,H2K 1P5,Montréal,qc
HOPITAL DE JOUR L'ENVOL,S1148,Hospitals,6625, boulevard Lasalle,H4H 1R2,Montréal,qc
HÔTEL-DIEU DU CENTRE HOSPITALIER DE L'UNIVERSITÉ DE MONTRÉAL,S1160,Hospitals,3840, rue Saint-Urbain,H2W 1T8,Montréal,qc
CLSC DE BENNY FARM,S1161,Ambulatory health care services,6484, avenue de Monkland,H4B 1H3,Montréal,qc
CLSC UNION,S1165,Ambulatory health care services,2021, avenue Union,H3A 2S9,Montréal,qc
MAISON DE NAISSANCE JEANNE-MANCE,S1186,Ambulatory health care services,1822-1828, rue Ontario Est,H2K 1T7,Montréal,qc
CLSC ÎLE-DES-SŒURS,S1194,Ambulatory health care services,1, Place du Commerce,H3E 1A1,Montréal,qc
AIRE OUVERTE SAURIOL,S1202,Ambulatory health care services,2169, rue Sauriol E,H2B 1G1,Montréal,qc
CLINIQUE COMMUNAUTAIRE DE POINTE ST-CHARLES (POINT DE SERVICE),S1213,Ambulatory health care services,1955, rue Centre,H3K 1J1,Montréal,qc
CLSC DE CÔTE-DES-NEIGES,S1235,Ambulatory health care services,1271, avenue Van Horne,H2V 1K5,Montréal,qc
CLSC DE VILLE-ÉMARD,S1271,Ambulatory health care services,6161, rue Laurendeau,H4E 3X6,Montréal,qc
CLSC DE LASALLE,S1285,Ambulatory health care services,8550, boulevard Newman,H8N 1Y5,Montréal,qc
CLSC DE SAINT-LAURENT,S1286,Ambulatory health care services,1055, avenue Sainte-Croix,H4L 3Z2,Montréal,qc
PAVILLON RACHEL-TOURIGNY,S1320,Hospitals,5305, boulevard de l'Assomption,H1T 2M4,Montréal,qc
CENTRE DE PROTECTION DE L'ENFANCE ET DE LA JEUNESSE DE POINTE-AUX-TREMBLES,S1324,Nursing and residential care facilities,13000, rue Sherbrooke Est,H1A 3W2,Montréal,qc
CENTRE DE PROTECTION DE L'ENFANCE ET DE LA JEUNESSE SAINT-LAURENT,S1333,Nursing and residential care facilities,750, boulevard Marcel-Laurin,H4M 2M4,Montréal,qc
CENTRE DE PROTECTION DE L'ENFANCE ET DE LA JEUNESSE HENRI-BOURASSA EST,S1337,Nursing and residential care facilities,1161, boulevard Henri-Bourassa Est,H2C 3K2,Montréal,qc
CENTRE DE PROTECTION DE L'ENFANCE ET DE LA JEUNESSE DE L'ÉGLISE,S1338,Nursing and residential care facilities,471, rue de l'Église,H4G 2M6,Montréal,qc
CENTRE DE PROTECTION DE L'ENFANCE ET DE LA JEUNESSE SHERBROOKE EST,S1343,Nursing and residential care facilities,8135, rue Sherbrooke Est,H1L 1A6,Montréal,qc
CENTRE DE PROTECTION DE L'ENFANCE ET DE LA JEUNESSE LAFONTAINE,S1344,Nursing and residential care facilities,4477, rue La Fontaine,H1V 1P4,Montréal,qc
CENTRE DE PROTECTION DE L'ENFANCE ET DE LA JEUNESSE MAISONNEUVE EST,S1347,Nursing and residential care facilities,1001, boulevard de Maisonneuve Est,H2L 4R5,Montréal,qc
CENTRE DE PROTECTION DE L'ENFANCE ET DE LA JEUNESSE SAINT-DENIS,S1348,Nursing and residential care facilities,8000, rue Saint-Denis,H2R 2G1,Montréal,qc
L'HÔPITAL DE MONTRÉAL POUR ENFANTS,S1349,Hospitals,2300, rue Tupper,H3H 1P3,Montréal,qc
INSTITUT RAYMOND-DEWAR,S1351,Ambulatory health care services,3600, rue Berri,H2L 4G9,Montréal,qc
CENTRE DE SERVICES AMBULATOIRES DE SOINS PSYCHIATRIQUES BEAUBIEN,S1358,Hospitals,7067, rue Beaubien Est,H1M 2Y2,Montréal,qc
HÔPITAL NEUROLOGIQUE DE MONTRÉAL,S1359,Hospitals,3801, rue University,H3A 2B4,Montréal,qc
CENTRE JEUNESSE DE MONTRÉAL - SITE DÉCARIE,S1366,Nursing and residential care facilities,4434, boulevard Décarie,H4A 3P2,Montréal,qc
