facility_name,index,odhf_facility_type,street_no,street_name,postal_code,city,province
CENTRE D'HÉBERGEMENT HENRI-BRADET,S569,Nursing and residential care facilities,6465, avenue Chester,H4V 2Z8,Montréal,qc
CHSLD PAUL-LIZOTTE,S570,Nursing and residential care facilities,6850, boulevard Gouin Est,H1G 6L7,Montréal,qc
FOYER DE GROUPE HAWKINS,S575,Nursing and residential care facilities,5455, chemin de la Côte-Saint-Antoine,H4A 1R1,Montréal,qc
PAVILLON PIERREFONDS,S576,Ambulatory health care services,5100, avenue du Château-Pierrefonds,H9K 1P3,Montréal,qc
CENTRE D'HÉBERGEMENT PAUL-BRUCHÉSI,S580,Nursing and residential care facilities,2225, rue Rachel Est,H2H 1R4,Montréal,qc
CLSC ET GROUPE DE MÉDECINE DE FAMILLE UNIVERSITAIRE CÔTE-DES-NEIGES,S584,Hospitals,5700, chemin de la Côte-des-Neiges,H3T 2A8,Montréal,qc
CLSC ET GROUPE DE MÉDECINE DE FAMILLE UNIVERSITAIRE MÉTRO,S585,Hospitals,1801, boulevard de Maisonneuve Ouest,H3H 1J9,Montréal,qc
CLSC DE SAINT-LÉONARD,S586,Hospitals,5540, rue Jarry Est,H1P 1T9,Montréal,qc
CLSC DE HOCHELAGA-MAISONNEUVE,S587,Hospitals,4201, rue Ontario Est,H1V 1K2,Montréal,qc
CLSC OLIVIER-GUIMOND,S588,Hospitals,5810, rue Sherbrooke Est,H1N 1B2,Montréal,qc
CLSC DE L'EST-DE-MONTRÉAL,S589,Hospitals,13926, rue Notre-Dame Est,H1A 1T5,Montréal,qc
CLSC DE MERCIER-EST,S593,Hospitals,9503, rue Sherbrooke Est,H1L 6P2,Montréal,qc
CLSC DE LA VISITATION ET GROUPE DE MÉDECINE DE FAMILLE UNIVERSITAIRE DES FAUBOURGS,S594,Hospitals,1705, rue de la Visitation,H2L 3C3,Montréal,qc
CLSC DE SAINT-MICHEL,S597,Hospitals,3355, rue Jarry Est,H1Z 2E5,Montréal,qc
CLSC DE ROSEMONT,S598,Hospitals,2909, rue Rachel Est,H1W 0A9,Montréal,qc
CLSC SAINTE-CATHERINE ET GROUPE DE MÉDECINE DE FAMILLE UNIVERSITAIRE DES FAUBOURGS,S602,Hospitals,66, rue Sainte-Catherine Est,H2X 1K6,Montréal,qc
CLSC PARTHENAIS ET GROUPE DE MÉDECINE DE FAMILLE UNIVERSITAIRE DES FAUBOURGS,S606,Hospitals,2260, rue Parthenais,H2K 3T5,Montréal,qc
CLSC DU VILLAGE-OLYMPIQUE,S609,Hospitals,5199, rue Sherbrooke Est,H1T 3X2,Montréal,qc
CLSC ET GROUPE DE MÉDECINE DE FAMILLE UNIVERSITAIRE BORDEAUX-CARTIERVILLE,S610,Hospitals,11822, avenue du Bois-de-Boulogne,H3M 2X6,Montréal,qc
CENTRE DE SERVICES AMBULATOIRES ET MAISON DE NAISSANCE LOUVAIN,S611,Hospitals,9600, rue Saint-Denis,H2M 1P2,Montréal,qc
HÔPITAL DE SOINS PSYCHIATRIQUES DE L'EST-DE-MONTRÉAL,S613,Hospitals,7401, rue Hochelaga,H1N 3M5,Montréal,qc
HÔPITAL GÉNÉRAL JUIF,S620,Hospitals,3755, chemin de la Côte-Sainte-Catherin,H3T 1E2,Montréal,qc
CENTRE HOSPITALIER DE ST. MARY,S621,Hospitals,3830, avenue Lacombe,H3T 1M5,Montréal,qc
INSTITUT UNIVERSITAIRE DE GÉRIATRIE DE MONTRÉAL,S623,Hospitals,4565, chemin Queen-Mary,H3W 1W5,Montréal,qc
CENTRE D'HÉBERGEMENT DU MANOIR-DE-L'ÂGE-D'OR,S631,Hospitals,3430, rue Jeanne-Mance,H2X 2J9,Montréal,qc
CENTRE D'HÉBERGEMENT J.-HENRI-CHARBONNEAU,S635,Hospitals,3095, rue Sherbrooke Est,H1W 1B2,Montréal,qc
HÔPITAL DE LASALLE,S636,Hospitals,8585, terrasse Champlain,H8P 1C1,Montréal,qc
CENTRE D'HÉBERGEMENT NOTRE-DAME-DE-LA-MERCI,S645,Hospitals,555, boulevard Gouin Ouest,H3L 1K5,Montréal,qc
PAVILLON ROSEMONT,S655,Hospitals,5689, boulevard Rosemont,H1T 2H1,Montréal,qc
HÔPITAL CATHERINE-BOOTH,S659,Hospitals,4375, avenue Montclair,H4B 2J5,Montréal,qc
CHU SAINTE-JUSTINE,S660,Hospitals,3175, chemin de la Côte-Sainte-Catherin,H3T 1C5,Montréal,qc
INSTITUT DE RÉADAPTATION DE MONTRÉAL,S662,Hospitals,6300, avenue Darlington,H3S 2J4,Montréal,qc
CENTRE DE SERVICES AMBULATOIRES EN GÉRONTOPSYCHIATRIE GRENET,S670,Hospitals,12085, rue Grenet,H4J 2J4,Montréal,qc
CENTRE DE CRISE DE L'ENTREMISE,S672,Ambulatory health care services,3010, rue Pierre-Tétreault,H1L 4Z8,Montréal,qc
CENTRE D'HÉBERGEMENT ARMAND-LAVERGNE,S722,Nursing and residential care facilities,3500, rue Chapleau,H2K 4N3,Montréal,qc
FOYER DE GROUPE POUR LES JEUNES EN DIFFICULTÉ D'ADAPTATION DE RIVIÈRE-DES-PRAIRIES,S723,Nursing and residential care facilities,12525, 28e Avenue,H1E 3V3,Montréal,qc
SITE GLEN,S724,Hospitals,1001, rue Décarie,H4A 3J1,Montréal,qc
CENTRE DE SERVICES AMBULATOIRES DE MAISONNEUVE,S735,Hospitals,5252, boulevard de Maisonneuve,H4A 3S9,Montréal,qc
FOYER DE GROUPE POUR LES JEUNES EN DIFFICULTÉ D'ADAPTATION ROSEMONT,S738,Nursing and residential care facilities,6554, boulevard Saint-Michel,H1Y 2G1,Montréal,qc
CENTRE DE SERVICES AMBULATOIRES DE DIALYSE DE LA RUE DE GASPÉ,S743,Hospitals,5455, avenue de Gaspé,H2T 3B3,Montréal,qc
CENTRE D'HÉBERGEMENT ET DE SOINS DE LONGUE DURÉE DU MANOIR-DE-L'OUEST-DE-L'ÎLE,S744,Nursing and residential care facilities,17725, boulevard de Pierrefonds,H9J 3L1,Montréal,qc
FOYER DE GROUPE POUR LES JEUNES EN DIFFICULTÉ D'ADAPTATION 1RE AVENUE,S746,Nursing and residential care facilities,6936, 1e Avenue,H1Y 3B4,Montréal,qc
ATELIER DE TRAVAIL NOVATEK,S755,Ambulatory health care services,2445, rue Léger,H8N 2V7,Montréal,qc
APPARTEMENT SUPERVISÉ WILSON,S756,Nursing and residential care facilities,2291, avenue Wilson,H4A 2T4,Montréal,qc
FOYER DE GROUPE POUR LES JEUNES EN DIFFICULTÉ D'ADAPTATION LOUIS-HÉMON,S763,Nursing and residential care facilities,6964, rue Louis-Hémon,H2E 2T5,Montréal,qc
HÔPITAL SHRINERS POUR ENFANTS (QUÉBEC),S764,Hospitals,1003, boulevard Décarie,H4A 0A9,Montréal,qc
CHSLD NICOLET,S769,Nursing and residential care facilities,2300, rue Nicolet,H1W 3L4,Montréal,qc
CENTRE DE SERVICES AMBULATOIRES BOIS-DE-BOULOGNE,S774,Hospitals,1575, boulevard Henri-Bourassa Ouest,H3M 3A9,Montréal,qc
GROUPE DE MÉDECINE DE FAMILLE UNIVERSITAIRE NOTRE-DAME,S775,Hospitals,2120, rue Sherbrooke Est,H2K 1C3,Montréal,qc
