facility_name,index,odhf_facility_type,street_no,street_name,postal_code,city,province
CENTRE D'HEBERGEMENT DE LA MAREE,S1691,Nursing and residential care facilities,7015, boulevard Gouin Est,H1E 5N2,Montréal,qc
CHSLD JOSEPH-FRANÇOIS-PERREAULT,S1692,Nursing and residential care facilities,7400, boulevard Saint-Michel,H2A 2Z8,Montréal,qc
CENTRE D'HEBERGEMENT ET DE SOINS DE LONGUE DUREE VIGI REINE-ELIZABETH,S1694,Nursing and residential care facilities,2055, avenue Northcliffe,H4A 3K6,Montréal,qc
CHSLD SAINT-JOSEPH-DE-LA-PROVIDENCE,S1697,Nursing and residential care facilities,11844, avenue du Bois-de-Boulogne,H3M 2X7,Montréal,qc
CHSLD SAINT-GEORGES,S1705,Nursing and residential care facilities,3550, rue Saint-Urbain,H2X 4C5,Montréal,qc
CENTRE D'HÉBERGEMENT DENIS-BENJAMIN-VIGER,S1707,Nursing and residential care facilities,3292, rue Cherrier,H9C 1E4,Montréal,qc
CENTRE D'HÉBERGEMENT DE LASALLE,S1708,Nursing and residential care facilities,8686, rue Centrale,H8P 3N4,Montréal,qc
CENTRE D'HÉBERGEMENT DE LACHINE,S1709,Nursing and residential care facilities,650, place d'Accueil,H8S 3Z5,Montréal,qc
CENTRE D'HÉBERGEMENT LOUIS-RIEL,S1711,Nursing and residential care facilities,2120, rue Augustin-Cantin,H3K 3G3,Montréal,qc
CENTRE D'HÉBERGEMENT RÉAL-MOREL,S1712,Nursing and residential care facilities,3500, rue Wellington,H4G 1T3,Montréal,qc
CENTRE D'HÉBERGEMENT YVON-BRUNET,S1713,Nursing and residential care facilities,6250, avenue Newman,H4E 4K4,Montréal,qc
CENTRE D'HÉBERGEMENT DE SAINT-HENRI,S1714,Nursing and residential care facilities,5205, rue Notre-Dame Ouest,H4C 3L2,Montréal,qc
CHSLD DE CARTIERVILLE,S1715,Nursing and residential care facilities,12235, rue Grenet,H4J 2N9,Montréal,qc
CHSLD LAURENDEAU,S1716,Nursing and residential care facilities,1725, boulevard Gouin Est,H2C 3H6,Montréal,qc
CENTRE D'HÉBERGEMENT PAUL-ÉMILE-LÉGER,S1717,Nursing and residential care facilities,66, boulevard René-Lévesque Est,H2X 1N3,Montréal,qc
CENTRE D'HÉBERGEMENT ÉMILIE-GAMELIN,S1718,Nursing and residential care facilities,1440, rue Dufresne,H2K 3J3,Montréal,qc
CHSLD DE SAINT-MICHEL,S1719,Nursing and residential care facilities,3130, rue Jarry Est,H1Z 4N8,Montréal,qc
CHSLD BENJAMIN-VICTOR-ROUSSELOT,S1720,Nursing and residential care facilities,5655, rue Sherbrooke Est,H1N 1A4,Montréal,qc
CHSLD JEAN-HUBERT-BIERMANS,S1722,Nursing and residential care facilities,7905, rue Sherbrooke Est,H1L 1A4,Montréal,qc
CENTRE DE CRISE ÉMILE-NELLIGAN,S1751,Nursing and residential care facilities,8710, rue de Marseille,H1L 1R9,Montréal,qc
CHÂTEAU SUR LE LAC,S1752,Nursing and residential care facilities,16289, boulevard Gouin Ouest,H9H 1E2,Montréal,qc
FOYER DE GROUPE POUR LES JEUNES EN DIFFICULTÉ D'ADAPTATION HARMONY,S1769,Nursing and residential care facilities,7495, rue Chabot,H2E 2L2,Montréal,qc
INSTITUT NATIONAL DE PSYCHIATRIE LÉGALE PHILIPPE-PINEL,S237,Hospitals,10905, boulevard Henri-Bourassa Est,H1C 1H1,Montréal,qc
CENTRE DE SERVICES AMBULATOIRES DE SOINS PSYCHIATRIQUES CRAWFORD,S239,Hospitals,7105, boulevard Lasalle,H4H 1R2,Montréal,qc
FOYER DE GROUPE POUR LES JEUNES EN DIFFICULTÉ D'ADAPTATION LÉON-RINGUET,S254,Nursing and residential care facilities,8430, boulevard Gouin Est,H1E 1C1,Montréal,qc
FOYER DE GROUPE POUR LES JEUNES EN DIFFICULTÉ D'ADAPTATION JEAN-DARCET,S255,Nursing and residential care facilities,11555, avenue Bossuet,H1G 4H1,Montréal,qc
CENTRE D'ACCUEIL LE PROGRAMME DE PORTAGE,S257,Nursing and residential care facilities,2455, avenue Lionel-Groulx,H3J 1J6,Montréal,qc
CENTRE D'HÉBERGEMENT FATHER-DOWD,S264,Nursing and residential care facilities,6565, chemin Hudson,H3S 2T7,Montréal,qc
CENTRE DE RÉADAPTATION EN DÉFICIENCE PHYSIQUE LUCIE-BRUNEAU,S279,Ambulatory health care services,2275, avenue Laurier Est,H2H 2N8,Montréal,qc
SERVICE D'AIDES TECHNIQUES ET SERVICES EXTERNES CONSTANCE-LETHBRIDGE,S283,Ambulatory health care services,7005, boulevard de Maisonneuve Ouest,H4B 1T3,Montréal,qc
CHSLD DE SAINT-LAURENT,S287,Nursing and residential care facilities,1275, boulevard de la Côte-Vertu,H4L 4V2,Montréal,qc
CENTRE DE JOUR POUR LES JEUNES EN DIFFICULTÉ D'ADAPTATION JOGUES,S298,Nursing and residential care facilities,6707, rue Jogues,H4E 2W7,Montréal,qc
CENTRE DE JOUR POUR LES JEUNES EN DIFFICULTÉ D'ADAPTATION FULLUM,S299,Nursing and residential care facilities,2025, rue Fullum,H2K 3N5,Montréal,qc
CENTRE DE JOUR POUR LES JEUNES EN DIFFICULTÉ D'ADAPTATION LAJEUNESSE,S300,Nursing and residential care facilities,10794, rue Lajeunesse,H3L 2E8,Montréal,qc
FOYER DE GROUPE ROXBORO,S307,Nursing and residential care facilities,105, 4e Avenue Sud,H8Y 2L6,Montréal,qc
LA COURTE ÉCHELLE,S312,Ambulatory health care services,1900, rue Sauvé Est,H2B 3A8,Montréal,qc
CHSLD VIGI MARIE-CLARET,S328,Nursing and residential care facilities,3345, boulevard Henri-Bourassa Est,H1H 1H6,Montréal,qc
CENTRE D'ACTIVITÉS DE JOUR SAINT-PATRICK,S331,Ambulatory health care services,2475, rue Saint-Patrick,H3K 1B3,Montréal,qc
SERVICES À LA CLIENTÈLE 0-17 ANS,S332,Ambulatory health care services,7100, boulevard Champlain,H4H 1A8,Montréal,qc
CENTRE D'INTÉGRATION COMMUNAUTAIRE,S343,Ambulatory health care services,2103, avenue Jeanne-d'Arc,H1W 3V6,Montréal,qc
CENTRE DE SERVICES EN READAPTATION BEAUBIEN,S344,Ambulatory health care services,7085, rue Beaubien Est,H1M 2Y2,Montréal,qc
SERVICE DE RÉADAPTATION SOCIALE,S345,Ambulatory health care services,2030, boulevard Pie-IX,H1V 2C8,Montréal,qc
CENTRE DE SERVICES AMBULATOIRES DE SOINS PSYCHIATRIQUES WELLINGTON,S346,Hospitals,4932, rue Wellington,H4G 1X6,Montréal,qc
CENTRE D'ANIMATION,S348,Ambulatory health care services,2101, avenue Jeanne-d'Arc,H1W 3V6,Montréal,qc
INSTITUT NAZARETH ET LOUIS-BRAILLE RADISSON,S349,Ambulatory health care services,3800, rue Radisson,H1M 1X6,Montréal,qc
FOYER DE GROUPE POUR LES JEUNES EN DIFFICULTÉ D'ADAPTATION DROLET,S355,Nursing and residential care facilities,11737, avenue Désy,H1G 4C4,Montréal,qc
FOYER DE GROUPE POUR LES JEUNES EN DIFFICULTÉ D'ADAPTATION DÉSY,S356,Nursing and residential care facilities,6014, rue Charny,H1G 2K6,Montréal,qc
FOYER DE GROUPE POUR LES JEUNES EN DIFFICULTÉ D'ADAPTATION MONTPETIT,S357,Nursing and residential care facilities,11042, avenue Wilfrid-Saint-Louis,H1H 5K7,Montréal,qc
CENTRE DE SERVICES AMBULATOIRES EN SANTÉ MENTALE PAPINEAU,S358,Hospitals,10345, avenue Papineau,H2B 2A3,Montréal,qc
