facility_name,index,odhf_facility_type,street_no,street_name,postal_code,city,province
CENTRE D'HÉBERGEMENT SAINT-ANDREW,S368,Nursing and residential care facilities,3350, boulevard Cavendish,H4B 2M7,Montréal,qc
CLSC DE RIVIÈRE-DES-PRAIRIES,S379,Hospitals,8655, boulevard Perras,H1E 4M7,Montréal,qc
CENTRE MULTISERVICES DE SANTÉ ET DE SERVICES SOCIAUX DE PARC-EXTENSION,S390,Hospitals,7085, rue Hutchison,H3N 1Y9,Montréal,qc
CENTRE D'HÉBERGEMENT ST-VINCENT-MARIE,S398,Nursing and residential care facilities,1175, boulevard de la Côte-Vertu,H4L 5J1,Montréal,qc
CHSLD DE LA BELLE-RIVE,S409,Nursing and residential care facilities,5320, boulevard Gouin Est,H1G 1B4,Montréal,qc
CENTRE D'HÉBERGEMENT CHAMPLAIN-DE-GOUIN,S412,Nursing and residential care facilities,4445, boulevard Henri-Bourassa Est,H1H 5M4,Montréal,qc
CHSLD ANGUS,S425,Nursing and residential care facilities,3200, rue Omer-Lavallée,H1Y 3P5,Montréal,qc
FOYER DE GROUPE POUR LES JEUNES EN DIFFICULTÉ D'ADAPTATION D'AHUNTSIC,S436,Nursing and residential care facilities,9999, avenue Larose,H2B 2Y7,Montréal,qc
CHSLD ANGELICA,S437,Nursing and residential care facilities,3435, boulevard Gouin Est,H1H 1B1,Montréal,qc
CENTRE DE SERVICES EXTERNES POUR LES AINÉS ANGELICA,S438,Nursing and residential care facilities,3395, boulevard Gouin Est,H1H 5L8,Montréal,qc
CHSLD KASTNER,S440,Nursing and residential care facilities,5750, rue Lavoie,H3W 3H5,Montréal,qc
CHSLD HOPE,S445,Nursing and residential care facilities,5725, avenue Victoria,H3W 3H6,Montréal,qc
CENTRE DE SERVICES AMBULATOIRES DE SOINS PSYCHIATRIQUES DE MERCIER-OUEST,S452,Hospitals,6850, rue Sherbrooke Est,H1N 1E1,Montréal,qc
PROGRAMME DE RECHERCHE CLINIQUE CHUM-IRCM,S453,Hospitals,120,avenue des Pins Ouest,H2W 2T2,Montréal,qc
FOYER DE GROUPE POUR LES JEUNES EN DIFFICULTÉ D'ADAPTATION CHAMBORD,S457,Nursing and residential care facilities,2574, boulevard Pie-IX,H1V 2E7,Montréal,qc
HÔPITAL DE RÉADAPTATION LINDSAY,S464,Hospitals,6363, chemin Hudson,H3S 1M9,Montréal,qc
CENTRE DE RÉADAPTATION EN DÉFICIENCE PHYSIQUE MAB,S467,Ambulatory health care services,7000, rue Sherbrooke Ouest,H4B 1R3,Montréal,qc
CENTRE D'ACTIVITÉS DE JOUR DES CARRIÈRES,S470,Ambulatory health care services,7701, 17e Avenue,H2A 2S4,Montréal,qc
CENTRE DE JOUR MAB-MACKAY,S471,Nursing and residential care facilities,7000, rue Sherbrooke Ouest,H4B 1R3,Montréal,qc
CHSLD EN SANTÉ MENTALE DE LACHINE,S474,Nursing and residential care facilities,3320, rue Notre-Dame,H8T 1W8,Montréal,qc
CENTRE D'HÉBERGEMENT TEMPORAIRE - HÔTEL COURTYARD MARRIOTT,S504,Nursing and residential care facilities,7000, place Robert-Joncas,H4M 2Z5,Montréal,qc
HÔTEL SAPA,S508,Nursing and residential care facilities,1415, rue Saint-Hubert,H2L 3Y9,Montréal,qc
HÔTEL MONTRÉAL MÉTROPOLITAIN - BEST WESTERN PREMIER COLLECTION,S509,Nursing and residential care facilities,3400, Crémazie Est,H2A 1A6,Montréal,qc
CENTRE D'HÉBERGEMENT DE LA MAISON-SAINT-JOSEPH,S515,Nursing and residential care facilities,5605, rue Beaubien Est,H1T 1X4,Montréal,qc
CENTRE D'HÉBERGEMENT DE VERDUN,S518,Nursing and residential care facilities,5500, boulevard Lasalle,H4H 1N9,Montréal,qc
RÉSIDENCE DES FILLES ET/OU GARÇONS (HAVRE-JEUNESSE),S521,Nursing and residential care facilities,1019, avenue Moffat,H4H 1Z1,Montréal,qc
RÉSIDENCE DES GARÇONS ET/OU FILLES (HAVRE-JEUNESSE),S522,Nursing and residential care facilities,4360, boulevard Lasalle,H4G 2A8,Montréal,qc
CHSLD DE LA PETITE-PATRIE,S523,Nursing and residential care facilities,6767, rue Cartier,H2G 3G2,Montréal,qc
FOYER DE GROUPE ODYSSEY,S528,Nursing and residential care facilities,4840, boulevard Cavendish,H4V 2R3,Montréal,qc
FOYER DE GROUPE COUVRETTE,S530,Nursing and residential care facilities,1782, rue Couvrette,H4L 4T8,Montréal,qc
FOYER DE GROUPE RUDEL,S531,Nursing and residential care facilities,5475, chemin de la Côte-Saint-Antoine,H4A 1R1,Montréal,qc
FOYER DE GROUPE SAINT-JAMES,S532,Nursing and residential care facilities,6151, rue Saint-Jacques,H4B 1T7,Montréal,qc
FOYER DE GROUPE BOURBONNIÈRE,S533,Nursing and residential care facilities,7587, boulevard Lasalle,H8P 1X9,Montréal,qc
CENTRE DE RÉADAPTATION EN DÉFICIENCE PHYSIQUE CHARTRAND,S534,Ambulatory health care services,12785, rue Chartrand,H1G 6G1,Montréal,qc
FOYER DE GROUPE POUR LES MÈRES ET LEURS ENFANTS CHRISTOPHE-COLOMB,S535,Nursing and residential care facilities,7550, avenue Christophe-Colomb,H2R 2S7,Montréal,qc
CENTRE D'ACCUEIL LE PROGRAMME DE PORTAGE,S536,Nursing and residential care facilities,865, place Richmond,H3J 1V8,Montréal,qc
HÔPITAL GÉNÉRAL JUIF,S538,Hospitals,4335, chemin de la Côte-Sainte-Catherin,H3T 1E4,Montréal,qc
FOYER DE GROUPE POUR LES JEUNES EN DIFFICULTÉ D'ADAPTATION MORGAN,S540,Nursing and residential care facilities,1482, avenue Morgan,H1V 2P7,Montréal,qc
FOYER DE GROUPE POUR LES JEUNES EN DIFFICULTÉ D'ADAPTATION MEILLEUR,S541,Nursing and residential care facilities,10160, rue Meilleur,H3L 3J8,Montréal,qc
CENTRE D'ACCUEIL DANTE,S542,Nursing and residential care facilities,6887, rue Châtelain,H1T 3X7,Montréal,qc
CHSLD ALFRED-DESROCHERS,S543,Nursing and residential care facilities,5325, avenue Victoria,H3W 2P2,Montréal,qc
CHSLD MARIE-ROLLET,S545,Nursing and residential care facilities,5003, rue Saint-Zotique Est,H1T 1N6,Montréal,qc
CENTRE D'HÉBERGEMENT ERNEST-ROUTHIER,S546,Nursing and residential care facilities,2110, rue Wolfe,H2L 4V4,Montréal,qc
CENTRE HOSPITALIER UNIVERSITAIRE SAINTE-JUSTINE,S549,Hospitals,5757, avenue Decelles,H3S 2C3,Montréal,qc
CHSLD FRANÇOIS-SÉGUENOT,S556,Nursing and residential care facilities,13950, rue Notre-Dame Est,H1A 1T5,Montréal,qc
CHSLD ROBERT-CLICHE,S558,Nursing and residential care facilities,3730, rue de Bellechasse,H1X 3E5,Montréal,qc
PAVILLON FERNAND-SÉGUIN,S560,Hospitals,7331, rue Hochelaga,H1N 3V2,Montréal,qc
CHSLD PAUL-GOUIN,S564,Nursing and residential care facilities,5900, rue de Saint-Vallier,H2S 2P3,Montréal,qc
CENTRE D'ACTIVITÉS DE JOUR SUD-OUEST,S565,Ambulatory health care services,2027, rue Lapierre,H8N 1B1,Montréal,qc
