facility_name,index,odhf_facility_type,street_no,street_name,postal_code,city,province
CENTRE JEUNESSE DE MONTRÉAL - BUREAU CENTRE,S1376,Nursing and residential care facilities,5800, rue Saint-Denis,H2S 3L5,Montréal,qc
CENTRE DE RÉADAPTATION EN DÉFICIENCE PHYSIQUE MACKAY,S1386,Ambulatory health care services,3500, boulevard Décarie,H4A 3J5,Montréal,qc
CENTRE DE READAPTATION MARIE ENFANT,S1407,Nursing and residential care facilities,5200, rue Bélanger,H1T 1C9,Montréal,qc
ATELIER LE FIL D'ARIANE,S1411,Ambulatory health care services,4837, rue Boyer,H2J 3E6,Montréal,qc
MAISON ELIZABETH,S1413,Nursing and residential care facilities,2131, avenue de Marlowe,H4A 3L4,Montréal,qc
CHSLD DES BÂTISSEURS,S1420,Hospitals,11810, avenue du Bois-de-Boulogne,H3M 2X6,Montréal,qc
CENTRE DE RÉADAPTATION EN DÉPENDANCE BOULEVARD CAVENDISH,S1428,Nursing and residential care facilities,3285, boulevard Cavendish,H4B 2L9,Montréal,qc
CENTRE DE SOINS PROLONGES GRACE DART,S1439,Nursing and residential care facilities,5155, rue Sainte-Catherine Est,H1V 2A5,Montréal,qc
CHSLD PROVIDENCE NOTRE-DAME DE LOURDES,S1440,Nursing and residential care facilities,1870, boulevard Pie-IX,H1V 2C6,Montréal,qc
RESIDENCE BERTHIAUME-DU TREMBLAY,S1443,Nursing and residential care facilities,1635, boulevard Gouin Est,H2C 1C2,Montréal,qc
CHSLD POLONAIS MARIE-CURIE-SKLODOWSKA,S1444,Nursing and residential care facilities,5655, rue Bélanger,H1T 1G2,Montréal,qc
L'HOPITAL CHINOIS DE MONTREAL (1963),S1448,Nursing and residential care facilities,189, avenue Viger Est,H2X 3Y9,Montréal,qc
LES CEDRES-CENTRE D'ACCUEIL POUR PERSONNES AGEES,S1449,Nursing and residential care facilities,1275, boulevard de la Côte-Vertu,H4L 4V2,Montréal,qc
RESIDENCE RIVE SOLEIL,S1458,Nursing and residential care facilities,15150, rue Notre-Dame Est,H1A 1W6,Montréal,qc
CENTRE DE SERVICES AMBULATOIRES DE SOINS PSYCHIATRIQUES D'ANJOU,S1463,Hospitals,7101, rue Jean-Talon Est,H1M 3N7,Montréal,qc
CHSLD BOURGET,S1469,Nursing and residential care facilities,11570, rue Notre-Dame Est,H1B 2X4,Montréal,qc
CENTRE D'HEBERGEMENT ET DE SOINS DE LONGUE DUREE BUSSEY (QUEBEC),S1470,Nursing and residential care facilities,2069, boulevard Saint-Joseph,H8S 4B7,Montréal,qc
CENTRE LE CARDINAL,S1471,Nursing and residential care facilities,12900, rue Notre-Dame Est,H1A 1R9,Montréal,qc
CENTRE D'HÉBERGEMENT JEAN-DE-LA-LANDE,S1481,Nursing and residential care facilities,4255, avenue Papineau,H2H 2P6,Montréal,qc
HÔPITAL DE LACHINE,S1485,Hospitals,650, 16e Avenue,H8S 3N5,Montréal,qc
CENTRE D'HÉBERGEMENT CHAMPLAIN,S1495,Nursing and residential care facilities,1325, rue Crawford,H4H 2N6,Montréal,qc
CHSLD LE ROYER,S1500,Nursing and residential care facilities,7351, rue Jean-Desprez,H1K 5A6,Montréal,qc
HÔPITAL RICHARDSON,S1507,Hospitals,5425, avenue Bessborough,H4V 2S7,Montréal,qc
CENTRE DE RÉADAPTATION POUR LES JEUNES EN DIFFICULTÉ D'ADAPTATION DU MONT SAINT-ANTOINE,S1516,Nursing and residential care facilities,8147, rue Sherbrooke Est,H1L 1A7,Montréal,qc
HÔPITAL FLEURY,S1518,Hospitals,2180, rue Fleury Est,H2B 1K3,Montréal,qc
FOYER DE GROUPE POUR LES JEUNES EN DIFFICULTÉ D'ADAPTATION DE LACHINE,S1521,Nursing and residential care facilities,749, 25e Avenue,H8S 3X7,Montréal,qc
FOYER DE GROUPE POUR LES JEUNES EN DIFFICULTÉ D'ADAPTATION GOUIN,S1522,Nursing and residential care facilities,4350, boulevard Gouin Ouest,H4J 1B6,Montréal,qc
CENTRE DE RÉADAPTATION POUR LES JEUNES EN DIFFICULTÉ D'ADAPTATION DE BEAURIVAGE,S1523,Nursing and residential care facilities,1409, rue de Beaurivage,H1L 5V3,Montréal,qc
FOYER DE GROUPE POUR LES JEUNES EN DIFFICULTÉ D'ADAPTATION GODBOUT,S1524,Nursing and residential care facilities,9038, rue de Godbout,H8R 2H6,Montréal,qc
CENTRE DE RÉADAPTATION POUR LES JEUNES EN DIFFICULTÉ D'ADAPTATION DOMINIQUE-SAVIO,S1525,Nursing and residential care facilities,9335, rue Saint-Hubert,H2M 1Y7,Montréal,qc
CENTRE DE COORDINATION DE SERVICES MARIE-BOURASSA,S1528,Ambulatory health care services,5695, avenue des Marronniers,H1T 2W3,Montréal,qc
HÔPITAL JEAN-TALON,S1529,Hospitals,1385, rue Jean-Talon Est,H2E 1S6,Montréal,qc
ATELIER DE TRAVAIL UNI,S1530,Ambulatory health care services,2425, rue Dandurand,H2G 2A1,Montréal,qc
FOYER DE GROUPE DORNAL,S1543,Nursing and residential care facilities,4912, avenue Dornal,H3W 1W2,Montréal,qc
ATELIER DE TRAVAIL ET CENTRE D'ACTIVITES DE JOUR BENNY,S1553,Ambulatory health care services,2221, avenue Benny,H4B 2R5,Montréal,qc
CENTRE DE RÉADAPTATION EN DÉPENDANCE LOUVAIN,S1559,Nursing and residential care facilities,950, rue de Louvain Est,H2M 2E8,Montréal,qc
CENTRE DE RÉADAPTATION EN DÉPENDANCE SAINT-URBAIN,S1560,Nursing and residential care facilities,3530, rue Saint-Urbain,H2X 2N7,Montréal,qc
CENTRE DE RÉADAPTATION EN DÉPENDANCE PRINCE-ARTHUR,S1561,Nursing and residential care facilities,110, rue Prince-Arthur Ouest,H2X 1S7,Montréal,qc
INSTITUT NAZARETH ET LOUIS-BRAILLE JEAN-BRILLANT,S1567,Ambulatory health care services,3744, rue Jean-Brillant,H3T 1P1,Montréal,qc
FOYER DE GROUPE POUR LES JEUNES EN DIFFICULTÉ D'ADAPTATION DE PIERREFONDS,S1568,Nursing and residential care facilities,15900, boulevard de Pierrefonds,H9H 3X7,Montréal,qc
CENTRE DE SERVICES AMBULATOIRES DE SOINS PSYCHIATRIQUES DE SAINT-LÉONARD,S1571,Hospitals,8000, boulevard Langelier,H1P 3K2,Montréal,qc
CHSLD ÉLORIA-LEPAGE,S1608,Nursing and residential care facilities,3090, avenue de la Pépinière,H1N 3N4,Montréal,qc
FOYER DE GROUPE COLTON,S1609,Nursing and residential care facilities,4559, avenue d'Oxford,H4A 2Y9,Montréal,qc
CENTRE D'HEBERGEMENT VINCENZO-NAVARRO,S1619,Nursing and residential care facilities,7705, rue Lespinay,H1S 3E9,Montréal,qc
CENTRE DE COORDINATION DE SERVICES BEAUBIEN,S1634,Ambulatory health care services,7077, rue Beaubien Est,H1M 2Y2,Montréal,qc
HÔPITAL GRACE DART,S1636,Nursing and residential care facilities,6085, rue Sherbrooke Est,H1N 1C2,Montréal,qc
CENTRE D'HÉBERGEMENT NAZAIRE-PICHÉ,S1643,Nursing and residential care facilities,150, 15e Avenue,H8S 3L9,Montréal,qc
HÔPITAL DOUGLAS,S1673,Hospitals,6875, boulevard Lasalle,H4H 1R3,Montréal,qc
FOYER DE GROUPE POUR LES JEUNES EN DIFFICULTÉ D'ADAPTATION SAINT-VITAL,S1686,Nursing and residential care facilities,10155, boulevard Saint-Vital,H1H 4S7,Montréal,qc
