facility_name,index,odhf_facility_type,street_no,street_name,postal_code,city,province
CENTRE D'YOUVILLE,6359,Nursing and residential care facilities,531,rue laviolette,J7Y 2T8,saint-jérome,qc
CLSC DU CENTRE-VILLE-DE-SAINT-JÉRÔME,S1079,Ambulatory health care services,430, rue Labelle,J7Z 5L3,Saint-Jérôme,qc
CLSC DE L'ÉTABLISSEMENT-DE-DÉTENTION,S1151,Ambulatory health care services,2, boulevard de la Salette,J7Y 5G5,Saint-Jérôme,qc
CLSC DE SAINT-JÉRÔME,S1179,Ambulatory health care services,161, de la Gare,J7Z 2B9,Saint-Jérôme,qc
CLSC SAINT-ANTOINE,S1182,Ambulatory health care services,480, 5e Rue,J7Z 0H6,Saint-Jérôme,qc
CENTRE DE RÉADAPTATION EN DÉFICIENCE PHYSIQUE DE LA RUE BOYER,S1345,Ambulatory health care services,11, rue Boyer,J7Z 2K5,Saint-Jérôme,qc
CENTRE DE PROTECTION ET DE RÉADAPTATION POUR LES JEUNES EN DIFFICULTÉ D'ADAPTATION DE SAINT-JÉRÔME,S1396,Nursing and residential care facilities,358, rue Laviolette,J7Y 2T1,Saint-Jérôme,qc
PAVILLON STE-MARIE,S1415,Ambulatory health care services,45, rue du Pavillon,J7Y 3R6,Saint-Jérôme,qc
CENTRE D'HÉBERGEMENT LUCIEN-G. ROLLAND,S1581,Nursing and residential care facilities,175, rue Durand,J7Z 2V4,Saint-Jérôme,qc
HÔPITAL DE SAINT-JÉRÔME,S1599,Hospitals,290, rue Montigny,J7Z 5T3,Saint-Jérôme,qc
CENTRE D'HEBERGEMENT CHAMPLAIN-DE-LA-VILLA-SOLEIL,S1644,Nursing and residential care facilities,825, rue Melançon,J7Z 4L1,Saint-Jérôme,qc
CENTRE DU FLORES - SIÈGE SOCIAL - POINT DE SERVICE RIVIÈRE-DU-NORD,S1681,Ambulatory health care services,500, boulevard des Laurentides,J7Z 4M2,Saint-Jérôme,qc
CENTRE DE RÉADAPTATION EN DÉFICIENCE PHYSIQUE DU CENTRE-VILLE-DE-SAINT-JÉRÔME,S1733,Ambulatory health care services,225, rue du Palais,J7Z 1X7,Saint-Jérôme,qc
CENTRE ANDRÉ-BOUDREAU,S367,Nursing and residential care facilities,295, rue de Villemure,J7Z 5J5,Saint-Jérôme,qc
CENTRE DE RÉADAPTATION LE BOUCLIER,S380,Ambulatory health care services,51, rue Boyer,J7Z 2K5,Saint-Jérôme,qc
CENTRE DE RÉADAPTATION EN DÉPENDANCE DE SAINT-JÉRÔME,S416,Nursing and residential care facilities,906, rue Labelle,J7Z 5M5,Saint-Jérôme,qc
CENTRE DE RÉADAPTATION EN DÉPENDANCE ANDRÉ-BOUDREAU,S417,Nursing and residential care facilities,293, rue de Villemure,J7Z 5J5,Saint-Jérôme,qc
CENTRE DE RÉADAPTATION EN DÉPENDANCE SAINT-ANTOINE,S459,Nursing and residential care facilities,299, 5e rue,J7Z 6Y3,Saint-Jérôme,qc
CHSLD AU CŒUR-DE-LA-VIE,S472,Nursing and residential care facilities,325, rue Barrette,J7Y 0J8,Saint-Jérôme,qc
CHSLD LOUISE-FAUBERT,S479,Nursing and residential care facilities,300, rue du Docteur-Charles-Léonard,J7Y 0N2,Saint-Jérôme,qc
CHSLD DE SAINT-JÉRÔME,S480,Nursing and residential care facilities,200, rue Rolland,J7Z 5S2,Saint-Jérôme,qc
CASIS LAFONTAINE,S747,Nursing and residential care facilities,55, 104e Avenue,J7Y 1H5,Saint-Jérôme,qc
CENTRE DE RÉADAPTATION POUR LES JEUNES EN DIFFICULTÉ D'ADAPTATION DE SAINT-JÉRÔME,S873,Nursing and residential care facilities,148, rue Castonguay,J7Y 2J2,Saint-Jérôme,qc
CLSC ET GROUPE DE MÉDECINE DE FAMILLE UNIVERSITAIRE LAFONTAINE,S928,Hospitals,1000, rue Labelle,J7Z 5N6,Saint-Jérôme,qc
