facility_name,index,odhf_facility_type,street_no,street_name,postal_code,city,province
Ogilvie Villa,4630,Nursing and residential care facilities,1345,ogilvie road,K1J 7P5,ottawa,on
Olde Forge Community Resource Centre,4632,Ambulatory health care services,2730,carling avenue,K2B 7J1,ottawa,on
Orchard Walk Retirement Living,4672,Nursing and residential care facilities,1491,manotick station road,K4P 1P6,ottawa,on
Ottawa Chinese Community Service Centre,4676,Ambulatory health care services,400,cooper street,K2P 2H8,ottawa,on
Ottawa Hospital Academic Fht,4677,Ambulatory health care services,210,melrose avenue,K1Y 4K7,ottawa,on
Ottawa Inner City Health Inc.,4679,Ambulatory health care services,5,myrand avenue,K1N 5N7,ottawa,on
Ottawa Public Health,4680,Ambulatory health care services,179,clarence street,K1N 5P7,ottawa,on
Ottawa Salus Corporation,4681,Nursing and residential care facilities,2000,scott street,K1Z 6T2,ottawa,on
Ottawa West Community Support,4683,Ambulatory health care services,1137,wellington street,K1Y 2Y8,ottawa,on
Park Place Retirement Residence,4699,Nursing and residential care facilities,110,central park drive,K2C 4G3,ottawa,on
Park Place Seniors' Suites,4701,Nursing and residential care facilities,120,central park drive,K2C 4J6,ottawa,on
Parkway House,4714,Ambulatory health care services,2475,regina street,K2B 6X3,ottawa,on
Perley and Rideau Veterans' Health Centre (the),4751,Ambulatory health care services,1750,russell road,K1G 5Z6,ottawa,on
Personal Choice Independent Living/Choix Personnel Vie Autonome,4754,Ambulatory health care services,520,bronson avenue,K1R 7Y9,ottawa,on
Peter d. Clark Centre,4763,Nursing and residential care facilities,9,meridian place,K2G 6P8,ottawa,on
Pinecrest-Queensway Community Health Centre,4788,Ambulatory health care services,1365,richmond road,K2B 6R7,ottawa,on
Portobello Manor,4813,Nursing and residential care facilities,691,valin street,K4A 0G3,ottawa,on
Prince of Wales Manor,4828,Nursing and residential care facilities,22,barnstone drive,K2G 2P9,ottawa,on
Project Upstream Inc.,4832,Nursing and residential care facilities,100,craig henry drive,K2G 5W3,ottawa,on
Project Upstream Ottawa-Carleton Inc.,4833,Ambulatory health care services,1355,bank street,K1H 8K7,ottawa,on
Psychiatric Survivors of Ottawa (Pso),4849,Ambulatory health care services,211,bronson avenue,K1R 6H5,ottawa,on
Queensway Carleton Hospital,4860,Hospitals,3045,baseline rd,K2H 8P4,ottawa,on
Queenswood Villa,4863,Nursing and residential care facilities,370,kennedy lane e,K1E 3X5,ottawa,on
Red Oak Retirement Residence,4896,Nursing and residential care facilities,3501,campeau drive,K2K 0C1,ottawa,on
Redwoods Retirement,4899,Nursing and residential care facilities,2604,draper avenue,K2H 7A1,ottawa,on
Richmond Care Home,5011,Nursing and residential care facilities,27,nixon farm drive,K0A 2Z0,ottawa,on
Richmond Lodge,5013,Nursing and residential care facilities,6197,perth street,K0A 2Z0,ottawa,on
Rideau Fht,5020,Ambulatory health care services,3625,rivergate way,K1V 2A4,ottawa,on
Rideauwood Addiction and Family Services,5022,Ambulatory health care services,312,parkdale avenue,K1Y 4X5,ottawa,on
Robertson House,5050,Nursing and residential care facilities,1,mill hill road,K2H 9L6,ottawa,on
Roger's House for Palliative Care,5053,Nursing and residential care facilities,399,smyth road,K1H 8L2,ottawa,on
Royal Ottawa Mental Health Centre,5073,Hospitals,1145,carling ave,K1Z 7K4,ottawa,on
Rural Ottawa South Support Services,5085,Ambulatory health care services,1128,mill street,K4M 1A4,ottawa,on
RÉSIDENCE SAINT-LOUIS,5098,Nursing and residential care facilities,879,chemin hiawatha park,K1C 2Z6,ottawa,on
Sandy Hill Community Health Centre,5115,Ambulatory health care services,221,nelson street,K1N 1C7,ottawa,on
Sarsfield Colonial Home,5120,Nursing and residential care facilities,2861,colonial road,K0A 3E0,ottawa,on
Serenity House Inc.,5193,Nursing and residential care facilities,103,leopolds drive,K1V 7E2,ottawa,on
Service Familial Catholique Ottawa/Catholic Family Service Ottawa,5196,Ambulatory health care services,310,olmstead street,K1L 7K3,ottawa,on
Shepherds of Good Hope - Hope Living,5224,Nursing and residential care facilities,145,castlefrank road,K2L 3X9,ottawa,on
Sobriety House,5300,Nursing and residential care facilities,90,first avenue,K1S 2G4,ottawa,on
Somerset West Community Health Centre - yet Keen Seniors,5304,Ambulatory health care services,211,bronson avenue,K1R 6H5,ottawa,on
South-East Ottawa Community Health Centre,5333,Ambulatory health care services,1355,bank street,K1H 8K7,ottawa,on
St. Patrick’s Home of Ottawa,5468,Nursing and residential care facilities,2865,riverside drive,K1V 8N5,ottawa,on
Stirling Park Retirement Community,5481,Nursing and residential care facilities,310,titan private,K2G 0B1,ottawa,on
Stittsville Villa,5483,Nursing and residential care facilities,1354,main street n,K2S 1V4,ottawa,on
Symphony Senior Living Kanata,5543,Nursing and residential care facilities,27,weaver crescent,K2K 2Z8,ottawa,on
Symphony Senior Living Orleans,5544,Nursing and residential care facilities,6419,lumberman way,K1C 6E8,ottawa,on
the Courtyards on Eagleson,5601,Nursing and residential care facilities,630,eagleson road,K2M 0N1,ottawa,on
the Edinburgh,5609,Nursing and residential care facilities,10,vaughan street,K1M 2H6,ottawa,on
