facility_name,index,odhf_facility_type,street_no,street_name,postal_code,city,province
Amica at Brampton,2515,Nursing and residential care facilities,223,main street s,L6Y 6H1,brampton,on
Bramalea Community Health Centre,2700,Ambulatory health care services,40,finchgate boulevard,L6T 3J1,brampton,on
Bramalea Retirement Residence,2701,Nursing and residential care facilities,30,peel centre drive,L6T 4G8,brampton,on
Burton Manor,2756,Nursing and residential care facilities,5,sterritt drive,L6Y 5P3,brampton,on
Canadian Mental Health Association (Cmha) Peel Dufferin Branch,2801,Ambulatory health care services,7700,hurontario street,L6Y 4M3,brampton,on
Central Brampton Family Health Team,2923,Ambulatory health care services,300,main street,L6V 4H6,brampton,on
Central West Community Care Access Centre (Css),2936,Ambulatory health care services,199,county court boulevard,L6W 4P3,brampton,on
Cheshire Homes - Peel Cheshire Homes Inc. (Brampton),3135,Nursing and residential care facilities,156,murray street,L6X 3L7,brampton,on
Crescent Hill Place Retirement,3330,Nursing and residential care facilities,3,crescent hill drive s,L6S 2P2,brampton,on
Estherville Manor,3480,Nursing and residential care facilities,10606,mclaughlin road n,L7A 0C9,brampton,on
Extendicare Brampton,3488,Nursing and residential care facilities,7891,mclaughlin road,L6Y 5H8,brampton,on
Faith Manor Nursing Home,3539,Nursing and residential care facilities,7900,mclaughlin road s,L6Y 5A7,brampton,on
Family Association for Mental Health Everywhere (Fame),3541,Ambulatory health care services,7700,hurontario street,L6Y 4M3,brampton,on
Friends & Advocates Peel,3595,Ambulatory health care services,239,queen street e,L6W 2B6,brampton,on
Grace Manor,3667,Nursing and residential care facilities,45,kingknoll drive,L6Y 5P2,brampton,on
Greenway Retirement Village,3695,Nursing and residential care facilities,100,ken whillans drive,L6V 0A4,brampton,on
Hawthorn Woods Care Community,3811,Nursing and residential care facilities,9257,goreway drive,L6P 0N5,brampton,on
House of Wellness Assisted Living,3921,Nursing and residential care facilities,15,milford crescent,L6S 3E3,brampton,on
Imo's Sunnyside Home,3978,Nursing and residential care facilities,97,curtis drive,L6Y 2J6,brampton,on
Maple Grove Care Community,4283,Nursing and residential care facilities,215,sunny meadow boulevard,L6R 3B5,brampton,on
North Peel Fht,4551,Ambulatory health care services,157,queen street e,L6W 3X4,brampton,on
"Peel Addiction Assessment and Referral Centre, the",4732,Ambulatory health care services,60,west drive,L6T 3T6,brampton,on
Peel Manor,4734,Nursing and residential care facilities,525,main street n,L6X 1N9,brampton,on
Queen Square Fht,4852,Ambulatory health care services,366,main street n,L6V 1P8,brampton,on
Red Maple Assistive Living,4895,Nursing and residential care facilities,25,windermere court,L6X 2L5,brampton,on
Rosedale Retirement Residence,5058,Nursing and residential care facilities,12,william street,L6V 1L2,brampton,on
Southbrook Retirement Community,5365,Nursing and residential care facilities,400,ray lawson boulevard,L6Y 4G4,brampton,on
Tall Pines Long Term Care Centre,5549,Nursing and residential care facilities,1001,peter robertson boulevard,L6R 2Y3,brampton,on
the Helping Hand on Rhapsody,5623,Nursing and residential care facilities,10,rhapsody crescent,L6P 4E7,brampton,on
the Village of Sandalwood Park,5708,Nursing and residential care facilities,425,great lakes drive,L6R 2W8,brampton,on
Tullamore Care Community,5821,Nursing and residential care facilities,133,kennedy road s,L6W 3G3,brampton,on
United Achievers Community Services,5837,Ambulatory health care services,36,queen street e,L6V 1A2,brampton,on
William Osler Health System - Brampton Civic Hospital,6051,Hospitals,2100,bovaird dr e,L6T 3S1,brampton,on
William Osler Health System - Peel Memorial,6056,Hospitals,20,lynch street,L6W 2Z8,brampton,on
Wise Elephant Fht,6082,Ambulatory health care services,247,main street n,L6X 1N3,brampton,on
Woodhall Park Care Community,6093,Nursing and residential care facilities,10260,kennedy road n,L6Z 4N7,brampton,on
Woodhall Park Retirement Village,6094,Nursing and residential care facilities,10250,kennedy road,L6Z 4N7,brampton,on
