facility_name,index,odhf_facility_type,street_no,street_name,postal_code,city,province
Hamilton Health Sciences - Juravinski Hospital,3768,Hospitals,711,concession st,L8V 1C3,hamilton,on
Hamilton Health Sciences - St. Peter's Hospital,3771,Hospitals,88,maplewood avenue,L8M 1W9,hamilton,on
Hamilton Health Sciences - Ucc,3772,Hospitals,690,main street w,L8S 1A4,hamilton,on
Hamilton Jewish Home for the Aged - Shalom Village,3778,Ambulatory health care services,70,macklin street n,L8S 3S1,hamilton,on
Hamilton Networked Family Health Team,3779,Ambulatory health care services,10,george street,L8R 2K8,hamilton,on
Hamilton Program for Schizophrenia,3784,Ambulatory health care services,20,hughson street s,L8N 2A1,hamilton,on
Hamilton Public Health Services,3785,Ambulatory health care services,110,king street w,L8P 4S6,hamilton,on
Hamilton Urban Core Community Health Centre,3786,Ambulatory health care services,71,rebecca street,L8R 1B6,hamilton,on
Helen Zurbrigg Non-Profit Homes Inc.,3834,Ambulatory health care services,107,appleblossom drive,L9C 7P1,hamilton,on
Heritage Green Nursing Home,3844,Nursing and residential care facilities,353,isaac brock drive,L8J 2J3,hamilton,on
Heritage Green Retirement Home,3845,Nursing and residential care facilities,351,isaac brock drive,L8J 1Y1,hamilton,on
Highgate Residence,3856,Nursing and residential care facilities,325,fiddlers green road,L9G 1W9,hamilton,on
Idlewyld Manor,3976,Nursing and residential care facilities,449,sanatorium road,L9C 2A7,hamilton,on
Kingsberry Place Seniors Residence,4070,Nursing and residential care facilities,1221,limeridge road e,L8W 1Y1,hamilton,on
Lakeview Retirement Centre,4137,Nursing and residential care facilities,339,hamilton regional road 8,L8G 1E7,hamilton,on
Macassa Lodge,4232,Nursing and residential care facilities,701,upper sherman avenue,L8V 3M7,hamilton,on
Macassa Lodge Adult Day Program,4233,Ambulatory health care services,41,south street w,L9H 4C4,hamilton,on
March of Dimes Canada - Hamilton,4303,Ambulatory health care services,1550,upper james street,L9B 2L6,hamilton,on
Mcmaster Fht,4345,Ambulatory health care services,100,main street w,L8P 1H6,hamilton,on
Meadowlands Retirement Residence,4351,Nursing and residential care facilities,1248,mohawk road,L9K 1P5,hamilton,on
Mental Health Rights Coalition of Hamilton,4371,Ambulatory health care services,100,main street e,L8N 3W4,hamilton,on
"Mission Services of Hamilton, Inc.",4399,Nursing and residential care facilities,196,wentworth street n,L8L 5V7,hamilton,on
Montgomery Retirement Home,4425,Nursing and residential care facilities,1605,main street e,L8H 1C4,hamilton,on
New Village Retirement Home,4471,Nursing and residential care facilities,490,hamilton regional road 8,L8G 1G6,hamilton,on
North Hamilton Community Health Centre,4535,Ambulatory health care services,554,john street n,L8L 4S1,hamilton,on
North Hamilton Community Health Centre Css,4536,Ambulatory health care services,438,hughson street n,L8L 4N4,hamilton,on
Northview Senior's Residence,4604,Nursing and residential care facilities,19,aikman avenue,L8M 1P6,hamilton,on
Ontario March of Dimes - Halton Region - Rehab Fdn for the Disabled,4664,Ambulatory health care services,50,king street e,L8N 1A6,hamilton,on
Orchard Terrace Care Centre,4669,Nursing and residential care facilities,199,glover road,L8E 5J2,hamilton,on
Parkview Nursing Centre,4713,Nursing and residential care facilities,545,king street w,L8P 1C1,hamilton,on
Pine Villa Nursing Home,4780,Nursing and residential care facilities,490,hamilton regional road 8,L8G 1G6,hamilton,on
Queen's Garden,4854,Nursing and residential care facilities,80,queen street n,L8R 3P6,hamilton,on
Regina Gardens,4907,Nursing and residential care facilities,536,upper paradise road,L9C 5E3,hamilton,on
Ridgeview,5023,Nursing and residential care facilities,385,highland road w,L8J 3X9,hamilton,on
Rosslyn Retirement Residence,5066,Nursing and residential care facilities,1322,king street e,L8M 1H3,hamilton,on
Seasons Stoney Creek,5171,Nursing and residential care facilities,8,shoreview place,L8E 0J6,hamilton,on
Seniors Activation Maintenance Program of Hamilton Inc.,5185,Ambulatory health care services,10,pearl street n,L8R 2Y8,hamilton,on
St. Elizabeth Retirement Residence,5406,Nursing and residential care facilities,391,rymal road w,L9B 1V2,hamilton,on
St. Joseph's Healthcare - Charlton Campus,5431,Hospitals,50,charlton ave e,L8N 4A6,hamilton,on
St. Joseph's Healthcare - West 5th Campus,5432,Hospitals,100,west 5 st,L8N 3K7,hamilton,on
St. Joseph's Healthcare Hamilton,5433,Hospitals,100,james street s,L8P 2Z2,hamilton,on
St. Joseph's Healthcare Hamilton - King Campus,5435,Hospitals,2757,king street e,L8G 5E4,hamilton,on
St. Joseph's Home Care,5436,Ambulatory health care services,1550,upper james street,L9B 2L6,hamilton,on
St. Joseph's Villa (Dundas),5443,Ambulatory health care services,56,governors road,L9H 5G7,hamilton,on
St. Matthew's House,5463,Nursing and residential care facilities,785,britannia avenue,L8H 2B6,hamilton,on
Tara Retirement Home,5551,Nursing and residential care facilities,843,mohawk road e,L8T 2R4,hamilton,on
the Cardinal Retirement Residence,5593,Nursing and residential care facilities,10,herkimer street,L8P 2G2,hamilton,on
the Carlisle Retirement Residence,5594,Nursing and residential care facilities,467,main street e,L8N 1K1,hamilton,on
the Salvation Army Mountberry Adult Day Service,5682,Ambulatory health care services,1050,paramount drive,L8J 1P8,hamilton,on
