facility_name,index,odhf_facility_type,street_no,street_name,postal_code,city,province
Afton Park Place Long Term Care Community,2435,Nursing and residential care facilities,1200,afton drive,N7S 6L6,sarnia,on
Alzheimer Society of Sarnia-Lambton,2496,Ambulatory health care services,420,east street n,N7T 6Y5,sarnia,on
Bluewater Health,2677,Hospitals,89,norman st,N7T 6S3,sarnia,on
Family Counselling Centre,3543,Ambulatory health care services,1086,modeland road,N7S 6L2,sarnia,on
Landmark Village Signature Retirement Community,4150,Nursing and residential care facilities,1370,l'heritage drive,N7S 6H8,sarnia,on
March of Dimes Canada - Sarnia,4306,Ambulatory health care services,1086,modeland road,N7S 6L2,sarnia,on
Marshall Gowland Manor,4327,Nursing and residential care facilities,749,devine street,N7T 1X3,sarnia,on
Ontario March of Dimes - Chatham Branch,4663,Ambulatory health care services,150,north christina street,N7T 7W5,sarnia,on
Rapids Fht,4885,Ambulatory health care services,1150,pontiac drive,N7S 3A7,sarnia,on
Rosewood Village,5063,Nursing and residential care facilities,711,indian road n,N7T 7Z5,sarnia,on
Sarnia & District Senior Volunteer Community Services,5119,Ambulatory health care services,180,north college avenue,N7T 7X2,sarnia,on
Sumac Lodge,5502,Nursing and residential care facilities,1464,blackwell road,N7S 5M4,sarnia,on
"the Canadian Red Cross, Ontario Zone, Sarnia-Lambton Branch",5592,Ambulatory health care services,416,east street n,N7T 6Y4,sarnia,on
Trillium Villa Nursing Home,5807,Nursing and residential care facilities,1221,michigan avenue,N7S 3Y3,sarnia,on
Twin Bridges,5823,Ambulatory health care services,109,crawford street,N7T 2Y7,sarnia,on
Twin Lakes Terrace Long Term Care Community,5824,Nursing and residential care facilities,1310,murphy road,N7S 6K5,sarnia,on
Twin Lakes Village,5825,Nursing and residential care facilities,1310,murphy road,N7S 2Y6,sarnia,on
Village on the St. Clair,5927,Nursing and residential care facilities,170,front street s,N7T 2M5,sarnia,on
Vision Nursing Home,5931,Nursing and residential care facilities,229,wellington street,N7T 1G9,sarnia,on
