facility_name,index,odhf_facility_type,street_no,street_name,postal_code,city,province
Aboriginal Community Based Non-Residential Mental Health Services (Css),2416,Ambulatory health care services,161,applegrove street,P3C 1N2,sudbury,on
Alzheimer Society Sudbury-Manitoulin,2505,Ambulatory health care services,960,notre dame avenue,P3A 2T4,sudbury,on
Canadian Hearing Society - Sudbury,2778,Ambulatory health care services,1233,paris street,P3E 3B6,sudbury,on
Canadian Mental Health Association (Cmha) Sudbury - Manitoulin Branch,2804,Ambulatory health care services,111,elm street,P3C 1T3,sudbury,on
Canadian Red Cross - Sudbury Branch,2820,Ambulatory health care services,1460,fairburn street,P3A 1N7,sudbury,on
Capreol Nurse Practitioner-Led Clinic,2835,Ambulatory health care services,49,young street,P0M 1H0,capreol,on
CENTRE DE SANTÉ COMMUNAUTAIRE DE SUDBURY,2947,Ambulatory health care services,19,frood road,P3C 4Y9,sudbury,on
Chartwell Meadowbrook Retirement Community,3032,Nursing and residential care facilities,18,jacobson drive,P3Y 1P7,sudbury,on
Chartwell Southwind Retirement Residence,3091,Nursing and residential care facilities,1645,paris street,P3E 6L5,sudbury,on
Chartwell Westmount on William Retirement Residence,3109,Nursing and residential care facilities,599,william avenue,P3A 5E3,sudbury,on
City of Lakes Family Health Team,3166,Ambulatory health care services,960,notre dame avenue,P3A 2T4,sudbury,on
Cnib - Sudbury & Manitoulin District,3201,Ambulatory health care services,303,york street,P3E 2A5,sudbury,on
Elizabeth Centre,3449,Nursing and residential care facilities,2100,main street,P3N 1S7,sudbury,on
Extendicare Falconbridge,3490,Nursing and residential care facilities,281,falconbridge road,P3A 5K4,sudbury,on
Extendicare York,3520,Nursing and residential care facilities,333,york street,P3E 5J3,sudbury,on
Finlandia Hoivakoti Nursing Home,3560,Nursing and residential care facilities,233,fourth avenue,P3B 4C3,sudbury,on
Greater City of Sudbury Program for Community Living,3690,Ambulatory health care services,15,kin drive,P3Y 1N1,sudbury,on
Health Sciences North - Ramsey Lake Health Centre,3823,Hospitals,41,ramsey lake rd,P3E 5J1,sudbury,on
North Bay Regional Health Centre - Kirkwood,3824,Hospitals,680,kirkwood dr,P3E 1X3,sudbury,on
Ican-Independence Centre and Network,3975,Ambulatory health care services,765,brennan road,P3C 1C4,sudbury,on
Lasalle Residence for Seniors,4159,Nursing and residential care facilities,1758,lasalle boulevard,P3A 5W4,sudbury,on
MAISON DE SOINS PALLIATIFS DE SUDBURY HOSPICE,4249,Ambulatory health care services,1028,south bay road,P3E 6J7,sudbury,on
March of Dimes Canada - Sudbury,4307,Ambulatory health care services,96,larch street,P3E 1C1,sudbury,on
Monarch Recovery Services,4420,Ambulatory health care services,17,frood road,P3C 4Y9,sudbury,on
n'Swakamok Native Friendship Centre,4454,Ambulatory health care services,110,elm street,P3C 1T5,sudbury,on
North East Community Care Access Centre (Css),4532,Ambulatory health care services,40,elm street,P3C 1S8,sudbury,on
Northern Ontario School of Medicine,4597,Ambulatory health care services,935,ramsey lake road,P3E 2C6,sudbury,on
Palliative Caregivers Sudbury/Manitoulin,4694,Ambulatory health care services,303,york street,P3E 2A5,sudbury,on
Pioneer Manor,4792,Nursing and residential care facilities,960,notre dame avenue,P3A 2T4,sudbury,on
Red Oak Villa,4897,Nursing and residential care facilities,20,ste anne road,P3C 5N4,sudbury,on
Regent Manor,4905,Nursing and residential care facilities,1315,regent street,P3E 3Z1,sudbury,on
Shkagamik-Kwe Health Centre,5234,Ambulatory health care services,161,applegrove street,P3C 1N2,sudbury,on
St. Gabriel's Villa of Sudbury,5408,Nursing and residential care facilities,4690,regional road 15,P0M 1L0,sudbury,on
St. Joseph’s Health Centre of Sudbury,5421,Hospitals,1140,south bay road,P3E 0B6,sudbury,on
"St. Joseph's Villa, Sudbury",5444,Nursing and residential care facilities,1250,south bay road,P3E 6L9,sudbury,on
Sudbury and District Health Unit,5500,Ambulatory health care services,1300,paris street,P3E 3A3,sudbury,on
Sudbury District Nurse Practitioner Clinics,5501,Ambulatory health care services,359,riverside drive,P3E 1H5,sudbury,on
the Amberwood Suites,5566,Nursing and residential care facilities,1385,regent street s,P3E 3Z1,sudbury,on
the Walford on the Park (Copper Cliff),5714,Nursing and residential care facilities,38,godfrey drive,P0M 1N0,sudbury,on
the Walford Sudbury,5715,Nursing and residential care facilities,99,walford road,P3E 6K3,sudbury,on
Ukrainian Seniors' Centre of Sudbury Inc.,5831,Ambulatory health care services,30,notre dame avenue,P3C 5K2,sudbury,on
Von - Ontario Branch - Greater Sudbury Site,5940,Ambulatory health care services,2140,regent street s,P3E 5S8,sudbury,on
