facility_name,index,odhf_facility_type,street_no,street_name,postal_code,city,province
Algoma Family Services,2447,Hospitals,205,mcnabb street,P6B 1Y3,sault ste marie,on
Algoma Nurse Practitioner-Led Clinic,2451,Ambulatory health care services,443,northern avenue e,P6B 5L3,sault ste marie,on
Algoma Public Health Unit,2453,Ambulatory health care services,294,willow avenue,P6B 0A9,sault ste marie,on
Algoma Substance Abuse Rehabilitation Centre,2454,Nursing and residential care facilities,126,queen street e,P6A 1Y5,sault ste marie,on
Alzheimer Society of Sault Ste. Marie and Algoma,2497,Ambulatory health care services,341,trunk road,P6A 3S9,sault ste marie,on
Canadian Hearing Society - Sault Ste. Marie,2777,Ambulatory health care services,130,queen street e,P6A 1Y5,sault ste marie,on
Canadian Red Cross - Sault Ste. Marie and District,2819,Ambulatory health care services,105,allard street,P6B 5G2,sault ste marie,on
Cedarwood Lodge,2919,Nursing and residential care facilities,860,great northern road,P6B 0B5,sault ste marie,on
Chartwell Collegiate Heights Retirement Residence,2998,Nursing and residential care facilities,95,fauquier avenue,P6B 2B2,sault ste marie,on
Extendicare Maple View of Sault Ste. Marie,3502,Nursing and residential care facilities,650,northern avenue,P6B 4J3,sault ste marie,on
Extendicare Van Daele,3518,Nursing and residential care facilities,39,van daele street,P6B 4V3,sault ste marie,on
f. j. Davey Home,3523,Nursing and residential care facilities,733,third line e,P6A 7C1,sault ste marie,on
Great Northern Retirement Home,3689,Nursing and residential care facilities,760,great northern road,P6B 0B5,sault ste marie,on
Mauno Kaihla Koti,4334,Nursing and residential care facilities,723,north street,P6B 6G8,sault ste marie,on
Missanabie Cree First Nation,4398,Ambulatory health care services,174,highway 17,P6A 6Z1,sault ste marie,on
Ontario Finnish Resthome Association,4662,Ambulatory health care services,725,north street,P6B 5Z3,sault ste marie,on
Ontario Native Welfare Administrators' Association,4665,Ambulatory health care services,150,churchill boulevard,P6A 6W3,sault ste marie,on
Pathways Retirement Residence,4726,Nursing and residential care facilities,375,trunk road,P6A 6T5,sault ste marie,on
Phoenix Rising Non-Profit Homes and Women's Centre Inc.,4771,Nursing and residential care facilities,2,manitou drive,P6B 6G5,sault ste marie,on
Sault Area Hospital,5123,Hospitals,750,great northern rd,P6B 0A8,sault ste marie,on
Sault Ste. Marie Alcohol Recovery Home Inc.,5126,Nursing and residential care facilities,8,herrick street,P6A 2T4,sault ste marie,on
Superior Family Health Team,5536,Ambulatory health care services,765,queen street e,P6A 2A8,sault ste marie,on
Von - Algoma Branch,5939,Ambulatory health care services,7,oxford street,P6B 1R7,sault ste marie,on
Women in Crisis (Algoma) Inc.,6084,Nursing and residential care facilities,23,oakland avenue,P6A 2T2,sault ste marie,on
