facility_name,index,odhf_facility_type,street_no,street_name,postal_code,city,province
Langley Gardens,1041,Nursing and residential care facilities,8888,202 st,V1M 4A7,langley,bc
Langley Memorial Hospital,1043,Hospitals,22051,fraser hwy,V3A 4H4,langley,bc
Manuel House,1092,Nursing and residential care facilities,1709,232 st,V2Z 1K7,langley,bc
Murals Medical Clinic,1182,Ambulatory health care services,100-22314,fraser highway,V3A 8M6,langley,bc
Murrayville Manor,1184,Nursing and residential care facilities,21616,46 ave,V3A 3J4,langley,bc
Ng Nair Place,1205,Nursing and residential care facilities,23390,47 ave,V2Z 2S3,langley,bc
Orion House,1254,Nursing and residential care facilities,20395,42 ave,V3A 3A6,langley,bc
Ruby Willows Health Care Ltd,1454,Nursing and residential care facilities,6721,238 st,V2Y 2H5,langley,bc
Safa Medical Clinic,1461,Ambulatory health care services,2574352,202 street,V1M 4A7,langley,bc
Tall Timbers Residence,1589,Nursing and residential care facilities,24156,56 ave,V2Z 2N9,langley,bc
the Classic Homestead - East,1608,Nursing and residential care facilities,20445,73a ave,V2Y 1V1,langley,bc
the Classic Homestead - West,1609,Nursing and residential care facilities,20433,73a ave,V2Y 1V1,langley,bc
Twenty Sixth Avenue Home,1683,Nursing and residential care facilities,27134,26 ave,V4W 3N6,aldergrove,bc
Valley Centre Medical Clinic,1700,Ambulatory health care services,19851,willowbrook drive,V2Y 1A7,langley,bc
Village Langley (the),1738,Nursing and residential care facilities,3920,198 st,V3A 1C8,langley,bc
Willoughby Medical Centre,1796,Ambulatory health care services,20202,66 avenue,V2Y 1P3,langley,bc
Willowbrook Medical Clinic,1800,Ambulatory health care services,19653,willowbrook drive,V2Y 1A5,langley,bc
216a Street,344,Nursing and residential care facilities,8983,216a st,V1M 4C7,langley,bc
88th,360,Nursing and residential care facilities,23124,88 ave,V1M 2R4,langley,bc
Belmont Residence,456,Nursing and residential care facilities,3975,202 st,V3A 1R9,langley,bc
Bethesda Langley Home,469,Nursing and residential care facilities,20477,93a ave,V1M 1B8,langley,bc
Brookswood Court,513,Nursing and residential care facilities,3830,200 st,V3A 1K2,langley,bc
Chelsey House 2003 Ltd,594,Nursing and residential care facilities,4544,216 st,V3A 2M4,langley,bc
Classic Homestead - South,614,Nursing and residential care facilities,3364,196 st,V3A 4T7,langley,bc
Fernridge Place,777,Nursing and residential care facilities,2107,200 st,V2Z 1Z6,langley,bc
Five Corners Residence,786,Nursing and residential care facilities,21451,old yale rd,V3A 4M6,langley,bc
Fraser Highway Medical Clinic,808,Ambulatory health care services,27109,fraser highway,V4W 3R2,aldergrove,bc
Graceland Gates,871,Nursing and residential care facilities,6587,238 st,V2Y 2H5,langley,bc
Jackman Manor,959,Nursing and residential care facilities,27477,28 ave,V4W 3L9,aldergrove,bc
