facility_name,index,odhf_facility_type,street_no,street_name,postal_code,city,province
Kimbelee Place,1000,Nursing and residential care facilities,12935,96 ave,V3V 7K6,surrey,bc
Kings House,1006,Nursing and residential care facilities,8512,164 st,V4N 1E5,surrey,bc
Kinsmen Lodge,1007,Nursing and residential care facilities,9650,137a st,V3T 4H9,surrey,bc
Kwantlen Medical Clinic,1026,Ambulatory health care services,12818,72 avenue,V3W 2M9,surrey,bc
Laurel Place Care Centre,1052,Nursing and residential care facilities,9688,137a st,V3T 4H9,surrey,bc
Manchenda Medical Clinic,1088,Ambulatory health care services,7550,king george boulevard,V3W 2T2,surrey,bc
Mercy Canada,1138,Nursing and residential care facilities,19465,16 ave,V3Z 9V2,surrey,bc
Morgan Place,1161,Nursing and residential care facilities,3288,156a st,V3Z 9T1,surrey,bc
New Greenwood Lodge,1198,Nursing and residential care facilities,13227,96 ave,V3V 1Y5,surrey,bc
Newgen Medical Centre,1201,Ambulatory health care services,104-6321,king george boulevard,V3X 1G1,surrey,bc
Ninety Fifth Avenue House,1211,Nursing and residential care facilities,15293,95 ave,V3R 9C5,surrey,bc
One Hundred & Forty Three a Street Home,1236,Nursing and residential care facilities,8689,143a st,V3W 0K4,surrey,bc
One Hundred and Fifty Eight a Street,1237,Nursing and residential care facilities,10607,158a st,V4N 3J2,surrey,bc
One Hundred and Fifty Four Street Group Home,1238,Nursing and residential care facilities,1660,154 st,V4A 4R9,surrey,bc
One Hundred and Thirty First Street Home,1239,Nursing and residential care facilities,9643,131 st,V3T 3P4,surrey,bc
Panorama Village Medical Clinic,1269,Ambulatory health care services,15157,56 avenue,V3S 9A5,surrey,bc
Parklandview,1287,Nursing and residential care facilities,8833,158 st,V4N 2Y7,surrey,bc
Parktree House,1290,Nursing and residential care facilities,12229,parktree cres,V3X 1Z9,surrey,bc
Path to Freedom Treatment Centre Ltd.,1296,Nursing and residential care facilities,19030,56 ave,V3S 4N7,surrey,bc
Peace Portal Seniors Village,1302,Nursing and residential care facilities,15441,16 ave,V4A 8T8,surrey,bc
Peninsula Medical Clinic,1310,Ambulatory health care services,15388,24 avenue,V4A 2J2,surrey,bc
Phoenix Center Quibble Creek,1314,Nursing and residential care facilities,13670,94a ave,V3V 1N1,surrey,bc
Rainbow Manor,1377,Nursing and residential care facilities,10118,159a st,V4N 2P9,surrey,bc
Residence at Morgan Heights,1386,Nursing and residential care facilities,15955,27 ave,V3S 3W3,surrey,bc
Rosemary Heights Seniors Village,1437,Nursing and residential care facilities,15240,34 ave,V3Z 2J9,surrey,bc
Sharondale Lodge,1486,Nursing and residential care facilities,17826,57 ave,V3S 1H3,surrey,bc
South Surrey Medical Clinic,1530,Ambulatory health care services,101-15850,26 avenue,V3Z 2N6,surrey,bc
Stayte House,1560,Nursing and residential care facilities,1290,160 st,V4A 4W8,surrey,bc
Sullivan Medical Clinic,1566,Ambulatory health care services,108-15325,56 avenue,V3S 0X9,surrey,bc
Suncreek Village,1571,Nursing and residential care facilities,13687,62 ave,V3X 0B5,surrey,bc
Suncrest Retirement Community,1572,Nursing and residential care facilities,2567,king george blvd,V4P 1H5,surrey,bc
Surrey Memorial Hospital,1582,Hospitals,13750,96 ave,V3V 1Z2,surrey,bc
the Chrysalis 22,1607,Nursing and residential care facilities,14122,113 ave,V3R 7H1,surrey,bc
the Clinic at Clayton Heights,1610,Ambulatory health care services,103-7170,188 street,V4N 6R4,surrey,bc
the Ellendale Treatment Program - Liz's Place,1614,Nursing and residential care facilities,11187,ellendale dr,V3R 0A3,surrey,bc
the Residence at Clayton Heights,1636,Nursing and residential care facilities,18788,71 ave,V4N 6L9,surrey,bc
Triton Medical Clinic,1672,Ambulatory health care services,102-12565,88 avenue,V3W 3J7,surrey,bc
Veralife Health Centre,1723,Ambulatory health care services,104-15122,72 avenue,V3S 2G2,surrey,bc
West Shore Laylum,1767,Nursing and residential care facilities,2567,king george blvd,V4P 0E9,surrey,bc
Westminster House,1773,Nursing and residential care facilities,1653,140 st,V4A 4H1,surrey,bc
Whitecliff Retirement Residence,1786,Nursing and residential care facilities,15501,16 ave,V4A 9M5,surrey,bc
Yale House,1814,Nursing and residential care facilities,13107,old yale rd,V3T 3C3,surrey,bc
Zion Park Manor,1823,Nursing and residential care facilities,5939,180 st,V3S 4L2,surrey,bc
13333 - 20th Avenue,339,Nursing and residential care facilities,13333,20 ave,V4A 1Z3,surrey,bc
5960 Angus Place,355,Nursing and residential care facilities,5960,angus pl,V3S 4W7,surrey,bc
5984 - 191a Street,356,Nursing and residential care facilities,5984,191a st,V3S 7N1,surrey,bc
Amica White Rock,399,Nursing and residential care facilities,15333,16 ave,V4A 1R6,surrey,bc
Archway House,411,Nursing and residential care facilities,5933,168 st,V3S 3X5,surrey,bc
Aster House,419,Nursing and residential care facilities,15625,aster rd,V4A 1Y4,surrey,bc
