facility_name,index,odhf_facility_type,street_no,street_name,postal_code,city,province
Vancouver Detoxification Centre,1705,Nursing and residential care facilities,377,e 2 ave,V5T 1B9,vancouver,bc
Vancouver General Hospital,1706,Hospitals,899,w 12 ave,V5Z 1M9,vancouver,bc
Vancouver General Hospital - Gordon and Leslie Diamond Health Care Centre,1708,Hospitals,2775,laurel street,V5Z 1M9,vancouver,bc
Vancouver General Hospital - Health Centre,1709,Hospitals,715,west 12 avenue,V5Z 1N1,vancouver,bc
Vancouver Hospice,1715,Nursing and residential care facilities,4615,granville st,V6H 3M1,vancouver,bc
Venture,1722,Nursing and residential care facilities,220,e 13 ave,V5T 2K4,vancouver,bc
Victory House,1734,Nursing and residential care facilities,353,e cordova st,V6A 1L4,vancouver,bc
Villa Carital,1736,Nursing and residential care facilities,3050,penticton st,V5M 4W2,vancouver,bc
Villa Cathay Care Home,1737,Nursing and residential care facilities,970,union st,V6A 3V1,vancouver,bc
Virginia House,1740,Nursing and residential care facilities,1754,w 11 ave,V6J 2C3,vancouver,bc
Vista,1741,Nursing and residential care facilities,3360,fleming st,V5N 3V5,vancouver,bc
Waterloo Rest Home Ltd,1753,Nursing and residential care facilities,1835,waterloo st,V6R 3G5,vancouver,bc
Wave Medical Clinic,1754,Ambulatory health care services,201-1160,burrard street,V6Z 2E8,vancouver,bc
West 63rd Home,1761,Nursing and residential care facilities,369,w 63 ave,V5X 2J1,vancouver,bc
Windermere Care Centre,1803,Nursing and residential care facilities,900,w 12 ave,V5Z 1N3,vancouver,bc
Winston Manor,1806,Nursing and residential care facilities,2805,w 7 ave,V6K 1Z5,vancouver,bc
Woodvan,1810,Nursing and residential care facilities,1384,e 61 ave,V5X 2C7,vancouver,bc
Yaletown House,1815,Nursing and residential care facilities,1099,cambie st,V6B 5A8,vancouver,bc
Yaletown Medical Clinic,1817,Ambulatory health care services,1296,pacific boulevard,V6Z 2V1,vancouver,bc
Yew Residence,1819,Nursing and residential care facilities,6191,yew st,V6M 3Z1,vancouver,bc
Youville Residence,1820,Nursing and residential care facilities,4950,heather st,V5Z 3L9,vancouver,bc
Yyoung Medical Clinic and Pharmacy,1822,Ambulatory health care services,1721,main street,V5T 3B5,vancouver,bc
3381 Worthington,349,Nursing and residential care facilities,3381,worthington dr,V5M 3X8,vancouver,bc
38th Avenue Group Home,351,Nursing and residential care facilities,461,e 38 ave,V5W 1H8,vancouver,bc
47th Avenue Residence,352,Nursing and residential care facilities,1759,e 47 ave,V5P 1P6,vancouver,bc
6655a and 6655b Arlington Street,357,Nursing and residential care facilities,6655,arlington st,V5S 3P1,vancouver,bc
6699 Arlington,358,Nursing and residential care facilities,6699,arlington st,V5S 3P1,vancouver,bc
Adanac Park Lodge,375,Nursing and residential care facilities,851,boundary rd,V5K 4T2,vancouver,bc
Alder House,382,Nursing and residential care facilities,4349,victoria dr,V5N 4M9,vancouver,bc
Ananda House,400,Nursing and residential care facilities,1249,e 8 ave,V5T 1V3,vancouver,bc
Aquarius Medical Clinic,406,Ambulatory health care services,202-179,davie street,V6Z 2Y1,vancouver,bc
Banfield Pavilion - Vancouver General Hospital,431,Nursing and residential care facilities,2785,ash st,V5Z 1M9,vancouver,bc
Banyan House,433,Nursing and residential care facilities,4134,rupert st,V5R 2H4,vancouver,bc
Bc Women's Hospital and Health Centre,446,Hospitals,4500,oak street,V6H 3N1,vancouver,bc
Berman House,460,Nursing and residential care facilities,1400,lakewood dr,V5L 4M8,vancouver,bc
Birchwood House,483,Nursing and residential care facilities,4002,maple crescent,V6J 4B2,vancouver,bc
Blenheim Lodge,486,Nursing and residential care facilities,3263,blenheim st,V6L 2X7,vancouver,bc
Bridge House,501,Nursing and residential care facilities,1435,e 19 ave,V5N 2H9,vancouver,bc
Britannia Lodge,503,Nursing and residential care facilities,1090,victoria dr,V5L 4G2,vancouver,bc
British Columbia Children's Hospital,504,Hospitals,4480,oak st,V6H 3V4,vancouver,bc
Broadway House,505,Nursing and residential care facilities,4755,victoria dr,V5N 4P2,vancouver,bc
Broadway Pentecostal Lodge,506,Nursing and residential care facilities,1377,lameys mill rd,V6H 3S9,vancouver,bc
Broadway Station Medical Clinic,507,Ambulatory health care services,2516,commercial drive,V5N 4C2,vancouver,bc
Byron House,530,Nursing and residential care facilities,551,e 16 ave,V5T 2V1,vancouver,bc
Camille House,535,Nursing and residential care facilities,5,w 15 ave,V5Y 1X7,vancouver,bc
Care Point Medical and Wellness Clinics,549,Ambulatory health care services,1623,commercial drive,V5L 3Y3,vancouver,bc
Carolina House,561,Nursing and residential care facilities,4096,carolina st,V5V 4B7,vancouver,bc
Central City Lodge,578,Nursing and residential care facilities,415,w pender st,V6B 1V2,vancouver,bc
Champlain House,584,Nursing and residential care facilities,2810,e 51 ave,V5S 1R3,vancouver,bc
