facility_name,index,odhf_facility_type,street_no,street_name,postal_code,city,province
Maple Ridge House,1094,Nursing and residential care facilities,12210,232a st,V2X 0R2,maple ridge,bc
Maple Ridge Seniors Village,1095,Nursing and residential care facilities,22141,119 ave,V2X 2Y7,maple ridge,bc
Maple Ridge Treatment Centre,1096,Nursing and residential care facilities,22269,callaghan ave,V2X 2E2,maple ridge,bc
Meadowbrook,1127,Nursing and residential care facilities,12412,meadowbrook pl,V4R 2H6,maple ridge,bc
Pure Care Clinic,1357,Ambulatory health care services,105-22470,dewdney trunk road,V2X 5Z6,maple ridge,bc
Rainbow Ridge Special Care Home,1378,Nursing and residential care facilities,10666,277 st,V2W 1M7,maple ridge,bc
Ridge Meadows Hospital,1422,Hospitals,11666,laity st,V2X 5A3,maple ridge,bc
River Road Residence,1429,Nursing and residential care facilities,20972,river rd,V2X 1Z9,maple ridge,bc
Thornton,1648,Nursing and residential care facilities,11960,249a st,V4R 2E3,maple ridge,bc
Willow Manor Care Centre,1798,Nursing and residential care facilities,12275,224 st,V2X 6H5,maple ridge,bc
122nd Avenue Home,336,Nursing and residential care facilities,22229,122 ave,V2X 3X8,maple ridge,bc
123rd Home,338,Nursing and residential care facilities,20878,123 ave,V2X 4B2,maple ridge,bc
227th Home,345,Nursing and residential care facilities,12775,227 st,V2X 6K5,maple ridge,bc
Arborwynd,407,Nursing and residential care facilities,27136,112 ave,V2W 1P8,maple ridge,bc
Beckman House,451,Nursing and residential care facilities,12032,216 st,V2X 5J3,maple ridge,bc
Campbell Home,537,Nursing and residential care facilities,20139,telep ave,V2X 3M4,maple ridge,bc
Campbell House,538,Nursing and residential care facilities,21351,campbell ave,V2X 7G6,maple ridge,bc
Cedarvale (East),575,Nursing and residential care facilities,23635,118 ave,V4R 2C9,maple ridge,bc
Cook Avenue,646,Nursing and residential care facilities,21181,cook ave,V2X 7P7,maple ridge,bc
Cottonwood Medical Clinic,655,Ambulatory health care services,102-12005,238b street,V4R 1W1,maple ridge,bc
Fletcher 1,791,Nursing and residential care facilities,12062,fletcher st,V2X 6K9,maple ridge,bc
Innervisions Recovery Society Hannah House,949,Nursing and residential care facilities,11982,laity st,V2X 5A6,maple ridge,bc
