facility_name,index,odhf_facility_type,street_no,street_name,postal_code,city,province
Kinetic Energy Health and Wellness Centre,1002,Ambulatory health care services,207-450,lansdowne street,V2C 1Y4,kamloops,bc
Marjorie Willoughby Snowden Memorial Hospice Home,1108,Nursing and residential care facilities,72,whiteshield crescent s,V2E 2S9,kamloops,bc
Mcarthur Home,1117,Nursing and residential care facilities,794-796,mcarthur drive,V2B 8L9,kamloops,bc
Mcbride Place,1119,Nursing and residential care facilities,878,mcbride street,V2B 5S3,kamloops,bc
Orcrest Group Home,1248,Nursing and residential care facilities,860,orcrest dr,V2B 6T2,kamloops,bc
Ord Road Group Home,1249,Nursing and residential care facilities,3510,ord road,V2B 8B6,kamloops,bc
Oriole House,1252,Nursing and residential care facilities,1080,holt st,V2B 5H2,kamloops,bc
Phoenix Centre,1315,Nursing and residential care facilities,922,3 ave,V2C 6W5,kamloops,bc
Pine Grove Lodge,1319,Nursing and residential care facilities,313,mcgowan avenue,V2B 2N8,kamloops,bc
Ponderosa Lodge,1330,Nursing and residential care facilities,425,columbia st,V2C 2T4,kamloops,bc
Ridgeview Lodge,1424,Nursing and residential care facilities,920,desmond street,V2B 5K6,kamloops,bc
River House,1428,Nursing and residential care facilities,611,enzo rd,V2B 0E6,kamloops,bc
Royal Inland Hospital,1451,Hospitals,311,columbia st,V2C 2T1,kamloops,bc
Sage Health Centre,1462,Nursing and residential care facilities,101,columbia st w,V2C 2S7,kamloops,bc
Sandalwood Adult Intensive Care Facility,1469,Nursing and residential care facilities,2965,westsyde rd,V2B 7E7,kamloops,bc
Selkirk Family Care Home,1478,Nursing and residential care facilities,1120,selkirk ave,V2B 1V6,kamloops,bc
South Hills Tertiary Psychiatric Rehabilitation Centre,1527,Nursing and residential care facilities,200 945,southill st,V2B 7Z9,kamloops,bc
Springridge Group Home,1538,Nursing and residential care facilities,788,springridge pl,V2E 1C8,kamloops,bc
the Hamlets at Westsyde,1627,Nursing and residential care facilities,3255,overlander drive,V2B 0A5,kamloops,bc
Waddington Group Home,1745,Nursing and residential care facilities,141,waddington dr,V2E 1P7,kamloops,bc
Westsyde Care Annex,1776,Nursing and residential care facilities,2980,westsyde road,V2B 7E9,kamloops,bc
Alexis Home,385,Nursing and residential care facilities,1561,alexis ave,V2B 4L1,kamloops,bc
Berwick on the Park,463,Nursing and residential care facilities,60,whiteshield crescent s,V2E 2S9,kamloops,bc
Bissette,485,Nursing and residential care facilities,625,bissette road,V2B 6L3,kamloops,bc
Brocklehurst Gemstone Care Centre,509,Nursing and residential care facilities,1955,tranquille rd,V2B 3M4,kamloops,bc
Dufferin Group Home,716,Nursing and residential care facilities,1423,mt dufferin dr,V2E 1A1,kamloops,bc
Garden Manor Rest Home,820,Nursing and residential care facilities,63,nicola st w,V2C 1J5,kamloops,bc
Gaumont Residence,828,Nursing and residential care facilities,1070,north glen dr,V2B 5C1,kamloops,bc
Highridge House,922,Nursing and residential care facilities,1099,singh st,V2B 5E2,kamloops,bc
Hillside Centre,925,Nursing and residential care facilities,311,columbia st,V2C 2T1,kamloops,bc
Kamloops Seniors Village,984,Nursing and residential care facilities,1220,hugh allan dr,V1S 2B3,kamloops,bc
Kamloops Urgent Care Clinic,985,Ambulatory health care services,4-910,columbia street w,V2C 1L2,kamloops,bc
