facility_name,index,odhf_facility_type,street_no,street_name,postal_code,city,province
Lakeshore Medical Centre,1036,Ambulatory health care services,2280,baron road,V1X 7W3,kelowna,bc
Mariposa Court,1106,Nursing and residential care facilities,3419,mariposa court,V1X 2S9,kelowna,bc
Mcculloch Residence,1121,Nursing and residential care facilities,5500,mcculloch rd,V1W 4G1,kelowna,bc
Medi-Kel,1128,Ambulatory health care services,1715,ellis street,V1Y 8M9,kelowna,bc
Mission Creek Landing Ltd.,1154,Nursing and residential care facilities,3081,hall rd,V1W 2R5,kelowna,bc
Mission Medical Centre,1156,Ambulatory health care services,102-3320,richter street,V1W 4V5,kelowna,bc
Orchard Manor at Hawthorn Park,1244,Nursing and residential care facilities,3221,casorso rd,V1Y 3J5,kelowna,bc
Orchard Medical Centre,1245,Ambulatory health care services,104-1990,cooper road,V1Y 8K5,kelowna,bc
Ozanam House,1261,Nursing and residential care facilities,2629,richter st,V1Y 2R3,kelowna,bc
Roslin House,1441,Nursing and residential care facilities,1733,highland dr n,V1Y 4K9,kelowna,bc
Rote Scheune Acres,1445,Nursing and residential care facilities,2222,saucier rd,V1W 4B8,kelowna,bc
Smithson Place Home,1521,Nursing and residential care facilities,1615,smithson pl,V1Y 8N5,kelowna,bc
Solly Court,1522,Nursing and residential care facilities,810,solly court,V1X 5W8,kelowna,bc
Spall Medical Centre,1534,Ambulatory health care services,150-1940,harvey avenue,V1Y 8J8,kelowna,bc
Spring Valley Care Centre,1537,Nursing and residential care facilities,355,terai court,V1X 5X6,kelowna,bc
Sun Pointe Village in Rutland,1570,Nursing and residential care facilities,700,rutland rd n,V1X 7W8,kelowna,bc
Three Links Manor,1651,Nursing and residential care facilities,1449,kelglen crescent,V1Y 8P4,kelowna,bc
Villeneuve House,1739,Nursing and residential care facilities,1400,cherry crescent e,V1Y 3Y3,kelowna,bc
Wallace Road Duplex,1747,Nursing and residential care facilities,250-254,wallace rd,V1X 4T1,kelowna,bc
White Heather Manor,1784,Nursing and residential care facilities,3728,casorso rd,V1W 4M8,kelowna,bc
Avonlea Care Centre Ltd,423,Nursing and residential care facilities,1658,blondeaux crescent,V1Y 4J7,kelowna,bc
Brandt's Creek Mews,497,Nursing and residential care facilities,2081,cross road,V1V 2G2,kelowna,bc
Brookvale Care Centre Ltd,514,Nursing and residential care facilities,1820,marshall st,V1Y 2B7,kelowna,bc
Caramillo Heights,548,Nursing and residential care facilities,547,caramillo ct,V1V 2K9,kelowna,bc
Central Okanagan Hospice House,579,Nursing and residential care facilities,2035,ethel st,V1Y 2Z6,kelowna,bc
Coronation Home,652,Nursing and residential care facilities,1009,coronation avenue,V1Y 7A8,kelowna,bc
David Lloyd Jones Home,684,Nursing and residential care facilities,934,bernard ave,V1Y 6P8,kelowna,bc
Eso Court,756,Nursing and residential care facilities,4225,eso ct,V1W 4A4,kelowna,bc
Felix Road,774,Nursing and residential care facilities,295,felix rd,V1X 6X8,kelowna,bc
Glenmore Lodge,843,Nursing and residential care facilities,325,drysdale blvd,V1V 1P5,kelowna,bc
"Good Samaritan Canada, Mountainview Village",862,Nursing and residential care facilities,3070,burtch rd,V1W 5G2,kelowna,bc
Hillside Medical Clinic,928,Ambulatory health care services,114-1920,summit drive,V1V 3E9,kelowna,bc
Kelowna General Hospital,990,Hospitals,2268,pandosy st,V1Y 1T2,kelowna,bc
