facility_name,index,odhf_facility_type,street_no,street_name,postal_code,city,province
Leonard Place,1055,Nursing and residential care facilities,4761,leonard pl,V2M 6Z5,prince george,bc
Lisgar Residence,1060,Nursing and residential care facilities,2471,lisgar cres,V2N 1C4,prince george,bc
Nechako Center - Adult,1190,Nursing and residential care facilities,1308,alward st,V2M 7B1,prince george,bc
Nechako Medical Clinic,1191,Ambulatory health care services,143-1600,15 avenue,V2L 3X3,prince george,bc
Ospika Residence,1255,Nursing and residential care facilities,2690,ospika blvd s,V2N 2L8,prince george,bc
Parkside Intermediate Care Home,1289,Nursing and residential care facilities,788,ospika blvd,V2M 6W5,prince george,bc
Prince George Regional Hospital,1345,Hospitals,1475,edmonton st,V2M 1S2,prince george,bc
Quince Street Residence,1370,Nursing and residential care facilities,2012,quince st,V2L 5B4,prince george,bc
Radcliffe Residence,1374,Nursing and residential care facilities,501,radcliffe dr,V2M 3N5,prince george,bc
Rotary Hospice House,1443,Nursing and residential care facilities,3089,clapperton st,V2L 5N4,prince george,bc
Salveo Medical Clinic,1467,Ambulatory health care services,2155,ferry avenue,V2N 5E8,prince george,bc
St Catherine's Community Home,1540,Nursing and residential care facilities,6899,ogrady rd,V2N 4Z1,prince george,bc
University of Northern British Columbia,1695,Ambulatory health care services,3333,university way,V2N 4Z9,prince george,bc
Birchview Residences,482,Nursing and residential care facilities,7780,hart hwy,V2K 3B3,prince george,bc
Burden Residential Home,522,Nursing and residential care facilities,1680,burden st,V2M 2J8,prince george,bc
Campbell,536,Nursing and residential care facilities,4057,campbell ave,V2M 5A3,prince george,bc
Corless Crescent,649,Nursing and residential care facilities,238,corless cres,V2M 5X9,prince george,bc
Davis Drive,685,Nursing and residential care facilities,4237,davis rd,V2N 6M6,prince george,bc
Flamingo Road,787,Nursing and residential care facilities,8244,flamingo rd,V2N 2J1,prince george,bc
Gateway Lodge Complex Care,827,Nursing and residential care facilities,1488,20 ave,V2L 0A5,prince george,bc
Gorse Street Residence,868,Nursing and residential care facilities,1945,gorse st,V2L 1G7,prince george,bc
Hazelton Residence,910,Nursing and residential care facilities,2554,hazelton st,V2L 1H2,prince george,bc
