Index,Facility_Name,Facility_Type,Street_No,Street_Name,City,Prov_Terr,Postal_Code
24872f2bc3169f5361d5,ARBORG EARLY/MIDDLE YEARS SCHOOL,..,,,ARBORG,MB,R0C0A0
248e9a9a11777c983c49,JUNIPER SCHOOL,..,306,juniper drive,THOMPSON,MB,R8N0S9
2494189ce2cbca9ffbdd,Cleland Hutterite School,..,,,ROSETOWN,SK,S0L2V0
24a724577040f597c977,T'lisalagi'lakw School,Independent School,,,Alert Bay,BC,V0N1A0
24b0b6b0fcded9adc4ab,Sylvan Meadow Adventist School,Private School,,rr1 site 4 comp 14,Sylvan Lake,AB,T4S1X6
24c85d45e27d3e1b2257,Aboriginal Head Start - Abbott Site,ECS Private Operator,,12045-34th street,Edmonton,AB,T5W1Z5
24e18803bff56f2d9967,ELMDALE SCHOOL,..,160,elmdale street,STEINBACH,MB,R5G0P3
24ec8fd77e01d13b3385,Edmonds Community StrongStart Centre,StrongStart BC,7651,18th ave,Burnaby,BC,V3N1J1
24fc81a758b7e3de6e06,Cold Lake High School,Public,7825,51 street,Cold Lake,AB,T9M0B6
24fd4b8e8968e0237b5a,Wakaw School,..,,,WAKAW,SK,S0K4P0
24fdd17521d3e8b8dd21,Suwilaawks StrongStart Centre,StrongStart BC,3430,sparks st,Terrace,BC,V8G2V3
2500e476803763ebcb0d,Berry Creek Community School,Public,,general delivery,Cessford,AB,T1R1E2
250428c476a4a14cef3a,Ivor Dent School,Public,11010,23 st nw,Edmonton,AB,T5W1Y7
250904d2529e0da523c9,British Columbia Christian Academy,Independent School,1019,fernwood ave,Port Coquitlam,BC,V3B5A8
251dc013b560c922e801,Cedarville Breezes Parochial School,Private,085165,grey road 14,Conn,ON,N0G1N0
253e0511b45da0e5321a,Wellington Hall Academy,Private,,j9-5420 highway 6,Guelph,ON,N1H6J2
2542debb53a3df2a7138,High Velocity Equipment Training College,Private Institution,52,26 w4,Enoch,AB,T7X3Y3
254aa7877e31242a5f7d,Matthew McNair Secondary,Public School,9500,no 4 rd,Richmond,BC,V7A2Y9
2553b7c0146066819344,Stirling Mennonite Day School,Private School,,,Raymond,AB,T0K2S0
255a09741fab43193b0f,Cornerstone Christian Academy,Independent School,7890,no 5 rd,Richmond,BC,V6Y2V2
25655c2f5fb1f191c813,H. Hardcastle School,..,,,EDAM,SK,S0M0V0
258eea00c44ebb5cb68f,Cabot Academy,..,,,Western Bay,NL,A0A4J0
25b51b316893f57a4150,Sister Alphonse Academy,Separate,1,joyal way,St. Albert,AB,T8N7H5
25d63b86ec153bc4b1d6,Calgary German Language School Society,Private School,,,Calgary,AB,T3A5C4
25e6e4eb56724ac91709,PHARE Néguac,Alternative Learning Centre,700,rue principale,Néguac,NB,E9G1N4
25ef1c5eb7c8546ce240,Chinook Learning Services,Public,2336,53 ave sw,Calgary,AB,T3E1L2
262178cee0aad53f29ed,Pakan Elementary and Junior High School,Federal First Nations,,,Goodfish Lake,AB,T0A1R0
264f865d7433aabbfc5d,Edgewood Elementary,Public School,,,Edgewood,BC,V0G1J0
26611505aab2e99ba1d9,Hilltop Christian School,Private School,,,Fort Vermilion,AB,T0H1N0
267a55b2f7d5b963b412,St. Anthony School,Separate,4921,43 street,Drayton Valley,AB,T7A1P5
269fe97fb1114c54b334,Londonderry School,Public,7104,144 avenue,Edmonton,AB,T5C2R4
26b084b87e32ed59448e,St. John Bosco School,..,,,St. John's,NL,A0A1J0
26b1a6d9614a8681259e,PINE CREEK CHRISTIAN DAY SCHOOL,..,,,AUSTIN,MB,R0H0C0
26dfd87a1e9afaa35926,École Père Mercure,..,1881,99e rue,NORTH BATTLEFORD,SK,S9A0R9
27141e9f85b739952245,Ralston School,Public,,,Ralston,AB,T0J2N0
274e034416e75c65fd9b,Glidden Hutterite School,..,,,GLIDDEN,SK,S0L1H0
278f8b5a3caebf9f66d7,George Gordon Education Center,..,,,PUNNICHY,SK,S0A3C0
27bf83460e3d94dcb6a4,RICHLAND SCHOOL,..,#1,ridgeland colony r r,DUGALD,MB,R0E0K0
27f4d437da477fa6ea51,Pigeon Lake Outreach,Public,,,Ma-Me-O Beach,AB,T0C1X0
280e36daa59a2654a6bf,Hughenden Public School,Public,,,Hughenden,AB,T0B2E0
281bb552c4e692bd7020,Montmartre School,..,,,MONTMARTRE,SK,S0G3M0
282bf2deba3ffcdff006,Star City Colony School,..,,,STAR CITY,SK,S0E1P0
2841a64af63cd2f3d936,Jasper Place Child Care/ECS Program,ECS Private Operator,,,Edmonton,AB,T5R5Y6
285da82665c38ce5d68e,Silver Creek Elementary Secondary,Public School,935,salmon river rd,Salmon Arm,BC,V1E3G3
2860af2f3dd3324da357,Athabasca University Learning Centre,Provincial,10044,108 street,Edmonton,AB,T5J5E6
287cf51c671389f0504c,Terrace Ridge School,Public,6739,c & e trail,Lacombe,AB,T4L2P2
28a037f39f51de6e267e,Pineridge Elementary,Public School,,,Prince Rupert,BC,V8J1G9
28a188249e438cc7e59e,Grouard Northland School,Public,,,Grouard,AB,T0G1C0
28a18e7c723710438ab4,Leading Tickles Primary,..,,,Leading Tickles,NL,A0H1T0
