Index,Facility_Name,Facility_Type,Street_No,Street_Name,City,Prov_Terr,Postal_Code
28c9b668a7a537c9ee6b,Pleasant View Parochial School,Private,4969,line 80 4,Listowel,ON,N4W3G9
28d9b13e1e57512a4a2a,Henry Gordon Academy,..,,,Cartwright,NL,A0K1V0
28fa06b774a87aa2b8c4,Frank J. Ney StrongStart Centre,StrongStart BC,5301,williamson rd,Nanaimo,BC,V9V1L1
290c78bcd5a525a2ef6b,KISEMATTAWA KISKINWAHAMAKEWIKAMIK,..,,general delivery,SHAMATTAWA,MB,R0B1K0
291184d9cb39fe7d4050,Balgonie Elementary School,..,,,BALGONIE,SK,S0G0E0
293c1e2e12afef1fdcfa,Jessie Duncan Elementary School,Public,,,Penhold,AB,T0M1R0
2940500c6364081f2f7c,Mikinaak Onigaming School,Private,212,mikinaak drive,Nestor Falls,ON,P0X1K0
2957cc7baedbd36edfda,Ecole Ste-Jeanne-d'Arc,Francophone,8505,68a street,Edmonton,AB,T6B0J9
2959e48329519f671de8,Ecole du Sommet,Francophone,4609,40 street,St. Paul,AB,T0A3A0
2968d8e5a5afed9f5436,North Valley Elementary School,..,,,NEUDORF,SK,S0A2T0
296b9843a3e58b4b80ac,Holy Family Catholic School,Separate,,,Waskatenau,AB,T0A3P0
2970e2ed950f73794ec5,Lacombe Christian School,Private School,5206,58 street,Lacombe,AB,T4L1G9
29b27075aa94edb5d9f9,New Brigden School,Public,,general delivery,New Brigden,AB,T0J2G0
29c80658ce24b90ef7e2,Fleming College -Peterborough- Cobourg- Haileybury,Technical and Vocational,599,brealy drive,Peterborough,ON,K9J7B1
29c83f8f03f5813f82c3,ETHELBERT SCHOOL,..,,,ETHELBERT,MB,R0L0T0
29e986983df290e0f707,Ummati School,Private,1423,thornton rd n,Oshawa,ON,L1H7K4
29f36c6c4a9769530656,Island View High School,Public,1853,caldwell rd,Eastern Passage,NS,B3G1J3
2a30ea3a58e2a6975bd5,R E Mountain Secondary,Public School,7633,202a st,Langley,BC,V2Y1W4
2a4a13c80268f1084fe1,Collège de l'île,Junior College,,,Wellington,PE,C0B2E0
2a6032d9d3db640d508b,École St. Anne School,..,530,24th st w,PRINCE ALBERT,SK,S6V4N3
2a65482c60f0f2f1c2dc,Universite de Montreal School of Veterinary Medicine,University,,,St Hyacinthe,QC,J2S7C6
2a6ac706e9f69eb3412d,Fresh Start Millwoods,Separate,7319,29 avenue,Edmonton,AB,T6K2P1
2a7a0c13b0c92e151430,Onoway Elementary School,Public,,,Onoway,AB,T0E1V0
2a998039cbc0aa4af50b,Christopher Lake Public School,..,,,CHRISTOPHER LAKE,SK,S0J0N0
2aaa44d70105a6306687,Yarrow Community School,Public School,4605,wilson rd,Chilliwack,BC,V2R5C4
2ab2689c799ea9aceb8f,Fraser River Christian School,Independent School,8250,hwy 97 s,Quesnel,BC,V2J6M4
2accc87e45a74be37b14,Dr Mary Jackson School,Public,,,Keg River,AB,T0H2G0
2acd64997291aeae5121,Boyle Street Education Centre,Charter,10312,105 street,Edmonton,AB,T5J1E6
2ae9894ffb06e591ca42,Langley Education Centre,Public School,21405a,56 ave,Langley,BC,V2Y2N1
2afe163a9e52fb37e591,École Debden Public School,..,,,DEBDEN,SK,S0J0S0
2b123ebbd709aeb23d19,Holy Cross Elementary School,Separate,5201,49 street,Cold Lake,AB,T9M0B9
2b2c30845969ef7a77f6,Wahsa Distance Education Centre,Private,74,front street,Sioux Lookout,ON,P8T1B7
2b4049e10a6ebbe421f6,P.J. Gillen School,..,,,ESTERHAZY,SK,S0A0X0
2b455f906643e15ed105,Shearwater Elementary,Public School,,,Hagensborg,BC,V0T1H0
2b6ad63215308dc1e935,WAMBDI IYOTAKA SCHOOL,..,,,PIPESTONE,MB,R0M1T0
2b7494981e5b9d44b587,Vera M. Welsh Elementary School,Public,,,Lac La Biche,AB,T0A2C0
2b758a53b3f024e03015,Blue River School,Public School,,3rd ave,Blue River,BC,V0E1J0
2b790af34c363057ce95,Chiila School,Federal First Nations,250,9911 chiila boulevard sw tsuu,Tsuu T'ina,AB,T2W6H6
2b7c9e4fa435e56b5bd4,Kehewin Community Education Centre,Federal First Nations,,,Kehewin,AB,T0A1C0
2b7e556c51c789626ecc,St. Gabriel,Separate,5540,106 avenue,Edmonton,AB,T6A1G3
2b89e7284a382105213c,Anchor Academy (DL),Independent School,,,Salmon Arm,BC,V1E4R8
2b8c89f7c94351ebc10c,Kipohtakaw Education Centre,Federal First Nations,,,Morinville,AB,T8R1S3
2ba504fcbd4eedbb9e21,Ucluelet Secondary,Public School,,,Ucluelet,BC,V0R3A0
2bb4d8437be0728e5187,École Fox Run School,Public,2,falcon ridge drive,Sylvan Lake,AB,T4S2H1
2bb63064fae6fc66363c,YouLearn.ca-ALT,Public School,,,Oliver,BC,V0H1T0
2bc30f5139835f0fad5f,Cut Knife Community School,..,,,CUT KNIFE,SK,S0M0N0
2bd2ae9c45464c7bd24f,CCNB - Peninsule Acadienne,Technical and Vocational,,232a avenue de l'église,Shippagan,NB,E8S1J2
2bd2ddb86d79845c8edf,McArthur School,Public,13535,134 street,Edmonton,AB,T5L1W3
2bdf9700f13b46160cab,Bulkley Valley Christian Distributed Lrn,Independent School,,,Smithers,BC,V0J2N0
