Index,Facility_Name,Facility_Type,Street_No,Street_Name,City,Prov_Terr,Postal_Code
30bde07d97299e00498f,Nebula Academy,Private School,12023,81 street,Edmonton,AB,T5B2S9
30e0fca8b44618d48a0f,Maude Clifford Public School,Public,9206,lakeland drive,Grande Prairie,AB,T8X0J4
30e577e950332ca3a5da,Clarenville High School,..,50,gladney street,Clarenville,NL,A5A1G8
30f4b76b1d2a81c08aca,Thomas More Academy,Private School,10403,172 st,Edmonton,AB,T5S1K9
31024d16b49efe83fdf4,Springwater Hutterite Elementary,..,,,RUTHILDA,SK,S0K3S0
310e761b5c73f365b7f6,Fulford Community Elementary,Public School,112,rainbow rd,Salt Spring Island,BC,V8K1Y9
31121f70c663b9443c93,POPLAR GROVE SCHOOL,..,,,GRANDVIEW,MB,R0L0Y0
314090873683ff1399bc,Sunnyside Elementary,Public School,2828,159 st,Surrey,BC,V3S0E5
3154c657d6de50671a97,Golden Alternate School,Public School,,,Golden,BC,V0A1H0
317293cb1465f907a881,Amisk School,Public,,,Amisk,AB,T0B0B0
3187299ed0c813b35d61,GRASS RIVER SCHOOL,..,,,GLENELLA,MB,R0J0V0
318da0d2c5f56f183ac7,Muir Lake School,Public,53422,sh779,Stony Plain,AB,T7Z1Y5
31a1aba8653e911ce91c,École Poirier Elementary,Public School,,,Sooke,BC,V9Z1H9
31bb3e999c62c66c5d65,Lorelei School,Public,16230,103 street,Edmonton,AB,T5X3A9
31c02cbb2ea64a91a69b,Maaqtusiis Secondary,Independent School,,general delivery,Ahousaht,BC,V0R1A0
31c648657191b154d933,Halfmoon Bay StrongStart Centre,StrongStart BC,,,Sechelt,BC,V0N3A0
31e16b6aa5cb97790a28,Vimy Ridge,Public,8205,90 avenue,Edmonton,AB,T6C1N8
31e1c6e6bd3d9a4196a5,PRAIRIE BLOSSOM SCHOOL,..,,general delivery,BALMORAL,MB,R0C0H0
31eca15292e62e61d960,Líídl?? Kú? Elementary School (Bompas Elementary School),..,,,Fort Simpson,NT,X0E 0N0
31ed1c76515d7a5e1916,YouLearn.ca-DL,Public School,,,Oliver,BC,V0H1T0
31f96f24b64b688eb107,Nusatsum Elementary/Secondary,Public School,,,Hagensborg,BC,V0T1H0
3230147b914d6646daaa,Avoca Collegiate,..,,,Badger,NL,A0H1A0
3250c420f27ed51aad19,Southland Hutterite School,..,,,HERBERT,SK,S0H2A0
3267c45f59c6a5247410,OpenMind Alliance Academy,Private,160,east beaver creek road,Richmond Hill,ON,L4B3L4
3271acde7efa0e3d2f7a,Vibank School,..,,,VIBANK,SK,S0G4Y0
328981edb94907f994e6,Adult Education SD#23,Public School,1825,richter st,Kelowna,BC,V1Y2M8
3292341ad6f4c34835ce,Clear Lake Colony School,Public,,,Claresholm,AB,T0L0T0
32a1d5418a192f10e87d,Watson StrongStart Centre,StrongStart BC,45305,watson rd,Chilliwack,BC,V2R2H5
32b9bfe6825ad804cd5d,Sunningdale School,..,530,woodlily drive,MOOSE JAW,SK,S6J1J3
32d588be76bb546f8b29,Beiseker Colony School,Public,,,Beiseker,AB,T0M2A0
32e6d22b13362c58fcf6,Lakeland College (Vermillion),Provincial,5707,47 avenue w,Vermilion,AB,T9X1K5
32ec5633d73ad8a8c8b0,Mapes Elementary,Public School,14907,mapes rd,Vanderhoof,BC,V0J3A1
32fd877b14b9bfd09e4b,150 Mile Elementary,Public School,,,150 Mile House,BC,V0K2G0
33017d1410cece1c4f26,Morley Elementary,Public School,7355,morley st,Burnaby,BC,V5E2K1
3302a35f302307ed6b88,Tompkins Mennonite School,Private School,,,La Crete,AB,T0H2H0
3312ce1e91ae3d323791,BC Provincial School for the Deaf Sec,Public School,5455,rumble st,Burnaby,BC,V5J2B7
331311037668a8b05264,W L Mcleod Elementary,Public School,,,Vanderhoof,BC,V0J3A0
331b2d8e9b7a5a156449,Northside Christian School,Private,6020,north perth,Listowel,ON,N4W3G8
331dac31e2d872d4f1aa,Frontier School,..,,,FRONTIER,SK,S0N0W0
3327e80523a046cf415e,Alcoma School,Public,,,Rainier,AB,T0J2M0
332dad5d4ccbdf52db69,LA VERENDRYE SCHOOL,..,500,7th avenue nw,PORTAGE LA PRAIRIE,MB,R1N0A5
33314208fb668fc8dc99,Clinton StrongStart Centre,StrongStart BC,,,Clinton,BC,V0K1K0
33630d7a0f266ee1e2f8,Dr Karl A Clark Elementary,Public,8453,franklin avenue,Fort McMurray,AB,T9H2J2
336ff1d347d70915d22a,PDSB Online School,Provincial,,,..,ON,..
337a2db271a72268c31f,BOYNE VIEW SCHOOL,..,#3,pr 248 south elie,ELIE,MB,R0H0H0
337c87314a18fdaf066e,Continuing Ed SD 06,Public School,,,Invermere,BC,V0A1K0
33925fbf96b8063acb23,Ponderosa Colony School,Public,,,Bow Island,AB,T0K0G0
3396f6a60272c8cba266,Bernard StrongStart Centre,StrongStart BC,45465,bernard ave,Chilliwack,BC,V2P1H6
339745e9b1ca2874881e,Queen Elizabeth Elementary,..,725,king street,WEYBURN,SK,S4H0P9
