Index,Facility_Name,Facility_Type,Street_No,Street_Name,City,Prov_Terr,Postal_Code
21703d5ebf6e65c25c28,Seabird Island Community,Independent School,,,Agassiz,BC,V0M1A0
217173646e5f7e8441fa,Institutional Services Schools,Public,18621,127 street,Edmonton,AB,T6V1B1
217b6a8050d126f7cf7e,Kumsheen Elem-Secondary,Public School,,,Lytton,BC,V0K1Z0
2181d03f6fe1d7638e38,West Vancouver Secondary,Public School,1750,mathers ave,West Vancouver,BC,V7V2G7
218a091cd257cf0a1a04,Kameyosek School,Public,250,lakewood road e,Edmonton,AB,T6K3L4
219f113a4d7079b5a38e,Siksika Nation High School,Federal First Nations,,,Siksika,AB,T0J3W0
21a874feedec6d9bddca,NETLEY SCHOOL,..,,,PETERSFIELD,MB,R0C2L0
21b9b60bd0d3bb6de412,Dene Tha' Community School,Federal First Nations,,,Chateh,AB,T0H0S0
21c1c3295cc5a99d1bbf,MORWEENA CHRISTIAN SCHOOL,..,,,ARBORG,MB,R0C0A0
21f2ca21ce43feb21e4f,Sechelt StrongStart Centre,StrongStart BC,,,Sechelt,BC,V0N3A0
2202eba467562ac8fe29,William Konkin StrongStart Centre,StrongStart BC,,,Burns Lake,BC,V0J1E0
2211d822d1af6c8b7ffb,Windermere Community Secondary,Public School,3155,27th ave,Vancouver,BC,V5R1P3
221e113df9050e58ac74,George M Murray Elementary,Public School,,,Lillooet,BC,V0K1V0
221fe8a0501371d6b54c,CARTWRIGHT SCHOOL,..,,general delivery cartwright,CARTWRIGHT,MB,R0K0L0
22243194a6954c9123c3,Ermineskin Junior Senior High School,Federal First Nations,,,Maskwacis,AB,T0C1N0
2236ec48a7a91937288c,Jubilee Elementary,..,718,5th avenue w,MEADOW LAKE,SK,S9X1A4
223869dec5ae74691afb,Dundurn School,..,,,DUNDURN,SK,S0K1K0
223c86554a658d876c2d,CASCADE COLONY SCHOOL,..,,,AUSTIN,MB,R0H0C0
224e6c539d3cd746be89,Ostland School,Private School,,,Buffalo Head Prairie,AB,T0H4A0
225482f5c31c72d04b15,St. Anne's School,..,,general delivery,South East Bight,NL,A0E3B0
2258e2f46716ce5aa13a,Wadena Elementary,..,,,WADENA,SK,S0A4J0
22630220d3f999d4d09b,Nukko Lake Elementary,Public School,23955,chief lake rd,Prince George,BC,V2K5L1
227df934274d737471a8,Jumbo Valley Hutterite Colony School,Public,,,Fort Macleod,AB,T0L0Z0
228c9f20c6e3aea366b2,Harry Ainlay School,Public,4350,111 street,Edmonton,AB,T6J1E8
22aa5ed23196b8ccc060,Kelowna Christian School,Independent School,2870,benvoulin rd,Kelowna,BC,V1W2E3
22ada8e8e5cda297fc6c,College of the North Atlantic- Burin campus,Technical and Vocational,,pike's lane,Burin,NL,A1Y1A7
22c5adfa5f9c5382dc1d,CAFA Playschool Family and Early Development Program,ECS Private Operator,,,Edmonton,AB,T5E6A9
22ce9016511474a56760,SD 50 Distributed Learning Program,Public School,,,Sandspit,BC,V0T1T0
22d3bceabe3036ff57ed,Won Ska Cultural Public School,..,2005,4th avenue e,PRINCE ALBERT,SK,S6V2H1
22dd12c1f13b56b92dba,David Thompson Secondary,Public School,4,14th st,Invermere,BC,V0A1K4
22eeec8f21390fc8723c,LOWE FARM SCHOOL,..,,,LOWE FARM,MB,R0G1E0
22f63ef56d743de426ee,ROSENFELD ELEMENTARY,..,,,ROSENFELD,MB,R0G1X0
22fd2b34b8f11554e836,St. Peter's Junior High,..,,munden dr,Mount Pearl,NL,A1N2T5
2323a8ea9ab552c34611,St. Dominic School - Humboldt,..,,,HUMBOLDT,SK,S0K2A0
2323e978dab621d84eb9,Garden River School,Provincial,,,John D'or Prairie,AB,T0H3X0
236b30d3e74e91fb7f88,Caronport Elementary School,..,,,CARONPORT,SK,S0H0S0
2373e681f138c438dfd9,Agassiz Centre for Education,Public School,,,Agassiz,BC,V0M1A0
23905a14a13957650702,Saskatoon Misbah School Inc.,..,,,SASKATOON,SK,S7H5N9
239857822d8344b5c8b3,SelfDesign Learning Community (DL),Independent School,,,Vancouver,BC,V6K4P4
23d87c1dc2e06ab97389,Okanagan Falls StrongStart Centre,StrongStart BC,,,Okanagan Falls,BC,V0H1R0
23e26647ce3f9e0645e4,Raymond Ward Memorial,..,,general delivery,Norman Bay,NL,A0K5Y0
23f54e0d4659cdfa3d43,BORDER VIEW CHRISTIAN DAY SCHOOL,..,,,STUARTBURN,MB,R0A2B0
23ff5b708af22fefebe9,Lanes Lake Colony School,Public,,,Castor,AB,T0C0X0
243b62ed49f60e1edae6,Oceanside Elementary,Public School,,,Parksville,BC,V9P2G6
2441718eac5522ebc7d9,Homelinks - Creston,Public School,,,Creston,BC,V0B1G0
2453cb1e1eb645605ed0,ABBALAK THUNDERSWIFT MEMORIAL SCHOOL,..,,,LITTLE GRAND RAPIDS,MB,R0B0V0
245e94b3bfabf3c98792,South Central High School,Public,,,Oyen,AB,T0J2J0
245facca55c2d08b9492,Victor Sammurtok School,..,,,Chesterfield Inlet,NU,..
2461996a0f21d77a7fd6,Tofield School,Public,,,Tofield,AB,T0B4J0
