Index,Facility_Name,Facility_Type,Street_No,Street_Name,City,Prov_Terr,Postal_Code
2bedf8ed33c966649c18,Harry Gray Elementary School,Public,,po bag 1,Valleyview,AB,T0H3N0
2bf4e0a4defbc4e65fdc,Ecole Montgomery Middle,Public School,1900,edgewood ave,Coquitlam,BC,V3K2Y1
2bfa8fdb4de0797b33db,Fulford StrongStart Centre,StrongStart BC,203,south ridge dr,Salt Spring Island,BC,V8K1Y9
2c0adc2f7e0a92d6caf0,Oweekeno Elementary,Public School,,,Hagensborg,BC,V0T1H0
2c14170f3b5989db6c76,Pathways Education Services Inc.,Private,650,woodlawn road west,Guelph,ON,N1K1B8
2c16082838936d6d2cf3,INTERLAKE MENNONITE FELLOWSHIP SCHOOL,..,,,ARBORG,MB,R0C0A0
2c265c04d494b4ca7fc7,Coalhurst High School,Public,,,Coalhurst,AB,T0L0V0
2c343e816b5678cd1ab2,Mariyah Islamic School,Private,3667,lawrence ave east ave,Scarborough,ON,M1G1P7
2c41515dd550bfe3e620,Kelliher School,..,,,KELLIHER,SK,S0A1V0
2c46b60b69f6b2dcc8ee,Bentley School,Public,,,Bentley,AB,T0C0J0
2c5245b946480767759a,William Mason School,..,,,CHOICELAND,SK,S0J0M0
2c5cc360c6d5f79b943b,E. H. Walter School,Public,,,Paradise Valley,AB,T0B3R0
2c997e73da65cf9043cf,Angik School,..,,,Paulatuk,NT,X0E 1N0
2c9c9fdef9e84a33fc06,Vincent Massey Public School,..,2999,3rd ave e,PRINCE ALBERT,SK,S6V8G2
2caafa52f500c7e38d76,Central Secondary,Public School,1825,richter st,Kelowna,BC,V1Y2M8
2cbd0df93ad6e78a63cf,Plainview Colony School,Public,,,Foremost,AB,T0K0X0
2cc9e8ec6d5cba44b602,Whitbourne Elementary,..,,,Whitbourne,NL,A0B3K0
2ccb6c6679a2e2f70a5b,Green Acre Elementary School,..,,,RAPID VIEW,SK,S0M2M0
2cf6e67f4ed435e083c7,Destiny Christian School Society,Private School,37557,hwy 2a,Red Deer County,AB,T4E1S2
2d20ce6f449fe6b19f45,Delisle Composite School,..,,,DELISLE,SK,S0L0P0
2d619fcd7d215bd5c982,Fourth Peel Parochial,Private,7445,fourth line,Wallenstein,ON,N0B2S0
2d709392dac7c20d92a1,Students On Line,Public,,pobox 1241,Dewberry,AB,T0B1G0
2d77dc94ef6ecb9b40a2,Wolseley High School,..,,,WOLSELEY,SK,S0G5H0
2d96191a6b8204429995,ST. ANDREWS SCHOOL,..,8,st andrews road,ST. ANDREWS,MB,R1A2Y1
2da2ab2993217c3a6c4c,SKOWNAN SCHOOL,..,,general delivery,SKOWNAN,MB,R0L1Y0
2da83b775b9260d825bb,The Centre for Learning@HOME,Separate,,,Okotoks,AB,T1S1A4
2dafa5e3d8d50ce9347a,École Holy Cross School,..,2051,15th avenue e,PRINCE ALBERT,SK,S6V6T5
2dc26c8320ce60a5bbb0,Queen Victoria Annex,Public School,1850,3rd ave,Vancouver,BC,V5N1H2
2de9461891055bd7555e,Elizabeth Middle School,..,,,KINDERSLEY,SK,S0L1S0
2e284a5e7e8ba622b287,Three Lakes School,..,,,MIDDLE LAKE,SK,S0K2X0
2e5145e1b490e360f0cf,Archerwill School,..,,,ARCHERWILL,SK,S0E0B0
2e8b4c5c8b6fd3510f39,Winlaw Elementary School,Public School,,,Winlaw,BC,V0G2J0
2e91dee7cdb16b26e9b6,Chief T'Selehye School,..,,,Fort Good Hope,NT,X0E 0H0
2ead283f4495636d6129,OSCAR BLACKBURN SCHOOL,..,,general delivery south indian lake,SOUTH INDIAN LAKE,MB,R0B1N0
2ec95b10d430a5f6914a,Southeast Aviation Services,Private Institution,,,Estevan,SK,S4A1C8
2ed3e5440efcc10b5c9d,SD 59 StrongStart BC Outreach Program #3,StrongStart BC,,,Pouce Coupe,BC,V0C2C0
2ed872bbc8f0bcceff72,École NDA,Public,,,Chéticamp N.-É.,NS,B0E1H0
2ee031fbf31630f23c64,The Learning Connection - Evansburg,Public,,,Evansburg,AB,T0E0T0
2efe18cd0ce11436a068,York School,Public,13915,61 street,Edmonton,AB,T5A1P3
2f0a6440df74f7224ddf,Mother Earth's Children's Charter School,Charter,,,Warburg,AB,T0C2T0
2f0e4329e01db75a5008,Britannia Community Elementary,Public School,1110,cotton dr,Vancouver,BC,V5L3T5
2f2aba4a90dbf75b1efd,STEINBACH REGIONAL SECONDARY,..,190,mckenzie avenue,STEINBACH,MB,R5G0P1
2f2e3fa2b4601a492777,Alookie Elementary School,..,,,Pangnirtung,NU,..
2f35eb8f54e39331da53,WEST PLAINS SCHOOL,..,,,AUSTIN,MB,R0H0C0
2f38ab57aea932af123e,Hazel Trembath StrongStart,StrongStart BC,1278,confederation dr,Port Coquitlam,BC,V3C6L9
2f577bee46b3911e001d,Ecole Baker StrongStart Centre,StrongStart BC,610,wade ave,Quesnel,BC,V2J1E3
2f7e82e181af40c1d745,Cedar Grove Elementary,Public School,,,Gibsons,BC,V0N1V4
2f83390f169e55acafe0,Landing Trail Intermediate School,Public,5502,48 avenue,Athabasca,AB,T9S1L3
2fa6d2f4a16536597218,Red-Tailed Hawk Forest School,Private,609830,12th side road blue mountarin,Blue Mountarin,ON,L9Y0P6
