Index,Facility_Name,Facility_Type,Street_No,Street_Name,City,Prov_Terr,Postal_Code
37297f402b2ff3760de0,New Westminster Online Schools,Public School,,,New Westminster,BC,V3M6H7
374194dcf25c5d886a60,Lydia Lois Beardy Memorial,Private,,general delivery wunnumin,Wunnumin Lake,ON,P0V2Z0
374aa7a3c30e917ab8df,DELORAINE SCHOOL,..,,,DELORAINE,MB,R0M0M0
3799efd667ec365750d1,East Three Elementary School,..,,,Inuvik,NT,X0E 0T0
379bd52ccbee7e1de035,Right Honorable Joe Clark School,Public,1208,9 avenue se,High River,AB,T1V1L2
37e5e63f474d7286a3a6,SD 71 StrongStart BC Outreach Program #1,StrongStart BC,,,..,BC,..
37f5e26b288c545eaae1,Steveston-London Secondary,Public School,6600,williams rd,Richmond,BC,V7E1K5
37fa1153b87a31ee6de3,J F Dion School,Public,,,Fishing Lake,AB,T0A3G0
3805e3f41b425fddadd2,Holy Family School,Separate,,,Grimshaw,AB,T0H1W0
3839e5b9b3a68e02dfcc,St. Matthew's Elementary,..,115,cowan avenue,St. John's,NL,A1E3W4
384e0a34e822f9dea35e,Hudson's Hope StrongStart Centre,StrongStart BC,,,Hudson's Hope,BC,V0C1V0
3854b1119829cbf1bd3d,St. Monica School,Separate,14710,53 avenue,Edmonton,AB,T6H4C6
386b0360d458a37f97c5,SD 75 StrongStart BC Outreach Program #1,StrongStart BC,,,..,BC,..
3872f824783880e6d6d0,MEADOW LANE SCHOOL,..,,c/o meadow lane colony box 68,ROSSER,MB,R0H1E0
389da7ae4287a2776c96,STE. ROSE SCHOOL,..,,,STE ROSE DU LAC,MB,R0L1S0
38afb96cd8fdbba3192b,NEELIN HIGH,..,1020,brandon avenue,BRANDON,MB,R7A1K6
38c3cf4042c81c264703,Rimbey Christian School,Private School,,,Rimbey,AB,T0C2J0
38d5a1400b080988a9a1,Alberta Health Services Youth Residential Treatment Centre,Separate,12315,125 street,Edmonton,AB,T5L0N4
3901ef96fda070d2215b,Sundre Learning Centre,Public,,,Sundre,AB,T0M1X0
390ece20b24ed0f86525,ÉCOLE SAINT-EUSTACHE,..,,,ST. EUSTACHE,MB,R0H1H0
39118b75a5a5fceb2740,St Anthony's,Independent School,595,keith rd,West Vancouver,BC,V7T1L8
3914bc2174f0ca903cec,TURTLE MOUNTAIN SCH. DIV. SUMMER SCHOOL,..,,,KILLARNEY,MB,R0K1G0
391e647ce2969bef9426,GEORGE SAUNDERS MEMORIAL SCHOOL,..,,,YORK LANDING,MB,R0B2B0
39495bf2507627176b5c,Ashmont Elementary Community School,Public,,,Ashmont,AB,T0A0C0
3966257919d59f49478f,LINDEN CHRISTIAN SCHOOL,..,877,wilkes avenue,WINNIPEG,MB,R3P1B8
396ae97ab1d015509eec,Milestone School,..,,,MILESTONE,SK,S0G3L0
3975682266ddb49751ab,Cleardale Colony School,Public,,,Cleardale,AB,T0H3Y0
39a5ef1a1555aa8d2c79,ÉCOLE LORETTE IMMERSION,..,475,rue senez,LORETTE,MB,R0A0Y0
39aa3772222d976795ba,White Cloud Head Start,ECS Private Operator,11648,85 street,Edmonton,AB,T5B0E5
39ce6518742dc28ce5ea,Davidson School - K-12,..,,,DAVIDSON,SK,S0G1A0
39f9788a70fb56090d60,LINC-CLC,Public School,380,montgomery st,Coquitlam,BC,V3K5G2
3a0429c62bd79ac022c3,Port Clements Elementary,Public School,,,Port Clements,BC,V0T1R0
3a30e44347127381b957,Klappan Independent Day School,Independent School,,,Iskut,BC,V0J1K0
3a3ba3a75628ce929e3f,Mary Queen of Peace Elementary,..,137,torbay road,St. John's,NL,A1A2G9
3a5524ae7ddde7bad67e,LAKESIDE COLONY SCHOOL,..,#3,pr 248 south elie,ELIE,MB,R0H0H0
3a5a6e7cc090ed7b4453,Second Street Community Elementary,Public School,7502,2nd st,Burnaby,BC,V3N3R5
3a6ac43266747db2a1ce,Agnes L Mathers StrongStart Centre,StrongStart BC,,,Sandspit,BC,V0T1T0
3aaf76e6fb3820b40188,LEAF RAPIDS EDUCATION CENTRE,..,,,LEAF RAPIDS,MB,R0B1W0
3ab01ab8092b8b81022c,Pleasant Ridge Colony School,Public,,,Vegreville,AB,T9C1R6
3ab56238dac0f4ff3348,Kispiox Community School,Independent School,1439,mary blackwater dr,Kispiox,BC,V0J1Y4
3abb1fabb6870d099c67,Guelph Outdoor Preschool Ltd.,Private,5420,highway 6 north,Guelph,ON,N1H6J2
3ae200ee184c0e746e43,Deerfield Colony School,Public,,,Cardston,AB,T0K0K0
3b244f8943a0c4ab6be1,Synergy Flight Training Inc.,Private Institution,32,,Strugeon County,AB,T8T0E3
3b2fd5c7396ec7ff7eb1,John Muir StrongStart Centre,StrongStart BC,7179,west coast rd,Sooke,BC,V9Z0R9
3b3776c91ad56ce70325,Millwood High School,Public,141,millwood dr,Middle Sackville,NS,B4E0A1
3b380262fde21e551ef2,West Coast Adventist DL School,Independent School,,,Abbotsford,BC,V2S4P5
3b42255ecf255fdc505c,Fair Haven Christian Day School,Private,4184,line 61 rr#1,Milverton,ON,N0K1M0
3b4386acb5943b164c07,Bonanza School,Public,,,Bonanza,AB,T0H0K0
3b494d2e4616bab3c57a,Aspen Grove School,Public,9720,63 avenue,Grande Prairie,AB,T8W1K3
