Index,Facility_Name,Facility_Type,Street_No,Street_Name,City,Prov_Terr,Postal_Code
3ab01ab8092b8b81022c,Pleasant Ridge Colony School,Public,,,Vegreville,AB,T9C1R6
3ab56238dac0f4ff3348,Kispiox Community School,Independent School,1439,mary blackwater dr,Kispiox,BC,V0J1Y4
3abb1fabb6870d099c67,Guelph Outdoor Preschool Ltd.,Private,5420,highway 6 north,Guelph,ON,N1H6J2
3ae200ee184c0e746e43,Deerfield Colony School,Public,,,Cardston,AB,T0K0K0
3b244f8943a0c4ab6be1,Synergy Flight Training Inc.,Private Institution,32,,Strugeon County,AB,T8T0E3
3b2fd5c7396ec7ff7eb1,John Muir StrongStart Centre,StrongStart BC,7179,west coast rd,Sooke,BC,V9Z0R9
3b3776c91ad56ce70325,Millwood High School,Public,141,millwood dr,Middle Sackville,NS,B4E0A1
3b380262fde21e551ef2,West Coast Adventist DL School,Independent School,,,Abbotsford,BC,V2S4P5
3b42255ecf255fdc505c,Fair Haven Christian Day School,Private,4184,line 61 rr#1,Milverton,ON,N0K1M0
3b4386acb5943b164c07,Bonanza School,Public,,,Bonanza,AB,T0H0K0
3b494d2e4616bab3c57a,Aspen Grove School,Public,9720,63 avenue,Grande Prairie,AB,T8W1K3
3b5c6ff2c16b8528e1e5,Onoway Junior Senior High School,Public,,,Onoway,AB,T0E1V0
3b6b57b88eebfc18d739,Special Centre,Provincial,10044,108 street,Edmonton,AB,T5J5E6
3b74f202beff44e374c7,EMERADO CENTENNIAL,..,675,prairieview drive winkler,WINKLER,MB,R6W1M5
3b795a880185facb8ba7,Sierra Hutterite School,..,,,SHAUNAVON,SK,S0N2M0
3b8074fe0cef81c72947,PARKVIEW SCHOOL,..,,,RIDING MOUNTAIN,MB,R0J1T0
3b8423fa9db6f0e0668e,Westwold Elementary,Public School,,general delivery,Westwold,BC,V0E3B0
3b8c12f3b2912f6bb171,Phoenix Place,Public School,232,rainbow rd,Salt Spring Island,BC,V8K2A9
3bad6c646eec41b641da,McBride Centennial Elementary,Public School,,,McBride,BC,V0J2E0
3bb7974d5ecdf5fb9b81,Walter W. Brown High School,..,,,LANGHAM,SK,S0K2L0
3bcf15873602f70b1d25,Clearview Colony School,Public,,,Bassano,AB,T0J0B0
3bd4a7209d1f37a79cec,Lajord Colony School,..,,,WHITE CITY,SK,S4L5B1
3bebb10ed2f3227feb97,Tillsonburg Christian School,Private,165,goshen road 2,Tillsonburg,ON,N4G4G7
3bed13cd1863f60ac849,Berry Creek Colony School,Public,,,Hanna,AB,T0J1P0
3bef7166df75a92cfdd6,Sudbury Christian Academy,Private,1101,regent street south,Sudbury,ON,P3E5P8
3bf50d648b69134052aa,Valleycliffe Elementary,Public School,,,Squamish,BC,V8B0B5
3c16542e8cc25093b902,DR. GEORGE JOHNSON MIDDLE SCHOOL,..,,,GIMLI,MB,R0C1B0
3c383602aa2f59ea3e0d,Spring Creek Hutterite School,..,,,WALSH,SK,T0J3L0
3c5146947ca9de85343c,Baibombeh Anishinabe School,Private,1001,baibombeh road,Pawitik,ON,P0X1L0
3c5c97dc8cf54e497a07,Hillcrest Elementary,Public School,1180,20 st se,Salmon Arm,BC,V1E2J4
3c5c9b5825d7694a476e,Sorrento Elementary,Public School,,,Sorrento,BC,V0E2W0
3c7cb60357cf1bdff362,Griffin Park School,Public,,po bag 750,Brooks,AB,T1R1B6
3c820fd856ac7d7bf345,OAK LAKE COMMUNITY SCHOOL,..,,,OAK LAKE,MB,R0M1P0
3c83dd192fe58fd98693,WATERHEN SCHOOL,..,,general delivery,WATERHEN,MB,R0L2C0
3c8407abbb1f36111b7a,DEERBOINE COLONY SCHOOL,..,#1,alexander,ALEXANDER,MB,R0K0A0
3c9b0f2771bbfba25070,École Massey School,..,131,massey road,REGINA,SK,S4S4N3
3ca5ce1e1a55f3e7401f,Tipaskan School,Public,1200,lakewood road s,Edmonton,AB,T6K4A3
3cb3fbe5fa1fb1bae38b,Northern Valley Parochial School,Private,2,highway 560,Charlton/Dack,ON,P0J1H0
3d0b6049d3d42f7fbe8f,Woodlands Adventist School,Private School,,rr 3,Ponoka,AB,T4J1R3
3d1d2d25e2fc79c9b8fd,Henry Anderson Elementary,Public School,9460,alberta rd,Richmond,BC,V6Y1T6
3d1fad9a7bf0b55d17aa,G W Carlson StrongStart Centre,StrongStart BC,,,Fort Nelson,BC,V0C1R0
3d2a1f77119ef510b887,Sand Hills Elementary School,Public,,,La Crete,AB,T0H2H0
3d372396f2cef83cfb01,Summitview School,Public,,,Grande Cache,AB,T0E0Y0
3d63488a9f9f417ba5f0,Begbie View Elementary,Public School,,,Revelstoke,BC,V0E2S0
3d8d238a70a0e2f48123,Lutsel K'e Dene School,..,,,utselke,NT,X0E 1A0
3d9364e0125d86c35c36,My First Montessori School,Private,11210,creditview road,Brampton,ON,L7A4X3
3da5e1c9ac3ff2dea121,Ponoka Christian School,Private School,6300,50 street,Ponoka,AB,T4J1V3
3dbcf56915cb388e5b7d,Brant Christian School,Public,,,Brant,AB,T0L0L0
3dcec2d32eae5a424d5c,École Gravelbourg School,..,,,GRAVELBOURG,SK,S0H1X0
