Index,Facility_Name,Facility_Type,Street_No,Street_Name,City,Prov_Terr,Postal_Code
339ec2d871e185c7ea1b,Buffalo Head Prairie School,Public,,,Buffalo Head Prairie,AB,T0H4A0
33c5e10275b41db62359,McBride Secondary,Public School,,,McBride,BC,V0J2E0
33e6e1bd0f83e3121f36,Viking Trail Academy,..,,,Plum Point,NL,A0K4A0
33f484b23b994495bcbb,Ebenezer Canadian Reformed School,Independent School,,,Smithers,BC,V0J2N0
3445bf941dbdd9a277b6,Ladysmith Intermediate,Public School,,,Ladysmith,BC,V9G1A6
345720c8438380609db3,Adolescent Psychiatric Program,Public School,1940,underhill st,Kelowna,BC,V1X5X7
34649e7a256ba701cb4f,Glaslyn Central School,..,,,GLASLYN,SK,S0M0Y0
3464b9657dbe27bbf6d6,JAMES VALLEY COLONY SCHOOL,..,#3,pr 248 south elie,ELIE,MB,R0H0H0
346ac183f396e98937f0,Glen Meyer Old Colony School,Private,1436,1st concession road,Langton,ON,N0E1G0
348994db5fb3a8a99ea7,Ivan Franko Ukrainian School,Private School,,17711-89 street,Edmonton,AB,T5Z0A7
34a3e5ff147a283f76ee,Riverside Public School,..,511,5th avenue e,PRINCE ALBERT,SK,S6V7Z6
34ab18ab319056afa14f,FAIRHOLME COLONY SCHOOL,..,,,PORTAGE LA PRAIRIE,MB,R1N3B9
34ac5fcaf5103d1c7f53,MAPLETON SCHOOL,..,112,calder road,SELKIRK,MB,R1A4B5
34cc3b4aa1c91e881e94,KISTIGANWACHEENG ELEMENTARY SCHOOL,..,,general delivery,ISLAND LAKE,MB,R0B0T0
35123a47fc06119a7a13,Grandy's River Collegiate,..,,,Burnt Islands,NL,A0M1B0
351b8888ad33b955afea,Stoney Creek Community StrongStart Cntr,StrongStart BC,2740,beaverbrook cres,Burnaby,BC,V3J7B6
3525dcf5c9311640971e,Navigate Academy,Public School,2505,smith rd,Courtenay,BC,V9J1T6
352d025035c156241d1a,Kitscoty Junior Senior High School,Public,,,Kitscoty,AB,T0B2P0
353a0305ebb219771ddf,CRYSTAL CREEK SCHOOL,..,,,CRYSTAL CITY,MB,R0K0N0
353ff6089d4e45b6e5ea,Assumption Roman Catholic School,Separate,,,Oyen,AB,T0J2J0
35407aeef1d8b5ca8298,Queen Margaret's,Independent School,660,brownsey ave,Duncan,BC,V9L1C2
3555fb5254628f44f5b5,Cedar Hill Middle,Public School,3910,cedar hill rd,Victoria,BC,V8P3Z9
356ab5cc20ff6b8583a8,Ituna School,..,,,ITUNA,SK,S0A1N0
357808f065755fc0eec6,Traditional Learning Academy,Independent School,1189,rochester ave,Coquitlam,BC,V3K2X3
359b2dfc628d6599ca7f,Cabri School,..,,,CABRI,SK,S0N0J0
35af06afd2e8a6068e2f,J.L. Jackson Secondary,Public School,551,14 st ne,Salmon Arm,BC,V1E2S5
35beac453ec35fe84295,Pat Hardy Primary School,Public,35,feero drive,Whitecourt,AB,T7S1M8
35c09a1d5b88e1175653,Keyin College- Burin,Private Institution,,,Creston,NL,A0E1K0
35c3ee246420cd8945ee,Kelly Creek StrongStart Centre,StrongStart BC,2341,zilinsky rd,Powell River,BC,V8A0N8
35c4535b11ad4693b28a,Eagles' Nest Christian Academy,Private,60,st paul street w,St. Catharines,ON,L2N4V2
35c619be0f37acb075bb,Thunderbird Elementary,Public School,2325,cassiar st,Vancouver,BC,V5M3X3
35e14ed69e99e9c8584c,Douglas Elementary,Public School,17325,2 ave,Surrey,BC,V3Z9P9
35e55437311e8213476e,Nanook School,..,,,Apex,NU,..
35e80fcfe6ab6bef8e76,Tevie Miller Heritage School Program,Public,6240,113 street,Edmonton,AB,T6H3L2
3615dbf65bdedd6e49c8,Silver Stream School,..,,,MELVILLE,SK,S0A2P0
361da7c5df5eb0260724,Windrem Elementary,Public School,,,Chetwynd,BC,V0C1J0
362ba1cebd53e2d2ce50,Roberta MacAdams School,Public,,,..,AB,..
364da6684b4c2988478c,Marie Sharpe StrongStart Centre,StrongStart BC,260,cameron st,Williams Lake,BC,V2G1S8
36692271c9ab76c83b8f,Wheatland Crossing School,Public,,,Standard,AB,T0J3G0
367cf4844bf698476236,St. Leo,Separate,5412,121 avenue,Edmonton,AB,T5W1N9
3689b6f129ea38503e59,D'Arcy Elementary School,..,,,D'ARCY STATION,SK,S0L0N0
3694e28dcb7620d394d0,JOE A. ROSS SCHOOL,..,,,OPASKWAYAK,MB,R0B2J0
369c96f7ed8c669d8826,Bow City Colony School,Public,,,Brooks,AB,T1R1E1
36b05244af29041c8c49,Kootenay Valley Christian School,Independent School,1152,21 hwy n,Creston,BC,V0B1G6
36cfdff7f480a8834ad2,Victoria Park High School,Public,1515,5 avenue south,Lethbridge,AB,T1J2M4
36dd738475b2ecde1243,Northstar Outreach,Public,,,Tofield,AB,T0B4J0
36e661767637546f4ad6,Walter Lee Elementary,Public School,9491,ash st,Richmond,BC,V7A2T7
370bbe9395459c5b20e7,Ponteix School,..,,,PONTEIX,SK,S0N1Z0
37220652f4339c9931a2,DUFFERIN CHRISTIAN SCHOOL,..,,,CARMAN,MB,R0G0J0
