Index,Facility_Name,Facility_Type,Street_No,Street_Name,City,Prov_Terr,Postal_Code
6ca24d01b80102dd69c5,Nakusp Elementary,Public School,,,Nakusp,BC,V0G1R0
6cb82acdfaa21156ed70,WESTROC SCHOOL,..,,c/o portage la prairie sd 65 3rd street sw,PORTAGE LA PRAIRIE,MB,R1N2B6
6d151e080c6b267f0989,Byemoor Colony School,Public,,,Byemoor,AB,T0J0L0
6d19b748197cc71183a7,Cowichan Secondary,Public School,2652,james st,Duncan,BC,V9L2X2
6d1a7ac4a15367b9e67e,Millar College of the Bible,Private Institution,,,Pamburn,SK,S0N1W0
6d21be2348261d38cd78,Arkana Education,Private,6083a,yonge street,North York,ON,M2M3W5
6d2531b29710e06cd73a,Centennial Christian School,Independent School,3608,sparks st,Terrace,BC,V8G2V6
6d4ae4c116f105d24743,Box Elder Hutterite School,..,,,MAPLE CREEK,SK,S0N1N0
6d5272360d404b375944,Barons School,Public,,,Barons,AB,T0L0G0
6d830ad6c5634e442e29,BROAD VALLEY COLONY SCHOOL,..,,,POPLARFIELD,MB,R0C2N0
6dcdcdfa380ec266d648,Sister Gloria School,Federal First Nations,,,Garden River,AB,T0H4G0
6dd41654cda92f1cec5f,Fraser Valley Distance Education,Public School,46361,yale rd,Chilliwack,BC,V2P2P8
6df4057d6554470eb581,HEARTLAND COLONY SCHOOL,..,,,HAZELRIDGE,MB,R0E0Y0
6e022b86fc40512fb5c1,F. W. GILBERT SCHOOL,..,,,PINAWA,MB,R0E1L0
6e098e26e98e2577353a,INSPIRED EXPLORATIONS LEARNING COMMUNITY,..,,,WINNIPEG,MB,R3C2H6
6e16809fe252b67f210b,Attagoyuk High School,..,,,Pangnirtung,NU,..
6e19a09b7b9a7ef5fa0e,Sault College of Applied Arts,Technical and Vocational,443,northern ave,Sault Ste. Marie,ON,P6A5L3
6e49ef77361719334a35,Lake Cowichan Elementary,Public School,,,Lake Cowichan,BC,V0R2G0
6e5776dceea633a401b6,Sentinel Secondary,Public School,1250,chartwell dr,West Vancouver,BC,V7S2R2
6e6569fb1b2d752806b2,Gold Bridge Community,Public School,,general delivery,Gold Bridge,BC,V0K1P0
6e7d98e7e13b150dd084,Mecca Glen School,Public,,rr 1,Ponoka,AB,T4J1R1
6e86996cd8c0b70a27ed,Bear Stream School,..,,,KAMSACK,SK,S0A1S0
6e900a1125fcac0a2511,Canada National E-Learning Centre,Private,,,North York,ON,M2N6N4
6ea489b2bd6eb6d7b3fa,Timber Bay School,..,,general delivery,TIMBER BAY,SK,S0J2T0
6eae89e3e493520607ec,Schuler School,Public,,,Schuler,AB,T0J3B0
6eb5b677817721aba90a,Chilliwack Secondary,Public School,46363,yale rd,Chilliwack,BC,V2P2P8
6ecbd625ae9cb83fe136,Holy Cross All Grade,..,,,Daniel's Harbour,NL,A0K2C0
6ed1c4b42a10c84fbc8c,Wulastukw Elementary School,First Nations School,712,church st,Fredericton,NB,E3E1K8
6f34a235567ec9f82f13,Collaborative Education Alternative Prg.,Public School,,,Qualicum Beach,BC,V9K1T3
6f3a5ce10e064771590c,WESTPARK SCHOOL,..,2375b,saskatchewan avenue w,PORTAGE LA PRAIRIE,MB,R1N4A6
6f41382be1b58bf1e4ce,Ã‰cole St. Mary High School,..,380,14th street w,PRINCE ALBERT,SK,S6V3L5
6f419350269d1c5ac176,KOLA COMMUNITY SCHOOL,..,,,KOLA,MB,R0M1B0
6f45670885d391e309c1,Punnichy High School,..,,,PUNNICHY,SK,S0A3C0
6f4b77c16a2082643507,Queen Elizabeth School,Public,9425,132 avenue,Edmonton,AB,T5E0Y4
6f63c9fcdfb3622f6700,Penelakut Island Learning Centre,Independent School,,c/o penelakut tribes,Chemainus,BC,V0R1K0
6fa0051bea78e8a27582,Delores D. Echum Composite,Private,28,amisk st,MOOSE FACTORY,ON,P0L1W0
7013833eafc1fb3ee1e3,Percy Lake Colony School,Public,,,Minburn,AB,T0B3B0
702570d8b629bfcf6e2b,Pinantan Elementary,Public School,,,Pinantan Lake,BC,V0E3E1
70426e3614446990376a,Capitol Hill Elementary,Public School,350s,holdom ave,Burnaby,BC,V5B3V1
704813a3fd268ad07fc8,St. George's Hill School,..,,general delivery,DILLON,SK,S0M0S0
7050fe42fa94e770ceaa,Mount Salem Christian School,Private,6576,springfield road 6,Aylmer,ON,N5H2R5
705f8a4e71a52e1ac8c3,St. Mary's School,..,615,arthur avenue,ESTEVAN,SK,S4A1S9
7080ad3ccd61d2c74023,St. Theodore School,..,,,THEODORE,SK,S0A4C0
708cfbf823dbe1c6d89e,ELTON COLLEGIATE,..,205,hillman avenue forrest,FORREST,MB,R0K0W0
70900f903e8467702963,Valley Christian School DL,Independent School,8955,cedar st,Mission,BC,V4S1A3
70936f2c20f308798ffc,Central Park Elementary School,..,,,NIPAWIN,SK,S0E1E0
70971965c2b28e765d9c,Kenilworth Krest Parochial School,Private,5,sideroad 6,Mount Forest,ON,N0G2L0
70a65b69d1bd780d0fe4,J.M. Olds Collegiate,..,,,Twillingate,NL,A0G4M0
70adededcefc9f18d0af,PARKLAND CHRISTIAN SCHOOL,..,,,ROBLIN,MB,R0L1P0
