Index,Facility_Name,Facility_Type,Street_No,Street_Name,City,Prov_Terr,Postal_Code
552ae2d83ddfe76a2320,Don Valley Academy,Private,4576,yonge st,Toronto,ON,M2N6N4
55442f897094ddae705c,Mistassiniy Outreach Program,Public,,,Wabasca,AB,T0G2K0
555ce2e8b7b29aa31e8c,Greenview School,Public,5904,38 avenue,Edmonton,AB,T6L3P5
55669e8e9d01f49162fb,Pleasant Valley Elementary,Public School,6201,dunbar rd,Nanaimo,BC,V9T2P2
5566d3f27be414b13711,Skaha Lake Middle School,Public School,110,green ave w,Penticton,BC,V2A3T1
55684a6d573cc699362f,Arborfield School,..,,,ARBORFIELD,SK,S0E0A0
5573efb752bc78c5d6ed,Ecole Maple Creek Middle,Public School,3700,hastings st,Port Coquitlam,BC,V3B5K7
5574a258b0691416e252,GILBERT PLAINS COLLEGIATE INSTITUTE,..,,,GILBERT PLAINS,MB,R0L0X0
5574dc64ac668bda1157,Norfolk Hutterite School,..,,,HODGEVILLE,SK,S0H2B0
557f981b9921aded8f88,Hague High School,..,,,HAGUE,SK,S0K1X0
55ce5c623078fd6d1446,Jens Haven Memorial,..,,,Nain,NL,A0P1L0
55ecd01419b69d6d2f5e,Hazlet School,..,,,HAZLET,SK,S0N1E0
55f0e59ab2d5239c017a,Immanuel Christian Elementary School,Public,2010,5 avenue n,Lethbridge,AB,T1H0N5
55f3285ba084f53901b1,Kitwanga Elementary,Public School,,,Kitwanga,BC,V0J2A0
55fdafb18de47d1442d0,ÉCOLE/COLL. RÉG. GABRIELLE-ROY,..,,,ÎLE DES CHÊNES,MB,R0A0T1
560fdd6c8fdddcc7be4e,Skylight Colony School,Public,3305,18 ave n,Lethbridge,AB,T1H5S1
5625fbe610734a077569,Basque Memorial,..,,,Red Bay,NL,A0K4K0
5637bfc9beeef086744e,Private Study,Provincial,10044,108 street,Edmonton,AB,T5J5E6
56391e4cd11b390e3834,Spring Glen Junior High School,Public,,,Hill Spring,AB,T0K1E0
56560db2f03a59480eb2,Pilot Butte Elementary School,..,,,PILOT BUTTE,SK,S0G3Z0
566c2c1e69ad6bede381,Britestone Hutterite Colony,Public,435a,highway 1,Strathmore,AB,T1P1J4
567f1516283340db21f6,Siksika Storefront School,Federal First Nations,,,Siksika,AB,T0J3W0
567f5ec249445ae3e88d,BARROWS JUNCTION SCHOOL,..,,general delivery barrows junction,BARROWS JUNCTION,MB,R0L0B0
56d55918bfcf2e1dd244,McKee School,Public,10725,51 avenue,Edmonton,AB,T6H0L3
56e496a872326e809e9a,Parkland Village School,Public,28,rr 272,Spruce Grove,AB,T7X3X6
5725c7edb3d16ab8bacc,H. S. PAUL SCHOOL,..,160,southglen boulevard,WINNIPEG,MB,R2N3J3
5731ae02d62e905653b0,Four Corners Amish School,Private,11115,carter road,Aylmer,ON,N5H2R3
573b317c0997ade5bca7,Christian Homelearners eStreams,Independent School,,,Grindrod,BC,V0E1Y0
574135da6322de7ac451,École St. Elizabeth,..,5149,e green brooks way,REGINA,SK,S4V3M4
57469ac83427795d8280,Taylor Elementary,Public School,,,Taylor,BC,V0C2K0
57478a60895afe75a887,New Norway School,Public,,,New Norway,AB,T0B3L0
5758f1019f3a9e61c93e,Lake Vista Public School,..,1501,parr hill dr,MARTENSVILLE,SK,S0K2T1
57729b7472c4d7798e5e,"Night Wind, Maskwa House School",Public,,,Rochester,AB,T0G1Z0
579bb9543fdd1875b71f,Our Lady of the Snows Catholic Academy,Separate,3100a,stewart creek drive,Canmore,AB,T1W3M6
57b4b8a0f0f38b8b20ba,Capilano Elementary,Public School,1230,20th st w,North Vancouver,BC,V7P2B9
57b7f765ab39c2836c05,SUNCREST COLONY SCHOOL,..,,,TOUROND,MB,R0A2G0
57d489821714784ffe94,Alert Bay Elementary,Public School,,,Alert Bay,BC,V0N1A0
57ef7b245e6d26aa8a31,North Coast Distance Education,Public School,3120,highway 16 east,Terrace,BC,V8G3E9
57f1ce08c1e28e565af5,Kyuquot Elementary Secondary,Public School,,general delivery,Kyuquot,BC,V0P1J0
5811e4647fd6aeb9d0e6,Prairie View School,..,,,DALMENY,SK,S0K1E0
5839652b9ec967addf67,LIGHTHOUSE CHRISTIAN SCHOOL,..,,,PORTAGE LA PRAIRIE,MB,R1N3N9
585bdb75815433833801,Big White Community School,Public School,,,Kelowna,BC,V1P1P3
585f488ddb21d478ca97,Chief Julian Yendo School,..,,,Wrigley,NT,X0E 1E0
5879fb15917334b9dc4a,Fairbanks Parochial School,Private,2,southgate road 8,Mount Forest,ON,N0G2L0
58922b8f11f092fc48be,La Passerelle,Public School,1509,spring creek dr,Whistler,BC,V0N1B1
58969c3cd548b80b9fd2,Lomond Community School,Public,,,Lomond,AB,T0L1G0
58a59ba5fc833ff800da,Lakes Learning Centre,Public School,,,Burns Lake,BC,V0J1E0
58aa41277d86b00338af,Dr. Folkins Community School,Public,,,Chauvin,AB,T0B0V0
58b9dedc88e432ecc858,Gold River Secondary,Public School,,,Gold River,BC,V0P1G0
