Index,Facility_Name,Facility_Type,Street_No,Street_Name,City,Prov_Terr,Postal_Code
5e9c192a5315a6ba2045,ÉCOLE DUGALD SCHOOL,..,543,holland street dugald,DUGALD,MB,R0E0K0
5e9e5728e7ff5b6d69c6,A S Matheson Elementary,Public School,2090,gordon dr,Kelowna,BC,V1Y3H9
5eaa71ef346c807f261e,Migisi Sahgaigan School,Private,42,school road,Eagle Lake First Nation,ON,P0V3H0
5f0825458669dca300b6,Quill Lake School,..,,,QUILL LAKE,SK,S0A3E0
5f1e801bcde7e7ac2517,PEGUIS CENTRAL SCHOOL,..,,,PEGUIS FIRST NATION,MB,R0C3J0
5f203127ac1566eedfa0,Thorhild Central School,Public,,po bag 30,Thorhild,AB,T0A3J0
5f53601fa7d8f45ee927,Burton Elementary,Public School,,,Burton,BC,V0G1E0
5f5653175c0788d20416,Neilburg Composite School,..,,,NEILBURG,SK,S0M2C0
5f6314999ba208865c6f,Tiny Forest Academy,Private,200,concession rd 8 east,Tiny,ON,L0L2J0
5f8999c578ef9f4222f6,Delnorte School,Public,,,Innisfree,AB,T0B2G0
5f9420814b9fd38139f6,Elves Child Development Centre,Private School,10825,142 street,Edmonton,AB,T5N3Y7
5fd5d9fa8733369df283,Blaine Lake Composite School,..,,,BLAINE LAKE,SK,S0J0J0
5fe22ecd38007e435cd2,YouLearn.ca-CE,Public School,,,Oliver,BC,V0H1T0
5ff25b4ae0cee8f74085,école Centennial School,..,2220,woodrow lloyd place,SWIFT CURRENT,SK,S9H5R2
5ff2dd5830703a2661f8,Connaissance School,Private,,sunway square,Markham,ON,L3P7X5
6011e711775e2419949b,CAN AM COLONY SCHOOL,..,,,MARGARET,MB,R0K1J0
601936cf995aea913b93,Grandview Colony School,Public,74,range road,County of Grande Prairie,AB,T8X4L1
60629d07b49541ad1b0f,RIVERBEND COLONY SCHOOL,..,,,CARBERRY,MB,R0K0H0
606a19f8078d1b5d81b8,Black Gold Home-Based School,Public,5204,50 ave,Beaumont,AB,T4X1E3
606dc6b93c1c218e08f1,LANDMARK ELEMENTARY SCHOOL,..,,,LANDMARK,MB,R0A0X0
6080d1a638c96cc02010,St Joseph's Catholic,Independent School,757,burnside rd w,Victoria,BC,V8Z1M9
609e68d3a3ba19157766,Centre de formation professionnelle Val-d or,Technical and Vocational,700,boul des pins,Val-d'Or,QC,J9P0M4
60cc3636eba5d48028c8,Canora Junior Elementary School,..,,,CANORA,SK,S0A0L0
60cf654c1f50b022c1d5,ÉCOLE OPASQUIA SCHOOL,..,,,THE PAS,MB,R9A1R4
60dd586795230565f4ae,Southwest Arm Academy,..,,,Little Heart's Ease,NL,A0E2K0
610a89be6f9b09ec5c0e,Huron Hills Parochial School,Private,759,karishea ave 3,Holyrood,ON,N0G2B0
61149efc6eb713a6e418,August Departmental Exam,Provincial,10044,108 street,Edmonton,AB,T5J5E6
611867b1a8e4f9245fde,École C.C. Loughlin Elementary,..,,citadel drive,Corner Brook,NL,A2H5M4
6118da5ecb0176566ed5,Sheldon-Williams Collegiate,..,2601,coronation street,REGINA,SK,S4S0L4
611cda42bd8adc765d39,J. J. Bowlen,Separate,6110,144 avenue,Edmonton,AB,T5A1K5
618fe88e9ba0ad4dff8b,Scarborough International School,Private,,sheppard avenue east,Scarborough,ON,M1S1V3
61900c3ed183a7a38930,Wintering Hills,Public,435a,highway 1,Strathmore,AB,T1P1J4
619800919f48b1e66102,École Coquitlam River Elementary,Public School,4250,shaughnessy st,Port Coquitlam,BC,V3E3E5
61f23f5642401144621f,Global Journeys,Private,115a,matheson boulevard west,Mississauga,ON,L5R3L1
622da732de4bac5e382b,Guthrie School,Public,244,range road,Lancaster Park,AB,T0A2H0
623f16376bbc0863ee32,NEW LIFE FELLOWSHIP SCHOOL,..,,rr1 box 247 winkler,WINKLER,MB,R6W4A1
6275baca718470c1d8b6,Unity Composite High School,..,,,UNITY,SK,S0K4L0
62814e0e86da06646e48,Kawartha Lakes Bible School,Private Institution,,,Peterborough,ON,K9J7H4
62c0d6e93860cf084f61,TAYLOR ELEMENTARY,..,,,SWAN RIVER,MB,R0L1Z0
62e5cb399019d87af833,École Willow Point Elementary,Public School,250,larwood rd,Campbell River,BC,V9W1S4
6320e3191002c4858472,Bella Coola Elementary,Public School,,,Bella Coola,BC,V0T1C0
63475310d657bcff113a,GINEW SCHOOL,..,,,GINEW,MB,R0A2R0
635300c3c298ee3677a8,WESTVIEW COLONY SCHOOL,..,,,NEWDALE,MB,R0J1J0
6377b7030fe474ce508d,Thomas Fiddler Memorial Private High Sch,Private,,,Sandy Lake,ON,P0V1V0
637b9116b828637cdee2,Jean Wetrade Gamt School,..,,,Gamt,NT,X0E 1R0
637d4621cfb2deadc3db,THE LAUREATE ACADEMY,..,100,villa maria place,WINNIPEG,MB,R3V1A9
638415f51b1ba7bc1ca2,Central School Programs,Public School,1825,richter st,Kelowna,BC,V1Y2M8
638e4378b0005b3ae4fb,Continuing Ed SD 58,Public School,,,Merritt,BC,V1K1B8
639a444a9ac4266e8de5,Giant's Head StrongStart Centre,StrongStart BC,,,Summerland,BC,V0H1Z0
