Index,Facility_Name,Facility_Type,Street_No,Street_Name,City,Prov_Terr,Postal_Code
4e046cb9060ff55dbb22,Eatonia Hutterite School,..,,,EATONIA,SK,S0L0Y0
4e0812a6fd5adb53156a,Morley Community School,Federal First Nations,,,Morley,AB,T0L1N0
4e1be0e4147aabe0536e,Two Hills School,Public,,,Two Hills,AB,T0B4K0
4e45c014f494957b8c57,Corpus Christi School,Separate,460,watt boulevard sw,Edmonton,AB,T6X1P9
4e572966baa18b75f57b,Peacock Primary School,..,,,Happy Valley-Goose Bay,NL,A0P1E0
4e5bff1d3c913fb440c9,St. Peter's School,..,,,UNITY,SK,S0K4L0
4e60d9802bf7132147a1,Glendon School,Public,,,Glendon,AB,T0A1P0
4e803d21c2fafca2feb8,Jaya International High School,Private,3105,dundas street west,Mississauga,ON,L5L3R8
4e8aebb05b8d0d0f4c5b,CGF Mitchell Academy,..,,,STEINBACH,MB,R5G1P5
4e9a9f5a5e245829a05e,Heritage International School,Private,411,gordon baker road,North York,ON,M2H2S6
4ead5f3d7a0506bd016b,Heffley Creek Elementary,Public School,,marriott rd rr 2,Heffley Creek,BC,V0E1Z0
4ebdb3811ef458d3aa67,Vancouver Technical Secondary,Public School,2600,broadway e,Vancouver,BC,V5M1Y5
4ecae42bdbf285c5d489,Pinetree Secondary,Public School,3000,pinewood ave,Coquitlam,BC,V3B7Y7
4ed28815727c42bbd77a,True North Christian Academy,Private,599,government st,Dryden,ON,P8N0A2
4efab4fdb2e455b74f35,Durham College of Applied Arts And Technology,Technical and Vocational,2000,simcoe street north,Oshawa,ON,L1H7K4
4f33d0ea97b26135c318,SD36 Alternate Cloverdale LC,Public School,5658,176 street,Surrey,BC,V3R4H9
4f3920a96f04e9c8932d,Terry Fox Secondary,Public School,1260,riverwood gate,Port Coquitlam,BC,V3B7Z5
4f3ad63f5a544c2ee35b,Rio Terrace Elementary School,Public,7608,154 street,Edmonton,AB,T5R1R7
4f6655a6f62fea2897a5,Sandhills School,Public,435a,highway 1,Strathmore,AB,T1P1J4
4fb77bf832da459bec86,Milton Christian School,Private,45,bruce street,Milton,ON,L9T2L5
4fcfa0df7160de27c157,NORTHERN BREEZE COLONY SCHOOL,..,,c/o portage la prairie sd 65 3rd street sw,PORTAGE LA PRAIRIE,MB,R1N2B6
4fdddd193a156b1fecf7,Hodgeville School,..,,,HODGEVILLE,SK,S0H2B0
502792dd3ffac163f0c3,Hofmann Colony School,Public,101,3305 18 avenue n,Lethbridge,AB,T1H5S1
5040ca00f401d8f47cfa,Edwin Parr Composite Community School,Public,#4,university drive,Athabasca,AB,T9S0A3
5042de24e9026671f042,Maywood Community StrongStart Centre,StrongStart BC,4567,imperial st,Burnaby,BC,V5J1B7
504e41846d59c661b35a,Clara Tyner School,Public,9420,ottewell road,Edmonton,AB,T6B2E2
5052c82a5aa3160d618e,Stein Valley Nlakapamux School,Independent School,,,Lytton,BC,V0K1Z0
505894475c2e01c1108b,MAPLE GROVE COLONY SCHOOL,..,,,LAUDER,MB,R0M1C0
505dcd3ab68f9216a1f7,Biggar Central School 2000,..,,,BIGGAR,SK,S0K0M0
50677491178e3c5906c5,Lochside StrongStart Centre,StrongStart BC,1145,royal oak dr,Victoria,BC,V8X3T7
50685244f7d716bbd6e1,WOODLAND COLONY SCHOOL,..,65,3rd street sw,PORTAGE LA PRAIRIE,MB,R1N2B6
507b89c2c38b2776525e,Colwood StrongStart Centre,StrongStart BC,3000,wishart rd,Victoria,BC,V9C1P4
5094fab20e68a3accc73,A S Matheson StrongStart Centre,StrongStart BC,2090,gordon dr,Kelowna,BC,V1Y3H9
50aadd367ea3f363a653,Prescott Learning Centre,Public,340,pioneer road,Spruce Grove,AB,T7X0T1
50aeea246dd60b8640f8,Chief Simeon McKay Education Centre,Private,,,Kasabonika,ON,P0V1Y0
50b33f75ed6d49626e7f,Skeena Middle,Public School,3411,munroe st,Terrace,BC,V8G3C1
50b34cde31bce01ac3f5,Hays School,Public,,,Hays,AB,T0K1B0
50cf87c7da2b985b1943,École Boréale,..,,,PONTEIX,SK,S0N1Z0
50f1c1f72e0ea848c8db,Ermineskin Elementary School,Federal First Nations,,,Maskwacis,AB,T0C1N0
50f345cd15e79e8ce35d,Tompkins School,..,,,TOMPKINS,SK,S0N2S0
50fa6124fb350ca1a10b,Gusty Parochial School,Private,829,concession road 6 arran-elderslie,Paisley,ON,N0G2N0
5128b30814c4473e44b5,Ecole La Verendrye,Francophone,625,21st street south,Lethbridge,AB,T1J5E4
512a68d7c5679b3cee84,Notre Dame Elementary School,Separate,9717,morinville drive,Morinville,AB,T8R1M1
5144079fdb191b300de9,Streetsville Academy Elementary School,Private,6535,millcreek dr,Mississauga,ON,L5N2M2
516b89fdbb59293e7c17,Cherry Hill StrongStart Centre,StrongStart BC,32557,best ave,Mission,BC,V2V2S5
517cda999559558a5f42,Friesen Hutterite School,..,,,WALDECK,SK,S0H4J0
518bf522a7eba494003a,Medicine Hat College (Brooks),Provincial,200,horticultural station rd e,Brooks,AB,T1R1E5
51a3f7802063e3dead7a,Campus Regina Public - Regina Trades and Skills Centre,..,828,albert st,REGINA,SK,S4R2P5
51b0ff9aa8200a0f4381,Ernest Lindner School,..,1087,hampton circle,SASKATOON,SK,S7R0G7
