Index,Facility_Name,Facility_Type,Street_No,Street_Name,City,Prov_Terr,Postal_Code
63d449bbcf0de7a88f9c,Britannia Community Secondary,Public School,1001,cotton dr,Vancouver,BC,V5L3T4
63dfc39950a0e0ab69ce,King George School,..,1150,5th avenue nw,MOOSE JAW,SK,S6H3Y7
64099704bed42f11a476,LaSalle College Vancouver High School,Independent School,2665,renfrew st,Vancouver,BC,V5M0A7
640c1f4ccbef47251302,Holy Redeemer Elementary,..,,,Spaniard's Bay,NL,A0A3X0
646ab4e3fc70c88ced96,High River Colony School,Public,,,High River,AB,T1V1M3
647c932f8eecb592a7ea,Clarenville Middle School,..,50b,gladney st,Clarenville,NL,A5A1G8
647f26e4078a3cfa0bb3,James Gibbons School,Public,8945,153 street,Edmonton,AB,T5R1P1
648f047d24d51ac6858f,Rockglen School,..,,,ROCKGLEN,SK,S0H3R0
649fd10bfe1a401ddd70,Lakedell School,Public,,rr 1,Westerose,AB,T0C2V0
64b704ab1b0236e739c1,Lax Kxeen StrongStart Centre,StrongStart BC,,,Prince Rupert,BC,V8J3R7
64b9459bc039df2a24d0,Long Range Academy,..,,,Cow Head,NL,A0K2A0
64cc74e589828a7ea10c,Youth Assessment Centre,Public,,,Lac La Biche,AB,T0A2C0
64cf4c2e083232115d40,Valhalla High,Public School,,,Vanderhoof,BC,V0J3A0
64e536eb615be41c25b3,Nazko Valley Elementary,Public School,9560,nazko rd,Quesnel,BC,V2J3H9
650340fb012e003b4527,Lord Asquith School,..,,,ASQUITH,SK,S0K0J0
651b6348eb793b731cde,Frog Lake Outreach School,Federal First Nations,,general delivery,Frog Lake,AB,T0A1M0
6549b933213173961a48,Continuing Ed SD 22,Public School,3033,30 st,Vernon,BC,V1T5E4
65728dd94a606b19ab87,Sunrise School,Public,,,Brooks,AB,T1R1C7
659053cf145dcc444396,Meadow Green Academy - Lakeshore,Private,1884,lakeshore road west,Mississauga,ON,L5J1J7
6590e0a422078a584e9b,Woking School,Public,,,Woking,AB,T0H3V0
6593d60c14c0e5e30812,Rose Valley School,..,,,ROSE VALLEY,SK,S0E1M0
659a5076f5c08d74c91a,Red Deer Lake School,Public,,,Calgary,AB,T2J2T9
65a6d55e9e5f417b58af,Big Rose Hutterite School,..,,,BIGGAR,SK,S0K0M0
65ad034e9e9e322f7027,Peace Christian School,Independent School,,,Chetwynd,BC,V0C1J0
65b54805ae0c2a741e58,Shellbrook Public Elementary School,..,,,SHELLBROOK,SK,S0J2E0
65c9d2c93b815f6c5ee2,École Lumsden Elementary School,..,,,LUMSDEN,SK,S0G3C0
65ec7569279de5d4649c,Home Education,Public,,,Okotoks,AB,T1S1B3
65f4dd2d1b5eae46c852,A. P. Low Primary,..,600,bartlett drive,Labrador City,NL,A2V1G6
6606b0a5e04401e44798,Sun Peaks School,Public School,4040,sundance dr,Heffley Creek,BC,V0E1Z1
6627a019d9b9ec363dbc,La Glace School,Public,,,La Glace,AB,T0H2J0
66321b7dfc83fc63775b,Q'aLaTKu7eM School,Public School,,,Mount Currie,BC,V0N2K0
664c02a0a4cde49d1f78,Don Titus StrongStart Centre,StrongStart BC,,,Chetwynd,BC,V0C1J0
66597c8fb2be6e5694c1,J S Clark Elementary,Public School,,,Fort Nelson,BC,V0C1R0
66a509503e2b4c185845,Pleasant Valley Colony School,Public,,rr 1,Clive,AB,T0C0Y0
66a74ef85ef584e5d519,Revelstoke Secondary,Public School,,,Revelstoke,BC,V0E2S0
66d82122facd9c4ae20d,Swan River School,Federal First Nations,,,Kinuso,AB,T0G1K0
66f74aa9804a676c2fdf,Little Robot Friends School,Private,8132,danforth avenue,Toronto,ON,M4C1H8
6700ae66a5dce78b05c8,Home Quest,Public School,9240,112 st,Delta,BC,V4C4X8
6713721f7b80e857e85c,"Jean-Nicolet, secondaire",Public,497,rue monseigneur-brunault nicolet j3t1y6,Nicolet,QC,J3T1Y6
6724bb4b62b5603909df,Foam Lake Elementary,..,,,FOAM LAKE,SK,S0A1A0
675740b7dfdfa54fd36c,Haahuupayak School,Independent School,6000,santu dr,Port Alberni,BC,V9Y8X9
6780881f70b548fe5422,Inglewood School,Public,11515,127 street,Edmonton,AB,T5M0V4
67d3ba44563e415f30ee,Botha School,Public,,,Botha,AB,T0C0N0
67e4be9614533f60c2ad,PIKWITONEI SCHOOL,..,,general delivery,PIKWITONEI,MB,R0B1E0
68157d5324bd40cdb212,Clavet Composite School,..,,,CLAVET,SK,S0K0Y0
68229052f74205d81f19,Levi Angmak School,..,,,Arviat,NU,..
68387e277b25b74387fc,Thom Collegiate,..,265,argyle street n,REGINA,SK,S4R4C7
6857bd7c5ff9d7b506ba,Uplands Park Elementary,Public School,3821,stronach dr,Nanaimo,BC,V9T3X4
68787a31f5da6782ef94,Líídl?? Kú? Regional High School (Thomas Simpson Secondary School),..,,,Fort Simpson,NT,X0E 0N0
