Index,Facility_Name,Facility_Type,Street_No,Street_Name,City,Prov_Terr,Postal_Code
4b625971c2c9b1e88127,ROBLIN ELEMENTARY,..,,,ROBLIN,MB,R0L1P0
4b6a4b0facbb849685ae,Meyokumin School,Public,5703,19a avenue,Edmonton,AB,T6L4J8
4b8f9e105d788100d2f0,St. Patrick Catholic School,Separate,4816,53 avenue,Camrose,AB,T4V0Y2
4bb9d644af6cb5e6f7c5,PLUMAS ELEMENTARY,..,,,PLUMAS,MB,R0J1P0
4bc425dbd32a2fb367ff,Nampa Public School,Public,,,Nampa,AB,T0H2R0
4bcfb74d6286d20f23a4,Woodland Centre School,Independent School,7360,hwy 16e,Vanderhoof,BC,V0J3A1
4be57bbf2baf64931048,Elnora School,Public,,,Elnora,AB,T0M0Y0
4bfacba0af9f46cf6467,SD 64 StrongStart BC Outreach Program #2,StrongStart BC,,,..,BC,..
4c29c39dfd60cd1c437b,Catholic Central High School,Separate,405,18 street s,Lethbridge,AB,T1J3E5
4c2bc0ea4ac71d34d604,Mud Lake School,..,,general delivery,Mud Lake,NL,A0P1K0
4c302e0fae6427ce4ded,Early Discoveries Childhood Services,ECS Private Operator,,,Calgary,AB,T3L2Y1
4c524c19ed88a6be4ae2,Virtual Elementary School,Private,27,main street n,Bayfield,ON,N0M1G0
4c912ca6dbc0da371e8f,Inner City High School,Private School,,,Edmonton,AB,T5J3K7
4ca629e6b774b79e82ca,Roberts Creek StrongStart Centre,StrongStart BC,,,Sechelt,BC,V0N3A0
4cccca0038ecec274aef,Kincaid Central School,..,,,KINCAID,SK,S0H2J0
4cf1652341abb2055a2e,Edgewater Elementary,Public School,,,Edgewater,BC,V0A1E0
4cfc77d93bd06ef5b3bd,Sask Central Hutterian School,..,,,SEMANS,SK,S0A3S0
4d1042c4bff815c0d77e,Willow Creek Colony School,Public,,,Claresholm,AB,T0L0T0
4d1d431dced98d625647,Claren Academy,Independent School,1035,cambie st,Vancouver,BC,V6B5L7
4d2169602eaefaa5955a,Autumn Leaf Colony School,Public,,c/o springridge holdings,Wainwright,AB,T9W1S8
4d24485569fb4267dbe3,Free Spirit Forest and Nature School,Private,879,sixth street,Collingwood,ON,L9Y3Y9
4d24cf60e6349724307e,H. G. Fillier Academy,..,,,Englee,NL,A0K2J0
4d33e9964df9075cbe89,Eyebrow School,..,,,EYEBROW,SK,S0H1L0
4d41f7237924e51d0094,Mundare School,Public,,,Mundare,AB,T0B3H0
4d5eea739f582d53113b,Alameda School,..,,,ALAMEDA,SK,S0C0A0
4d8ed588201faf13e121,Two Rivers Education Centre,Public School,,,Hope,BC,V0X1L0
4d91710689a3cf53de7f,Dorset Collegiate,..,,,Pilley's Island,NL,A0J1M0
4d9a876bc815d660a315,Crestomere School,Public,,rr 3,Lacombe,AB,T4L2N3
4dd75e2240f6d890b574,Montney Mennonite School,Independent School,,,Montney,BC,V0C1Y0
4de497098a02b11dbd3c,St Joseph's,Independent School,,,Smithers,BC,V0J2N0
4df196856263627e1727,Western Academy Broadcasting College Ltd,Private Institution,,,Saskatoon,SK,S7K4E5
4e0417104c530de2befa,Lakeside Colony School,..,,,QUILL LAKE,SK,S0A3E0
4e046cb9060ff55dbb22,Eatonia Hutterite School,..,,,EATONIA,SK,S0L0Y0
4e0812a6fd5adb53156a,Morley Community School,Federal First Nations,,,Morley,AB,T0L1N0
4e1be0e4147aabe0536e,Two Hills School,Public,,,Two Hills,AB,T0B4K0
4e45c014f494957b8c57,Corpus Christi School,Separate,460,watt boulevard sw,Edmonton,AB,T6X1P9
4e572966baa18b75f57b,Peacock Primary School,..,,,Happy Valley-Goose Bay,NL,A0P1E0
4e5bff1d3c913fb440c9,St. Peter's School,..,,,UNITY,SK,S0K4L0
4e60d9802bf7132147a1,Glendon School,Public,,,Glendon,AB,T0A1P0
4e803d21c2fafca2feb8,Jaya International High School,Private,3105,dundas street west,Mississauga,ON,L5L3R8
4e8aebb05b8d0d0f4c5b,CGF Mitchell Academy,..,,,STEINBACH,MB,R5G1P5
4e9a9f5a5e245829a05e,Heritage International School,Private,411,gordon baker road,North York,ON,M2H2S6
4ead5f3d7a0506bd016b,Heffley Creek Elementary,Public School,,marriott rd rr 2,Heffley Creek,BC,V0E1Z0
4ebdb3811ef458d3aa67,Vancouver Technical Secondary,Public School,2600,broadway e,Vancouver,BC,V5M1Y5
4ecae42bdbf285c5d489,Pinetree Secondary,Public School,3000,pinewood ave,Coquitlam,BC,V3B7Y7
4ed28815727c42bbd77a,True North Christian Academy,Private,599,government st,Dryden,ON,P8N0A2
4efab4fdb2e455b74f35,Durham College of Applied Arts And Technology,Technical and Vocational,2000,simcoe street north,Oshawa,ON,L1H7K4
4f33d0ea97b26135c318,SD36 Alternate Cloverdale LC,Public School,5658,176 street,Surrey,BC,V3R4H9
4f3920a96f04e9c8932d,Terry Fox Secondary,Public School,1260,riverwood gate,Port Coquitlam,BC,V3B7Z5
