Index,Facility_Name,Facility_Type,Street_No,Street_Name,City,Prov_Terr,Postal_Code
52e0f8fed05f4594d1bc,Dr. Isman Elementary School,..,,,WOLSELEY,SK,S0G5H0
52ed1ddda33217833f8d,St. Nicholas,Separate,3643,115 avenue,Edmonton,AB,T5W0V1
52f5d6a97369996d2d18,Spirit e-Learning School,..,,,WARMAN,SK,S0K4S0
530c990bcb94de1a4e31,Greenwood Colony School,Public,,,Fort Macleod,AB,T0L0Z0
53383efe952a55ee68f6,École Notre Dame High,Separate,,,Bonnyville,AB,T9N2G3
536940032045c5d682de,SOURIS RIVER COLONY SCHOOL,..,,,SOURIS,MB,R0K2C0
537190f6bb2ae2d5a6dc,Begbie View StrongStart Centre,StrongStart BC,,,Revelstoke,BC,V0E2S0
53a999b4d1d07dac3bf4,ÉCOLE ST. ADOLPHE SCHOOL,..,444,la seine street,ST. ADOLPHE,MB,R5A1C2
53b3097f9b713786e3ee,Borden Academy,Private,550,hwy 7 east richmondhill ontario l4b3z4,Richmondhill,ON,L4B3Z4
53b65557f7b256076ec3,Eaton School,..,,,EATONIA,SK,S0L0Y0
53c4bf016b02646f3fd7,Beaconsfield Junior High,..,210,waterford bridge road,St. John's,NL,A1E1E2
53e971c7f3c98133675e,CLS James Fowler Writing Centre,Public,4004,4 st ne,Calgary,AB,T2K1A1
54123202e7969943f28f,MORNING GLORY SCHOOL,..,35062,road 32 east mitchell r5g,MITCHELL,MB,R5G2N1
5413f39e69219a995dac,Woodland Springs Parochial School,Private,1,southgate road 4,Mount Forest,ON,N0G2L0
54192dabccfa7745d202,Sunnyside School,Public,101,3305 18 avenue n,Lethbridge,AB,T1H5S1
5422331c152dec09471e,SANDY BANK SCHOOL,..,,general delivery cypress river colony cypress river,CYPRESS RIVER,MB,R0K0P0
54272cda4d03f3a66e59,Victoria School,..,,,KAMSACK,SK,S0A1S0
543f9097761b4e056394,GREEN ACRES COLONY HIGH SCHOOL,..,,,WAWANESA,MB,R0K2G0
5446be8b52f170db674d,INST. COLL. SAINT-PIERRE,..,,,ST. PIERRE-JOLYS,MB,R0A1V0
5449484faa72a8a1e57e,Silver Creek School,Public,,rr#1,Ferintosh,AB,T0B1M0
545d6e7cfdbe278d0910,Aspengrove School,Independent School,7660,clark dr rr 2,Lantzville,BC,V0R2H0
546ad30c84505821051f,Stratford Middle Years School,Private,35,waterloo st,STRATFORD,ON,N5A5H6
547838812afeebc0cfca,WILLOW CREEK COLONY SCHOOL,..,,willow creek colony cartwright,CARTWRIGHT,MB,R0K0L0
54a262bb8c5b8022b015,Paul Rowe Junior Senior High School,Public,,,Manning,AB,T0H2M0
54a55de2ceb529cada2a,Sacred Heart Academy,..,,,Marystown,NL,A0E2M0
54cde4ae26b184f10d58,Leask Hutterite Colony School,..,,,LEASK,SK,S0J1M0
54f2953400977b9be0d3,Tompkins Hutterite School,..,,,TOMPKINS,SK,S0N2S0
550c18ec822d14478385,Wymark Hutterite School,..,,,SWIFT CURRENT,SK,S9H3W8
552581d4fce8cb2ab350,OAK RIVER COLONY SCHOOL,..,,,OAK RIVER,MB,R0K1T0
552ae2d83ddfe76a2320,Don Valley Academy,Private,4576,yonge st,Toronto,ON,M2N6N4
55442f897094ddae705c,Mistassiniy Outreach Program,Public,,,Wabasca,AB,T0G2K0
555ce2e8b7b29aa31e8c,Greenview School,Public,5904,38 avenue,Edmonton,AB,T6L3P5
55669e8e9d01f49162fb,Pleasant Valley Elementary,Public School,6201,dunbar rd,Nanaimo,BC,V9T2P2
5566d3f27be414b13711,Skaha Lake Middle School,Public School,110,green ave w,Penticton,BC,V2A3T1
55684a6d573cc699362f,Arborfield School,..,,,ARBORFIELD,SK,S0E0A0
5573efb752bc78c5d6ed,École Maple Creek Middle,Public School,3700,hastings st,Port Coquitlam,BC,V3B5K7
5574a258b0691416e252,GILBERT PLAINS COLLEGIATE INSTITUTE,..,,,GILBERT PLAINS,MB,R0L0X0
5574dc64ac668bda1157,Norfolk Hutterite School,..,,,HODGEVILLE,SK,S0H2B0
557f981b9921aded8f88,Hague High School,..,,,HAGUE,SK,S0K1X0
55ce5c623078fd6d1446,Jens Haven Memorial,..,,,Nain,NL,A0P1L0
55ecd01419b69d6d2f5e,Hazlet School,..,,,HAZLET,SK,S0N1E0
55f0e59ab2d5239c017a,Immanuel Christian Elementary School,Public,2010,5 avenue n,Lethbridge,AB,T1H0N5
55f3285ba084f53901b1,Kitwanga Elementary,Public School,,,Kitwanga,BC,V0J2A0
560fdd6c8fdddcc7be4e,Skylight Colony School,Public,3305,18 ave n,Lethbridge,AB,T1H5S1
5625fbe610734a077569,Basque Memorial,..,,,Red Bay,NL,A0K4K0
5637bfc9beeef086744e,Private Study,Provincial,10044,108 street,Edmonton,AB,T5J5E6
56391e4cd11b390e3834,Spring Glen Junior High School,Public,,,Hill Spring,AB,T0K1E0
56560db2f03a59480eb2,Pilot Butte Elementary School,..,,,PILOT BUTTE,SK,S0G3Z0
566c2c1e69ad6bede381,Britestone Hutterite Colony,Public,435a,highway 1,Strathmore,AB,T1P1J4
