Index,Facility_Name,Facility_Type,Street_No,Street_Name,City,Prov_Terr,Postal_Code
0400debbaff74746c9b3,SD 6 StrongStart BC Outreach Program #1,StrongStart BC,,,Invermere,BC,V0A1K0
0424f3229c9d83080994,Sperling Elementary,Public School,2200,sperling ave,Burnaby,BC,V5B4K7
042f4df465dbd28ff7d3,St. Anne,Separate,14105,94 street,Edmonton,AB,T5E6B2
043342a8eef44163f691,Jonah Amitnaaq School,..,,,Baker Lake,NU,..
0438df99b52473212bfd,Miller School,..,,,MELVILLE,SK,S0A2P0
04576a64567150c7acb7,Neu Muehl Colony School,Public,,,Drumheller,AB,T0J0Y0
045d63441d99b9c354ef,Taber Mennonite School,Public,5329,27th avenue,Taber,AB,T1G1R4
046751db8c6ea0d30604,Cudworth School,..,,,CUDWORTH,SK,S0K1B0
047701f68dcb7c72f670,Eagle View Elementary,Public School,,,Port Hardy,BC,V0N2P0
048dc696514edb6e9e7a,M.V. Beattie StrongStart Centre,StrongStart BC,,,Enderby,BC,V0E1V0
04946f523b3ec3daec9a,Arbutus Global Middle School,Public School,2306,edgelow st,Victoria,BC,V8N1R5
049fb48c1fa20b4da447,ROLLING ACRES SCHOOL,..,,,BIRNIE,MB,R0J0J0
04b4285b492f143f3763,Sherwood School,Public,9550,152 street,Edmonton,AB,T5P0B9
04ba7773ee69ea28bd52,Sir Alexander Mackenzie StrongStart,StrongStart BC,960,39th ave,Vancouver,BC,V5W1K8
04d239416a7b406c1124,Station Stretch,Public School,5280,minoru blvd,Richmond,BC,V6X2A9
04d5f46c2f1fd627dc2d,Homelinks - Kaslo,Public School,,,Kaslo,BC,V0G1M0
04e057a110dae472992a,Zeballos StrongStart Centre,StrongStart BC,,,Zeballos,BC,V0P2A0
04ed0314824dff08b7ca,Ã‰cole St. John Paul II School,Separate,4802,southlands drive southeas,Medicine Hat,AB,T1B0L6
051838cc0681e79bdc60,DONALD AHMO SCHOOL,..,,general delivery,CRANE RIVER,MB,R0L0M0
051843d43213ea5c7292,Christ the King School,..,,general delivery,Rushoon,NL,A0E2S0
0522dbefe19ea8ba2194,College of the North Atlantic- Prince Phillip Drive campus,Technical and Vocational,1,prince philip drive,St. John's,NL,A1C5P7
0534589a9eddc986ecfa,Albion Ridge Colony School,Public,,,Picture Butte,AB,T0K1B0
059de14e392efe2fac15,Kelowna Secondary,Public School,1079,raymer ave,Kelowna,BC,V1Y4Z7
05a8b78b60868f7676b6,St. Gregory The Great Catholic School,Separate,105,cottonwood drive,Blackfalds,AB,T4R0M4
05ce1b9fcc70c64831d3,Waldheim School,..,,,WALDHEIM,SK,S0K4R0
060a1d5398c9a97a9207,St. Mark's School,..,,,King's Cove,NL,A0C1S0
06101f2ed98f6776878f,SD 54 StrongStart BC Outreach Program #1,StrongStart BC,,,Smithers,BC,V0J2N0
06119e5ee198217b44b2,Lindale School,..,1322,11th avenue nw,MOOSE JAW,SK,S6H4L9
062381c45019c377700c,Lennox & Addington Cornerstone Christian,Private,320,bridge st w,Napanee,ON,K7R3S7
06472a4fb5dbd7da94a7,Chief Tallcree School North,Federal First Nations,,,Fort Vermilion,AB,T0H1N0
064ae2220210ed069a6b,McLurg High School,..,,,WILKIE,SK,S0K4W0
0679a9f258f9e10902c0,Clear Springs Hutterite School,..,,,KENASTON,SK,S0G2N0
068e79cdb66812f5b9e3,Castor Outreach School,Public,,,Castor,AB,T0C0X0
06b6267d8a92f1176995,Huxley Colony School,Public,435a,highway 1,Strathmore,AB,T1P1J4
06c5ae91b6a49f684306,Pearson Academy,..,,,Wesleyville,NL,A0G4R0
06caf65c55a149ed2965,KELSEY SCHOOL,..,,,ROSSER,MB,R0H1E0
06e3809a9f5c06285f7a,Arrowwood Community School,Public,,,Arrowwood,AB,T0L0B0
06e716052fcc86ae25cf,Prairie Christian Academy,Public,,,Three Hills,AB,T0M2A0
06eeddd72671e8d8c0cb,Rochfort Bridge Colony School,Public,,,Mayerthorpe,AB,T0E1N0
0713bff5366dc15ccf2d,Piikani Nation Secondary School,Federal First Nations,,,Brocket,AB,T0K0H0
072493fc2effbe3eac9b,Riverbend Hutterite Colony School,..,,,WALDHEIM,SK,S0K4R0
072e31ee921dac0ef09b,Westview Secondary,Public School,20905,wicklund ave,Maple Ridge,BC,V2X8E8
075019fd83a90a49cba6,Bert Fox High School,..,,,FORT QU'APPELLE,SK,S0G1S0
0757c4e1fb42508c2437,Camrose Outreach School,Public,4412,56 street,Camrose,AB,T4V5K4
075b701465a37a364dc8,CHRISTIAN HERITAGE SCHOOL,..,2025,26th street,BRANDON,MB,R7B3Y2
077934b7ca218cec4add,St. Andrew's School,Separate,,,High Prairie,AB,T0G1E0
077e2adcfdc201e2107d,Windsor Islamic High School,Private,5420,empress street,Windsor,ON,N8T2E7
079ef670f15cfd0df011,DR. F.W.L. HAMILTON SCHOOL,..,3225,henderson hwy east,EAST ST. PAUL,MB,R2E0J2
07c9f1afe2aea240cbb2,Upsala Christian School,Private,11,north farm loop,Upsala,ON,P0T2Y0
