Index,Facility_Name,Facility_Type,Street_No,Street_Name,City,Prov_Terr,Postal_Code
68a80d40f6658b6f8650,Sakatcheway Anishinabe,Private,1,education drive,Grassy Narrows,ON,P0X1B0
68cc866d855f6773add2,ÉCOLE HÉRITAGE IMMERSION,..,,,ST. PIERRE-JOLYS,MB,R0A1V0
68d40805bf43b90e3330,Macton Parochial School,Private,4783,lavery road,Wallenstein,ON,N0B2S0
68debe8fabcb6f0bb80f,Beachy Cove Elementary,..,,,Portugal Cove - St. Philip's,NL,A1M3R6
68fbd8d5462e8787024a,SD 28 StrongStart BC Outreach Program #1,StrongStart BC,,,..,BC,..
690f169c0e8867318668,SD 59 StrongStart BC Outreach Program #1,StrongStart BC,,,..,BC,..
694a1e0f934d07a73800,Big Bend Colony School,Public,,,Cardston,AB,T0K0K0
694d3d7610822594a19e,Sifton School,Public,4305,134 avenue,Edmonton,AB,T5A3R5
69688c20a8df6f45c286,Joseph M. Demko School,Public,200,jensen lakes boulevard,St. Albert,AB,T8N7V3
696c886ae4bffcb607eb,Filipino Language & Cultural School,Private School,11209,78 avenue,Edmonton,AB,T6G0M8
69745061f12099051320,Zion Lutheran Christian School,Independent School,180,tabor blvd s,Prince George,BC,V2M5T4
6996ade2e8df4f134654,Senator Joyce Fairbairn Middle School,Public,301,rocky mountain boulevard w,Lethbridge,AB,T1K6S4
69b2f7b7a436a2acb86c,Acadia Colony School,Public,,,Acadia Valley,AB,T0J0A0
69b6a9b130855e42950d,Valemount Elementary,Public School,,,Valemount,BC,V0E2Z0
69baf275e89cd56d01a1,Heritage Hills Elementary School,Public,280,heritage drive,Sherwood Park,AB,T8A6J8
69c1e728b97070623da7,Duchess Park Secondary,Public School,747,winnipeg st,Prince George,BC,V2L2V3
69e1a8e7328d380759ff,MAC Islamic School,Private School,11342,127 street,Edmonton,AB,T5M0T8
69e4cdfd5d5a8835eba7,Athabasca Colony School,Public,5502,48 avenue,Athabasca,AB,T9S1L3
69f59119c6ed20b2c55c,SD 60 StrongStart BC Outreach Program #1,StrongStart BC,,,..,BC,..
6a14800832eaac8ac8e8,École Frank Ross Elementary,Public School,1000,92 ave,Dawson Creek,BC,V1G1C1
6a1edc626826fee23c12,MACGREGOR ELEMENTARY,..,,,MACGREGOR,MB,R0H0R0
6a3b43165d7c3f687979,Rocky Mountain Elementary,Public School,,,Elkford,BC,V0B1H0
6a69e8b64503e2459c45,Grenfell Elementary School,..,,,GRENFELL,SK,S0G2B0
6a8f8d156e0295d64308,SD 46 StrongStart BC Outreach Program #1,StrongStart BC,,,Sechelt,BC,V0N3A0
6ab8a1cfb19c760829ad,SHAMROCK SCHOOL,..,,,BALDUR,MB,R0K0B0
6af24a93c311a2dd038c,Fairville Colony School,Public,,,Bassano,AB,T0J0B0
6af4866202397516a086,SD 57 StrongStart BC Outreach Program #1,StrongStart BC,,,..,BC,..
6b2ca00f0c38f086ed00,GREEN VALLEY SCHOOL,..,,,GRUNTHAL,MB,R0A0R0
6b3437278f85f1991746,Hafford Central School,..,,,HAFFORD,SK,S0J1A0
6b5da103853721894e1b,Strathcona School,Public,10450,72 avenue,Edmonton,AB,T6E0Z6
6b61956671dd412476c9,Spring Point Colony School,Public,,,Pincher Creek,AB,T0K1W0
6b90b76979d18bfd68c6,Walnut Park Elementary,Public School,,,Smithers,BC,V0J2N0
6b94a5bbcbafd428e144,Langenburg Central School,..,,,LANGENBURG,SK,S0A2A0
6b9a447dc03021968d27,Palliser Beyond Borders at Vulcan,Public,,,Vulcan,AB,T0L2B0
6bc27da3504be23782b5,Ron Brent Elementary,Public School,1401,17th ave,Prince George,BC,V2L3Z2
6bc53ffc4056c436bfed,Hillcrest Elementary School,..,609,rooks avenue,ESTEVAN,SK,S4A0B4
6bc6273097509a482b42,CHAN KAGHA OTINA DAKOTA WAYAWA TIPI SCH.,..,,,BEULAH,MB,R0M0B0
6bc81123a408045fdca7,Gidgalang Kuuyas Naay,Public School,,,Queen Charlotte,BC,V0T1S0
6bcbed0934880faa3120,Saturna Island Elementary Secondary,Public School,,,Saturna,BC,V0N2Y0
6bd3afe1584de43c6e25,Pine Hill Colony School,Public,,rr 4,Red Deer,AB,T4N5E4
6bd60a24c85205734c2a,Wynyard Elementary,..,,,WYNYARD,SK,S0A4T0
6bd9caac6a52656eca6f,Smallwood Academy,..,,,Gambo,NL,A0G1T0
6bda0c4dd938fec19430,Biigtigong Nishnaabeg,Private,21,rabbit drive,Heron Bay,ON,P0T1R0
6bf06f169e330dc0a225,St. Lorenzo Ruiz Catholic School,..,1023,hampton circle,SASKATOON,SK,S7R0G7
6c0b44660d292c0c23c5,Peace Arch Elementary,Public School,15877,roper ave,White Rock,BC,V4B2H5
6c15484719812a7d5ab1,CHIEF CLIFFORD LYNXLEG ANISHINABE SCHOOL,..,,,SHORTDALE,MB,R0L1W0
6c2801ec703ba27b4a2d,Harmony Heights Elementary School,Public,25,cedar dr,Truro,NS,B2N5W3
6c2ff9395795b6999dfe,Rock City Elementary,Public School,3741,departure bay rd,Nanaimo,BC,V9T1C5
6c58afff8d59c82b73ff,Chestermere Learning Centre,ECS Private Operator,200,rivercrest dr,Calgary,AB,T2A2X5
