Index,Facility_Name,Facility_Type,Street_No,Street_Name,City,Prov_Terr,Postal_Code
5b8797502bb44a06b175,Keystone Montessori School,Private,133,james street east,Orillia,ON,L3V1L7
5b8ef48f93db6be41e29,Paul Kane Continuing Education,Public,12,cunningham road,St. Albert,AB,T8N2E9
5b934c3147f888ceb169,Salmo Secondary,Public School,,,Salmo,BC,V0G1Z0
5b95168ddb44f6fe0e81,Timothy Canadian Reformed School,Private,430,east 25th st,Hamilton,ON,L8V3B4
5baa473b5bb3195aa3c3,Stanley Humphries Secondary,Public School,720,7 ave,Castlegar,BC,V1N1R5
5bb739d85836bab4c7a1,STE. ANNE COLLEGIATE,..,197,st alphonse avenue,STE ANNE,MB,R5H1G3
5bcd8d77cded8c305ec4,David Stoddart,Public School,,,Clinton,BC,V0K1K0
5bd7cf12b291376b8f33,Durham Academy,Private,900,king street east,Oshawa,ON,L1H1H2
5befc08311a83174e231,Spruce Grove Composite High School,Public,1000,calahoo road,Spruce Grove,AB,T7X2T7
5bf8d60d0bb20e917cfd,Meskanahk Ka-Nipa-Wit School,Federal First Nations,,,Maskwacis,AB,T0C1N0
5c14bdac377bdd5f8d1a,Innisfree School,ECS Private Operator,,,Innisfree,AB,T0B2G0
5c1d7d86e17e4c92a913,Echo Valley Christian School,Private School,,,Bluffton,AB,T0C0M0
5c231d25efd4f7051e51,Prairie Adventist Christian eSchool,Private School,5816,highway 2a,Lacombe,AB,T4L2G5
5c2cdf7b057ddfcf456c,J A Williams High School,Public,,,Lac La Biche,AB,T0A2C0
5c2d7ea63f763c319f15,Belanger Memorial School,..,,general delivery,Upper Ferry,NL,A0N1J0
5c349d9b0eec39de8c6c,Laval High School,..,,,Placentia,NL,A0B2Y0
5c3fb92c3ed57a4c92f6,Sparwood Secondary,Public School,,,Sparwood,BC,V0B2G0
5c55b48d25d789bf5775,Columbia Academy,ECS Private Operator,,,..,AB,..
5c5e0815989e3146e38d,Seven Persons School,Public,,,Seven Persons,AB,T0K1Z0
5c759aca177a8ba55180,SPRINGFIELD MIDDLE SCHOOL,..,860,cedar avenue oakbank,OAKBANK,MB,R0E1J0
5c77cd2f1b6446ddf563,Horse Lake Elementary,Public School,6548,ryall rd,Lone Butte,BC,V0K1X3
5c80b2cf6ab06162b191,SD 87 StrongStart BC Outreach Program,StrongStart BC,,,Dease Lake,BC,V0C1L0
5c86d5f7988652d1f775,Operating Engineers College,Private Institution,,salmonier line,Holyrood,NL,A0A2R0
5cab52c55511146b9a97,Gateway Academy Valleyview,Public,,,Valleyview,AB,T0H3N0
5cbb24a767019ccffacb,SERGEANT TOMMY PRINCE SCHOOL,..,,,SCANTERBURY,MB,R0E1W0
5cbb82330c0d15869adf,Altario School,Public,,,Altario,AB,T0C0E0
5ccbbae134e197b83fea,Continuing Ed SD 68,Public School,550,seventh st,Nanaimo,BC,V9R3Z2
5cd03279a426c6ecd46b,Louie Norwegian School,..,,,Jean Marie River,NT,X0E 0N0
5cdf20739738e000bb2b,St Lawrence College of Applied Arts & Technology-Cornwall,Technical and Vocational,,windmill point,Cornwall,ON,K6H4Z1
5ce0e1610a80da741216,Kinnaird Elementary,Public School,2273,10 ave,Castlegar,BC,V1N2Z8
5cf0160a9341269e7404,Valley View School,..,,,BEAUVAL,SK,S0M0G0
5d0990df29630e0e7f3a,Calvary Christian Academy,Private,9749,15 hwy rr 6,Smiths Falls,ON,K7A4S7
5d182026f6427c174dc8,Kingston Christian School,Private,1212,woodbine rd,Kingston,ON,K7L4V2
5d1bb4402957b37c42b6,Departure Bay Elementary,Public School,3004,departure bay rd,Nanaimo,BC,V9T1B4
5d25068b4ad9149ab3ad,Ã‰cole Mallaig Community School,Public,,,Mallaig,AB,T0A2K0
5d3146486edc766043fe,Matawa Education & Care Centre,Private,200,lille street north st,THUNDER BAY,ON,P7C5Y2
5d4100d4b77c4f5057f8,Joussard School,Public,,,Joussard,AB,T0G1J0
5d923c66679221164b37,Out-of-District Program,Public,,,Edmonton,AB,T5H4G9
5d9d647e06652bbd8858,SD 20 StrongStart BC Outreach Program #1,StrongStart BC,200,centre ave,Castlegar,BC,V1N3B9
5daf4bfb38a207c3149e,St. Augustine School (Wilcox),..,,,WILCOX,SK,S0G5E0
5dd87fefeed4805ac97f,Charles Yohin School,..,,,Nahanni Butte,NT,X0E 0N0
5e203167522970a2a07d,Trinity Christian Academy,Public,630,westchester road,Strathmore,AB,T1P1H8
5e55b8b6ba3ce0d33781,Dr. John C. Wickwire Academy,Public,311,port mouton rd,Liverpool,NS,B0T1K0
5e60c0dbd43c04ca68ba,Solomon College,Private School,10621,100 avenue,Edmonton,AB,T5J0B3
5e626bf607960aad4681,Shamrock Colony School,Public,,,Bow Island,AB,T0K0G0
5e7391c5bc77f716f167,Hill Crest Community School,Public,,,La Crete,AB,T0H2H0
5e773afd5a4ac1684a60,Fitzgerald Academy,..,,,English Harbour West,NL,A0H1M0
5e83cbcc7565e5b5fad3,Sacred Heart,Independent School,,,Delta,BC,V4K3N5
5e924ffffb98b7dde0d1,Paddle Prairie School,Public,,,Paddle Prairie,AB,T0H2W0
