Index,Facility_Name,Facility_Type,Street_No,Street_Name,City,Prov_Terr,Postal_Code
4640f38701660a96034a,Willow Park Colony School,..,,,WARMAN,SK,S0K4S0
466047fa748bb198e5ff,Compass Education Support Program,Alternative Learning Centre,55,westmorland street,Saint John,NB,E2J2E3
466e4b2a51ac5d5a0a8a,Waterton New Yarrow Colony School,Public,,,Hillspring,AB,T0K1E0
4693fac91ad756bebe9d,Giscome Elementary,Public School,,,Willow River,BC,V0J3C0
46a9b166fbb31ef5d9b2,Annaheim School,..,,,ANNAHEIM,SK,S0K0G0
46c6643eb693566a02f4,Community Preschool Education,ECS Private Operator,,12122-68 street,Edmonton,AB,T5B1R1
46f64e4f0585c039942c,Lakeside Academy,..,,,Buchans,NL,A0H1G0
46ff2501b273cd66791a,R C Macdonald Elementary,Public School,2550,leduc ave,Coquitlam,BC,V3K5W6
471c893296e42b41b03c,Lotsa Tots West Kindergarten,ECS Private Operator,,,Red Deer,AB,T4N5E8
4721658398b9d8aefb5c,CRYSTAL CITY EARLY YEARS SCHOOL,..,,,CRYSTAL CITY,MB,R0K0N0
475cc3b1c9084be6a631,Connect Society's Early Childhood Services,ECS Private Operator,,6240-113 street nw,Edmonton,AB,T6H3L2
4777ab6fb9531514bc17,Campbellton Learning Center,Alternative Learning Centre,29,roseberry street,Campbellton,NB,E3N2G3
47904db0c618b81ab281,Franc Depart Pionners,StrongStart BC,1618,patricia ave,Port Coquitlam,BC,V3B4A8
47922062fe63cc79c905,Milo ECS School,ECS Private Operator,,,Milo,AB,T0L1L0
47d6c79d75f065cbc66f,FISHER BRANCH COLLEGIATE,..,,,FISHER BRANCH,MB,R0C0Z0
47f34ecca654a1b97997,New Brunswick College of Craft & Design,Technical and Vocational,,,Fredericton,NB,E3B5H1
4820b66586e0671d4280,Holyrood School,Public,7920,94 avenue,Edmonton,AB,T6C1W4
4842bcdf505a7de31663,Edmonton Islamic Academy,Private School,14525,127 street,Edmonton,AB,T6V0B3
4847499baa5f8a0f0590,Anahim Lake Elem-Jr Secondary,Public School,,,Anahim Lake,BC,V0L1C0
48478daa919f64af2222,Agape Early Childhood Services,ECS Private Operator,,,Lethbridge,AB,T1J4K4
4855062fccde6619a8be,Iron Ridge Junior Campus,Public,,,Blackfalds,AB,T0M0J0
4858a90c4a365add99c2,Greenwood Elementary,Public School,,,Greenwood,BC,V0H1J0
4871085f6d8523c50f3e,Winfield Elementary School,Public,,,Winfield,AB,T0C2X0
487be1b9dbfe47d0ad4f,Cando Community School,..,,,CANDO,SK,S0K0V0
488b38f5a498e9bcd609,Tilley Mennonite School,Private School,,,Tilley,AB,T0J3K0
489e6c98bb3d1dcb7f09,Charles Hays Secondary,Public School,,,Prince Rupert,BC,V8J1G9
48c700de791dcc4a9ec3,Worsley Central School,Public,,,Worsley,AB,T0H3W0
48ee70aaa23ab1a43f36,ROCK LAKE SCHOOL,..,,,CARTWRIGHT,MB,R0K0L0
4921db5730e171a59e82,Dave McNeilly Public School,Public,431,callen drive,Fort McMurray,AB,T9K0X8
492c0f1d7865a7102ef4,RIVERDALE SCHOOL,..,,rr #1,KENVILLE,MB,R0L0Z0
496165027288379b5ea9,Edge School,Private School,33055,township road 250,Calgary,AB,T3Z1L4
4982eea12da5e75c7b05,Arrowwood Colony School,Public,3305,18 ave north,Lethbridge,AB,T1H5S1
4996cb3c9dc8bb27769a,Aahsaopi Elementary School,Federal First Nations,,general delivery,Glenwood,AB,T0K2R0
49b513eb2e3eb51c391a,Anchor Point Montessori,Independent School,,,Richmond,BC,V6X3R9
49dda75ae228b2f0a53e,Simon Alaituq School,..,,,Rankin Inlet,NU,..
49eb337364b66c66f23a,Gordon Terrace Elementary,Public School,1200,5th ave s,Cranbrook,BC,V1C2H1
49f87738e6ec548c298d,Walshe Crossroads Campus,Public,,,Fort Macleod,AB,T0L0Z0
4a08f84d077450362d9b,Fairview College - Peace River,Provincial,,,Peace River,AB,T8S1V9
4a3989a23b044cf22058,Elite Performance Academy,Private,870,taunton road west,Oshawa,ON,L1H7K4
4a5b4435b583264c0548,Eliza Van Bibber School,..,,,Pelly crossing,YT,Y0B 1P0
4a8424c55fa817344bff,History Re-Registration,Provincial,10044,108 street,Edmonton,AB,T5J5E6
4ab53762b26576fd158f,Heritage Christian School,Independent School,907,badke rd,Kelowna,BC,V1X5Z5
4acd8d4e9c7d4c8c6a07,A. L. Horton Elementary School,Public,5037,48 avenue,Vegreville,AB,T9C1L8
4ae53ab3d264a208d2d3,SD 93 StrongStart BC Outreach Program #1,StrongStart BC,,,..,BC,..
4b038c04292cd35e8a5c,Queen's Collegiate,Private,5535,eglinton west ave,Toronto,ON,M9C5K5
4b2db6b7e7320561b95e,William Gillett Academy,..,,,"Charlottetown, LAB",NL,A0K5Y0
4b3088919558a1cc22a6,Namao Flying Club,Private Institution,,,Sturgeon County,AB,T8T0E3
4b376690a310eae15851,Sakaw School,Public,5730,11a avenue,Edmonton,AB,T6L3A9
4b416c5a2fd73037d9a7,Elizabeth Community School,Public,,,Cold Lake,AB,T9M1P1
