Index,Facility_Name,Facility_Type,Street_No,Street_Name,City,Prov_Terr,Postal_Code
7a4ea53a35a0c6721b59,Red Crow Community College,Private School,,,Cardston,AB,T0K0K0
7a621d28424ef49f7ff7,Maple View Parochial School,Private,9542,arthur con 6 n 6,Mount Forest,ON,N0G2L0
7a820fa5da0c703298f0,TWIN RIVERS COUNTRY SCHOOL,..,,,ELMA,MB,R0E0Z0
7aa6ed239f12ff53fba3,Delta Secondary,Public School,4615,51 st,Delta,BC,V4K2V8
7aa7c6346e171f492dcb,VERMILLION COLONY SCHOOL,..,,vermillion colony box 238,SANFORD,MB,R0G2J0
7ab45e53b84bee9ec742,BURNTWOOD ELEMENTARY,..,103,arctic drive,THOMPSON,MB,R8N1G8
7abc0690feaa1d087071,Youthdale Schools,Private,2000,youthdale road,Magnetawan,ON,P0A1P0
7ade0af9e3397f6e53e4,RICHER SCHOOL,..,,dawson road richer,RICHER,MB,R0E1S0
7ae5315999d2fb54b477,BLOOMING PRAIRIE COLONY SCHOOL,..,#3,pr 248 south elie,ELIE,MB,R0H0H0
7b064f8825880e9d78af,STEVENSON ISLAND SCHOOL,..,,island,STEVENSON ISLAND,MB,R0B2H0
7b30122b9b3228573ffd,Polish Sienkiewicz School,Private School,,,Edmonton,AB,T5T6A1
7b303aa7ff69fbe17d76,College Heights Elementary,Public School,5410,cowart rd,Prince George,BC,V2N1Z2
7b381ac72f7f64d38cde,Ponoka Secondary Campus,Public,6100,54 street,Ponoka,AB,T4J1N9
7b40fa75da76c8065cec,Kinnikinnick Elementary,Public School,,,Sechelt,BC,V0N3A0
7b49572f2edcf7822d63,Chief Napeweaw Comprehensive School,Federal First Nations,,general delivery,Frog Lake,AB,T0A1M0
7b4be9fa895c1c0a2db2,WARREN ELEMENTARY,..,,,WARREN,MB,R0C3E0
7b7113ad8e5955c62244,Burstall School,..,,,BURSTALL,SK,S0N0H0
7b9f891f3c547a4c1f7d,HAPPY THOUGHT SCHOOL,..,35,rr1 east selkirk,EAST SELKIRK,MB,R0E0M0
7bc87fd4019539fc1310,GRETNA ELEMENTARY,..,,,GRETNA,MB,R0G0V0
7bd9aad6bc534c667362,Acreman Elementary,..,,,Green's Harbour,NL,A0B1X0
7beafc3d63a56ff8e1dc,Corbett Hall Early Education Program,ECS Private Operator,,,Edmonton,AB,T6G2G4
7c115aa7a5fc2ce08fc7,INGLIS ELEMENTARY,..,,,INGLIS,MB,R0J0X0
7c21032ba3a066bcafa6,Mapleton Meadow Parochial School,Private,8249,wellington road 86 3,Listowel,ON,N4W3G8
7c32734c2d13f8578989,Westside Montessori Academy,Independent School,3075,slocan st,Vancouver,BC,V5M3E4
7c352f829973a4406c7e,Macklin School,..,,,MACKLIN,SK,S0L2C0
7c42a1b7497b8dda173a,NATURE VALLEY COLONY SCHOOL,..,,,WAWANESA,MB,R0K2G0
7c48ae96660ecf3d0b46,Chief Jimmy Bruneau School,..,,,Behchok,NT,X0E 0Y0
7c5399276082be9aa912,Logan Lake Elementary Secondary,Public School,,,Logan Lake,BC,V0K1W0
7c6a8f2c44084cbd092e,LITTLE SASKATCHEWAN SCHOOL,..,,,GYPSUMVILLE,MB,R0C1J0
7c7cd6521e7b51692255,Gibsons StrongStart Program,StrongStart BC,,,Sechelt,BC,V0N3A0
7c9b53f1c848305eaf3d,Grindrod Elementary,Public School,,,Grindrod,BC,V0E1Y0
7c9d840521443babe37d,Tsawalk Learning Centre,Public School,,,Gold River,BC,V0P1G0
7cceaee2b4114200d50b,Silver Valley Colony School,Public,,,Bonanza,AB,T0H0K0
7cd92db5dbe53bf1d190,Millarville Community School,Public,10,main street,Millarville,AB,T0L1K0
7cdaa3250baa25c4dec6,Cornerstone Christian Academy,Private School,,,Kingman,AB,T0B2M0
7ce0b4cf968bbd635d47,Heart Lake Kohls School,Federal First Nations,,,Lac La Biche,AB,T0A2C0
7cea00a9f46649b496d4,Skyline Alternate School,Public School,320,second ave n,Williams Lake,BC,V2G1Z9
7cef8136e86f35090b05,St. Mark,Separate,11625,135 street,Edmonton,AB,T5M1L1
7d05ad0ee7d25952a429,Katzie First Nation,Public School,20905,wicklund ave,Maple Ridge,BC,V2X8E8
7d076ed830106871aa48,Bruderheim Community School,Public,,,Bruderheim,AB,T0B0S0
7d0fc768460caab067dd,University School,Public,3035,utah drive nw,Calgary,AB,T2N3Z9
7d15793752e39215b014,Spruce Vale Parochial School,Private,8276,14th concession 1,Moorefield,ON,N0G2K0
7d29608e28f78d01194f,St John's Preparatory Academy Shawnigan,Independent School,237,shawnigan lake road,Shawnigan Lake,BC,..
7d772cf0d40ae5bb7ac1,Forestburg School,Public,,,Forestburg,AB,T0B1N0
7d7bd8498c7ee7d9aded,Cyber Stone Virtual School,..,,,WEYBURN,SK,S4H2W4
7d7f43a9ae3d4533fdff,Lac La Hache Elementary,Public School,,,Lac La Hache,BC,V0K1T0
7da132e1c6c0e55ec994,John T Errington Elementary,Public School,9831,herbert rd,Richmond,BC,V7A1T6
7da91cdc61a82f89f467,Park Avenue Elementary,Public School,395,eighth st,Nanaimo,BC,V9R1A9
7dbf1f7d2f635691cb55,Douglas Academy,..,,general delivery,La Poile,NL,A0M1K0
