Index,Facility_Name,Facility_Type,Street_No,Street_Name,City,Prov_Terr,Postal_Code
8d2477ed13a501382a1c,Elkford Elementary Secondary,Public School,,,Elkford,BC,V0B1H0
8d265a3335a71f98ca9a,Stephenville Primary,..,72,west street,Stephenville,NL,A2N1E3
8d271b4986eef448f751,Copper Ridge Academy,..,9,columbus drive,Baie Verte,NL,A0K1B0
8d27d517a429d6f066d7,Mount Hope Parochial School,Private,1128,arran-elderslie line,Dobbinton,ON,N0H1L0
8d36fd486736b2b0e349,Fairview School,Public,5901,55 street,Red Deer,AB,T4N7C8
8d4e19f801a2496835ee,Foundations Montessori School,Private,265,wilson street east,Ancaster,ON,L8G2B8
8d64cfa72e3421dfe459,Cadotte Lake School,Federal First Nations,,general delivery,Cadotte Lake,AB,T0H0N0
8d70a2b39d318eeb8dc5,D S MacKenzie School,Public,4020,106 street,Edmonton,AB,T6J1A6
8d723be06b495b7d925d,Ascension Collegiate,..,,,Bay Roberts,NL,A0A1G0
8d85e37665672f444a4b,St. Pascal School,..,,,GREEN LAKE,SK,S0M1B0
8da801a34baac160c895,St. Boniface,Separate,11810,40 avenue,Edmonton,AB,T6J0R9
8dc7b9ba72d2a3bb9396,RIVERSIDE COLONY SCHOOL,..,,,NEEPAWA,MB,R0J1H0
8dc87ac7d8d2f73ec25d,Maskwacis Outreach School,Federal First Nations,,,Maskwacis,AB,T0C1N0
8dcdc8a119b40ff5ee79,Nakusp StrongStart Centre,StrongStart BC,,,Nakusp,BC,V0G1R0
8dd6b12e0b12e1717038,Hartley Bay Elem-Jr Secondary,Public School,224,galagm laxa ave,Hartley Bay,BC,V0V1A0
8ddcb6d9007cba077051,OAK BANK ELEMENTARY,..,826,cedar avenue oakbank,OAKBANK,MB,R0E1J0
8de0f7d2f1766dfee85c,Hummingbird Montessori School,Private,3521,simcoe county rd 124,Nottawa,ON,L0M1S0
8e0910dd067dddca99f8,Richard F Staples Secondary School,Public,10015,104 street,Westlock,AB,T7P1T8
8e34cdf2e9c552e4f65c,Silverthorne StrongStart,StrongStart BC,,,Houston,BC,V0J1Z0
8e377f4c6df439df7408,Princess Margaret Public School,..,351,13th avenue e,PRINCE ALBERT,SK,S6V2N3
8e3b649da1893234c2f8,Harvest City Christian Academy,..,2202,8th avenue north,REGINA,SK,S4R7T9
8e5b0ea45d1f891d25c1,Eston College,Private Institution,,,Eston,SK,S0L1A0
8e6c0c4f0ea2179ed1ed,Fireweed Education Centre,Federal Jail,11151,178 street,Edmonton,AB,T5S2H9
8e7872b237440cbd65f7,Haldane Elementary,Public School,,,Chase,BC,V0E1M0
8ea477137cd4155880f1,Arrow Heights Elementary,Public School,,,Revelstoke,BC,V0E2S0
8eab0a067b84fe328d2b,Huband Park Elementary,Public School,5120,mottishaw rd,Courtenay,BC,V9J1L5
8eb26111bb34466d92c8,St. Martha Catholic School,Separate,102,parsons creek drive,Fort McMurray,AB,T9K0B3
8eba67e88c693bf715aa,St Michaels,Independent School,9387,holmes st,Burnaby,BC,V3N4C3
8ed69673b07ed069537b,Az-Zahraa Islamic Academy,Independent School,8580,no 5 rd,Richmond,BC,V6Y2V4
8edbe0b4a88abad37d3c,Twin Creeks School,Public,435a,highway 1,Strathmore,AB,T1P1J4
8f35efcd152b23c28732,Sawenegezhik Academy,Private School,,,Saddle Lake,AB,T0A3T0
8f47841b0f6864b5a3f0,Creighton Colony School,Public,,,Mannville,AB,T0B2W0
8f6ccf8d5a6fac78c201,Bkejwanong Kinomaagewgamig,Private,521,tecumseh road,Wallaceburg,ON,N8A4K9
8f6f873c819ae1e65dad,Bowen Island StrongStart Centre,StrongStart BC,,,Bowen Island,BC,V0N1G0
8f733479008c91362e8f,Summerland Secondary Alternate,Public School,,,Summerland,BC,V0H1Z0
8f772e6086e36dc6f08a,Little Bow Colony School,Public,,,Vulcan,AB,T0L2B0
8f7897a9310b6f4af758,Kootenay Columbia Secondary,Public School,2001,third ave,Trail,BC,V1R1R6
8f7ac90e3f0eb7f53739,Francois Lake Elementary,Public School,,,Francois Lake,BC,V0J1R0
8f85a3c2d18cf8ec05bd,Rehoboth Christian School,Private,198,inksetter road,Copetown,ON,L0R1J0
8f967f3cbaf27cec0643,Northumberland Christian School,Private,8861,danforth east road,Cobourg,ON,K9A4J8
8fa30a9159645d1cef43,Fort Rupert Elementary,Public School,,,Port Hardy,BC,V0N2P0
8fbd876e9f31a2356de0,Allan Composite School,..,,,ALLAN,SK,S0K0C0
8feb7f5fb18390b3d042,SPRINGFIELD COLLEGIATE,..,841,cedar avenue oakbank,OAKBANK,MB,R0E1J1
901e6ac382c74331c0ca,Allenby Colony,Public,101,3305 18 avenue north,Lethbridge,AB,T1H5S1
901ee43c74beeb1f822e,Spruce Grove Composite High School Outreach,Public,1000,calahoo road,Spruce Grove,AB,T7X2T7
902cf43d53e41abb60dd,Continuing Ed SD 43,Public School,380,montgomery st,Coquitlam,BC,V3K5G2
9044d35a31e03b8b1332,Chief Paul Niditchie School,..,,,Tsiigehtchic,NT,X0E 0B0
9078fee07127b0eb261e,Ã‰cole Pitt River Middle,Public School,2070,tyner st,Port Coquitlam,BC,V3C2Z1
9088b907ada5b9fadea2,Hillcrest Amish Private School,Private,,side road 5,Desboro,ON,N0H1K0
