Index,Facility_Name,Facility_Type,Street_No,Street_Name,City,Prov_Terr,Postal_Code
8616cfe4125419e620f3,INGLESIDE SCHOOL,..,65,3rd street sw,PORTAGE LA PRAIRIE,MB,R1N2B6
8625cc5d6780d552aea9,The Heartland Agency,ECS Private Operator,,,Calgary,AB,T2W6E4
864c738237f9238f4942,Upper Hay River School,Public,,,High Level,AB,T0H1Z0
86503076f90677ac010c,ÉCOLE SOUTH POINTE SCHOOL,..,615,kirkbridge drive,WINNIPEG,MB,R3T6B4
86534a38400f49d7d39e,Sandstone Academy,..,,general delivery,Ladle Cove,NL,A0G2Y0
8664c6cfab7dc944cad3,École Plamondon School,Public,,,Plamondon,AB,T0A2T0
8679872ea3588d312592,Gwa'sala-'Nakwaxda'xw School,Independent School,,,Port Hardy,BC,V0N2P0
8696f64bd304d1c62510,Sayward Elem-Jr Secondary,Public School,,,Sayward,BC,V0P1R0
86c7f014063fc770e2f2,St. Mary's Elementary,..,124,waterford bridge rd,St. John's,NL,A1E1C9
86d99e18a70bbd6dcc43,Dog Creek Elem-Jr. Secondary,Public School,,general delivery,Dog Creek,BC,V0L1J0
86ddd12c7a2b21fed76b,Oscar Adolphson Primary School,Public,,po bag 4,Valleyview,AB,T0H3N0
86e150e72554cd36903e,Rotherglen School,Private,3553,south common crt,Mississauga,ON,L5L2B3
86ef117d79e095cc7d32,Rosary Roman Catholic Separate School,Separate,,,Manning,AB,T0H2M0
872f72dd5897fef38e34,Rossland StrongStart Centre,StrongStart BC,,drawer 1269,Rossland,BC,V0G1Y0
8747d950374191d21b58,Parkland Elementary,Public School,5016,bjornson rd,Quesnel,BC,V2J6X7
876725e27757420a75a5,Bluffton School,Public,,site 2 rr 1,Bluffton,AB,T0C0M0
876b60cc694d855ccf77,ASCEND Online Distributed Learning Prg.,Independent School,635a,tranquille rd,Kamloops,BC,V2B3H5
877c48e5a6052b0185aa,NISICHAWAYASIHK NEYO OHTINWAK COLLEGIATE,..,,,NELSON HOUSE,MB,R0B1A0
878bf82a8823dbe4e5ef,Tsuu T'ina Bullhead Adult Education Centre,Federal First Nations,9911,chiila blvd sw,Calgary,AB,T2W6H6
8794cb3af76faa4c6d12,Academy of Learning,Provincial,301,10205 101 street,Edmonton,AB,T5J4H5
87a4395b3a4ec8e39104,Sangudo Community School,Public,,,Sangudo,AB,T0E2A0
87b7418338560b0d2471,Spruce View School,Public,,,Spruce View,AB,T0M1V0
87bc73d7ac2fc1b054c4,Westside Academy,Independent School,3791,highway 16 w,Prince George,BC,V2N5P8
87be4d96d9eb4b51d884,PDSB Online School,Provincial,,,..,ON,..
8807f0978ecd7973ea0a,South Side Christian School,Private School,,,Red Deer,AB,T4N5E8
881030944af56ed03f68,ODANAH COLONY SCHOOL,..,,,MINNEDOSA,MB,R0J1E0
88241b5a43ee4994e689,Seven Generations Secondary School,Private,1452,idylwild drive,Fort Frances,ON,P9A3M6
882fa135174edecf7ba2,SOUTH OAKS ELEMENTARY,..,,,GRUNTHAL,MB,R0A0R0
88321a26e503d46a88c1,SD 69 StrongStart BC Outreach Program #1,StrongStart BC,,,Parksville,BC,V9P2G5
885373c3a43095d070f5,Blood Tribe Youth Ranch Alternate High School,Federal First Nations,,,Stand Off,AB,T0L1Y0
885cf8b65d5ad81f6280,South Bend Parochial School,Private,3,grey road 109,Mount Forest,ON,N0G2L0
88701d9892e88d7ca6d9,M.V. Beattie Elementary,Public School,,,Enderby,BC,V0E1V0
88807e654fbdc5e5d975,Elsie Mironuck School,..,18,wakefield drive,REGINA,SK,S4R4T3
8881f4217d6c58126d64,New Pine Creek Colony,Public,,,Boyle,AB,T0A0M0
888b782cef6a19ce921b,Gus Wetter School,Public,,,Castor,AB,T0C0X0
8893a1b9301e9b4a80b8,Sand Lake Hutterite Elementary,..,,,VAL MARIE,SK,S0N2T0
88a45e64842c26107106,Captain James Cook StrongStart Centre,StrongStart BC,3340,54th ave,Vancouver,BC,V5S1Z3
88a7c94d81b2ff9b336d,Eitz Chaim Schools,Private,80,york hill boulevard,"Thornhill,",ON,L4J2P6
88bc6c6e64608c5be2ce,SPRINGWELL SCHOOL,..,,brightstone colony box 880 rr1,LAC DU BONNET,MB,R0E1A0
88c99acf8744d589736c,Stoughton Central School,..,,,STOUGHTON,SK,S0G4T0
88df31001b40584867d9,HAZELRIDGE SCHOOL,..,38,myrtle street hazelridge,HAZELRIDGE,MB,R0E0Y0
88e58b317b2020baeee5,Grenfell High School,..,,,GRENFELL,SK,S0G2B0
88eac1c6b9d8a35c9faf,GW Graham Secondary,Public School,45955,thomas rd,Chilliwack,BC,V2R0B5
88ed1ceb6746c5a85188,Nicholson Elementary,Public School,,,Golden,BC,V0A1H0
88efcadfb072ac332f20,Mossbank School,..,,,MOSSBANK,SK,S0H3G0
892635754798b1a63c52,Marshall School,..,,,MARSHALL,SK,S0M1R0
8934e2f11a630c294c20,Mountainview School,Public,,,Strathmore,AB,T1P1J4
8942983e1fa6cc841659,Islamic Foundation School - Durham,Private,2944,audley road north,Ajax,ON,L1Z1T7
895680aba7cce3547385,County Central High School,Public,,,Vulcan,AB,T0L2B0
