Index,Facility_Name,Facility_Type,Street_No,Street_Name,City,Prov_Terr,Postal_Code
7de9dad25faa1a136cbc,Notre Dame Collegiate,Separate,1500,high country drive nw,High River,AB,T1V1T7
7df2fd2a95f3dc03e67f,Truman Eddison Memorial,..,,,Griquet,NL,A0K2X0
7df51b0d03045bb4125e,Butte Hutterite School,..,,,BRACKEN,SK,S0N0G0
7e0145c762ebd90953d4,Pathfinder Learning Centre,..,,,Stephenville,NL,A2N3P5
7e0e3c39578559d662ac,Beechville Lakeside Timberlea Sr. Elementary School,Public,24,james st,Timberlea,NS,B3T1G9
7e29849c654476b70cbe,WESTWOOD ELEMENTARY,..,46,mallard crescent,THOMPSON,MB,R8N0X9
7e4aff030a2fba426156,MATHESON ISLAND SCHOOL,..,,general delivery matheson island,MATHESON ISLAND,MB,R0C2A0
7e4caaa4179642ced4c0,St Patrick's,Independent School,22589,121 ave,Maple Ridge,BC,V2X3T5
7e7f1c233e64625671e4,H. B. COMMUNITY SCHOOL,..,,,MACGREGOR,MB,R0H0R0
7e903d7466de4a0387b8,Manning Elementary School,Public,,,Manning,AB,T0H2M0
7e99ccea6aaa271c2dab,Rocky Mountain Distributed Learning,Public School,,,Invermere,BC,V0A1K0
7ea51bd3b3ac5372a10b,Katherine Therrien,Separate,15040,118 street,Edmonton,AB,T5X1Y7
7eae30eb584716855596,Fort St James Secondary,Public School,,,Fort St James,BC,V0J1P0
7ebd13754754a396ab7b,ASHERN EARLY YEARS SCHOOL,..,,,ASHERN,MB,R0C0E0
7ec39afc8fc12fecea82,Lafleche Central School,..,,,LAFLECHE,SK,S0H2K0
7ef60b6f9229327a0320,Hope Lutheran Christian - Pitt Meadows,Independent School,18477,old dewdney trunk rd,Pitt Meadows,BC,V3Y2R9
7efdc2fd97d82bbfc81d,Vernon Secondary,Public School,,2100-15th st,Vernon,BC,V1T9X7
7f091008c7624b3748c2,Lightning Ridge Education Centre,Federal Jail,,,Grande Cache,AB,T0E0Y0
7f142f7836c374b7a5ce,Lamont Elementary School,Public,,po bag 540,Lamont,AB,T0B2R0
7f19ab3ce9bbfc9e8564,Sifton School,Public,4807,43 street,Camrose,AB,T4V1A9
7f1ded3e75366773475c,Homeland Colony School,Public,,,Valleyview,AB,T0H3N0
7f21f4f52a3b57db4026,MIKISEW HIGH SCHOOL,..,,,CROSS LAKE,MB,R0B0J0
7f43b91381eec24acbbd,Marsden Jubilee School,..,,,MARSDEN,SK,S0M1P0
7f78717fc1ddcdf8aa63,École Innisfail Middle School,Public,4501,52 avenue,Innisfail,AB,T4G1A8
7f7fa6ec011821ae49fe,Ruskin Hutterian School,..,,,SWIFT CURRENT,SK,S9H3W8
7f9589baff2ecba6c37a,Dufferin Area Christian School,Private,394016,county rd 12,Amaranth,ON,L9W0N2
7fa33dff9e686680b519,John D Bracco School,Public,3150,139 avenue,Edmonton,AB,T5Y2P7
7fad3d07cfc9ae78b23b,Highland View Colony School,Public,,,Hughenden,AB,T0B2E0
7fae3338dbee7843c465,Crossroads Outreach School,Public,,,Caslan,AB,T0A0R0
7fc4119b07b8a334aa17,Norquest College Tricentre,Provincial,,7802-101 street,Fort Saskatchewan,AB,T8L2P3
7fcea136c8994dba31d5,BC Children's Adol. Psych. Unit,Public School,5025,willow st,Vancouver,BC,V5Z3S1
7fd18b1cc80146461b9b,Nathan Barton Elementary,Public School,1310,volunteer st,Kincolith,BC,V0V1B0
7fd841df3ee803a6c3a6,Forest Grove Elementary,Public School,,,Forest Grove,BC,V0K1M0
7fe06cd2d17e56936970,MINIOTA SCHOOL,..,,,MINIOTA,MB,R0M1M0
7ff9caca17b883fffb2f,Horizon Leadership Academy,Public,,battleford ave sw,Calgary,AB,T3E7K9
8002e85b577cfaeddaae,Little Owl Preschool Elementary,Private,99a,sheppard avenue w,North York,ON,M2N1M4
80169e7871bc269ef3a1,Talmud Torah School,Public,6320,172 street,Edmonton,AB,T5T6H1
8023c413b5e72bf91b7c,Merritt Central Elementary,Public School,,,Merritt,BC,V1K1B8
803dde24e2e5a7c68856,St. Stephen's College,Private Institution,,8810-112th st,Edmonton,AB,T6G2J6
806fda0ddaa1258b8287,Central High School Sedgewick,Public,,,Sedgewick,AB,T0B4C0
80799ed259655922867f,Harvest Baptist Academy,Private School,26404,highway 16 west,Spruce Grove,AB,T7X3H5
807cbb1ba2c0d98e141a,ALF CUTHBERT SCHOOL,..,,,MOOSEHORN,MB,R0C2E0
80877ef91faa1694c0dd,Lakeland College (Lloydminster),Provincial,5707,47 avenue w,Vermilion,AB,T9X1K5
80a9d50b222d57e7cfa0,John Barnett School,Public,14840,72 street,Edmonton,AB,T5C3E5
80b72140a6eaab2a4e9b,Alberta Health Services Intensive Day Treatment Youth Program,Separate,12325,140 street,Edmonton,AB,T5L2C9
80c04cd79e5778be472f,École Holy Mary Catholic School,..,1401,parr hill dr,MARTENSVILLE,SK,S0K2T1
80c480846953b767643b,Dr. D. A. Perley StrongStart Centre,StrongStart BC,,,Grand Forks,BC,V0H1H0
80d1716a1ed551671782,Eaglesham School,Public,,,Eaglesham,AB,T0H1H0
80d32a5e716a81e9974c,Kingsway Academy,Private,1070,colbourne st,London,ON,N6A4B3
