Index,Facility_Name,Facility_Type,Street_No,Street_Name,City,Prov_Terr,Postal_Code
831bfa2856d996a1a9ac,Leading Edge Aviation Limited,Private Institution,,,Yorkton,SK,S3N3G3
8328ba2990d1eb19c2c8,Mcgill University,University,,,Ste-Anne De Bellevue,QC,H9X3V9
834f482f229ce6100b53,Dr Elliott Community School,Public,,,Linden,AB,T0M1J0
835508b5458a0e93875e,St. Paul's Academy,Separate,,,Okotoks,AB,T1S1A4
836573cdff53f2c05b2a,Fogo Island Central Academy,..,,general delivery,Fogo Island,NL,A0G2B0
8376cdb67374f99c3283,Distance Ed School of the Kootenays,Public School,811,stanley st,Nelson,BC,V1L1N8
837f02ab48636d4cedab,Lakes District Secondary,Public School,,,Burns Lake,BC,V0J1E0
8381588676f356d22981,Ripple Rock Elementary,Public School,2001,cheviot rd,Campbell River,BC,V9H1R4
83a8a87363c4af914b29,NEW ROSEDALE SCHOOL,..,,,PORTAGE LA PRAIRIE,MB,R1N3B7
83aa5fad43654927f680,OTETISKEWIN KISKINWAMAHTOWEKAMIK,..,,,NELSON HOUSE,MB,R0B1A0
83b1c1e180ca6a320120,Frank Roberts Junior High,..,,,Conception Bay South (Foxtrap),NL,A1X2E2
83c9caa9101d9776de69,Buffalo Creek Learning Center,Federal Jail,,,Innisfail,AB,T4G1V1
83cd63d9184b75b57a3c,Qualicum Beach Elementary,Public School,,,Qualicum Beach,BC,V9K1S8
83d0de6e4ff7c5c45308,Behaviour Therapy and Learning Centre Ltd.,ECS Private Operator,100,sirocco drive sw,Calgary,AB,T3H5P1
83e2d7911680d11547b7,St. Bernard's Elementary,..,,,Witless Bay,NL,A0A4K0
83f74a9ca3b811faf23f,Ivy League International Academy - Wasag,Private,818,mosley,Wasaga Beach,ON,L9Z2H4
84205df67b6566c3bac4,Old Colony Christian Academy Cottam,Private,294,county road 34 east,Ruthven,ON,N0P2G0
8421853f3cc924a7e496,Horse Lake School,Federal First Nations,,,Hythe,AB,T0H2C0
84229742a3f62c9f2b3b,St. Thomas More Catholic School,Separate,,,Fairview,AB,T0H1L0
8434875f715ae42bdfee,Queen Elizabeth Regional High,..,,,Conception Bay South (Foxtrap),NL,A1X2E2
8446004bc4b2f8ca2cf2,Saskatchewan Polytechnic Regina Campus,Technical and Vocational,,,Regina,SK,S4P3A3
8463735d6f82aa558b58,Prairie View Outreach School,Public,,,High Prairie,AB,T0G1E0
84718e05021f03e2a11f,William Mercer Academy,..,,,Dover,NL,A0G1X0
848e7541e6c70df4ddbb,Gateway Academy Onoway,Public,,c/o onoway,Onoway,AB,T0E1V0
849dc12b8fada39d36f5,William D Cuts School,Public,149,larose drive,St. Albert,AB,T8N2X7
84b4537aa4849dcc45f8,Minchau School,Public,3615,millwoods road e,Edmonton,AB,T6L5X2
84c8a135531922beb75b,Vista Virtual School - Edmonton Writing Centre,Public,10055,106 street,Edmonton,AB,T5J2Y2
84dc2e1fef01ae004b31,WILLERTON SCHOOL,..,,,NEEPAWA,MB,R0J1H0
84e3b7d10638f90be033,Elsipogtog School,First Nations School,356,elsipogtog road,Elsipogtog First Nation,NB,E4W2S6
84fea04fa8a84f4a1403,Pascal Academy,Private,,16th avenue,Richmond Hill,ON,L4C7A7
850d6729a1193e8be8be,Minahik Waskahigan Elementary School,..,,,PINEHOUSE LAKE,SK,S0J2B0
851bc34c6db851e7dabf,AIRPORT COLONY SCHOOL,..,,,PORTAGE LA PRAIRIE,MB,R1N3C4
852712b994ad065e2054,Campus D Effets Visuels Inc.,Junior College,226,ave papineau,Montreal,QC,H2K4J5
852ab7a50743aec8f257,Mount Douglas Secondary,Public School,3970,gordon head rd,Victoria,BC,V8N3X3
852ca4abc122ae433552,Portage College Lac La Biche,Provincial,,,Lac La Biche,AB,T0A2C0
852e3226632e4cb99abe,GRANDVIEW SCHOOL,..,,,GRANDVIEW,MB,R0L0Y0
8541c2bcfc5335bf7cc1,Kathleen McNeely Elementary,Public School,12440,woodhead rd,Richmond,BC,V6V1G3
854397655db7a999f7b1,Bethel Baptist Academy,Private,4059,highway 3 east,Simcoe,ON,N3Y4K4
8555172799ee6ad42fd7,West Langley Elementary,Public School,9403,212 st,Langley,BC,V1M1M1
8562f3f0a2300d2b40e3,Hellenic Academia Institute,Private School,,,..,AB,..
858f6b93cb58cd901540,Grand Forks Secondary,Public School,,,Grand Forks,BC,V0H1H0
859a5401512ab6093e92,Bentley Colony School,Public,28414,twp rd 400,Lacombe County,AB,T4M0S6
85a47bd9cbe42344bca4,DEERWOOD SCHOOL,..,101,beaver crescent,THOMPSON,MB,R8N1C5
85a9992c5f482777e732,David Thompson School,Public,,rr 1,Condor,AB,T0M0P0
85b48213b2a7d36bb5d5,St. Joseph's All Grade,..,,,Terrenceville,NL,A0E2X0
85dac0ef2909c8e77544,Osler School,..,,,OSLER,SK,S0K3A0
85e580057230ad62c42e,Upper Gullies Elementary,..,30,roberts road south upper gullies,Conception Bay South (Upper Gullies),NL,A1X6K2
85f34062ffee7d081348,Sunset Hutterite School,..,,,ADMIRAL,SK,S0N0B0
85f53bd9abf3e2368182,Westsyde Elementary,Public School,3550,westsyde rd,Kamloops,BC,V2B7H4
