Index,Facility_Name,Facility_Type,Street_No,Street_Name,City,Prov_Terr,Postal_Code
74b3b24ea736eb479881,Matrix Academy,Private,121,limestone crescent,Toronto,ON,M3J2R1
74b5f4c646bece45ad3e,St. Edmund,Separate,11712,130 avenue,Edmonton,AB,T5E0V2
74b949a66d698b2ed4f6,Fraser Lake Elem-Secondary,Public School,1002,,Fraser Lake,BC,V0J1S0
74b9c78d36a8e792875e,Gold Ridge Colony School,Public,101,3305 18 avenue n,Lethbridge,AB,T1H5S1
74c2afb190906e44135d,Cumberland StrongStart Centre,StrongStart BC,,,Cumberland,BC,V0R1S0
74d4109dc57d5732ce77,Wilson Prairie Mennonite School,Private School,,,La Crete,AB,T0H2H0
74d7586cb85014baa132,Sun Country Christian School,Private School,,,Bow Island,AB,T0K0G0
74e77e1268c3baaed551,HAMIOTA ELEMENTARY,..,,,HAMIOTA,MB,R0M0T0
7502cb7e1231ddf116e9,ANOLA SCHOOL,..,30,academy street anola,ANOLA,MB,R0E0A0
75273f132a86bd481f19,OTTER NELSON RIVER,..,,,CROSS LAKE,MB,R0B0J0
7534fd46ca4cb4a93583,Quluaq School,..,,,Clyde River,NU,..
7540fa8e44725b57109d,Niagara Christian Collegiate,Private,2619,niagara parkway,Fort Erie,ON,L2A5M4
7562535d884f569dd901,Medstead Central School,..,,,MEDSTEAD,SK,S0M1W0
75729d9973099e4c0d3f,Hague Elementary School,..,,,HAGUE,SK,S0K1X0
75b88774ee9f42f0ff12,Logan Lake Elementary,Public School,,,Logan Lake,BC,V0K1W0
75b8db2a39bd80419a22,SOUTHWOOD ELEMENTARY,..,224,hespeler avenue e schanzenfeld,SCHANZENFELD,MB,R6W1K3
75be308bfeb49ab5fed6,Graduation Routes Other Ways,Public School,320,second ave n,Williams Lake,BC,V2G1Z9
75ca752668f71bff35ed,Green Leaf Colony School,..,,,MARCELIN,SK,S0J1R0
75f7b859a769234ba58b,GROSS COLONY SCHOOL,..,,,RIVER HILLS,MB,R0E1T0
7625db42bb281cf97ac9,Southeast Regional College,Junior College,,,Weyburn,SK,S4H0T1
7627059b76493c5b868f,C. P. Blakely Elementary School,Public,4815,43 street,Sylvan Lake,AB,T4S1A3
762b1dcb73f579b5a0e2,Holy Cross,Separate,15120,104 avenue,Edmonton,AB,T5P0R5
7662d0dddef7b4f7d648,Blytheswood Community Christian School,Private,735,mersea road 8,Leamington,ON,N8H3V8
7669b6a4c9f31d9e5e59,Highland Park StrongStart Centre,StrongStart BC,18961,advent rd,Pitt Meadows,BC,V3Y2G4
766fe46c5e7b2e098cb1,Montessori Children's House Academy Ltd #1,ECS Private Operator,"1,082,411",-4th street nw,Calgary,AB,T2H1C6
76787e9be4d7d7d9a664,Boularderie Elementary School,Public,12065,kempt rd,Boularderie,NS,B1X1J9
7695cf67fdcc8c79b0ea,SUNFLOWER VALLEY CHRISTIAN SCHOOL,..,,,ALTONA,MB,R0G0B0
76b7f504b8d9eba13bf8,Schell School,..,,,HOLDFAST,SK,S0G2H0
76b987f535e1c8060430,Bamfield Community School,Public School,,general delivery,Bamfield,BC,V0R1B0
77269d5a5dc1e6c5217b,Garden Plane Colony School,..,,,FRONTIER,SK,S0N0W0
77303f3ba8f7a4701605,Rimbey Elementary School,Public,,,Rimbey,AB,T0C2J0
777087994dc790516681,POPLAR RIVER SCHOOL,..,120,,NEGGINAN,MB,R0B0Z0
77875cd999ffca548e26,SD 82 Continuing Ed School,Public School,3120,highway 16 east,Terrace,BC,V8G4N8
77960581093bc0a222ba,La Crete Public School,Public,,,La Crete,AB,T0H2H0
77b376b59c8b69da9ee6,Dr. W.A. MacLeod Consolidated School,Public,6193,trafalgar rd,Riverton,NS,B0K1S0
77b78c914f9ba30a163b,SD 83 StrongStart BC Outreach Program #1,StrongStart BC,,,..,BC,..
77c38b0916788a909371,PLAINVIEW COLONY SCHOOL,..,,,ELKHORN,MB,R0M0N0
77c55daa7c73c307a214,Mobile Central High,..,,,Mobile,NL,A0A3A0
781fdcd5fcf3065cae94,Belle Plaine Hutterite School,..,,,BELLE PLAINE,SK,S0G0G0
7820ff3ed48aa17e3686,SD 27 StrongStart BC Outreach Program #2,StrongStart BC,,,..,BC,..
7824a9fbd8ee6ba77a4c,Ã‰cole Providence School,Separate,,,McLennan,AB,T0H2L0
78316426e27094cd1766,Nipawin Bible College,Private Institution,1986,highway 35 south,Nipawin,SK,S0E1E0
783332958ee350b0a0fd,Milk River Elementary School,Public,,,Milk River,AB,T0K1M0
78405a3ed8465f2ea35f,Alexis Arrowmaker School,..,,,Wekwet,NT,X0E 1W0
78525a293d2c65f3155b,MINNEWASTA SCHOOL,..,1,academy drive,MORDEN,MB,R6M1Z4
78c1c68def01e156c41e,College Air Richelieu,Junior College,5800,route de l'aeroport,St-Hubert,QC,J3Y8Y9
78eca5b17448b37e4d9c,Hillcrest Academy,Public,127,king st,Shelburne,NS,B0T1W0
78f5cd37d1c8fe0a1ae8,Vilna School,Public,,,Vilna,AB,T0A3L0
78f638e07e8e1c84e17e,St. Albert Public Schools Preschool,Public,60,sir winston churchill ave,St. Albert,AB,T8N0G4
