Index,Facility_Name,Facility_Type,Street_No,Street_Name,City,Prov_Terr,Postal_Code
6e86996cd8c0b70a27ed,Bear Stream School,..,,,KAMSACK,SK,S0A1S0
6e900a1125fcac0a2511,Canada National E-Learning Centre,Private,,,North York,ON,M2N6N4
6ea489b2bd6eb6d7b3fa,Timber Bay School,..,,general delivery,TIMBER BAY,SK,S0J2T0
6eae89e3e493520607ec,Schuler School,Public,,,Schuler,AB,T0J3B0
6eb5b677817721aba90a,Chilliwack Secondary,Public School,46363,yale rd,Chilliwack,BC,V2P2P8
6ecbd625ae9cb83fe136,Holy Cross All Grade,..,,,Daniel's Harbour,NL,A0K2C0
6ed1c4b42a10c84fbc8c,Wulastukw Elementary School,First Nations School,712,church st,Fredericton,NB,E3E1K8
6f34a235567ec9f82f13,Collaborative Education Alternative Prg.,Public School,,,Qualicum Beach,BC,V9K1T3
6f3a5ce10e064771590c,WESTPARK SCHOOL,..,2375b,saskatchewan avenue w,PORTAGE LA PRAIRIE,MB,R1N4A6
6f41382be1b58bf1e4ce,École St. Mary High School,..,380,14th street w,PRINCE ALBERT,SK,S6V3L5
6f419350269d1c5ac176,KOLA COMMUNITY SCHOOL,..,,,KOLA,MB,R0M1B0
6f45670885d391e309c1,Punnichy High School,..,,,PUNNICHY,SK,S0A3C0
6f4b77c16a2082643507,Queen Elizabeth School,Public,9425,132 avenue,Edmonton,AB,T5E0Y4
6f63c9fcdfb3622f6700,Penelakut Island Learning Centre,Independent School,,c/o penelakut tribes,Chemainus,BC,V0R1K0
6fa0051bea78e8a27582,Delores D. Echum Composite,Private,28,amisk st,MOOSE FACTORY,ON,P0L1W0
7013833eafc1fb3ee1e3,Percy Lake Colony School,Public,,,Minburn,AB,T0B3B0
702570d8b629bfcf6e2b,Pinantan Elementary,Public School,,,Pinantan Lake,BC,V0E3E1
70426e3614446990376a,Capitol Hill Elementary,Public School,350s,holdom ave,Burnaby,BC,V5B3V1
704813a3fd268ad07fc8,St. George's Hill School,..,,general delivery,DILLON,SK,S0M0S0
7050fe42fa94e770ceaa,Mount Salem Christian School,Private,6576,springfield road 6,Aylmer,ON,N5H2R5
705f8a4e71a52e1ac8c3,St. Mary's School,..,615,arthur avenue,ESTEVAN,SK,S4A1S9
7080ad3ccd61d2c74023,St. Theodore School,..,,,THEODORE,SK,S0A4C0
708cfbf823dbe1c6d89e,ELTON COLLEGIATE,..,205,hillman avenue forrest,FORREST,MB,R0K0W0
70900f903e8467702963,Valley Christian School DL,Independent School,8955,cedar st,Mission,BC,V4S1A3
70936f2c20f308798ffc,Central Park Elementary School,..,,,NIPAWIN,SK,S0E1E0
70971965c2b28e765d9c,Kenilworth Krest Parochial School,Private,5,sideroad 6,Mount Forest,ON,N0G2L0
70a65b69d1bd780d0fe4,J.M. Olds Collegiate,..,,,Twillingate,NL,A0G4M0
70adededcefc9f18d0af,PARKLAND CHRISTIAN SCHOOL,..,,,ROBLIN,MB,R0L1P0
70b0da77ef0a70d19648,Veteran School,Public,,,Veteran,AB,T0C2S0
70d3d0ec0d5060f9f770,R. J. WAUGH ELEMENTARY,..,,,CARBERRY,MB,R0K0H0
70f82de80b2a11882249,Edgehill Elementary,Public School,7312,abbotsford st,Powell River,BC,V8A2G5
710d874b7acfc6c99f4c,Skeetchestn Community School,Independent School,,,Savona,BC,V0K2J0
71138f925e387fa532f5,EAGLE CREEK COLONY SCHOOL,..,#3,pr 248 south elie,ELIE,MB,R0H0H0
7118d2345dd2a6f54417,Prince Albert Collegiate Institute,..,45,20th street w,PRINCE ALBERT,SK,S6V4E9
7119c129d98407e2f6b8,SOLID ROCK MINISTRIES CHRISTIAN SCHOOL,..,125,4th avenue,PORTAGE LA PRAIRIE,MB,R1N0E9
7148e7519ea7434c39b8,Guru Tegh Bahadur International School,Private,180,sandalwood parkway east,Brampton,ON,L6Z1X4
717c141cc4c2de871589,Ucluelet Elementary,Public School,,,Ucluelet,BC,V0R3A0
7182932e813d9c80c93d,Port Edward Elementary,Public School,,,Port Edward,BC,V8J1G9
719a3ba7b5f0c9581010,Kneehill Christian School,Private School,,,Linden,AB,T0M1J0
71a0a32027b4c83f050d,Boundary Elementary,Public School,750,26th st e,North Vancouver,BC,V7K1A4
71b5d16e4ec9a563fa7c,Garibaldi Highlands Elementary,Public School,,,Garibaldi Highlands,BC,V0N1T0
71d56c4ce2d307e81535,Rivier Elementary School,..,,,SPIRITWOOD,SK,S0J2M0
71dd3d564d5ad31afc16,Haven Hutterite School,..,,,LEADER,SK,S0N1H0
71e9ae27296437a85183,École Beau-Port,Public,2359,rt 206 arichat n-é,Arichat N.-É.,NS,B0E2L0
71eb81d23564e0910011,Leo Ussak School,..,,,Rankin Inlet,NU,..
7226cb9027f126680fc9,Phoenix Academy,Private School,10403,172 st,Edmonton,AB,T5S1K9
722b3aa22c6bad46b3c9,W L Mcleod StrongStart Centre,StrongStart BC,,,Vanderhoof,BC,V0J3A0
726dbb2ae8c4532f2e25,Canyon/Lister Elementary,Public School,,,Canyon,BC,V0B1C0
72918cd3a53cf0650074,Fireside School,Public,12,fireside parkway,Cochrane,AB,T4C2L8
