Index,Facility_Name,Facility_Type,Street_No,Street_Name,City,Prov_Terr,Postal_Code
7908d85c93d451bd6d92,WAWANESA SCHOOL,..,,,WAWANESA,MB,R0K2G0
79108797af31b07f4e5f,Hospital School Campuses,Public,10230,111 avenue,Edmonton,AB,T5G0B7
79145c612354ec889c1a,St. Michael's Elementary,..,,hospital road,Stephenville Crossing,NL,A0N2C0
79628ba33f1012baef5b,Sasdaze School,..,100,bear creek drive,LA LOCHE,SK,S0M1G0
796f77b9820acffa11e9,Canora Composite School,..,,,CANORA,SK,S0A0L0
798829187204eac7758e,Baccalieu Collegiate,..,,,Old Perlican,NL,A0A3G0
79969ddbe1871f5ca616,Hillview School,Public,,,High Prairie,AB,T0G1E0
79a2a6752717b145b02b,Telkwa Elementary,Public School,,,Telkwa,BC,V0J2X0
79ac113d97f88aeb6b0f,St. John Community School,..,1453,7th street e,PRINCE ALBERT,SK,S6V0V3
79b0b64917516290dc2b,Mihtatakaw Sipiy School,Federal First Nations,,,Driftpile,AB,T0G0V0
79de180c05ee9517750b,Norwood Child & Family Resource Centre,ECS Private Operator,9516,114 avenue,Edmonton,AB,T5G0K7
7a012929c44c9832a1be,Alexander Park StrongStart Centre,StrongStart BC,,,Golden,BC,V0A1H0
7a0da8a4e7acde7e0f8f,Cedar Echo Parochial School,Private,3,bruce road 11,CHESLEY,ON,N0G1L0
7a266a33acc8f31e58a0,Little Buffalo School,Federal First Nations,,via cadotte,Cadotte Lake,AB,T0H0N0
7a27d48b53aea8f88ae0,NORTH MEMORIAL SCHOOL,..,410,6th avenue ne,PORTAGE LA PRAIRIE,MB,R1N0B4
7a27d95109bbba2f667b,Boston Bar Elem-Secondary,Public School,,,Boston Bar,BC,V0K1C0
7a3be98e4ec127e326e1,Rock Lake Colony School,Public,101,3305 18 avenue n,Lethbridge,AB,T1H5S1
7a450646b8beb0b649af,ROSS L. GRAY SCHOOL,..,,general delivery,SPRAGUE,MB,R0A1Z0
7a4ea53a35a0c6721b59,Red Crow Community College,Private School,,,Cardston,AB,T0K0K0
7a621d28424ef49f7ff7,Maple View Parochial School,Private,9542,arthur con 6 n 6,Mount Forest,ON,N0G2L0
7a820fa5da0c703298f0,TWIN RIVERS COUNTRY SCHOOL,..,,,ELMA,MB,R0E0Z0
7aa6ed239f12ff53fba3,Delta Secondary,Public School,4615,51 st,Delta,BC,V4K2V8
7aa7c6346e171f492dcb,VERMILLION COLONY SCHOOL,..,,vermillion colony box 238,SANFORD,MB,R0G2J0
7ab45e53b84bee9ec742,BURNTWOOD ELEMENTARY,..,103,arctic drive,THOMPSON,MB,R8N1G8
7abc0690feaa1d087071,Youthdale Schools,Private,2000,youthdale road,Magnetawan,ON,P0A1P0
7ade0af9e3397f6e53e4,RICHER SCHOOL,..,,dawson road richer,RICHER,MB,R0E1S0
7ae5315999d2fb54b477,BLOOMING PRAIRIE COLONY SCHOOL,..,#3,pr 248 south elie,ELIE,MB,R0H0H0
7b064f8825880e9d78af,STEVENSON ISLAND SCHOOL,..,,island,STEVENSON ISLAND,MB,R0B2H0
7b30122b9b3228573ffd,Polish Sienkiewicz School,Private School,,,Edmonton,AB,T5T6A1
7b303aa7ff69fbe17d76,College Heights Elementary,Public School,5410,cowart rd,Prince George,BC,V2N1Z2
7b381ac72f7f64d38cde,Ponoka Secondary Campus,Public,6100,54 street,Ponoka,AB,T4J1N9
7b40fa75da76c8065cec,Kinnikinnick Elementary,Public School,,,Sechelt,BC,V0N3A0
7b49572f2edcf7822d63,Chief Napeweaw Comprehensive School,Federal First Nations,,general delivery,Frog Lake,AB,T0A1M0
7b4be9fa895c1c0a2db2,WARREN ELEMENTARY,..,,,WARREN,MB,R0C3E0
7b7113ad8e5955c62244,Burstall School,..,,,BURSTALL,SK,S0N0H0
7b9f891f3c547a4c1f7d,HAPPY THOUGHT SCHOOL,..,35,rr1 east selkirk,EAST SELKIRK,MB,R0E0M0
7bc87fd4019539fc1310,GRETNA ELEMENTARY,..,,,GRETNA,MB,R0G0V0
7bd9aad6bc534c667362,Acreman Elementary,..,,,Green's Harbour,NL,A0B1X0
7beafc3d63a56ff8e1dc,Corbett Hall Early Education Program,ECS Private Operator,,,Edmonton,AB,T6G2G4
7c115aa7a5fc2ce08fc7,INGLIS ELEMENTARY,..,,,INGLIS,MB,R0J0X0
7c21032ba3a066bcafa6,Mapleton Meadow Parochial School,Private,8249,wellington road 86 3,Listowel,ON,N4W3G8
7c32734c2d13f8578989,Westside Montessori Academy,Independent School,3075,slocan st,Vancouver,BC,V5M3E4
7c352f829973a4406c7e,Macklin School,..,,,MACKLIN,SK,S0L2C0
7c42a1b7497b8dda173a,NATURE VALLEY COLONY SCHOOL,..,,,WAWANESA,MB,R0K2G0
7c48ae96660ecf3d0b46,Chief Jimmy Bruneau School,..,,,Behchok,NT,X0E 0Y0
7c5399276082be9aa912,Logan Lake Elementary Secondary,Public School,,,Logan Lake,BC,V0K1W0
7c6a8f2c44084cbd092e,LITTLE SASKATCHEWAN SCHOOL,..,,,GYPSUMVILLE,MB,R0C1J0
7c7cd6521e7b51692255,Gibsons StrongStart Program,StrongStart BC,,,Sechelt,BC,V0N3A0
7c9b53f1c848305eaf3d,Grindrod Elementary,Public School,,,Grindrod,BC,V0E1Y0
