Index,Facility_Name,Facility_Type,Street_No,Street_Name,City,Prov_Terr,Postal_Code
877c48e5a6052b0185aa,NISICHAWAYASIHK NEYO OHTINWAK COLLEGIATE,..,,,NELSON HOUSE,MB,R0B1A0
878bf82a8823dbe4e5ef,Tsuu T'ina Bullhead Adult Education Centre,Federal First Nations,9911,chiila blvd sw,Calgary,AB,T2W6H6
8794cb3af76faa4c6d12,Academy of Learning,Provincial,301,10205 101 street,Edmonton,AB,T5J4H5
87a4395b3a4ec8e39104,Sangudo Community School,Public,,,Sangudo,AB,T0E2A0
87b7418338560b0d2471,Spruce View School,Public,,,Spruce View,AB,T0M1V0
87bc73d7ac2fc1b054c4,Westside Academy,Independent School,3791,highway 16 w,Prince George,BC,V2N5P8
87be4d96d9eb4b51d884,PDSB Online School,Provincial,,,..,ON,..
8807f0978ecd7973ea0a,South Side Christian School,Private School,,,Red Deer,AB,T4N5E8
881030944af56ed03f68,ODANAH COLONY SCHOOL,..,,,MINNEDOSA,MB,R0J1E0
88241b5a43ee4994e689,Seven Generations Secondary School,Private,1452,idylwild drive,Fort Frances,ON,P9A3M6
882fa135174edecf7ba2,SOUTH OAKS ELEMENTARY,..,,,GRUNTHAL,MB,R0A0R0
88321a26e503d46a88c1,SD 69 StrongStart BC Outreach Program #1,StrongStart BC,,,Parksville,BC,V9P2G5
885373c3a43095d070f5,Blood Tribe Youth Ranch Alternate High School,Federal First Nations,,,Stand Off,AB,T0L1Y0
885cf8b65d5ad81f6280,South Bend Parochial School,Private,3,grey road 109,Mount Forest,ON,N0G2L0
88701d9892e88d7ca6d9,M.V. Beattie Elementary,Public School,,,Enderby,BC,V0E1V0
88807e654fbdc5e5d975,Elsie Mironuck School,..,18,wakefield drive,REGINA,SK,S4R4T3
8881f4217d6c58126d64,New Pine Creek Colony,Public,,,Boyle,AB,T0A0M0
888b782cef6a19ce921b,Gus Wetter School,Public,,,Castor,AB,T0C0X0
8893a1b9301e9b4a80b8,Sand Lake Hutterite Elementary,..,,,VAL MARIE,SK,S0N2T0
88a45e64842c26107106,Captain James Cook StrongStart Centre,StrongStart BC,3340,54th ave,Vancouver,BC,V5S1Z3
88a7c94d81b2ff9b336d,Eitz Chaim Schools,Private,80,york hill boulevard,"Thornhill,",ON,L4J2P6
88bc6c6e64608c5be2ce,SPRINGWELL SCHOOL,..,,brightstone colony box 880 rr1,LAC DU BONNET,MB,R0E1A0
88c99acf8744d589736c,Stoughton Central School,..,,,STOUGHTON,SK,S0G4T0
88df31001b40584867d9,HAZELRIDGE SCHOOL,..,38,myrtle street hazelridge,HAZELRIDGE,MB,R0E0Y0
88e58b317b2020baeee5,Grenfell High School,..,,,GRENFELL,SK,S0G2B0
88eac1c6b9d8a35c9faf,GW Graham Secondary,Public School,45955,thomas rd,Chilliwack,BC,V2R0B5
88ed1ceb6746c5a85188,Nicholson Elementary,Public School,,,Golden,BC,V0A1H0
88efcadfb072ac332f20,Mossbank School,..,,,MOSSBANK,SK,S0H3G0
892635754798b1a63c52,Marshall School,..,,,MARSHALL,SK,S0M1R0
8934e2f11a630c294c20,Mountainview School,Public,,,Strathmore,AB,T1P1J4
8942983e1fa6cc841659,Islamic Foundation School - Durham,Private,2944,audley road north,Ajax,ON,L1Z1T7
895680aba7cce3547385,County Central High School,Public,,,Vulcan,AB,T0L2B0
89708f90f406beb6ca96,Living Truth Christian School,Private School,,,Mirror,AB,T0B3C0
899180c46c55a13161e8,Au Coeur de L'ile,Public School,566,linshart rd,Comox,BC,V9M2K8
89a06b8531f5043df2b8,Cedar Heights Parochial School,Private,1323,heights rd 3,Lindsay,ON,K9V4R3
89a1a09495832cd83861,WINNIPEG BEACH SCHOOL,..,,,WINNIPEG BEACH,MB,R0C3G0
89b3ebcb8d1ecee43f1b,Credo Christian Schools,Independent School,21846,52 ave,Langley,BC,V2Y2M7
89c26fc7d55749e71d3f,Vincent Massey Academy Day School,Private,68,daisy avenue,Etobicoke,ON,N8W1S1
89db51ab4702e9153bea,ISAAC BEAULIEU MEMORIAL,..,,,MARIUS,MB,R0H0T0
89ef80b3245d37e1b3b9,Eastbrook Elementary School,Public,417,7th street e,Brooks,AB,T1R0H9
8a00f90f9e864c670e6e,DISTANCE LEARNING UNIT,..,555,main street winkler,WINKLER,MB,R6W1C4
8a054ec41679d9f26b09,EDRANS CHRISTIAN SCHOOL,..,,rr #1 grp 15,AUSTIN,MB,R0H0C0
8a10d288610669a56a96,AVRO Academy,Private,1640a,avenue road,Toronto,ON,M5M3X9
8a2b504e4b4526e8c26a,Napi's Playground Elementary School,Federal First Nations,1250,13 ave,Brocket,AB,T0K0H0
8a2f7061db1a9b9f938e,Ecole Porter Street Elementary,Public School,728,porter st,Coquitlam,BC,V3J5B4
8a44b4c60568c2a01e69,Great Plains College,Junior College,,,Biggar,SK,S0K0M0
8a4776c3aa9bd6f00c4d,Donald E McKay Elementary,Public School,7360,lombard rd,Richmond,BC,V7C3N1
8a64398bc7ecd2622c99,Boundary Central Secondary,Public School,,,Midway,BC,V0H1M0
8a6945caeb60b4a56ded,McMahon Colony School,..,,,SWIFT CURRENT,SK,S9H3V3
