Index,Facility_Name,Facility_Type,Street_No,Street_Name,City,Prov_Terr,Postal_Code
07dff8446dc2016a8a72,MURDOCH MACKAY COLLEGIATE,..,260,redonda street,WINNIPEG,MB,R2C1L6
07f19d99604f2e9fb621,St. Peter's Primary,..,108,ashford dr,Mount Pearl,NL,A1N3L6
07ff9b63a6f71c6a3f87,Little Prairie Elementary,Public School,,,Chetwynd,BC,V0C1J0
08097c425f45430b4cfb,Stella Maris Academy,..,,general delivery,Trepassey,NL,A0A4B0
08172649b4b048589384,Charlie Lake Elementary,Public School,,,Charlie Lake,BC,V0C1H0
081c23d07317dcde71ce,Northern Lights Academy,..,,,Rigolet,NL,A0P1P0
081f8d187cf5bb40396f,South Peace Alternate,Public School,10808,15 st,Dawson Creek,BC,V1G3Z3
085cf41981d52d1bdf98,J.H. Moore Elementary,..,,,LASHBURN,SK,S0M1H0
0863d8dd91552cdc6cfc,Howe Sound Secondary,Public School,,,Squamish,BC,V8B0A1
08994f14528b1f540aa2,Barrhead Elementary School,Public,5103,53 avenue,Barrhead,AB,T7N1N9
09075bc0335bdbceead3,Mundo Peetabeck Academy,Private,1,school road,FORT ALBANY,ON,P0L1H0
090830422c88e8f58498,Surge Narrows Elementary,Public School,,,Surge Narrows,BC,V0P1W0
091d4e63df2c69899431,Merit College Online,Private,3601,hwy 7,Markham,ON,L3R0M3
0933b0647a3ff553447b,Le Goff School,Federal First Nations,,,Cold Lake,AB,T9M1P4
09451ce9fe4fe3397b69,MARY MONTGOMERY SCHOOL,..,,,VIRDEN,MB,R0M2C0
095f55dada335531f71d,O K Colony School,Public,,,Cardston,AB,T0K0K0
09705f46e92c0b848409,Buck Mountain Outreach Program,Public,,,Buck Lake,AB,T0C0T0
09bc30cdda1b035f1bbb,Canadian Outdoor Leadership Training,Private Institution,,,Campbell River,BC,V9W5C5
09d420d16dc5ddb05360,Christina Lake Elementary,Public School,,,Christina Lake,BC,V0H1E0
09d69917a54b0c426b75,Eastglen School,Public,11430,68 street,Edmonton,AB,T5B1P1
0a14ee2d87e76d66464a,North Canoe Elementary,Public School,,,Canoe,BC,V0E1K0
0a18c6b95aaba4ac331d,St. Andr√© Bessette Catholic High School,Separate,8300,southfort dr,Fort Saskatchewan,AB,T8L0W4
0a24558c2825185d6922,Springview Colony School,Public,,pobox 314,Gem,AB,T0J1M0
0a2ac6ce906275885080,Arnaqjuaq School,..,,,Sanirajak,NU,..
0a35101b3ead592453e6,JOHN G. STEWART SCHOOL,..,2069,henderson highway,WINNIPEG,MB,R2G1P7
0a42f2c44885f4ab5e3b,Daly Grove School,Public,1888,37 street,Edmonton,AB,T6L2R2
0a44048b4b5b515c1e3e,J.M.A. Armstrong/Salisbury Middle (LC),Alternative Learning Centre,55,douglas street,Salisbury,NB,E4J2B4
0a5dfe508e5e533f5ff9,Brunswick School,..,,,MELFORT,SK,S0E1A0
0a67c4d48591de871d74,NELLIE MCCLUNG COLLEGIATE,..,,,MANITOU,MB,R0G1G0
0a6e16ec8f651bf7ecac,Shuswap Middle School,Public School,,main,Salmon Arm,BC,V1E4P2
0a94d6236c0d6d2431eb,Jaffray Elem-Jr Secondary,Public School,,,Jaffray,BC,V0B1T0
0aab25f9589a80f2596e,St. Stephen's All Grade,..,,,Rencontre East,NL,A0H2C0
0ad5ef794bcf2aa7cb75,Peace Academy of Virtual Education,Public,,,Spirit River,AB,T0H3G0
0ada49936d11ed4ff331,Jewett Elementary,Public School,,,Meadow Creek,BC,V0G1N0
0ada5980dbebc08a6aa1,Clive Draycott Elementary School,..,,,BETHUNE,SK,S0G0H0
0aeab1a29c3c53d066a1,Truro Junior High,Public,445,young st,Truro,NS,B2N7H9
0b1985fe9449044d1c37,Irricana Community Hall ECS,ECS Private Operator,,,Irricana,AB,T0M1B0
0b232f8fb104245c37fe,Bengough School,..,,,BENGOUGH,SK,S0C0K0
0b31fc99fb500ed6ae1e,STARBUCK SCHOOL,..,,,STARBUCK,MB,R0G2P0
0b38121353619bf1bb7a,Sir Alexander Mackenzie School,Public,61,sir winston churchill ave,St. Albert,AB,T8N0G5
0b3cc4d160a5dae6cafb,Zeballos Elem-Secondary,Public School,,,Zeballos,BC,V0P2A0
0b4dbab397b88880ea7f,Jessie Wowk Elementary,Public School,5380,woodwards rd,Richmond,BC,V7E1H1
0b5ab2597babf54835eb,Elwood High School,..,22,farm road,Deer Lake,NL,A8A1J3
0b67a6049a51b76a1914,Tahayghen StrongStart Centre,StrongStart BC,,,Masset,BC,V0T1M0
0b6f05f0e503beee0b9a,Viscount Central School,..,,,VISCOUNT,SK,S0K4M0
0b71c812dd92e8220b58,Children's Autism Services of Edmonton,ECS Private Operator,17451,103 avenue,Edmonton,AB,T5S1J4
0b86eb44a33e28b707f9,St. Edward's School,..,,,Conception Bay South (Kelligrews),NL,A1X3H1
0b8971cd4e68f6fed313,NORTHERN SHIELD ACADEMY,..,619,4th street east box 1309 stonewall,STONEWALL,MB,R0C2Z0
0b8ebc3668941efbe365,George Brown College of Applie,Technical and Vocational,,,Toronto,ON,M5T2T9
