Index,Facility_Name,Facility_Type,Street_No,Street_Name,City,Prov_Terr,Postal_Code
ac4fbc427a7d725382f9,BROOKDALE SCHOOL,..,,general delivery brookdale,BROOKDALE,MB,R0K0G0
ac5b78706e8e41d8dee0,Hillcrest Montessori Academy,Private School,190,tamarack way,Fort McMurray,AB,T9H1A1
ac5f602bd50d64a6523a,Pleasantdale Elementary,..,1700,dieppe crescent,ESTEVAN,SK,S4A1X1
ac7a802fbd4b4c4774e1,St. Richard,Separate,5704,millwoods road s,Edmonton,AB,T6L3K9
ac8c698815c33a24874c,New Hope Baptist School,Private,56675,green line road,Tillsonburg,ON,N4G4G8
ac902438084e94084d5f,Plain Lake Colony School,Public,,,Two Hills,AB,T0B4K0
aca685dc33d03eb0254c,Errington Elementary,Public School,,,Errington,BC,V0R1V0
aca8dbfff6628e789bcf,North Island Secondary,Public School,,,Port McNeill,BC,V0N2R0
acb892a78dfd4377da87,St. John Paul II Catholic School / Faculté St. Jean-Paul II,Separate,13302,arbour hills boulevard,Grande Prairie,AB,T8V4J7
acbdcb18299a53386414,Farewell Parochial School,Private,9173,concession 11,Mount Forest,ON,N0G2L0
acd465e1242fe2c98780,Kempenfelt Bay School,Private,2145,innisfil beach road,Innisfil,ON,L9S4B9
ace6e3244294ae183dff,MENNONITE CHRISTIAN ACADEMY,..,,,GRUNTHAL,MB,R0A0R0
acec6b9e20aa3bc08671,BIRTLE ELEMENTARY,..,,,BIRTLE,MB,R0M0C0
acff6e4fdbb4028f4262,Yellowhead R.E.C. (Gr Cache),Provincial,,,Grande Cache,AB,T0E0Y0
ad05f2cbb1709746c49c,Calgary Mandarin School,Private School,,,..,AB,..
ad11be2ff91cba81be19,W.P. Sandin Public High School,..,,,SHELLBROOK,SK,S0J2E0
ad13b01dd0b438503df3,Ghùch Tlâ Community School,..,202,austin street,Carcross,YT,Y0B 1B0
ad1589cca76c6e60de15,Eastend School,..,,,EASTEND,SK,S0N0T0
ad18c7c8063756a7178c,Pathways Academy Distributed Learning,Independent School,,,Prince George,BC,V2K5Y1
ad1ec348ad6981a5fbd5,Coquihalla StrongStart Centre,StrongStart BC,,,Hope,BC,V0X1L0
ad31623b1288f5d5db3f,Canon Richards Memorial Academy,..,,,Flower's Cove,NL,A0K2N0
ad3b31b34bdeac21d6cd,Capeland Hutterite School,..,,,SWIFT CURRENT,SK,S9H4J8
ad5c319969a3e5b7eba6,Greenwood Academy,..,,,Campbellton,NL,A0G1L0
ad808a25dabf4308cc9b,Whole School,Independent School,,,Winlaw,BC,V0G2J0
ad90608efc79ffea33a8,Port Guichon StrongStart Centre,StrongStart BC,4381,46a st,Delta,BC,V4K2M2
adc1c1d370e41b789379,Ecole Lacombe Upper Elementary School,Public,5414,50 street,Lacombe,AB,T4L1G4
adcd40e661c09643d607,Pasadena Academy,..,,,Pasadena,NL,A0L1K0
ae07636d6f84736309a2,John Abbott College (Cegep),Junior College,,,Ste. Anne De Bellevue,QC,H9X3L9
ae17ec7f285673822c6d,Riverbend Colony School,Public,101,3305 18 avenue n,Lethbridge,AB,T1H5S1
ae233f2a28403aee479a,Khàtìnas.àxh Community School,..,#1,school road,Teslin,YT,Y0A 1B0
ae2ff745ebbcee73afa2,Avondale School,Public,10226,108 avenue,Grande Prairie,AB,T8V1P5
ae353a478b276211fc0c,Gateway Academy Fox Creek,Public,,,Fox Creek,AB,T0H1P0
ae5a24739a41a410eda5,Mankota School,..,,,MANKOTA,SK,S0H2W0
aea04641f615759fcf13,NORQUAY COLONY SCHOOL,..,,c/o portage la prarie sd 65 3rd street sw,PORTAGE LA PRAIRIE,MB,R1N2B6
aea60cdb6b68d29a851b,Amish Parochial School #5,Private,6327,road 116 1,Milverton,ON,N0K1M0
aea9a9512cb1b691a315,Central Alberta Christian High School,Private School,22,eagle road,Lacombe,AB,T4L1G7
aec248781f71ea380551,Ridgeview Central School,Public,,,La Crete,AB,T0H2H0
aecc0b998083437959ff,St. Peter's Academy,..,,,Benoit's Cove,NL,A0L1A0
aed3da09ad4a3d9fdea0,Cedars Christian School,Independent School,600,preston road,Prince George,BC,V2K1A8
aee08a7bc4fc358b6239,Black Gold Outreach - Beaumont,Public,5204,50 avenue,Beaumont,AB,T4X1E3
aee522fb4fbe213943e4,Oxford Learning Cambridge-Hespeler,Private,940,jamieson parkway,Cambridge,ON,N3C4N6
aeef06ce1ed88e5c74cd,R. D. PARKER COLLEGIATE,..,272,thompson drive north thompson,THOMPSON,MB,R8N0C4
af0122f11c8aa175aa90,Waldeck Elementary and Junior High School,..,,,WALDECK,SK,S0H4J0
af03b04cc3eb4b1bef29,BIRCH RIVER SCHOOL,..,,,BIRCH RIVER,MB,R0L0E0
af22a394ce6c8165cb93,A.R. MacNeill Secondary,Public School,6611,no 4 rd,Richmond,BC,V6Y2T2
af237b40efe12d8b3307,Community Association for Lasting Success,ECS Private Operator,,,Vegreville,AB,T9C1R9
af4c3362d0f7ed0e9550,Nak'albun Elementary School,Independent School,,,Fort St James,BC,V0J1P0
af5b73488ab0b64c041c,PEONAN POINT SCHOOL,..,,,ST. MARTIN,MB,R0C2T0
af5badbac3c6be820e17,Vegreville Next Step III Outreach School,Public,,,Vegreville,AB,T9C1R7
