Index,Facility_Name,Facility_Type,Street_No,Street_Name,City,Prov_Terr,Postal_Code
9270037411781fc37415,Hellenic-Canadian Community of Edmonton and Region,Private School,10450,116 street,Edmonton,AB,T5K2S4
9271919cde52eaf2d7bb,Gabriola Elementary,Public School,,,Gabriola Island,BC,V0R1X0
928c3870d2f2a5abee1d,Indian Head High School,..,,,INDIAN HEAD,SK,S0G2K0
9291c661d8117b4feac8,Victoria School,Public,10210,108 avenue,Edmonton,AB,T5H1A8
9299874298701144f666,E W Pratt High School,Public,,,High Prairie,AB,T0G1E0
92a074292e9f622a8341,L.P. Miller Comprehensive School,..,,,NIPAWIN,SK,S0E1E0
92a3333b44377b82a46c,GEORGE KNOTT SCHOOL,..,,general delivery waasagomach,WAASAGOMACH,MB,R0B1Z0
92a78b50d763abd82b4a,Migizi Miigwanan Secondary School,Private,100,marten road road,Longlac,ON,P0T2A0
92c27a7be19a35ba40e1,Sardis Secondary,Public School,45460,stevenson rd,Chilliwack,BC,V2R2Z6
92ca0820cef5d178bada,Prairie South Virtual School,..,1075,9th ave nw,MOOSE JAW,SK,S6H1V7
92d0cbc357c55f5e6e36,Elk Point Outreach,Public,,,Elk Point,AB,T0A1A0
92e02609429bf5576d70,New Hazelton Elementary,Public School,,,New Hazelton,BC,V0J2J0
92e6787063ced6d1c620,Clear View Private School,Private,,crampton drive 2,Mossley,ON,N0L1V0
92e947740ba8fcebf28c,Good Shepherd,Separate,18111,57 avenue,Edmonton,AB,T6M1W1
932e292340c18993b0fb,Springfield Elementary School,Public,7701,99 street,Peace River,AB,T8S1R4
934d9619a6b4b55d13aa,Old Sun Community College,Private School,,,Siksika,AB,T0J3W0
93624a69984c0c1a9ab6,Nelnah Bessie John School,..,,,Beaver creek,YT,Y0B 1A0
9367df388c9b57501a56,St. Augustine's Elementary,..,,,Bell Island,NL,A0A4H0
937e64bccf880dc1e2ba,Home Schooling,Public,6000,highway 2a,Ponoka,AB,T4J1P6
93a617fd1d352a5ca26e,Wholistic Health Training and Research Centre,Private Institution,10050,112 street,Edmonton,AB,T5K2J1
93be506a7de46adf88c5,Alternative Education,Separate,9624,108 avenue,Edmonton,AB,T5H1A4
9417f240a0ae7ba11a96,Kakisa Lake School,..,,,Kakisa,NT,X0E 1G3
941afbb4f1845b3b81e1,Ecole Pine Grove School,Public,4619,12 avenue,Edson,AB,T7E1S7
944a815be7b7fa0f3655,ST. MARY'S ACADEMY,..,550,wellington crescent,WINNIPEG,MB,R3M0C1
948e637059dc5227f541,Charles Spencer High School,Public,20,knowledge way,Grande Prairie,AB,T8W2V9
94900dd7bbf126af5a8b,Spiritwood High School,..,,,SPIRITWOOD,SK,S0J2M0
9498ddf789b52532c2e4,Lewisporte Intermediate,..,,pobox 729,Lewisporte,NL,A0G3A0
94a43c724a57d0e949f2,Hixon Elementary,Public School,,,Hixon,BC,V0K1S0
94b83dfff6aafd4330eb,Heart Valley Christian School,Private School,,rr 1,Wanham,AB,T0H3P0
94bd7959f8d5d36bbd8c,St. Oscar Romero Catholic High School,Separate,17760,69 avenue,Edmonton,AB,T5T6X3
94c0962bc7f202c77cdb,Naramata Elementary,Public School,,general delivery,Naramata,BC,V0H1N0
94caca5736f87aea4070,Athlone School,Public,12940,129 street,Edmonton,AB,T5L1J3
94d6ab26e8b1c14c6e61,Gilbert Paterson Middle School,Public,2109,12 avenue s,Lethbridge,AB,T1K0P1
94e0b472d0cbf3c37b16,Holy Trinity School,Separate,,,Olds,AB,T4H1P8
94f2e08b8b450dc0f1b2,Discovery Collegiate,..,,,Bonavista,NL,A0C1B0
94f6383e0bc1aff7b4c5,The Educators Academy,Private,9715,james potter road,Brampton,ON,L6X3B9
95010c939fc6f9b8d71a,100 Mile StrongStart Centre,StrongStart BC,,,100 Mile House,BC,V0K2E0
951e5ccd68107d8ab021,HOLLAND ELEMENTARY,..,,,HOLLAND,MB,R0G0X0
9521ae009c709b747555,Pineridge StrongStart Centre,StrongStart BC,,,Prince Rupert,BC,V8J1G9
9524d87c0cdfe25b0975,Lotsa Tots Day Care ECS,ECS Private Operator,,,Red Deer,AB,T4N5E8
953f005f2fb1fb8ce510,Country Casa Academy,Private,15018,highway 48,Stouffville,ON,L4A3B6
95436de1b07b434e6af0,Muenster School,..,,,MUENSTER,SK,S0K2Y0
955b5e1ca029832cd9b7,Nechako Valley Secondary,Public School,,,Vanderhoof,BC,V0J3A0
9560f1ca31a47a257c71,Sweet Grass School,Public,11351,31 avenue,Edmonton,AB,T6J4T6
957a13d3122899d61df3,Nipisihkopahk Elementary School,Federal First Nations,,,Maskwacis,AB,T0C1N0
959b9837d56c8d35d869,Falkland Elementary Junior School,Public School,,,Falkland,BC,V0E1W0
959c3582ffe48ce8cbf1,St. Albert Catholic High School,Separate,33,malmo drive,St. Albert,AB,T8N1L5
95b08a23ea7846946475,Assiniboia Composite High,..,200,bell road,ASSINIBOIA,SK,S0H0B0
95be3160168101b6304e,Ã‰cole Borale,..,145,promenade riverview,Hay River,NT,X0E 0R8
