Index,Facility_Name,Facility_Type,Street_No,Street_Name,City,Prov_Terr,Postal_Code
b3661a15e263963afe90,Duke Academy,Private,4576,yonge street,Toronto,ON,M2N6N4
b388b526464a1cc7808f,BARRICKMAN COLONY SCHOOL,..,#3,pr 248 south elie,ELIE,MB,R0H0H0
b39e09592e98f3a32a08,J. R. WALKOF ELEMENTARY,..,800,southview drive winkler,WINKLER,MB,R6W4E1
b3c1a42b37d35a01b1ac,Sunnydale Colony School,..,,,WARMAN,SK,S0K4S0
b3d69b2e53a2397e908c,R L Angus Elementary,Public School,,,Fort Nelson,BC,V0C1R0
b3f999ba94caa3f0ab04,Hanley School,..,,,HANLEY,SK,S0G2E0
b40df4c3aa03cce1705e,St. Brieux School,..,,,ST BRIEUX,SK,S0K3V0
b40ec8d5e087ca2304f8,Elm Creek Parochial School,Private,8410,concession 3,Listowel,ON,N4W3G8
b43a6510560cb1840756,Assumption School,Independent School,7091,glacier st,Powell River,BC,V8A1R8
b43dd19bf318c37f8139,COLLÈGE LORETTE COLLEGIATE,..,1082,dawson road,LORETTE,MB,R0A0Y0
b4582a67a4f08fe1e0ca,Wildflowers Childcare,ECS Private Operator,,,Jasper,AB,T0E1E0
b459b9132912587718c4,Chamberlain School,Public,,,Grassy Lake,AB,T0K0Z0
b46e12c78980c45bbc9e,Woodland Corners Parochial School,Private,5334,13th line 4,Harriston,ON,N0G1Z0
b499cd47ab136ef3eec8,YELLOWQUILL SCHOOL,..,,,PORTAGE LA PRAIRIE,MB,R1N3C4
b49cc8cd99ec15e82ec9,COLD LAKE SCHOOL,..,,general delivery,SHERRIDON,MB,R0B1L0
b49de700314974814d40,Indian River High School,..,,,Springdale,NL,A0J1T0
b4a919e35c02e5eca74f,Ivy League International Academy,Private,3601,highway 7 east,Markham,ON,L3R0M3
b4d1f372bf7f6de5cef1,Uplands Elementary,Public School,4471,207a st,Langley,BC,V3A5V8
b4ed5ce72c6b5a77e68e,Hamilton Elementary,Public School,5180,smith dr,Richmond,BC,V6V2W5
b4f7ab2c93f92eb3247d,J. A. CUDDY ELEMENTARY,..,,,SANFORD,MB,R0G2J0
b4fc68b433aa18ccba00,Robert Rundle Elementary,Public,50a,grosvenor boulevard,St. Albert,AB,T8N0X6
b5241f026373237676c4,Donnan School,Public,7803,87 street,Edmonton,AB,T6C3G6
b533a765c1791036e43e,Chin Lakes Colony School,Public,101,3305 18 avenue n,Lethbridge,AB,T1H5S1
b5358aa8b35aa72ec130,Riverview Colony School,..,,,WARMAN,SK,S0K4S0
b57b822a377534c27e23,Codesa Hutterite Colony School,Public,,,Eaglesham,AB,T0H1H0
b59b4695ee6dd2e378ae,Maymont Central School,..,,,MAYMONT,SK,S0M1T0
b5a54325a5b9e98ea11c,Pembina Valley Christian School,Private School,,rr1,Westlock,AB,T7P2N9
b5def608b7ce81fdf2cd,BINSCARTH ELEMENTARY,..,,,BINSCARTH,MB,R0J0G0
b5e58d6484d596aa94fc,H E Bourgoin Middle School,Public,4313,39 street,Bonnyville,AB,T9N2R1
b5ea52650b587ab0fdeb,Westmount School,Public,11124,130 street,Edmonton,AB,T5M0J2
b6078b2ee6dd8e46565d,Tsuut'ina Nation Middle School,Federal First Nations,9911,chiila blvd sw tsuu,Tsuu T'ina,AB,T2W6H6
b60d8e112611595ab1ab,St. Teresa,Separate,11350,25 avenue,Edmonton,AB,T6J5B1
b61e83cacecdb46d0f45,BERENS RIVER SCHOOL,..,,,BERENS RIVER,MB,R0B0A0
b62d49edbec80079777c,Chief Harold Sappier Memorial Elementary School,First Nations School,305,maliseet drive,Fredericton,NB,E3A5R8
b62ddac992bcc9bae07e,Hutterian Brethren Church School of Elkwater,Public,,rr 1,Irvine,AB,T0J1V0
b6358c6108654846baec,Estuary Hutterite School,..,,,LEADER,SK,S0N1H0
b63be81a63e25bfafd17,River Valley School,Public,6,po bag,Sundre,AB,T0M1X0
b6524ec6bdbede3bafa7,Donald C. Jamieson Academy,..,,pobox 160,Burin Bay Arm,NL,A0E1G0
b65f4cfdda467b05876e,St. Michael's Regional High,..,,,Bell Island,NL,A0A4H0
b66561ee5f28b29c0d0e,Weyburn Comprehensive School,..,629,king st,WEYBURN,SK,S4H2S5
b675446acbae01ddddd0,Barriere StrongStart Centre,StrongStart BC,,,Barriere,BC,V0E1E0
b6867db29564e7ae5482,Ewelme Colony School,Public,,,Fort Macleod,AB,T0L0Z0
b697842efb78d5921912,Seminary of Christ the King,Independent School,,,Mission,BC,V2V4J5
b6a6d41f6ae5f4519bef,Charles Tetcho School,..,,,Sambaa Ke,NT,X0E 1Z0
b6b526ff9f096e147165,All Saints Catholic School,..,2180,woodrow lloyd place,SWIFT CURRENT,SK,S9H5R2
b6c7e83fcdb11187ea70,ÉCOLE BEAUSÉJOUR EARLY YEARS,..,,,BEAUSEJOUR,MB,R0E0C0
b6c9fb14f23ff193c750,Clandonald Public School ECS,ECS Private Operator,,,Clandonald,AB,T0B0X0
b6d78761b22a0dfc861f,Saint-Jean,Public,5,place de l'église,Saint-Jean-Port-Joli,QC,G0R3G0
b6e132a15f269665d509,Burnaby Youth HUB,Public School,4750,imperial st,Burnaby,BC,V5J1C2
