Index,Facility_Name,Facility_Type,Street_No,Street_Name,City,Prov_Terr,Postal_Code
a56a48b1b60f62ba399f,Aldergrove School,Public,8525,182 street,Edmonton,AB,T5T1X1
a56dbe37e2f6d2fb8fc4,St Augustine's,Independent School,2154,7th ave,Vancouver,BC,V6K0E3
a5711dd51ec41a6ab7d3,Launch Secondary School,Public,,,..,ON,..
a5845ff30283f1cc4661,North Island Distance Education,Public School,2505,smith rd,Courtenay,BC,V9J1T6
a59d872c83a23ae42fb3,R C Palmer Secondary,Public School,8160,st albans rd,Richmond,BC,V6Y2K9
a5a9be5d7fb3f63d5fd2,ÉCOLE SAINT-JOACHIM,..,29,baie normandeau,LA BROQUERIE,MB,R0A0W0
a5b2ab98fd1032369b88,Preeceville School,..,,,PREECEVILLE,SK,S0A3B0
a5c2b7dec579352efb54,Pine Ridge Amish School,Private,53500,eden line,Aylmer,ON,N5H2R3
a5c88bf36f456daffaf1,Kelly Creek Community School,Public School,2341,zilinsky rd,Powell River,BC,V8A0N8
a5d8637c01ee08711da9,University Day Care Centre,ECS Private Operator,450,campus place nw,Calgary,AB,T2N1N4
a5d9f2ffc79a752def21,Charlottetown Primary,..,,,"Charlottetown, B.B.",NL,A0C1L0
a60a332f3f6debcc3415,FAIRWAY COLONY SCHOOL,..,,pobox 330 douglas,DOUGLAS,MB,R0K0R0
a60c62fc16a091b64cc1,Echo-Dene School,..,,,Fort Liard,NT,X0G 0A0
a6486d3d17672e8ea76a,Lomond School ECS,ECS Private Operator,,,Lomond,AB,T0L1G0
a651a2b06a5a9319d205,Tansor Elementary,Public School,3594,auchinachie rd,Duncan,BC,V9L4A4
a67516c34c2df4b25f2c,St. Philip,Separate,8720,144 avenue,Edmonton,AB,T5E3G7
a679cf89732a9f7cd169,École St. Joseph School,..,,,Yellowknife,NT,X1A 2N5
a67da9463af543a8d514,St. Alphonsus School,..,81,henderson street,YORKTON,SK,S3N0A8
a67de9f18909cbdfe85e,Sedgewick ECS Portable,ECS Private Operator,,,Sedgewick,AB,T0B4C0
a6805bd53ab98cb71eab,Kildala Elementary,Public School,803,columbia ave e,Kitimat,BC,V8C1V7
a680702a6c50b78e53f4,Norwood School,Public,9520,111 avenue,Edmonton,AB,T5G0A6
a681d0bb42e049a04eb6,RIDGEVILLE COLONY SCHOOL,..,,,DOMINION CITY,MB,R0A0H0
a6825f535176a5936419,Tyson Elementary,Public School,45170,s sumas rd,Chilliwack,BC,V2R1W9
a68ada9a62424e3a23af,Warner School,Public,,,Warner,AB,T0K2L0
a6bc1cfe98ff83aa4eee,Manor School,..,,,MANOR,SK,S0C1R0
a6c314986fd5f13843d8,Coley's Point Primary,..,,,Coley's Point,NL,A0A1G0
a6e09db6cbe4a9f6ca66,Cayoosh Elementary,Public School,,,Lillooet,BC,V0K1V0
a6ea4b75ee3c3b6d7243,CBe - Learn,Public,2336,53 avenue sw,Calgary,AB,T3E1L2
a6efabd08bb1fdfe330e,École Beau Soleil,..,,,GRAVELBOURG,SK,S0H1X0
a6f1209affff0cf7dfa0,Maskwachees Cultural School,Private School,,,Maskwacis,AB,T0C1N0
a718ced62b8e2640aeb2,SD 79 StrongStart BC Outreach Program #1,StrongStart BC,,,..,BC,..
a74024a54482832038c2,Coronation School,Public,,,Coronation,AB,T0C1C0
a757b73eb45445178ce5,Entwistle School,Public,,,Entwistle,AB,T0E0S0
a78a5729f24b8fa03734,ÉCOLE RÉGIONALE SAINT-JEAN-BAPTISTE,..,113,2e avenue saint-jean-baptiste,SAINT-JEAN-BAPTISTE,MB,R0G2B0
a78af47b0cea6d7e4a8f,Grandview Heights Secondary,Public School,16987,25 ave,Surrey,BC,V3S9V2
a7b83ce8a83ee4e6c755,John C Yesno Education Centre,Private,,,Eabamet Lake,ON,P0T1L0
a821230bf59b6de40f69,Pangman School,..,,,PANGMAN,SK,S0C2C0
a83ec751f699b32460a5,RCMP Training Academy,Private Institution,,,Regina,SK,S4P3J7
a84673d68eddafff930f,Gill Memorial Academy,..,,,Musgrave Harbour,NL,A0G3J0
a85585fc3a9ce6155466,Rosebud School of the Arts,Private Institution,,,Rosebud,AB,T0J2T0
a8754ebb484dcdbbde12,John A. Hutton Elementary,Public School,,,Grand Forks,BC,V0H1H0
a88946dd94a4540df231,Sir Alexander Mackenzie Secondary,Public School,800,po bag,Hagensborg,BC,V0T1H0
a88b4ed19370a6373fbd,Rolling Hills School,Public,,,Rolling Hills,AB,T0J2S0
a8970bad1942240bdfad,Walsingham Christian School,Private,1,concession road 6 comp 2,Walsingham,ON,N0E1X0
a89b8f50e31f35245cca,Breton High School,Public,,,Breton,AB,T0C0P0
a8a29c6ad8fd5618f259,Londonderry Child Development Society,ECS Private Operator,13931,140 street,Edmonton,AB,T6V1J7
a8c52629b7db9640556a,Our Lady of Victories,Separate,7925,158 street,Edmonton,AB,T5R2B9
a8db1a619ae7140c7c44,Watrous Elementary,..,,,WATROUS,SK,S0K4T0
a8df6e70ecd53b40ab25,C W Sears Elementary School,Public,,,Tofield,AB,T0B4J0
