Index,Facility_Name,Facility_Type,Street_No,Street_Name,City,Prov_Terr,Postal_Code
9ce047678a0aeb2e844d,Sacred Heart Elementary,..,,curling st,Corner Brook,NL,A2H3K8
9cf633c79facf98e62c1,TFS,Private,5635,yonge st,Toronto,ON,M2M3S9
9cfa6ef95626d7fe6819,Walker Development Centre,Public School,,,Grand Forks,BC,V0H1H0
9d3716f7208ad96b8f70,Garth Worthington School,Public,,,..,AB,..
9d37b2b5e45546314666,GILBERT PLAINS ELEMENTARY,..,,,GILBERT PLAINS,MB,R0L0X0
9d69b8434f25691cbe4e,Ermineskin Kindergarten,Federal First Nations,,,Maskwacis,AB,T0C1N0
9d6a274e2a815efd0a11,K'lem Dene School,..,,,Ndil,NT,X1A 2N2
9d7388d4ed397765c6a9,Centre de Formation Professionnelle (C.F.P.) Relance,Junior College,155,mgr ross ouest,Chandler,QC,G0C1K0
9d9c145a12bd0af3ac47,Blewett Elementary School,Public School,2665,blewett rd,Nelson,BC,V1L6V4
9db37b0a719d190ddd2f,Donegal Community Christian School,Private,7021,perth rd 147 2,Atwood,ON,N0G1B0
9de6504d78f28869c1d3,Busby School,Public,,general delivery,Busby,AB,T0G0H0
9dfdf73330d314c156d5,Laird School,..,,,LAIRD,SK,S0K2H0
9e3bd319b6b2e33ba5ec,Reynolds Central School,..,,,MELFORT,SK,S0E1A0
9e4f6939eb2ed8462881,St. Francis of Assisi Catholic Academy,Separate,,,Slave Lake,AB,T0G2A4
9e74c62b5547189f3b1c,Penhold Crossing Secondary School,Public,,,Penhold,AB,T0M1R0
9e905820521f68680a2c,Bow Valley College (Outreach),Provincial,346,6 avenue se,Calgary,AB,T2G4V1
9eb5f3e578fcb450682b,Hay Lakes School ECS,ECS Private Operator,,,Hay Lakes,AB,T0B1W0
9ee091cfc1b119c8a2cb,Boundary StrongStart,StrongStart BC,750,26th st e,North Vancouver,BC,V7K1A4
9eea00016a98a8e4d398,Family Montessori School,Independent School,4196,4th ave,Vancouver,BC,V6R4J5
9f339a9addc46e2054a0,Nipawin Flight Center,Private Institution,,,Nipawin,SK,S0E1E0
9f3b1d6387841726d318,Carmichael Hutterite School,..,,,GULL LAKE,SK,S0N1A0
9f66752c2f526cc65ed4,St. Mary Catholic School,Separate,,,Beaverlodge,AB,T0H0C0
9f6a4177be76ce26de68,Scott Colony School,..,,,UNITY,SK,S0K4L0
9f772b02365617745e82,College of the North Atlantic- Port Aux Basques campus,Technical and Vocational,59,grand bay road,Port Aux Basques,NL,A0M1C0
9f7984bd21fb481511f9,Ã‰COLE SAINTE-ANNE IMMERSION,..,167,avenue st-alphonse,STE. ANNE,MB,R5H1G3
9f8c2bc1a483469a59a2,Camp Arowhon,Private,1,arowhon road,Algonquin Park,ON,P0A1H0
9fac0f4ca79953014105,South Peace Distributed Learning,Public School,10808,15 st,Dawson Creek,BC,V1G3Z3
9fb0b745195d2a1b85e6,Blue Hills Community School,Public,,,Buffalo Head Prairie,AB,T0H4A0
9fb4ceb69c769c3a07c9,Crowfoot School,Federal First Nations,,,Siksika,AB,T0J3W0
9fd717c1c994d153d264,Kainai Alternate Academy,Federal First Nations,,,Stand Off,AB,T0L1Y0
9ffba7871f1cec48675e,Byrne Creek Community Secondary,Public School,7777,18th st,Burnaby,BC,V3N5E5
a0010c2cbdf9bdf130fc,Cobequid District Elementary School,Public,8993,hwy 354,Noel,NS,B0N2C0
a0019b29b9cae6ba3429,St. Paul,Separate,14410,96 avenue,Edmonton,AB,T5N0C7
a001e0973c042e78b803,"Rencontre, secondaire de la",Public,240,rue saint-pierre,Saint-Pamphile,QC,G0R3X0
a007ac50d921d124a05a,Muheim Memorial StrongStart Centre,StrongStart BC,,,Smithers,BC,V0J2N0
a02e6900c9f26538c57d,At Last Forest School - Owen Sound,Private,72,2nd avenue east,Owen Sound,ON,N4K5T2
a034b4de09f93a117fa1,Grierson Education Centre,Federal Jail,9530,101 street ave,Edmonton,AB,T5H0B3
a040002fb19b80728338,Bayview Community Elementary,Public School,4102,16 ave,Vancouver,BC,V6R3E3
a043260758f99e862e69,Immaculate Conception School,Independent School,8840,119 st,Delta,BC,V4C6M4
a04ce69a4d0e8c60ed84,Denetia Elementary,Public School,,,Lower Post,BC,V0C1W0
a05cc8e1aaff0f1cb799,Aurora School,Charter,12245,131 street,Edmonton,AB,T5L1M8
a067a4c90aa83d7a3312,McNally School,Public,8440,105 avenue,Edmonton,AB,T6A1B6
a0691a47f839cf117720,Ryley School,Public,,,Ryley,AB,T0B4A0
a06fd45241647dacd6ce,Campbell River Christian School,Independent School,250,south dogwood st,Campbell River,BC,V9W6Y7
a07146ce124d0355fd00,United Mennonite Educational Institute,Private,614,mersea rd 6 rr #5,Leamington,ON,N8H3V8
a07b3eb4f6f9bfb9d34d,Dr. Robert Plaxton Elementary School,Public,,,..,AB,..
a092f5ab8e54b60ceb76,FRONTIER MOSAKAHIKEN SCHOOL,..,,general delivery,MOOSE LAKE,MB,R0B0Y0
a0937dca160187f745a5,Jack Kemp School,..,3701,47 avenue,LLOYDMINSTER,SK,S9V1K9
a09f0765c8bf785e0575,Holt Colony School,Public,,,Irma,AB,T0B2H0
