Index,Facility_Name,Facility_Type,Street_No,Street_Name,City,Prov_Terr,Postal_Code
0ba5f6b88ab8848ec834,Thompson Colony School,Public,,,Fort Macleod,AB,T0L0Z0
0bb714f7cff45ca00343,Se't Anneway Kegnamogwom,..,,,Conne River,NL,A0H1J0
0bc87d78af19f48482a8,Thornhill Amish Private School,Private,1,side road 5,Chesley,ON,N0G1K0
0bdc28d96a3e50eefe05,New Jerusalem Parochial,Private,1505,scotch line road 2,Elmira,ON,N3B2Z2
0bf0db1dfe23e0bc7a2a,Tisdale Middle & Secondary School,..,,,TISDALE,SK,S0E1T0
0c02f4ac722dca26ba09,Burdett School,Public,,,Burdett,AB,T0K0J0
0c07b95e5ae6057ec8dd,Country Hills School,Public,435a,highway 1,Strathmore,AB,T1P1J4
0c102b207e625483e959,Kehewin Community Education Centre Outreach,Federal First Nations,,,Kehewin,AB,T0A1C0
0c1eb1f79bfe2a4e8ce5,Chipewyan Prairie Dene High School,Federal First Nations,,general delivery,Chard,AB,T0P1G0
0c3558fe5ec400c4ac3f,Borden School,..,,,BORDEN,SK,S0K0N0
0c3b459685336af14fec,Sidney Street School,..,,,MAPLE CREEK,SK,S0N1N0
0c4f43a85a2168a7626e,Donalda Colony School,Public,,,Donalda,AB,T0B1H0
0c59c09de47c54e08790,Mount Pearl Senior High,..,46,ruth ave,Mount Pearl,NL,A1N2H5
0c6753e41c39223a3514,Grant Macewan University,Junior College,10700,104 avenue,Edmonton,AB,T5J2P2
0c7bfc1b1c8e9e3015ff,Dante Alighieri Italian School,Private School,8808,144 ave,Edmonton,AB,T5E3G7
0c81ed8db3a151675b2c,Conrad Elementary,Public School,,,Prince Rupert,BC,V8J1G9
0c8520e7cc6d2f3c6ae5,Aqsarniit Middle School,..,,,Iqaluit,NU,..
0c8b0c2a802a2f995036,Riverbend School,Public,14820,53 avenue,Edmonton,AB,T6H4C6
0cabf0173c2701f9cc44,St. Boniface All Grade,..,,,Ramea,NL,A0N2J0
0cc13bf93d01dad55fa5,Hillsvale Colony School,..,,,CUT KNIFE,SK,S0M0N0
0cc86498c50131b62900,Paul Band First Nation School,Federal First Nations,,,Duffield,AB,T0E0N0
0ccbebb4593813db32e9,The Father s House Christian School,Private School,,,Morinville,AB,T8R1S1
0cdd8c7a4ad60b03bbb7,Slave Lake Koinonia Christian,Private School,,,Slave Lake,AB,T0G2A0
0d03c342800745758717,Barriere Elementary-Secondary,Public School,,,Barriere,BC,V0E1E0
0d0c21514b440bb1dffe,South Ferriby Colony School,Public,,,Marwayne,AB,T0B2X0
0d10c7634c9352d3c5e0,V.I.K. Academy Midnapore,ECS Private Operator,15426,bannister road se,Calgary,AB,T2X2X7
0d3c7c537d724113b88e,MSB Regional Academy,..,,,Middle Arm,NL,A0K3R0
0d4d4fea375ecabecfd8,STRATHCLAIR COMMUNITY SCHOOL,..,,,STRATHCLAIR,MB,R0J2C0
0d4ede2fbc6e63b0e7d5,Meridian Colony School,Public,,,Oyen,AB,T0J2J0
0db6e4b3c428824113fb,Dunluce School,Public,11735,162 avenue,Edmonton,AB,T5X4M6
0dbc323eac13f6a275c5,Nova Scotia Community College (Marconi Campus),Technical and Vocational,1240,grand lake road,Sydney,NS,B1P6J7
0dbead54e773f37a460f,King George Public School,..,421,23rd street e,PRINCE ALBERT,SK,S6V1P9
0dd28c69712dff03b9a9,Fairview Elementary,Public School,205,howard ave,Nanaimo,BC,V9R3R3
0ddce00d2068ee4f2961,Qitiqliq Middle School,..,,,Arviat,NU,..
0de19edcb049253701ed,Coronation Outreach School,Public,,,Coronation,AB,T0C1C0
0deab277af1c7722541f,ROSEDALE COLONY SCHOOL,..,#3,pr 248 south elie,ELIE,MB,R0H0H0
0dfa6d6d92431e12a780,Rosedale Christian School,Private School,10,rr #1 box,Crooked Creek,AB,T0H0Y0
0e0b4254242737583785,Qwam Qwum Stuwixwulh Community School,Public School,1390,stuywut st,Nanaimo,BC,V9X1M4
0e12bd971faa97d47fa0,Ehpewapahk Alternate School,Federal First Nations,,,Maskwacis,AB,T0C1N0
0e155700911e6c200aea,KEESEEKOOWENIN SCHOOL,..,,,ELPHINSTONE,MB,R0J0N0
0e2feb688b5ed20073c5,BRANTWOOD SCHOOL,..,65,3rd street sw,PORTAGE LA PRAIRIE,MB,R1N2B6
0e4bf8e6f99f343ddddf,The Learning Connection - Jasper,Public,,,Jasper,AB,T0E1E0
0e56c16a95ef7df592bc,Chiniki Community College,Private School,,,Morley,AB,T0L1N0
0e6349adc4b35d683e3d,Savanna School,Public,,,Silver Valley,AB,T0H3E0
0e8183b13d2a15943c4b,Lakeview School,..,,,COLE BAY,SK,S0M0M0
0e982047e6b6239a4bee,Consul School,..,,,CONSUL,SK,S0N0P0
0ea0063f4262535673b4,Brownfield Community School,Public,,,Brownfield,AB,T0C0R0
0ea8fdbad5081c4b3a0f,Chatelech Secondary,Public School,,,Sechelt,BC,V0N3A0
0edaa204af10207e56e6,Baldonnel Elementary,Public School,,,Baldonnel,BC,V0C1C0
