Index,Facility_Name,Facility_Type,Street_No,Street_Name,City,Prov_Terr,Postal_Code
98e97a82a6895c9a3b8a,PRAIRIE VIEW AMISH SCHOOL,..,,,GLADSTONE,MB,R0J0T0
98fa63489bbd2e4944de,SKY VIEW SCHOOL,..,#3,pr 248 south elie,ELIE,MB,R0H0H0
990006ae19f275ab7538,Roy Stibbs StrongStart Centre,StrongStart BC,600,fairview st,Coquitlam,BC,V3J4A7
99063289263f8c016b63,North Valley High School,..,,,LEMBERG,SK,S0A2B0
99177e6734b66adbf6c3,Westview Public School,..,620,macarthur drive,PRINCE ALBERT,SK,S6V8C6
99200de2932cd878edbe,Father Patrick Mercredi Community School,Separate,455,silin forest road,Fort McMurray,AB,T9H4V6
992141b3f733043c962a,Pemberton Secondary,Public School,,,Pemberton,BC,V0N2L0
9922f8daa51684961a0b,Bishop Routhier School,Public,,,High Prairie,AB,T0G1E0
99528628137c78eb3924,Neustadt Horizon Parochial School,Private,,,Ayton,ON,N0G1C0
997e0889a52e3124c393,Cypress Hutterite School,..,,,MAPLE CREEK,SK,S0N1N0
99974e31f17a259e14fe,Gladmar Regional School,..,,,GLADMAR,SK,S0C1A0
99ad4957c85b33f8ba78,Summit Learning Centre,Public School,32939,7th ave,Mission,BC,V2V2C5
99b8b04276121a541093,Loyalist College of Applied Ar,Technical and Vocational,,,Belleville,ON,K8N5B9
99bd1adeb92566944236,Valley Centre Hutterite School,..,,,ROSETOWN,SK,S0L2V0
99cc425b7892c8313004,LONG PLAIN SCHOOL,..,,,PORTAGE LA PRAIRIE,MB,R1N3B7
99e1488b5acd026df863,Cache Creek Elementary,Public School,,,Cache Creek,BC,V0K1H0
9a16ccb2f48e5b9e81af,ST. AMANT SCHOOL,..,440,river road,WINNIPEG,MB,R2M3Z9
9a3fcbcf8b2d243a25e3,St. Francis of Assisi,Separate,6614,129 avenue,Edmonton,AB,T5C1V7
9a436125fd65dd5362cf,Lakeland Country School,Private School,,,Dewberry,AB,T0B1G0
9a59c84af81675b59f38,Hitherfield School,Private,2439,tenth side road,Campbellville,ON,L0P1B0
9aa34c5127688d29016a,Poplar Row School,Public,435a,highway 1,Strathmore,AB,T1P1J4
9ab69f743c6443f9eb5d,Leedale Hutterite Colony,Public,,,Rimbey,AB,T0C2J0
9ac37cb7b06bea3c162b,Alberta Education,Provincial,44,capital blvd 10044 108 street,Edmonton,AB,T5J5E6
9ae16f273ce2a4056ded,CHIEF SAM COOK MAHMUWEE EDUCATION CENTRE,..,,general delivery,SPLIT LAKE,MB,R0B1P0
9aef3015b8e1201744d5,Tricon Elementary,..,,,Bay de Verde,NL,A0A1E0
9b10eba902080de4b4cd,MINTO SCHOOL,..,,,MINTO,MB,R0K1M0
9b23c2044a637d4d9c3c,Bear Valley School,Public School,,,Stewart,BC,V0T1W0
9b3285dd76e91bc55494,Rainbow Lake Learning Store,Public,,,Rainbow Lake,AB,T0H2Y0
9b54df527f6d341617ea,Meath Park Public School,..,,general delivery,MEATH PARK,SK,S0J1T0
9b5765dc757079c8a5de,Erickson Elementary,Public School,,,Erickson,BC,V0B1K0
9b5c9d941ec950515921,Sir Winston Churchill Secondary,Public School,7055,heather st,Vancouver,BC,V6P3P7
9b6b0a6bcd422cbb1f00,Alexis Creek Elementary/Secondary,Public School,,,Alexis Creek,BC,V0L1A0
9b89b2451bd439ec81e3,Riverdale School,Public,8901,101 avenue,Edmonton,AB,T5H0B1
9b8e67523f6475c44e95,Queen Elizabeth School,Public,402,18 street nw,Calgary,AB,T2N2G5
9bb76f556d09fa7689fa,Grandin School,Separate,9844,110 street,Edmonton,AB,T5K1J2
9bbdc3686ce26d22e435,Sheldon Coates Elementary School,Public,,,Grande Cache,AB,T0E0Y0
9bc9ad50de1662cd303f,Eric J Dunn StrongStart,StrongStart BC,3500,argyle st,Port Alberni,BC,V9Y3A8
9bda3be6d16afc08199f,Crestwood School,Public,9735,144 street,Edmonton,AB,T5N2T3
9bec75efde7c4b5870c0,Tollgate Parochial,Private,5,sideroad 2,Mount Forest,ON,N0G2L0
9c130891dcec4cf565ab,ALONSA SCHOOL,..,,,ALONSA,MB,R0H0A0
9c1e46bee883ef4cfcc5,ehtseo Ayha School,..,,,Dlne,NT,X0E 0G0
9c393f2975871eef4295,DOMAIN ELEMENTARY,..,,,DOMAIN,MB,R0G0M0
9c542aa3f43ea26c82ed,"Astrale, l'",Public,423,rue principale,Saint-Sylvestre,QC,G0S3C0
9c82cd669a7317105cbd,Vanguard Hutterite School,..,,,ANEROID,SK,S0N0C0
9c85763b91921a25d53c,Rowan Tree Children's School,Private,1545,monaghan road,Peterborough,ON,K9J5N3
9c905af0f0d54b8de1af,Lucerne Elem-Secondary,Public School,,,New Denver,BC,V0G1S0
9c949b8e13acb29aceb8,Delisle Elementary School,..,,,DELISLE,SK,S0L0P0
9c96b473ba7dd2001f70,Rosthern High School,..,,,ROSTHERN,SK,S0K3R0
9cadf9b8c81bd9c57a2b,Phoenix Elementary,Public School,112,rainbow rd,Salt Spring Island,BC,V8K2K3
