Index,Facility_Name,Facility_Type,Street_No,Street_Name,City,Prov_Terr,Postal_Code
a229cc63533241a9416a,Paatsaali High School,..,,,Sanikiluaq,NU,..
a2386724478b6c476ed5,Ecole Agnes Davidson School,Public,2103,20 street s,Lethbridge,AB,T1K2G7
a27899494fc715325a17,RED SUCKER LAKE SCHOOL,..,,general delivery,RED SUCKER LAKE,MB,R0B1H0
a27f1b500045018c580e,PHARE Shippagan,Alternative Learning Centre,201,rue h√¥tel de ville,Shippagan,NB,E8S1L1
a2b1bfa6298b15f196b9,RESTON SCHOOL,..,,,RESTON,MB,R0M1X0
a2ded11ec45e9f5631e8,Bishop White School,..,,,Port Rexton,NL,A0C2H0
a303002b2b7e38ae848f,Thorncliffe School,Public,8215,175 street,Edmonton,AB,T5T0G9
a3076c6c0b423457367b,Ridgevalley School,Public,,,Crooked Creek,AB,T0H0Y0
a30d661947d0875084d3,GREEN RIDGE SCHOOL,..,,,DOMINION CITY,MB,R0A0H0
a329f6ce835d98135682,Wolf Creek Education Centre,Public,,,Ponoka,AB,T4J1R8
a340ede11ab6911673d2,Milford Colony School,Public,,,Cardston,AB,T0K0K0
a343066b2c2ee4cd6458,Cherry Coulee Christian Academy,Private School,,,Bow Island,AB,T0K0G0
a3487860f97a7c51680b,BIRTLE COLLEGIATE,..,,,BIRTLE,MB,R0M0C0
a350c918ea16d1d21150,Lowell High School,Independent School,,,Vancouver,BC,V6B2R5
a36053eb1e9cc4610b87,Chief Sunrise Education Centre,..,,river dene,K'atlode-eche First Nation Reserve,NT,X0E 1G4
a3629fa41ff1a3b5f45e,Willowgrove Nature School,Private,11737,mccowan road,Stouffville,ON,L4A4C3
a363236058ade77b11f3,Marion Carson School,Public,5225,varsity drive nw,Calgary,AB,T3A1A7
a368875e2dad1d27a90e,Sunny Hill Hospital Program,Public School,3644,slocan st,Vancouver,BC,V5M3E8
a37cf427ebeb2edc0a96,Tween Valley Christian School,Private School,,,Taber,AB,T1G2C7
a384d0e394779f1da26d,Khowhemun Elementary,Public School,2918,cliffs rd,Duncan,BC,V9L1C5
a386c7fbf765d471b455,Blueberry School,Public,,,Stony Plain,AB,T7Z1Y6
a39222c04cb6e74098a3,Heritage Heights School,Public,3156,hwy 552e,De Winton,AB,T0L0X0
a3a0896a4a94e6c4e569,Kinistino Public School,..,,,KINISTINO,SK,S0J1H0
a3aeab18d7350c72f523,Downie Lake Hutterite School,..,,,MAPLE CREEK,SK,S0N1N0
a3b966d7e1eb2aad50fe,Walter Lee StrongStart Centre,StrongStart BC,9491,ash st,Richmond,BC,V7A2T7
a3bcc0b9c60c993a2707,Khowhemun StrongStart Centre,StrongStart BC,2918,cliffs rd,Duncan,BC,V9L1C5
a3c17962ca21e8496a52,EBB AND FLOW SCHOOL,..,,general delivery,EBB AND FLOW,MB,R0L0R0
a3c48b7ad78e8bfbe3fc,Coast Tsimshian Academy,Independent School,1600,legaic st,Lax Kw'Alaams,BC,V0V1H0
a3e25fdb5cbd3533e4c6,Grassy Plains School,Public School,34310,keefes landing rd,Burns Lake,BC,V0J1E4
a403b98adbe8eb053ef6,Pacific Rim Early Childhood Institution Inc.,Private Institution,,,Cobble Hill,BC,V0R1L0
a4145680aeb1216fbf09,Living Springs Christian School,Private School,,,Hythe,AB,T0H2C0
a41892455668c93e0d66,Wild Rose Public School,..,,rr 1,SHELLBROOK,SK,S0J2E0
a441cf20eeb34f04b814,St. Albert Public Outreach,Public,60,sir winston churchill ave,St. Albert,AB,T8N0G4
a44677075df3217219ae,PRAIRIE MENNONITE SCHOOL,..,,,PLUM COULEE,MB,R0G1R0
a446f4920d7205819760,J. C. Charyk Hanna School,Public,,,Hanna,AB,T0J1P0
a44a405407963c425238,Lead Foundation,ECS Private Operator,5271,memorial drive se,Calgary,AB,T2A4V1
a47565f101627def09d9,Verdant Valley Colony,Public,,,Drumheller,AB,T0J0Y0
a49745793ee7c36a2ed8,Valleyview Ranches Colony School,Public,,po bag 2,Valleyview,AB,T0H3N0
a49a0d16f8275fc8b718,McLeod School,Public,14807,59 street,Edmonton,AB,T5A1Y3
a4a32582479588a1fd83,Lakeside Outreach School,Public,,,Slave Lake,AB,T0G2A0
a4ad6c9cea855a80da82,Millennium Aviation,Private Institution,,wayne hicks lane,Saskatoon,SK,S7L6S1
a4b629cd575cd50b228b,Worsely Mennonite School,Private School,,,Cleardale,AB,T0H3Y0
a4ca5681dc046d9b870b,AlBaqir Academy,Private School,640,parsons road sw,Edmonton,AB,T6X1N4
a4cfcdfab063f603398f,Grace Christian School,Private,497,millgrove side road,Millgrove,ON,L0R1V0
a4e431b274a4ec6a4ba7,Northern Outreach Center,Public,,,La Crete,AB,T0H2H0
a50111bb58a7d551634e,Continuing Ed SD 84,Public School,,general delivery,Kyuquot,BC,V0P1J0
a508c00a4ab2568c16ed,PINE CREEK SCHOOL,..,,pine creek colony box 370,AUSTIN,MB,R0H0C0
a5341d9e3191db861430,Crawling Valley School,Public,435a,highway 1,Strathmore,AB,T1P1J4
a55015ca922361d5d3c0,Nelson Waldorf School,Independent School,,,Nelson,BC,V1L5P9
