Index,Facility_Name,Facility_Type,Street_No,Street_Name,City,Prov_Terr,Postal_Code
d90f868d613943ded74e,Hazelton Secondary,Public School,,,Hazelton,BC,V0J1Y0
d919036eec1806ddffab,Nipisihkopahk Secondary School,Federal First Nations,,,Maskwacis,AB,T0C1N0
d92d2adf94548bfd7d84,East Fairwell Hutterian School,..,,,EASTEND,SK,S0N0T0
d93111bb2d20b2e745b6,Zhingwaako Za'iganing School,Private,,,Lac La Croix,ON,P9A3M9
d937d344a3455de50ea2,Westhaven Elementary School,Public,1205,westhaven drive,Edson,AB,T7E1S6
d9418932a0839e9d0b7e,Hutterville Colony School,Public,,,Cardston,AB,T0K0K0
d941b169a23322ddae49,Perdue School,..,,,PERDUE,SK,S0K3C0
d95c8c696e60581cd196,Sunny Bend Colony School,Public,,r r 1,Westlock,AB,T7P2N9
d96e21304782faad72b3,Sunchild E-Learning Community,Private School,,,Calgary,AB,T3G5W6
d977a06386eb286c5b39,Distance Learning High School,Provincial,1201,main street se,Slave Lake,AB,T0G2A3
d97acc1f85bbf79eed19,Keho Lake Colony School,Public,101,3305 18 ave north,Lethbridge,AB,T1H5S1
d9c8ac3a789992a2cb9a,Gull Lake School,..,,,GULL LAKE,SK,S0N1A0
d9f35237b9cd53d8e7da,Dorintosh Central School,..,,,DORINTOSH,SK,S0M0T0
d9f508195b4860258bc3,Rose Valley Hutterite School,..,,,ASSINIBOIA,SK,S0H0B0
da09c666188e26482463,NEW HAVEN SCHOOL,..,,,ARGYLE,MB,R0C0B0
da30c8ca5569adc49089,Annunciation,Separate,9325,165 street,Edmonton,AB,T5R2S5
da338f976a0fd7500b99,McNeely StrongStart Centre,StrongStart BC,12440,woodhead rd,Richmond,BC,V6V1G3
da3484446954750b0ddd,Oakridge Montessori Children's Learning,Independent School,619,45th ave,Vancouver,BC,V5Z4G2
da69180e59502762cb6c,Memorial University of Newfoundland,University,,,St. John's,NL,A1C5S7
da6c1e628e59b16207de,Valhalla Community School,Charter,,,Valhalla Centre,AB,T0H3M0
da6ef5c16d664518e3e7,Summerland Montessori School,Independent School,,,Summerland,BC,V0H1Z0
da89c8f296b5a8986152,Churchill Community High School,..,,,LA RONGE,SK,S0J1L0
daa79b353164ccbe7683,Haliburton Forest School,Private,1012,garden gate drive,Algonquin Highlands,ON,K0M1S0
daad1d1cf3ca81c4fe5b,Nechi Institute: Centre of Indigenous Learning,Private Institution,,station main,St. Albert,AB,T8N2G3
dab2e42d97fc6fd63042,Humboldt Public School,..,,,HUMBOLDT,SK,S0K2A0
dabca9002f7ac0dafe0b,MAXWELL COLONY SCHOOL,..,#3,pr 248 south elie,ELIE,MB,R0H0H0
dac7eeb39b8ca298edd3,STE. ANNE ELEMENTARY SCHOOL,..,177,st alphonse avenue,STE. ANNE,MB,R5H1G3
dace9f8108322dc69893,SCOTT BATEMAN MIDDLE SCHOOL,..,,,THE PAS,MB,R9A1R4
db1182576e4930c9f62a,EDELWEISS SCHOOL,..,,,PLUM COULEE,MB,R0G1R0
db39d18de77ae90dbe1d,Gudangaay Tlaats'gaa Naay,Public School,,,Masset,BC,V0T1M0
db4da37517bc57070184,Sunshine Coast Alternative School,Public School,,,Gibsons,BC,V0N1V0
db537703f8ca9c31d2cb,Bulyea Elementary,..,,,BULYEA,SK,S0G0L0
db5e189897d9fc8b267c,SD 92 StrongStart BC Outreach Program #1,StrongStart BC,,,..,BC,..
db66379cd49bf90922ad,Ruth King StrongStart Centre,StrongStart BC,2764,jacklin rd,Victoria,BC,V9B3X6
db73dfbb2887957542b3,Ecole Pere-Lacombe,Francophone,10715,131a avenue,Edmonton,AB,T5E0X4
db754c7bd2b203eb6ab9,Jack MacKenzie School,..,3838,buckingham dr,REGINA,SK,S4V3A1
db9010688207d2ae48a6,J. J. Curling Elementary,..,,woodbine ave,Corner Brook,NL,A2H3P2
dbdde35b31b51475aadb,Victoria Academy,..,,,Gaultois,NL,A0H1N0
dbf4cfd912752238e61e,Educational Outreach Program,Public School,,,Salmon Arm,BC,V1E4N2
dc3acd5ffc6ca548ebb8,MINISTIC SCHOOL,..,,,GOD'S LAKE NARROWS,MB,R0B0M0
dc701e83f8aaea2d824f,Palliser Beyond Borders at Calgary,Public,2635,37 avenue,Calgary,AB,T1Y5Z6
dc7351b24c9f43ea8bdd,SPRUCE WOODS SCHOOL,..,,spruce woods colony brookdale,BROOKDALE,MB,R0K0G0
dc77d4a0069bf29eebbd,Whitefish Lake First Nation School,Federal First Nations,,,Atikameg,AB,T0G0C0
dc79e8e2b5956eea2982,Templeton Academy,..,,rr#2,Meadows,NL,A2H6B9
dc8326b7de006ed3b7da,Carrot River Elementary School,..,,,CARROT RIVER,SK,S0E0L0
dc8b9eba297555f22adc,Lake Cowichan Secondary,Public School,,,Lake Cowichan,BC,V0R2G0
dca1819beb286a658950,Blue Sky Colony School,Public,,,Hanna,AB,T0J1P0
dd13e15dd5718289802d,Youth Community Support Program,Public,10230,111 avenue,Edmonton,AB,T5G0B7
dd718f401decd5c04cbd,FOX LAKE SCHOOL,..,,,GILLAM,MB,R0B0L0
