Index,Facility_Name,Facility_Type,Street_No,Street_Name,City,Prov_Terr,Postal_Code
0ea0063f4262535673b4,Brownfield Community School,Public,,,Brownfield,AB,T0C0R0
0ea8fdbad5081c4b3a0f,Chatelech Secondary,Public School,,,Sechelt,BC,V0N3A0
0edaa204af10207e56e6,Baldonnel Elementary,Public School,,,Baldonnel,BC,V0C1C0
0ee4f59019d51ced3464,WILLOW GROVE SCHOOL,..,,,BEAUSEJOUR,MB,R0E0C0
0f436cc5c18ff4df1838,Salt Spring Centre School,Independent School,355b,blackburn rd,Salt Spring Island,BC,V8K2B8
0f4b0da191f9cede966c,W.F. Ready School,..,2710,helmsing street,REGINA,SK,S4V0W9
0f4f2e9c8573ba6ad575,WAYWAYSEECAPPO COMMUNITY SCHOOL,..,,,WAYWAYSEECAPPO,MB,R0J1S0
0f500dfec9ee0545da0c,Assiniboia Seventh Avenue School,..,,,ASSINIBOIA,SK,S0H0B0
0f8a816c7a0b91e21efe,Lethbridge Collegiate Institute,Public,1701,5 avenue s,Lethbridge,AB,T1J0W4
0f975a698ade819a9ec8,Wonowon Elementary,Public School,,,Wonowon,BC,V0C2N0
0f99f52902bfd6b8e47d,"Saint-Anselme, secondaire de",Public,825,route b√©gin,Saint-Anselme,QC,G0R2N0
0fae6ef033bf17d2263e,ELKHORN SCHOOL,..,,,ELKHORN,MB,R0M0N0
0fb91285c3820b8f48b5,Norman Carter Elementary School,..,,,WILKIE,SK,S0K4W0
0fc870e9ff4008665e97,Meander River Community School,Federal First Nations,,general delivery,Meander River,AB,T0H2P0
10146d4772db953b6f8e,West Bentinck Amish Parochial School,Private,521144,con 12 3,Elmwood,ON,N0G1S0
101add868bb60935c728,Pasadena Elementary,..,,,Pasadena,NL,A0L1K0
1021e50685cbe7207328,Nelson Christian Community School,Independent School,810,tenth st,Nelson,BC,V1L3C7
1029b10a1aa7ccc97ce6,Blue Mountain Elementary,Public School,12453,248 st,Maple Ridge,BC,V4R1J3
1029f284dffd990a5001,Lilac Grove School,Private,2,elderslie con 10,Dobbinton,ON,N0H1L0
103e30cdfaf2f48bb1dd,Church of God Christian,Private,751,john street n,Aylmer,ON,N5H2R8
1049bc5405f6cd72bdb1,BRANT-ARGYLE SCHOOL,..,,,ARGYLE,MB,R0C0B0
107a7adf07f073d19ed8,St Patrick Regional Secondary,Independent School,115,11th ave,Vancouver,BC,V5T2C1
10885dbe7312b1e308a1,MONARCH COLONY SCHOOL,..,,,FOXWARREN,MB,R0J0R0
1090e1a2d2e0b848e654,Departmental Evaluation,Provincial,10044,108 street,Edmonton,AB,T5J5E6
109553823385aeb0a073,Sunny Summit,Private,10384,highway 17 east 1,Bruce Mines,ON,P0R1C0
10a322df5709625b2161,Shalhevet Girls High School,Independent School,785,16th ave,Vancouver,BC,V5Z1S8
10c6b71e620858141b1b,Brander Gardens School,Public,14865,56 avenue,Edmonton,AB,T6H5G2
10c96b83fad8b8a5c2bf,Old Elm Colony School,Public,,,Cardston,AB,T0K0K0
10cd32282fa01765b240,SD57 StrongStart Centre 06,StrongStart BC,251,ogilive st,Prince George,BC,V2M3M4
10d4a1c3edcfb79385b0,Riverwood Academy,..,,general delivery,Wing's Point,NL,A0G4T0
10df919a61f76f42aa97,Lendrum School,Public,11330,54 avenue,Edmonton,AB,T6H0V7
10e14a6da56add84178e,WALTER WHYTE SCHOOL,..,,grand marais,GRAND MARAIS,MB,R0E0T0
10e8178d647ef64b8d14,Sturgis Composite School,..,,,STURGIS,SK,S0A4A0
10fae68920fecad8aa4e,Starland Colony School,Public,,,Hanna,AB,T0J1P0
112dd66c25a81491206b,"Night Wind, Kihew House School",Public,,,Rochester,AB,T0G1Z0
113529754e875bd416f6,Salmo Elementary School,Public School,,po drawer 220,Salmo,BC,V0G1Z0
113fbd6486a3f556a73f,Xavier Junior High,..,26,wight's road,Deer Lake,NL,A8A2H6
114e0868dd29f6cb7ba7,ROSEBANK COLONY SCHOOL,..,#3,pr 248 south elie,ELIE,MB,R0H0H0
116269d3de7ac6e02cde,Pine Meadow Hutterite School,Public,,,Glendon,AB,T0A1P0
116831bd62fa16172b2f,Rossignol Elementary School,..,,,ILE-A-LA-CROSSE,SK,S0M1C0
118e4aeeb9d52562c1c6,Sea View Elem-Jr Secondary,Public School,,,Port Alice,BC,V0N2N0
119f1b70d70088b311ba,Craik School,..,,,CRAIK,SK,S0G0V0
11c9abd68453a876d963,SAGKEENG CONSOLIDATED SCHOOL,..,,,PINE FALLS,MB,R0E1M0
11e4cac9cd967fb61d24,Hazel Trembath Elementary,Public School,1278,confederation dr,Port Coquitlam,BC,V3C6L9
1209311145fae646f0ad,Deer Lake First Nations,Private,,,Deer Lake,ON,P0V1N0
121e01e07f3e37c8f05a,Malcolm Tweddle School,Public,2340,millbourne road w,Edmonton,AB,T6K1Y9
122b2067e339df41d4d5,OAKLAND SCHOOL,..,,,CARROLL,MB,R0K0K0
1245459f2156bcc0de9b,James Cameron School,Independent School,,,Maple Ridge,BC,V2X7G1
124833782d1d359ca729,Round Hill School,Public,2,railway ave ne,Round Hill,AB,T0B3Z0
