Index,Facility_Name,Facility_Type,Street_No,Street_Name,City,Prov_Terr,Postal_Code
cc66cecc62e805ec6253,Parkland Colony School,Public,,,Nanton,AB,T0L1R0
cc825f592d376c0c8f78,Queen Alexandra School,Public,7730,106 street,Edmonton,AB,T6E4W3
cc8cd19acdc4c33c6e39,John Henderson StrongStart Centre,StrongStart BC,451,53rd ave,Vancouver,BC,V5X1J3
cca64e0b522c567c50a2,Eastside Elementary,..,,st john's avenue,Corner Brook,NL,A2H2E5
cceb667910b7f150041f,POPLAR POINT COLONY SCHOOL,..,,,PORTAGE LA PRAIRIE,MB,R1N3C4
ccf78b8ed793f4e9a544,Aurora Middle School,Public,,,Lac La Biche,AB,T0A2C0
cd0240c725e606ef30a3,Scott Robertson School,Public,13515,107 street,Edmonton,AB,T5E4W3
cd5f41b8b0f8c9d2ad25,Albert E. Peacock Collegiate,..,145,ross street e,MOOSE JAW,SK,S6H0S3
cd9e963f134f9c3f04cf,Gem School,Public,,,Gem,AB,T0J1M0
cda26274e93715512f3e,Kalamalka Secondary,Public School,7900,mcclounie rd,Vernon,BC,V1B1P8
cdae5991fd1e171845fc,John Paul II Catholic School,Independent School,4006,8th ave,Port Alberni,BC,V9Y4S4
cdb6fda9e6f1a7278e16,Kildare School,Public,7525,144 avenue,Edmonton,AB,T5C2R8
cdbaf7e70e59b741283c,College Heights Secondary,Public School,6180,domano blvd,Prince George,BC,V2N3Z4
cdc318dc92a2e6b84d4e,Coquitlam River StrongStart Centre,StrongStart BC,4250,shaughnessy st,Port Coquitlam,BC,V3E3E5
cdd8574257b621411aea,Crofton Elementary Community School,Public School,,,Crofton,BC,V0R1R0
cde3255ea2c0a5159eef,Dunstable School,Public,,r r 1,Busby,AB,T0G0H0
cdeece78c1ffa34743e1,Our Lady of Mercy,Independent School,7481,10th ave,Burnaby,BC,V3N2S1
ce0aae6c279f7424fadf,Pinewood Elementary,Public School,40,pinewood ave w,Cranbrook,BC,V1C5X8
ce107f5200f6358d9306,Horizon MAP School,Public,,,Vauxhall,AB,T0K2K0
ce37c2723e065b15e72c,Pembina Ed Cons-Drayton Valley,Provincial,,,Drayton Valley,AB,T7A1R8
ce3c8cbfc8a51c1fd3df,Marystown Central High School,..,,,Marystown,NL,A0E2M0
ce5abf9fb5dcb19ee558,Hairy Hill Colony School,Public,,,Two Hills,AB,T0B4K0
ce6ee791810bec767b71,Milo Community School,Public,,,Milo,AB,T0L1L0
ce7876472ba851b300d0,Fairview High School,Public,,po bag 2792,Fairview,AB,T0H1L0
ce82610abab466b2516f,Gregory School for Exceptional Learning,Private,4,colborne street west,Brantford,ON,N3T0M6
ce88d97185d397b98e3a,J W Inglis Elementary,Public School,,,Lumby,BC,V0E2G0
ce8c724a718eb77978e1,SD 27 StrongStart BC Outreach Program #3,StrongStart BC,,,..,BC,..
ceda6b90e2a8e10bca52,Hillcrest Middle School,Public School,2161,regan ave,Coquitlam,BC,V3J3C5
cedeba203e7dd46db783,The Oxford School,Private,595459,hwy 59,Woodstock,ON,N4S7W1
cef9294cf6fd0ad2e89a,DESC StrongStart Centre,StrongStart BC,,stn main,Salmon Arm,BC,V1E4N2
cefaf5260156dc949341,PHILOMENE CHARTRAND SCHOOL,..,,,CAMPERVILLE,MB,R0L0J0
cf4ef08d7c713d2085a6,Crossfield Elementary School,Public,,,Crossfield,AB,T0M0S0
cf64f0d7fc8ece9c2896,Spring Lake Hutterite School,..,,,SWIFT CURRENT,SK,S9H3V5
cf6533fccbcbc458a5e3,Norquay School,..,,,NORQUAY,SK,S0A2V0
cfcf009a41fe4e8dff65,Likely Elem-Jr Secondary,Public School,,,Likely,BC,V0L1N0
cfd8c05d8698a580aed7,Junior High Fresh Start Outreach Program,Separate,1420,28 st se,Calgary,AB,T2V0Y8
cfe1460500ab54e96da2,Pennant Colony School,..,,,PENNANT,SK,S0N1X0
cff0cfc87647721a0f99,HEYES ELEMENTARY,..,,,SWAN RIVER,MB,R0L1Z0
cff7dbd7dac89af3144e,Fernwood Elementary,Public School,112,rainbow rd,Salt Spring Island,BC,V8K2K3
d02a10f6cddac414422c,Bruno School,..,,,BRUNO,SK,S0K0S0
d05947fdef4a1873d9db,Mary Queen of the World Elementary,..,791,topsail road,Mount Pearl,NL,A1N3J6
d0693a6de8ebca07cc44,CARBERRY COLLEGIATE,..,,,CARBERRY,MB,R0K0H0
d08249c7c78690d5e961,Bishop Murray High School - ODP,..,142a,2nd ave n,SASKATOON,SK,S7K2B2
d08423cbdbe50661d6bc,St. Justin,Separate,8405,175 street,Edmonton,AB,T5T0G9
d094eccf56e455b9dcce,NorQuest College (Wetaskiwin),Provincial,5502,49 avenue,Wetaskiwin,AB,T9A3P3
d09fd7b07e895b2e71b3,SD 64 StrongStart BC Outreach Program #1,StrongStart BC,,,..,BC,..
d0bb9da1556e2102476f,Salmon Arm Storefront,Public School,,,Salmon Arm,BC,V1E4N2
d0bc45156e859de657a2,Buck Mountain Central School,Public,,,Buck Lake,AB,T0C0T0
d0bd7689f71b64ff5dc5,Carpenters Millwrights College,Private Institution,,,Paradise- NL,NL,A1L3W2
