Index,Facility_Name,Facility_Type,Street_No,Street_Name,City,Prov_Terr,Postal_Code
d0bd7689f71b64ff5dc5,Carpenters Millwrights College,Private Institution,,,Paradise- NL,NL,A1L3W2
d0beac96c99d8b2cb241,Hulbert Hutterite School,..,,,PONTEIX,SK,S0N1Z0
d0c3652a08807a3b2f24,North Oyster Elementary,Public School,13470,cedar rd,Ladysmith,BC,V9G1H6
d0c9afc97d26f4ab54d8,Conklin Community School,Public,,general delivery,Conklin,AB,T0P1H0
d10d143989309f5041a4,Pelican Mountain School,Public,,,Wabasca,AB,T0G2K0
d115c4f66e68e9279624,Canada Royal Arts High School,Independent School,896,west 8th ave,Vancouver,BC,V5Z3Y1
d11767387f7101ee6e58,MAC Islamic School Southside Campus,Private School,,,..,AB,..
d125bc1cb286c724dcef,Kingswood Elementary,Public School,11511,king rd,Richmond,BC,V7A3B5
d152c2ac92ed1b69c816,Springside Colony School,Public,,,Rosemary,AB,T0J2W0
d1551d1df6c2cb27b8f5,Shaunavon Public School,..,,,SHAUNAVON,SK,S0N2M0
d15c74afa7c4f69ddea1,Cupar School,..,,,CUPAR,SK,S0G0Y0
d1601edf6ca18f96be14,Bouchie Lake Elementary School,Public School,2074,blackwater rd,Quesnel,BC,V2J7B3
d170358a652dca9501f1,Peace Home Learning Connection,Public,4702,51 street,Grimshaw,AB,T0H1W0
d183a65f3e1fe80a1762,St. Catherine,Separate,10915,110 street,Edmonton,AB,T5H3E3
d18c62c864d04f2c9aca,Student's Union & Community Day Care Centre,ECS Private Operator,8917,112 street,Edmonton,AB,T6G2C5
d1a06bba38e344e0bd58,Madeira Park StrongStart Centre,StrongStart BC,,,Sechelt,BC,V0N3A0
d1a247725acf81e50b82,St. Elizabeth Seton,Separate,3711,135 avenue,Edmonton,AB,T5A2V6
d1fb464e0cc170738ac7,Maple Leaf School-LakeheadU,Private,670,reaume,Thunder Bay,ON,P7B5E4
d22b35fc334ec43007bc,Sayre School,Public,435a,highway 1,Strathmore,AB,T1P1J4
d22cb17389323384d9d3,Prince Rupert Middle,Public School,,,Prince Rupert,BC,V8J1G9
d24e5ccc99cf5a743b94,Lakeland Christian Academy,Private School,,,Cold Lake,AB,T9M1N2
d24eae2e8b7dec76c77c,Edge Hill Country School,Private,423281,concession 6 rr 1,Durham,ON,N0G1R0
d24f7a66c173d7e12fed,Jasper Place School,Public,8950,163 street,Edmonton,AB,T5R2P2
d265abf70930941bf520,St. Cecilia,Separate,8830,132 avenue,Edmonton,AB,T5E0X8
d291908496d84a6f6a71,Gansiwilaaks Distributed Learning School,Public School,,,New Aiyansh,BC,V0J1A0
d29b531f9fd413c0d3d7,Queen of Peace Middle School,..,,,Happy Valley-Goose Bay,NL,A0P1E0
d2a2ffef2f1f04b4d34c,Ottewell School,Public,9435,73 street,Edmonton,AB,T6B2A9
d2a8707fafbc2fdfcf5a,Fortune Bay Academy,..,,,St. Bernard's - Jacques Fontaine,NL,A0E2T0
d2b808ca6c0f8193c9fe,University Hill Secondary,Public School,3228,ross dr,Vancouver,BC,V6S0C6
d2d1303e6e72f4249c9f,Lakedale Amish Parochial,Private,1,side rd 5,Desboro,ON,N0H1K0
d2dc9681a7bed22ba8ef,Alix (Mirror and Alix Central),Public,,,Alix,AB,T0C0B0
d2e9d66dc282616d2fd7,Whitecourt Central Elementary School,Public,4807,53 avenue,Whitecourt,AB,T7S1N2
d2f69cce014715e1e90b,J V Humphries Elem-Secondary,Public School,,,Kaslo,BC,V0G1M0
d2fd9d56ce8c03800da5,Richmond Virtual School,Public School,8160,st albans rd,Richmond,BC,V6Y2K9
d318f87316c5a55be69e,Madrona School,Independent School,2064,west 10th avenue,Vancouver,BC,V6J2B3
d3199d2b94d2ad273de8,RESERVIST benefit for F/T students,Miscellaneous,,,Ottawa,ON,K1P6C6
d31b554ca40084f3db26,GROW Continuing Education Centre,Public School,320,second ave n,Williams Lake,BC,V2G1Z9
d34907bfbaa33967902f,Erskine Colony School,Public,,,Erskine,AB,T0C1G0
d34cf4a9565eec73c5d1,Robert Southey School,..,,,SOUTHEY,SK,S0G4P0
d351c063bb61018ab6d5,Cortes Island School,Public School,,,Mansons Landing,BC,V0P1K0
d362b2e75a4f24aaf034,Pelletier Hill Hutterite School,..,,rr #1,ADMIRAL,SK,S0N0B0
d371f45b5bfcfc02cac8,Nightingale Academy of Health Services Inc.,Private Institution,13525,102 street,Edmonton,AB,T5E4K3
d38c2f110f9a25814cc8,St. Walburg School,..,,,ST WALBURG,SK,S0M2T0
d3ff0555168588e11eb7,Palliser Beyond Borders at Picture Butte,Public,,,Picture Butte,AB,T0K1V0
d403173a4b3d9b06961d,Rockyview Christian School,Private School,,,Pincher Creek,AB,T0K1W0
d40c5394c8480271bf41,Continuing Ed SD 69,Public School,140,renz rd,Parksville,BC,V9P1E8
d41e321c08bf637435a7,Palliser Beyond Borders at Coaldale,Public,1915,20 avenue,Coaldale,AB,T1M1L8
d4232b17131b6df645d2,Kamsack Comprehensive Institute,..,,,KAMSACK,SK,S0A1S0
d45245c4fcd92ee85a7f,St. Vital Catholic School,..,,,BATTLEFORD,SK,S0M0E0
