Index,Facility_Name,Facility_Type,Street_No,Street_Name,City,Prov_Terr,Postal_Code
bd84472619b5928e4ff0,Sacred Heart Academy,Separate,709,2nd street,Strathmore,AB,T1P1B8
bdbdb6132238bc6d0fc1,Tusarvik Elemnetary School,..,,,Naujaat,NU,..
bdbe38447c4ea3baf156,Tisdale Elementary School,..,,,TISDALE,SK,S0E1T0
bdd1bd2481d6777d34f4,Harrison Hot Springs Elementary,Public School,,,Harrison Hot Springs,BC,V0M1K0
bdd38108643fd2f821a5,St. Francis Holistic Learning Centre,Separate,,,High Prairie,AB,T0G1E0
bddb3b83f5fc8204efee,Gros Morne Academy,..,,,Rocky Harbour,NL,A0K4N0
bdf36b3234f9d3af5158,Westwind Alternate School,Public,,,Cardston,AB,T0K0K0
bdf8d9339def0800d284,PIERSON SCHOOL,..,,,PIERSON,MB,R0M1S0
be05c5c3939aae354122,West Vancouver Inglewood Secondary,Public School,1750,mathers ave,West Vancouver,BC,V7V2G7
be10fc0d6433679a483f,ERICKSON ELEMENTARY,..,,general delivery erickson,ERICKSON,MB,R0J0P0
be22567c1229e5981e53,Duchess Bethel Mennonite School,Private School,,,Duchess,AB,T0J0Z0
be3c6c91b165dad36d8a,University of Ontario Institute of Technology,University,2000,simcoe street north,Oshawa,ON,L1H7K4
be6657895261d214a093,Fort Qu'Appelle Elementary School,..,,,FORT QU'APPELLE,SK,S0G1S0
be79e3a9496da39b0430,Ecole des Beaux-Lacs,Francophone,4312,34 street,Bonnyville,AB,T9N2R3
be8061c0b8ad6fc0148c,Queneesh StrongStart Centre,StrongStart BC,2345,mission rd,Courtenay,BC,V9N9H1
be8a6a774e889605f458,Grimshaw Public School,Public,,,Grimshaw,AB,T0H1W0
be98818ea468748f23b7,MIAMI SCHOOL,..,,,MIAMI,MB,R0G1H0
beafeb9a486d135a8c16,Penhold Elementary School,Public,,,Penhold,AB,T0M1R0
beb1115c09c0b84deb24,Montessori School of Kleinburg,Private,10515,27 highway,Kleinburg,ON,L0J1C0
bed1a057079370686488,Webb Hutterite School,..,,,WEBB,SK,S0N2X0
beed52891704dc77f527,Ladysmith StrongStart Centre,StrongStart BC,,,Ladysmith,BC,V9G1A6
bef25b1473c8dc556470,Jonas Samson Middle School,..,715,7th avenue w,MEADOW LAKE,SK,S9X1A7
bf0a72c0465c25916b57,École Olds High School,Public,,,Olds,AB,T4H1P5
bf115ebb524de3a68dad,ÉCOLE SWAN RIVER SOUTH SCHOOL,..,,,SWAN RIVER,MB,R0L1Z0
bf20f46f0aa1f5989f44,LIGHTFIELD MENNONITE SCHOOL,..,,,HORDEAN,MB,R0G0Z0
bf3c9f1d4d693cfbfd3a,Vavenby Elementary,Public School,,,Vavenby,BC,V0E3A0
bf487bc2870c30a595f9,Dewberry School ECS,ECS Private Operator,,,Dewberry,AB,T0B1G0
bf49b5dae6d288336338,Columbia Park Elementary,Public School,,,Revelstoke,BC,V0E2S0
bf49d27342d6ea4fa9f4,Millennia Helicopters Ltd.,Private Institution,,,Winnipeg,MB,R2G4E9
bf4fc1d7d6e468ccbd77,OMIISHOSH MEMORIAL SCHOOL,..,,,PAUINGASSI,MB,R0B2G0
bf56de1cc066abf10215,St. Vincent,Separate,10530,138 street,Edmonton,AB,T5N2J6
bf8a3e58779635a168f5,École St-Isidore de Bellevue,..,,general delivery,ST ISIDORE DE BELLEVUE,SK,S0K3Y0
bf9c6d21ad79820ba115,HOFER SCHOOL,..,#3,beausejour,BEAUSEJOUR,MB,R0E0C0
bf9e4ff104ce4a22db7d,Tumbler Ridge Elementary,Public School,,,Tumbler Ridge,BC,V0C2W0
bfb3264e408cce442f33,Woodbridge Private Learning Centre (Wood,Private,7575,hwy 27,Woodbridge,ON,L4L4M5
bfc1913d813dd284d221,Summerland Middle School,Public School,,drawer 3000,Summerland,BC,V0H1Z0
bfcbcdd305299d7064b0,Ashmont Secondary School,Public,,,Ashmont,AB,T0A0C0
bfee0eb12868a9b17c27,Beacon Heights School,Public,4610,121 avenue,Edmonton,AB,T5W1M8
bff8f8cdd05bd6a6d132,Trails Youth Initiatives,Private,15599,warden ave,Stouffville,ON,L4A2M9
bffa00021eae85cd445d,French Shore Academy,..,,,Port Saunders,NL,A0K4H0
bffdab9c4ced55a84e3c,At Last Forest School - Saugeen Valley,Private,301820,concession 2 sdr,Hanover,ON,N4N3B8
c0242258c62f44cca058,Earview Hutterian School,..,,,SWIFT CURRENT,SK,S9H4J8
c02f0107837bfb701bbe,Blumenort Mennonite School,Private School,,,La Crete,AB,T0H2H0
c03de992c3e0c974ef70,North West Central School,..,,,PLENTY,SK,S0L2R0
c05caf1533eda1054f50,Oak Bridge Academy,Private,55,franklin blvd,Cambridge,ON,N1R5S2
c061d78cc27d3ab0aef5,The Brick Learning Centre,Public,6000,highway 2a,Ponoka,AB,T4J1P6
c08bad28447d5ae36240,Elk Point Elementary School,Public,,,Elk Point,AB,T0A1A0
c0be20d751a7bc2f50eb,Green Acres School,Public,,c/o golden hills school div 435a highway 1,Strathmore,AB,T1P1J4
c0d559912fe488c2d2d7,Birch Hills Public School,..,,,BIRCH HILLS,SK,S0J0G0
