Index,Facility_Name,Facility_Type,Street_No,Street_Name,City,Prov_Terr,Postal_Code
ba5981bcf4403254225f,Gospel Light Christian School,Private,714229,baseline rd,Ceylon,ON,N0C1K0
ba5b00592f060cf8ceb9,Ontario International Institute,Private,5,harwood avenue south,Ajax,ON,M1V1Z6
ba71858225702f2888c2,New Westminster Secondary,Public School,835,eighth st,New Westminster,BC,V3M3S9
ba8dfd201b92596d6d5c,Strata Montessori Adolescent School,Private,575,lions club road,Ancaster,ON,L9G4X1
ba9394ba1f62cc4e3340,Ã‰COLE LA SOURCE,..,,t-102 avenue st barbara shilo,SHILO,MB,R0K2A0
ba95407f7900609bb494,Kenilworth School,Public,7005,89 avenue,Edmonton,AB,T6B0N3
ba9710241e3b6a3a2fca,WEST VALLEY SCHOOL,..,,,DARLINGFORD,MB,R0G0L0
ba9a57359a51a626409a,Houston Secondary,Public School,,,Houston,BC,V0J1Z0
ba9c46de0ec6c10e687c,AUSTIN CHRISTIAN ACADEMY,..,,,AUSTIN,MB,R0H0C0
ba9f66498ed125b69513,Ecole Heritage Park Middle School,Public School,33700,prentis ave,Mission,BC,V2V7B1
ba9f6ce43fced9c6d8a2,Stephenville Elementary,..,,,Stephenville,NL,A2N3A3
bab8dcebc6c764fd1cd1,Goodwin Learning Centre,Private,149,english settlement rd,Trenton,ON,K8V5P7
bac6b7af4f30e889b187,Elves Scouts Canada Campus,Private School,10825,142 street,Edmonton,AB,T5N3Y7
bacbf5723b5a838d386b,Lower Nicola Band School,Independent School,201,horn rd,Merritt,BC,V1K1M9
bb16e5b62e9ea9c66a9e,J.C. Erhardt Memorial School,..,,,Makkovik,NL,A0P1J0
bb179141ec4ee284377e,Westlock Elementary School,Public,10515,106a street,Westlock,AB,T7P2E7
bb1fcb73ed979fa6f34c,Torah High - Toronto,Private,,,Toronto,ON,M2R3V2
bb2ba1c05d450721d58f,Eric J Dunn Elementary,Public School,3500,argyle st,Port Alberni,BC,V9Y3A8
bb303c5a9f2cfe76ed09,Agnes L Mathers Elementary Secondary,Public School,,,Sandspit,BC,V0T1T0
bb3cb2b3b7fe1a39ca65,Killam Public School,Public,,,Killam,AB,T0B2L0
bb41fafc981e7638107e,Academic Vision,Private,39,main st n,Markham,ON,L3P1X3
bb7cf2030db84b21d4ba,Lucerne StrongStart Centre,StrongStart BC,,,New Denver,BC,V0G1S0
bb9f029909f160d5c5e2,Royal City Alternate Program,Public School,850,queens ave,New Westminster,BC,V3M0A8
bba33874f6d3c7dcf8d2,CORMORANT LAKE SCHOOL,..,,general delivery cormorant,CORMORANT,MB,R0B0G0
bbb835ff421f84772f5d,Horizon Distance Learning Centre,..,,,HUMBOLDT,SK,S0K2A0
bbd10c424b2213f25e49,Penson School,Public,,,Grovedale,AB,T0H1X0
bbdb8bd38b13f86763ec,Duchess School,Public,,,Duchess,AB,T0J0Z0
bc07df0bed10a2ffa8e5,Deep Creek Colony School,Public,3600,48 ave,Athabasca,AB,T9S1M8
bc156f5f517713ddfc3f,Nova Scotia Community College-eCampus,Technical and Vocational,1240,grand lake road,Sydney,NS,B1P6J7
bc15ecdb62bd8e1d58ab,Gander Elementary,..,10,penney's avenue,Gander,NL,A1V0J3
bc35e71959a8d20b71cb,Bayview Primary,..,,,Nipper's Harbour,NL,..
bc4f4677f0fe52d04df2,HORIZON COLONY SCHOOL,..,120,9th street nw,ALTONA,MB,R0G0B1
bc57a4170c92b9c6ebf6,Rosebud River School,Public,435a,highway 1,Strathmore,AB,T1P1J4
bc6044516593eea1b9da,DECKER COLONY SCHOOL,..,,,DECKER,MB,R0M0K0
bc8bbdbe1f5d961df9b1,North River Elementary School,Public,80,mountain lee rd,North River,NS,B6L6M2
bc8c336db17b9e43179e,Chestermere High School,Public,,rr 7,Calgary,AB,T2P2G7
bc994d3a303c53a67d3a,HOLMFIELD COLONY SCHOOL,..,,,KILLARNEY,MB,R0K1G0
bc9c1a0a37f56a7d81db,Xyna International High School,Private,60,gillingham dr,Brampton,ON,L6X0Z9
bcbeacb4ccbd4f975508,Gift Lake School,Public,,,Gift Lake,AB,T0G1B0
bccca123f2885328bcb0,As-Sadiq Islamic,Private,9000,bathurst st,Thornhill,ON,L4J8A7
bce70777ca8ae39a551c,Stelly's Secondary,Public School,1627,stellys cross rd,Saanichton,BC,V8M1S8
bceec4cd34f319ffad40,Holy Redeemer Catholic Junior/Senior High School,Separate,4912,12 avenue,Edson,AB,T7E1S7
bcff3128a264e65839cf,Highland Park StrongStart Centre,StrongStart BC,,,Armstrong,BC,V0E1B0
bd0da867e7e35e96e0b4,Aldergrove Community Secondary,Public School,26850,29 ave,Aldergrove,BC,V4W3C1
bd10f81a448db10508a6,Holy Spirit High,..,2694,topsail road,Conception Bay South (Manuels),NL,A1W4B1
bd1dea62cafe22c585fb,Prairie Rose Regional Division Home Education,Public,1002b,allowance ave se,Medicine Hat,AB,T1A3G8
bd2cc10be70b1ad9103a,Pacific Heights Elementary,Public School,17148,26 ave,Surrey,BC,V3S0A4
bd35ed29938056701b3d,HIDDEN VALLEY SCHOOL,..,,,AUSTIN,MB,R0H0C0
bd39caf6fdbbea54c2dc,Michael A Kostek Elementary School,Public,5303,190 street,Edmonton,AB,T6M2L2
