Index,Facility_Name,Facility_Type,Street_No,Street_Name,City,Prov_Terr,Postal_Code
c45d140c4bea4613a648,Menno-Simons Community School,Public,100,po bag,Cleardale,AB,T0H3Y0
c48d05e013fd8dbd7679,LORD WOLSELEY SCHOOL,..,939,henderson hwy,WINNIPEG,MB,R2K2M2
c4aecba67f3ef4d73c74,Burnaby Mountain Secondary,Public School,8800,eastlake dr,Burnaby,BC,V3J7X5
c4cb7ee00c1a5860d2e1,Corpus Christi School,Independent School,6344,nanaimo st,Vancouver,BC,V5P4K7
c4e4f4cb83153506ca66,Raft River StrongStart Centre,StrongStart BC,,,Clearwater,BC,V0E1N0
c4e6c56ae087850061d6,Corinth Christian School,Private,54519,eden line,Aylmer,ON,N5H2R3
c501025c0df1b2a1f624,Dalmeny High School,..,,,DALMENY,SK,S0K1E0
c50e39f8dbe94f857c42,Teepee Creek School,Public,,rr 2,Sexsmith,AB,T0H3C0
c50eb5610cd4a9027fb0,Creighton Community School,..,,,CREIGHTON,SK,S0P0A0
c518c7a4e8d7d81a7de7,Bulkley Valley Education Connection,Public School,,,Smithers,BC,V0J2N0
c51cf4578bafd1dbf4c8,Ocean Grove Elementary,Public School,3773,mclelan,Campbell River,BC,V9H1K2
c53019fd72d8dc5a7454,Peace Mennonite School,Private School,,,La Crete,AB,T0H2H0
c53d5c696c228252b6e3,Gwynne School,Public,,general delivery,Gwynne,AB,T0C1L0
c56de80eca229e3bfbcb,Webtree Academy,Private,250,lesmill road,North York,ON,M3B2T5
c56df2243c349da99c01,Central Training Academy,Private Institution,,,Badger,NL,A0H1A0
c57c4b8371a0e6f666fe,Parkside Secondary,Public School,3824,eby st,Terrace,BC,V8G2Z8
c58ec35d1148de43912b,Sir John Franklin Community,Public School,250s,skeena st,Vancouver,BC,V5K4N8
c5a60e464f086f6e4347,Nuiyak Elementary School,..,,,Sanikiluaq,NU,..
c5daebdf1a056366fea6,STARLITE COLONY SCHOOL,..,#3,pr 248 south elie,ELIE,MB,R0H0H0
c5f55a2d386f5afd1774,Elves Adult & Youth Centre,Private School,10825,142 street,Edmonton,AB,T5N3Y7
c6004cf55fbf63c14160,Mississauga First Nation Adult Education,Private,148,village road,Blind River,ON,P0R1B0
c60dd356968e1d79adaf,Mouse Mountain Elementary,Public School,,,Fraser Lake,BC,V0J1S0
c615479b8f84902dda28,LAWRENCE SINCLAIR MEMORIAL SCHOOL,..,,,DALLAS,MB,R0C0S0
c62e09995e4df2269698,Kengard Alternate,Public School,,,Merritt,BC,V1K1B8
c641d66de2ede5fc44e7,Canwood Public School,..,,,CANWOOD,SK,S0J0K0
c65f283acd39693a6d6f,Nala'atsi Alternate Program,Public School,665,16th st,Courtenay,BC,V9N1X6
c6aafe009e1afa442e1f,Alex Janvier School,Public,,,..,AB,..
c6b003c03eb7d497e779,Maurault,Public,46,rue maurault,Pierreville,QC,J0G1J0
c6b3f98b5b6190b385a9,GIMLI HIGH SCHOOL,..,,,GIMLI,MB,R0C1B0
c6bad6c2d6322a1d8c39,Mount Sentinel Secondary,Public School,,,South Slocan,BC,V0G2G0
c6c0d306cdcfc280870d,John W. MacLeod-Fleming Tower Elementary School,Public,1511,purcell's cove rd,Halifax,NS,B3P1B7
c6d18aecdf45e92f9e8f,Carrot River Jr. Sr. High School,..,,,CARROT RIVER,SK,S0E0L0
c6e09fed230fd22bc411,T A Norris Middle School,Public,8701,95 street,Peace River,AB,T8S1R6
c6ef381f0e0955ece567,St. Pius X,Separate,12214,128 street,Edmonton,AB,T5L1C5
c707309e85324df30785,WINKLER ELEMENTARY,..,284,8th street winkler,WINKLER,MB,R6W4C9
c71f425b767db7d7b873,Raymore School,..,,,RAYMORE,SK,S0A3J0
c71f6961e23ba29dde5f,SD 62 StrongStart BC Outreach Program #1,StrongStart BC,,,..,BC,..
c74016521fef70ee50e1,Hutterite Colony School,Public,,,Smoky Lake,AB,T0A3C0
c74d03f7e5963da71580,Kikino Elementary School,Public,,general delivery,Kikino,AB,T0A2B0
c75b99761175d954da45,RAPID CITY SCHOOL,..,,,RAPID CITY,MB,R0K1W0
c779acc728d1f64639e4,Dover Bay Secondary,Public School,6135,mcgirr rd,Nanaimo,BC,V9V1M1
c77b95af2cee5fb5b407,Lighthouse Christian Academy,Independent School,1289,parkdale dr,Victoria,BC,V9B4G9
c7a9a48c3d67bd14e5b2,PETER YASSIE MEMORIAL SCHOOL,..,,general delivery tadoule lake,TADOULE LAKE,MB,R0B2C0
c7b3581f31a15b1c53c6,Highlands School,Public,11509,62 street,Edmonton,AB,T5W4C2
c7b9345935c4e6e9b726,Simon Fraser Youth Day Treatment Centre,Public School,1100c,winslow ave,Coquitlam,BC,V3J2G3
c7c4e021bbe8395bb8ce,COMMUNITY BIBLE FELLOWSHIP CHRISTIAN,..,,,SWAN RIVER,MB,R0L1Z0
c7d8a653ed4e3258a8e1,Marysville Elementary,Public School,546,309 ave,Kimberley,BC,V1A3J3
c7e204a3612442340e9e,Wychwood School,Private,611,st clair avenue west,Toronto,ON,M6C1A3
c82203e2cb716e12a134,All Hallows Elementary,..,,general delivery,North River,NL,A0A3C0
