Index,Facility_Name,Facility_Type,Street_No,Street_Name,City,Prov_Terr,Postal_Code
d456773bcf3598b666cd,Kaw Tay Whee School,..,,,Detah,NT,X1A 2N1
d46087da1ba142f78b5f,PALS Autism Society (School Program),Independent School,101,third st,New Westminster,BC,V3L2P9
d47e4d7b3affbbfba6b2,LIVING HOPE SCHOOL,..,,,NEEPAWA,MB,R0J1H0
d490069268f036033915,SD 27 StrongStart BC Outreach Program #1,StrongStart BC,,,..,BC,..
d49cce0d27597b0e8304,Programme Essentiel (École secondaire Népisiguit),Alternative Learning Centre,915,rue sainte-anne,Bathurst,NB,E2A6X1
d4a121bb1968eed6dc53,Lumsden Academy,..,,,Lumsden,NL,A0G3E0
d51a14bb07d26e90b0de,NW Regional Trades & Training Centre,Public School,3120,16 hwy e,Terrace,BC,V8G4N8
d521e67e96d14a555118,E.A. Butler All Grade,..,,,McKay's,NL,A0N1G0
d52572f47f77e484caf5,'72 MEMORIAL HIGH SCHOOL,..,,,OXFORD HOUSE,MB,R0B1C0
d52a5ef92d9b9def152f,Hillcrest School,Public,16400,80 avenue,Edmonton,AB,T5R3M6
d533470668f89c3a2d4d,Experience School,Private,42,sousa mendes street,Toronto,ON,M6P0B2
d5410a8b4f8c7427ce53,Advance Alternate,Public School,26850,29 ave,Aldergrove,BC,V4W3C1
d56f5d9a379df0c172bd,Regina Public Schools Night School,..,2314,11th ave,REGINA,SK,S4P0K1
d57b702879cccb19fade,NEIL DENNIS KEMATCH MEMORIAL SCHOOL,..,,general delivery,PELICAN RAPIDS,MB,R0L1L0
d57d2693a5f887d84a0b,Ecole Le Ruisseau,Francophone,803,4 ave west,Brooks,AB,T1R0B5
d5a229a6636b2cd0358f,WINGHAM HB SCHOOL,..,,,ELM CREEK,MB,R0G0N0
d5bc1ecda27329cbf85f,Breton Elementary School,Public,,,Breton,AB,T0C0P0
d5d18b07d9f3c223305f,Merit College,Private,3601,highway 7 east,MARKHAM,ON,L3R0M3
d5d42b0952c08069d144,SAKASTEW SCHOOL,..,,,PUKATAWAGAN,MB,R0B1G0
d5d8cde3aa715adf76ee,Christ The King Academy,Separate,440,1st w,Brooks,AB,T1R1L7
d5f26db148989bb4d931,The Nature School,Private,9550,pine valley drive,Woodbridge,ON,L4L1A6
d60a3eb1dfb264807141,BOUNDARY LANE COLONY SCHOOL,..,,,ELKHORN,MB,R0M0N0
d60b03a6f71fd4ff1603,Rosewood Colony School,Public,,,Provost,AB,T0B3S0
d6297a5504f1975c92a9,Deh Gáh Elementary and Secondary School,..,,,Fort Providence,NT,X0E 0L0
d678a63829832147bc03,Standoff Colony School,Public,,,Cardston,AB,T0K0K0
d68839b4272d061dbbef,Sky Wings Aviation Academy,Private Institution,13,red deer indust arpt,Penhold,AB,T0M1R0
d692aeb6c59bdc51f3fa,Piccadilly Central High,..,,rr#2,Piccadilly,NL,A0N1T0
d69f296254d2decba5f9,Sayward StrongStart Centre,StrongStart BC,,,Sayward,BC,V0P1R0
d6aa58e564b91e28f759,Horton Academy,Private,,,North York,ON,M2H3N5
d6adf07086993bd5ddc0,Maaqtusiis Elementary,Independent School,,general delivery,Ahousaht,BC,V0R1A0
d6d8a3d9b09977a18d41,Miami Colony School,Public,,,Cardston,AB,T0K0K0
d73659d17ea158e487ae,ALBRIGHT SCHOOL,..,,oak bluff colony box 819 morris,MORRIS,MB,R0G1K0
d769592374f23c37c597,Brighter Futures,ECS Private Operator,,,..,AB,..
d76c8b005a1aa78c581e,Holy Family Elementary,..,67,st thomas line,Paradise,NL,A1L1K9
d76cddb078a8379f3edb,Okanagan Christian School,Independent School,1035,hollywood rd s,Kelowna,BC,V1X4N3
d77ea0adc40b09c9e2dd,Susa Creek School,Public,,,Grande Cache,AB,T0E0Y0
d77ef47c173489110d4c,Sir Richard McBride Elementary,Public School,1300,29th ave,Vancouver,BC,V5V2T3
d7b0808c3f4ab6878aa3,CENTENNIAL SCHOOL,..,,,LAC DU BONNET,MB,R0E1A0
d7daceb65bbecc465ef5,Heritage Christian Online School (DL),Independent School,905,badke rd,Kelowna,BC,V1X5Z5
d7f346a29477d0f5c6eb,Jakeman All Grade,..,,,Trout River,NL,A0K5P0
d8030f040c216e48606e,St. Catherine's Academy,..,,,Mount Carmel,NL,A0B2M0
d82a7a07832df48d6b0b,Maskwacis Cultural College,Private Institution,,,Hobbema,AB,T0C1N0
d82b30a6d6c898998abd,Yarmouth Elementary School,Public,5,brunswick st,Yarmouth,NS,B5A3A9
d83856456a33bcdcdbb6,Houston Christian School,Independent School,,,Houston,BC,V0J1Z0
d83d8f364696884832af,Desert Sands StrongStart Centre,StrongStart BC,,,Ashcroft,BC,V0K1A0
d8466bc0ce39e4625538,Peachland Elementary,Public School,5486,clements cres,Peachland,BC,V0H1X5
d858a3bea8680b7a7a54,EMERALD COLONY SCHOOL,..,,,AUSTIN,MB,R0H0C0
d8674ae94f1c03870255,Alexis Elementary Junior Senior High School,Federal First Nations,,,Glenevis,AB,T0E0X0
d8f958e3250bf66751f4,Toad River Elem-Secondary,Public School,,,Fort Nelson,BC,V0C1R0
