Index,Facility_Name,Facility_Type,Street_No,Street_Name,City,Prov_Terr,Postal_Code
c8484e95e7e02b2caedc,Conrad StrongStart Centre,StrongStart BC,,,Prince Rupert,BC,V8J1G9
c85956b6e66257ca18e3,Boundary Bay Montessori House,Independent School,3800,72 st,Delta,BC,V4K3N2
c8622a1d221052295c99,Chief Tallcree School South,Federal First Nations,,,Fort Vermilion,AB,T0H1N0
c8718ad849dfa7b211e4,Maple Grove Amish Parochial School,Private,1,bruce road 15,Tiverton,ON,N0G2T0
c89548d6260a41ea9f3b,Anchors Outreach School,Public,,,Strathmore,AB,T1P1R7
c89853aa175fa32d00be,O'Chiese School,Federal First Nations,#1,education lane,Rocky Mountain House,AB,T4T1A3
c8a6fbbc2ae3c398aa38,Holy Cross Elementary,..,,,Holyrood,NL,A0A2R0
c8b1dc8c4d0eb3822a3a,Chief Zzeh Gittlit School,..,,,Old crow,YT,Y0B 1N0
c8f1c3c4ef4fbae88916,Aspen Heights Elementary School,Public,5869,69 street drive,Red Deer,AB,T4P1C3
c9029a1e56e81d229cb7,Merritt Central StrongStart Centre,StrongStart BC,,,Merritt,BC,V1K1B8
c927473a6e98a9a320e3,WELLWOOD SCHOOL,..,,,KILLARNEY,MB,R0K1G0
c93c36342b01f5e7c302,Tatla Lake Elem-Jr Secondary,Public School,,,Tatla Lake,BC,V0L1V0
c93e7590a8c3793a6d20,Tuugaalik High School,..,,,Naujaat,NU,..
c94cfb3bc20652060634,Countryside Christian School,Private School,,,Edberg,AB,T0B1J0
c94f7711fbdf58f401c4,Edmonton Bible Heritage Christian School,Private School,13054,112 street,Edmonton,AB,T5E6E6
c953274334527f4044da,Yellowhead Tribal Education Centre,Federal First Nations,,,Edmonton,AB,T5P2P7
c959eaa781e7ae2b9754,St. Hilda,Separate,7630,38 avenue,Edmonton,AB,T6K2N2
c95ba8d08f2f16911532,St. Michael School,..,426,13th street ne,WEYBURN,SK,S4H1L3
c9963fe35b955c023e46,St. Timothy,Separate,14330,117 street,Edmonton,AB,T5X1S6
c9af440d733d9db04ae4,Chief Jacob Bearspaw School,Federal First Nations,,,Eden Valley,AB,T0L2R0
c9bfe7236e3259224142,University nuhelot'ine thaiyots'ii nistameyimakanak Blue Quills,Private Institution,,,St. Paul,AB,T0A3A0
c9cbee64790d0ee8205a,CLEARSPRING MIDDLE SCHOOL,..,1,brighton lane,STEINBACH,MB,R5G0Y2
c9ced392f71ea831a35f,F.G. Miller Junior Senior High School,Public,,,Elk Point,AB,T0A1A0
c9cf04483adf86d55865,FISHER RIVER HIGH SCHOOL,..,,,FISHER RIVER,MB,R0C1S0
c9f53fa37a414c38f6fe,MacDonald School,..,,,STOCKHOLM,SK,S0A3Y0
c9ff3a21fa162f790457,North Valley Parochial School,Private,2,hwy 569,Thornloe,ON,P0J1S0
ca13b8f678675af6ad57,Issachar Christian Academy,Private,,,North Bay,ON,P1B7J6
ca21ae514c35f70cee8f,Myrtle Philip Community School,Public School,,,Whistler,BC,V0N1B0
ca28c3d76e49871a0036,Carbonear Collegiate,..,95,valley road,Carbonear,NL,A1Y1A6
ca3a634c44c669620b2e,Ribstone Colony School,Public,,,Edgerton,AB,T0B1K0
ca6b3a274ca155e0997f,HAZEL M. KELLINGTON SCHOOL,..,,,NEEPAWA,MB,R0J1H0
ca81b41b4db8fdcbe99a,Babine Elem-Secondary,Public School,,,Granisle,BC,V0J1W0
ca88e1cd0635c7371004,Englefeld School,..,,,ENGLEFELD,SK,S0K1N0
ca96c681734257abc50a,Fairview College - La Crete,Provincial,,,La Crete,AB,T0H2H0
cab10a484e73daed68ba,SPIDER Distributed Learning,Public School,,,Gibsons,BC,V0N1V0
cab591c368042977becc,Lake Lenore School,..,,,LAKE LENORE,SK,S0K2J0
cafbe57adf8b044b0140,Big Valley School,Public,,,Big Valley,AB,T0J0G0
cb04781a4452a084d675,Pre-Cam Community School,..,,,LA RONGE,SK,S0J1L0
cb35bf0a2979a4ce23c5,Maidstone High School,..,,,MAIDSTONE,SK,S0M1M0
cb3b8b19c1ab7cc49121,St. Gabriel School,..,,,BIGGAR,SK,S0K0M0
cb5de797f804593940e5,Esprit Academy,Private,,,Toronto,ON,M4K1T2
cb66563e5b64bda45bfd,Ã‰cole Traditions Elementary School,..,401,traditions blvd,WARMAN,SK,S0K4S5
cb691c4579628a4bec23,Rachel Arngnamaktiq Elemantary School,..,,,Baker Lake,NU,..
cb9d5c068ff51184ba53,Journeys Learning Academy,Public,,,Kikino,AB,T0A2B0
cbbb4d3457197167888c,MINNEDOSA COLLEGIATE,..,,,MINNEDOSA,MB,R0J1E0
cbce6190553bb8d85c4b,Alfred B Dixon Elementary,Public School,9331,diamond rd,Richmond,BC,V7E1P5
cbf4a73a1e9600dc0fbf,Russian Education Centre,Private School,7119,12 avenue,Edmonton,AB,T6K3H6
cc03f2ad401ab1455bf9,Lillooet Secondary,Public School,,,Lillooet,BC,V0K1V0
cc47965bc3584afef7ef,Parkview StrongStart Centre,StrongStart BC,,,Sicamous,BC,V0E2V0
