Index,Facility_Name,Facility_Type,Street_No,Street_Name,City,Prov_Terr,Postal_Code
eb55c3f214bf7b86774f,Newell Colony School,Public,,,Bassano,AB,T0J0B0
eb72e49c2655581c8cae,St. Augustine,Separate,3808,106 street,Edmonton,AB,T6J1A5
eb7698a7a7f9d6ad1ca6,Erle Rivers High School,Public,,,Milk River,AB,T0K1M0
eb9f52aa7bd283937fd6,ÉCOLE COMMUNAUTAIRE GILBERT-ROSSET,..,108,avenue bériault,SAINT-CLAUDE,MB,R0G1Z0
eba5881f779fea7991de,Errington Learning Centre,Public School,9831,herbert rd,Richmond,BC,V7A1T6
eba94f9e4e68394c6f9e,RORKETON SCHOOL,..,,,RORKETON,MB,R0L1R0
ebc5282c28f2b6170b16,Greater Heights Learning Academy,Independent School,550,thompson ave,Coquitlam,BC,V3J3Z8
ebe4f48e767370d7115a,Crooked Creek Colony School,Public,,,Crooked Creek,AB,T0H0Y0
ebe6a57a7ed988e6a231,IBERVILLE COLONY SCHOOL,..,#3,pr 248 south elie,ELIE,MB,R0H0H0
ebf07517ccdebd4f5037,Morrin School,Public,,,Morrin,AB,T0J2B0
ec02170865accea44cc0,Pinetree Way Elementary,Public School,1420,pinetree way,Coquitlam,BC,V3C6A3
ec1e0f7acc9d6fcc5b26,Rochester School,Public,,,Rochester,AB,T0G1Z0
ec22abb75c76deccabc9,WE International Academy,Private,160,commerce valley drive eas,Markham,ON,L3T0A9
ec26fc49a4b43d5ed1ea,FRONTIER COLLEGIATE,..,,general delivery,CRANBERRY PORTAGE,MB,R0B0H0
ec3ccc6412344cca785f,Quadra Elementary,Public School,,,Quathiaski Cove,BC,V0P1N0
ec46de22c463affaed67,100 Mile House Elementary,Public School,,,100 Mile House,BC,V0K2E0
ec560b020d85ce0b420e,Hilden Elementary School,Public,1737,truro rd,Hilden,NS,B0N1C0
ecba6a57de9361119170,Sunrise Waldorf School,Independent School,2148,lakeside rd,Duncan,BC,V9L6M3
ecdb39bda38eee784975,Frank J Mitchell StrongStart Centre,StrongStart BC,,,Sparwood,BC,V0B2G0
ecdcefd841a65ea6fe1f,Gitwinksihlkw Elementary,Public School,,,Gitwinksihlkw,BC,V0J3T0
ed2ffbfec8f11a368d37,SNP STEAM Academy,Private,411,elgin street,Brantford,ON,N3S7P5
ed33ada8a66877952ded,Decker Lake Elementary,Public School,6710,decker lake frtg rd,Burns Lake,BC,V0J1E1
ed58c39cb70249298bc9,Jane Collins Academy,..,,,Hare Bay,NL,A0G2P0
ed5b97aa8af05caab161,Keyin College- Marystown,Private Institution,,,Marystown,NL,A0E2M0
ed63639fff2992a62cbd,FORREST ELEMENTARY,..,,general delivery forrest,FORREST,MB,R0K0W0
ed68e970572267518c70,VALLEYVIEW SCHOOL,..,,,SWAN LAKE,MB,R0G2S0
ed6d351b0ff1c36566de,St. Sebastian Elementary School,Separate,65,chaparal drive se,Calgary,AB,T2X0E6
ed9afb6c5c2b803eac40,Paradise Hill School,..,,,PARADISE HILL,SK,S0M2G0
eda529edc75ad93e0adf,Aurora Learning Calgary,Private School,5305,mccall way ne,Calgary,AB,T2E7N7
edf12c33d56d710a13c1,G W Carlson Elementary,Public School,,,Fort Nelson,BC,V0C1R0
edfa721e3e765b715b7a,Jack Stuart School,Public,200,mount pleasant drive,Camrose,AB,T4V4B5
ee1e258fe0df47519809,Minahik Waskahigan High School,..,,,PINEHOUSE LAKE,SK,S0J2B0
ee1f5b5958da2f5fe985,St. Gerard,Separate,12415,85 street,Edmonton,AB,T5B3H3
ee26c335ce7ac9c751f2,New Westminster Continuing Education,Public School,835,eighth st,New Westminster,BC,V3M3S9
ee3c0ab3d08cc48afd1f,Midway Elementary,Public School,,,Midway,BC,V0H1M0
ee3c980595de2f12e06b,Queen Alexandra StrongStart Centre,StrongStart BC,1300,broadway e,Vancouver,BC,V5N1V6
ee44b20f4eb6a41e77c7,Homesteader School,Public,4455,128 avenue,Edmonton,AB,T5A3M9
ee50648975b6df88d8ac,École du Carrefour,Public,,201a av du portage dartmouth n-é,Dartmouth N.-É.,NS,B2X3T4
ee5ac0587ea1964142ad,Trebas Institute,Private Institution,550,sherbrooke street west,Montreal,QC,H3A1B9
ee76fe02ea1a71709660,Colville Lake School,..,,,Colville Lake,NT,X0E 1L0
ee9b4d04d2fe29f371f6,Four Winds Public School,Public,545,grandin drive,Morinville,AB,T8R2R3
eea0e1cff3ec031b3679,Mamawi Atosketan Native School,Private School,,rr 2,Ponoka,AB,T4J1R2
ef03699d5786ceaf7b12,Myrnam Outreach Program,Public,,,Myrnam,AB,T0B3K0
ef0e828652a1dd57de12,Vastland School,Private School,,,Buffalo Head Prairie,AB,T0H4A0
ef10f320aef2d72627e9,HAROLD HATCHER SCHOOL,..,500,redonda street,WINNIPEG,MB,R2C3T7
ef19e2fbb97025023a94,Discovery Elementary,Public School,,,Shawnigan Lake,BC,V0R2W0
ef350a403eaecba2db99,Perlwin Elementary,..,,,Winterton,NL,A0B3M0
ef40ce689db317d39fa8,Edgewood Elementary,Public School,16666,23 ave,Surrey,BC,V3Z9X8
ef48e4fb68f1cf722c77,ÉCOLE CRESCENTVIEW SCHOOL,..,751,crescent road east,PORTAGE LA PRAIRIE,MB,R1N0Y2
