Index,Facility_Name,Facility_Type,Street_No,Street_Name,City,Prov_Terr,Postal_Code
fa41b98e5471a9634f9c,Riyadh Alsalehin School,Private,1324,lorne park rd,Mississauga,ON,L5H3B1
fa4a5ea21b43df904dca,Pibroch Colony School,Public,,c/o dapp school r r 1,Dapp,AB,T0G0S0
fa580264f66547257e49,Sk'elep School of Excellence,Independent School,365,pow wow trail,Kamloops,BC,V2H1H1
fa77e4edabac6221f281,Bouchie Lake StrongStart,StrongStart BC,2074,blackwater rd,Quesnel,BC,V2J7B3
fa79565a39c296cd6d8a,Rhema Christian School,Private,29,county rd 4,Peterborough,ON,K9L1B8
fa7b232e9821c6f3e3d4,Blakeburn Elementary,Public School,1040,riverside dr,Port Coquitlam,BC,V3B8A7
fa8b5958e81267a7bb91,Elizabeth Mackenzie Elem.,..,,,Behchok,NT,X0E 0Y0
fa8bf0ae3dcbe4febfcf,Ã‰COLE POWERVIEW SCHOOL,..,,,POWERVIEW,MB,R0E1P0
fa8de974a7503fc4df3c,Kinuso Outreach Program,Public,,,Kinuso,AB,T0G1K0
fab572e3dd74026d4c47,Afton School,Public,16604,91 avenue,Edmonton,AB,T5R5A4
fabe44fcc65f9ca97973,Fox Creek School,Public,,,Fox Creek,AB,T0H1P0
fad5b27f5fb136ecf79b,Peace Wapiti Enterprise Centre,Public,,,Grande Prairie,AB,T8X2B5
fae7d417358049680c07,Glad Tidings Christian School,Private,54,park st,Tara,ON,N0H2N0
fb02c62ea53154090e5b,Elrose Composite School,..,,,ELROSE,SK,S0L0Z0
fb1d042ae4682484198b,Maverick School,..,580,6th ave se,SWIFT CURRENT,SK,S9H3P6
fb488bb88fd3318d354f,WEST ST. PAUL SCHOOL,..,3740,main street west,WEST ST. PAUL,MB,R4A1A4
fb4a77e870d12e64e321,Cyrille-Brassard,Public,4565,rue principale,Saint-Cyrille-de-Wendover,QC,J1Z1E4
fb4d91348a99cb98686c,Broadview School,..,,,BROADVIEW,SK,S0G0K0
fb60c8a336dbc9b4b619,Rouleau School,..,,,ROULEAU,SK,S0G4H0
fb6a6494f16cc8318f94,SD 10 StrongStart BC Outreach Program #1,StrongStart BC,,,..,BC,..
fb731f147ace23e5a9da,LUNDAR SCHOOL,..,,,LUNDAR,MB,R0C1Y0
fb78a99605bca13a11ee,JULIE LINDAL SCHOOL,..,,general delivery ilford,ILFORD,MB,R0B0S0
fb8204f5b1492dad1011,Murphy Centre,..,1,prince philip drive,St. John's,NL,A1A5B2
fb8d494a8ef7651ed926,Southern Okanagan Secondary,Public School,,,Oliver,BC,V0H1T0
fba2b191cab60bebb67e,Kisiko Awasis Kiskinahamawin,Separate,,,Robb,AB,T0E1X0
fbe215a839123a4ddaf5,Mamquam Elementary,Public School,,,Garibaldi Highlands,BC,V0N1T0
fbebad7e52d934e6b9d9,Amish Parochial School #1,Private,2740,chalmers-forrest road 1,Millbank,ON,N0K1L0
fbf84257dcec4abd4e3c,PHARE Tracadie-Sheila,Alternative Learning Centre,,,Tracadie-Sheila,NB,E1X1G5
fc11b288aa0c679246d4,Partners in Education Program (PIE),Public School,7105,nootka street,Powell River,BC,V8A5E3
fc180e3c79bacfb5d7a7,Don Titus Montessori,Public School,,,Chetwynd,BC,V0C1J0
fc503bbeada6c178ea66,Canada Warden School,Private,3621,highway 7 east,Markham,ON,L3R0G6
fc573b603796cd5ed02b,Coalhurst Elementary School,Public,,,Coalhurst,AB,T0L0V0
fc64369529368c67a62b,Wheatland Hutterite School,..,,,CABRI,SK,S0N0J0
fc655a8f5a00152ab240,Peterson Road Elementary,Public School,23422,47 ave,Langley,BC,V2Z2S3
fc6d4af42dcf844a23ba,Chipewyan Lake School,Public,1290,chipewyan lake via wabasca ab,Wabasca,AB,T0G2K0
fc7051129b3ce1b52daf,H D Stafford Middle,Public School,20441,grade cres,Langley,BC,V3A4J8
fc8ba2111263e796d980,West Langley StrongStart Centre,StrongStart BC,9403,212 st,Langley,BC,V1M1M1
fc9358c13acf1757b079,Immaculate Conception Elementary,..,,,Colliers,NL,A0A1Y0
fcc39b8dce9ffd07076a,Aglace Chapman Education Centre,Private,,,Big Trout Lake,ON,P0V1G0
fd0ac7b110b547d846bf,St. Timothy,Separate,501,sunset drive,Cochrane,AB,T4C2K4
fd21148c43214bcfe868,Departmental Center,Provincial,10044,108 street,Edmonton,AB,T5J5E6
fd24ee6e071ed40b9baf,VIRDEN JUNIOR HIGH,..,,,VIRDEN,MB,R0M2C0
fd39f2cd79b77cccaec5,Gordon Denny Community School,..,,,LA RONGE,SK,S0J1L0
fd490baf48b82522304f,New Rockport Colony School,Public,,,Cardston,AB,T0K0K0
fd60ca842c91eeec004f,Brookside Intermediate,..,,,Portugal Cove - St. Philip's,NL,A1M1T6
fd662ec9ad3f667f257c,Cape Breton University,University,1250,grand lake road,Sydney,NS,B1P6L2
fd76327a704fb6dd4e3b,Prespatou Elem-Secondary,Public School,,,Prespatou,BC,V0C2S0
fd784f7738f8dddf8b4e,Acheron College (Collins Bay),Private,1455,bath road,Kingston,ON,K7L4V9
fd8166f2139385a0a1b7,Mother Teresa Middle School,..,1975,2nd ave n,REGINA,SK,S4R0Y1
