Index,Facility_Name,Facility_Type,Street_No,Street_Name,City,Prov_Terr,Postal_Code
e0eeab493d656b30dfd0,Langside Parochial,Private,479,longside street 5,Lucknow,ON,N0G2H0
e0f740c35571459e82d1,École Arthur Pechey Public School,..,2675,4th avenue w,PRINCE ALBERT,SK,S6V5H8
e114a349e520ba765196,Vancouver Christian,Independent School,3496,mons drive,Vancouver,BC,V5M3E6
e11a80a6cc7ab4ad9d7d,Chartwell Elementary,Public School,1300,chartwell dr,West Vancouver,BC,V7S2R3
e12aff3ccce789e2d40c,LAC DU BONNET SENIOR,..,,,LAC DU BONNET,MB,R0E1A0
e14f142d0e263e9784c2,OXFORD HOUSE ELEMENTARY SCHOOL,..,,,OXFORD HOUSE,MB,R0B1C0
e1593af01c35d8032638,Trout Creek Elementary,Public School,,,Summerland,BC,V0H1Z0
e165d81c55ebd8165a3f,Cts Canadian Career College Inc.,Private Institution,1495,seymour street,North Bay,ON,P1B2Y5
e16c12ee29578f8be948,Maple Hill School,Independent School,2370,4000 no 3 rd,Richmond,BC,V6X0J8
e17a11390ed98446414e,New Brunswick Youth Centre,External Service Facility,4,airport drive,Miramichi,NB,E1N3W4
e17b86b73ef0f4ce966f,Sexsmith Secondary School,Public,,,Sexsmith,AB,T0H3C0
e190eeb18d9bfa954949,Learning From Play,ECS Private Operator,20,westwind drive,Spruce Grove,AB,T7X0Y5
e19ad61c605bd3a26100,Wawota Parkland School,..,,,WAWOTA,SK,S0G5A0
e19f11dec6be2a899611,Tahltan School,Public School,,,Telegraph Creek,BC,V0J2W0
e1aa27f9a51162809931,Random Island Academy,..,,,Hickman's Harbour,NL,A0C1P0
e1ca7b943108d025e155,École Pubnico-Ouest,Public,,,Pubnico-Ouest N.-É.,NS,B0W3S0
e2296ed917f90844facf,Hilltop Education Centre,Federal Jail,,,Drumheller,AB,T0J0Y0
e2503e4f5fbedb125f41,EVERGREEN COLONY SCHOOL,..,,evergreen colony box 297 somerset,SOMERSET,MB,R0G2L0
e261e400f42096fb742d,Turtleford School,..,,,TURTLEFORD,SK,S0M2Y0
e29b6a9c5aac700705b7,ONANOLE ELEMENTARY,..,,,ONANOLE,MB,R0J1N0
e2aaf658368d5c1b06f4,Aatse Davie School,Independent School,,,Fort Ware,BC,V0J3B0
e2b5a1616f6ca374c9bb,Maple Leaf School - TRU,Independent School,805,tru way,Kamloops,BC,V2C0C8
e2c50586948d4d0fd7f4,Carmi StrongStart Centre,StrongStart BC,400,carmi ave,Penticton,BC,V2A3G5
e2dcb59e06c76f1e31e0,Choices DL,Public School,2941,8th ave,Port Alberni,BC,V9Y2K5
e2e0c7914eaaca45d6ca,Carpenters Millwrights College of NB Inc.,Private Institution,120,ashburn road,Saint John,NB,E2L3V1
e2f796befd85c1aee79b,Admiral Academy,..,835,conception bay highway,Conception Bay South,NL,A1X6G7
e2fc1fd64ae7fe02295a,South Slope Elementary,Public School,4446,watling st,Burnaby,BC,V5J5H3
e2ff9f9b02695188810a,Yorkdale Central School,..,270,gladstone ave s,YORKTON,SK,S3N3C6
e3245b00cd4200544178,Coronation Park School,..,3105,4th avenue n,REGINA,SK,S4R0V2
e34891b29ffbf9c29272,Evansview School,Public,,,Evansburg,AB,T0E0T0
e35f5b798362ff4ff142,EduOnline,Private,,,Etobicoke,ON,K1N6N5
e363b28a1317f64ad163,PASS/Woodwinds Alternate,Public School,,,Parksville,BC,V9P2H6
e3c5eb8b65094e0f70dc,Career Technical Centre,Public School,1111,dufering cres,Nanaimo,BC,V9S2B5
e3c7e53399bed5fce06b,PEACE VALLEY SCHOOL,..,,homewood colony starbuck,STARBUCK,MB,R0G2P0
e3cb64b122f2b2304c09,Living And Learning School,Independent School,,,Queen Charlotte City,BC,V0T1S0
e3d0dc2a5392f7480373,Prov Oral Program Deaf/Hard of Hearing,Public School,5455,rumble st,Burnaby,BC,V5J2B7
e3d495a5901957246b42,Osoyoos StrongStart Centre,StrongStart BC,,,Osoyoos,BC,V0H1V0
e3e4913ab6b4475542cd,FISHER BRANCH EARLY YEARS SCHOOL,..,,,FISHER BRANCH,MB,R0C0Z0
e3e8d57d6ea3dbfbdfa6,Horton High School,Public,75,greenwich rd s,Wolfville,NS,B4P2R2
e3f8823b778b932441cd,Senator Buchanan Elementary School,Public,1101,7 avenue n,Lethbridge,AB,T1H0X7
e3fc4f5b8cb6f7e7c2d2,Black Gold Outreach School,Public,104,black gold drive,Leduc,AB,T9E3C3
e4089dcd5e4670b6bd1c,Battleford Central Elementary,..,,,BATTLEFORD,SK,S0M0E0
e42c91d0911116ebbb11,HURON COLONY SCHOOL,..,#3,pr 248 south elie,ELIE,MB,R0H0H0
e43b88bdf31d819bf28c,Louis St. Laurent,Separate,11230,43 avenue,Edmonton,AB,T6J0X8
e44ea3d315842ab76037,Watrous Winston High School,..,,,WATROUS,SK,S0K4T0
e464ee0cee1564a59e92,Kiskahikan School,..,,,WEYAKWIN,SK,S0J1W0
e46c25eea2872e5ffd53,Mindview Academy,Private,2900,steeles ave east,Thornhill,ON,L3T4X1
e4a096093b9941cbe430,Greenock Amish Parochial School,Private,536,brockton side road 30 5,Kincardine,ON,N2Z2X6
e4a0fb2b88fdc7cdfa33,Windsor Adventist Elementary School,Private,5350,haig ave,Windsor,ON,N8T1K8
