Index,Facility_Name,Facility_Type,Street_No,Street_Name,City,Prov_Terr,Postal_Code
e4c934db1ae0ba284279,Vanguard Community School,..,,,VANGUARD,SK,S0N2V0
e4d18735f1ad303f4770,John Allison StrongStart Centre,StrongStart BC,,,Princeton,BC,V0X1W0
e4da1515337980de6baa,FOREST HOME SCHOOL,..,,,AUSTIN,MB,R0H0C0
e4f2588f282edafa13f7,Spruce Ridge School,..,321,spruce drive,ESTEVAN,SK,S4A2W9
e4f263ba7dca0d4f5b30,Stoney Creek Community Elementary,Public School,2740,beaverbrook cres,Burnaby,BC,V3J7B6
e4f691cc153bcc042d60,Rosebud Creek School,Public,435a,highway 1,Strathmore,AB,T1P1J4
e4f8d5c40f94bfe47a9d,Glentworth Central School,..,,,GLENTWORTH,SK,S0H1V0
e52c66a3a2bae77f082b,SD 33 StrongStart BC Outreach Program #1,StrongStart BC,,,..,BC,..
e56cc89980c4bbeb53d5,Covenant Canadian Reformed School,Private School,3030,twp rd 615 a county of,County of Barrhead,AB,T0G1R2
e579573a84d65edb4a0e,St Margaret's,Independent School,1080,lucas ave,Victoria,BC,V8X3P7
e57aa2adda121f02b29a,Kersley Elementary School,Public School,2899,arnoldus rd,Quesnel,BC,V2J6L2
e57dbf0a732db79ab003,McLeod Elementary Secondary,Public School,,,Groundbirch,BC,V0C1T0
e58cd67da3b012922633,Royal Military College Registrar's Office,University,,,Kingston,ON,K7K7B4
e5a314377a6c57bef36f,Ferrybank Colony School,Public,6000,highway 2a,Ponoka,AB,T4J1P6
e5a4743b30a1ffde3809,Trent University Acounts Receivable Dept.,University,,,Peterborough,ON,K9J7B8
e5b6af126656d44d5eb6,Bowser Elementary,Public School,,,Bowser,BC,V0R1G0
e5c3dccdd0d92be4e92a,John Arnalujuak High School,..,,,Arviat,NU,..
e5c4598a1c3d16bbc733,Beechy Hutterite School,..,,,BEECHY,SK,S0L0C0
e5c74eb352477e59d092,MacMillan Colony School,Public,#1,r r,Cayley,AB,T0L0P0
e5db4683d3fedb65207b,Daysland School,Public,,,Daysland,AB,T0B1A0
e5e970b0664132b5860e,Robert Scott StrongStart Centre,StrongStart BC,,,Port Hardy,BC,V0N2P0
e5fcdae8ff062952fd1a,Woodhaven Middle School,Public,475,king street,Spruce Grove,AB,T7X0A4
e607b5bd6d9a6fc7fe85,Alder Flats Elementary School,Public,,,Alder Flats,AB,T0C0A0
e60d1334ee1a1b089df4,'Na Aksa Gyilak'yoo,Independent School,,,Terrace,BC,V8G4B5
e613ba105634b19b20ea,False Bay School,Public School,,general delivery lasqueti,Lasqueti Island,BC,V0R2J0
e617253e224a2ac2b5df,St Michael's Elementary,Independent School,1329,fourth ave,Trail,BC,V1R1S3
e62493a18ebf17424a05,Wild Rose Colony School,Public,101,3305 18 avenue n,Lethbridge,AB,T1H5S1
e62e00e55699ec86a3bd,Fort Vermilion Outreach Program,Public,,,Fort Vermilion,AB,T0H1N0
e63b157709f429a373d4,O'Donel High School,..,,,Mount Pearl,NL,A1N2W4
e6625aa1dd8e57d202e2,Qualicum Beach StrongStart Centre,StrongStart BC,,,Parksville,BC,V9P2G5
e66a5aa66bd93b29c87f,Fawkes Academy,Independent School,,,Burnaby,BC,V5C2J3
e67e599d46cbb6bef509,WILD ROSE SCHOOL,..,33157,road 27e kleefeld r0a,KLEEFELD,MB,R0A0V1
e6833d34a18b82f64ba7,GLENDALE SCHOOL,..,,,JUSTICE,MB,R0K1C0
e6b2099eca24a8d94a55,Ratushniak Elementary School,..,,,MAIDSTONE,SK,S0M1M0
e6cbf6add8f2d7c95e0e,Watson Lake Secondary School,..,210,robert campbell highway,Watson lake,YT,Y0A 1C0
e6f0769a7855045c8cac,St. Bernadette,Separate,11917,40 street,Edmonton,AB,T5W2L1
e723a0b7d346ef2357f1,LeGallais Memorial,..,,,Isle aux Morts,NL,A0M1J0
e727a4a7d4ca5195d9a8,Patricia Heights School,Public,16216,78 avenue,Edmonton,AB,T5R3E6
e73e1660d0873c6e720c,White Lake Colony School,Public,101,3305 18 avenue n,Lethbridge,AB,T1H5S1
e751fd2510595ce59767,Alexander Park Elementary,Public School,,,Golden,BC,V0A1H0
e753c3de7566412a55d8,Esterhazy High School,..,,,ESTERHAZY,SK,S0A0X0
e7a2e8432223fca9c1a5,THOMAS GREENWAY MIDDLE YEARS SCHOOL,..,,,CRYSTAL CITY,MB,R0K0N0
e7acd57258ea7fe09763,Springbank Community High School,Public,32226,springbank rd,Calgary,AB,T3Z2L9
e7c362b5852da9b63e2b,Burton Academy School,Public School,,,Nakusp,BC,V0G1R0
e7d218fd86eb017f0e70,CLS Lord Shaughnessy Writing Centre,Public,2336,53 ave sw,Calgary,AB,T3E1L2
e7f54334f813c3c0513a,Old Colony Christian Academy- Kingsville,Private,1521,road 4 west,Kingsville,ON,N9Y2E5
e80788f700dffa2dd9f4,Harry Hooge StrongStart Centre,StrongStart BC,12280,230 st,Maple Ridge,BC,V2X0P6
e8191d2e0cf38619e2c6,Sutherland Secondary,Public School,1860,sutherland ave,North Vancouver,BC,V7L4C2
e824b8ec71084925da1e,St. Peter's Elementary,..,,,Upper Island Cove,NL,A0A4E0
