Index,Facility_Name,Facility_Type,Street_No,Street_Name,City,Prov_Terr,Postal_Code
128028507f86ba050511,Northern Lights School,Private School,,rr 1,Spirit River,AB,T0H3G0
129b60d9477fdce84deb,Dr. Anne Anderson School,Public,,,..,AB,..
12c21e96a1c56d5ade8c,SD 91 StrongStart BC Outreach Program #2,StrongStart BC,,,..,BC,..
12c91c6b89f2fa433485,DAUPHIN RIVER SCHOOL,..,,,GYPSUMVILLE P.O.,MB,R0C1J0
12d297b09684fe133f9e,GREENLAND SCHOOL,..,,grp 15 rr#1,STE. ANNE,MB,R5H1R1
12dc04424577ee4095d7,Daniel Woodward StrongStart Centre,StrongStart BC,10300,seacote rd,Richmond,BC,V7A4B2
12e6ca20756e6d26187a,St. John Bosco,Separate,7411,161a avenue,Edmonton,AB,T5Z3V4
1302faa1c827f14363a8,Valemount Secondary,Public School,,,Valemount,BC,V0E2Z0
13076f42e3c1b5e3f27f,West Country Outreach School,Public,,,Rimbey,AB,T0C2J0
1309b7ea5525fe12839e,Westglen School,Public,200,,Didsbury,AB,T0M0W0
13177ff1c3e4201d308e,GLADYS COOK EDUCATION CENTRE,..,#2,river road,PORTAGE LA PRAIRIE,MB,R1N3A9
131f6709f3827bc872eb,Forest Park Primary,..,28,price's ave,Grand Falls-Windsor,NL,A2B1C9
133e9c291823c40ef028,Lethbridge Community College (Lethbridge Correctional Centre),Provincial,,3000college drive s,Lethbridge,AB,T1K1L6
133fb8e88b39fcb673f1,High Prairie Elementary School,Public,,,High Prairie,AB,T0G1E0
135a174df103ad2e3b60,Twain Sullivan Elementary,Public School,,,Houston,BC,V0J1Z0
136bb07e4ee665c13f5f,Twilight Colony School,Public,,po bag 2,Valleyview,AB,T0H3N0
1383fb6e057c66d54ea0,Birch Meadows Colony School,Public,,,Eaglesham,AB,T0H1H0
13914ab55434881bd52c,MANITOU ELEMENTARY,..,,,MANITOU,MB,R0G1G0
13a4830ef4d6f7f934fb,MORDEN COLLEGIATE,..,345,5th street,MORDEN,MB,R6M1Z1
13cefce90aaa24fbe685,Torah High - Thornhill,Private,1,promenade circle,Thornhill,ON,L4J4P8
13daa1b719e4107f2c30,MAPLE LEAF ELEMENTARY SCHOOL,..,225,12th street,MORDEN,MB,R6M1Z3
13dcd55659bb4bbf3e8a,St. Martin,Separate,11310,51 avenue,Edmonton,AB,T6H0L7
1400399e7b90e911e928,Summit College - Guelph,Private,5420,5420 hwy 6 north street,Guelph,ON,N1H6J2
140e4b54605d59c656cb,Palliser Beyond Borders,Public,,,Vulcan,AB,T0L2B0
1414067efaa76bf08af7,ASSINIBOINE VALLEY CHRISTIAN SCHOOL,..,,rr #1,BRANDON,MB,R7A5Y1
1421d22af3aea3f6a02f,Strathcona-Tweedsmuir School,Private School,,rr 2,Okotoks,AB,T1S1A2
143a2f4948539296ed66,Pearson Road StrongStart Centre,StrongStart BC,700,pearson rd,Kelowna,BC,V1X5H8
1450bdc6f8ff5a05f630,Prairieland Hutterite School,..,,,ROSETOWN,SK,S0L2V0
145bd110c1b0530aeace,BEAVER CREEK SCHOOL,..,,,AUSTIN,MB,R0H0C0
14727a0da28691632bb5,Sunrise Colony School,Public,,,Etzikom,AB,T0K0W0
14732b840d759a19a2d7,Saugeen Pines Parochial School,Private,4,road 71,Mount Forest,ON,N0G2L0
147aef62ba910be856d1,Ecole Dr Charles Best Secondary,Public School,2525,como lake ave,Coquitlam,BC,V3J3R8
147ca38c42e1cd0690d6,INDIAN SPRINGS SCHOOL,..,,,SWAN LAKE,MB,R0G2S0
14a4f5f3ae0e68eb77d9,Gil Vicente School,Private School,8830,132 avenue,Edmonton,AB,T5E0X8
14c35af23f21af7756f8,D W Poppy Secondary,Public School,23752,52 ave,Langley,BC,V2Z2P3
14fa83fe3f8c16b2f1b3,Beechville Lakeside Timberlea Jr. Elementary School,Public,22,james st,Timberlea,NS,B3T1G9
15105f1eea1ccd70b9d5,Peerless Lake School,Federal First Nations,,,Peerless Lake,AB,T0G2W0
152d01fc434b272a6605,Bjorkdale School,..,,,BJORKDALE,SK,S0E0E0
156c7fa8bc94fac9914e,Igloolik High School,..,,,Igloolik,NU,..
1591ee3ef1c6d549dcf2,Joamie Elementary School,..,,,Iqaluit,NU,..
1595f267c2f2a171cba4,Mackenzie Mountain School,..,,,Norman Wells,NT,X0E 0V0
1598b33e2cda002dd49c,Academy of Learning - Broadway Stn Vancouver,Private Institution,,,Vancouver,BC,V5T4C1
1599a15e8ad8f6547971,Summerland Secondary,Public School,,,Summerland,BC,V0H1Z0
15a49692da358da3cf67,Cardston High School,Public,,,Cardston,AB,T0K0K0
15ab799616b5705a8324,Advocate District School,Public,3521,hwy 209,Advocate Harbour,NS,B0M1A0
15d2ba7128d9e9c97084,New Brigden School Portable ECS,ECS Private Operator,,,Esther,AB,T0J1H0
160b2f6cb67febcd4464,Equinox Group Home,Public,4719,46 atreet,Sylvan Lake,AB,T4S1N3
162ad4d021e1071ed7b8,Don Ross Middle School,Public School,,,Brackendale,BC,V0N1H0
16328bb3a40d3e8eb104,Hector Thiboutot Community School,..,,,SANDY BAY,SK,S0P0G0
