Index,Facility_Name,Facility_Type,Street_No,Street_Name,City,Prov_Terr,Postal_Code
f7443572c85d0ca83b86,Barriere Elementary,Public School,,,Barriere,BC,V0E1E0
f75163ce7a6d0e19929e,St. Catherine Catholic School,..,1180,branion drive,PRINCE ALBERT,SK,S6V2S8
f75b3d88f5378745a244,Whitesand Colony School,Public,,,..,AB,..
f76aada69399d817a6fb,33 Central,..,,,FILLMORE,SK,S0G1N0
f7731dacf4f6eeb6795a,Cusack School,Public,500,birch hill dr,Sydney,NS,B1P3V9
f77f89f2c93a9b4c35f4,SD 91 StrongStart BC Outreach Program #1,StrongStart BC,,,..,BC,..
f79c0e50295f594bf66a,Bonnyville Outreach,Public,,,Bonnyville,AB,T9N0H3
f7a8f23a6eb43496caf4,St. Mary School,..,720,5th ave sw,MOOSE JAW,SK,S6H5W3
f7c20e2f5615f56c41c6,Madeira Park Elementary,Public School,,,Madeira Park,BC,V0N2H0
f7c5361faa6c2b38c343,Greenwood StrongStart Centre,StrongStart BC,,,Greenwood,BC,V0H1J0
f7d28ede955826dfea7a,College of the North Atlantic- Bonavista campus,Technical and Vocational,301,confederation drive,Bonavista,NL,A0C1B0
f7edc4af0e91fff9be2d,Glenora School,Public,13520,102 avenue,Edmonton,AB,T5N0N7
f808ad1abcc199e4721d,Kayas Cultural College,Provincial,,,John D'or Prairie,AB,T0H3X0
f82bf65507bbf6f4ee1a,G F Strong School Program,Public School,5025,willow st,Vancouver,BC,V5Z3S1
f82d448e1c50cb1043d5,SIOUX VALLEY SCHOOL,..,,,GRISWOLD,MB,R0M0S0
f843cc8c22dc0b7bb681,Kerrobert Composite School,..,,,KERROBERT,SK,S0L1R0
f84931531071a4db24d5,COUNTRY VIEW SCHOOL,..,,,STEINBACH,MB,R5G1P9
f84a946d60779c876dcf,West Raley Colony School,Public,,,Cardston,AB,T0K0K0
f8710426f13d602d2386,Canada Spruceville Academy,Private,716,gordon baker road,Toronto,ON,M2H3B4
f87127e5387836f56f44,Chase Elementary-Secondary,Public School,,,Chase,BC,V0E1M0
f87a32ebab0e1834185d,MARBLE RIDGE COLONY SCHOOL,..,,marble ridge colony box 310 hodgson,HODGSON,MB,R0C1N0
f87f07e53a34ec32d583,PINE RIVER COUNTRY SCHOOL,..,,,PINE RIVER,MB,R0L1M0
f890ce672f3e210689c2,Mimiw Sakahikan School,Federal First Nations,,,Ma-Me-O Beach,AB,T0C1X0
f89544ccf1cc37dff1e8,Lewisporte Collegiate,..,,,Lewisporte,NL,A0G3A0
f8a3dbbb117985324cb2,PHOENIX SCHOOL,..,111,alboro street,HEADINGLEY,MB,R4J1A3
f8b77a5a90b32ec32a88,Osoyoos Elementary,Public School,,,Osoyoos,BC,V0H1V0
f8b7cf542997bd2296c4,Cayoosh StrongStart Centre,StrongStart BC,,,Lillooet,BC,V0K1V0
f8d32d7a9c610e5289fa,Getting Ready For Inclusion To,ECS Private Operator,4615,112th ave se,Calgary,AB,T2C5J3
f8de3bcaab6b6ac6a93d,GLENBORO SCHOOL,..,,,GLENBORO,MB,R0K0X0
f8e7427dadba9199e468,Trinity Learning Centre,Separate,405,18 street s,Lethbridge,AB,T1J3E5
f8f29b6dbad5fb590cfd,Aberdeen Hall Senior,Independent School,890,academy way,Kelowna,BC,V1V3A4
f90b2219dce215263fee,Tsuut'ina High School,Federal First Nations,250,9911 chiila boulevard sw tsuu,Tsuu T'ina Sarcee,AB,T2W6H6
f941c494c14fe01b32d5,GLENELLA SCHOOL,..,,,GLENELLA,MB,R0J0V0
f945e765f08aa20fa418,NorQuest College Edmonton,Provincial,10215,108 street,Edmonton,AB,T5J1L6
f954cba0f2a5db9dd59a,Tricentia Academy,..,,,Arnold's Cove,NL,A0B1A0
f96bb607ccebcae2b633,L V Rogers Secondary,Public School,1002,cottonwood st,Nelson,BC,V1L3W2
f9719612a2b0e0caa7e4,Ladysmith Primary,Public School,,,Ladysmith,BC,V9G1A6
f97b307cccd1f1095ed6,Towers School,Public,435a,highway 1,Strathmore,AB,T1P1J4
f983a5ee3d10b02f6a97,Nunavut Arctic College,Private Institution,,,Iqualuit,NU,X0A0H0
f9a2cf330d520b4b9213,Sainte-Julie,Public,148,rue grenier,Laurierville,QC,G0S1P0
f9ac09ca075f5611899c,Hartley Clark Elementary School,..,,,SPIRITWOOD,SK,S0J2M0
f9ba569b9a61b3cc9df6,Bassano School,Public,,,Bassano,AB,T0J0B0
f9db5aa0bb32bda5aab5,Global Private School,Private,209,yonge street,Richmond Hill,ON,L4C3B2
f9f9a135d1804f314e2c,"Little Country School, The",Private,6517,wellington county road 34 2,Cambridge,ON,N3C2V4
f9fecf677dab64862aef,Satoo School,Public,8515,17 avenue,Edmonton,AB,T6K2C7
f9ff97b9fbc83eaa9e10,Carbonear Academy,..,88,valley road,Carbonear,NL,A1Y1A7
fa00b43b9b48ea883c08,Arviligruaq Ilinniarvik,..,,,Kugaaruk,NU,..
fa0932037cf98931c86d,ALEXANDER SCHOOL,..,,,ALEXANDER,MB,R0K0A0
fa2f06fa95cf6e118d25,DOUGLAS ELEMENTARY,..,,,DOUGLAS,MB,R0K0R0
