Index,Facility_Name,Facility_Type,Street_No,Street_Name,City,Prov_Terr,Postal_Code
fda8fc7b6c1c731200a7,Mobert Private High School,Private,,,Mobert,ON,P0M2J0
fda9b1f8cd3b2a2402e5,Amisk Community School,Federal First Nations,,,Lac La Biche,AB,T0A2C0
fdb4d81c621ca21b3440,Millstream StrongStart Centre,StrongStart BC,626,hoylake ave,Victoria,BC,V9B3P7
fdbdd0e03c2a3bac373d,Burnaby South Secondary,Public School,5455,rumble st,Burnaby,BC,V5J2B7
fdcf7f5ad9ace165afa9,J A Fife School,Public,15004,76 street,Edmonton,AB,T5C1C2
fe0943fb9c5058f0a857,Rycroft School,Public,,,Rycroft,AB,T0H3A0
fe0ee1bb0314921d64ef,Chiganois Elementary School,Public,11145,hwy 2,Masstown,NS,B0M1G0
fe1ee1fa3ec9e095c77c,POWER Alternate Secondary School,Public School,,,New Westminster,BC,V3M6H7
fe3337cac14096157327,Westwind Elementary,Public School,11371,kingfisher dr,Richmond,BC,V7E4Y6
fe345ea000165c92f247,Arm River Colony School,..,,,LUMSDEN,SK,S0G3C0
fe43fd307513357196f8,Melfort & Unit Comprehensive Collegiate,..,,,MELFORT,SK,S0E1A0
fe4bdebbb0b6e3bfa511,Valleycliffe StrongStart Centre,StrongStart BC,,,Squamish,BC,V8B0B5
fe534ea0dee15e9a9dd4,Fairview Colony School,Public,,,Irricana,AB,T0M1B0
fe5635acebdfda7d579a,St. John XXIII School,Separate,,,..,AB,..
fe609ecdd70d74bf622b,Cherry Hill Elementary,Public School,32557,best ave,Mission,BC,V2V2S5
fe66afc4df555444795f,Handhills Colony School,Public,,bag service 1400,Hanna,AB,T0J1P0
fe7cca14e4bcf26dd34c,Two Hills Mennonite School,Public,,,Two Hills,AB,T0B4K0
feac622c7056da44e24d,Nusatsum StrongStart Centre,StrongStart BC,800,po bag,Hagensborg,BC,V0T1H0
fec34afcd3c199eb45ae,St. Clair College of Applied Arts & Technology,Technical and Vocational,2000,talbot road w,Windsor,ON,N9A6S4
fedb40c858721f040be2,COOL SPRING COLONY SCHOOL,..,,cool spring colony,MINNEDOSA,MB,R0J1E0
fee2a5b71d8458b2c3ce,Elbow Valley Elementary School,Public,33,range rd,Calgary,AB,T3Z2E8
fee3be9f0e81b9b90104,Margaret Ma Murray Community School,Public School,11504,105th ave,Fort St John,BC,V1J0R8
feee8ee304e0888aca9e,Northern College of Applied Arts & Technology-Timmins,Technical and Vocational,,highway 101 east,Timmins,ON,P4N8R6
fefd736c02c6bd6347f4,Continuing Ed SD 46,Public School,,,Gibsons,BC,V0N1V0
ff00e035739bdb362a23,Stephenville High,..,,,Stephenville,NL,A2N3M6
ff14bfc56caa4f25d2d8,Maple Root Academy,Private,,,Mississauga,ON,L5L3C1
ff3d98d6509976105ec1,Grassland Community School,Public,,,Grassland,AB,T0A1V0
ff7ba73b2ba302bd316e,J. M. YOUNG SCHOOL,..,,general delivery eden,EDEN,MB,R0J0M0
ff7ec2286bc1447cdb2a,OMEGA SCHOOL,..,,,TEULON,MB,R0C3B0
ff8e3fcce3598cbbee9c,The Royal Alberta College,Private Institution,10045,156 street,Edmonton,AB,T5P2P7
ff95291e50e6256e44c4,Point Leamington Academy,..,,,Point Leamington,NL,A0H1Z0
fffeb072d90ce9202803,Westglen School,Public,10950,127 street,Edmonton,AB,T5M0S7
