Index,Facility_Name,Facility_Type,Street_No,Street_Name,City,Prov_Terr,Postal_Code
16e1907e4329e2671b97,Leoville Central School,..,,,LEOVILLE,SK,S0J1N0
16f2f624176533ae1438,Continuing Ed SD 64,Public School,232,rainbow rd,SALT SPRING ISLAND,BC,V8K2A9
171f913be703430cd803,W. G. Murdoch School,Public,,,Crossfield,AB,T0M0S0
172bc24c588e076571fe,W.E. Graham Community School,Public School,,,Slocan,BC,V0G2C0
1772cafd213541cf7bda,Ochre Park School,Public,5024,ochre park road,Redwater,AB,T0A2W0
17951ba63e04b14bb628,Ã‰cole Secondaire Ballenas Secondary,Public School,,,Parksville,BC,V8P2H4
179e79e66dfd0de6ba17,Niagara Christian Collegiate Middle Scho,Private,2619,niagara parkway,Fort Erie,ON,L2A5M4
17fa901005a3d60800cb,Winding River Colony School,..,,,BIRCH HILLS,SK,S0J0G0
183502ab91b3a2ee8772,T.D. Michel Public School,..,,,BIG RIVER,SK,S0J0E0
183662167134f0a66c69,Valleyview Colony School,Public,,435a hwy 1,Strathmore,AB,T1P1J4
183c01e721d380a62802,Roncalli Elementary,..,130,airport hgts dr,St. John's,NL,A1A4Z7
18536543c262d9e0bd5f,Chalo School,Independent School,,rr 1 mile 293 alaska hwy,Fort Nelson,BC,V0C1R0
186610e3f8d152043858,Strathmore Store Front School,Public,,,Strathmore,AB,T1P1K2
1866d76129b45ab4cba5,Diploma Path Academy,Private,6115,yonge street,Toronto,ON,M2M3W2
18671940a5069448d3ef,Centennial Flight Centre Inc.,Private Institution,26,sh633,Sturgeon County,AB,T8T0E3
1872b78683e9c0ce2e24,Pelican Falls First Nations High School,Private,650,pelican falls road,Sioux Lookout,ON,P8T0A7
1878737c2f228314c0c1,Cheslakees StrongStart Centre,StrongStart BC,,,Port McNeill,BC,V0N2R0
187c6eed530d30cb5f44,Niagara Centre Academy,Private,4760,epworth circle,Niagara Falls,ON,L2E1C6
188b92ac8d5f9dab0dd7,MALLARD SCHOOL,..,40,warren,WARREN,MB,R0C3E0
18901e8a4e5f10cb402d,Ucluelet Community StrongStart Centre,StrongStart BC,,,Ucluelet,BC,V0R3A0
1893e153e85f95746e9c,Marion Schilling StrongStart Centre,StrongStart BC,2200,park dr,Kamloops,BC,V2C4P6
189e297da1353a100fee,Baker Colony School,Public,,,Foremost,AB,T0K0X0
18bb3f6762ace9592918,St. Angela,Separate,13430,132a street,Edmonton,AB,T5L1S3
18d26927bdee0e0ec0a0,Fort McMurray Composite High School,Public,9803,king street,Fort McMurray,AB,T9H1L3
18d59e2488a210a812b8,Riverside Colony School,Public,,,Cardston,AB,T0K0K0
18d6703bb87cbf82fd44,Mezi Community School,..,,,What,NT,X0E 1P0
18de7c848e8fc3970e6f,Carstairs Elementary School,Public,,,Carstairs,AB,T0M0N0
18f36b8b7f31ca98c6a4,EMERSON ELEMENTARY,..,,,EMERSON,MB,R0A0L0
190da134d27f10e23bde,Allen Gray Child Development Centre,ECS Private Operator,5005,28 avenue,Edmonton,AB,T6L7G1
19292d44a2aaf6aa840c,MACGREGOR COLLEGIATE,..,,,MACGREGOR,MB,R0H0R0
19409147164b6d17e9e4,St. Francis of Assisi Academy,Separate,3156,hwy 552 east rr1,De Winton,AB,T0L0X0
198b956927f7480c18e7,Callingwood Elementary School,Public,17335,76 avenue,Edmonton,AB,T5T2B1
199c4ab49d33cb2b607c,Park Meadows School,Public,50,meadowlark boulevard north,Lethbridge,AB,T1H4J4
19e071a04daa5b514f72,E E Oliver Elementary School,Public,,po bag 2525,Fairview,AB,T0H1L0
19f137c73f37cd8af587,Peachland StrongStart Centre,StrongStart BC,5486,clements cres,Peachland,BC,V0H1X5
1a04b7f42cc0d7c1b955,Foremost School,Public,,,Foremost,AB,T0K0X0
1a0b9df5e16341d54e99,Niton Central School,Public,,,Niton Junction,AB,T0E1S0
1a136ab88737b0d737ba,WHITEMOUTH SCHOOL,..,,,WHITEMOUTH,MB,R0E2G0
1a39b4fed8d008173429,Kisipatnahk School,Federal First Nations,,,Maskwacis,AB,T0C1N0
1a40e441562da6591585,Phoenix Academy,..,,,Carmanville,NL,A0G1N0
1a4674ebb3b22dde9ee5,La Crete Outreach Program,Public,,,La Crete,AB,T0H2H0
1a58654e2a9b507d12e1,ROCK LAKE SCHOOL,..,,rock lake colony box 158 grosse isle,GROSSE ISLE,MB,R0C1G0
1a68d4d07df1d3427590,Central Coast Distributed Learning,Public School,,,Bella Coola,BC,V0T1C0
1a6fd50715fcec7c4f68,Decker Lake Mennonite School,Independent School,310,osatuik rd,Burns Lake,BC,V0J1E2
1a85f2f211d2734e45c1,Kluane Lake School,..,,,Destruction bay,YT,Y0B 1H0
1a8fd0980d998d24d032,Stawamus School,Public School,,,Squamish,BC,V8B0A5
1ab30f92db97fb42c657,HOSANNA CHRISTIAN SCHOOL,..,431,thames street,WINNIPEG,MB,R2L0V4
1abb64234cf83f1187e1,McNaughton High School,..,,,MOOSOMIN,SK,S0G3N0
1ac05dd6fb4b9d3559a0,Ulaajuk Elementary School,..,,,Pond Inlet,NU,..
