Index,Facility_Name,Facility_Type,Street_No,Street_Name,City,Prov_Terr,Postal_Code
1aca683276e75cfd0f01,Holy Trinity Academy,Separate,,rr#2 338072-32 street east,Okotoks,AB,T1S1A2
1ad4df0783bde637644f,Star Ridge Colony School,Public,,,Botha,AB,T0C0N0
1ad768b45b8f2f8e8d98,Lewisporte Academy,..,,pobox 640,Lewisporte,NL,A0G3A0
1ad814110ef1bc9b7db3,Pathfinder Christian School,Private,3,line 86,Wallenstein,ON,N0B2S0
1b05379db19e007f3013,John A. Hutton StrongStart Centre,StrongStart BC,,,Grand Forks,BC,V0H1H0
1b1ab751f52b5171dbf2,Hines School,Public,435a,highway 1,Strathmore,AB,T1P1J4
1b3cd1664c4535f7c8a6,Fox Lake Elementary School,Federal First Nations,,,Fox Lake,AB,T0H1R0
1b4ef3a68aefd6050607,Lampman School,..,,,LAMPMAN,SK,S0C1N0
1b64640b010c48e8a408,CCNB - Campbellton,Technical and Vocational,,,Campbellton,NB,E3N3G7
1b67e5f2420c2d1994aa,SD 8 StrongStart BC Outreach Program #3,StrongStart BC,,,Winlaw,BC,V0G2J0
1b6c1ccb05960b6d7d1c,Sea Island Elementary,Public School,1891,wellington cres,Richmond,BC,V7B1G6
1b932144ed97a7533c21,Holy Trinity High,..,23,lynch's lane,Torbay,NL,A1K1A6
1ba0b971e83973d1df6a,CLEARVIEW COLONY SCHOOL,..,#3,pr 248 south elie,ELIE,MB,R0H0H0
1bacd7f790c52cf87639,Lloyd Garrison School,Public,,,Berwyn,AB,T0H0E0
1bb4c2880d3fda6891b5,Alternative Education,Public,230,angeline street,Lindsay,ON,K9V0J8
1bcc013f576e8c7a463f,New Elm Colony School,Public,,,Cardston,AB,T0K0K0
1bcd9845be42fcc9a677,HOCHFELD SCHOOL,..,,hespeler avenue e schanzenfeld,SCHANZENFELD,MB,R6W1K3
1bd4244c145be319d85c,Sharp Minds Academy,Private,2200,brock road,Pickering,ON,L1X2R2
1bd4600e25ee902bd36f,Bulkley Valley Christian School,Independent School,,,Smithers,BC,V0J2N0
1bd8064bda2bb965252a,SHADY OAK CHRISTIAN SCHOOL,..,,,BIRNIE,MB,R0J0J0
1bf02fdcbfd0b6741313,All Saints All-Grade,..,,,Grey River,NL,A0N2L0
1bf2c8360c90d65e5f8b,Cayley Colony School,Public,,,Cayley,AB,T0L0P0
1c0983fbbee3a09b1371,Kitaskinaw School,Federal First Nations,,,Enoch,AB,T7X3Y3
1c198253b058d96fe4fe,Nanoose Bay Elementary,Public School,,,Nanoose Bay,BC,V9P9J9
1c1b0cc1571f64d906a6,St. Thomas Aquinas,..,,,Port au Port East,NL,A0N1T0
1c2191727b5572f5b661,Ã‰cole Lacombe Junior High School,Public,5830,50 street,Lacombe,AB,T4L1G5
1c258e843c0c399556da,St. Peter's Academy,..,,,Westport,NL,A0K5R0
1c34e7cbcae59747d9bd,Punnichy Elementary,..,,,PUNNICHY,SK,S0A3C0
1c3da0713a6cb0893f24,Iron Ridge Elementary Campus,Public,,,Blackfalds,AB,T0M0J0
1c695989c18272e80c73,Mission Senior Secondary,Public School,32939,seventh ave,Mission,BC,V2V2C5
1c872c7f8aa3789e4131,CHARLES SINCLAIR SCHOOL,..,,,KOOSTATAK,MB,R0C1S0
1ca36f1d4947aaa6f4ce,Loreburn Central School,..,,,LOREBURN,SK,S0H2S0
1cb06b33d02eac622dc9,Cinnabar Valley Elementary,Public School,100,ohio way,Nanaimo,BC,V9X1C8
1cc658521209515cbff4,Sea to Sky Online School,Public School,,,Squamish,BC,V8B0A5
1cc94adc74d0b4b918cf,Maddaugh Road Elementary,Public School,19405,76 ave,Surrey,BC,V4N6C6
1cf8d06c3428b261fce9,Carnarvon Community Elementary,Public School,3400,balaclava st,Vancouver,BC,V6L2S6
1d03dc5d02edf28c9df3,LAKE MANITOBA SCHOOL,..,,,LAKE MAN. FIRST NATION,MB,R0C3K0
1d2f836b1d92c5f0905d,GRACE VALLEY MENNONITE ACADEMY,..,,,WINKLER,MB,R6W4A9
1d46971355aa4241b417,Salt Spring Island Middle School,Public School,112,rainbow rd,Salt Spring Island,BC,V8K2K3
1d4c6908a31cf1b57df3,Elsie Yanik Catholic School,Separate,331,callen dr,Fort McMurray,AB,T9K0X8
1d6daaa9b20266d71b0f,Vulcan Prairieview Elementary School,Public,,,Vulcan,AB,T0L2B0
1d7733587149257a44de,Big Lake Elementary,Public School,,,Big Lake,BC,V0L1G0
1d92ecd225404261119c,Owen Sound Canadian Reformed School,Private,177551,concession road 5,Owen Sound,ON,N4K5N5
1da6ecef63b91e18a87a,Sino Bright School BC,Independent School,,,Vancouver,BC,V6B1B6
1db28481359c1593640c,Road Less Travelled Academy,Private,10585,springs camp road,Campbellcroft,ON,L0A1B0
1db59bbe6ded7761046e,Pembina North Community School,Public,,r r 1,Dapp,AB,T0G0S0
1dc873558f2bc2e0812d,Morley StrongStart Centre,StrongStart BC,7355,morley st,Burnaby,BC,V5E2K1
1e191d6446652baf0bfa,Cape St. Francis Elementary,..,,,Pouch Cove,NL,A0A3L0
1e262def8692953ba026,Green High School,Private,300,john st,Thornhill,ON,L3T5W4
