Index,Facility_Name,Facility_Type,Street_No,Street_Name,City,Prov_Terr,Postal_Code
0738a3e53334ae6ef84a,Academy Canada - St. John's campus,Private Institution,,,St. John's,NL,A1B3P9
1136adf5ed31f51e5d14,Gonzaga Regional High,..,20,smithville cres,St. John's,NL,A1B2V2
156206d06a4c468c959b,St. Kevin's High,..,,,St. John's (Goulds),NL,A1S1G6
23cb9e3dcc8a8d4d3748,St. Kevin's Junior High,..,,,St. John's (Goulds),NL,A1S1G7
2a71fff0ac22e1accfae,Vanier Elementary,..,75,ennis avenue,St. John's,NL,A1A1Y7
35445729b3fe89c1f5d1,St. Andrew's Elementary,..,141,university ave,St. John's,NL,A1B1Z4
3c6f3b5fecd8b957e5f6,Holy Heart of Mary Regional High,..,55,bonaventure ave,St. John's,NL,A1C3Z3
450ca617403cef5b9071,College of the North Atlantic- Ridge Road Campus,Technical and Vocational,153,ridge road,St. John's,NL,A1C6L8
48001a4276ba95df7a92,Eastern Academy,Private Institution,22,pearl place,St. John's,NL,A1E4P3
58938207faa02509f5bb,Octagon Pond Elementary,..,425,topsail road,Paradise,NL,A1E5N7
5b4d03ac54c1df7fe1cd,Anchor Academy,..,1,escasoni place,St. John's,NL,A1A0K7
7741fd77eb1add5fdcd2,St. Teresa's School/Ecole Ste-Therese,..,100,mundy pond road,St. John's,NL,A1E1V1
8013f8156a1eb299a838,Queen's College,University,210,prince philip drive,St. John's,NL,A1B3R6
90f35f11a4899ee2a716,Brother Rice Junior High,..,75,bonaventure ave,St. John's,NL,A1C3Z3
9a51e31804f220acb847,Rennie's River Elementary School,..,150,elizabeth avenue,St. John's,NL,A1B1S4
9c3fc346905475fbfa4a,Bishop Abraham Elementary,..,196,pennywell rd,St. John's,NL,A1C2L6
9fef4cbfb06a5c4a2291,Vanstone Scott College,Private Institution,370,torbay road bally rou place,St. John's,NL,A1A3W8
a6efbfc4c8f7ac13b8f8,Leary's Brook Junior High,..,15,larkhall st,St. John's,NL,A1B2C4
ae56728302630de343e9,Ecole des Grands-Vents,..,65,ridge road,St. John's,NL,A1B4P5
afc6bdbd02aed12bc706,Fisheries & Marine Institute - Memorial University of Newfoundland,Technical and Vocational,155,ridge road,St. John's,NL,A1C5R3
b475cccbc5957092f045,Macdonald Drive Junior High,..,152,macdonald drive,St. John's,NL,A1A2K9
b78519a1f32cd18f983c,Goulds Elementary,..,46,doyles road,St. John's (Goulds),NL,A1S1A1
b8ab7a667072964dc384,Lakecrest-St. John's Independent School,..,58,patrick st,St. John's,NL,A1E2S7
bd8bda557e978b3854b0,Ecole Rocher-du-Nord,..,7,ricketts road,St. John's,NL,A1C6G8
ca316499c5b0a1b94a25,Macdonald Drive Elementary,..,150,macdonald drive,St. John's,NL,A1A2K9
ca7c20d155e619379418,East Point Elementary,..,14,middleton street,St. John's,NL,A1A3H9
cbdb0b722f2f57ac720a,St. Paul's Junior High,..,340,newfoundland dr,St. John's,NL,A1A3R9
de5ab34776eb4e69c9e8,District School,..,145,st clare avenue,St. John's,NL,A1C2J9
ed0197065037b2de2ecf,Keyin College- St. John's,Private Institution,44,austin street,St. John's,NL,A1B4G1
ee22f1fa77f29eb614c1,Centre for Nursing Studies,Nursing Schools,100,forest road southcott hall,St. John's,NL,A1A1E5
fa91812182ebf1b88ff5,Prince of Wales Collegiate,..,3,paton street,St. John's,NL,A1B3E7
fcddfa855cca34bd598d,Larkhall Academy,..,16,larkhall st,St. John's,NL,A1B2C3
