Index,Facility_Name,Facility_Type,Street_No,Street_Name,City,Prov_Terr,Postal_Code
1df571cc001c75625e4f,St. Jean Elementary School,Public,335,queen street,Charlottetown,PE,C1A 4C5
25f7b85ece336603795d,Holland College - Tourism and Culinary Centre,Technical and Vocational,4,sydney street,Charlottetown,PE,C1A1E9
2f7ec08d001b753d8143,West Kent Elementary School,Public,27,viceroy avenue,Charlottetown,PE,C1A 2E4
44c057a6f09b95f04204,Parkdale Elementary School,Public,49,confederation street,Charlottetown,PE,C1A 5V5
47eab516f700043774fd,L.M. Montgomery Elementary School,Public,69,macwilliams road,Charlottetown,PE,C1C 1L4
4fd04b4d4e3b7bb71461,Maritime Christian College,Private Institution,503,university avenue,Charlottetown,PE,C1A7Z4
6695a6d913b7963e39e9,JVI Transportation And Safety Academy,Private Institution,75,kensington road,Charlottetown,PE,C1A5J1
69a55e6660dbb4d4fee6,Colonel Gray Senior High School,Public,175,spring park road,Charlottetown,PE,C1A 3Y8
77405a28d55d5028c2d8,Homburg Institute,Private Institution,98,fitzroy street,Charlottetown,PE,C1A8W5
8ee84722a48ca00bd5a9,Birchwood Intermediate School,Public,49,longworth avenue,Charlottetown,PE,C1A 5A6
9136278a9f5418bcda6d,École François-Buote,Public,5,promenade acadienne,Charlottetown,PE,C1C 1M2
9f2220758c5a8c61b97d,Academy of Learning,Private Institution,55,grafton st,Charlottetown,PE,C1A1K8
9fc4b62efe873fe3e20f,Marguerite Connolly Training & Consulting,Nursing Schools,55,grafton street,Charlottetown,PE,C1A1K8
a918f739b62b48a62d20,Spring Park Elementary School,Public,30,dunkirk street,Charlottetown,PE,C1A 3Z8
ae60c8beeb32115a9c00,Private Institute of Hair Design & Aesthetics,Private Institution,40,enman crescent,Charlottetown,PE,C1E1E6
be6c64705f2d4bd4dc79,Charlottetown Rural High School,Public,100,raiders road,Charlottetown,PE,C1E 1K6
c03674a5b70e7e8d11a8,University of Prince Edward Island,University,550,university ave.,Charlottetown,PE,C1A4P3
c82986484aa2d03da588,Queen Charlotte Intermediate School,Public,150,north river road,Charlottetown,PE,C1A 3L3
dbd61531e35aca8faebc,Stonepark Intermediate School,Public,50,pope avenue,Charlottetown,PE,C1A 7P5
e6bf722971dd0e741b08,Holland College - Prince of Wales Campus,Junior College,140,weymouth street,Charlottetown,PE,C1A4Z1
f2ea67bab1d517b083c0,West Royalty Elementary School,Public,80,commonwealth avenue,Charlottetown,PE,C1E 2E9
f98a0d642e9e255832eb,Prince Street Elementary School,Public,60,upper prince street,Charlottetown,PE,C1A 4S3
