Index,Facility_Name,Facility_Type,Street_No,Street_Name,City,Prov_Terr,Postal_Code
01044cb9eda49500288a,Tantallon Senior Elementary School,Public,3,french village stn rd,Upper Tantallon,NS,B3Z1E4
02eb29f71d4bbe8214b4,Ash Lee Jefferson Elementary School,Public,10,lockview rd,Fall River,NS,B2T1J1
06c14a6e03c3d3f497c3,Millwood Elementary School,Public,190,beaver bank cross rd,Lower Sackville,NS,B4E1K5
0735716bb177352e9345,Sackville Heights Elementary School,Public,1225,old sackville rd,Middle Sackville,NS,B4E3A6
0864bab34bf4b659a0aa,Harbour View Elementary School,Public,25,alfred st,Dartmouth,NS,B3A4E8
0e6ec20bddbb105035c2,St. Stephen's Elementary School,Public,3669,highland ave,Halifax,NS,B3K4L9
0f34ff434c859f43eca8,Cole Harbour District High School,Public,2,chameau cres,Cole Harbour,NS,B2W4X4
1068e5b160e0797b3213,Graham Creighton Junior High School,Public,72,cherry brook rd,Cherry Brook,NS,B2Z1A8
115963b4f014c4641186,Ridgecliff Middle School,Public,35,beech tree run,Beechville,NS,B3T2E5
14313e3c5f465c82cf72,Caudle Park Elementary School,Public,35,mcgee dr,Lower Sackville,NS,B4C2J1
1701db23571c4b54ccde,Beaver Bank-Monarch Drive Elementary School,Public,38,monarch dr,Beaver Bank,NS,B4E3A5
170b90e3ca28448faf46,Maritime Conservatory of Performing Arts,Technical and Vocational,6199,chebucto road,Halifax,NS,B3L1K7
17ea5decd459e731ff29,Charles P. Allen High School,Public,200,innovation dr,Bedford,NS,B4B0G4
1a3bd8f9792683178300,Brookhouse Elementary School,Public,15,christopher ave,Dartmouth,NS,B2W3G2
1ae7a563f3c264925481,Bedford and Forsyth Education Centres,Public,426,rocky lake dr,Bedford,NS,B4A2T5
1e94f0fea367b4e83960,Eastern College,Private Institution,6940,mumford road,Halifax,NS,B3L0B7
205b7ff4d8c7ba898839,Ian Forsyth Elementary School,Public,22,glencoe dr,Dartmouth,NS,B2X1J1
2086bd2db06914a1502c,Rockingstone Heights School,Public,1,regan dr,Halifax,NS,B3R2J1
24468509af7a21a036ca,University of King's College,University,6350,coburg road,Halifax,NS,B3H2A1
24a8b1354c464f319c0e,Sir John A. Macdonald High School,Public,31,scholars rd,Upper Tantallon,NS,B3Z0C3
257dccffbd160b195dca,Colby Village Elementary School,Public,92,colby dr,Dartmouth,NS,B2V1J7
280b6e5dc7e7f91f5fa4,St. Margaret's Bay Elementary School,Public,24,ridgewood dr head of,Head of St. Margaret's Bay,NS,B3Z2H4
2858c8682482621ab577,Astral Drive Junior High School,Public,238,astral dr,Dartmouth,NS,B2V1B8
29d504db8ba7d4161a8d,Robert K. Turner Elementary School,Public,141,circassion dr,Dartmouth,NS,B2W4N7
2a8fabdce8f8a04c70c7,Sunnyside Elementary School,Public,210,eaglewood dr,Bedford,NS,B4A3E3
2abc6c311ada3eea8652,St. Catherine's Elementary School,Public,3299,connolly st,Halifax,NS,B3L3P7
2ea94fb8378f81b68075,Prospect Road Elementary School,Public,2199,prospect rd,Hatchet Lake,NS,B3T1R8
31979d702ce9f49e8805,Gaetz Brook Junior High School,Public,6856,hwy 7,Head of Chezzetcook,NS,B0J1N0
33f9756b4a45bcaff1c8,Eastern Esthetics Career College,Private Institution,19,crane lake drive,Halifax,NS,B3S1B5
37ff3d6fc0f8dcce5762,Mount Edward Elementary School,Public,3,windward ave,Dartmouth,NS,B2W2G9
3bded782b4c8321ae1b7,Sackville High School,Public,1,kingfisher way,Lower Sackville,NS,B4C2Y9
3da247daeb79ce27fedf,Tantallon Junior Elementary School,Public,1,french village stn rd,Upper Tantallon,NS,B3Z1E4
3eb0e1d4133657fdc98f,Basinview Drive Community School,Public,273,basinview dr,Bedford,NS,B4A3X8
4177181fdd3be2a54d48,St. Agnes Junior High School,Public,6981,mumford rd,Halifax,NS,B3L2H7
42393e6b0616bab92916,Beaver Bank-Kinsac Elementary School,Public,28,kinsac rd,Beaver Bank,NS,B4G1C5
4415278c202b7a41c9ab,O'Connell Drive Elementary School,Public,40,o'connell dr,Porters Lake,NS,B3E1E8
44979b445219377c67fd,South Woodside School,Public,5,everette st,Dartmouth,NS,B2W1G2
45d2c9705d2207fa8970,Canadian College of Acupuncture and Traditional Chinese Medicine,Private Institution,1306,bedford hwy,Bedford,NS,B4A1C6
460f8df605fec07bf83a,Colonel John Stuart Elementary School,Public,5,john stewart dr,Cole Harbour,NS,B2W4J7
478f91179ef73c64efea,Auburn Drive High School,Public,300,auburn dr,Dartmouth,NS,B2W6E9
48c74ec9db1c8f537317,A. J. Smeltzer Junior High School,Public,46,prince st,Lower Sackville,NS,B4C1L1
48ca0bc8a0fe7c1d03f7,Nova Scotia Firefighters School,Private Institution,48,powder mill road,Waverley,NS,B2R1E9
4b7175c59bacb87b24f1,Halifax Central Junior High School,Public,1787,preston st,Halifax,NS,B3H3V7
4d76a6d84dce68112b70,Brookside Junior High School,Public,2239,prospect rd,Hatchet Lake,NS,B3T1R8
50abb5c4e538cb5ade69,Georges P. Vanier Junior High School,Public,1410,fall river rd,Fall River,NS,B2T1J1
527ada43c281aa0dd2bf,Atlantic View Elementary School,Public,3391,lawrencetown rd,Lawrencetown,NS,B2Z1R5
54ea952aafd9e368e55c,Nova Scotia Community College (Akerley Campus),Technical and Vocational,21,woodlawn road,Dartmouth,NS,B2W2R7
56b698e6bea11ca911f9,Nelson Whynder Elementary School,Public,979,north preston rd,North Preston,NS,B2Z1A2
592992780683909748de,Caledonia Junior High School,Public,38,caledonia rd,Dartmouth,NS,B2X1K8
