Index,Facility_Name,Facility_Type,Street_No,Street_Name,City,Prov_Terr,Postal_Code
59bd9c68119ca7593127,Seaside Elementary School,Public,1881,caldwell rd,Eastern Passage,NS,B3G1J3
5a2f063593e316cd294c,Lockview High School,Public,148,lockview rd,Fall River,NS,B2T1J1
5b29a979c7390428d15c,ICT Northumberland College,Private Institution,1888,brunswick street,Halifax,NS,B3J3J8
5fc175c16ad3b3d98582,Transport Training Centres of Canada Ltd.,Private Institution,9,pettipas drive,Dartmouth,NS,B3B1K1
64a6a5f8f722032624b4,Fairview Heights Elementary School,Public,210,coronation ave,Halifax,NS,B3N2N3
66c81dc2a04c9f716d63,King's View Academy,Private,1649,brunswick street,Halifax,NS,B1S1T7
6777fcc60671acc39227,Central Spryfield School,Public,364,herring cove rd,Halifax,NS,B3R1V8
68a0c34aad5d486d90eb,Hammonds Plains Consolidated School,Public,2180,hammonds plains rd,Hammonds Plains,NS,B4B1M5
6903e7879525fd97a342,Hair Design Centre Limited,Private Institution,278,lacewood drive,Halifax,NS,B3M3N8
6ac0bd37150d4567347d,Dartmouth High School,Public,95,victoria rd,Dartmouth,NS,B3A1V2
6c696e92bad37637646f,Duncan MacMillan High School,Public,481,church point rd,Sheet Harbour,NS,B0J3B0
6d64b38cf7c459cf5314,Harold T. Barrett Junior High School,Public,862,beaver bank rd,Beaver Bank,NS,B4G1A9
6e2bb4abb9ec88113079,NSCAD University,University,5163,duke st,Halifax,NS,B3J3J6
6e5e673a2bc8b62a3ffa,Sacred Heart School of Halifax,Private,5820,spring garden road,Halifax,NS,B3H1X8
70100202776ad3f28f18,DaVinci College of Art & Design,Private Institution,800,sackville drive,Lower Sackville,NS,B4E1R8
70105fc72efb7d91f915,George Bissett Elementary School,Public,170,arklow dr,Dartmouth,NS,B2W4R6
70d93fb67d7d9477a9a0,Madeline Symonds Middle School,Public,290,white hills run,Hammonds Plains,NS,B4B1W6
716d3513693898a6bb60,Bridgeway Academy - Dartmouth,Private,3,valleyford avenue,Dartmouth,NS,B2X1W8
71fec73e4e418470a6f9,Oyster Pond Academy,Public,10583,hwy 7,Oyster Pond,NS,B0J1W0
7273c6b2f99f053df9f1,Admiral Westphal Elementary School,Public,6,fourth st,Dartmouth,NS,B2X3A5
75eacf207c5ec462780c,Elizabeth Sutherland School,Public,66,rockingstone rd,Halifax,NS,B3R2C9
771a5b5675869903cd94,Alderney Elementary School,Public,2,penhorn dr,Dartmouth,NS,B2Y3K1
78ec031e884667a5f938,Cavalier Drive School,Public,116,cavalier dr,Lower Sackville,NS,B4C3L9
79e129ae70fe28f197d2,Astral Drive Elementary School,Public,236,astral dr,Dartmouth,NS,B2V1B8
7b553fce29115a485cda,Citadel High School,Public,1855,trollope st halifax ns b3h,Halifax,NS,B3H0A4
7ceede7e81782a00b510,Westmount Elementary School,Public,6700,edward arab ave,Halifax,NS,B3L2E1
7de5a4dcf384a4cb4537,Armbrae Academy,Private,1400,oxford street,Halifax,NS,B3H3Y8
7df8f221a2ccad423e00,Sackville Heights Junior High School,Public,956,sackville dr,Lower Sackville,NS,B4E1S4
83d14c8471c2f5c3b2f5,Holland Road Elementary School,Public,181,holland rd,Fletchers Lake,NS,B2T1A1
85d6994bfae8e81fcffd,École Bois-Joli,Public,211,av du portage dartmouth n-é,Dartmouth N.-É.,NS,B2X3T4
8647d96943653a9c377b,Ross Road School,Public,336,ross rd,Westphal,NS,B2Z1H2
89991103ea1dc45197b8,Shannon Park Elementary School,Public,75,iroquois dr,Dartmouth,NS,B3A4M5
8dea439df44f10b3375f,Sycamore Lane Elementary School,Public,69,sycamore lane,Lower Sackville,NS,B4C1E8
8fdcbe7c37ea80c2b1b8,Dalhousie University,University,6299,south street,Halifax,NS,B3H4H6
8fe4ff3380a4ce51a25d,Eastern Passage Education Centre,Public,93,samuel danial dr,Eastern Passage,NS,B3G1P7
901c61b106ce1cfb7fa0,Mount St. Vincent University,University,166,bedford hwy,Halifax,NS,B3M2J6
902f49f958def2f97cb6,Michael Wallace Elementary School,Public,24,andover st,Dartmouth,NS,B2X2L9
9271540721b69cd2bb98,Bicentennial School,Public,85,victoria rd,Dartmouth,NS,B3A1T9
927b42e00546972269cc,Dutch Settlement Elementary School,Public,990,hwy 277,Dutch Settlement,NS,B2S2J5
94065c3cca5ad8d7dda0,Porters Lake Elementary School,Public,40,inspiration dr,Porters Lake,NS,B3E0A6
956fa3dd8a832019556a,Canadian College of Massage & Hydrotherapy,Private Institution,6960,mumford rd,Halifax,NS,B3L4P1
96a95b28de14fc62df71,Academy of Cosmetology,Private Institution,33,thornhill drive,Dartmouth,NS,B3B1R9
98f0be5596cc0bc63269,Portland Estates Elementary School,Public,45,portland hills dr,Dartmouth,NS,B2W6L5
99b577a6b72581685517,CBBC Career College Inc Dartmouth Campus,Private Institution,45,aldernay drive,Dartmouth,NS,B2Y2N6
9b5850c145a1009b5d06,École Mer et Monde,Public,5750,rue atlantic halifax n-é,Halifax N.-É.,NS,B3H1G9
9d307b546f3c8f417b95,Highland Park Junior High School,Public,3479,robie st,Halifax,NS,B3K4S4
9f22e8d05aa001d9a9a8,John MacNeil Elementary School,Public,62,leaman dr,Dartmouth,NS,B3A2K9
a53f40a96defc2548916,Kingswood Elementary School,Public,34,vrege crt,Hammonds Plains,NS,B4B1K2
a79c2f4c29c54517f48f,Nova Scotia Community College (Ivany Campus),Technical and Vocational,80,mawiomi place,Dartmouth,NS,B2Y0A5
