Index,Facility_Name,Facility_Type,Street_No,Street_Name,City,Prov_Terr,Postal_Code
a79c2f4c29c54517f48f,Nova Scotia Community College (Ivany Campus),Technical and Vocational,80,mawiomi place,Dartmouth,NS,B2Y0A5
a948f90a41d4317cbb1f,Musquodoboit Valley Education Centre,Public,12046,hwy 224,Middle Musquodoboit,NS,B0N1X0
a96d3ff8eb69a4dd7b27,École Beaubassin,Public,54,boul larry uteck halifax n-é,Halifax N.-É.,NS,B3M4R9
aa30860ad726b989af4f,Churchill Academy,Private,5,crichton avenue,Dartmouth,NS,B2Y1P1
aa810750c9f7fcb2ac16,Maritime Business College,Private Institution,800,sackville drive,Lower Sackville,NS,B4E1R8
aab45edf14fd742642c4,Crichton Park Elementary School,Public,49,lyngby ave,Dartmouth,NS,B3A3V1
abd18c46caf057ee8a68,Park West School,Public,206,langbrae dr,Halifax,NS,B3S1L5
ac0d5875e6df6889536d,Eric Graves Memorial Junior High School,Public,70,dorothea dr,Dartmouth,NS,B2W4M3
ad0a7ef6a637091839dd,Gorsebrook Junior High School,Public,5966,south st,Halifax,NS,B3H1S6
ad3ab222d2ea8e1c04f4,Academy of Learning College (Halifax),Private Institution,6960,mumford rd,Halifax,NS,B3L4P1
b4b08bba01becbb66bbb,LeMarchant-St. Thomas Elementary School,Public,6141,watt st,Halifax,NS,B3H2B7
b4ea3b86d9c6c701a8ff,Tallahassee Community School,Public,168,redoubt way,Eastern Passage,NS,B3G1M5
b602df3b38f75d610ce1,Shambhala School,Private,5450,russell street,Halifax,NS,B3K1W9
b653271be242285e474f,Atlantic Memorial-Terence Bay Elementary School,Public,3591,prospect rd,Shad Bay,NS,B3T1Z3
bb2d417ab8a6f8105669,Rockingham Elementary School,Public,31,tremont dr,Halifax,NS,B3M1X8
bb35eb5e12a20b7ea8a9,École du Grand-Portage,Public,100,stokil dr,Lower Sackville N.-É.,NS,B4C2G5
bc911fdd305786e8310e,Sir Robert Borden Junior High School,Public,16,evergreen dr,Dartmouth,NS,B2W4A7
be6ce0a2975ec471c0bd,Halifax Grammar School,Private,945,tower road,Halifax,NS,B3H2Y2
bea7c7831b5c027edf1c,Sambro Elementary School,Public,3725,old sambro rd,Sambro,NS,B3V1G1
bf954293882c80f73d17,J. L. Ilsley High School,Public,38,sylvia ave,Halifax,NS,B3R1J9
c068f3e64b57130f812b,St. Joseph's-Alexander McKay Elementary School,Public,5389,russell st,Halifax,NS,B3K1W8
c079a403e239033f9952,Ocean View Elementary School,Public,51,oceanview school rd,Eastern Passage,NS,B3G1J3
c0c71df88f3d125c61d6,Harry R. Hamilton Elementary School,Public,40,hamilton dr,Middle Sackville,NS,B4E3A9
c329e65cf508940382cf,Dartmouth South Academy,Public,111,prince arthur ave,Dartmouth,NS,B2Y0C5
c337eeec08fad90b479d,Building Trades Advancement College of Nova Scotia,Private Institution,24,lakeside park drive,Lakeside,NS,B3T1L1
c4109aec83fd16959dcb,Springvale Elementary School,Public,92,downs ave,Halifax,NS,B3N1Y6
c4aa20ead84c32019ee0,Smokey Drive Elementary School,Public,241,smokey dr,Lower Sackville,NS,B4C3G1
c618b85a38860f53ec75,Halifax Regional Police Training School,Technical and Vocational,2,chapman street,Dartmouth,NS,B3A0C3
c68e41cef62936d21e42,Carpenter Millwright College (CMC),Private Institution,1000,sackville drive,Lower Sackville,NS,B4E0C2
c875bfe8587371288a02,Waverley Memorial Elementary School,Public,2393,rocky lake dr,Waverley,NS,B2R1S4
c8dbba264f36795b0a2d,Ellenvale Junior High School,Public,88,belle vista dr,Dartmouth,NS,B2W2X7
cd5e990b814ac80d8839,Rocky Lake Junior High School,Public,670,rocky lake dr,Bedford,NS,B4A2T6
ce97bedf60f91a52f657,East St. Margarets Elementary School,Public,8671,peggy's cove rd,Indian Harbour,NS,B3Z3P5
cee0ddabe0587be44566,Atlantic Flight Attendant Academy,Private Institution,6148,quinpool road,Halifax,NS,B3L1A3
ceee9603e1402a2a6cb2,Sir Charles Tupper School,Public,1930,cambridge st,Halifax,NS,B3H4S5
cf2f58dd590744dce152,Clayton Park Junior High School,Public,45,plateau cres,Halifax,NS,B3M2V7
cfc25ac6548a51a7bd44,Five Bridges Junior High School,Public,66,hubley rd,Hubley,NS,B3Z1B9
d05412ce6d9f0f70bc19,Nova Scotia College of Early Childhood Education Society,Private Institution,6208,quinpool road,Halifax,NS,B3L1A3
d0717870d95cc3dce17d,Burton Ettinger Elementary School,Public,52,alex st,Halifax,NS,B3N2W4
d123d71f780271b715c3,Saint Mary's University,University,923,robie street,Halifax,NS,B3H3C3
d20c632bfdd072f9477b,Oxford School,Public,6364,north st,Halifax,NS,B3L1P6
d4e47ce7d250a55df975,Joseph Howe Elementary School,Public,2557,maynard st,Halifax,NS,B3K3V6
d6e039ab6d2eddb9858b,Medavie HealthEd -Dartmouth,Private Institution,50,eileen stubbs avenue,Dartmouth,NS,B3B0M7
d78b1438250c5b6a6a86,Musquodoboit Rural High School,Public,11980,hwy 224,Middle Musquodoboit,NS,B0N1X0
dc1be9f467f6b3eb48cb,Bell Park Academic Centre,Public,4,thomas st,Lake Echo,NS,B3E1M6
dce5e2809a6aad6deba6,Chebucto Heights Elementary School,Public,230,cowie hill rd,Halifax,NS,B3P2M3
df5c493d21d58792c18c,Cunard Junior High School,Public,121,williams lake rd,Halifax,NS,B3P1T6
e158ff47096abc4e1b9c,Success College of Applied Arts & Technology - Sackville,Private Institution,800,sackville drive,Lower Sackville,NS,B4E1R8
e2b47b10bbe11dfc37d2,Eastern Shore District High School,Public,35,west petpeswick rd,Musquodoboit Harbour,NS,B0J2L0
