Index,Facility_Name,Facility_Type,Street_No,Street_Name,City,Prov_Terr,Postal_Code
035bcc61da3c5303d75c,Breton Education Centre,Public,667,8th st,New Waterford,NS,B1H3T4
139f46679fd1e4b8899b,Malcolm Munroe Middle School,Public,125,kenwood dr,Sydney,NS,B1S1T8
2af7362318d6a3fc8f0e,CBBC Career College Inc,Private Institution,315,jamieson street,Sydney,NS,B1N2P7
2d5ac745fac63bc42bfe,Oceanview Education Centre,Public,60,wallaces rd,Glace Bay,NS,B1A4N5
2e99c3ab56f4609c0c9b,Harbourside Elementary School,Public,15,church st,Sydney,NS,B1N2R3
2f4d31dd4406e79ef6b9,Whitney Pier Memorial Middle School,Public,199,jamieson st,Whitney Pier,NS,B1N2P7
3372fc7d674f3700ebb6,Glace Bay High School,Public,201,reserve st,Glace Bay,NS,B1A4W3
34c3fbebb96755d38c1a,Sydney Academy,Public,49,terrace st,Sydney,NS,B1P2L4
352c8d5d95db63cdfaa5,Brookland Elementary School,Public,153,cottage rd,Sydney,NS,B1P2E5
35339ea4857ebb3832d1,Bras d'Or Elementary School,Public,10,alder pt rd bras,Bras d`Or,NS,B1Y2K1
41e1a074f85ab9adc46f,Dr. T.L. Sullivan School,Public,256,park rd,Florence,NS,B1Y1N2
4a9435002e4ab70a4d54,Mountainview Elementary School,Public,21,delta dr,Howie Centre,NS,B1L1G9
509dd7fe28faf2147aed,Breton Commercial Truck Training,Private Institution,270,stable drive,Sydney,NS,B1P6H2
53af231fa8a587949d23,Sydney River Elementary School,Public,35,phillips st,Sydney River,NS,B1S1M8
5e0809949ee906bc1bd5,Donkin School,Public,81,centre ave,Donkin,NS,B0A1G0
64770359e9bf96323172,Marion Bridge School,Public,3845,gabarus hwy,Marion Bridge,NS,B1K1A6
7f51fa3644ddd7602d07,Centre scolaire Étoile de l'Acadie,Public,15,rue inglis,Sydney N.-É.,NS,B1P7C6
866456e6e67388b647e1,Tompkins Memorial Elementary School,Public,60,main st,Reserve Mines,NS,B1E1E5
8ab4594ed5cb509013f8,Riverview High School,Public,57,coxheath rd,Sydney,NS,B1R1R4
8e11c2a3c04ecb0c8c61,Glace Bay Elementary School,Public,135,brookside st,Glace Bay,NS,B1A1K8
9a5dfc2f2bf5fdfa90ba,Jubilee Elementary School,Public,755,main st,Sydney Mines,NS,B1V2L4
a0a0b4a93260cf740740,Shipyard Elementary School,Public,30,mt kemmel st,Sydney,NS,B1S3V6
a24279384389b4627e8d,Canadian Coast Guard College,Technical and Vocational,,,Sydney,NS,B1P6K7
b189b1992831008ae7e9,Sydney Mines Middle School,Public,596,main st,Sydney Mines,NS,B1V2K8
b90de47c421cc623ed3a,Ferrisview Elementary School,Public,83,archibald ave,North Sydney,NS,B2A2W9
c0caa98e61c812a9ec8a,Centre for Distance Education,Private Institution,222,george street,Sydney,NS,B1P1J3
ca501a67310728b6842e,Maritime Environmental Training Institute,Private Institution,301,alexandra street,Sydney,NS,B1S2E8
cb8dce50b7a22f724186,Coxheath Elementary School,Public,30,mt florence st,Coxheath,NS,B1R1T8
cf86467ea18d470b2551,Seton Elementary School,Public,25,wilkie ave,North Sydney,NS,B2A1Y5
d40726165a35fa6d0f3b,St. Anne's Elementary School,Public,30,official row,Glace Bay,NS,B1A2W9
d67c05864aff21483a32,John Bernard Croak V.C. Memorial School,Public,10,second st,Glace Bay,NS,B1A5Z4
e0093f6ad48b66c37b33,Greenfield Elementary School,Public,25,james st,River Ryan,NS,B1H1B8
e3eddca379a7f64a2045,Sherwood Park Education Centre,Public,500,terrace st,Sydney,NS,B1P6N1
e85111fe7636b891dc07,Hair Masters,Private Institution,26,archibald avenue,North Sydney,NS,B2A2W3
e8a81f3a17748f00f4cb,Medavie HealthEd -Cape Breton,Private Institution,106,townsend street,Sydney,NS,B1P5E1
e96c3388aac222fc2105,CBVRCE Adult High School,Public,290,whitney ave,Sydney,NS,B1P5A6
f339ac17f3327a6c4676,Riverside School,Public,7430,hornes rd,Albert Bridge,NS,B0A1P0
