Index,Facility_Name,Facility_Type,Street_No,Street_Name,City,Prov_Terr,Postal_Code
0a5d209b585067cc7e36,Simonds High School,Public,1490,hickey road,Saint John,NB,E2J4E7
0f1682cf941104ee74e7,University of New Brunswick - Saint John,University,100,tucker park road,Saint John,NB,E2L4L5
0f3ba25899ec0e468780,Eastern Trades College,Private Institution,,,Saint John,NB,E2J2S5
1e783273f19deb86b851,Majestany Institute - Saint John,Private Institution,418,rothesay avenue,Saint John,NB,E2J2C4
1f97f6a34d849d0953fa,Eastern College Saint John,Private Institution,,,Saint John,NB,E2J2S7
3eb56a605085c9877581,Saint John High School,Public,,,Saint John,NB,E2L2B7
41c681fba90faf0ad15a,New Brunswick Community College - Saint John,Technical and Vocational,950,grandview avenue,Saint John,NB,E2J4C5
462f841df254630d8a5e,St. John the Baptist/King Edward School,Public,223,st james street,Saint John,NB,E2L1W3
4ab0f83441f9d6d2cddf,St. Malachy's Memorial High School,Public,,,Saint John,NB,E2L1H8
4ef081884edc80dd9af0,Morna Heights School,Public,80,chalmer drive,Saint John,NB,E2M6M9
51d4db58a3e56b7c151e,Barnhill Memorial School,Public,750,manawagonish road,Saint John,NB,E2M3W5
540e788900cadd587d71,Centennial School,Public,10,constance street,Saint John,NB,E2K2P8
57fb9b99098a2a36c5f6,M. Gerald Teed Memorial School,Public,151,black street,Saint John,NB,E2K2L6
6cbcb152b7934f73db28,Centre scolaire Samuel-de-Champlain,Public,67,chemin ragged point,Saint John,NB,E2K5C3
725a4c10767ea690a428,Seaside Park Elementary School,Public,627,havelock street,Saint John,NB,E2M2V4
8039274bc3d984a42d00,Princess Elizabeth School,Public,20,sixth street,Saint John,NB,E2K3M1
80c82ea583119405ee1e,Glen Falls School,Public,10,princess court,Saint John,NB,E2H1X9
822e7218f0662a9d1629,Operating Engineers Training Institute,Private Institution,341,king william road,Saint John,NB,E2M7C9
866854ce55b90f95ea56,Beaconsfield Middle School,Public,630,fundy drive,Saint John,NB,E2M2S5
86a20ce934633be31de3,Prince Charles School,Public,,,Saint John,NB,E2L1B3
874be0e5a064924f608e,Loch Lomond School,Public,25,evergreen avenue,Saint John,NB,E2N1H3
8c9a64ec9176a2aef269,Millidgeville North School,Public,500,woodward avenue,Saint John,NB,E2K4G7
9918b34a4a4b67d6dde5,Hazen-White-St. Francis School,Public,538,sandy point road,Saint John,NB,E2K3S2
a652a3678272d7b76897,Saint John School of Radiation Therapy,Technical and Vocational,400,university avenue,Saint John,NB,E2L4L2
a8d260ecddc2c8868cec,Bayview School,Public,184,loch lomond road,Saint John,NB,E2J1Y1
aa3bdba5cf8195de86b5,Saint Rose School,Public,700,manawagonish road,Saint John,NB,E2M3W5
abaac2e181a55d253102,Forest Hills School,Public,15,glengarry drive,Saint John,NB,E2J2X9
ae289d9779b7767551fc,Lakewood Heights School,Public,56,lensdale crescent,Saint John,NB,E2J3P3
b52cb2ccf0db8f13f608,Island View School,Public,496,ridge row,Saint John,NB,E2M4A1
cda14bedfa644cf789f6,Fundy Learning Center (The),Private Institution,186,adelaide road,Saint John,NB,E2K1X1
d470b5626709e1a481f9,Threshold Ministries,Private Institution,105,mountain view drive,Saint John,NB,E2J5B5
e5b3e04c947d5d48d500,Champlain Heights School,Public,111,champlain drive,Saint John,NB,E2J3E4
f68ece99588fd5122dc3,Ready Arc Training and Testing,Private Institution,70,mcilveen drive,Saint John,NB,E2J4Y7
fb066a61d56ff14cfc7b,Bayside Middle School,Public,75,bayside drive,Saint John,NB,E2J1A1
