Index,Facility_Name,Facility_Type,Street_No,Street_Name,City,Prov_Terr,Postal_Code
047e1a923bdef5df4e0c,Canadian School of Natural Nutrition,Private Institution,1201,mountain road,Moncton,NB,E1C2T4
0971830af42c97449229,Crandall University,Private Institution,333,gorge road box 6004,Moncton,NB,E1C9L7
0be77a945a6ee171dbf2,Hillcrest School,Public,60,parlee drive,Moncton,NB,E1E3B3
1bbbe1b5528f738ee8d9,Wizard of Pawz Grooming Academy,Private Institution,607,saint george boulevard,Moncton,NB,E1E4W3
1ecc517812ec0791158f,Harrison Trimble High School,Public,80,echo drive,Moncton,NB,E1C3H8
27919b21914eff4377ea,L'Institut Jon rayMond,Private Institution,21,stone avenue,Moncton,NB,E1C3M3
2c53e23e8387ff865e30,Universite de Moncton - Moncton,University,18,ave antoine-maillet,Moncton,NB,E1A3E9
31e5437d671a52b37c70,Moncton Hospital School of Radiologic Technology,Technical and Vocational,135,macbeath,Moncton,NB,E1C6Z8
34c6b46b3c1d8d949610,École Sainte-Bernadette,Public,46,rue upton,Moncton,NB,E1E3Z1
353826645f1b9fe62b4c,Atlantic Transport Training Academy,Private Institution,154,edinburgh drive east,Moncton,NB,E1E2K7
3c504596f27202fd6bd9,Maplehurst Middle School,Public,320,maplehurst drive,Moncton,NB,E1G0E4
3f6e3474d6509c4347a7,Medavie HealthEd,Private Institution,567,st george blvd,Moncton,NB,E1E2B9
490f49b44f3401b97d62,Queen Elizabeth School,Public,31,lynch street,Moncton,NB,E1C3L5
49e9f47a099288d809bb,Glamour Paws Grooming Academy,Private Institution,1633,mountain road,Moncton,NB,E1G1A5
5433c9f013952ae66b9e,Beaverbrook School,Public,1085,mountain road,Moncton,NB,E1C2S9
57c009746d97d0a346ce,Brenda's Academy of Dog Grooming,Private Institution,209,collishaw st,Moncton,NB,E1C9P9
5b1eba43b81cf5405cca,Evergreen Park School,Public,333,evergreen drive,Moncton,NB,E1G2J2
5ba291c4368d20eb8281,Arnold H. McLeod School,Public,280,storey road east,Moncton,NB,E1A5Z3
5deb63796551e8269a40,Oulton College,Private Institution,4,flanders court,Moncton,NB,E1C0K6
6a122f7a02f1c0098080,École Saint-Henri,Public,101,avenue gross,Moncton,NB,E1C7H3
738c20a57ace455b211f,École L'Odyssée,Public,60,promenade léopold f belliveau,Moncton,NB,E1A8V4
7421bf9a5c86b15ec0e8,Elite Dog Grooming & Academy,Private Institution,45,colonial dr,Moncton,NB,E1G2J1
893b8df6d51462aa3ab8,Northrop Frye School,Public,1392,ryan street,Moncton,NB,E1G2V3
8f9e628b6c73a108ccde,Lewisville Middle School,Public,45,mcauley drive,Moncton,NB,E1A5R8
90425b837ca4c3669246,Ally Beauty Academy,Private Institution,51,highfield street,Moncton,NB,E1C5N2
92abc31df61831040a94,Moncton High School,Public,140,longfellow drive,Moncton,NB,E1H0G4
935f46733af61e85082c,Emmanuel Baptist Bible Institute,Private Institution,187,mclaughlin drive,Moncton,NB,E1A4P4
9c0ab8aadbbc05857270,Forest Glen School,Public,43,keenan drive,Moncton,NB,E1A3P8
a864ce6563b39974b3e8,Eastern College Moncton,Private Institution,1070,st george blvd,Moncton,NB,E1E4K7
aa5bcbc45a8a8cf8efab,Sunny Brae Middle School,Public,170,curry street,Moncton,NB,E1A3W1
b931e230a54cf7b3d504,École Le Sommet,Public,701,rue ryan,Moncton,NB,E1G5R2
bf658b0951347d81f5e1,École Le Mascaret,Public,50,promenade léopold f belliveau,Moncton,NB,E1A8V3
c90598466da949962399,New Brunswick Community College - Moncton,Technical and Vocational,1234,mountain road,Moncton,NB,E1C8H9
c9dba46303525d12dbab,Birchmount School,Public,256,ayer avenue,Moncton,NB,E1C8G8
cc634850df04272619e5,Therapeutic Education Support Site,Alternative Learning Centre,125,park street,Moncton,NB,E1C2B4
e5c89477205a0c63bc96,École Champlain,Public,210,promenade erinvale,Moncton,NB,E1A9T4
f434abc6c3b74fbadfd5,Bernice MacNaughton High School,Public,999,st george blvd,Moncton,NB,E1E2C9
f544f1ab95cbfcaca9e8,Bessborough School,Public,93,bessborough avenue,Moncton,NB,E1E1P6
fc5ebd06aab1ae243035,McKenzie College,Private Institution,860,main st,Moncton,NB,E1C1G2
