Index,Facility_Name,Facility_Type,Street_No,Street_Name,City,Prov_Terr,Postal_Code
02728ea4e94d05fe906b,Priestman Street Elementary School,Public,363,priestman street,Fredericton,NB,E3B3B5
03ab4f3219edb86f028f,Majestany Institute - Fredericton,Private Institution,120,westmorland street,Fredericton,NB,E3B3L5
0761cf57b1460d812a33,George Street Middle School,Public,575,george street,Fredericton,NB,E3B1K2
0cd49d5b4864ff62481a,Nashwaaksis Memorial School,Public,80,main street,Fredericton,NB,E3A1C4
2134acf164a875ca320f,Forest Hill Elementary School,Public,548,forest hill road,Fredericton,NB,E3B4K6
2ef528a9ec4033ae042e,McAdam Avenue School,Public,129,mcadam avenue,Fredericton,NB,E3A1G7
331cdbbfb8fa84b250b6,Atlantic Hairstyling and Aesthetics Academy,Private Institution,23,sunbury st.,Fredericton,NB,E3B3S9
34ad2d01064ccac760fe,Liverpool Street Elementary School,Public,50,liverpool street,Fredericton,NB,E3B4V4
3a4dd762d118e52103ea,Atlantic College of Therapeutic Massage,Private Institution,2,peter kelly drive,Fredericton,NB,E3B5A3
4bf8c88d14ccf472ecc6,Park Street Elementary School,Public,111,park street,Fredericton,NB,E3A2J6
5a2722fd51c511dab72e,Fredericton Education Centre (Enterprise Centre),Alternative Learning Centre,300,priestman street,Fredericton,NB,E3B4X6
6a86d201d5e771aeb0c5,University of Fredericton,Private Institution,371,queen st.,Fredericton,NB,E3B1B1
70c131f1c337ecc26e7a,Saint Thomas University,University,51,dineen drive,Fredericton,NB,E3B5G3
78707495c751bbd53f53,New Brunswick Community College - Fredericton,Technical and Vocational,26,duffie drive,Fredericton,NB,E3B0R6
7edbdbe40e87ff676ebb,Maritime College of Forest Tech.,Technical and Vocational,1350,regent street,Fredericton,NB,E3C2G6
81d782bac87e7e60a929,Connaught Street School,Public,184,connaught street,Fredericton,NB,E3B2A9
83cd5e00135dcf73ff1a,École Les Éclaireurs,Public,160,promenade eco terra,Fredericton,NB,E3A9M1
8b49317ad38fd5bdef3b,Eastern College Fredericton,Private Institution,850,prospect st.,Fredericton,NB,E3B9M5
9a4bb333eaf66ee54484,Leo Hayes High School,Public,499,cliffe street,Fredericton,NB,E3A9P5
9c7654e3cf2d623877f5,Atlantic Hairstyling and Aesthetics Academy Ltd,Private Institution,23,sunbury st.,Fredericton,NB,E3B3S9
a880fe8ab72402cc8ae2,Atlantic Business College,Private Institution,1115,regent street,Fredericton,NB,E3B3Z2
ab79304255ad68ef285a,Barkers Point Elementary School,Public,39,carmen avenue,Fredericton,NB,E3A3W9
b23cd2ddf1457a9f5bc7,École des Bâtisseurs,Public,715,rue priestman,Fredericton,NB,E3B5W7
b70dacd9e6f381ad36d3,Kingsclear Consolidated School,Public,3188,woodstock road,Fredericton,NB,E3C1K9
c53a5a431c337f049200,Gibson-Neill Memorial Elementary School,Public,67,wyngate drive,Fredericton,NB,E3A6G1
cd0621eb33ded4c3d72d,East Coast Trades College Inc.,Private Institution,1080,brookside drive,Fredericton,NB,E3G8T8
ce79666f41c587171f08,École Sainte-Anne,Public,715,rue priestman,Fredericton,NB,E3B5W7
db21dab0bdfe1cebe5fd,University of New Brunswick - Fredericton,University,8,bailey drive,Fredericton,NB,E3B5A3
e012799a993c086f866f,Nashwaaksis Middle School,Public,324,fulton avenue,Fredericton,NB,E3A5J4
e511bf032ad7ce16751c,Bliss Carman Middle School,Public,615,kimble drive,Fredericton,NB,E3B0N4
e589ea6e6aafffbe552c,Fredericton High School,Public,300,priestman street,Fredericton,NB,E3B6J8
ee871319ff04b846affb,Montgomery Street Elementary School,Public,692,montgomery street,Fredericton,NB,E3B2X8
efc6a579bdc0dabf3d92,Yorkville University,Private Institution,100,woodside lane,Fredericton,NB,E3C2R9
f6f9f6ad90c1d72113e1,Northeast Christian College,Private Institution,128,river st.,Fredericton,NB,E3A5T6
