Index,Facility_Name,Facility_Type,Street_No,Street_Name,City,Prov_Terr,Postal_Code
1d142226e22f54c8786a,Innovation maritime,Centre collégial de transfert de technologie,53,rue saint-germain ouest,Rimouski,QC,G5L4B4
214aad5b14ec04ac902b,Élisabeth-Turgeon,Public,10,8e rue ouest,Rimouski,QC,G5L5B4
261203d06e6af4718f37,Saint-Yves,Public,521,rue saint-germain est,Rimouski,QC,G5L1E8
3206b5ecf2301a950622,Institut Maritime du Quebec,Technical and Vocational,53,st-germain ouest,Rimouski,QC,G5L4B4
322fbb8a1b7cb1210baf,Langevin,Public,105,saint-jean-baptiste ouest,Rimouski,QC,G5L4J2
3402ba55b763a6a76c97,"Rose-des-Vents, la",Public,355,avenue de la jeunesse,Rimouski,QC,G5M1J2
3fff5aba157c2dd25d1d,Conservatoire de musique de Rimouski,École gouvernementale,22,rue sainte-marie,Rimouski,QC,G5L4E2
421301fe08a5a04fa2d7,Université du Québec à Rimouski,Constituante,300,allée des ursulines,Rimouski,QC,G5L3A1
49adb9525abdcda68f59,"Merisiers, des",Public,658,route des pionniers,Rimouski,QC,G5N5P1
623c965fcdd3f55a40ac,Sainte-Agnès,Public,130,rue côté,Rimouski,QC,G5L2Y2
66cae884b7a184e04f01,"Rocher, du",Public,845,rue saint-arsène,Rimouski,QC,G5L3X4
732516495e7ad121a578,"Aquarelle, de l'",Public,247,rue saint-laurent ouest,Rimouski,QC,G5L4P8
87daa257d7811b332768,Saint-Jean,Public,245,2e rue ouest,Rimouski,QC,G5L4Y1
89fb48b1f0d6f9a8e049,Institut maritime du Québec,Établissement d'enseignement,53,rue saint-germain ouest,Rimouski,QC,G5L4B4
8d359a2d763f6972181a,Sainte-Odile,Public,514,rue tessier,Rimouski,QC,G5L4L9
946b58c82c712588443e,Centre de Formation Rimouski-Neigette,Private Institution,424,rue ross,Rimouski,QC,G5L7P3
98af82cfc2031ab2b8f6,Centre de formation Rimouski-Neigette,Public,424,avenue ross,Rimouski,QC,G5L6J2
9f939dd529bcef4fef2e,Cégep de Rimouski,Cégep,60,rue de l'évêché ouest,Rimouski,QC,G5L4H6
a158fe4e35700789f4c6,Universite du Quebec - Rimouski,University,300,allee des ursulines,Rimouski,QC,G5L3A1
ba62d6043e02585bbb7b,College de Rimouski,Junior College,60,rue de l'eveche ouest,Rimouski,QC,G5L4H6
c4f8788228c0447782c9,"Estran, de l'",Public,399,rue la salle,Rimouski,QC,G5L3V8
d35c0abb28908fdb16d4,D'Amours,Public,261,rue parent nord,Rimouski,QC,G5L6P2
dac8d6014bb24c7fe45c,Mont-Saint-Louis,Public,136,rue de la grotte,Rimouski,QC,G0L1B0
fe9fc3ff5bf9063200f3,Paul-Hubert,Public,250,boul. arthur buies ouest,Rimouski,QC,G5L7A7
