Index,Facility_Name,Facility_Type,Street_No,Street_Name,City,Prov_Terr,Postal_Code
00f48f719f49590660d2,Jouvence,Public,215,boulevard saint-yves,Québec,QC,G2G1J8
056951c3318c14f11a71,L'École de danse de Québec,Installation collège privé,336,rue du roi,Québec,QC,G1K2W5
0582a9f15f93e0a3e622,"Châtelet, du",Public,1495,rue du vice-roi,Québec,QC,G2L2E5
07f5755d839b36d19a89,Freinet de Québec (Loutres),Public,7240,rue des loutres,Québec,QC,G1G1B1
0817c98a29289649efb9,"Oasis, de l'",Public,1501,rue du périgord,Québec,QC,G1G5T8
08811d35029c50c10d84,Internationale Notre-Dame-des-Neiges,Public,4140,boulevard gastonguay,Québec,QC,G2B1M7
091f43bc3c22e6a4af0d,Saint-Patrick,Public,75,rue de maisonneuve,Québec,QC,G1R2C4
09200c48003eb63124c8,Sainte-Odile,Public,2825,rue du curé couture,Québec,QC,G1L4P7
095a187a9a48df65e1ed,Orizon Aviation,Installation collège privé,611,6e avenue de l'aéroport,Québec,QC,G2G0J2
09ab3bdff796135aecb0,Saint-Louis-de-France I,Public,1524,route de l'église,Québec,QC,G1W3P5
09f3ed02b45612408c91,Jules-Émond,Public,1065,avenue de la montagne e,Québec,QC,G3K1T4
0a1d3f4b202299ff2e2f,Champlain Regional College - Campus Saint-Lawrence,Campus collégial,790,avenue nérée-tremblay,Québec,QC,G1V4K2
0a3bc2b21f1e35dfc992,Centre Semple,Public,1575,rue semple,Québec,QC,G1N4B7
0b0764b2f1dc6378a976,Pavillon Jacques-Rousseau,Public,1095,avenue de rochebelle,Québec,QC,G1V4P8
0b15e5d76fbe9765d048,"Escalade, bâtiment 2e cycle, de l'",Public,365,du bienheureux-jean-xxiii,Québec,QC,G2N1V4
0f4ec98fb2a9e98731a8,CFP Wilbrod-Bhérer,Public,7,rue robert-rumilly,Québec,QC,G1K2K5
0f95fc657731c6b4435a,Capitale Hélicoptère,Installation collège privé,1688,route de l'aéroport,Québec,QC,G2G0K1
12611f602b72cd9f26d9,Collège Saint-Charles-Garnier,Installation,1150,boul rené lévesque ouest,Québec,QC,G1S1V7
140879f3115c86c3678f,"Escabelle, pavillon C, l '",Public,10725,rue saint-charles,Québec,QC,G2B2K4
16f2a581f5aeb6247700,Sainte-Monique,Public,4120,rue de musset,Québec,QC,G1P1P1
173f01660bf5ff740c3a,Centre Saint-Fidèle,Public,702,12e rue,Québec,QC,G1J2M8
17c92d82a08f986da38d,"Deux-Moulins, des (du Rucher)",Public,1075,60e rue est,Québec,QC,G1H2E3
197c75467e7b5f45fcaf,"Seigneurie, de la",Public,645,avenue du cénacle,Québec,QC,G1E1B3
1b7db9248666101490b3,"Camaradière, la",Public,3400,boulevard neuvialle,Québec,QC,G1P3A8
1c6ecdce3f14996e7991,Résidence Saint-Joseph,Public,160,boulevard des étudiants,Québec,QC,G2A1N8
1cbe76cfd12d386c8a6a,Jean-de-Brébeuf,Public,1640,8e avenue québec,Québec,QC,G1J3N5
1d2c993dee1e6cfc0242,"Prés-Verts, les",Public,1680,boulevard la morille,Québec,QC,G2K2L2
20ec455447fa3dcb6af3,"Écrivains, des",Public,4400,rue jacques-crépeault,Québec,QC,G1P1X5
24f3c676acdc462bac73,L'Étincelle,Public,1400,rue falardeau,Québec,QC,G2E2Z6
254eabfcac4c250c75db,Saint-Édouard,Public,15,rue saint-edmond,Québec,QC,G1E5C8
262d56291aebe758e5af,École trilingue Vision Québec nord,Installation,650,avenue du bourg-royal,Québec,QC,G2L1M8
263070fcd66414dedb19,Centre Masson,Public,3025,avenue tassé,Québec,QC,G1P1T1
26df3c3673a948baa0e0,CFP Marie-Rollet,Public,3000,boulevard hochelaga,Québec,QC,G1V3Y4
270b7e8b05731c31c4ea,Pavillon Marie-Victorin,Public,1095,avenue de rochebelle,Québec,QC,G1V4P8
27932e6859538d0f77fd,"Accueil, de l'",Public,1587,rue guillaume-bresse,Québec,QC,G3E1G9
2c0f0875d85508b683a3,L'Arbrisseau,Public,4675,rue promenade des soeurs,Québec,QC,G1Y2W2
2d4b65b65e378a5b4e98,"Neufchâtel, secondaire de",Public,3600,avenue chauveau,Québec,QC,G2C1A1
30cb6c629f01cd65584d,"Cap-Soleil 2, du",Public,5250,avenue des sauges,Québec,QC,G1G3V6
3199b8b25c39d2c82374,"Myriade, de la",Public,1172,rue de l'etna,Québec,QC,G3K0A2
31eb1d339d1d6af68408,"Escabelle, pavillon A, l'",Public,2120,rue du curé-lacroix,Québec,QC,G2B1S1
326c4c532055a9bc4eae,"Chanterelle, de la",Public,1070,boulevard pie xi nord,Québec,QC,G3K2S6
336052aea0f1c3c6bf41,"Escale, de l'",Public,8805,avenue de laval,Québec,QC,G1G4X6
360d79c4e9d5a297f9cd,École nationale d'administration publique,Constituante,555,boulevard charest est,Québec,QC,G1K9E5
373a8aae238106588aac,"Fierbourg, hôtelière",Public,337,76e rue ouest,Québec,QC,G1H4R4
39b06def5eadde049a54,"L'École des Ursulines de Québec et Loretteville, Campus du Vieux-Québec, section anglaise",Installation,4,rue du parloir,Québec,QC,G1R4M5
39c3f5f9f1e52cd8a800,École de l'Excellence,Installation,1749,chemin gomin,Québec,QC,G1S1P1
3be96034f9a0776ccd1f,"Boisé, bâtiment 1, du",Public,651,rue jacques-bédard,Québec,QC,G2N1C5
3c1d2acc6eb1142ffadb,"Primerose, de la",Public,155,rue bessette,Québec,QC,G1C7A7
404c0275ecbbe017c9dd,Coeur-Vaillant,Public,3430,boulevard neilson,Québec,QC,G1W2W1
