Index,Facility_Name,Facility_Type,Street_No,Street_Name,City,Prov_Terr,Postal_Code
407a2a3c0c2091fc185b,Pavillon EMOICQ,Public,1070,rue borne,Québec,QC,G1N1L9
412134cd441419bbe8c6,Boudreau,Public,136,rue beaucage,Québec,QC,G1M1G6
43ff15c3593d3f1caaf0,Saint-Louis-de-France II,Public,1550,route de l'église,Québec,QC,G1W3P5
445e87b29c2779c5971c,"Apprenti-Sage, de l'",Public,2200,rue coursol,Québec,QC,G2B4Y4
44de0a2ce1823751087b,Beausoleil,Public,2267,avenue royale,Québec,QC,G1C1P5
45581515d7a4705c0f43,"Jeunes-du-Monde, Champfleury",Public,2490,avenue champfleury,Québec,QC,G1J4N9
4bc5efd2bf5e10c800d8,"Aux-Quatre-Vents, bâtiment 2e cycle",Public,105,rue savio,Québec,QC,G1E1G5
4d9062147c943abf12cf,Université du Québec (siège social),Siège social,475,rue du parvis québec,Québec,QC,G1K9H7
4f5560c48f5d5162897d,Filteau,Public,830,rue de saurel,Québec,QC,G1X3P6
514a35ef40dc9406df6a,"Arc-en-Ciel, de l'",Public,570,rue pacifique,Québec,QC,G3G1W5
53270e6a4405a13412b4,Maison des adultes - CEA,Public,480,67e rue est,Québec,QC,G1H1V5
56de70732dfe6af6cde1,Odilon-Gauthier - CEA,Public,742,boulevard louis-xiv,Québec,QC,G1H4M7
57998915becc8cce87f5,"Château-d'Eau, de",Public,3075,rue du golf,Québec,QC,G2A1G1
595224a5d0d03112a8b3,L'École de danse de Québec,Collège privé,310,boul. langelier,Québec,QC,G1K5N3
59c454152e6873860ea2,"Sous-Bois, du",Public,143,rue des feux-follets,Québec,QC,G1B1K8
5a9c72b5a8e64faef12e,Séminaire des Pères Maristes,Installation,2315,chemin saint-louis,Québec,QC,G1T1R5
5c250f7d6ca92fec82a4,Centre St-Albert-le-Grand,Public,3005,4e avenue,Québec,QC,G1J3G6
5c72423d66f130fa8a2d,Cégep Limoilou,Cégep,1300,8e avenue,Québec,QC,G1J5L5
601389082979f43ebfd5,CEA des Découvreurs,Public,1088,route de l'église,Québec,QC,G1V3V9
60497471e88390842725,"Constellations, des",Public,7220,avenue trudelle,Québec,QC,G1H5S3
613c2807164528009244,Centre psycho-pédagogique de Québec inc. (École St-François),Installation,1000,rue du joli-bois,Québec,QC,G1V3Z6
62948d3bf0cb84b312ee,Sainte-Geneviève,Public,700,rue de cherbourg,Québec,QC,G1X2V9
667c1e6f7411d3f22585,Saint-Vincent,Public,995,avenue wolfe,Québec,QC,G1V3J9
66d26e0fc911bc2a0912,"Mosaïque, de la",Public,2264,rue lemieux,Québec,QC,G1P2V1
6764592561beca5d0133,Télé-université,Constituante,455,rue du parvis,Québec,QC,G1K9H6
683b06f6a245a1eb1b4d,Dominique-Savio,Public,2050,rue de la trinité,Québec,QC,G1J2M4
68859eab86d75c5f25e2,Saint-Jean-Baptiste,Public,370,rue saint-jean,Québec,QC,G1R1P2
69d24b60cfb04ee07d9d,CF Eastern Quebec,Public,3005,rue william,Québec,QC,G1W1V4
6a30e470ba720bd3b66e,Universite Laval,University,2325,rue de l'université loc,Quebec,QC,G1V0A6
6aa80b26d07cea8317de,"Roger-Comtois, secondaire",Public,158,boulevard des étudiants,Québec,QC,G2A1N8
6b6bc9d1ab1b3974b63d,École secondaire privée François-Bourrin,Installation,50,avenue des cascades,Québec,QC,G1E2J7
6bb730bd944105fb6bcb,Saint-Claude,Public,12155,boulevard saint-claude,Québec,QC,G2B1H4
6c9dc4e791a7a566767f,"Aux-Quatre-Vents, bâtiment 1er cycle",Public,41,rue tanguay,Québec,QC,G1E6A3
6e0f910049584f111165,"Val-Joli, du",Public,1735,boulevard pie xi nord,Québec,QC,G3J1L6
6e2168fdbf6a6c60b39e,Centre Morse,Public,380,rue morse,Québec,QC,G1N4L4
6e2ab3e0a59c0a65f307,Universite du Quebec Tele Universite,University,455,rue du parvis,Quebec,QC,G1K9H6
6eeed698f1f50f84e001,École oraliste de Québec pour enfants malentendants ou sourds,Installation,1090,boulevard rené-lévesque ouest,Québec,QC,G1S1V5
7199ffbf0e0c8e3eff27,"Berges, des",Public,510,rue du prince-édouard,Québec,QC,G1K8C7
723e1e51422ba6e708cd,Institut Saint-Joseph,Installation,900,avenue joffre,Québec,QC,G1S4Z3
72a92cdd6fe80304d203,"Cap-Soleil 1, du",Public,5256,avenue des sauges,Québec,QC,G1G3V7
730858f5cf09e32bc1ad,Collège François-de-Laval,Installation,6,rue de la vieille-université,Québec,QC,G1R5X8
7410b6acb8cdce53a14e,"Jeunes-du-Monde, Bardy",Public,1990,25e rue,Québec,QC,G1J1L7
74c91c8e327f725ad4fa,"Escalade, bâtiment 1er cycle, de l'",Public,20,rue de l'escalade,Québec,QC,G2N2A8
77d1e47fa9ccc22ad56c,"Chaumière, de la",Public,4285,rue rené-chaloult,Québec,QC,G2B4R7
7842877a05ecc1186885,"Sommet, le",Public,120,rue de la polyvalente,Québec,QC,G2N1G8
7ace633ae305f7ec2027,Vanier,Public,700,boulevard wilfrid-hamel,Québec,QC,G1M2P9
7c5ef217a150b994355e,Régionale Quatre-Saisons,Public,215,rue des peupliers ouest,Québec,QC,G1L1H8
7cc5651a2a278e5e11c5,"Passerelle, de la",Public,460,rue des couventines,Québec,QC,G3G1J8
7ed1d2366cffe5fce8df,Saint-Mathieu,Public,995,rue duchesneau,Québec,QC,G1W4B1
