Index,Facility_Name,Facility_Type,Street_No,Street_Name,City,Prov_Terr,Postal_Code
b9376c6300a1ec8a770d,Externat St-Jean-Berchmans,Installation,2303,chemin saint-louis,Québec,QC,G1T1R5
b9732963f56d9621c29c,CFP de Québec,Public,1925,rue monseigneur-plessis,Québec,QC,G1M1A4
ba8e39bb4d7656323656,Service de garde Le Provancel,Public,1443,rue provancher,Québec,QC,G1Y1S2
bbc23bb3db751ef8974e,"Farandole, de la",Public,139,rue bertrand,Québec,QC,G1B1H8
bdbf3a2eeaf2a950d548,"Aviron Québec, campus Charest",Installation,270,boulevard charest est,Québec,QC,G1K3H1
c0158cd10483761f5d22,Saint-Fidèle,Public,334,12e rue,Québec,QC,G1L2L5
c15607aeb91c64f989eb,Université du Québec,Regroupement légal,475,rue du parvis québec,Québec,QC,G1K9H7
c1de715ce43d310081de,"L'École des Ursulines de Québec et Loretteville, Campus du Vieux-Québec, section française",Installation,4,rue du parloir,Québec,QC,G1R4M5
c2d8bdde35eb88260e98,"Arc-en-Ciel, de l'",Public,475,rue racine,Québec,QC,G2B1G3
c50cf0c04e143f8ab767,"Cimes, des",Public,250,rue cambert,Québec,QC,G1B3R8
c5c53840a403b6208509,"Grande-Hermine, de la",Public,1355,2e avenue,Québec,QC,G1L0A6
c62f0efb89604d0c0976,Collège Jésus-Marie de Sillery,Installation,2047,chemin saint-louis,Québec,QC,G1T1P3
c66b278bac1f8c2968bf,"Domaine, du",Public,1630,rue des balsamines,Québec,QC,G1M2K9
c781dc5c5d0cafc3b53c,Collège O'Sullivan de Québec inc.,Collège privé,840,rue saint-jean,Québec,QC,G1R1R3
c783e8adf746861daa7d,Joseph-François-Perrault,Public,140,chemin sainte-foy,Québec,QC,G1R1T2
ce77d9de1b6d5c3565b2,"Plateau, du",Public,8595,boulevard cloutier,Québec,QC,G1G4Z5
cf965c79b7a3104899ee,"Assomption, de l'",Public,2965,avenue saint-samuel,Québec,QC,G1C3V4
cf998e2148a4afbea4b3,"Odyssée, l'",Public,1485,rue de l'innovation,Québec,QC,G3K2P9
d0a734db7acf28a87ac5,Centre d'enseignement et de recherche en foresterie de Ste-Foy inc.,Centre collégial de transfert de technologie,2440,chemin sainte-foy,Québec,QC,G1V1T2
d0be25b1d38991395f56,École Montessori de Québec,Installation,1265,avenue du buisson,Québec,QC,G1T2C4
d21145a527aa34363ed2,CFP de Neufchatel,Public,3400,avenue chauveau,Québec,QC,G2C1A1
d365e1d276f2b81fd10a,"Buisson, du",Public,5385,avenue banville,Québec,QC,G1P1H7
d385c629a71c8dcf8ca6,Nouvel Horizon - CEA,Public,3255,boulevard mgr gauthier,Québec,QC,G1E2W3
d3e0475b6dfefaf04190,"Boisé, bâtiment 2, du",Public,99,rue moïse-verret,Québec,QC,G2N1E8
d462af35e5a4f4067708,"Fourmilière, de la",Public,5125,2e avenue ouest,Québec,QC,G1H6L2
d51871ee7d7cf174e97b,Les Primevères,Public,1465,rue félix-antoine-savard,Québec,QC,G2G1Z2
d5eee6b2259746bb83a4,"Saint-Michel, de",Public,453,rue seigneuriale,Québec,QC,G1C3R2
d6632387e87b85a7ac46,"Orée-des-Bois, à l'",Public,1389,rue des camarades,Québec,QC,G3K2N5
d6bc27d935ab98391175,Externat Saint-Coeur de Marie,Installation,28,avenue des cascades,Québec,QC,G1E2J8
d6ce1b8a1464d9b740bd,Notre-Dame-de-Foy,Public,762,rue jacques-berthiaume,Québec,QC,G1V3T1
d75290bd715cf57d2598,Collège Stanislas (campus Sillery),Installation,1605,chemin sainte-foy,Québec,QC,G1S2P1
d9e5a65138d6623e710f,Joseph-Paquin,Public,465,64e rue est,Québec,QC,G1H1Y1
dc3800d8570281c8f1c1,CFTC - Centre des services aux entreprises,Public,715,rue de l'argon,Québec,QC,G2N2G7
dca167a6f5a9f6e3d08c,"Cité, secondaire de la",Public,1625,boulevard benoît-xv,Québec,QC,G1L2Z3
ddc285982ee080950da0,Académie Saint-Louis,Installation,1500,rue de la rive-boisée sud,Québec,QC,G2C2B3
de08941b7a45963057ee,EMOICQ,Public,1060,rue borne,Québec,QC,G1N1L9
dfa4078a0e714468c185,Institut national de la recherche scientifique,Constituante,490,rue de la couronne,Québec,QC,G1K9A9
e02911df592381210e73,Saint-Sacrement,Public,1430,chemin sainte-foy,Québec,QC,G1S2N8
e0fb771670851cad1214,Anne-Hébert,Public,555,chemin ste-foy,Québec,QC,G1S2J9
e1ce0fece7d0a74e0978,"Bourg-Royal, du",Public,825,avenue du bourg-royal,Québec,QC,G2L1W8
e1d29ed6830077341b58,Université Laval,Université,,,Québec,QC,G1V0A6
e273ce718eb759591298,Centre de formation en transport de Charlesbourg,Public,700,rue de l'argon,Québec,QC,G2N2G5
e43dfa8fbadc7cd99518,L'École l'Eau-Vive,Installation,4690,avenue chauveau,Québec,QC,G2C1A7
e44c6fef620d5ed490a4,Académie Sainte-Marie,Public,10,rue de l'académie,Québec,QC,G1E4W1
e871e31f1fb49082cad1,Cégep de Sainte-Foy,Cégep,2410,chemin sainte-foy,Québec,QC,G1V1T3
e9246a062217ebeda5f3,"Sentiers, des",Public,1090,chemin de château-bigot,Québec,QC,G2L1G1
ea21adf44e6b85fcc2c1,Aviron Quebec Inc.,Private Institution,270,blvd. charest,Quebec,QC,G1K3H1
eb2704ee26752aaa1095,Centre Saint-Louis,Public,262,rue racine,Québec,QC,G2B1E6
ec6f5701a6a423cd5e0c,Marguerite-d'Youville,Public,1473,rue provancher,Québec,QC,G1Y1S2
