Index,Facility_Name,Facility_Type,Street_No,Street_Name,City,Prov_Terr,Postal_Code
80df02ede7a04856f667,Collège de Champigny,Installation,1400,route de l'aéroport,Québec,QC,G2G1G6
811449fc9c891422390f,"Courvilloise, de la",Public,2265,avenue larue,Québec,QC,G1C1J9
81218daa03bc4cf734d2,Centre de Formation Proffessionelle (C.F.P.) Limoilou,Junior College,2050,8e ave.,Quebec,QC,G1J3P1
81452e033cd86369e35b,"Beau-Séjour, du",Public,1644,avenue lapierre,Québec,QC,G3E1C1
82a35b2de9bf438afff5,Collège Bart (1975),Collège privé,751,côte d'abraham,Québec,QC,G1R1A2
82af8d942c98eaf888b3,Collège Bart (1975) / Collège Radio Télévision de Québec,Installation collège privé,751,côte d'abraham,Québec,QC,G1R1A2
8465b70bf9fa52658680,Conservatoire de musique de Québec,École gouvernementale,270,rue jacques-parizeau,Québec,QC,G1R5G1
858435fe6e8260ab90ac,Saint-Albert-le-Grand,Public,301,rue des peupliers est,Québec,QC,G1L1S6
85fcce160f3293624e94,Polyvalente de Charlesbourg,Public,900,rue de la sorbonne,Québec,QC,G1H1H1
8a28f490d73945af68a9,Collège Avalon (secteur anglophone),Installation collège privé,455,rue du marais l. 200,Québec,QC,G1M3A2
8cae9c3abf160bc52910,"Aventure, de l'",Public,40,boulevard johnny-parent,Québec,QC,G2B1T5
8dc8a1ea77a528d35ef6,"L'École des Ursulines de Québec et Loretteville, Campus de Loretteville",Installation,63,rue racine,Québec,QC,G2B1C8
8e612d079c3b0b56e637,Saint-Paul-Apôtre,Public,2352,8e avenue,Québec,QC,G1J3P2
900f34820a5e21582873,"Parc, du",Public,90,boulevard des français,Québec,QC,G1C2A7
91180276e7a222712a59,Pavillon de la Diversité,Public,146,rue beaucage,Québec,QC,G1M1G7
93242b8fccc5a2a30d29,Samuel-De Champlain,Public,2740,avenue saint-david,Québec,QC,G1E4K7
9340c75c6d6ea3c29fa9,Collège des Compagnons,Public,3643,avenue des compagnons,Québec,QC,G1X3Z6
9492b11d293fb4b43635,Freinet de Québec (Chutes),Public,945,boulevard des chutes,Québec,QC,G1E2C8
9530a26719503e50e119,Marie-Renouard,Public,2970,avenue gaspard,Québec,QC,G1C3V7
9561b4d2d76d6f80e604,Madeleine-Bergeron,Public,1505,rue des grandes-marées,Québec,QC,G1Y2T3
9737a2e9df8106cf89c7,Cegep Garneau,Junior College,1660,boulevard de l entente,Quebec City,QC,G1S4S3
9801afc1fe456d085d71,Chabot,Public,1666,avenue de lozère,Québec,QC,G1G3L4
98feb9206c0a681ebfb4,Saint-Michel,Public,1255,avenue du chanoine-morel,Québec,QC,G1S4B1
994a6aae18fc5e30c94f,Centre Louis-Jolliet,Public,1201,rue pointe-aux-lièvres,Québec,QC,G1L4M1
9a67c51b151c0ed42c24,Saint-Jean-Eudes,Installation,650,avenue du bourg-royal,Québec,QC,G2L1M8
9ae428eacdfed78702ab,Sacré-Coeur,Public,240,rue de jumonville,Québec,QC,G1K1G4
9b3cffad04746878e563,Centre du bâtiment - CFP,Public,444,boulevard armand-paris,Québec,QC,G1C7Z6
9db8abec1e85b9204b5d,"Envol, de l'",Public,120,47e rue est,Québec,QC,G1H2M2
9e762f65c6e18c7a0316,Monseigneur-Robert,Public,769,avenue de l'éducation,Québec,QC,G1E1J2
a200472f3dd0f533cfa6,Collège Mérici,Collège privé,755,grande allée ouest,Québec,QC,G1S1C1
a395ef6d30cda6c25ac4,Notre-Dame-du-Canada,Public,383,rue chabot,Québec,QC,G1M1L4
a3a3f615c14a0eea4c06,Everest,Public,2280,rue laverdière,Québec,QC,G1P2T3
a8bb2e42d38075ccfad0,Sans-Frontière,Public,360,avenue bélanger,Québec,QC,G1M1W1
a921a1e5c566b5492b80,"Campanile, du",Public,3645,chemin sainte-foy,Québec,QC,G1X1T1
aaf3d7ad3b28cf1abcdd,Pavillon Félix-Leclerc,Public,1095,avenue de rochebelle,Québec,QC,G1V4P8
ac9b7cf7b85ce3bdd317,École prématernelle-maternelle Montessori (Ancienne-Lorette),Installation,5121,boulevard chauveau,Québec,QC,G2E5A6
ad10afcf93649b7d2a30,"Source, de la",Public,204,boulevard des étudiants,Québec,QC,G2A1P5
ad8bae8ee16679d1a98a,Saint-Malo,Public,286,rue marie,Québec,QC,G1N3G4
affdfd8636367d03471b,Académie Saint-Louis - Pavillon Saint-Louis-de-Gonzague,Installation,2200,rue de la rive-boisée nord,Québec,QC,G2C0J1
b1a1bdcb0923a565a0f9,Pavillon Gilles-Vigneault,Public,1095,avenue de rochebelle,Québec,QC,G1V4P8
b1baab1af1622d822145,"Escabelle, pavillon B, l'",Public,10721,rue saint-charles,Québec,QC,G2B2K4
b2fbe725c2b4033ebe20,Complexe sportif de l'école De Rochebelle,Public,1095,avenue de rochebelle,Québec,QC,G1V4P8
b43c840b5c8814b6aa43,Saint-Yves,Public,2475,rue triquet,Québec,QC,G1W1E3
b4ac71e97fd2d4cf5d03,Trois-Saisons,Public,1455,rue buffon,Québec,QC,G2E5H7
b534f5a0949b560e51b2,Sainte-Foy,Public,1240,rue julien-green,Québec,QC,G1W3M1
b537d00c2d238ff78b5e,CFP de Limoilou,Public,2050,8e avenue,Québec,QC,G1J3P1
b6a73c46552fdc37f837,Quebec High,Public,945,avenue belvédère,Québec,QC,G1S3G2
b7b64144f60b5d6ec730,Les Sources,Public,1181,rue robert-l.-seguin,Québec,QC,G1X4P5
b7d1c710af9023493b6c,"TOPMED- Centre collégial de transfert de technologie en orthèses, prothèses et équipements médicaux",Centre collégial de transfert de technologie,755,grande allée ouest,Québec,QC,G1S1C1
