Index,Facility_Name,Facility_Type,Street_No,Street_Name,City,Prov_Terr,Postal_Code
01b4fb7348158fd5e080,"Petits-Cheminots (Passerelle), des",Public,6200,avenue des belles-amours,Lévis,QC,G6X1R2
0283e55b76fc3e761c83,"Nacelle, de la",Public,1110,rue des prés,Lévis,QC,G6Z1W4
06a5a74f73d0370db827,"Etchemins, les",Public,3724,avenue des églises,Lévis,QC,G6X1X4
0fa1966bbb91eddb93bd,"Taniata, de",Public,1002,rue des écoliers,Lévis,QC,G6Z0C4
10035c2df8c9d4f57648,Champagnat,Public,30,rue champagnat,Lévis,QC,G6V2A5
138a1ad02c36cb9689ba,Notre-Dame-d'Etchemin,Public,2233,rue dollard,Lévis,QC,G6W2H8
18469239678404873342,"Ruisseau, du",Public,688,rue saint-joseph,Lévis,QC,G6V1J4
226343b598c22881eecf,CEA des Navigateurs (St-Romuald),Public,1172,boul. guillaume-couture,Lévis,QC,G6W0R8
298ede146c21413434c2,Centre national de conduite d'engin de chantier,Public,1050,chemin belair ouest,Lévis,QC,G6Z2L2
2dea9b775d3f0ad15020,Cégep de Lévis-Lauzon,Cégep,205,route monseigneur bourget,Lévis,QC,G6V6Z9
32322847ce212aa3d420,"Boisé, du",Public,396,rue pamphile-le may lévis,Lévis,QC,G6C1P2
361fcefb07c5375c6c98,Sainte-Marie,Public,15,rue létourneau,Lévis,QC,G6V3J8
376b2fac6bae4c2dd4b5,"Grand-Voilier (Hirondelles), du",Public,1438,rue des pionniers,Lévis,QC,G7A4L6
380088ebb29a7d662d28,"Ruche, de la",Public,1000,rue du bourgeois,Lévis,QC,G6K1P1
423012f8e8b1facf8a4a,École trilingue Vision Rive-Sud,Installation,1165,boulevard guillaume-couture,Lévis,QC,G6W0S2
44109212900be0442e20,Juvénat Notre-Dame du Saint-Laurent,Installation,30,rue du juvénat,Lévis,QC,G6W7X2
4511c6020fc90423978a,CEA des Navigateurs - Charny,Public,3340,rue omer-poirier,Lévis,QC,G6X1T3
47c443dee7b83d615441,"Odyssée, de l'",Public,885,rue des mélèzes,Lévis,QC,G7A4B1
496eb6a9725e408ac948,École Marcelle-Mallet,Installation,51,rue déziel,Lévis,QC,G6V3T7
4b9e933df5ab55231513,Plein-Soleil,Public,9,rue genest,Lévis,QC,G6J1P5
4e8b290aee7010ec82df,Pavillon Jean-XXIII,Public,105,rue jean-xxiii,Lévis,QC,G6V2K1
504450e68784cf468e01,École Sainte-Famille,Installation,10425,boulevard guillaume-couture,Lévis,QC,G6V9R6
566a144316fc78423431,Dominique-Savio,Public,55,rue de saint-rédempteur lévis,Lévis,QC,G6K1E4
61372610fe828667882a,Roulotte - Chantier-École,Public,1050,chemin belair ouest,Lévis,QC,G6Z2L2
61f9f8ac269f1f523599,Charles-Rodrigue,Public,5485,rue saint-georges,Lévis,QC,G6V4M7
696734c6b9eb1c40d3e5,Centre multiservice des Navigateurs,Public,1135,boul. guillaume-couture,Lévis,QC,G6W0S2
6c71cf95b7dc8fd1ba9b,Centre de Formation Professionel Gabriel-Rousseau,Technical and Vocational,3724,avenue_des eglises,Charny,QC,G6X1X4
7319abb2abd35ccd18b4,Saint-Joseph,Public,295-297,rue saint-joseph,Lévis,QC,G6V1G3
76267c37bace02cd873c,"Rose-des-Vents, de la",Public,50,rue arlette-fortin,Lévis,QC,G6Z3B9
796c8e18bb654427a980,TransBIOTech Centre de recherche et de transfert en biotechnologie,Centre collégial de transfert de technologie,201,rue mgr bourget,Lévis,QC,G6V6Z3
7a2daa4d4f3572fefdf2,"Envol, de l'",Public,1101,route des rivières,Lévis,QC,G7A2V3
7b480a3500c97364575b,"Chanterelle, de la",Public,33,rue denis-garon,Lévis,QC,G6J1M1
82c2cd0fcb3788271384,"Auberivière, de l'",Public,3921,rue de la fabrique,Lévis,QC,G6W1T8
832f4882cb8e4b1bccd5,"Tournesol, du",Public,2435,route des rivières,Lévis,QC,G6K1E9
8f39864aeb455a80c961,Centre de robotique et de vision industrielles inc.,Centre collégial de transfert de technologie,205,rue mgr bourget,Lévis,QC,G6V6Z9
8f4592acd294b6ae6c79,CF en mécanique de véhicules lourds (entrepôt),Public,2775,rue de l'etchemin,Lévis,QC,G6W7X5
95786372f755bde0b2e5,Entrepôt CNCEC,Public,1050,chemin bélair ouest,Lévis,QC,G6Z2L2
a06eefee89c3a1e340ae,Guillaume-Couture,Public,70,rue philippe-boucher,Lévis,QC,G6V1M5
a130d0f04e4eb8d3f1eb,"Pixels, des",Public,23,rue pie-x,Lévis,QC,G6V4W5
a2a0fe6236fbe8e3be70,École trilingue Vision Rive-Sud,Installation,1300,boulevard guillaume-couture,Lévis,QC,G6W0R9
a35fb1420df3733c85a0,"Alizé, de l'",Public,851,rue des hérons,Lévis,QC,G6Z3L3
a64f1beeaea24d7761f6,"Étoile, de l'",Public,1300,rue de l'étoile,Lévis,QC,G7A0S2
a9cb677e93826cca5c89,Centre de Formation Professionnelle Gabriel Rousseau,Private Institution,1155,boul guillaume-couture,Levis,QC,G6W5M6
b05f9701fb4ff37a44e4,"Horizon, de l'",Public,200,rue arlette-fortin,Lévis,QC,G6Z3B9
b51d615574656ba41af0,"Petits-Cheminots (Notre-Dame), des",Public,3256,rue omer-poirier,Lévis,QC,G6X1T2
b540f41ae349c02c656a,"Clé-du-Boisé, de la",Public,706,avenue albert-rousseau,Lévis,QC,G6J1A1
b59e292c4e64f3f208a8,CFP Gabriel-Rousseau,Public,1155,boul. guillaume-couture,Lévis,QC,G6W0S2
b5c1e94327b45b22ef8c,"Grand-Fleuve (du Méandre), du",Public,2111,chemin du sault,Lévis,QC,G6W2K7
be59ad7911c88b79bb14,La Martinière,Public,520,rue de la sorbonne,Lévis,QC,G7A1Y5
