Index,Facility_Name,Facility_Type,Street_No,Street_Name,City,Prov_Terr,Postal_Code
00435caf4c5c05417203,Polyvalente de Saint-Georges,Public,2121,119e rue est saint-georges,Saint-Georges,QC,G5Y5S1
0f6a7a6abf14ee3de72a,MÉCANIUM inc.,Centre collégial de transfert de technologie,11700,25e avenue est saint-georges,Saint-Georges,QC,G5Y8B8
106a60f2d2c4604f30ea,"Académie adventiste Greaves, Campus Sartigan",Installation,645,7e rue sartigan saint-georges,Saint-Georges,QC,G5Y5B8
238eb6b4978e8ebac7dc,Aquarelle de Saint-Georges,Public,370,127e rue saint-georges,Saint-Georges,QC,G5Y2W3
26a1c064adc4646ca77a,Lacroix,Public,11655,boulevard lacroix saint-georges,Saint-Georges,QC,G5Y1L4
2f4bb142e537dee4cd6d,Remise à automobiles,Public,2121,119e rue est saint-georges,Saint-Georges,QC,G5Y5S1
46d4bd477d92df46983e,Aire de chantier (CFP),Public,11720,25e avenue saint-georges,Saint-Georges,QC,G5Y8B8
6ca21e0fcf5dde2ec3c6,"Deux-Rives, des",Public,3300,10e avenue ouest saint-georges,Saint-Georges,QC,G5Y4G2
6f88e3487654e5516257,Harmonie,Public,598,ave st-jean-de-la-lande saint-georges,Saint-Georges,QC,G5Z0L3
813a1d0e7af265163865,CFP Pozer,Public,425,16e rue ouest saint-georges,Saint-Georges,QC,G5Y4W2
84b0198099b09918e100,Entrepôt CIMIC,Public,11700,25e avenue est saint-georges,Saint-Georges,QC,G5Y8B8
8be12740bb5d63694895,Aubert Gallion,Public,2505,10e avenue ouest saint-georges,Saint-Georges,QC,G5Y5E7
beaca1aba0a85361b8de,"Petits-Castors, les",Public,11600,boulevard lacroix saint-georges,Saint-Georges,QC,G5Y1L2
cc7acfd38b8060e7c101,Monseigneur-Fortier,Public,1545,8e avenue ouest saint-georges,Saint-Georges,QC,G5Y4B4
ef0551c8c01358977b2b,Édifice Les Sources,Public,11855,19e avenue est saint-georges,Saint-Georges,QC,G5Y7X1
f175d7d36c9eead95077,Cégep Beauce-Appalaches,Cégep,1055,116e rue est saint-georges,Saint-Georges,QC,G5Y3G1
f486e6b6df8f5d936d9d,Édifice Monseigneur-Beaudoin,Public,1600,1re avenue ouest saint-georges,Saint-Georges,QC,G5Y3N3
f7222564c18fcef2dbeb,Dionne,Public,1605,boulevard dionne saint-georges,Saint-Georges,QC,G5Y3W4
fbb29fb29322efb3c13d,"Les Sittelles, primaire",Public,15400,10e avenue est saint-georges,Saint-Georges,QC,G5Y7G1
fd458ae9cd53bd3bfdc9,CIMIC,Public,11700,25e avenue saint-georges,Saint-Georges,QC,G5Y8B8
fe853c7e8c4e8c4812ed,Atelier Sartigan,Public,2425,119e rue est saint-georges,Saint-Georges,QC,G5Y5S1
