Index,Facility_Name,Facility_Type,Street_No,Street_Name,City,Prov_Terr,Postal_Code
03a5bd3a958830346b07,Centre national en électrochimie et en technologies environnementales inc.,Centre collégial de transfert de technologie,2263,avenue du collège,Shawinigan,QC,G9N6V8
1c4681527dd30fb16827,CEA du Saint-Maurice,Public,1092,rue trudel,Shawinigan,QC,G9N4N5
1d0d22cbaa1625af1f3b,"Phénix, des",Public,1001,8e rue shawinigan,Shawinigan,QC,G9T4L3
3276df37176ab660bc6b,Collège Shawinigan,Cégep,2263,avenue du collège,Shawinigan,QC,G9N6V8
44038b8a88a300a9410a,"Bâtisseurs, des",Public,975,111e rue shawinigan,Shawinigan,QC,G9P2T5
448b36075c52012ba11b,Saint-Charles-Garnier,Public,2265,avenue laflèche,Shawinigan,QC,G9N6H3
468328ff81750a862fe8,"Petite-Rivière, de la",Public,1500,chemin principal,Shawinigan,QC,G9R1E4
5099d4ef9858c1a79139,Félix-Leclerc,Public,750,125e rue shawinigan,Shawinigan,QC,G9P3V4
50dd92f3645e86644ff0,Jacques-Plante,Public,431,205e avenue,Shawinigan,QC,G9T3H3
5d162a45b3841b48b289,Saint-Jacques,Public,2015,rue saint-jacques,Shawinigan,QC,G9N4A9
75d33d9a16e99996948c,Shawinigan,Public,1125,avenue des cèdres,Shawinigan,QC,G9N1P7
775c15f2322d63f166f8,Saint-Paul,Public,461,16e avenue est,Shawinigan,QC,G9T1C5
7bc932bc797f2fddaef0,Institut du commerce de Shawinigan,Public,1133,rue notre-dame,Shawinigan,QC,G9N3S3
8683eff243baca0221bf,"Sainte-Flore, de",Public,3351,rue réjane-sanschagrin,Shawinigan,QC,G9T3N9
92c1bd4de26ebe040c18,"Source, de la",Public,1350,120e rue shawinigan,Shawinigan,QC,G9P3K9
a7021baa617448b562ae,"Val-Mauricie, secondaire",Public,1200,rue de val-mauricie,Shawinigan,QC,G9P2L9
a8fed1adb4942202928c,Saint-Joseph,Public,1452,rue châteauguay,Shawinigan,QC,G9N5C4
c176f027c408e647d7be,"Rocher, secondaire du",Public,300,7e rue shawinigan,Shawinigan,QC,G9T4M7
c59f0e2aefb9798c6ca8,Le Séminaire Sainte-Marie,Installation,5655,boulevard des hêtres,Shawinigan,QC,G9N4V9
ccde67130256502afb6a,Jacques-Cartier,Public,971,chemin des dubois,Shawinigan,QC,G0X1L0
d5f148333f969d98c437,Laflèche,Public,1321,5e avenue,Shawinigan,QC,G9T2N6
dc95f83fa03ca631b8d5,Centre administratif,Public,2072,rue gignac,Shawinigan,QC,G9N3X2
f5a36ee5a51c4460dec8,"Chutes, secondaire des",Public,5285,avenue albert-tessier,Shawinigan,QC,G9N7A3
f666e3aec632d1df51a5,Immaculée-Conception,Public,153,8e rue de la pointe,Shawinigan,QC,G9N1B5
f745627f9ea1a74e2d39,Notre-Dame (Lac),Public,881,route de lac-à-la-tortue,Shawinigan,QC,G0X1L0
f8e0ac90a28d68e969a1,Dominique-Savio,Public,470,207e avenue,Shawinigan,QC,G9T3M1
