Index,Facility_Name,Facility_Type,Street_No,Street_Name,City,Prov_Terr,Postal_Code
caed6ffd44b319bebecb,École Val Marie inc.,Installation,88,chemin du passage,Trois-Rivières,QC,G8T2M3
cd76a0f553fdac253b33,Collège Marie-de-l'Incarnation,Installation,725,rue hart,Trois-Rivières,QC,G9A4R9
ce8c20a956e24a0847be,"éducation internationale, secteur est",Public,175,rue saint-alphonse,Trois-Rivières,QC,G8T7R8
d61a248f24ff316ecc97,Monseigneur-Comtois,Public,655,rue pintal,Trois-Rivières,QC,G8T7G2
d8ede66b9f32fb430d96,Séminaire Saint-Joseph de Trois-Rivières,Installation,858,boul laviolette,Trois-Rivières,QC,G9A5S3
e044626752208dc17756,Notre-Dame-des-Prairies,Public,877,boulevard thibeau,Trois-Rivières,QC,G8T7A9
e331218e9210cbb38d94,Saint-Paul,Public,946,rue saint-paul,Trois-Rivières,QC,G9A1J3
e3f95fb66132a3262ae4,Sainte-Catherine-de-Sienne,Public,182,rue de sienne,Trois-Rivières,QC,G9A2Z4
e463f1f2e905b72d1f96,Centre administratif,Public,1515,rue sainte-marguerite,Trois-Rivières,QC,G8Z1W2
e861c43f7b9e3ed92c10,"Pionniers, secondaire des",Public,1725,boulevard du carmel,Trois-Rivières,QC,G8Z3R8
e89f9128f44d091a296e,Sainte-Madeleine,Public,445,boulevard ste-madeleine,Trois-Rivières,QC,G8T3N5
ea689ad714fc174039e4,Cardinal-Roy,Public,4100,boulevard des forges,Trois-Rivières,QC,G8Y1V7
ec91c56b6a2e2e96daed,Centre de métallurgie du Québec,Centre collégial de transfert de technologie,3095,rue westinghouse parc industriel des hautes forges,Trois-Rivières,QC,G9A5E1
ecb08d7114e720796153,Saint-François-d'Assise,Public,636,rue sainte-catherine,Trois-Rivières,QC,G9A3L5
eeedca473f6f090257f1,Saint-Pie-X,Public,720,boulevard des récollets,Trois-Rivières,QC,G8Z3W1
f0f5de93e1cfcd707ffc,École Nationale de l'Horlogerie,Miscellaneous,946,rue st paul,Trois Rivieres,QC,G9A1J3
f21cfd2f58ecea5a70cc,"Envolée, de l'",Public,420,rue du menuisier,Trois-Rivières,QC,G8T6N5
f7b7afbf33ee48e60be3,Académie de Trois-Rivières,Public,1875,rue nicolas-perrot,Trois-Rivières,QC,G9A1C5
f7f995dce48686a56810,"École trilingue Vision Trois-Rivières, campus préscolaire",Installation,3200,rue marguerite-seigneuret,Trois-Rivières,QC,G9B0M5
f8e4381a28522f84cbac,Richelieu,Public,5405,rue courcelette,Trois-Rivières,QC,G8Y3V2
f95dcdfa00272d79de9f,"Mauricie, primaire anglophone de la",Public,1241,rue nicolas perrot,Trois-Rivières,QC,G9A1C2
