Index,Facility_Name,Facility_Type,Street_No,Street_Name,City,Prov_Terr,Postal_Code
026278430fff75670fc9,Conservatoire de musique de Trois-Rivières,École gouvernementale,587,rue radisson,Trois-Rivières,QC,G9A2C8
06996f1b928b218aaab8,"Fonderie, de",Public,3245,rue foucher,Trois-Rivières,QC,G8Z1M6
137ada5d2174b6576dfb,"École trilingue Vision Trois-Rivières, campus primaire",Installation,3550,rue marguerite-seigneuret,Trois-Rivières,QC,G9B0M5
15aa980b4ca6c8b8296f,"Voltige, de la",Public,15,rue thuney,Trois-Rivières,QC,G8T2N7
1b5274d845dd88dfa5db,"Forges, des",Public,2750,boulevard des forges,Trois-Rivières,QC,G8Z1V2
1cb49364586f4204c3eb,"musique Jacques-Hétu, de",Public,775,rue berlinguet,Trois-Rivières,QC,G8T2H1
1e2cbfccf169bcb21231,Saint-Dominique,Public,484,côte richelieu,Trois-Rivières,QC,G9A2Z1
1ea97106d102158487ec,Dollard,Public,100,rue saint-irénée,Trois-Rivières,QC,G8T7C4
1f48e1d0d472ebbc0063,Collège de l'Horizon,Public,275,rue montplaisir,Trois-Rivières,QC,G8T2Z9
2185bb68bb3251c66653,Centre collégial de transfert de technologie en télécommunications,Centre collégial de transfert de technologie,1300,place du technoparc,Trois-Rivières,QC,G9A0A9
2583452c2edd03d8825e,CF continue du Chemin-du-Roy,Public,41,rue bellerive,Trois-Rivières,QC,G8T6J4
2a53b5669e054d679387,Marguerite-Bourgeois,Public,6021,chemin walter-dupont,Trois-Rivières,QC,G8Z4C9
2c01806b7aca4882a722,Collège Laflèche,Installation collège privé,3300,chemin de l¿aéroport,Trois-Rivières,QC,G9A5E1
3911ad1276cb182ea375,"automobile, de l'",Public,1980,rue paul lemoyne,Trois-Rivières,QC,G8Z2W2
3b14d2c6a83a31283a21,DLS,Public,3750,rue jean bourdon,Trois-Rivières,QC,G8Y2A5
452c39b9b9c83733f02d,College Lafleche,Private Institution,1687,blvd du carmel,Trois-Rivieres,QC,G8Z3R8
4ad79f40ace62231eea1,Notre-Dame-du-Rosaire,Public,7660,rue notre-dame ouest,Trois-Rivières,QC,G9B1L9
4f139eb578191d0f712c,Marie-Leneuf,Public,650,boulevard des récollets,Trois-Rivières,QC,G8Z3V7
50ba6fdc777b7203cb1e,Louis-de-France,Public,881,rue louis-de-france,Trois-Rivières,QC,G8T1A5
50c340c755bef20ce5d8,"Terrière, De La",Public,1305,rue de la terrière,Trois-Rivières,QC,G8Z3J7
5402d32b387b621f934d,Centre de Formation Professionnelle (C.F.P.) Bel Avenir,Junior College,1725,boul du carmel,Trois-Rivieres,QC,G8Z3R8
59e0cdda6ce9fd0c268b,Sacré-Coeur,Public,245,boulevard loranger,Trois-Rivières,QC,G8T3V2
5a2701ab48ad09d0cd68,Saint-Philippe,Public,481,rue bureau,Trois-Rivières,QC,G9A2M9
642441186464b4892478,Service de garde - La Cabriole,Public,186,rue de sienne,Trois-Rivières,QC,G9A2Z5
6b852a1c05d5535b1ce4,Saint-Michel,Public,10195,boulevard des forges,Trois-Rivières,QC,G9C1B2
6cdc01efd3984d61da97,Jacques-Buteux,Public,555,boul maurice-l-duplessis,Trois-Rivières,QC,G8Y1H7
6db161fe97a95e3b4391,College de Trois-Rivieres (Cegep),Junior College,3500,rue de courval,Trois-Rivieres,QC,G9A5E6
71a187df5bb3319e30d0,"Bois-Joli, du",Public,3685,rue de la rochelle,Trois-Rivières,QC,G8Y5N7
725a9ccb21e32e7d3f62,"Marguerite-D'Youville, du préscolaire",Public,7420,boulevard des forges,Trois-Rivières,QC,G8Y1Y9
7ab3a7e234c6aa3243a8,Sainte-Thérèse,Public,1405,11e rue trois-rivières,Trois-Rivières,QC,G8Y2Z6
7ac9d41493c633c07617,Beau-Soleil,Public,101,rue elisabeth-guay,Trois-Rivières,QC,G9B7Z4
8017148b99b2038ebb4d,Saint-Sacrement,Public,1745,boulevard saint-louis,Trois-Rivières,QC,G8Z2N6
84f56e5aff68c7afc941,Curé-Chamberland,Public,3005,rue arthur-guimont,Trois-Rivières,QC,G8Z2K2
852da51c665b603f9f49,Notre-Dame,Public,10830,chemin ste-marguerite,Trois-Rivières,QC,G9B6N7
85bd100edbac67166bb4,"alimentation et d'hôtellerie, d'",Public,1905,boulevard saint-louis,Trois-Rivières,QC,G8Z2N7
8caa86a59805db4dd450,"Boisé-des-Pins, du",Public,125,rue saint-émile,Trois-Rivières,QC,G8T7P6
8cc8839564a01de07675,Cégep de Trois-Rivières,Cégep,3500,rue de courval,Trois-Rivières,QC,G9A5E6
8d3a6c7cb5a6b6981430,Innofibre - Centre d'innovation des produits cellulosiques,Centre collégial de transfert de technologie,3351,boulevard des forges,Trois-Rivières,QC,G9A5H7
96e65d25dad71de7b7b9,CFP Qualitech,Public,500,rue des érables,Trois-Rivières,QC,G8T5J1
999b0684377ddf2fddbc,Maurice-Poulin,Public,10315,boulevard des forges,Trois-Rivières,QC,G9C1B4
9d94e0c1e0547280e842,Chavigny,Public,365,rue chavigny,Trois-Rivières,QC,G9B1A7
a0b06e7adcfaaf10f209,"ébénisterie, d'",Public,185,rue dessureault,Trois-Rivières,QC,G8T2L7
a358d4c3f577753e4674,Avenues-Nouvelles,Public,60,rue jean-noël trudel,Trois-Rivières,QC,G8T5W3
a429077f9c608ce7f139,"Sports, des",Public,280,rue montplaisir,Trois-Rivières,QC,G8T3A1
b12b6a67e99ddcf27af6,École Montessori de la Mauricie,Installation,6400,rue marion,Trois-Rivières,QC,G9A6H3
b855b8c7264dbf679cc9,Institut secondaire Keranna,Installation,6205,boulevard des chenaux,Trois-Rivières,QC,G8Y6Z1
ba4130c31805698a1045,Sainte-Bernadette,Public,730,rue guilbert,Trois-Rivières,QC,G8T5T6
be74e4c7013f1b4bcd63,"P'tit-Bonheur, le",Public,7625,rue lamy,Trois-Rivières,QC,G8Y4A8
c0f5947c30c20c6800d3,"Collège Ellis, campus de Trois-Rivières",Collège privé,90,rue dorval,Trois-Rivières,QC,G8T5X7
