Index,Facility_Name,Facility_Type,Street_No,Street_Name,City,Prov_Terr,Postal_Code
025823e365fd40abe780,"Académie internationale Zig Zag, Campus primaire, section anglaise",Installation,27,rue laurier ouest,Victoriaville,QC,G6P6P4
0e78762e75e52997255a,Monseigneur-Grenier,Public,20,avenue des plaines,Victoriaville,QC,G6P2C7
160ede7357e3e71b951c,Notre-Dame-de-l'Assomption,Public,14,rue champlain,Victoriaville,QC,G6P1W2
1b78c903411867e1caf3,Centre Monseigneur-Côté,Public,38,rue laurier ouest,Victoriaville,QC,G6P6P3
24b007b27eeec4a49f8e,Saint-David,Public,155,rue olivier,Victoriaville,QC,G6P5G8
2677e8f20d7f393ebec6,École Trilingue Vision Victoriaville - Maternelle,Installation,905,boulevard des bois-francs sud,Victoriaville,QC,G6P5W1
3affeb3b6305cf5518fb,École Trilingue Vision Victoriaville,Installation,905,boulevard des bois-francs sud,Victoriaville,QC,G6P5W1
47c164dd025ec2c5b21d,Le manège,Public,110,rue du manège,Victoriaville,QC,G6P9H4
4dbe182444598635dd84,Centre d'innovation sociale en agriculture,Centre collégial de transfert de technologie,475,rue notre-dame est,Victoriaville,QC,G6P4B3
5d99fd6fb385177129d3,"Tandem (Albert-Morissette), secondaire Le",Public,20,rue de l'ermitage,Victoriaville,QC,G6P1J5
61276d77c6f7f512e64c,Saint-Christophe,Public,660,boul des bois-francs sud,Victoriaville,QC,G6P5W9
659e35a7fdae01b2072c,CFER,Public,605,rue notre-dame est,Victoriaville,QC,G6P6Y9
6f43a9e8c65be89c71c4,CFP Le Trécarré,Public,605,rue notre-dame est,Victoriaville,QC,G6P6Y9
6f67c55be5187791adda,Pie-X,Public,30,avenue sainte-victoire,Victoriaville,QC,G6P2M9
76c6d4e0312ea85455e6,La Myriade J.-P.-H.-Massicotte,Public,57,rue monfette,Victoriaville,QC,G6P1J8
812e19b0f5ffb8fb505a,Monseigneur-Milot,Public,60,rue piché,Victoriaville,QC,G6P4P3
83a186f1d66caa1afdfd,La ribambelle Wilfrid-Labbé,Public,28,rue st-augustin,Victoriaville,QC,G6P3K7
8904b4148f7bbce02813,"Le boisé, secondaire",Public,605,rue notre-dame est,Victoriaville,QC,G6P6Y9
8ae4b958e06670351af8,École nationale du meuble et de l'ébénisterie,Centre d'enseignement,765,rue notre-dame est,Victoriaville,QC,G6P4B2
8ce5e89bfa6abc32791e,Saint-Gabriel-Lalemant (Église),Public,45,boulevard justras est,Victoriaville,QC,G6P4K6
8f23af7365275f90b162,École Nationale du meuble et de l'ébénisterie,École gouvernementale,765,rue notre-dame est,Victoriaville,QC,G6P4B3
92cbc84ce7d9f16d5779,Notre-Dame-des-Bois-Francs,Public,82,rue du curé-suzor,Victoriaville,QC,G6P6M8
9a007d10496c47ee1865,Centre administratif,Public,40,boul des bois-francs nord,Victoriaville,QC,G6P6S5
a01f669ebdea20a1dc12,"Académie internationale Zig Zag, Campus préscolaire",Installation,153,rue saint-jean-baptiste,Victoriaville,QC,G6P4G2
a6b3ad12ec8e25443f0a,Sainte-Marguerite-Bourgeoys,Public,65,rue de versailles,Victoriaville,QC,G6P1A4
abf7116649b0f8def074,Saint-Gabriel-Lalemant,Public,5,rue habel,Victoriaville,QC,G6P4M2
ac4b1185adb23f88392a,"Académie internationale Zig Zag, Campus primaire, section française",Installation,27,rue laurier ouest,Victoriaville,QC,G6P6P4
b5e33eae52ef42582c81,Sainte-Famille,Public,6,rue paré,Victoriaville,QC,G6P2X6
bc350a011e9ed9dac4cf,Cégep de Victoriaville,Cégep,475,rue notre-dame est,Victoriaville,QC,G6P4B3
d169866c8daaa89ec82e,INOVEM,Centre collégial de transfert de technologie,765,rue notre-dame est,Victoriaville,QC,G6P4B2
e9ce2ff4177392a0f0db,Collège Clarétain de Victoriaville,Installation,663,rue gamache,Victoriaville,QC,G6R0W3
eeebd1804696d24068b9,College de Victoriaville-,Junior College,475,notre-dame est,Victoriaville,QC,G6P4B3
