Index,Facility_Name,Facility_Type,Street_No,Street_Name,City,Prov_Terr,Postal_Code
baf753bc2767ba4f3f8c,Assomption,Public,576,rue saint-michel,Sherbrooke,QC,J1E2L3
bb6f56c3d0d0fc9dd8a2,"Quatre-Vents, pavillon Saint-Joseph",Public,510,rue union,Sherbrooke,QC,J1H2X3
befc8fccdf7828315558,"Saint-François, pavillon",Public,825,rue bowen sud,Sherbrooke,QC,J1G2G2
bf4caefa5a69158b138a,La Samare,Public,3000,rue du chalumeau,Sherbrooke,QC,J1G5E9
c14323d4200e9855e430,"Boisjoli, du",Public,6403,rue kennedy sud,Sherbrooke,QC,J1N2P5
c55f390006e926d3c1e1,Séminaire de Sherbrooke,Collège privé,195,rue marquette,Sherbrooke,QC,J1H1L6
c5e7618feb91448245ab,Atelier,Public,1025,rue chalifoux,Sherbrooke,QC,J1G1S4
c90fab06b9d72f4a5714,Productique Québec inc.,Centre collégial de transfert de technologie,720,rue longpré,Sherbrooke,QC,J1G4L3
d3148d0e6842dd42455a,Université de Sherbrooke,Université,2500,boulevard de l'université,Sherbrooke,QC,J1K2R1
d4b69688a82f582c60d9,Adult Education Center (Sherbrooke),Public,2365,rue galt ouest,Sherbrooke,QC,J1K1L1
d555b99184f9e8460382,Séminaire de Sherbrooke,Installation collège privé,155,rue belvédère nord,Sherbrooke,QC,J1H4A7
d6aa437bbf824ef4b5a1,"Le Ber, pavillon",Public,940,rue sainte-famille,Sherbrooke,QC,J1E1V1
dba0e9caf257ef7de070,CEGEP de Sherbrooke,Junior College,475,rue du cegep,Sherbrooke,QC,J1E4K1
dffff78d498a8251b392,"Phare, du",Public,405,rue sara sherbrooke j1h5s6,Sherbrooke,QC,J1H5S6
e08aa9487873370ee755,Hélène Boullé,Public,1500,rue pinard,Sherbrooke,QC,J1J3E1
e08bb9944c6548fad90f,Université Bishop's,Université,2600,rue du collège,Sherbrooke,QC,J1M1Z7
e63b5c32e7a471962c3c,"Vieux-Sherbrooke, pavillon du",Public,164,rue wellington nord,Sherbrooke,QC,J1H5C5
e8b1197078cd703f2eea,Universite de Sherbrooke,University,2500,boul. de l'universite,Sherbrooke,QC,J1K2R1
ea442b315b8a8d558d1f,"Boisé-Fabi, du",Public,700,rue andré-mathieu,Sherbrooke,QC,J1N0Z9
ed7679afd9337b1dc87a,Sainte-Famille,Public,233,8e avenue nord,Sherbrooke,QC,J1E2S6
ef684603bda279f67463,"Collège de comptabilité et de secrétariat du Québec, campus de Sherbrooke inc.",Installation,37,rue wellington nord,Sherbrooke,QC,J1H5A9
f0c9f78b013e4d25be25,"Croisée, de la",Public,1805,rue luce-dufresne,Sherbrooke,QC,J1R0W9
f354e351cb45489130f8,Édifice Bowen,Public,895,rue bowen sud,Sherbrooke,QC,J1G2G3
f4236f19f9fdaca51bd8,Bishop's University,University,2600,college street,Sherbrooke,QC,J1M1Z7
f508e17098a7c96d217b,CDE Collège (secteur anglophone),Installation collège privé,37,rue wellington nord,Sherbrooke,QC,J1H5A9
f8f1e55ded47974da5af,Sylvestre,Public,1020,rue kingston sherbrooke j1h3s1,Sherbrooke,QC,J1H3S1
fa0cd7ca2daabbc9ab39,"Mitchell, pavillon",Public,955,rue cambridge sherbrooke j1h1e2,Sherbrooke,QC,J1H1E2
fd1aa1c7ad2f4b42c905,CDE Collège,Collège privé,37,rue wellington nord,Sherbrooke,QC,J1H5A9
fe840e42138318d7c319,Eymard,Public,255,rue kennedy nord,Sherbrooke,QC,J1E2E8
