Index,Facility_Name,Facility_Type,Street_No,Street_Name,City,Prov_Terr,Postal_Code
01a2c9183e420e94d932,"Maisonnée, de la",Public,1500,boulevard mi-vallon,Sherbrooke,QC,J1N3Y5
0bca62f6a10524c4e35e,Champlain,Public,2985,rue galt ouest,Sherbrooke,QC,J1K1M3
0d64d08d5d827eaa54b9,"Touret, du",Public,4076,boulevard,Sherbrooke,QC,J1N2Y1
0d678a121bc856e0dbcf,Centre De Formation Professionnelle Lennoxville Vocational Training Centre,Technical and Vocational,1700,rue college,Sherbrooke,QC,J1M0C8
11c9abc89be36d25ec7a,Notre-Dame-du-Rosaire,Public,1625,rue du rosaire,Sherbrooke,QC,J1H2T6
1a2e7609653bc8bae5af,Le Salésien,Installation,135,rue don bosco nord,Sherbrooke,QC,J1L1E5
1aa3bd7bcecc02436802,"Montcalm, pavillon",Public,2050,boulevard,Sherbrooke,QC,J1J1T9
1b60e273648d5bec046e,Sherbrooke,Public,242,rue ontario,Sherbrooke,QC,J1J3R1
2063b96fc51add44f7ca,Mont Notre-Dame,Installation,114,rue de la cathédrale,Sherbrooke,QC,J1H4M1
259419eceb9de030b647,Marie-Immaculée,Public,81,rue du curé-larocque,Sherbrooke,QC,J1C0T2
270a897ee01bf1e8f8c5,Collège du Mont-Sainte-Anne,Installation,2100,chemin sainte-catherine,Sherbrooke,QC,J1N3V5
29a0dbf619d984efe494,"Quatre-Vents, pavillon Bussière",Public,1208,rue belvédère sud,Sherbrooke,QC,J1H4C7
2e21f38414c770643c8c,"Saint-Esprit, du",Public,2425,rue galt ouest,Sherbrooke,QC,J1K1L1
3330988528c009d67478,Notre-Dame-de-Liesse,Public,7409,boulevard bourque,Sherbrooke,QC,J1N3K7
336458bba76c1b505729,Desranleau,Public,1970,rue galt est,Sherbrooke,QC,J1G3J1
3d05aa56d677be5575e1,Centre du Goéland,Public,90,rue ontario,Sherbrooke,QC,J1J3P9
4475298fb61fcfd36047,"Aventuriers, des",Public,78,rue du cardinal,Sherbrooke,QC,J1R0M1
46a4da559f85836e5c7d,Alexander Galt Regional,Public,1700,collège street,Sherbrooke,QC,J1M0C8
4de448f93a593c587d7d,Carillon,Public,43,rue carillon,Sherbrooke,QC,J1J2K9
543251f93439a9d9e77d,Desjardins,Public,1080,rue jardins-fleuris,Sherbrooke,QC,J1E1J7
5539a052125425508742,Séminaire de Sherbrooke,Installation,195,rue marquette,Sherbrooke,QC,J1H1L6
570ac4c259c251be798a,Beaulieu,Public,4565,rue chambois,Sherbrooke,QC,J1N2B7
5ff5bc0402aa7caad0cd,Coeur-Immaculé,Public,330,15e avenue sud,Sherbrooke,QC,J1G2X5
5ff948e50d282183e527,Champlain Regional College - Campus Lennoxville,Campus collégial,2580,rue collège,Sherbrooke,QC,J1M2K3
60f4789ec9735820bc4b,"Sacré-Coeur, du",Public,137,rue gillepsie,Sherbrooke,QC,J1H4W9
665a038f9286b9049fa0,Bishop's College School,Installation,80,chemin moulton hill,Sherbrooke,QC,J1M1Z8
6b6b8061b5845579cb9c,"Soleil-Levant, du",Public,830,rue buck sherbrooke j1j3l5,Sherbrooke,QC,J1J3L5
7171363431a8eb4560bf,LaRocque,Public,910,rue larocque,Sherbrooke,QC,J1H4R6
743a6a5f17e209cc949e,Jean XXIII,Public,875,chemin thibault,Sherbrooke,QC,J1H3B3
78071c9ffc2fcec89adf,Lennoxville,Public,1,rue academy sherbrooke j1m2a6,Sherbrooke,QC,J1M2A6
7a04b9fd1ba968a50523,École Vision Sherbrooke,Installation,5100,rue henri-labonne,Sherbrooke,QC,J1N1J1
811ce0ef9f8f0b6f58f0,Pie X,Public,565,rue triest,Sherbrooke,QC,J1E2M7
83a7546f392936019762,Centre de Formation Professionnelle de 24 Juin,Private Institution,2955,boulevard de luniversite,Sherbrooke,QC,J1K2Y3
88925a8ec38891cb3f16,"Triolet, pavillon 1, du",Public,2965,boulevard,Sherbrooke,QC,J1K2X6
8efa2291b37ffb17c636,CFP 24-Juin,Public,639,rue vingt-quatre juin,Sherbrooke,QC,J1E1H1
8f1f5fc5d00c49e98010,Saint-Antoine,Public,16,rue church sherbrooke j1m1s9,Sherbrooke,QC,J1M1S9
8f30175cdd7acf423641,Centre Saint-Michel,Public,135,rue king ouest,Sherbrooke,QC,J1H1P4
a038f9b8fb964ec4e925,Champlain Regional College,Entité juridique,1301,boulevard,Sherbrooke,QC,J1J1S2
a17babd20d95c8e9f624,École Plein Soleil (Association coopérative),Installation,355,rue du chardonnay,Sherbrooke,QC,J1L0J3
a41dcce391c12bafba10,Brébeuf,Public,1875,rue albert-skinner,Sherbrooke,QC,J1J1W8
a86bdbfbeac1124fae55,École La Source,Installation,1399,rue campbell sherbrooke j1m0c1,Sherbrooke,QC,J1M0C1
a9819fb104a12feb590d,Sainte-Anne,Public,851,rue ontario,Sherbrooke,QC,J1J3R9
ab21b16a7a7753fc7751,Laporte,Public,655,rue papineau,Sherbrooke,QC,J1E1Y6
ab9a7a3d146c2131f79c,Marie Reine,Public,976,rue caen,Sherbrooke,QC,J1G2A4
b4ae1c68bfd5cb07db57,Champlain College Lennoxville,Junior College,2580,college street,Sherbrooke,QC,J1M0C8
b590be1c4541c1664843,École Anglissimo,Installation,2796,rue prospect,Sherbrooke,QC,J1L3A9
b5bc6cfec6868bf30a3e,Académie Sacré-Coeur,Public,26,rue de la croix,Sherbrooke,QC,J1C0M3
b7b8bfee60a9ae94d56b,Alfred-DesRochers,Public,7282,chemin de saint-elie,Sherbrooke,QC,J1R0K5
b841e4c1e27b26610453,"Triolet, pavillons 2 et 3, du",Public,2965,boulevard,Sherbrooke,QC,J1K2X6
