Index,Facility_Name,Facility_Type,Street_No,Street_Name,City,Prov_Terr,Postal_Code
20bac539e739828338b2,Pavillon Saint-Marc,Public,673,rue cabana granby j2g1r3,Granby,QC,J2G1R3
21e0211d310d0a21a687,Saint-Bernard,Public,74,rue glen granby j2g4k4,Granby,QC,J2G4K4
3d6d69170dc2aeb3abaf,"Bâtisseurs, des",Public,1199,rue simonds sud,Granby,QC,J2G0B3
61125cc239d2b538c541,Saint-Joseph,Public,254,rue laurier,Granby,QC,J2G5K8
6a3815e437a577f49def,Parkview,Public,50,avenue lorne granby j2g4w2,Granby,QC,J2G4W2
6ff064439902c5de4bda,Sainte-Famille,Public,100,rue dufferin,Granby,QC,J2G4W9
7e4390738a496fd913cb,Église-École Alpha Oméga,Installation,324,rue denison ouest,Granby,QC,J2G4E4
827f4bc2302fa8e5cc7b,Pavillon Saint-Luc,Public,250,rue desjardins,Granby,QC,J2G6J1
86a965c8e61a57cbc68a,Ave-Maria,Public,475,rue saint-vincent,Granby,QC,J2G9B2
8d029459a4bfa6a594fb,Pavillon Sainte-Marie,Public,90,rue laval sud,Granby,QC,J2G7G7
90495a77c3f251c7ae42,CRIF,Public,700,rue denison ouest,Granby,QC,J2G4G3
958803f2f6f038da94a6,Saint-Jean,Public,52,boulevard leclerc est granby j2g1s6,Granby,QC,J2G1S6
a51bff4674a141c70d38,Joseph-Hermas-Leclerc,Public,1111,rue simonds sud,Granby,QC,J2G7Z7
a591a9f9f220e3d45ec2,Joseph-Poitevin,Public,831,rue saint-hubert,Granby,QC,J2H2K7
a8785e5e5ad4e52c6847,Centre administratif,Public,55,rue court,Granby,QC,J2G9N6
ab7db66891619232ec27,Pavillon Saint-Benoît,Public,384,rue york granby j2g2e1,Granby,QC,J2G2E1
b487a8fe249f939c8110,Pavillon Saint-Eugène,Public,460,rue notre-dame,Granby,QC,J2G3L8
bb0584deb8357f47b0f7,Collège Mont-Sacré-Coeur,Installation,210,rue denison est granby j2h2r6,Granby,QC,J2H2R6
c336a1e59513b5c2e1eb,"Haute-Ville, de la",Public,150,rue lansdowne granby j2g4p4,Granby,QC,J2G4P4
c4546cd9ce89ff5e83c0,École secondaire du verbe divin inc.,Installation,c.p. 786,granby j2g8w8,Granby,QC,J2G8W8
c6e52a24da1b212c7bce,"Assomption, de l'",Public,161,rue albert granby j2g7c8,Granby,QC,J2G7C8
d7d922d26356a501b5c0,Eurêka,Public,220,rue yvan-duquette,Granby,QC,J2H0Y9
f5c8c63de58cdc96fce3,Cégep de Granby,Cégep,235,rue saint-jacques,Granby,QC,J2G3N1
faf0ce7708b977d58ae4,"Envolée, l'",Public,549,rue fournier,Granby,QC,J2J2K5
fe18ecaffdb958ab5ae8,Saint-André,Public,415,rue calixa-lavallée granby j2g1c4,Granby,QC,J2G1C4
