Index,Facility_Name,Facility_Type,Street_No,Street_Name,City,Prov_Terr,Postal_Code
01c37e468d2310b2e17b,Collège Saint-Bernard,Installation,25,avenue des frères drummondville,Drummondville,QC,J2B6A2
01fc350a0c2c1f202c28,Jean-Raimbault,Public,175,rue pelletier,Drummondville,QC,J2C2W1
04cde335675285427e75,Collège Select Aviation / Select Aviation College,Collège privé,4789,boulevard allard,Drummondville,QC,J2A2R8
07a7d3c9ea528ab15738,Sainte-Marie,Public,100,13e avenue,Drummondville,QC,J2B2Z9
1137d61db9b0e0a6b622,Pavillon Saint-Édouard,Public,211,rue saint-édouard,Drummondville,QC,J2B6C4
15a3910890fe7ee2f050,Saint-Étienne,Public,720,rue de laval,Drummondville,QC,J2B4C6
219e90a72cc91f025ad5,Saint-Charles,Public,1030,rue létourneau,Drummondville,QC,J2C4W1
244ad3ec602c83790bab,Duvernay,Public,1355,rue duvernay,Drummondville,QC,J2B2R8
25cdd108c33b62791f01,Frédéric-Tétreau,Public,59,avenue des saules,Drummondville,QC,J2C3N2
2723bd27d23dadf9c961,Centre collégial d'expertise en gérontologie,Centre collégial de transfert de technologie,960,rue saint-georges,Drummondville,QC,J2C6A2
3070a87aeebb4febb35f,Bruyère,Public,850,rue florette-lavigne,Drummondville,QC,J2C4X1
34e8eef8f3c945e28480,Christ-Roi,Public,1910,boulevard mercure,Drummondville,QC,J2B3P1
43458dd75b8282c2decc,Mayrand,Public,500,rue hériot,Drummondville,QC,J2B1B5
4387cd4dc72b2bda4332,Saint-Pierre,Public,690,rue saint-pierre,Drummondville,QC,J2C3W5
46025b7fe5f6ac7c0b96,École du Routier R.C.,Installation,2150,rue andré-c-hamel,Drummondville,QC,J2C8B1
46da7bcab7b184ba1549,Cégep de Drummondville,Cégep,960,rue saint-georges,Drummondville,QC,J2C6A2
477bc607c54595fa71ed,Saint-Louis-de-Gonzague,Public,269,rue ringuet,Drummondville,QC,J2C2R1
5128df12f8a3cdab7662,Immaculée-Conception,Public,155,rue saint-félix,Drummondville,QC,J2C1N1
54335eb51d37057c2be9,Polyvalente Marie-Rivier,Public,265,rue saint-félix,Drummondville,QC,J2C5M1
5e419181fed833358dc6,Collège Select Aviation / Select Aviation College (secteur anglophone),Installation collège privé,4789,boulevard allard,Drummondville,QC,J2A2R8
6516d09caaf4c6d47fd8,Collège Ellis,Collège privé,235,rue moisan,Drummondville,QC,J2C1W9
6ba211ab6d41c0cb770d,Saint-Joseph,Public,180,rue saint-albert,Drummondville,QC,J2B2A9
6f73a2063c5dc10f33f7,Collège Saint-Nicéphore,Public,2065,route 139,Drummondville,QC,J2A2G2
770eb1142d2e15f92683,Paul-Rousseau,Public,125,rue ringuet,Drummondville,QC,J2C2P7
79f7d6984f6c71a4d1e4,College de Drummondville (Cegep),Junior College,960,rue saint-georges,Drummondville,QC,J2C6A2
7e58c9dffa594fd9cbb0,Notre-Dame-du-Rosaire,Public,154,18e avenue,Drummondville,QC,J2B3T3
8838ea8365a678c31d19,Saint-Pie-X,Public,227,rue ringuet,Drummondville,QC,J2C2R1
97f3535c673da5848ffc,Academie de Massage Scientifique,Private Institution,1375,rue janelle,Drummondville,QC,J2C3E4
9c03b580d33c2d1b48ca,Jeanne-Mance,Public,45,av des frères-de-la-charité,Drummondville,QC,J2B6A2
b6a9f347c3ef5293c93e,Drummondville,Public,1050,rue chabanel,Drummondville,QC,J2B2J5
b864f3cbad03be2303a3,CFP Paul-Rousseau - Construction,Public,2350,rue demers,Drummondville,QC,J2B0L1
cb9482fc8cfd7f3535a3,"Relais, le",Public,2645,boul lemire,Drummondville,QC,J2B6Y4
cf9f1af07a8cf6b3d040,Centre Marcel-Proulx,Public,415,rue des écoles,Drummondville,QC,J2B1J3
d2b189bb21823f0ed4ac,Saint-Simon,Public,1180,rue saint-thomas,Drummondville,QC,J2B3A9
d3424b68df40b344ee71,"Poudrière, la",Public,1125,boul jean-de-brébeuf,Drummondville,QC,J2B4T5
e10f110de4674982a3a4,"Aquarelle, l'",Public,1140,rue saint-edgar,Drummondville,QC,J2B2V9
e22db3c9b0b69aeb9028,"Quatre-Vents, aux",Public,2700,rue saint-laurent,Drummondville,QC,J2B0P7
e5ad2c382eae625b2fb9,"Orée-des-Bois, à l'",Public,200,rue georges drummondville,Drummondville,QC,J2A2L1
eccefc9870aed5d0fd9a,Sainte-Thérèse,Public,623,rue des écoles,Drummondville,QC,J2B1J6
ef5d230150a30d2736b0,Centre Saint-Frédéric,Public,457,rue des écoles,Drummondville,QC,J2B1J3
f1c69c5f8e379415ace2,"Sentier, du",Public,1225,rue victorin,Drummondville,QC,J2C7Z9
f6a655ae2cd5a67ba416,Saint-Nicéphore,Public,2065,route 139,Drummondville,QC,J2A2G2
