Index,Facility_Name,Facility_Type,Street_No,Street_Name,City,Prov_Terr,Postal_Code
07176f8e3b18019e4dd4,La Petite Académie,Installation,1090,avenue pratte,Saint-Hyacinthe,QC,J2S4B6
0a7552edf7e256cf7daa,Collège Saint-Maurice,Installation,630,rue girouard ouest,Saint-Hyacinthe,QC,J2S2Y3
0a967b6abd13fd12600b,Roméo-Forbes,Public,650,rue desranleau est saint-hyacinthe j2t2l6,Saint-Hyacinthe,QC,J2T2L6
13134c8f92a9c231456e,CFM - Immeuble Laframboise,Public,2475,boulevard laframboise,Saint-Hyacinthe,QC,J2S4Y1
203bd39b88ddbaa3fcc8,Lafontaine,Public,350,avenue sainte-marie,Saint-Hyacinthe,QC,J2S4R3
23fcbedb8a4952b4e462,Immeuble Jacques-Cartier - Saint-Charles-Garnier,Public,2355,rue crevier saint-hyacinthe j2t1s7,Saint-Hyacinthe,QC,J2T1S7
2edb4b2454dac20e107b,Cégep de St-Hyacinthe,Cégep,3000,avenue boullé,Saint-Hyacinthe,QC,J2S1H9
4fca13c5ec8659b0bb12,Polyvalente Hyacinthe-Delorme,Public,2700,avenue t.-d.-bouchard,Saint-Hyacinthe,QC,J2S7G2
51aae83e89c59f7143c7,Groupe CTT inc.,Centre collégial de transfert de technologie,3000,avenue boullé,Saint-Hyacinthe,QC,J2S1H9
5f4ebb5e1e4f12c3018c,Institut de Technologie Agroalimentaire St Hyacinthe,Technical and Vocational,3230,rue sicotte,Saint-Hyacinthe,QC,J2S7B3
74ed0ec51cd3966a7dce,Sainte-Rosalie,Public,5020,rue marquette,Saint-Hyacinthe,QC,J2R2G9
754ac5e058bc421cfd39,Immeuble Casavant,Public,700,boulevard casavant est,Saint-Hyacinthe,QC,J2S7T2
7d5f46b97ded250f24d2,Assomption,Public,1900,rue bernard saint-hyacinthe j2t1g4,Saint-Hyacinthe,QC,J2T1G4
810f7cac42e63c0c1904,René-Saint-Pierre,Public,2255,boulevard laframboise,Saint-Hyacinthe,QC,J2S4X7
86cd0b2f8d539fe483b0,École secondaire Saint-Joseph de Saint-Hyacinthe,Installation,2875,ave bourdages nord,Saint-Hyacinthe,QC,J2S5S3
8d59427e599ef2f6e476,"St-Hyacinthe, professionnelle de",Public,1455,boulevard casavant est,Saint-Hyacinthe,QC,J2S8S8
9fb9abca30093b28b5cb,"Saint-Thomas-d'Aquin, Immeuble I",Public,6525,avenue pinard,Saint-Hyacinthe,QC,J2R1B8
ac1e0d23863ad7087395,Douville,Public,5355,rue joncaire,Saint-Hyacinthe,QC,J2S3X1
aff2add8e4f5c77521cf,Saint-Charles-Garnier,Public,2525,rue crevier saint-hyacinthe j2t1t1,Saint-Hyacinthe,QC,J2T1T1
bba4a23fc2833fda2718,Immeuble Sacré-Coeur,Public,775,rue du sacré-coeur ouest,Saint-Hyacinthe,QC,J2S1V2
ccafce70c8b48d0e8ee7,Immeuble Raymond,Public,2350,rue lafontaine,Saint-Hyacinthe,QC,J2S2N1
cd0473cb511cf3e3f279,"Fadette, secondaire",Public,2250,avenue malhiot,Saint-Hyacinthe,QC,J2S4G2
d9bf084cabe550374dbc,Cintech agroalimentaire,Centre collégial de transfert de technologie,3224,rue sicotte,Saint-Hyacinthe,QC,J2S2M2
e24e3047bde6e28afdc8,Immeuble Samuel-Casavant,Public,700,rue girouard est,Saint-Hyacinthe,QC,J2S2Y2
e2a5a96cb594d07c0647,Immeuble Bois-Joli,Public,700,rue millet,Saint-Hyacinthe,QC,J2S1J5
ea709f906f0aaa4b2338,Larocque,Public,2850,rue notre-dame,Saint-Hyacinthe,QC,J2S2R9
f1274db329eb868787d8,"Saint-Thomas-d'Aquin, Immeuble II",Public,6665,boulevard laframboise,Saint-Hyacinthe,QC,J2R1C9
f82bc305a65555610f36,Saint-Sacrement,Public,2400,rue bourassa,Saint-Hyacinthe,QC,J2S1R8
f839821ce415fd74b407,"Institut de technologie agroalimentaire, campus de Saint-Hyacinthe",École gouvernementale,3230,rue sicotte,Saint-Hyacinthe,QC,J2S7B3
fb1258ab51f377b8ff56,Immeuble Maurice-Jodoin,Public,855,rue saint-pierre ouest,Saint-Hyacinthe,QC,J2T1N7
