Index,Facility_Name,Facility_Type,Street_No,Street_Name,City,Prov_Terr,Postal_Code
02b3f6ea879d25cec5af,École Trilingue Vision St-Jean,Installation,415,rue des colibris,Saint-Jean-sur-Richelieu,QC,J2W0B3
02bc426752f90f63ee8d,"Joséphine-Dandurand, éd. Félix-Gabriel-Marchand",Public,90,rue mackenzie-king,Saint-Jean-sur-Richelieu,QC,J3B5N9
040338ba65626eae9c29,Cegep Saint-Jean-Sur-Richelieu,Junior College,30,boul du seminaire,Saint-Jean-Sur-Richelieu,QC,J3B7B1
05e71010bbbc3d8e895f,Notre-Dame-de-Lourdes,Public,295,6e avenue,Saint-Jean-sur-Richelieu,QC,J2X1R1
11e589948f8be3aa9d33,Polyvalente Marcel-Landry,Public,365,avenue landry,Saint-Jean-sur-Richelieu,QC,J2X2P6
122d302dd2e53f448b66,"Métiers, édifice Laurier, professionnelle des",Public,100,rue laurier,Saint-Jean-sur-Richelieu,QC,J3B2Y5
1e623209491901344f3a,Dr-Alexis-Bouthillier,Public,105,rue jacques-cartier sud,Saint-Jean-sur-Richelieu,QC,J3B6S2
22eae1ea06f65f71fc58,Polyvalente Chanoine-Armand-Racicot,Public,940,boulevard de normandie,Saint-Jean-sur-Richelieu,QC,J3A1A7
353b52639de54b85584c,Pavillon l'Escale,Public,115,rue jacques-cartier sud,Saint-Jean-sur-Richelieu,QC,J3B6S2
395271cb388ca2af774a,Notre-Dame-du-Sacré-Coeur,Public,230,rue laurier,Saint-Jean-sur-Richelieu,QC,J3B6K8
43019d68c27572be7283,Saint-Eugène,Public,201,rue turgeon,Saint-Jean-sur-Richelieu,QC,J3B3Z1
4c49648e34eefbcbe56e,Marie-Derome,Public,995,rue camaraire,Saint-Jean-sur-Richelieu,QC,J3A1X2
4fa0378a3c12e286c27a,"CEA La Relance, édifice Georges-Phaneuf",Public,300,rue phaneuf,Saint-Jean-sur-Richelieu,QC,J3B8E4
50348dfb97ebb8702780,Cégep Saint-Jean-sur-Richelieu (militaire francophone),Centre d'enseignement,15,rue jacques-cartier nord,Saint-Jean-sur-Richelieu,QC,J3B8R8
67d11cc7b438ad91ea6d,École secondaire Marcellin-Champagnat,Installation,14,chemin des patriotes est,Saint-Jean-sur-Richelieu,QC,J2X5P9
6dfa6fccfdc4a4b42cc6,"du Pélican, Édifice Laflamme",Public,975,rue samuel-de-champlain,Saint-Jean-sur-Richelieu,QC,J2X3X4
6dfab0bdefb29d0e78eb,Aux-Quatre-Vents,Public,185,rue saint-gérard,Saint-Jean-sur-Richelieu,QC,J2W2L8
747f7255e10fd2a2c5b1,Centre Saint-Edmond,Public,275,rue frontenac,Saint-Jean-sur-Richelieu,QC,J3B2Z8
791234157d3a6a560cc1,"Joséphine-Dandurand, édifice Beaulieu",Public,135,boul. du séminaire nord,Saint-Jean-sur-Richelieu,QC,J3B5K2
7c4b58d0fcbe434d8617,Sacré-Coeur,Public,375,15e avenue,Saint-Jean-sur-Richelieu,QC,J2X4W6
7caea01243134c19b1a8,"Savanes, édifice Sacré-Coeur, des",Public,335,boulevard saint-luc,Saint-Jean-sur-Richelieu,QC,J2W2A1
acaa61163c03523fa38a,Cégep St-Jean-sur-Richelieu (militaire anglophone),Centre d'enseignement,15,rue jacques-cartier nord,Saint-Jean-sur-Richelieu,QC,J3B8R8
b0608f2dc34c0683f4b3,Saint-Johns,Public,380,rue saint-michel,Saint-Jean-sur-Richelieu,QC,J3B1T4
b348846b22346a76a26c,Marguerite-Bourgeoys,Public,154,rue saint-charles,Saint-Jean-sur-Richelieu,QC,J3B2C6
c0a463754b1b50f4f173,"du Pélican, Édifice Chabanel",Public,976,rue honoré-mercier,Saint-Jean-sur-Richelieu,QC,J2X5A5
c6c8ea9732e1c68bad56,Napoléon-Bourassa,Public,535,rue des vieux-moulins,Saint-Jean-sur-Richelieu,QC,J2Y1A2
cb66e8c2f54795d86704,Saint-Gérard,Public,700,rue dorchester,Saint-Jean-sur-Richelieu,QC,J3B5A8
d46846258098925c06f9,"Prés-Verts, des",Public,1195,rue alexis-lebert,Saint-Jean-sur-Richelieu,QC,J2W2N1
dd5583eabe82d5ff1f58,Hamel,Public,635,rue yvon,Saint-Jean-sur-Richelieu,QC,J2X4H4
de7673c54e09c6e5b044,Bruno-Choquette,Public,275,boulevard gouin,Saint-Jean-sur-Richelieu,QC,J3B3C9
dec3fa0c13f4d576cadd,Joseph-Amédée-Bélanger,Public,151,rue notre-dame,Saint-Jean-sur-Richelieu,QC,J3B6M9
e63d141f058147aec867,"Savanes, édifice Providence, des",Public,207,rue courville,Saint-Jean-sur-Richelieu,QC,J2W2M7
eddb4c863cb1390eec0e,Marie-Rivier,Public,511,rue pierre-caisse,Saint-Jean-sur-Richelieu,QC,J3A1N5
f3f0e33080b824d5fbd7,Saint-Lucien,Public,121,rue lafontaine,Saint-Jean-sur-Richelieu,QC,J3B5E4
f72f3cab68dbb76d6bf7,Notre-Dame-de-Lourdes,Public,800,rue plaza,Saint-Jean-sur-Richelieu,QC,J3B7Z4
