Index,Facility_Name,Facility_Type,Street_No,Street_Name,City,Prov_Terr,Postal_Code
83dc863063a689db0bcd,"Collège Ellis, campus de Trois-Rivières, Longueuil",Installation collège privé,150,place charles-le moyne,Longueuil,QC,J4K0A8
83e808a6af14a75e5dd4,Régionale du Vent-Nouveau,Public,5030,rue orchard,Longueuil,QC,J3Y2G7
844a2cbf2b9628e80767,Terry-Fox,Public,1648,rue langevin,Longueuil,QC,J4T1X7
86cbaa63f65b03fd47ec,"Collège Charles-Lemoyne, Campus Longueuil Saint-Lambert",Installation,901,chemin tiffin,Longueuil,QC,J4P3G6
87c41fa1d6db94302800,Armand-Racicot,Public,965,rue saint-thomas,Longueuil,QC,J4H3B2
8855da9f58c0ec097a1b,"Tournesol, du",Public,2515,rue boulogne,Longueuil,QC,J4L4A3
8a140bd48901fc9c7513,Collège Notre-Dame-de-Lourdes,Installation,845,chemin tiffin,Longueuil,QC,J4P3G5
8cc80fbf1bd1d1f687e0,Collège CDI Administration . Technologie . Santé - Longueuil,Établissement d'enseignement collège privé,1111,rue saint-charles o,Longueuil,QC,J4K5G4
8e012fd28811b6abfa8c,Air Richelieu,Collège privé,5800,route de l'aéroport,Longueuil,QC,J3Y8Y9
8e1fbde2a9f1c8723103,"Internationale GFP, primaire",Public,776,avenue campbell,Longueuil,QC,J4V1Y7
8e7befc069783a4c6d19,"Succès Scolaire, section anglaise",Installation,905,chemin tiffin,Longueuil,QC,J4P3G6
934b6d8505e717389b8d,Hubert-Perron,Public,1100,rue beauregard,Longueuil,QC,J4K2L1
947e17ab521fd2fbbd5e,Cegep Edouard Montpetit,Technical and Vocational,945,ch chambly,Longueuil,QC,J4H3M6
9b2baec3fff7e4180d9f,Marie-Victorin-de-l'Herbier,Public,45,rue hémond,Longueuil,QC,J4G1K2
a0086abfa0f4d5683909,Laurent-Benoît,Public,5905,avenue laurent-benoît,Longueuil,QC,J3Y6H1
a05ccf962da47b3f4daa,Centre technologique en aérospatiale C.T.A.,Centre collégial de transfert de technologie,5555,rue de l'éna,Longueuil,QC,J3Y8Y9
a5a84e753f0b8b1c3200,"Mosaïque, de la",Public,6905,boulevard maricourt,Longueuil,QC,J3Y1T2
a71c14d1e3621d230953,Collège Tec@Art Rive-Sud,Installation collège privé,4405,rue leckie,Longueuil,QC,J3Y9E6
a90732e0c972a05febd5,CAFLS Camille-Laurin,Public,274,rue hubert,Longueuil,QC,J4V1S1
aac101b8e11aab8dbff2,Bel-Essor,Public,1250,chemin du tremblay,Longueuil,QC,J4N1A2
ad7c9739b713ddce136e,"Collège de comptabilité et de secrétariat du Québec, campus de Longueuil inc. formation à distance",Installation,910,boulevard curé-poirier ouest,Longueuil,QC,J4K2C7
b0840398642644bd3354,Centre de formation professionnelle d'électrolyse et d'esthétique,Installation,1428,chemin de chambly,Longueuil,QC,J4J3X3
b12254e02f97f9d4bea4,Collège de pilotage Saint-Hubert,Collège privé,5680,chemin de l'aéroport,Longueuil,QC,J3Y8Y9
b35e110a4a6d50059cd1,Centre administratif,Public,7525,chemin de chambly,Longueuil,QC,J3Y5K2
b67b4743ecdf9a44f019,Adrien-Gamache,Public,2375,rue lavallée,Longueuil,QC,J4L1R5
b896c6d5b5126c849aec,CFP Pierre-Dupuy,Public,1150,chemin du tremblay,Longueuil,QC,J4N1A2
c0755793c98feb6740eb,Maurice-L.-Duplessis,Public,3225,rue windsor,Longueuil,QC,J4T2X3
c0a0db57ee8dc6c88405,Annexe Bourassa,Public,1600,rue bourassa,Longueuil,QC,J4J3A4
c25a37074465244d90d6,CFP et CEA ACCESS - Royal Oak,Public,3555,rue rocheleau,Longueuil,QC,J3Y4T6
c25ee946147b4b110f3e,École hôtelière de la Montérégie,Public,4100,chemin de la savane,Longueuil,QC,J3Y0T8
cb096bff400a844d8e30,"Académie Marie-Laurier, Collège Marie-Laurier",Installation,4405,rue leckie,Longueuil,QC,J3Y9E7
cb6bcd0dd86da7bd0f00,"Régionale Héritage, secondaire",Public,7445,chemin de chambly,Longueuil,QC,J3Y3S3
cb7a56ddb9faf3af697d,Gaétan-Boucher,Public,4850,boulevard westley,Longueuil,QC,J3Y2T4
cbc8f25f73d05c2cfca1,Saint-Jean-Baptiste,Public,700,rue duvernay,Longueuil,QC,J4K4L1
cc70517c5de15c99e7a8,"Petits Explorateurs, des",Public,1711,rue bourassa,Longueuil,QC,J4J3A5
d0d19dd1cd0ad811e18a,Mille-Sports,Public,8370,rue gervais,Longueuil,QC,J3Y7Y9
d3b7dff44c8105f81ea8,Centre d'éducation des adultes 16-18 ans,Public,1940,boulevard marie,Longueuil,QC,J4T2A9
d7c297ad75178b7448f4,Air Richelieu,Installation collège privé,4501,rue bishop,Longueuil,QC,J3Y9E1
d7fdc268b87ddc04d6cb,Saint-Romain,Public,1995,rue bédard,Longueuil,QC,J4N1B4
e2acf02cd09dfa2e3496,"Académie Marie-Laurier, Campus Longueuil",Installation,4410,rue leckie,Longueuil,QC,J3Y9E7
e605ec1912faa8713556,École Marie Gibeau,Installation,1331,rue sainte-hélène,Longueuil,QC,J4K3S4
e6e53b9565f18b6554f6,Centre LeMoyne-D'Iberville,Public,560,rue lemoyne ouest,Longueuil,QC,J4H1X3
e8282fc84fcc94ecd77d,"Collège de comptabilité et de secrétariat du Québec, campus de Longueuil inc.",Installation,910,boulevard curé-poirier ouest,Longueuil,QC,J4K2C7
e8cbca9838edd86d131d,École nationale d'aérotechnique (anglophone),Centre d'enseignement,5555,rue de l'éna,Longueuil,QC,J3Y8Y9
ee0fc2ed2fda70856a40,Édifice Marie-Victorin,Public,13,rue saint-laurent est,Longueuil,QC,J4H4B7
f1b35c3e24ad08aa1518,Jacques-Rousseau,Public,444,rue de gentilly est,Longueuil,QC,J4H3X7
f32d76125aeb67101885,Charles-Le Moyne,Public,2505,rue coderre,Longueuil,QC,J3Y4N6
f35202f083b7f69072f7,Royal Charles,Public,5525,boulevard maricourt,Longueuil,QC,J3Y1S5
f53aeb30feceb370507f,Mgr-A.-M.-Parent,Public,3875,boulevard grande-allée,Longueuil,QC,J4T2V8
