Index,Facility_Name,Facility_Type,Street_No,Street_Name,City,Prov_Terr,Postal_Code
00b49a2479001c6888c6,Christ-Roi,Public,3000,rue dumont,Longueuil,QC,J4L3S9
01ac0e0a5aaab55620ae,"Collège de comptabilité et de secrétariat du Québec, campus Jacques-Cartier inc.",Installation,174,boulevard sainte-foy,Longueuil,QC,J4K1W9
021c3872819601e90391,"Quatre-Saisons, des",Public,1820,rue walnut,Longueuil,QC,J4T1G7
072d4b231e3cc1ee692d,Collège Français primaire,Installation,1391,rue beauregard,Longueuil,QC,J4K2M3
08c1eaa5ff3c8a5e272e,"Régionale Centennial, secondaire",Public,880,rue hudson,Longueuil,QC,J4V1H1
08e2c774f72289e86c69,"Succès Scolaire, section française",Installation,905,chemin tiffin,Longueuil,QC,J4P3G6
0993ddfa0ed08f36bf16,Marie-Victorin-du-Jardin,Public,2190,rue limoges,Longueuil,QC,J4G1E3
0d598c5e9d558be960ae,Lajeunesse,Public,160,rue rené-philippe,Longueuil,QC,J4R2K1
0e6741ed0eaca709e37e,CEA Antoine-Brossard (annexe),Public,1900,rue saint-georges,Longueuil,QC,J4P3J4
0f66072a17ac0971be2d,Joseph-De Sérigny,Public,1000,chemin du lac,Longueuil,QC,J4J1W3
14719d1de0fca3ab09f7,Pierre-Laporte,Public,1005,rue centenaire,Longueuil,QC,J4V1B7
1562710c0f1e591d3c05,"Collège Français, Campus de Longueuil",Installation,1340,boulevard nobert,Longueuil,QC,J4K2P4
1ca634b842aa3c19f228,Collège Ellis,Private Institution,150,place charles le-moyne,Longueuil,QC,J4K0A8
1fbb63377bd22e63c053,Paul-De Maricourt,Public,1275,rue papineau,Longueuil,QC,J4K3K9
1ff0f1730c59fc01db52,"Agora / Tourterelle, de L'",Public,1001,rue du centenaire,Longueuil,QC,J4V1B8
208ea7b466bda68398a3,"Normandie, de",Public,450,rue de normandie,Longueuil,QC,J4H3P4
209f1b0acc37becf30cb,École nationale d'aérotechnique,Centre d'enseignement,5555,rue de l'éna,Longueuil,QC,J3Y8Y9
2423e55257fe5ef58746,Jacques-Ouellette,Public,1240,boulevard nobert,Longueuil,QC,J4K2P4
2b24a6f43534968b129a,"Jardin-Bienville, du",Public,3950,rue emma-collin,Longueuil,QC,J3Y0T4
2e5db5a740df6dc0ce3a,Gentilly,Public,1280,rue beauharnois,Longueuil,QC,J4M1C2
30cf9c93fa7dd989e77f,Saint-Joseph,Public,3855,boulevard grande-allée,Longueuil,QC,J4T2V8
320da96f98f43d0e105e,Les Filles de Sainte-Marie de Leuca,Installation,125,rue coulonge,Longueuil,QC,J4G1H7
33d9a55b6cada48f3091,Centre de développement professionnel,Public,1180,rue saint-édouard,Longueuil,QC,J4K1T2
342b921a35a77dbe533b,Cégep Édouard Montpetit,Cégep,945,chemin de chambly,Longueuil,QC,J4H3M6
34685586952ba35b5a97,CFP Charlotte-Tassé,Public,2101,rue lavallée,Longueuil,QC,J4J4E7
389e64534d1609f340ad,"Mille-Fleurs, des",Public,1600,rue monaco,Longueuil,QC,J3Z1B7
3be0cf29228bcd30d285,Hélicraft,Collège privé,6500,chemin de la savane,Longueuil,QC,J3Y8Y9
3cd36bc0cf1c399ff764,Monseigneur-Forget,Public,1700,rue de gaulle,Longueuil,QC,J4T1M8
44278a15df3633f9c1fa,De Maricourt,Public,3675,rue coderre,Longueuil,QC,J3Y4P4
4638feb2b92029ce8107,Pierre-D'Iberville,Public,897,rue maple,Longueuil,QC,J4J4N3
4869176e96c3e153d238,D'Iberville,Public,5035,rue redmond,Longueuil,QC,J3Y2C5
49b62cd0a5d4b0bb7b25,"Saint-Edmond, secondaire",Public,346,rue hubert,Longueuil,QC,J4V1S2
49f2b23a9f436bb4c50a,Félix-Leclerc,Public,1450,rue de wagram,Longueuil,QC,J4K1G1
4a9ce3a6ab73fe5dc472,Gérard-Filion,Public,1330,boul. curé poirier ouest,Longueuil,QC,J4K2G8
4b17262a1e6cf1456d97,Cargair ltée (secteur anglophone),Installation collège privé,6050,chemin de l'aéroport,Longueuil,QC,J3Y8Y9
4ea3c09f21d7fd9582b1,Académie de l'Entrepreneurship,Collège privé,local 104,longueuil j3y1v1,Longueuil,QC,J3Y1V1
565d61869bc95788b948,"Curé-Lequin, du",Public,653,rue préfontaine,Longueuil,QC,J4K3V8
601a7c79b7945bbaf94b,Paul-Chagnon,Public,5295,chemin de chambly,Longueuil,QC,J3Y3N5
6257c52989bb9f6b8c16,Lionel-Groulx,Public,2725,rue plessis,Longueuil,QC,J4L1S3
66ce819e9f896fa186ad,"Remparts, spécialisée des",Public,2115,rue gamache,Longueuil,QC,J4J4A3
6986433d2993f1cb9ba8,Air Richelieu (secteur anglophone),Installation collège privé,4501,rue bishop,Longueuil,QC,J3Y9E1
6b14e7e50d58f1090ae6,George-Étienne-Cartier,Public,3455,rue soissons,Longueuil,QC,J4L3M5
75f3d9ce0056604883b7,Cargair Ltée,Collège privé,6050,route de l'aéroport,Longueuil,QC,J3Y8Y9
7785631dae4f3c7a93bd,"Greenfield Park, du vieux",Public,482,avenue springfield,Longueuil,QC,J4V1Y1
78bb331d9da1f9190e71,Saint-Jude,Public,781,avenue miller,Longueuil,QC,J4V1W8
793c6c9c459876499ebf,Bourgeoys-Champagnat,Public,2180,rue brébeuf,Longueuil,QC,J4J3P8
7a1dccf16caa188c67f9,St. Mary's,Public,1863,rue brébeuf,Longueuil,QC,J4J3P3
7a3d0de510a36862010f,Carillon,Public,1360,rue laurier,Longueuil,QC,J4J4H2
7c3ddc2bb24e5db1bd2c,Gentilly (Boisé des Lutins),Public,1500,boul. curé-poirier est,Longueuil,QC,J4J5L6
