Index,Facility_Name,Facility_Type,Street_No,Street_Name,City,Prov_Terr,Postal_Code
044251c076f57ef344b3,La Tourterelle,Public,175,rue philippe-goulet,Repentigny,QC,J5Y3M9
06afccda45c573d282e2,Henri-Bourassa,Public,283,boulevard iberville,Repentigny,QC,J6A2A4
0afebf0903c7e14f2cfd,Marie-Victorin,Public,75,rue curé martineau,Repentigny,QC,J6A5A8
0ebe1419ef0ee183790f,Pie-XII,Public,50,place robert-lussier,Repentigny,QC,J6A4C7
10a326285e4e8589a4ad,Émile-Nelligan,Public,45,rue fiset,Repentigny,QC,J6A4G1
1cb14a7a1ac0e4c4c51b,Louis-Joseph-Huot,Public,375,boulevard lacombe,Repentigny,QC,J5Z1N5
1e733e7b8f54691a92f8,Jean-Duceppe,Public,610,rue jean-duceppe repentigny,Repentigny,QC,J5Z4V3
303b4ca94245a87c21e5,des Moissons,Public,945,rue noiseux,Repentigny,QC,J5Y1Z3
31ad3805c7d3755450ea,La Majuscule,Public,210,rue bertrand repentigny,Repentigny,QC,J5Z4L3
3205a1fc3c2d6596d587,Jean-Claude-Crevier,Public,391,rue notre-dame,Repentigny,QC,J5Z1S6
3269f873be2676c629a0,Tournesol,Public,120,rue payette,Repentigny,QC,J5Z3L9
3b6ef1159750cd6a1dfd,Centre académique de Lanaudière,Installation,930,boulevard l'assomption,Repentigny,QC,J6A5H5
3c24df3dfc7281008cc1,Franklin Hill Elementary School,Public,1111,basile routhier,Repentigny,QC,J5Y4C8
4211bbdd7c771cfea210,Félix-Leclerc,Public,250,rue louis-philippe picard,Repentigny,QC,J5Y3W9
4299285a4d8e1c5c2d04,Jean-XXIII Annexe,Public,185,rue du curé longpré,Repentigny,QC,J6A1V5
4336b86f2cae28eae9b2,du Moulin,Public,120,boulevard laurentien,Repentigny,QC,J5Y2R7
526f22de8e3e102291dd,Jean-XXIII,Public,185,rue du curé longpré,Repentigny,QC,J6A1V5
64d06ffbb4c7de354707,Cégep régional de Lanaudière,Collège régional,781,rue notre-dame,Repentigny,QC,J5Y1B4
66753b5d50184e7430e1,Longpré annexe,Public,249,rue lanoue repentigny,Repentigny,QC,J6A1W2
74f89a1dc45541b11fcc,Saint-Paul,Public,400,boulevard lacombe,Repentigny,QC,J5Z1N6
7f41a42ef016ccfa400f,Louis-Fréchette,Public,835,rue fréchette,Repentigny,QC,J5Y1B1
898ecc8aa354f003834a,Lionel-Groulx,Public,30,rue adrien repentigny,Repentigny,QC,J6A4S9
9366d846becc8d6fa468,Le Bourg-Neuf,Public,168,rue colbert,Repentigny,QC,J5Z4K3
96f3fc54832d0fb4fa0d,Longpré,Public,249,rue lanoue repentigny,Repentigny,QC,J6A1W2
9f08515eff54bf9fb58a,J.-B.-Meilleur,Public,777,boulevard iberville,Repentigny,QC,J5Y1A2
b36721b446a5aace4878,Académie François-Labelle,Installation,1227,rue notre-dame,Repentigny,QC,J5Y3H2
c30e73c0f1017cecaa88,Alphonse Desjardins,Public,31,boulevard brien,Repentigny,QC,J6A4R9
cf15c417ce621273c368,l'Horizon,Public,239,boulevard j. a. paré,Repentigny,QC,J5Z4M6
d4feab87e6b0811b98a0,Entramis,Public,595,boulevard l'assomption,Repentigny,QC,J6A6Z5
db3f87a0bf3954eac1c8,De la Paix,Public,830,boulevard basile-routhier,Repentigny,QC,J6A7W9
e3f91705fd2ba5f04e20,Valmont-sur-Parc,Public,1155,boul. basile-routhier,Repentigny,QC,J5Y0L3
fed8f306fc94d6c18e79,"Envolée, l'",Public,129,rue notre-dame,Repentigny,QC,J6A2P1
