Index,Facility_Name,Facility_Type,Street_No,Street_Name,City,Prov_Terr,Postal_Code
028250e587fdacae08f4,Esther-Blondin,Public,905,rue vaillant,Terrebonne,QC,J6X1N1
08b4f8ecc74f29e932ca,De l'Odyssée,Public,2201,rue de la jonquille,Terrebonne,QC,J7M1Y8
0f174c35c3b16f4f4842,Marie-Soleil-Tougas,Public,3415,place camus,Terrebonne,QC,J6Y1L2
12c3e06e21560a5508f9,Des Rives,Public,400,montée dumais,Terrebonne,QC,J6W5W9
158df0f1bf9936a6afe8,Saint-Charles,Public,3329,chemin saint-charles,Terrebonne,QC,J6V1B4
1a447bbb10f7f2639224,"Pionniers, des",Public,1241,avenue de la croisée,Terrebonne,QC,J6V0H4
1dfe369e56a0165d5206,De la Sablière,Public,1659,boulevard des seigneurs,Terrebonne,QC,J6X3E3
1fa8f8fa82cbfea677df,Du Vieux-Chêne,Public,99,croissant de la matapédia,Terrebonne,QC,J6W5H2
222c8e9c43e273d888d1,Le Castelet,Public,4200,rue robert terrebonne,Terrebonne,QC,J6X2N9
27dd3f6d469a32253d88,Cégep régional de Lanaudière à Terrebonne,Collège constituant,2505,boulevard des entreprises,Terrebonne,QC,J6X5S5
3889c1ff710f5a7d7b42,De l'Étincelle,Public,2225,boulevard des seigneurs,Terrebonne,QC,J6X4A6
3a10f81f7bdb213bb723,Jeunes du Monde,Public,452,rue neuilly,Terrebonne,QC,J6Y1P5
48677859d8f358365484,De l'Aubier,Public,1651,rue guillemette terrebonne j7m1z7,Terrebonne,QC,J7M1Z7
5ef37d877e5438b7cd11,Saint-Louis,Public,539,rue saint-sacrement,Terrebonne,QC,J6W3E5
60429f416554c36acdde,Saint-Joachim,Public,10521,rue villeneuve,Terrebonne,QC,J7M1S8
61b1b06368fdd1a8f0d9,CFP des Moulins,Public,2525,boul. des entreprises,Terrebonne,QC,J6X4J9
7a9562f666b3e63ceba8,Armand-Corbeil,Public,795,rue j.-f. kennedy,Terrebonne,QC,J6W1X2
9502f46e14fbba8c59b5,Du Boisé,Public,5800,rue rodrigue,Terrebonne,QC,J7M1Y6
96ec06dbb2645f314e00,Jean-De La Fontaine,Public,192,rue de l'église,Terrebonne,QC,J6V1B4
9cc6ed2b332c51ba8c41,Collège Saint-Sacrement,Installation,901,rue saint-louis,Terrebonne,QC,J6W1K1
9f34c63461e371163c01,De l'Orée-des-Bois,Public,4960,rue rodrigue,Terrebonne,QC,J7M1Y9
a1a3ab507c53dc62d7e1,Du Geai-Bleu,Public,7101,rue rodrigue,Terrebonne,QC,J7M1Y7
b2c19c3589c917a639fd,Centre l'Avenir,Public,508,rue masson,Terrebonne,QC,J6W2Z3
b2e8e0252abb3f1b11ff,INÉDI,Centre collégial de transfert de technologie,2505,boulevard des entreprises,Terrebonne,QC,J6X5S5
b7c3cb52e5f856b25d2f,École trilingue Vision Terrebonne,Installation,2955,boulevard de la pinière terrebonne,Terrebonne,QC,J6X0A3
d001756189a83b019bb3,Léopold-Gravel,Public,766,rue saint-paul,Terrebonne,QC,J6W1M8
d11461d1a22009da6dfe,"Espace-Couleur, de l'",Public,1000,rue marie-gérin-lajoie,Terrebonne,QC,J6Y0M1
f2a84c35612841facf29,Bernard-Corbin,Public,1747,rue rochon,Terrebonne,QC,J6W5N9
f6787a726d70a6ccc139,"Explorateurs, des",Public,1185,boulevard des plateaux,Terrebonne,QC,J6Y0E5
f6f6a8443606a11717df,L'Arc-en-Ciel,Public,273,boulevard pierre laporte,Terrebonne,QC,J6V1H6
f77cb07be2c710753424,des Trois-Saisons,Public,1658,boulevard des seigneurs,Terrebonne,QC,J6X3J4
