Index,Facility_Name,Facility_Type,Street_No,Street_Name,City,Prov_Terr,Postal_Code
a5069a50687539f3aa66,"Cime, de la",Public,445,rue de chartres,Laval,QC,H7N1V8
a63b0ebe61e738a10300,Fleur-Soleil,Public,8585,rue de l'église,Laval,QC,H7A1L1
a645601f0b9073264263,Saint-Paul Elementary School,Public,2425,rue honfleur,Laval,QC,H7E1Y3
a99ec0336cc5d0e42680,"Raymond, pavillon nord",Public,5505,27e avenue laval,Laval,QC,H7R3K7
b141871328ce345cb5ff,John F. Kennedy Elementary School,Public,500,rue cardinal,Laval,QC,H7V1T5
b29a66c65ec19e60b0c5,Curé-Antoine-Labelle,Public,216,boul marc-aurèle-fortin,Laval,QC,H7L1Z5
b401c5afa7f821a6a643,Le Sentier,Public,1865,rue andré laval,Laval,QC,H7M2X1
b6cbb8f1068e0962f849,Centre horticole Annexe (Les Serres),Public,901,avenue du parc laval,Laval,QC,H7E2T7
b7b3b720f651de4cf666,Souvenir Elementary School,Public,4885,chemin du souvenir,Laval,QC,H7W1E1
b89277777b61a461c04d,Le Baluchon,Public,216,boulevard je-me-souviens,Laval,QC,H7L1W1
ba30f9ae1b0a7f73e1cb,"Orée-des-Bois, édifice 2, l'",Public,1100,37e avenue laval,Laval,QC,H7R4W4
bbc9eb7e0932d1ed07e3,"Le 1755, boulevard Fortin",Public,1755,boulevard fortin laval h7s2m8,Laval,QC,H7S2M8
bc4222907cd6c0a63e59,Collège Inter-Dec (Laval),Installation collège privé,1595,boulevard daniel-johnson,Laval,QC,H7V4C2
bc4e1592ebe350bb9e8e,"Collège CDI Administration. Technologie. Santé, Campus de Laval",Installation,3,place laval,Laval,QC,H7N1A2
c64f21164061a6e9b090,"Les Berges, édifice 2",Public,3670,boulevard lévesque ouest,Laval,QC,H7V1E8
c6f6281c53e140052eee,Coeur-Soleil,Public,3516,rue edgar,Laval,QC,H7P2E5
c7741e27b1d9c0c11c5e,Fleur-de-Vie,Public,3600,rue duhamel,Laval,QC,H7R1K7
c79a691daed4a9a01dce,Académie Lavalloise,Installation,5290,boulevard des laurentides,Laval,QC,H7K2J8
c932786b00474138dee2,Crestview Elementary School,Public,750,avenue devonshire,Laval,QC,H7W4C7
ca9d8fc5f3f42c0fe199,Poly-Jeunesse,Public,3578,boulevard sainte-rose,Laval,QC,H7P4K6
cb298c35a0791398b081,"Fleur-de-Vie, pavillon B",Public,8355,51e avenue laval,Laval,QC,H7R4C1
cb5c48d30d6afc5b5cba,Horizon-Jeunesse,Public,155,boulevard sainte-rose est,Laval,QC,H7H1P2
cc5229249e37f4949d35,Simon-Vanier,Public,1755,avenue dumouchel,Laval,QC,H7S1J7
cdac27feb45542503e5c,College Montmorency (Cegep),Junior College,475,blvd de l'avenir,Laval,QC,H7N5H9
d029af363227e2ba2614,Du Bois-Joli,Public,955,rue miville-déchêne,Laval,QC,H7E3A9
d03b68f8f0028f3776e8,"Les Berges, édifice 1",Public,3730,boulevard lévesque ouest,Laval,QC,H7V1E8
d301b039cf432ab3ea7e,École Montessori de Laval,Installation,3327,boulevard de la concorde est,Laval,QC,H7E2C3
d3075485327dd97c2258,Jean-Lemonde,Public,400,boulevard sainte-dorothée laval h7x1h3,Laval,QC,H7X1H3
d50bfa2f8a3126ef141f,Saint-Julien,Public,525,avenue de la sorbonne,Laval,QC,H7G3R9
d5c57806c4cf09cfc520,Marcel-Vaillancourt,Public,150,avenue legrand,Laval,QC,H7N3T3
d80067b3851553dfce56,J.-Jean-Joubert,Public,1775,rue rochefort,Laval,QC,H7G2P8
d8bccf2b61e89bf10d5d,"Les Trois-Soleils, pavillon 1",Public,1295,chemin du bord-de-l'eau,Laval,QC,H7Y1B9
da00cafdd014e861fca5,"Léon-Guilbault, édifice 2",Public,14,rue émile laval,Laval,QC,H7N4K8
db87f1e03b3b666f996e,CF horticole de Laval,Public,1051,croissant pierre-bédard,Laval,QC,H7E1Y8
dcdf0ce4233ea4245690,College CDI-Laval,Private Institution,3,place laval,Laval- Quebec,QC,H7N1A2
dd58de169f9ec0d8f531,"Équinoxe, de l'",Public,2949,boul de la renaissance,Laval,QC,H7L0H3
df6e628b5c7f35f47663,"Avenir, de l'",Public,5055,chemin du souvenir,Laval,QC,H7W1E1
e2ce45231ea24a302c10,La Source,Public,4525,boulevard frenette,Laval,QC,H7R1N7
e60ecb6e4413e3d19c5d,Du Parc,Public,5,rue du ruisseau,Laval,QC,H7L1C1
e6f242e37ee3a03e1add,"Étincelle, l'",Public,1020,15e avenue laval,Laval,QC,H7R4N9
e7ed661f2558335c3558,"Saint-Vincent Elementary School, Concorde",Public,3000,boulevard concorde est,Laval,QC,H7E2B6
ebf992638a707f510a50,Collège LaSalle,Installation collège privé,1595,boulevard daniel-johnson,Laval,QC,H7V4C2
edd5c8c7b51ea663429c,L'Envolée,Public,2589,boulevard des oiseaux,Laval,QC,H7L4M4
f441afa6e4ded2d43a25,Le Petit-Prince,Public,700,rue fleury,Laval,QC,H7P3B8
f8543ebbefaf26288e9d,Collège Citoyen,Installation,4001,boulevard sainte-rose,Laval,QC,H7R1W6
fb346a97f102053df314,"Léon-Guilbault, édifice 1",Public,133,boulevard cartier ouest,Laval,QC,H7N2H7
fe03d1ac8c647fd1f6cc,Les Centres Pédagogiques Accompagnement Scolaire,Installation,186,boulevard sainte-rose,Laval,QC,H7L1L4
ff264d47468e02cc4058,Genesis Elementary School,Public,2450,rue rosemère,Laval,QC,H7E2J8
