Index,Facility_Name,Facility_Type,Street_No,Street_Name,City,Prov_Terr,Postal_Code
05c7218ebcb571b19449,Saint-François,Public,530,rue huberdeau,Laval,QC,H7X1P7
05e379a881048aa56ae1,"Le Tandem, pavillon 1",Public,1640,rue gratton,Laval,QC,H7W2X8
0797bd9dbdaceaf7c7e8,"CF Le Chantier, pavillon 1",Public,2875,boulevard industriel,Laval,QC,H7L3V8
0b4c3e0286cdd4d10c1a,Alfred-Pellan,Public,6269,rue de prince-rupert,Laval,QC,H7H1C5
0bce651344ab9531c294,École Charles Perrault (Laval),Installation,1750,boulevard de la concorde est,Laval,QC,H7G2E7
0d8bb49168ec8ea4aa4f,"Le Tandem, pavillon 2",Public,1595,rue du couvent,Laval,QC,H7W3A8
0e4341f498344a23d948,"Saint-Vincent Elementary School, Saint-Jacques",Public,4881,rue saint-jacques,Laval,QC,H7C1G6
0f0a702af6dbcfdbed2f,Jean-XXIII,Public,4561,rue de la fabrique,Laval,QC,H7C1C6
1040ae7bc18a0d2e15a6,Académie culturelle de Laval,Installation,1075,rue saint-louis,Laval,QC,H7V2Z1
14cc86b3db7f6b91a5a8,Académie Chrétienne Rive Nord,Installation,790,18e avenue laval,Laval,QC,H7R4P3
16d4b60e525034eb7681,"Léon-Guilbault, édifice 3",Public,83,boulevard des prairies,Laval,QC,H7N2T3
177f13a98b182627af2e,Hébert,Public,50,rue paré,Laval,QC,H7B1B3
18be40a4129076f1ec18,Coursol,Public,350,rue richard,Laval,QC,H7M1T8
197d691a926a250eb909,Pavillon Ulric-Debien,Public,430,place jean-coutu,Laval,QC,H7H3C7
19845951016ddb194800,Les Explorateurs Annexe,Public,1880,rue boisvert,Laval,QC,H7M2L6
1b4707c9fb114c1221d6,L'Harmonie,Public,1125,boulevard élisabeth laval,Laval,QC,H7W3J7
1b77a2b1b5af630d98ad,Père-Vimont,Public,2255,boulevard prudentiel,Laval,QC,H7K2C1
1c3fd6a786d3a09e9626,Notre-Dame-du-Sourire,Public,240,rue des sapins,Laval,QC,H7A2W7
1e2e4be4d6e4c94faeba,Mont-de-La Salle,Public,125,boulevard des prairies,Laval,QC,H7N2T6
262a57ba2462ee84c827,Pierre-Laporte,Public,805,rue lauzon,Laval,QC,H7X2N4
2920511ece3084ff12b4,Des Ormeaux,Public,2825,rue dollard,Laval,QC,H7E1S8
2c0ebe96050f6ae6e9cb,Centre Le Charpentier,Public,3050,boulevard industriel,Laval,QC,H7L4P7
30fd2664b8d51a45453f,L'Envol,Public,3661,boul de la concorde est,Laval,QC,H7E2E1
3406362f63d000aa064e,Laval Senior Academy,Public,3200,boulevard du souvenir,Laval,QC,H7V1W9
348ebefab7ca1b8fa65d,Sainte-Marguerite,Public,40,avenue dussault,Laval,QC,H7N3K1
36bb9ca55bb13f6643eb,CQPEL,Public,705,chemin du trait-carré,Laval,QC,H7N1B3
3806d6de0ce0f1251018,"Les Quatre-Vents, édifice 2",Public,3690,chemin du souvenir,Laval,QC,H7V1X8
38473a11c1befa87eda1,Paul-VI,Public,510,boulevard samson,Laval,QC,H7X1J6
3aa83e3b2c781ccddf2f,Édifice Cunard,Public,2100,rue cunard,Laval,QC,H7S2G5
3d4d7509d70b64eee3b2,Saint-Martin,Public,4055,boul saint-martin ouest,Laval,QC,H7T1B7
401cd62b1f3ff9d83be7,Académie Étoile du Nord Laval,Installation,950,rue élodie-boucher,Laval,QC,H7W0C6
40426f27fb2612096100,Jean-Piaget,Public,3150,boulevard dagenais ouest,Laval,QC,H7P1V1
42606414827d6fb60a33,École Notre Dame de Nareg,Installation,500,67e avenue laval,Laval,QC,H7V2N2
43df835c72dd7fba8025,"École Socrates-Démosthène, Campus Démosthène",Installation,1565,boulevard saint-martin ouest,Laval,QC,H7S1N1
46c3120c9bff15f4e483,Hillcrest Academy,Public,265,rue bladen,Laval,QC,H7W4J8
4854e7b4eeb4f064fc34,Les Explorateurs,Public,1895,rue bédard,Laval,QC,H7M2M8
49d90fc47a4f431644ad,Collège Laval,Installation,1275,avenue du collège,Laval,QC,H7C1W8
4a6ac348fc994095ada5,"École Socrates-Démosthène, Campus Socrates V annexe",Installation,1005,boulevard pie-x,Laval,QC,H7V3A9
4bdf50faf433f1b41817,Villemaire,Public,211,boulevard sainte-rose,Laval,QC,H7L1L7
4cb2583585dfd64577b6,"Saint-Gilles, pavillon 3",Public,145,rue alexandre laval,Laval,QC,H7G3L3
5060eccf466c9a0834eb,"Les Explorateurs, préscolaire",Public,30,boulevard st-elzear est,Laval,QC,H7M2M8
50940c273f9772b2f788,"Saint-Gilles, pavillon 1",Public,220,rue dauphin,Laval,QC,H7G1M7
509735cff565b8e988fa,L'Aquarelle,Public,707,avenue marc-aurèle-fortin,Laval,QC,H7L5M6
523520266f221cc177b7,"IPIQ, site de pratique",Public,1750,montée masson,Laval,QC,H7E4P2
54d9682cf3aa7a4d75d5,"Saint-Gilles, pavillon 2",Public,226,rue des alpes,Laval,QC,H7G3V8
5551337e4fe3fa507006,Collège de l'immobilier du Québec,Installation collège privé,3224,avenue jean-béraud,Laval,QC,H7T2S4
576e4a63081b117e34be,Coeur-Soleil (préscolaire),Public,3516,rue edgar,Laval,QC,H7P2E5
593123d121e3ca62081b,"École Socrates-Démosthène, Campus Socrates V",Installation,931,rue emerson,Laval,QC,H7W3Y5
5a8b9f57805602392d77,Des Cèdres,Public,3785,boulevard sainte-rose,Laval,QC,H7P1C6
