Index,Facility_Name,Facility_Type,Street_No,Street_Name,City,Prov_Terr,Postal_Code
5dc2295ee6494a25691f,Sainte-Béatrice,Public,5409,rue de prince-rupert,Laval,QC,H7K2L7
5df58cc67e3ebb4baeac,"Arc-en-ciel, pavillon 2, de l'",Public,50,rue proulx ouest,Laval,QC,H7N1P1
628c10fd169d1d318995,Des Cardinaux,Public,6060,rue des cardinaux,Laval,QC,H7L6B7
641cd4394b3b84847844,"Arthur-Buies, édifice",Public,2929,boul. de la renaissance,Laval,QC,H7L5W3
6608678b0418fc55a7df,"Orée-des-Bois, édifice 1, l'",Public,4185,rue séguin,Laval,QC,H7R2V2
671305ee562ab9035932,"Arc-en-ciel, pavillon 1, de l'",Public,51,rue meunier ouest,Laval,QC,H7N1V4
6aca1576c8a35c941dca,"Raymond, pavillon sud",Public,6145,27e avenue laval,Laval,QC,H7R3K7
6b8ff828af872d554ba0,Terry Fox Elementary School,Public,900,avenue des lacasse,Laval,QC,H7K3G2
6b9889a363a49617b814,Val-des-Arbres,Public,3145,avenue du saguenay,Laval,QC,H7E1H6
6cceac0adf253db444a8,Saint-Norbert,Public,475,66e avenue laval,Laval,QC,H7V2L2
6d22f701be6220d1d95d,Charles-Bruneau,Public,3001,rue d'amay,Laval,QC,H7K3P9
6e62f1ec039efeebac7a,Demers,Public,155,rue deslauriers,Laval,QC,H7L2S2
6eb07381a06843cc3596,"Les Trois-Soleils, pavillon 2",Public,1250,rue saint-denis,Laval,QC,H7Y1N6
6efb307505b69880e654,Paul-Émile-Dufresne,Public,2525,boul. de la renaissance,Laval,QC,H7L3Y2
6fece9ef7ec01051662f,"Sainte-Croix, pavillon",Public,3650,boulevard lévesque ouest,Laval,QC,H7V1E8
752840c5c0865b0d19b4,Centre Le Tremplin,Public,2475,rue honoré-mercier,Laval,QC,H7L2S9
7707320664da850cd081,"Boisé, du",Public,4,rue de la plage-venise,Laval,QC,H7H2Y4
7864f27398902fb98f50,Georges-Vanier,Public,3995,boul. lévesque est,Laval,QC,H7E2R3
7913c8a340fd524559a8,"Saint-Paul, édifice 2",Public,3733,2e rue laval h7v1h9,Laval,QC,H7V1H9
79a1db7e3d65795ace4d,L'Odyssée-des-Jeunes,Public,4600,rue cyrille-delage,Laval,QC,H7K2S4
7c33d9ba3ab27296dca8,Collège Letendre,Installation,1000,boulevard de l'avenir,Laval,QC,H7N6J6
7c41cd4c15b27c0d7593,"Latour, pavillon",Public,234,boulevard sainte-rose,Laval,QC,H7L1L6
7d8a9f95dcdea6c71fe2,Collège LaSalle (secteur anglophone),Installation collège privé,1595,boulevard daniel-johnson,Laval,QC,H7V4C2
7fab3724433752717347,Cégep Montmorency,Cégep,475,boulevard de l'avenir,Laval,QC,H7N5H9
81f89a60d0a4fb06bf99,Centre Josée-Faucher (Piscine et Gymnase),Public,125,boulevard des prairies,Laval,QC,H7N2T6
8255245cc1f61c68aa43,Édifice Saint-Charles,Public,75,croissant de callières,Laval,QC,H7E3M8
82f0665e99380335bbfa,Marc-Aurèle-Fortin,Public,3225,rue christiane,Laval,QC,H7P1K2
82f4c41d0aec17924fcb,CDC Laurier-Pont Viau,Public,60,rue lahaie,Laval,QC,H7G3A8
84371b0adec9d58bd671,Nouvelle école primaire Chomedey Sud,Public,4055,boul. saint-martin ouest,Laval,QC,H7T1B7
867ca5bec5fff9e739d2,Leblanc,Public,1750,montée masson,Laval,QC,H7E4P2
8919d1e8f14ee0439174,Paul-Comtois,Public,1701,rue de lucerne,Laval,QC,H7M2E9
8acc8f8dfa6a791feb13,Pépin,Public,3220,rue esther,Laval,QC,H7P2G9
8f1fcddcb7c6b7056549,"Saint-Paul, édifice 1",Public,280,92e avenue laval,Laval,QC,H7W3N3
915ecb12c9627aca6e28,Our Lady of Peace Elementary School,Public,3900,rue nicole,Laval,QC,H7P1L5
92cb2fb7a823fbf48f0a,Éducation internationnale de Laval,Public,5075,chemin du souvenir,Laval,QC,H7W1E1
92ffcef938c505101a66,Saint-Maxime,Public,3680,boulevard lévesque ouest,Laval,QC,H7V1E8
93a0eecb19243e317d94,Phoenix Alternative School,Public,1105,rue victor-morin,Laval,QC,H7G4B8
94139c2ee59798e4533b,"Collège CDI Administration . Technologie . Santé, enseignement en anglais",Installation collège privé,3,place laval,Laval,QC,H7N1A2
958925599b0386c5becb,Twin Oaks Elementary School,Public,700,rue lisane,Laval,QC,H7P3T2
96e07631ee402dbd5381,"Val-des-Ruisseaux, de",Public,650,avenue des pélicans,Laval,QC,H7A3K1
97763a7461c6e5be8c5d,Sainte-Dorothée,Public,956,montée gravel,Laval,QC,H7X2B8
982fcbc122af766a4ec6,Laval Junior Academy,Public,2323,boulevard daniel-johnson,Laval,QC,H7T1H8
992d624f58e2874333ae,"Fleur-de-Vie, pavillon A",Public,8155,51e avenue laval,Laval,QC,H7R4C1
9972c7aee5ff02cf29f1,"Les Quatre-Vents, édifice 1",Public,740,75e avenue laval,Laval,QC,H7V2Y6
99be8e14ee7ad375c74c,Jules Verne Elementary School,Public,1701,rue de l'école,Laval,QC,H7G1V5
9be3b90f5417c806ac7e,"Saint-Paul Elementary School, Annex",Public,1305,rue de l'assomption,Laval,QC,H7E4C5
9f87e9ac2a623a8ac83a,"Centre administratif, édifice 3",Public,115,rue alexandre laval,Laval,QC,H7G3L3
9fc7ed8dadee1e853cbd,Eurêka,Public,200,boul. de la concorde est,Laval,QC,H7G2C8
a16bd15bf14426750871,Hôtelière de Laval,Public,190,rue roseval,Laval,QC,H7L2V6
