Index,Facility_Name,Facility_Type,Street_No,Street_Name,City,Prov_Terr,Postal_Code
c21abc2e19bb9cd8347b,Barthélemy-Vimont,Public,415,rue saint-roch,Montréal,QC,H3N1K2
c21cf9fb795554b0a2d6,Lasalle Junior,Public,8340,rue david-boyer,Montréal,QC,H8N2A1
c2d086392fe4ef38da1c,Jean-Nicolet Annexe,Public,11135,avenue alfred,Montréal,QC,H1G5B6
c3387deaa1f358f0a8de,"Berges-de-Lachine, des",Public,50,34e avenue,Montréal,QC,H8T1Z2
c4634e397d8ecb84aede,Antoine-de-Saint-Exupéry annexe,Public,8455,rue du pré-laurin,Montréal,QC,H1R3P3
c47677bd269750955ac2,Ecole des Metiers de lequipement Motorise de,Technical and Vocational,5455,rue saint denis,Montreal,QC,H2J4B7
c4793422b4e3aa65103b,Saint-Enfant-Jésus,Public,75,rue villeneuve est,Montréal,QC,H2T1L1
c51ac49fd5bd05882dd5,Jacques-Bizard,Public,515,montée de l'église,Montréal,QC,H9C1H1
c587af3fe269a886b218,Collège de photographie Marsan inc.(secteur anglophone),Installation collège privé,2030,boulevard pie-ix,Montréal,QC,H1V2C8
c5df4e52252877839703,Espace-Jeunesse,Public,3655,rue saint-hubert,Montréal,QC,H2L3Z9
c5f07372c207553524e3,École Charles-Perrault (Pierrefonds),Installation,106,rue cartier,Montréal,QC,H8Y1G8
c623d9eee1ae238eec64,Collège André-Grasset (secteur anglophone),Installation collège privé,1001,boulvevard crémazie est,Montréal,QC,H2M1M3
c6756bca0fe3b527d374,Perspectives Complex,Public,7770,20e avenue,Montréal,QC,H2A2K9
c6cb87e3872d2e4d59ad,Barclay,Public,7941,avenue wiseman,Montréal,QC,H3N2P2
c6d54057d6d28d5ec8e7,Collège Greystone,Collège privé,550,rue sherbrooke ouest tour est,Montréal,QC,H3A1B9
c7404bf8464c25717d1e,Chomedey-de-Maisonneuve,Public,1860,avenue morgan,Montréal,QC,H1V2R2
c7a8630440e5ab519681,"Belle-Rive, pavillon de la Pointe, de la",Public,16360,rue bureau,Montréal,QC,H1A1Z5
c8b9bfc7cbc5ba95af47,Guy-Drummond,Public,1475,avenue lajoie,Montréal,QC,H2V1P9
c98b39769dd10638cf1e,Lévis-Sauvé,Public,655,avenue willibrord,Montréal,QC,H4G2T8
c9911595003b9335be5f,École de danse contemporaine de Montréal,Collège privé,1435,rue de bleury,Montréal,QC,H3A2H7
c9be808b83b5b5ae8716,Honoré Mercier,Public,8280,rue de nantes,Montréal,QC,H1P2J1
c9c5f883146fe09f2802,East Hill,Public,10350,boulevard perras,Montréal,QC,H1C2H1
c9eff2d0506c42a1fcd9,Métiers de l'horticulture de Montréal,Public,5605,boulevard pie-ix,Montréal,QC,H1X2B4
c9f67d5138010d8fd372,Joseph-Charbonneau,Public,8200,rue rousselot,Montréal,QC,H2E1Z6
c9fabd97d7cd23f42bf7,École Priory inc.,Installation,3120,le boulevard,Montréal,QC,H3Y1R9
ca3544b94872e1d74797,Saint-Anselme,Public,2743,rue de rouen,Montréal,QC,H2K1N2
ca6f0e67eebebe856795,Collège Salette inc. (secteur anglophone),Installation collège privé,418,rue sherbrooke est,Montréal,QC,H2L1J6
ca7b2c50de3a685facde,Notre-Dame-des-Victoires,Public,2720,rue bossuet,Montréal,QC,H1N2S6
caa061c7237a9988ff4b,Institut de formation théologique de Montréal,Organisme décernant des grades universitaires,2065,rue sherbrooke ouest,Montréal,QC,H3H1G6
cad5167836b4b5b7f12b,Presbyterian College of Montreal,University,3495,university st.,Montreal,QC,H3A2A8
cb32c240909c1f34c3ec,"Collège St-Jean-Vianney, CSJV international",Installation,12630,boulevard gouin est,Montréal,QC,H1C1B9
cb8e73b818fb2c4006d3,"Les écoles communautaires Skver, section française",Installation,940,avenue outremont,Montréal,QC,H2V4P8
cc2c40aa782f7069a66a,"Collège CDI Administration . Technologie . Santé, enseignement en anglais",Installation collège privé,416,boulevard de maisonneuve ouest,Montréal,QC,H3A1L2
cc68b7ac20c07966d957,Collège St-Michel,Installation,1995,rue bélanger,Montréal,QC,H2G1B8
cc84dde01844feecdab1,L'École Ali Ibn Abi Talib,Installation,1610,rue de beauharnois ouest,Montréal,QC,H4N1J5
ccb463021f7d168e6b67,Coronation / Mile-End,Public,4810,avenue van horne,Montréal,QC,H3W1J3
ccbe6e54ce9810d3b1af,"Petit-Collège, du",Public,9343,rue jean-milot,Montréal,QC,H8R1Y7
ccc401b71423f644c3be,École JMC,Installation,2205,rue de l'église,Montréal,QC,H4M1G5
cd9c313f356b526edc8b,École du Show-Business,Collège privé,205,avenue viger ouest,Montréal,QC,H2Z1G2
cdbb935178442e432a47,Collège LaSalle,Installation,2000,rue sainte-catherine ouest,Montréal,QC,H3H2T2
cef2516637de040fbfa5,Louis-Riel,Public,5850,avenue de carignan,Montréal,QC,H1M2V4
cfca96fa757358ff5951,"Saint-Jean-de-la-Lande, annexe",Public,5095,9e avenue,Montréal,QC,H1Y2J3
d0d0e3ff168c0c5311ce,"Écoles musulmanes de Montréal, Campus primaire",Installation,7445,avenue chester,Montréal,QC,H4V1M4
d0f9c9ce3100046fc176,"Eau-Vive, L'",Public,171,avenue orchard,Montréal,QC,H8R3G3
d1fc736d8deef12e1f6c,Collège Avalon,Installation collège privé,5101,rue buchan,Montréal,QC,H4P1S4
d2291c174978813e00c6,Dante,Public,6090,rue lachenaie,Montréal,QC,H1S1P1
d278553d5591e4a20dfa,Académie Dunton,Public,5555,rue de boucherville,Montréal,QC,H1K4B6
d312c2197ef8c9a9dbe0,"Orée-du-Parc, de l'",Public,7500,rue jean-chevalier,Montréal,QC,H8N2M8
d322146b647821ae9122,Cardinal-Léger,Public,2000,rue decelles,Montréal,QC,H4M1B3
