Index,Facility_Name,Facility_Type,Street_No,Street_Name,City,Prov_Terr,Postal_Code
11de12dcf2a086148e3c,Collège CDI Administration. Technologie. Santé - Saint-Léonard,Installation collège privé,9480,boulevard lacordaire,Montréal,QC,H1R0C4
11e2aa308f169d159725,Collège de Technologie Ascent inc. (secteur anglophone),Installation collège privé,1100,boulevard crémazie est,Montréal,QC,H2P2X2
11e863c5c0161ed32be0,Notre-Dame-du-Perpétuel-Secours,Public,6025,rue beaulieu,Montréal,QC,H4E3E7
121784d528ffea61684d,Saint-Joseph,Public,7725,avenue des ormeaux,Montréal,QC,H1K2Y2
125fd8067dc69310b0ad,Dollard-des-Ormeaux,Public,6639,rue d'aragon,Montréal,QC,H4E3B4
12bbd041be480d7b18df,Iona,Public,5000,rue iona,Montréal,QC,H3W2A2
13732fa0ee60d52b874c,"ÉMICA, annexe 1",Public,6255,13e avenue,Montréal,QC,H1X2Y6
13e981cd8cfa3bc9395e,École de musique Vincent d'Indy,Collège privé,628,chemin de la côte-sainte-catherine,Montréal,QC,H2V2C5
1444b92d755c70206da9,Collège Canada inc.,Installation collège privé,1231,rue sainte-catherine ouest,Montréal,QC,H3G1P5
145d361cd73a03610cd0,Saint-Henri,Public,4115,rue saint-jacques ouest,Montréal,QC,H4C1J3
1466a2e896f56ce5a9c7,"Notre-Dame-de-la-Garde, édifice Richard",Public,760,rue richard,Montréal,QC,H4H2A6
14bef94ed0db8cdcd2c1,École Marie-Clarac,Installation,11273,avenue de mère-anselme,Montréal,QC,H1H4Z2
14eaadaa92653510dae8,College de L'immobilier du Quebec,Private Institution,600,chemin du golf,Ile des Soeurs,QC,H3E1A8
152556fb0f431b268b6e,"Musitechnic Formation, enseignement en anglais",Installation collège privé,1088,rue clark,Montréal,QC,H2Z1K2
160b10cfb8778a773d0e,"Centre François-Michelle, secondaire 1er cycle",Installation,5210,rue durocher,Montréal,QC,H2V3Y1
16540790d776ce9c9942,College de Photographie Marsan,Private Institution,3536,st. laurent blvd.,Montreal,QC,H2X2V1
1657a9f05a67e7a809fb,"Les écoles Azrieli Talmud Torah - Herzliah, Campus Adams, section anglaise",Installation,5475,avenue mountain sights,Montréal,QC,H3W2Y8
16e64bc6241640d7fc0b,Simone-Desjardins pavillon Perras,Public,9955,boulevard perras,Montréal,QC,H1C1V8
16e6da155584dd8e6336,"Martin-Bélanger, édifice de la Petite-Maison",Public,41,et 41a avenue ouellette,Montréal,QC,H8R1L4
1718175d2fd794a16ec4,Rosemount Complex,Public,3737,rue beaubien est,Montréal,QC,H1X1H2
1760be2de010944351ef,Académie de Roberval,Public,1370,rue de castelnau est,Montréal,QC,H2E1R9
177ea68cafaf84133d7c,Centre Hochelaga-Maisonneuve,Public,2500,rue théodore montréal,Montréal,QC,H1V3C6
17856742b2d6a86e7dda,Collège O'Sullivan de Montréal inc.,Collège privé,1191,rue de la montagne,Montréal,QC,H3G1Z2
17990ac4128720c71b73,Saint-Ambroise,Public,6555,rue de normanville,Montréal,QC,H2S2B8
181461a5a7e7d652aa45,Judith-Jasmin,Public,4575,avenue mariette,Montréal,QC,H4B2G3
181af324ac077629fc71,Félix-Leclerc,Public,6055,avenue darlington,Montréal,QC,H3S2H9
189c717ff96d71a05574,Collège Stanislas (campus Outremont),Installation,780,boul. dollard,Montréal,QC,H2V3G5
18d8df10608ed7c8e951,Syn Studio,Collège privé,460,rue sainte-catherine ouest,Montréal,QC,H3B1A7
196e27827cfcab0a919b,"Les écoles communautaires Skver, section anglaise",Installation,940,avenue outremont,Montréal,QC,H2V4P8
19a9008b326532e087b1,Joseph-François-Perrault,Public,7450,rue françois-perrault,Montréal,QC,H2A1L9
19bb07c6937184fc33ef,Baril,Public,3603,rue adam,Montréal,QC,H1W1Z1
19f8d610841d55ecfe3b,École secondaire Duval inc.,Installation,260,boulevard henri-bourassa est,Montréal,QC,H3L1B8
1a65314130afb6824df5,"CEAL, édifice Clément",Public,9569,rue jean-milot,Montréal,QC,H8R1X8
1ae039d0261f91708466,Centre Saint-Paul,Public,4976,rue notre-dame ouest,Montréal,QC,H4C1S8
1af2ef3d346c251d21f2,Philippe-Labarre,Public,3125,avenue fletcher,Montréal,QC,H1L4E2
1bd30db936b1525df236,Anjou,Public,8205,rue fonteneau,Montréal,QC,H1K4E1
1bfd6caf326ebb0d7683,Collège Ville-Marie,Installation,2850,rue sherbrooke est,Montréal,QC,H2K1H3
1c8d25e40dbbc404a1f4,Pierre-De-Coubertin,Public,4660,rue charleroi,Montréal,QC,H1H1T7
1ca89d55732bca1617d7,Simonne-Monet,Public,3850,avenue dupuis,Montréal,QC,H3T1E6
1ccc8824394412870848,"Des Monarques, édifice Marie-Rollet",Public,6405,30e avenue,Montréal,QC,H1T3G3
1d02c96c47a089a80fe3,Laurier Macdonald Complex,Public,7355,boulevard viau,Montréal,QC,H1S3C2
1d0478e4ee937d4e9633,Cégep Gérald-Godin,Cégep,15615,boulevard gouin ouest,Montréal,QC,H9H5K8
1d2fe897a982393727df,Saint-Gérard,Public,14385,boulevard pierrefonds,Montréal,QC,H9H1Z2
1e40d8949d198c982102,Cégep de Maisonneuve,Cégep,3800,rue sherbrooke est,Montréal,QC,H1X2A2
1eb09f76b14d89a17f1c,"Les écoles Azrieli Talmud Torah - Herzliah, Campus Beutel, section française",Installation,4840,avenue saint-kevin,Montréal,QC,H3W1P2
1ed2983503d9cc1ed606,"Ahuntsic, annexe",Public,9900,avenue d'auteuil,Montréal,QC,H3L2K1
1f15944fcb31d485d583,École au Jardin Bleu,Installation,1690,rue sauvé est,Montréal,QC,H2C2A8
203e0fbe82a976d82684,"Collège Supérieur de Montréal, formation à distance",Installation,800,boulevard de maisonneuve est,Montréal,QC,H2L4L8
2076ad5df5bc79528111,Guillaume-Couture,Public,6300,avenue albani,Montréal,QC,H1M2R8
