Index,Facility_Name,Facility_Type,Street_No,Street_Name,City,Prov_Terr,Postal_Code
dbb25d17a0bbdca30ffe,"Fernand-Seguin, pavillon Hubert-Reeves",Public,10050,avenue durham,Montréal,QC,H2C2G4
dd751dd61c938dda3c79,"Joseph-François-Perrault, annexe",Public,7411,17e avenue,Montréal,QC,H2A2R7
ddb59f35f47a0cefb037,JACOBB - Centre d'intelligence artificielle appliquée,Centre collégial de transfert de technologie,10555,avenue de bois-de-boulogne,Montréal,QC,H4N1L4
de90d0a6c0410b720c45,Cardinal-Léger,Public,6951,avenue des ormeaux,Montréal,QC,H1K2X7
df1c8ee353aaf4cbd18b,École Rudolf Steiner de Montréal,Installation,4855,avenue de kensington,Montréal,QC,H3X3S6
df8192ebe5dd0e7c9844,"Barthélemy-Vimont, annexe",Public,630,rue saint-roch,Montréal,QC,H3N1K8
e0d6e3f067243f3f3456,Jacques-Rousseau,Public,7455,rue jarry,Montréal,QC,H1J1G8
e12894b9facf4dd7dbc3,"Le Collège Lower Canada, Campus préscolaire",Installation,,,Montréal,QC,H4A2M5
e18afe9b77c286a5ad2c,"Saint-Léon-de-Westmount, ann. temp.",Public,633,rue de courcelle,Montréal,QC,H4C3C7
e1974a3fb751179beec2,"Irénée-Lussier, annexe",Public,2205,rue mousseau,Montréal,QC,H1L4V2
e1d4a8f33fa693644a53,"Collège Sainte-Anne, Lachine",Installation,1250,boulevard saint-joseph,Montréal,QC,H8S2M8
e2237db0b885319efd90,Collège M du Canada,Collège privé,8550,boulevard newman,Montréal,QC,H8N1Y5
e264977210a98224079f,Dalkeith,Public,7951,avenue dalkeith,Montréal,QC,H1K3X6
e279507506de2b191c74,Collège TAV,Installation collège privé,6005,boulevard décarie,Montréal,QC,H3W3C9
e3bc04152039c19608c4,Externat Mont-Jésus-Marie,Installation,2755,chemin de la côte-sainte-catherine,Montréal,QC,H3T1B5
e40c200d79c1bab60477,"Coeur-Immaculé-de-Marie, annexe",Public,1825,rue jolicoeur,Montréal,QC,H4E1X3
e44e5d4b5472b1b82d59,"Centre académique Fournier inc., section primaire",Installation,5919,boulevard henri-bourassa ouest,Montréal,QC,H4R1B7
e55cd267958a88cd3460,Pearson Adult & Career Centre,Public,8300,rue george,Montréal,QC,H8P1E5
e566700bb130002dfec8,Fernand-Gauthier,Public,12600,avenue paul-dufault,Montréal,QC,H1E2B6
e56ec1ab50d27fc90d4c,Félix-Leclerc (occupation transitoire),Public,35,rue saint-zotique est,Montréal,QC,H2S1K5
e5742cae5c5c1fbeb9bc,"Collège LaSalle, enseignement en anglais",Installation collège privé,2000,rue sainte-catherine ouest,Montréal,QC,H3H2T2
e5a05bfe5caa705839b5,"Écoles musulmanes de Montréal, Campus secondaire",Installation,2255,boulevard cavendish,Montréal,QC,H4B2L7
e5ce343a2840a2d9d913,Université de Montréal et ses écoles affiliées,Regroupement administratif uni,2900,boulevard édouard-montpetit,Montréal,QC,H3C3J7
e5d1f6c5fe32c7bb7c37,Saint-Luc,Public,6300,chemin de la côte-st-luc,Montréal,QC,H3X2H4
e6298d86591e31d93918,La Voie,Public,6755,rue lavoie,Montréal,QC,H3W2K8
e62e67ecf3caa17f4834,Enfants-du-Monde,Public,2915,rue marcel,Montréal,QC,H4R1B2
e68a52c759a94f621e05,Universite du Quebec - Ecole de Technologie Superieur,University,1100,rue notre-dame ouest,Montreal,QC,H3C1K3
e6c53aab3ad41b8aa906,Sainte-Lucie,Public,8901,boulevard saint-michel,Montréal,QC,H1Z3G3
e6fb9d34cfcf9c0cba35,École bilingue Notre-Dame de Sion,Installation,1775,rue décarie,Montréal,QC,H4L3N5
e719f46eda1c14685a4a,François-La-Bernarde,Public,950,rue pierre lacroix,Montréal,QC,H1B3C8
e7548802fc0793981650,Marie-Anne,Public,100,rue sauvé est,Montréal,QC,H3L1H1
e791cc8065bdeb02fd9c,Saint-Germain-d'Outremont,Public,46,avenue vincent-d'indy,Montréal,QC,H2V2S9
e7ab3631196622f8e1f0,Centre Gédéon-Ouimet,Public,1960,rue poupart,Montréal,QC,H2K3H2
e7e262e2918efd1170dd,Saint-Jean-de-Brébeuf,Public,2870,rue dandurand,Montréal,QC,H1Y1T5
e7e632a1a81db2bd909e,James Lyng Complex,Public,5440,rue notre-dame ouest,Montréal,QC,H4C1T9
e7e855ed3da935731927,FACE,Public,3449,rue university,Montréal,QC,H3A2A8
e86a50c158ac3db5256b,"Saint-Donat, annexe",Public,3100,rue arcand,Montréal,QC,H1N3C7
e8e24ced51cc8ce12703,"Saint-Barthélémy, pavillon des Érables",Public,7081,avenue des érables,Montréal,QC,H2E2R1
e8ecb265229b604748ab,Collège des Technologies de l'Information de Montréal,Installation collège privé,1255,boulevard robert-bourassa,Montréal,QC,H3B3V8
e9d1e1e7293be6e054a2,Catherine-Soumillard,Public,250,48e avenue,Montréal,QC,H8T2R8
e9ea553e1d5725cfe758,"École Vanguard, secteur anglophone",Installation,5935,chemin de la côte-de-liesse,Montréal,QC,H4T1C3
ea06c0f49ffceea4e413,"Académie adventiste Greaves, Campus de Montréal",Installation,2330,avenue west hill,Montréal,QC,H4B2S4
ea1dc4f7257fa2e75c28,"Beau-Séjour, édifice Sud",Public,2681,rue baker,Montréal,QC,H4K1K7
ea78c17890a16b81ba34,De l'Étincelle,Public,6080,avenue de l'esplanade,Montréal,QC,H2T3A3
ea86700f611bf542bca2,Saint Charles,Public,4331,rue sainte-anne,Montréal,QC,H9H4G7
ea94f4b916aa254f162e,"École Beth Jacob de Rav Hirschprung, section française",Installation,1750,avenue glendale,Montréal,QC,H2V1B3
eab0cdf645cfaf0cae90,"Saint-Laurent, édifice Saint-Germain Annexe",Public,850,boulevard marcel-laurin,Montréal,QC,H4M2M9
ead1306c686f673d0a4a,"L'Académie Centennial, section anglaise 2e cycle",Installation,5100,chemin de la côte-saint-luc,Montréal,QC,H3G2G9
eaee0497336ee059ad2f,Victor-Rousselot,Public,3525,rue sainte-émilie,Montréal,QC,H4C1Z3
