Index,Facility_Name,Facility_Type,Street_No,Street_Name,City,Prov_Terr,Postal_Code
8c4231f96dceed53d86c,Pensionnat Notre-Dame-des-Anges,Installation,5680,boulevard rosemont,Montréal,QC,H1T2H2
8c6f17bd8200b2596030,Chénier,Public,5800,avenue saint-donat,Montréal,QC,H1K3P4
8c8bdfb633b07e4e0ae4,"Saints-Martyrs-Canadiens, annexe",Public,10000,rue parthenais,Montréal,QC,H2B2L4
8da026b3724aa32dbba4,"Académie Solomon Schechter, campus primaire, section française",Installation,5555,chemin de la côte-saint-luc,Montréal,QC,H3X2C9
8dc49560b25ebd858df1,"Saint-Mathieu, annexe",Public,7110,8e avenue,Montréal,QC,H2A3C4
8ebecec7aedebe631bd0,Centre Marie-Médiatrice,Public,6200,rue des écores,Montréal,QC,H2G2J5
902741f53114b10162ec,Sainte-Colette Annexe,Public,11960,boulevard ste-colette,Montréal,QC,H1G4V1
905051068baa9ef2a295,Saint-Clément,Public,4770,rue la fontaine,Montréal,QC,H1V1R3
908b508fd73eab66f3be,Henri-Beaulieu,Public,235,rue bleignier,Montréal,QC,H4N1B1
90d4065200b7da3b4d7d,"Les écoles Azrieli Talmud Torah - Herzliah, Campus Beutel, section anglaise",Installation,4840,avenue saint-kevin,Montréal,QC,H3W1P2
915af9f5a41a72448fad,"Collège Pasteur, Pavillon Victor-Hugo",Installation,12525,rue lachapelle,Montréal,QC,H4J2N2
91aa32a12d59db869b3a,Georges-Vanier,Public,1205,rue jarry est,Montréal,QC,H2P1W9
921d1e484eb7c3137f41,Académie Blaise Pascal,Installation,5320,rue d'amos,Montréal,QC,H1G2Y1
92215918dfd907351a2d,"École Maïmonide, Campus Jacob Safra",Installation,1900,rue bourdon,Montréal,QC,H4M2X7
927930ff0045a5d654f3,Collège CDI Administration. Technologie. Santé - Saint-Léonard,Établissement d'enseignement collège privé,9480,boulevard lacordaire,Montréal,QC,H1R0C4
93033123e388ab1101f0,Centre de formation des métiers de l'acier,Public,9200,rue de l'innovation,Montréal,QC,H1J2X9
931691377368db881ac2,Marymount,Public,5100,chemin de la côte-st-luc,Montréal,QC,H3W2G9
93c4932a1057b9ca817f,Marie-Favery,Public,7750,avenue christophe-colomb,Montréal,QC,H2R2S9
94137bcc3619ffcf3abb,Dawson College (Cegep),Junior College,3040,sherbrooke street w.,Montreal,QC,H3Z1A4
9420f803b4e3d2c130b2,"Montréal Calixa-Lavallée, hôtelière de",Public,4500,boulevard henri-bourassa,Montréal,QC,H1H0A6
94b48179e763db290b61,Christ-Roi,Public,525,rue de louvain est,Montréal,QC,H2M1A1
94e74a50349da90122c0,Lucille-Teasdale,Public,3975,rue bouchette,Montréal,QC,H3S2X1
94f10b03f942ab3a83b7,"Harfang-des-Neiges, édifice Lauzon",Public,4770,rue pierre lauzon,Montréal,QC,H8Y2C5
9508aea8dccc127996a5,Sainte-Jeanne-d'Arc,Public,3700,rue sherbrooke est,Montréal,QC,H1X1Z8
95a866a7fef8ca7b0f02,Marguerite-Bourgeoys,Public,2070,rue plessis,Montréal,QC,H2L2Y3
95c1effac6466ac690e5,Collège d'Anjou,Installation,11000,rue renaude-lapointe,Montréal,QC,H1J2V7
9650172d17923b985582,Du Petit-Chapiteau,Public,4890,avenue carlton,Montréal,QC,H3W1G6
96df414ce2582f52ee0e,Saint-Donat,Public,3155,rue désautels,Montréal,QC,H1N3B8
975a553c0238d1f169a0,Centre Gabrielle-Roy,Public,8699,boulevard saint-michel,Montréal,QC,H1Z3G1
9841bc46c6fd92a7a292,Centre d'intégration scolaire inc.,Installation,6361,6e avenue,Montréal,QC,H1Y2R7
988f27a916dc13b39d05,Collège Cumberland inc. (secteur anglophone),Installation collège privé,6560,avenue de l'esplanade,Montréal,QC,H2V4L5
99114dea334be1cbd82b,Marc-Favreau,Public,6310,avenue somerled,Montréal,QC,H3X2B8
991bb378baea7c924254,Ecole des Metiers du Sud-Ouest de Montreal,Technical and Vocational,717,rue saint ferdinand,Montreal,QC,H4C3L7
9921f46be89f8130b1a9,"Saint-Albert-le-Grand, annexe temporaire",Public,5015,9e avenue,Montréal,QC,H1Y2J3
99cf5f6e9c7e99a12122,Collège Cumberland inc.,Collège privé,6560,avenue de l'esplanade,Montréal,QC,H2V4L5
9a5581397584ca9156f8,Centre d'étude en responsabilité sociale et écocitoyenneté (CÉRSÉ),Centre collégial de transfert de technologie,6400,16e avenue cégep de rosemont,Montréal,QC,H1X2S9
9ab282e73b037b83cee7,"Collège de gestion, technologie et santé Matrix inc.",Collège privé,609,709 et 711,Montréal,QC,H3H1E8
9acfcfe291e1a34d0711,Académie Michèle-Provost,Installation,1517,avenue des pins ouest,Montréal,QC,H3G1B3
9b5b010145342bd1b6ab,Laurier,Public,505,avenue laurier est,Montréal,QC,H2J1E9
9b66f56b3c16b1730e27,CFP des Carrefours,Public,1240,rue moffat,Montréal,QC,H4H1Y9
9b87f16f7a769d0ea0e4,Cégep à distance,Établissement d'enseignement,6300,16e avenue,Montréal,QC,H1X2S9
9bf6146bd71389c2e150,"Transitoire - Le 4835, av. Christophe-Colomb",Public,4835,avenue christophe-colomb,Montréal,QC,H2J3G8
9ca07807f652e9637333,Notre-Dame-de-Lourdes,Public,504,5e avenue,Montréal,QC,H4G2Z1
9ca0a6055502c7ac7cf4,École à pas de géant,Installation,5460,rue connaught,Montréal,QC,H4V1X7
9cad808c931c03a7ecd0,Saint-Simon-Apôtre,Public,195,rue de beauharnois ouest,Montréal,QC,H2N1K1
9cfca6711fcf744b46ff,Collège Dawson,Cégep,3040,rue sherbrooke ouest,Montréal,QC,H3Z1A4
9d3fc3620e8c6dc9066d,Musitechnic Formation,Collège privé,1088,rue clark,Montréal,QC,H2Z1K2
9dc5ff01e991adabe325,Université de Montréal,Université,2900,boulevard édouard-montpetit,Montréal,QC,H3T1J4
9dcbfd63f4b2dcb5f48b,EMICA,Public,3955,rue de bellechasse,Montréal,QC,H1X1J6
