Index,Facility_Name,Facility_Type,Street_No,Street_Name,City,Prov_Terr,Postal_Code
21bc86b9e60103f8e1d4,École des entrepreneurs du Québec,Collège privé,503,boulevard rené-lévesque ouest,Montréal,QC,H2Z1A8
21cf7ef9fdba3806d0a5,Saint-Émile,Public,3450,rue davidson,Montréal,QC,H1W2Z5
2346d927b68bbe94a2f3,Laurenhill,Public,2505,chemin côte vertu,Montréal,QC,H4R1P3
2378216a5563c59981c3,Notre-Dame-des-Rapides,Public,8585,rue george,Montréal,QC,H8P1G5
238d66e7d4a72b15c160,Terry-Fox,Public,13350,rue purcell,Montréal,QC,H8Z1P7
23b1929d6ba8bfd39b1c,L'École St-Georges de Montréal inc. (campus I),Installation,3100,le boulevard,Montréal,QC,H3Y1R9
240218a28e28fb69b537,École nationale de cirque,Installation,8181,2e avenue,Montréal,QC,H1Z4N9
2496d01543f155f8e43f,Pierre de Coubertin,Public,4700,boulevard lavoisier,Montréal,QC,H1R1H9
24c82a55550522ed9a80,Lakeside Academy,Public,5050,rue sherbrooke,Montréal,QC,H8T1H8
25219571843725afbaa9,Collège Herzing,Installation,1616,boulevard rené-lévesque ouest,Montréal,QC,H3H1P8
25f5e1de8ef686750a7d,Félix-Leclerc,Public,1750,boul du tricentenaire,Montréal,QC,H1B3B1
2629061a59dabe86088d,Maisonneuve,Public,1680,avenue morgan,Montréal,QC,H1V2P9
2649491b20330c821117,"École nationale de cirque, enseignement en anglais",Installation collège privé,8181,2e avenue,Montréal,QC,H1Z4N9
269dad45a18775cae773,École secondaire L.I.N.K.S.,3_OrgImm_Anglo_secondaire,9955,avenue papineau,Montréal,QC,H2B1Z9
26c7d87d9e66e01f3de3,Collège Regina Assumpta,Installation,1750,rue sauriol est,Montréal,QC,H2C1X4
26d035a4e9724d591ccf,École Alex Manoogian,Installation,755,rue manoogian,Montréal,QC,H4N1Z5
26d9ce2e7dda83da1bca,Recording Arts Canada,Private Institution,390,notre-dame ouest,Montreal,QC,H2Y1T9
273d3a0a801542b94449,Campus Notre-Dame-de-Foy/Collège BCM (rue Vézina),Installation collège privé,5115,rue vézina,Montréal,QC,H3W1C2
27de5d5c1c25545d950c,"Internationale de Montréal, primaire",Public,5010,avenue coolbrook,Montréal,QC,H3X2K9
27ed898b04d8ecd0a324,"Léonard-De Vinci, pavillon 2e et 3e cycle",Public,7575,19e avenue,Montréal,QC,H2A2M2
289617d0fc7eb76eefd1,L'Académie Beth Rivkah pour filles,Installation,5001,rue vézina,Montréal,QC,H3W1C2
28c2e93567a802098043,"Syn Studio, enseignement en anglais",Installation collège privé,460,rue saint-catherine ouest,Montréal,QC,H3B1A7
291bb0e62265349a5835,Ahuntsic,Public,10615,boulevard saint-laurent,Montréal,QC,H3L2P5
29918c92bd615da6f2a1,"Collège CDI Administration. Technologie. Santé, Campus de Montréal",Installation,416,boulevard de maisonneuve ouest,Montréal,QC,H3A1L2
29920e1493deaf651401,École Marie-Clarac (Claudette Mackay-Lassonde),Installation,3641,boulevard gouin est,Montréal,QC,H1H5L8
29f312623ec362dc4c5a,"Le 3075, avenue Lebrun",Public,3075,avenue lebrun,Montréal,QC,H1L5G2
29f3d5bd139800a38a45,Saint-François-Solano,Public,3580,rue dandurand,Montréal,QC,H1X1N6
2a3b832a9a9ba7bd43e5,Collège Canada inc. (secteur anglophone),Installation collège privé,1231,rue sainte-catherine ouest,Montréal,QC,H3G1P5
2acbcc5c83e33812febd,Notre-Dame-des-Sept-Douleurs,Public,320,avenue de l'église,Montréal,QC,H4G2M4
2bad9ffe9a508521c191,"Camille-Laurin, annexe",Public,7700,avenue d'outremont,Montréal,QC,H3N2L9
2c3aa1d2949c7cc37b47,Paul-Gratton Annexe,Public,12823,avenue rodolphe-forget,Montréal,QC,H1E6P6
2c8951409ccca6432147,Notre-Dame-de-la-Garde,Public,755,rue brault,Montréal,QC,H4H2B3
2cba87d4965f69ae8343,"Transitoire - Le 3000, rue Beaubien Est",Public,3000,rue beaubien est,Montréal,QC,H1Y1H2
2cc210d1e91c66729b4f,Collège international Marie de France,Installation,4635,chemin queen mary,Montréal,QC,H3W1W3
2d0fc38758bc14321e1b,Coeur-Immaculé-de-Marie,Public,1845,boulevard desmarchais,Montréal,QC,H4E2B7
2d7e974cab1809faa021,Jules-Verne,Public,11811,rue p-m favier,Montréal,QC,H1G5X4
2dceaaaabb400d7d9be6,Louis-Dupire,Public,6400,av pierre-de coubertin,Montréal,QC,H1N1S4
2dfda2530f1e84c22ab5,Collège de Technologie Ascent inc.,Collège privé,1100,boulevard crémazie est,Montréal,QC,H2P2X2
2e7f913d3a7a8841b5cb,Saint-Louis-de-Gonzague,Public,2430,terrasse mercure,Montréal,QC,H2H1P2
2eb1372ce358dd45079a,"Collège de gestion, technologie et santé Matrix inc. (secteur anglophone)",Installation collège privé,200,207 et 210,Montréal,QC,H2L1L3
2edc349915962b280925,Pierre Elliot Trudeau,Public,6855,rue cartier,Montréal,QC,H2G2W1
2f0591df519a6af4f04f,Collège d'aéronautique,Collège privé,300,boulevard marcel-laurin,Montréal,QC,H4M2L4
2f27e2345861b0111f35,"Katimavik, édifice Katimavik",Public,1700,rue decelles,Montréal,QC,H4L0B9
2ff28a2ccb0b4779a39c,Universite du Quebec a Montreal,University,320,rue sainte-catherine est,Montreal,QC,H2X1L7
30393443df39b098c5e8,Gardenview,Public,700,rue brunet,Montréal,QC,H4M1Y2
30537a0afb7cea5d5989,Académie Louis-Pasteur,Installation,7220,rue marie-victorin,Montréal,QC,H1G2J5
31b880f641e9f9b58545,Louise-Trichet,Public,2800,boulevard lapointe,Montréal,QC,H1L5M1
31bca718a927860ec7cd,Alphonse-Desjardins,Public,6600,rue lemay,Montréal,QC,H1T2L7
31d0b414ff430085bdfc,Sainte-Claire,Public,8500,rue sainte-claire,Montréal,QC,H1L1X7
