Index,Facility_Name,Facility_Type,Street_No,Street_Name,City,Prov_Terr,Postal_Code
00318bc9f25443443415,"Bois-Franc-Aquarelle, édifice Bois-Franc",Public,2085,rue de londres,Montréal,QC,H4L3A5
00e01069d449baf23836,"Au Pied-de-la-Montagne, pav. Jean-Jacques-Olier",Public,311,avenue des pins est,Montréal,QC,H2W1P5
00e12211c4530ed79b6b,École nationale de théâtre du Canada,Collège privé,5030,rue saint-denis,Montréal,QC,H2J2L8
0152c4bcb17301beed89,Lasalle Community Comprehensive,Public,240,9e avenue,Montréal,QC,H8P2N9
017420a9725ecac5769b,Collège Inter-Dec,Collège privé,2000,rue sainte-catherine ouest,Montréal,QC,H3H2T2
01857d4db7529946922e,Lucien-Pagé,Public,8200,boulevard saint-laurent,Montréal,QC,H2P2L8
01972de62ef627eb553a,École Polytechnique de Montréal,Université,2900,boulevard édouard-montpetit,Montréal,QC,H3T1J4
01d5f7f44e0f74bbf94e,Saint-François-d'Assise,Public,2150,rue liébert,Montréal,QC,H1L5R1
01e41e968686c9a749a6,Général-Vanier,Public,4555,rue buies,Montréal,QC,H1S1J2
021b6fbd975ce1dd92fc,Marie-de-l'Incarnation,Public,5446,rue angers,Montréal,QC,H4E4A3
022ee9eb082706180c20,"Centre de recherche, d'innovation et de transfert en Arts du cirque",Centre collégial de transfert de technologie,8181,2e avenue,Montréal,QC,H1Z4N9
02377478e0c8ac15cd11,Pierrefonds Comprehensive High,Public,13800,boulevard pierrefonds,Montréal,QC,H9A1A7
0346090335ab8ae82f4f,"Sophie-Barat, annexe",Public,750,boulevard gouin est,Montréal,QC,H2C1A6
0380a8d144d07355754a,"Léonard-De Vinci, pav. préscolaire et 1er cycle",Public,7630,22e avenue,Montréal,QC,H2A2H9
0392354f82292da5d80d,John F. Kennedy Complex,Public,3030,rue villeray,Montréal,QC,H2A1E7
04b865e781ff4103fc20,"Métiers de la construction de Montréal, annexe 1",Public,3320,rue hochelaga,Montréal,QC,H1W1H1
05dfb948076395a1d5b3,La Vérendrye,Public,3055,rue mousseau,Montréal,QC,H1L4W1
067e5aad508d560ae7ce,"Collège de l'immobilier du Québec, enseignement en anglais",Installation collège privé,600,chemin du golf,Montréal,QC,H3E1A8
06d1ddba6c0f19670bae,Saint-Rémi Annexe,Public,4041,rue monselet,Montréal,QC,H1H2C6
06dec2cb3086aaaa0dcb,"École communautaire Belz, Campus Hillsdale, section anglaise",Installation,6235,chemin hillsdale,Montréal,QC,H3S2M8
07092907b149b51ef249,Centre Saint-Louis,Public,,,Montréal,QC,H2W2L7
0775365fd57712073294,"Saint-Luc, annexe 1",Public,7315,rue de terrebonne,Montréal,QC,H4B1E3
083b71e9c9122bb52dfd,Enfant-Soleil,Public,1615,rue tassé,Montréal,QC,H4L1R1
08f9743d44f09de597ae,Saint-Benoît,Public,500,avenue du mont-cassin,Montréal,QC,H3L1W6
0939855401bd1ca44573,Sainte-Catherine-de-Sienne,Public,7055,avenue somerled,Montréal,QC,H4V1V8
093c1c7bd1cdcd5a8bc9,"Saint-Noël-Chabanel, pavillon des Bâtisseurs",Public,8801,25e avenue,Montréal,QC,H1Z4B4
097cbe39d1b3a95540fa,Kingsdale Academy,Public,4381,rue king,Montréal,QC,H9H2E8
0a141f85f65427f081ce,École Al-Houda,Installation,7085,chemin de la côte-des-neiges,Montréal,QC,H3R2M1
0a414660a35eb87a6979,Madeleine-de-Verchères,Public,6017,rue cartier,Montréal,QC,H2G2V4
0a8a2882444fc6e48bef,Sainte-Colette,Public,12001,rue jean-paul-cardinal,Montréal,QC,H1G4W4
0aa44d7aa3875de9fa31,Édouard-Laurin,Public,1085,rue tassé,Montréal,QC,H4L1P7
0b5495b0f63d88042c22,"L'Académie Centennial, section française",Installation,2065,rue sherbrooke ouest,Montréal,QC,H3H1G6
0b8c6659a52a7e91f580,"Saint-Louis-de-Gonzague, annexe",Public,2175,rue rachel est,Montréal,QC,H2H1R3
0bd782ce37f568500460,Conservatoire de Musique et D'Art Dramatique de Montreal,Technical and Vocational,4750,avenue henri-julien,Montreal,QC,H2T2C8
0c240a9b5022bffdd142,Isart Digital Montréal inc.,Collège privé,1440,rue sainte-catherine ouest,Montréal,QC,H3G1R8
0c5db2f958f3c8a95566,"François-de-Laval, annexe",Public,12020,av du bois-de-boulogne,Montréal,QC,H3M2X9
0cb0504520b19f5a2a7f,Hébert,Public,705,boulevard décarie,Montréal,QC,H4L3L3
0d5eb95f96ee5b80f507,Cavelier-De-LaSalle,Public,9199,rue centrale,Montréal,QC,H8R2J9
0e547fe195045d4b0d32,"Collège technique de Montréal inc., enseignement en anglais",Installation collège privé,8255,mountain sights,Montréal,QC,H4P2B5
0e590a25cb8d2252b2c7,John F. Kennedy Business Centre,Technical and Vocational,3030,villeray st,Montreal,QC,H2A1E7
0eb442ce27fef044a104,CEGEP du Vieux-Montreal,Junior College,255,rue ontario est,Montreal,QC,H2X1X6
0ebb2f27ecbcfdcd8b08,"École communautaire Belz, Campus Ducharme, section anglaise",Installation,1495,avenue ducharme,Montréal,QC,H2V1E8
0ef40aa299b459397083,"Marguerite, des",Public,100,boul de l'île-des-soeurs,Montréal,QC,H4G2P9
0fd27fb194250ad22057,Collège Stanislas inc.,Collège privé,780,boul dollard,Montréal,QC,H2V3G5
1007db38a401c8ae4023,Louis-Fréchette,Public,5009,rue ardennes,Montréal,QC,H1G2H7
102e23ef7db2c2c7556d,"Grands-Êtres, des",Public,1150,rue deguire,Montréal,QC,H4L1M2
105030b680bd7b1b237e,Collège TAV (secteur anglophone),Installation collège privé,5030,rue jeanne-mance,Montréal,QC,H2V4J8
10d1f38a5f5e8b7938b3,Willingdon,Public,5870,rue de terrebonne,Montréal,QC,H4A1B5
10fed7fdb9bf28fc86ed,Galileo Complex,Public,10921,avenue gariépy,Montréal,QC,H1H4C6
