Index,Facility_Name,Facility_Type,Street_No,Street_Name,City,Prov_Terr,Postal_Code
f578d59fa43012ea4c21,Sans-Frontières,Public,5937,9e avenue,Montréal,QC,H1Y2K4
f5861a7ae228c4d7900d,"Académie Solomon Schechter, campus préscolaire, section anglaise",Installation,4950,avenue macdonald,Montréal,QC,H3X2V3
f592a98d45ee015cb700,Collège Herzing (secteur anglophone),Installation collège privé,1616,boulevard rené-lévesque ouest,Montréal,QC,H3H1P8
f5b20a8411f069084e13,Irénée-Lussier,Public,4100,rue hochelaga,Montréal,QC,H1V1B6
f64a7f0074b32bfff58c,Centre Champagnat,Public,5017,rue saint-hubert,Montréal,QC,H2J2X9
f6cf1f30fbf3f6959753,Terre-des-Jeunes,Public,7900,rue doyle,Montréal,QC,H8N0E9
f7116d34e6c92d003bd0,Sainte-Catherine-Labouré,Public,441,rue trudeau,Montréal,QC,H8R3C3
f72412aa7ed618153295,Institut d'enregistrement du Canada,Collège privé,1207,rue saint-andré,Montréal,QC,H2L3S8
f72cc953210b0270f51b,École la Nouvelle Vague,Installation,938,rue saint-maurice,Montréal,QC,H3C1L7
f779b906a278047bd262,College de Saint-Laurent,Junior College,625,blvd ste-croix,Montreal,QC,H4L3X7
f84984600f718a9ba580,Sinclair Laird / St. Raphael Center,Public,8380,avenue wiseman,Montréal,QC,H3N2P6
f85a15aec068ba3f5a38,"Collège Français, Campus de Montréal",Installation,185,avenue fairmount ouest,Montréal,QC,H2T2M6
f86354994a37e7dea076,St. John Bosco,Public,6255,rue hamilton,Montréal,QC,H4E3C5
f8a4f929afed26f45224,Dalbé-Viau,Public,740,rue esther blondin,Montréal,QC,H8S4C4
f90e7e4edbdfaca024ba,"Centre François-Michelle, préscolaire-primaire",Installation,10095,rue meunier,Montréal,QC,H3L2Z1
fa7e44fb7c77e946079a,John Caboto,Public,8955,rue meunier,Montréal,QC,H2N1W3
fad06f57d8e3015ee6c9,Jonathan-Wilson,Public,3243,boulevard chevremont,Montréal,QC,H9C2L8
fc2a5d7255af7dd69408,Montmartre,Public,1855,59e avenue,Montréal,QC,H1A2P2
fc37fb38c9bb0380ce25,Alphonse-Pesant,Public,4600,rue compiègne,Montréal,QC,H1R1S7
fc9bac2c7552c82938dd,Centre Yves-Thériault,Public,3925,rue villeray,Montréal,QC,H2A1H1
fe12977b03b6995fc858,Nouvelle école secondaire Pierrefonds,Public,5060,boulevard des sources,Montréal,QC,H8Y3E4
fe212be80f393af32be5,Sainte-Louise-de-Marillac,Public,8100,rue de marseille,Montréal,QC,H1L1P3
feaa91dd48efcc8c9c42,De la Petite-Bourgogne,Public,555,rue des seigneurs,Montréal,QC,H3J1Y1
fee8e13a7d373d0cf6ae,Métiers de la restauration et du tourisme de Mtl,Public,1822,boul. de maisonneuve o.,Montréal,QC,H3H1J8
ff1b018a6833854c0403,Centre Ferland / La Relance,Public,10339,avenue du parc-georges,Montréal,QC,H1H4Y4
ff8cccad98f170c39805,Sainte-Geneviève Ouest,Public,35,rue sainte-anne,Montréal,QC,H9H2Z2
ff928196299406b3e6b1,Collège Supérieur de Montréal,Installation,800,boulevard de maisonneuve est 5e et 6e étages,Montréal,QC,H2L4L8
fffc4c62bfed5a2c6fc5,Camille-Laurin,Public,8000,avenue de l'épée,Montréal,QC,H3N2E9
