Index,Facility_Name,Facility_Type,Street_No,Street_Name,City,Prov_Terr,Postal_Code
31d0b414ff430085bdfc,Sainte-Claire,Public,8500,rue sainte-claire,Montréal,QC,H1L1X7
31f3c4833e2f137c339f,Collège Charlemagne inc.,Installation,5000,rue pilon,Montréal,QC,H9K1G4
3353c06713ba16ea66ba,Institut Teccart (2003),Technical and Vocational,3030,rue hochelaga,Montreal,QC,H1W1G2
33ada6c923dd48d37152,Le Tournesol annexe,Public,1680,8e avenue,Montréal,QC,H1B4H5
342204914e7c978adca1,Royal Vale,Public,5851,avenue somerled,Montréal,QC,H3X2A5
344e728b9bd5f3d7e22b,Académie Kells,Installation,6645,boulevard de maisonneuve ouest,Montréal,QC,H4B2Y3
34537199564946da9a07,"La Petite-Patrie, pav. Notre-Dame-de-la-Défense",Public,6841,avenue henri-julien,Montréal,QC,H2S2V3
34fb870521e54d3dbbc1,Pierre-Dupuy,Public,2000,rue parthenais,Montréal,QC,H2K3S9
35fc7c8efc43da79205c,Edward Murphy,Public,6800,ave. pierre-de coubertin,Montréal,QC,H1N1T2
36863398e7183833c998,Collège LaSalle,Collège privé,2000,rue sainte-catherine ouest,Montréal,QC,H3H2T2
36873c52bfcb398fd387,Leonardo Da Vinci,Public,12025,avenue andré-dumas,Montréal,QC,H1E4G2
36b43d86830e7aecfcaf,Édu2,Installation,5800,boulevard saint-laurent,Montréal,QC,H2T1T3
37460002dd823cbe2151,Cégep de Bois-de-Boulogne,Cégep,10555,avenue de bois-de-boulogne,Montréal,QC,H4N1L4
37afad6eb0662457aeb0,L'École arménienne Sourp Hagop,Installation,3400,rue nadon,Montréal,QC,H4J1P5
380852cbcdf4ec621b95,"Le 8735, avenue Henri-Julien",Public,8735,avenue henri-julien,Montréal,QC,H2M1M5
38422d075461fd3b4519,Saint-Paul-de-la-Croix,Public,10495,avenue georges-baril,Montréal,QC,H2C2N1
38a0123e19d42c1636d9,Sainte-Germaine-Cousin,Public,1880,48e avenue,Montréal,QC,H1A2Y6
38aea5709ac2dd905ebb,"Saint-Luc, annexe 2",Public,3744,avenue prud'homme,Montréal,QC,H4A3H4
395e1aca8d815a7819bd,Beechwood,Public,13155,rue shelborne,Montréal,QC,H9A1L4
39959032120b50f45432,Ferland,Public,8755,rue belcourt,Montréal,QC,H1P2L9
39b6b1fd87b32a9ef289,Paul-Jarry,Public,676,11e avenue,Montréal,QC,H8S3G9
39cdf56f67a428359dee,École le Savoir,Installation,11950,boulevard gouin ouest,Montréal,QC,H8Z1V6
39e6ed955cb9721fed3d,Laurentide,Public,465,rue cardinal,Montréal,QC,H4L3C5
3a6138b20f7779019ddd,Notre-Dame-des-Neiges,Public,5309,chemin côte-des-neiges,Montréal,QC,H3T1Y4
3a903e90a1ffcaae21fc,Collège Jean-de-Brébeuf,Collège privé,3200,chemin de la côte-sainte-catherine,Montréal,QC,H3T1C1
3aae50f7ed34beee7fcc,Villa Maria,Installation,4245,boul. décarie,Montréal,QC,H4A3K4
3bd65051ef4fe847b089,Parkdale,Public,1475,rue deguire,Montréal,QC,H4L1M4
3c122fb6d53d90441a41,Collège Greystone (secteur anglophone),Installation collège privé,550,rue sherbrooke ouest tour est,Montréal,QC,H3A1B9
3c30da75f39978f05c4d,École Lucien-Guilbault inc.,Installation,3165,rue de louvain est,Montréal,QC,H1Z1J7
3c7fb194027eb13afb68,Institut Grasset,Installation collège privé,220,avenue fairmount ouest,Montréal,QC,H2T2M7
3cab40020fc72456c36b,"Saint-Gabriel-Lalemant, annexe",Public,7375,rue garnier,Montréal,QC,H2E2A1
3ced5f9e44692c4623a2,Maple Grove,Public,740,52e avenue,Montréal,QC,H8T2X6
3d171eb4e9f7d8e98fef,"École Socrates-Démosthène, Campus Socrates III",Installation,11,11e rue montréal,Montréal,QC,H8Y1K6
3d47f53404c0185c450f,"Saint-Luc, annexe 3",Public,3641,avenue prud'homme,Montréal,QC,H4A3H6
3d91b046afffcdecb052,Sainte-Bernadette-Soubirous,Public,6855,16e avenue,Montréal,QC,H1X2T5
3de95084153d1555e4fd,Saint Anthony,Public,17750,rue meloche,Montréal,QC,H9J3P9
3f3b02f4145b5145edf8,École Lucien-Guilbault inc.- secteur 2e cycle du secondaire,Installation,3001,rue de louvain est,Montréal,QC,H1Z1J7
3f56b9a327d5a60d4523,"Saint-Barthélémy, pavillon Sagard",Public,7400,rue sagard,Montréal,QC,H2E2S9
3ffae79d2ac0026fc828,"École Socrates-Démosthène, Campus Socrates II",Installation,5757,avenue wilderton,Montréal,QC,H3S2K8
4009eda99fed171fb382,Gérald McShane,Public,6111,boulevard m.-duplessis,Montréal,QC,H1G1Y6
402136522ef81d83ed81,Pearson Electrotechnology Centre,Public,5000,rue rené-huguet,Montréal,QC,H8T1M7
405874e252a2d89da422,"Yeshiva Gedola-Merkaz Hatorah de Montréal, section anglaise",Installation,6155,chemin deacon,Montréal,QC,H3S2P4
40ced31298f801e11704,"Très-Saint-Sacrement, édifice du Savoir",Public,380,rue provost,Montréal,QC,H8S1L7
4131e28d53555cb1feb4,"Martin-Bélanger, édifice Martin",Public,29,avenue ouellette,Montréal,QC,H8R1L4
4180b0a2ff803c8c10f9,Our Lady of Pompei,Public,9944,boulevard saint-michel,Montréal,QC,H1H5G8
41e7e69a8627cf4b2589,"Fernand-Seguin, pavillon Julie-Payette",Public,10085,rue durham,Montréal,QC,H2C2G3
42cc0d80d8a52cf391cd,Honoré-Mercier,Public,1935,boulevard desmarchais,Montréal,QC,H4E2B9
4325d06795284fb81d83,Lester B. Pearson,Public,11575,rue p.-m. favier,Montréal,QC,H1G6E5
434c32b9a22287569db1,L'École du Routier Professionnel du Québec (1996) Inc.,Installation,12305,boulevard métropolitain est,Montréal,QC,H1B5R3
