Index,Facility_Name,Facility_Type,Street_No,Street_Name,City,Prov_Terr,Postal_Code
7b3cc5fd4fd5ce3a4c20,Saint-Gabriel-Lalemant,Public,7350,rue garnier,Montréal,QC,H2E2A3
7bbf4e234b78ea818bf8,Institut d'innovation en logistique du Québec (IILQ),Centre collégial de transfert de technologie,1111,rue lapierre,Montréal,QC,H8N2J4
7c058824926f88e1796a,École Augustin Roscelli,Installation,11960,boulevard de l'acadie,Montréal,QC,H3M2T7
7c6dc663ef5d3c3ffd5e,Daniel-Johnson,Public,1200,boul du tricentenaire,Montréal,QC,H1B3A8
7c939a5069cb681c3ae4,High School of Montreal Complex,Public,3711,rue de bullion,Montréal,QC,H2X3A2
7cc1d7f662ef3d50e8b5,Saint-Grégoire-le-Grand,Public,7950,rue cartier,Montréal,QC,H2E2K2
7d4a66e3900b49f71489,"Académie Kells, campus préscolaire et primaire",Installation,2290,boulevard cavendish,Montréal,QC,H4B2M7
7d7ffad6bc4e9b9c4113,"Le 5643, rue Clark",Public,5643,rue clark,Montréal,QC,H2T2V5
7ddcc4ebb4512cea45dc,Perce-Neige,Public,4770,boulevard lalande,Montréal,QC,H8Y1V2
7e2721c022c1095d9b3f,"Saint-André-Apôtre, annexe",Public,11015,rue tolhurst,Montréal,QC,H3L3A8
7e633ecfacd704f5692e,"Fraternité, de la",Public,11241,avenue drapeau,Montréal,QC,H1H3K3
7eb9c53677d6b451bed2,"Marie-Anne, annexe Rosalie-Jetté",Public,5100,rue bossuet,Montréal,QC,H1M2M4
7faa8b652d72c24aa301,Antoine-de-Saint-Exupéry,Public,5150,boulevard robert,Montréal,QC,H1R1P9
7fcebc3883b9e8391168,Paul-Gratton,Public,11865,rue de montigny,Montréal,QC,H1B1P2
8054de17456fc4a77b0b,Lalande,Public,50,3e avenue sud,Montréal,QC,H8Y2L5
80b0809adfe648060cc0,École de la Relève Ali Nestor,Installation,3700,boulevard crémazie est,Montréal,QC,H2A1B2
80d9558353c63e135c3b,Saint-Pascal-Baylon,Public,6320,chemin côte-des-neiges,Montréal,QC,H3S2A4
8184ec3641a9b213b915,"Bois-Franc-Aquarelle, édifice Aquarelle",Public,2080,rue de londres,Montréal,QC,H4L3A6
81d423e012380f89ad7f,"Académie Beyachad, campus pour filles",Installation,1495,avenue ducharme,Montréal,QC,H2V1E8
825e4c7174e804a58a7a,"Saules-Rieurs, des",Public,1050,5e avenue,Montréal,QC,H4G2Z6
82d21dd62d0f6723ce65,Lajoie,Public,1276,avenue lajoie,Montréal,QC,H2V1P3
834017d1d7fb48b99ea3,"Mgr-Richard, édifice Rhéaume",Public,3000,boul gaétan-laberge,Montréal,QC,H4G3C1
835f9359de8add755ad7,Beurling Academy,Public,6100,boulevard champlain,Montréal,QC,H4H1A5
836181ffcc4de9507409,Sainte-Odile,Public,12055,rue dépatie,Montréal,QC,H4J1W9
83ea5de20f89f4cbb475,Collège international Marie de France,Collège privé,4635,chemin queen-mary,Montréal,QC,H3W1W3
83f9b7b473e3a5409ffb,Louisbourg,Public,11880,rue michel-sarrazin,Montréal,QC,H4J2G7
84443d3e956984b1afd9,CRISPESH - Centre de recherche pour l'inclusion des personnes en situation de handicap,Centre collégial de transfert de technologie,255,rue ontario est,Montréal,QC,H2X1X6
84570cb025935a988dfb,Cégep d'Ahuntsic,Cégep,9155,rue saint-hubert,Montréal,QC,H2M1Y8
84955b3e006da3ba43e0,Collège St-Jean-Vianney,Installation,12630,boulevard gouin est,Montréal,QC,H1C1B9
850ab01d5fac80ce892d,Père-Marquette,Public,6030,rue marquette,Montréal,QC,H2G2Y2
8588c0d194774d68697b,Sainte-Cécile,Public,7230,avenue de gaspé,Montréal,QC,H2R1Z6
85ada4f5ff3efeb007ea,"École Peter Hall inc., Campus Côte-Vertu",Installation,840,boulevard de la côte-vertu,Montréal,QC,H4L1Y4
895cab10ec049fbfdba8,Atelier,Public,10055,rue jean-jacques-gagnier,Montréal,QC,H2B2Z7
8985ca1050a792a7ab12,"CFP de Verdun, édifice Galt",Public,1150,avenue galt,Montréal,QC,H4G2P9
8a5270a46fca8a8217ac,"Marie-Rivier, pavillon Louvain",Public,9200,8e avenue,Montréal,QC,H1Z2Y5
8abd4deb8b2983af75c0,Pierre-Rémy,Public,360,80e avenue,Montréal,QC,H8R2T3
8b01e65b691c00fd8dd2,"Collège O'Sullivan de Montréal, enseignement en anglais",Installation collège privé,1191,rue de la montagne,Montréal,QC,H3G1Z2
8c264b651cae253d209c,Simone-Desjardins pavillon Gouin,Public,10004,boulevard gouin est,Montréal,QC,H1C1A8
8c4231f96dceed53d86c,Pensionnat Notre-Dame-des-Anges,Installation,5680,boulevard rosemont,Montréal,QC,H1T2H2
8c6f17bd8200b2596030,Chénier,Public,5800,avenue saint-donat,Montréal,QC,H1K3P4
8c8bdfb633b07e4e0ae4,"Saints-Martyrs-Canadiens, annexe",Public,10000,rue parthenais,Montréal,QC,H2B2L4
8da026b3724aa32dbba4,"Académie Solomon Schechter, campus primaire, section française",Installation,5555,chemin de la côte-saint-luc,Montréal,QC,H3X2C9
8dc49560b25ebd858df1,"Saint-Mathieu, annexe",Public,7110,8e avenue,Montréal,QC,H2A3C4
8ebecec7aedebe631bd0,Centre Marie-Médiatrice,Public,6200,rue des écores,Montréal,QC,H2G2J5
902741f53114b10162ec,Sainte-Colette Annexe,Public,11960,boulevard ste-colette,Montréal,QC,H1G4V1
905051068baa9ef2a295,Saint-Clément,Public,4770,rue la fontaine,Montréal,QC,H1V1R3
908b508fd73eab66f3be,Henri-Beaulieu,Public,235,rue bleignier,Montréal,QC,H4N1B1
90d4065200b7da3b4d7d,"Les écoles Azrieli Talmud Torah - Herzliah, Campus Beutel, section anglaise",Installation,4840,avenue saint-kevin,Montréal,QC,H3W1P2
915af9f5a41a72448fad,"Collège Pasteur, Pavillon Victor-Hugo",Installation,12525,rue lachapelle,Montréal,QC,H4J2N2
