Index,Facility_Name,Facility_Type,Street_No,Street_Name,City,Prov_Terr,Postal_Code
55fac7930ed9e57f7951,"Maisonneuve, annexe temporaire",Public,4650,rue ontario est,Montréal,QC,H1V1L2
561bcc36cd1217d57ff4,Saint-Justin,Public,5005,rue mousseau,Montréal,QC,H1K2V8
567280c55731bcb086a6,Boucher-De La Bruère,Public,7760,rue la fontaine,Montréal,QC,H1L3H2
56a4328132912a486f73,Collège Kensley inc.,Collège privé,279,rue sherbrooke ouest,Montréal,QC,H2X1Y2
56ecb7b1439441ed71e4,Cégep Marie-Victorin,Cégep,7000,rue marie-victorin,Montréal,QC,H1G2J6
579f69195a45f7ce8e7a,Alice-Parizeau,Public,11715,rue filion,Montréal,QC,H4J1T2
57eb742258ad12e06ae9,"Coquelicots, des",Public,7301,rue churchill,Montréal,QC,H4H2L1
57f621a3a4202625bf0f,Collège de Montréal,Installation,1931,rue sherbrooke ouest,Montréal,QC,H3H1E3
581e0d1909e2ccada9c7,"École communautaire Belz, Campus Ducharme, section française",Installation,1495,avenue ducharme,Montréal,QC,H2V1E8
585ab0234039e2fbd7ee,Saint-Fabien,Public,6500,avenue de renty,Montréal,QC,H1M1M4
58d7c87eaa3fb9ee2b6c,Notre-Dame-de-Grâce,Public,5435,av notre-dame-de-grâce,Montréal,QC,H4A1L2
5909905fc0ddbc273fa1,Collège Sainte-Marcelline,Installation,9155,boulevard gouin ouest,Montréal,QC,H4K1C3
59991f6274f664ae7db0,Notre-Dame-de-la-Paix,Public,454,avenue caisse,Montréal,QC,H4G2C8
5a4250af608e466282c2,École nationale de théâtre du Canada,Installation collège privé,1182,boulevard saint-laurent,Montréal,QC,H2X2S5
5a71e6bb0103ea77dfcb,"Académie Beyachad, campus pour garçons",Installation,6508,avenue durocher,Montréal,QC,H2V3Z3
5ab7f597616b218ed13a,Collège St-Jean-Vianney,Installation,12630,boulevard gouin est,Montréal,QC,H1C1B9
5b8423ad4f0b60de5372,Saint-Antoine-Marie-Claret,Public,10600,avenue larose,Montréal,QC,H2B2Z3
5bc202a0e8cc281e65db,Université du Québec à Montréal,Constituante,,,Montréal,QC,H3C3P8
5bdee6ff52c96f091303,Saint-Étienne,Public,5959,avenue christophe-colomb,Montréal,QC,H2S2G3
5c1c811cf8c332e648e1,Institut supérieur d'informatique ISI,Collège privé,2100,boulevard de maisonneuve est,Montréal,QC,H2K4S1
5c2527052b7385fa8c31,"Découvreurs, des",Public,845,39e avenue,Montréal,QC,H8P2Y6
5c5a1a08dbeda222191d,"Saint-Laurent, édifice Émile-Legault",Public,2395,boulevard thimens,Montréal,QC,H4R1T4
5c6086c9887260a80490,Métiers de l'équipement motorisé de Montréal,Public,5455,rue saint-denis,Montréal,QC,H2J4B7
5c7d5ac7a0e848da8e71,St. Dorothy,Public,8961,6e avenue,Montréal,QC,H1Z2T7
5c88c1decd9fe2f5b316,Victor-Doré,Public,1350,boulevard crémazie est,Montréal,QC,H2E1A1
5d3257eeb3d020e36701,"École Vanguard, secteur francophone",Installation,5935,chemin de la côte-de-liesse,Montréal,QC,H4T1C3
5d880bff2dfddf3afcf3,"Belle-Rive, pavillon des Trembles, de la",Public,15700,rue notre-dame est,Montréal,QC,H1A1X4
5e11ed1fbfc5d7820f34,College de Maisonneuve,Junior College,3800,est rue sherbrooke,Montreal,QC,H1X2A2
5efb9adf4205f8e37018,Wilfrid-Bastien,Public,8155,rue collerette,Montréal,QC,H1P2V6
5f9ac01d28e6da85c90f,Collège Centennial,Collège privé,2075,rue sherbrooke ouest,Montréal,QC,H3H1G6
5fd09531532543f04234,Herzing College (Montreal),Private Institution,1616,rene levesque blvd,Montreal,QC,H3H1P8
5ffc622005ae9e6ea0b1,Jeanne-LeBer,Public,2120,rue favard,Montréal,QC,H3K1Z7
6051d0ee1fdbd51fff01,Les-Enfants-du-Monde,Public,5350,avenue rosedale,Montréal,QC,H4V2H9
610f3a7d29cf258ac1b0,Centre Sainte-Croix,Public,85,rue jarry ouest,Montréal,QC,H2P1S6
618c667daa8171a5450b,"Saint-Bernardin, annexe",Public,2950,rue jarry est,Montréal,QC,H1Z2C8
61c46e94485ff15025fb,Victor-Thérien,Public,305,43e avenue,Montréal,QC,H8T2H8
62240796a3b49a1310e7,Collège Canada inc.,Collège privé,1118,rue sainte-catherine ouest,Montréal,QC,H3B1H5
6224e4eaf9f3f0c13147,Cégep à distance (anglophone),Établissement d'enseignement,6300,16e avenue,Montréal,QC,H1X2S9
627d5d31b879b41c032b,Montcalm,Public,8800,12e avenue,Montréal,QC,H1Z3J3
62c0513d00596be683fb,"Le 2651, boulevard Crémazie Est",Public,2651,boulevard crémazie est,Montréal,QC,H1Z2H6
62f6a94c54676e49408a,"Le 10125, rue Parthenais, annexe temporaire",Public,10125,rue parthenais,Montréal,QC,H2B2L6
63b1d7c2db3e6c644666,Lasalle Senior,Public,1555,rue rancourt,Montréal,QC,H8N1R7
641e40fd1b36ba7e4710,"Académie Solomon Schechter, campus préscolaire, section française",Installation,4950,avenue macdonald,Montréal,QC,H3X2V3
6436033e04e7e6caf269,Arc-en-Ciel,Public,4265,avenue laval,Montréal,QC,H2W2J6
64a526011d9eb50615a9,École Yaldei,Installation,5170,avenue van horne,Montréal,QC,H3W1J6
654c67beba06b7973778,École de Technologie Superieure,Junior College,1100,notre dame street west,Montreal,QC,H3C1K3
6594e66b26420d91be75,Gabrielle-Roy,Public,5950,rue honoré-mercier,Montréal,QC,H1P3E4
65fa7d9e1f4950992028,Jean-Grou,Public,805,rue tassé,Montréal,QC,H4L1N8
6694214744413f3bbadd,Collège Beaubois,Installation,4901,rue du collège-beaubois,Montréal,QC,H8Y3T4
