Index,Facility_Name,Facility_Type,Street_No,Street_Name,City,Prov_Terr,Postal_Code
45cef36338173dd60671,Collège St-Michel (secteur anglophone),Installation collège privé,1995,rue bélanger,Montréal,QC,H2G1B8
45d47aacca737fdedc82,"Rubika, école supérieure de création numérique appliquée à l'animation, au design et au jeu vidéo inc.",Collège privé,,,Montréal,QC,H2T3B3
45f0b6e09086f8bba1ad,"Collège Pasteur, Pavillon Khalil Gibran",Installation,12345,avenue de la miséricorde,Montréal,QC,H4J2E8
4602b47e1e3a24bdb96f,Cedarcrest,Public,1505,rue muir,Montréal,QC,H4L4T1
467a2bc10b868ce7ad55,"École Le Sommet, Campus École Westmount",Installation,2355,rue decelles,Montréal,QC,H4M1C2
46a86c9b12079ad8e2ac,Institut Teccart,Installation,3030,rue hochelaga,Montréal,QC,H1W1G2
46e0d17e62a18edfa23f,"Collège de gestion, technologie et santé Matrix inc.",Installation collège privé,200,207 et 210,Montréal,QC,H2L1L3
4787a092ebd30aaf0099,Conservatoire de musique de Montréal,École gouvernementale,4750,avenue henri-julien,Montréal,QC,H2T2C8
478ee32b6909e6bebfb8,Vanier College (Cegep),Junior College,821,st croix street laurent,Laurent,QC,H4L3X9
47ec6df9b0e8e62fe814,Notre-Dame-de-l'Assomption,Public,2430,rue darling,Montréal,QC,H1W2X1
48891c2a49f4576eb697,"Grand-Chêne, du",Public,5080,place savoie,Montréal,QC,H8Z1C2
4a63a789efe83d969b01,Garneau,Public,1808,avenue papineau,Montréal,QC,H2K4J1
4a7ec2e1ecae5c0ee01a,Élan,Public,3450,avenue de lorimier,Montréal,QC,H2K3X6
4a82c99bdb9698cef98d,Pie-XII,Public,5455,rue dujarié,Montréal,QC,H1R1K4
4aaa656973b45bf73c76,Saint-Isaac-Jogues,Public,9355,avenue de galinée,Montréal,QC,H2M2A7
4b53360c16d3c9e66477,ExperiSens,Centre collégial de transfert de technologie,3535,rue st-denis,Montréal,QC,H2X3P1
4b649418fb99fc91226a,"Trésor-du-Boisé, au",Public,3925,rue claude-henri-grignon,Montréal,QC,H4R3K2
4b7fbaff99ecfcc4eab0,"Les écoles Azrieli Talmud Torah - Herzliah, Campus Adams, section française",Installation,5475,avenue mountain sights,Montréal,QC,H3W2Y8
4b8cfb1145d949b1b8b2,"Notre-Dame-Des-Victoires, annexe",Public,6120,rue la fontaine,Montréal,QC,H1N2C1
4bd929596ba7ed50ea6c,Philippe-Morin,Public,1825,rue provost,Montréal,QC,H8S1P5
4c460d64d9617bbd4501,Saint-Bernardin,Public,7900,8e avenue,Montréal,QC,H1Z2V9
4cb4ac8428bbf20973b7,Saint-Albert-le-Grand,Public,5050,18e avenue,Montréal,QC,H1X2N9
4d0c2ec8c5a284bc5998,École secondaire Loyola,Installation,7272,rue sherbrooke ouest,Montréal,QC,H4B1R2
4d2b844e5e79c1ceeba7,École Le Sommet,Installation,1750,rue deguire,Montréal,QC,H4L1M7
4d6a1407ed6785a403ef,Jean-Baptiste-Meilleur,Public,2237,rue fullum,Montréal,QC,H2K3P1
4d89095a596859b26b9d,"Centre académique Fournier inc., Académie Fournier",Installation,5919,boulevard henri-bourassa ouest,Montréal,QC,H4R1B7
4d9271b11fb243ea3a88,"Des Monarques, pav. St-Jean-Vianney",Public,6455,27e avenue,Montréal,QC,H1T3J8
4dc5ee7d1d1359679e50,Campus d'effets visuels Inc.,Collège privé,2261,avenue papineau,Montréal,QC,H2K4J5
4dea9a2e3e48dc730b52,École nationale de théâtre du Canada,Installation collège privé,360,avenue laurier est,Montréal,QC,H2T3B6
4ec3f3e7f6eee9556c98,Robert-Gravel,Public,38,avenue fairmount est,Montréal,QC,H2T1C9
4f1b908e0ef11ad8f1c5,"Martin-Bélanger, édifice Bélanger",Public,95,rue saint-jacques,Montréal,QC,H8R1C9
4f43997314ea7694a7a2,Saint-Nom-de-Jésus,Public,4131,rue adam,Montréal,QC,H1V1S8
500e9bfa37ab493c5623,René-Guenette,Public,11070,avenue rome,Montréal,QC,H1H4P6
502d7cc468fbf569fe02,La Dauversière,Public,11600,boulevard de l'acadie,Montréal,QC,H3M2T2
506916d871caed6a9276,National Theatre School of Canada,Private Institution,5030,saint dennis,Montreal,QC,H2J2L8
509c3b6fcb73a5042c18,Collège André-Grasset (1973) inc.,Collège privé,1001,boul crémazie est,Montréal,QC,H2M1M3
50a9a3217e2067cd50fb,Collège St-Michel,Installation collège privé,1900,rue sauvé est,Montréal,QC,H2B3A8
511293e4665d758d9ba9,"Marie-Rivier, pavillon Legendre",Public,9066,8e avenue,Montréal,QC,H1Z2Y5
5200408adfe3d3c26fca,"Marc-Aurèle-Fortin, annexe",Public,12550,avenue fernand gauthier,Montréal,QC,H1E1S8
52019fdfe42de15e9e29,Collège national de science et technologie inc.,Collège privé,3750,boulevard crémazie est,Montréal,QC,H2A1B6
529809b4e1af0b066e0c,Vincent Massey,Public,5925,27e avenue,Montréal,QC,H1T3J5
52ab4b7a0d0bab87c6a2,Terrain cour école Philippe-Morin,Public,,19e avenue provost,Montréal,QC,H8S1P5
54689fba3c1b5f3c8fa5,Collège TAV (secteur anglophone),Installation collège privé,6005,boulevard décarie,Montréal,QC,H3W3C9
552b4bff2e039fc83b90,Saint-Mathieu,Public,7230,8e avenue,Montréal,QC,H2A3C7
555e2a051f21dc0939b7,Institut Trebas Québec Inc.,Collège privé,550,rue sherbrooke ouest,Montréal,QC,H3A1B9
5571148cc477e831c55c,Lanaudière,Public,4300,rue de lanaudière,Montréal,QC,H2J3N9
557d3e930ee0367eb515,"CEAL, édifice LaSalle",Public,8825,rue centrale,Montréal,QC,H8P1P3
5594c06f8f9ac57ffb12,CDI College of Business- Technology- Health Care,Private Institution,416,boulevard de maisonneuve ouest,Montreal,QC,G1R5M7
55e11183a6a6456a6156,Collège national de science et technologie inc. (secteur anglophone),Installation collège privé,3750,boulevard crémazie est,Montréal,QC,H2A1B6
