Index,Facility_Name,Facility_Type,Street_No,Street_Name,City,Prov_Terr,Postal_Code
b55f0c07a483acee1206,Amos,Public,10748,boulevard saint-vital,Montréal,QC,H1H4T3
b6aeac0755c2d6401416,Collège Kensley inc. (secteur anglophone),Installation collège privé,279,rue sherbrooke ouest,Montréal,QC,H2X1Y2
b6ee547725d5716cf1f6,Institut supérieur d'informatique ISI (secteur anglophone),Installation collège privé,2100,boulevard de maisonneuve est,Montréal,QC,H2K4S1
b70065f9760ec36d0179,Murielle-Dumont,Public,5005,rue valois,Montréal,QC,H8Z2G8
b761e0d8e568e31959cf,Centre Lartigue,Public,2217,avenue papineau,Montréal,QC,H2K4J5
b7877866a8a39916e930,Sainte-Bibiane,Public,5755,13e avenue,Montréal,QC,H1X2Y3
b82de26560afadd84248,Sainte-Mary-Magdalen,Public,655,avenue outremont,Montréal,QC,H2V3M8
b8413b07ab53e054f35c,Sainte-Gertrude,Public,11813,boulevard ste-gertrude,Montréal,QC,H1G5P8
b86e9c505fc95282aa2a,Notre-Dame,Public,14425,rue notre-dame est,Montréal,QC,H1A1V6
b8764c7cede07f4db780,François-de-Laval,Public,12050,avenue bois-de-boulogne,Montréal,QC,H3M2X9
b89691d18a05f8b58561,Institut de tourisme et d'hôtellerie du Québec,École gouvernementale,3535,rue saint-denis,Montréal,QC,H2X3P1
b8cd96fce9ce3e779193,"L'Académie Centennial, section anglaise",Installation,2065,rue sherbrooke ouest,Montréal,QC,H3H1G6
b8d7664e3917b5b187a0,Saint-Rémi,Public,10152,avenue rome,Montréal,QC,H1H4N6
b991020871923a1a6df3,"Saint-Justin, annexe",Public,8805,rue de forbin-janson,Montréal,QC,H1K2K5
b9bb8b1c17bde62c931d,Collège Herzing (secteur anglophone),Installation collège privé,8370,boulevard lacordaire,Montréal,QC,H1R3Y6
b9c44a5f595aaa635025,CEA Champlain,Public,1201,rue argyle,Montréal,QC,H4H1V4
ba04362fad747495e094,Collège Canada (secteur anglophone),Installation collège privé,1118,rue sainte-catherine ouest,Montréal,QC,H3B1H5
ba2b5979f12cf9f36037,TAV College,Junior College,6333,decarie boulevard,Montreal,QC,H3W3E1
ba3565e0eb7ae3dc93b2,Centre des technologies de l'eau,Centre collégial de transfert de technologie,696,avenue sainte-croix,Montréal,QC,H4L3Y2
ba54f3778c0308551264,Rose-des-Vents,Public,4315,rue beaubien est,Montréal,QC,H1T1S8
baf6907338708eebad43,"CFP Lachine, édifice de la Rive",Public,46,16e avenue,Montréal,QC,H8S3M4
bafe0e8809bbd9ce20cf,Saint-Gérard,Public,505,rue de liège est,Montréal,QC,H2P1J9
bb5ef74d3c9aef2323dd,Armand-Lavergne,Public,2600,avenue fletcher,Montréal,QC,H1L4C5
bb83009685b0178470fa,Centre Louis-Fréchette Annexe,Public,4975,rue d'amos,Montréal,QC,H1G2X2
bba03a46131db537d84c,"Collège de gestion, technologie et santé Matrix inc (secteur anglophone)",Installation collège privé,1980,rue sherbrooke ouest,Montréal,QC,H3H1E8
bba0881107962ea97301,"Tournesol, le",Public,15150,rue sherbrooke est,Montréal,QC,H1A3P9
bbb7bd90d2132bed573e,Concordia University,University,1550,de maisonneuve blvd w guy-metro gm,Montreal,QC,H3G1N2
bc51e7668ffe8c58801e,Marc-Laflamme-Le Prélude,Public,555,19e avenue,Montréal,QC,H1B3E3
bdbdf842a3cfadd7deec,Collège Herzing (secteur francophone),Installation collège privé,8370,boulevard lacordaire,Montréal,QC,H1R3Y6
bde3f5e9ed56925efda6,College O'sullivan de Montreal,Private Institution,1191,rue de la montagne,Montreal,QC,H3G1Z2
be44b996b012d7c70c99,"Académie Ibn Sina, Campus préscolaire et primaire",Installation,6500,39e avenue,Montréal,QC,H1T2W8
bf31da5ecd8389826e71,École Pivaut Montréal Inc.,Collège privé,,,Montréal,QC,H2T1X3
c05290095819a0ce7b83,"Académie Kells, campus secondaire",Installation,6865,boulevard de maisonneuve ouest,Montréal,QC,H4B1T1
c21abc2e19bb9cd8347b,Barthélemy-Vimont,Public,415,rue saint-roch,Montréal,QC,H3N1K2
c21cf9fb795554b0a2d6,Lasalle Junior,Public,8340,rue david-boyer,Montréal,QC,H8N2A1
c2d086392fe4ef38da1c,Jean-Nicolet Annexe,Public,11135,avenue alfred,Montréal,QC,H1G5B6
c3387deaa1f358f0a8de,"Berges-de-Lachine, des",Public,50,34e avenue,Montréal,QC,H8T1Z2
c4634e397d8ecb84aede,Antoine-de-Saint-Exupéry annexe,Public,8455,rue du pré-laurin,Montréal,QC,H1R3P3
c47677bd269750955ac2,Ecole des Metiers de lequipement Motorise de,Technical and Vocational,5455,rue saint denis,Montreal,QC,H2J4B7
c4793422b4e3aa65103b,Saint-Enfant-Jésus,Public,75,rue villeneuve est,Montréal,QC,H2T1L1
c51ac49fd5bd05882dd5,Jacques-Bizard,Public,515,montée de l'église,Montréal,QC,H9C1H1
c587af3fe269a886b218,Collège de photographie Marsan inc.(secteur anglophone),Installation collège privé,2030,boulevard pie-ix,Montréal,QC,H1V2C8
c5df4e52252877839703,Espace-Jeunesse,Public,3655,rue saint-hubert,Montréal,QC,H2L3Z9
c5f07372c207553524e3,École Charles-Perrault (Pierrefonds),Installation,106,rue cartier,Montréal,QC,H8Y1G8
c623d9eee1ae238eec64,Collège André-Grasset (secteur anglophone),Installation collège privé,1001,boulvevard crémazie est,Montréal,QC,H2M1M3
c6756bca0fe3b527d374,Perspectives Complex,Public,7770,20e avenue,Montréal,QC,H2A2K9
c6cb87e3872d2e4d59ad,Barclay,Public,7941,avenue wiseman,Montréal,QC,H3N2P2
c6d54057d6d28d5ec8e7,Collège Greystone,Collège privé,550,rue sherbrooke ouest tour est,Montréal,QC,H3A1B9
c7404bf8464c25717d1e,Chomedey-de-Maisonneuve,Public,1860,avenue morgan,Montréal,QC,H1V2R2
