Index,Facility_Name,Facility_Type,Street_No,Street_Name,City,Prov_Terr,Postal_Code
eab0cdf645cfaf0cae90,"Saint-Laurent, édifice Saint-Germain Annexe",Public,850,boulevard marcel-laurin,Montréal,QC,H4M2M9
ead1306c686f673d0a4a,"L'Académie Centennial, section anglaise 2e cycle",Installation,5100,chemin de la côte-saint-luc,Montréal,QC,H3G2G9
eaee0497336ee059ad2f,Victor-Rousselot,Public,3525,rue sainte-émilie,Montréal,QC,H4C1Z3
eb033d372db0f69c3012,Henri-Julien,Public,8150,rue rousselot,Montréal,QC,H2E1Z6
ebbb30e58bb9baa1931e,Collège technique de Montréal inc.,Collège privé,8255,mountain sights,Montréal,QC,H4P2B5
ebc15aed4f7faccf40d7,Lambert-Closse,Public,5840,rue saint-urbain,Montréal,QC,H2T2X5
ebfe21564d7927df841b,Children's World Academy,Public,2241,rue ménard,Montréal,QC,H8N1J2
ec160fccbee8fee75f07,Wilfrid-Pelletier annexe,Public,7741,avenue du ronceray,Montréal,QC,H1K3W7
ec394efd8aa581ae0cb5,Pointe-aux-Trembles,Public,15200,rue sherbrooke est,Montréal,QC,H1A3P9
ec42e76448ac366c4ccc,Bancroft,Public,4563,rue saint-urbain,Montréal,QC,H2T2V9
ec9d531fbbc262b5d7b2,Saint-Marcel,Public,1470,16e avenue,Montréal,QC,H1B3N6
ecbf858caf5c752dab26,Shadd Business Centre,Public,1000,avenue old orchard,Montréal,QC,H4A3A4
ece13c3c0f28159c49de,Laurendeau-Dunton (français),Public,1515,rue rancourt,Montréal,QC,H8N1R7
edb7852bff5e2086ee10,Louis-Hippolyte-Lafontaine,Public,4245,rue berri,Montréal,QC,H2J2P9
ee07a7eb26350ea1fead,"Saint-Noël-Chabanel, pavillon des Découvreurs",Public,8777,24e avenue,Montréal,QC,H1Z3Z8
ee8ec0f40d0920a9c5bb,"Transitoire - Le 6650, 39e Avenue",Public,6650,39e avenue,Montréal,QC,H1T2W8
ef7e7299e7ca9d4a26fe,École québécoise du meuble et du bois ouvré (section Montréal),Centre d'enseignement,5445,rue de lorimier,Montréal,QC,H2H2S5
f03f4889f4e28db8ea48,"Le Collège Lower Canada, Campus primaire et secondaire",Installation,4090,avenue royal montréal,Montréal,QC,H4A2M5
f04fdc3770f01716f9a7,École Sainte-Anne,Installation,6855,13e avenue,Montréal,QC,H1X2Z3
f1485f321f4cf3aa23aa,Institut de technologie des emballages et du génie alimentaire - ITEGA,Centre collégial de transfert de technologie,6220,rue sherbrooke est,Montréal,QC,H1N1C1
f18431167ae9b90b30d6,"Beau-Séjour, édifice Nord",Public,3600,rue beauséjour,Montréal,QC,H4K1W7
f1af30da0ebee1ba8cf9,Calixa-Lavallée,Public,11411,avenue pelletier,Montréal,QC,H1H3S3
f1d9f5a26d73225c00d0,"Odyssée, de l'",Public,4348,rue alain,Montréal,QC,H9H2R7
f27a4e544274c9e3610d,Victor-Lavigne,Public,5400,boulevard couture,Montréal,QC,H1R1C7
f2ad5454a4b4686dd8af,Collège Trafalgar pour filles,Installation,3495,rue simpson,Montréal,QC,H3G2J7
f30bc3753d03073025b8,Options and Venture Complex,Public,1741,rue de biencourt,Montréal,QC,H4E1T4
f31e4f09be9bc95e28f6,Universite de Montreal,University,2332,boul edouard-montpetit,Montreal,QC,H3T1J4
f35ff2260d74fadb07b0,Saint-Vincent-Marie,Public,4601,rue de castille,Montréal,QC,H1H1Y4
f3633b928c3e08558a94,Cégep de Rosemont,Cégep,6400,16e avenue,Montréal,QC,H1X2S9
f387f12adb8ba641edd4,Collège Mont-Saint-Louis,Installation,1700,boulevard henri-bourassa est,Montréal,QC,H2C1J3
f4502282695ae964aa90,Cégep de Saint-Laurent,Cégep,625,avenue sainte-croix,Montréal,QC,H4L3X7
f45262298f007cb4127b,"Saint-Ambroise, annexe",Public,6560,rue chambord,Montréal,QC,H2G3B9
f499438bb99beb32aa46,Collège de photographie Marsan inc.,Collège privé,3536,boulevard saint-laurent,Montréal,QC,H2X2V1
f49b6872986db10498e9,"Dauversière, la",Public,5485,rue jean talon est,Montréal,QC,H1S1L8
f517cf93f73969fcc71d,Henri-Forest,Public,100,rue trésor-caché,Montréal,QC,H8R3K3
f578d59fa43012ea4c21,Sans-Frontières,Public,5937,9e avenue,Montréal,QC,H1Y2K4
f5861a7ae228c4d7900d,"Académie Solomon Schechter, campus préscolaire, section anglaise",Installation,4950,avenue macdonald,Montréal,QC,H3X2V3
f592a98d45ee015cb700,Collège Herzing (secteur anglophone),Installation collège privé,1616,boulevard rené-lévesque ouest,Montréal,QC,H3H1P8
f5b20a8411f069084e13,Irénée-Lussier,Public,4100,rue hochelaga,Montréal,QC,H1V1B6
f64a7f0074b32bfff58c,Centre Champagnat,Public,5017,rue saint-hubert,Montréal,QC,H2J2X9
f6cf1f30fbf3f6959753,Terre-des-Jeunes,Public,7900,rue doyle,Montréal,QC,H8N0E9
f7116d34e6c92d003bd0,Sainte-Catherine-Labouré,Public,441,rue trudeau,Montréal,QC,H8R3C3
f72412aa7ed618153295,Institut d'enregistrement du Canada,Collège privé,1207,rue saint-andré,Montréal,QC,H2L3S8
f72cc953210b0270f51b,École la Nouvelle Vague,Installation,938,rue saint-maurice,Montréal,QC,H3C1L7
f779b906a278047bd262,College de Saint-Laurent,Junior College,625,blvd ste-croix,Montreal,QC,H4L3X7
f84984600f718a9ba580,Sinclair Laird / St. Raphael Center,Public,8380,avenue wiseman,Montréal,QC,H3N2P6
f85a15aec068ba3f5a38,"Collège Français, Campus de Montréal",Installation,185,avenue fairmount ouest,Montréal,QC,H2T2M6
f86354994a37e7dea076,St. John Bosco,Public,6255,rue hamilton,Montréal,QC,H4E3C5
f8a4f929afed26f45224,Dalbé-Viau,Public,740,rue esther blondin,Montréal,QC,H8S4C4
