Index,Facility_Name,Facility_Type,Street_No,Street_Name,City,Prov_Terr,Postal_Code
6436033e04e7e6caf269,Arc-en-Ciel,Public,4265,avenue laval,Montréal,QC,H2W2J6
64a526011d9eb50615a9,École Yaldei,Installation,5170,avenue van horne,Montréal,QC,H3W1J6
654c67beba06b7973778,Ecole de Technologie Superieure,Junior College,1100,notre dame street west,Montreal,QC,H3C1K3
6594e66b26420d91be75,Gabrielle-Roy,Public,5950,rue honoré-mercier,Montréal,QC,H1P3E4
65fa7d9e1f4950992028,Jean-Grou,Public,805,rue tassé,Montréal,QC,H4L1N8
6694214744413f3bbadd,Collège Beaubois,Installation,4901,rue du collège-beaubois,Montréal,QC,H8Y3T4
669e7218eba0ab5fd99d,"Sainte-Odile, annexe",Public,12330,rue lavigne,Montréal,QC,H4J1Y4
66dc4c685d29704160e4,Académie de l'Entrepreneurship,Installation collège privé,1001,rue sherbrooke est,Montréal,QC,H2L1L3
6712224fa91b6c9ce308,La Visitation,Public,10591,rue séguin,Montréal,QC,H2B2B8
673efe12ed39da1ad6e7,Saint-Pierre-Claver,Public,2110,boulevard st-joseph est,Montréal,QC,H2H1E7
675c696a748d3916c0a7,"Gilles-Vigneault, annexe temporaire",Public,2005,rue victor-doré,Montréal,QC,H3M1S4
677ee01a36bd75c0e344,Champlain,Public,2260,rue logan,Montréal,QC,H2K4K7
680c9e8b8f9555d25f62,"Institut Trebas Québec Inc., enseignement en anglais",Installation collège privé,550,rue sherbrooke ouest,Montréal,QC,H3A1B9
6825dd852ffe8e95b099,Cégep à distance international,Établissement d'enseignement,6300,6e avenue,Montréal,QC,H1X2S9
687bf5791cf2952a1433,Notre-Dame-de-Fatima,Public,12200,avenue rené-masson,Montréal,QC,H1E4T4
68d2736cf9c46a9c39dc,Cégep du Vieux Montréal,Cégep,255,rue ontario est,Montréal,QC,H2X1X6
68db937bf330c23e6c70,Collège Jean-de-Brébeuf,Installation,3200,ch. côte ste-catherine,Montréal,QC,H3T1C1
69737111bafaea0edc90,Ecole National de Cirque,Private Institution,8181,2nd ave.,Montreal,QC,H1Z2N9
698c4ba35d9650184144,Collège de l'immobilier du Québec,Collège privé,600,chemin du golf,Montréal,QC,H3E1A8
69a64e524d4fcef52880,Henri-Bourassa,Public,6051,boul. maurice-duplessis,Montréal,QC,H1G1Y6
69bfe6e50d5c01cc4539,École Montessori de Montréal,Installation,1505,rue serre,Montréal,QC,H8N1N3
69cdb9707959e15ec002,Denise-Pelletier,Public,12160,27e avenue,Montréal,QC,H1E1Z5
6bc19fed3b83171f58c8,Sophie-Barat,Public,1239,boulevard gouin est,Montréal,QC,H2C1B3
6bdf21a9393ce00705f8,Institut Teccart,Collège privé,3030,rue hochelaga,Montréal,QC,H1W1G2
6c69b41ad7f5f5f8d95b,"CEAL, édifice Boileau",Public,1625,rue saint-antoine,Montréal,QC,H8S1T8
6cb37e8b18952f3924b3,"Collège April-Fortier, enseignement en anglais",Installation collège privé,1001,rue sherbrooke est,Montréal,QC,H2L1N3
6cb580702e0ddea3c2d4,Collège Jacques-Prévert,Installation,12349,rue de serres,Montréal,QC,H4J2H1
6cc4589463178bcfa27a,"Saint-Laurent, édifice Saint-Germain",Public,1870,rue decelles,Montréal,QC,H4M1A8
6d43f6e5956ac3106820,"Sas, édifice Pierrefonds, du",Public,13280,rue huntington,Montréal,QC,H8Z1G2
6e165a0da8ba2593b044,Marguerite-De Lajemmerais,Public,5555,rue sherbrooke est,Montréal,QC,H1N1A2
6f31c4f65bb891cfd69d,Adélard-Desrosiers,Public,12600,avenue fortin,Montréal,QC,H1G4A1
6f84a240131198895f90,Mackay / Philip E. Layton,Public,6333,rue de terrebonne,Montréal,QC,H4B2Z4
6f8c41069d7b7ab6f6de,Jean-Nicolet,Public,11235,avenue salk,Montréal,QC,H1G4Y3
6f8d688e5f74a621ea3b,Jardin-des-Saints-Anges,Public,1225,rue saint-louis,Montréal,QC,H8S2K6
6fb1b6dc2b007529e937,Pensionnat du Saint-Nom-de-Marie,Installation,628,chemin de la côte-sainte-catherine,Montréal,QC,H2V2C5
6ffa07f0a1d6595d88a4,Marc-Aurèle-Fortin,Public,12230,avenue fernand gauthier,Montréal,QC,H1E5N4
7035326d3262bb4f566f,Saint-André-Apôtre,Public,215,rue prieur ouest,Montréal,QC,H3L1R7
70b020e3ddb05a940c18,Édouard-Montpetit,Public,6200,ave. pierre-de coubertin,Montréal,QC,H1N1S4
714b7c7c3322e45bb5d3,Collège Prep International,Installation,7475,rue sherbrooke ouest,Montréal,QC,H4B1S3
71639a7586d2a9f6f4b7,École Félix-Antoine,Installation,10730,rue chambord,Montréal,QC,H2C2R8
71920e41fadb246a87fd,Métiers de l'aérospatiale de Montréal,Public,5300,rue chauveau,Montréal,QC,H1N3V7
71c53e7da6a52a928a34,Collège Salette inc.,Collège privé,3536,boulevard saint-laurent,Montréal,QC,H2X2V1
72320532ce151a215de8,"Des Monarques, annexe temporaire",Public,4430,rue bélanger est,Montréal,QC,H1T1B3
723406cc50b3e6ebdd50,Michelangelo,Public,9360,5e rue montréal,Montréal,QC,H1E1K1
726136f0d7e0fdf6bcd6,Métiers de la construction de Montréal,Public,5205,rue parthenais,Montréal,QC,H2H2H4
72e7d9046a314e3a3fde,École de management INSA,Collège privé,460,rue sainte-catherine ouest,Montréal,QC,H3B1A7
72fcbac8521a495dfc61,CEA Outremont,Public,500,boulevard dollard,Montréal,QC,H2V3G2
7407515ea8b2bdea3419,"Centre François-Michelle, secondaire 2e cycle",Installation,9275,rue clark,Montréal,QC,H2N2K3
7427c4b09c0210e6df35,École Buissonnière,Installation,215,avenue de l'épée,Montréal,QC,H2V3T3
