Index,Facility_Name,Facility_Type,Street_No,Street_Name,City,Prov_Terr,Postal_Code
9def1e011d4df9425b2f,"École Le Sommet, Campus TECC",Installation,1819,boulevard rené-lévesque,Montréal,QC,H3H2P4
9f063a2c9bdece422b1e,"Transitoire - Le 8300, rue de Teck",Public,8300,rue de teck,Montréal,QC,H1L1H4
9f2fd92914d60da8fa45,"École communautaire Belz, Campus Durocher, section anglaise",Installation,6508,rue durocher,Montréal,QC,H2V3Z3
9f7a84416f7ee51e4e2d,École de sténographie judiciaire du Québec,Collège privé,465,rue st-jean,Montréal,QC,H2Y2R6
a0223001f19f39c2d876,L'École Sacré-Coeur de Montréal,Installation,3635,avenue atwater,Montréal,QC,H3H1Y4
a0cc4c63b1b3cc057df0,École Saint-Joseph (1985),Installation,4080,avenue de lorimier,Montréal,QC,H2K3X7
a1435e954d4e751e0f3c,Collège CDI Administration . Technologie . Santé,Collège privé,416,boul. de maisonneuve o.,Montréal,QC,H3A1L2
a1506731246bad18cd4b,Nouvelle-Querbes,Public,215,avenue bloomfield,Montréal,QC,H2V3R6
a155a4fbbb6166146115,Collège Jean-Eudes,Installation,3535,boul. rosemont,Montréal,QC,H1X1K7
a19890f6c6b29d0e2a17,Collège l'Avenir de Rosemont inc. (secteur anglophone),Installation collège privé,3244,boulevard rosemont,Montréal,QC,H1Y1M7
a1a2daf9e14b5541ccda,"Le 1750, rue Saint-André",Public,1750,rue saint-andré,Montréal,QC,H2L3T8
a1bd70836b48d65e4daf,"Des Cinq-Continents, pavillon Dupuis",Public,5530,avenue dupuis,Montréal,QC,H3X1N8
a1e38a2b6b738a173e28,Jeanne-Mance,Public,4240,rue de bordeaux,Montréal,QC,H2H1Z5
a227ae43da9c938d8893,Saint-Arsène,Public,6972,avenue christophe-colomb,Montréal,QC,H2S2H5
a233f102795f8c268dd2,Saint-Jean-de-la-Lande,Public,3120,avenue laurier est,Montréal,QC,H1Y1Z6
a24b9c1b214ef2ce4114,Paul-Bruchési,Public,1310,boulevard st-joseph est,Montréal,QC,H2J1M2
a2d8e64014498a302ecb,Rosemount Technology Centre,Private Institution,3737,beaubien,Montreal,QC,H1X1H2
a3a5cc9812870a5ba497,École nationale de cirque,Collège privé,8181,2e avenue,Montréal,QC,H1Z4N9
a3af507e969a68d629d8,Évangéline,Public,11845,boulevard de l'acadie,Montréal,QC,H3M2T4
a3af7e2e213c39d5b209,Jean-Grou,Public,12725,boul. rodolphe-forget,Montréal,QC,H1E6P6
a3f842411eb7e3854c05,Verdun,Public,610,boulevard desmarchais,Montréal,QC,H4H1S6
a461665aa5e019d3bb68,La Mennais,Public,6521,rue saint-denis,Montréal,QC,H2S2S1
a4666fdd58ea3b8db806,St. Gabriel,Public,610,rue dublin,Montréal,QC,H3K2S4
a47341d6d8f901f24a9b,Institut Grasset,Private Institution,220,avenue fairmount ouest,Montreal,QC,H2T2M7
a495a46cc9b33cd69f02,CIMME,Public,1100,rue ducas,Montréal,QC,H8N3E6
a4d64fee4d8d26789e8f,Carrefour multiservice (CMS),Public,1100,5e avenue,Montréal,QC,H4G2Z7
a518a5d62212e179a0b7,Saints-Martyrs-Canadiens,Public,9920,rue parthenais,Montréal,QC,H2B2L4
a536e9ee16f1e0908da7,Charles-Lemoyne,Public,2001,rue mullins,Montréal,QC,H3K1N9
a664a5407818a9354c50,"École Beth Jacob de Rav Hirschprung, section anglaise",Installation,1750,avenue glendale,Montréal,QC,H2V1B3
a67a0534c1cc696f9401,Saint-Jean-de-Matha,Public,6970,rue dumas,Montréal,QC,H4E3A3
a6935c67faab632b917a,Bienville,Public,9275,25e avenue,Montréal,QC,H1Z4E2
a6b99350c11459caef1f,École des Hautes Études Commerciales de Montréal,Université,3000,chemin de la côte-sainte-catherine,Montréal,QC,H3T2A7
a6c8dcae3556f51e8b64,Riverview,Public,971,avenue riverview,Montréal,QC,H4H2C3
a7dcf3fbc95226b5e52b,Lambert-Closse,Public,6105,rue ladauversière,Montréal,QC,H1S1R6
a9b0d71f99f04689ba74,College de Bois-De-Boulogne,Junior College,10555,avenue de bois-de-boulogne,Montreal,QC,H4N1L4
a9c455defe5845f48d32,Gadbois,Public,8305,rue saint-andré,Montréal,QC,H2P1Y7
aa210b396836fd8d8529,College de Rosemont (Cegep),Junior College,6400,16 e. ave.,Montreal,QC,H1X2S9
aa4a7fbcb1d537511864,Campus de Montréal / Montreal Campus,Centre d'enseignement,577,boul henri-bourassa est,Montréal,QC,H2C1E2
ab10cd59e1f2ac0306eb,"Collège Inter-Dec, enseignement en anglais",Installation collège privé,2000,rue sainte-catherine ouest,Montréal,QC,H3H2T2
ab9867effba6d40297ad,Cégep Marie-Victorin (section anglophone),Centre d'enseignement,7000,rue marie-victorin,Montréal,QC,H1G2J6
ac70e3ce91bfb61bf3a7,Charles-Bruneau,Public,2515,rue holt,Montréal,QC,H1Y1N4
aca5772f67b1658b6180,École Montessori Internationale Montréal,Installation,10025,boulevard de l'acadie,Montréal,QC,H4N2S1
ad2a68657337e6fc17dd,"Académie Ibn Sina, Campus secondaire",Installation,12190,avenue brunet,Montréal,QC,H1G5H2
adbffc62ddd46b632741,Centre d'études en procédés chimiques du Québec (CÉPROCQ),Centre collégial de transfert de technologie,6220,rue sherbrooke est,Montréal,QC,H1N1C1
add9445d9e1dde21d44e,College Ahuntsic,Junior College,9155,rue st-hubert,Montreal,QC,H2M1Y8
aea4243d49a25a5b9c36,"École Peter Hall inc., Campus Ouimet",Installation,1455,rue rochon,Montréal,QC,H4L1W1
afdae6a726717b848f64,Collège Notre-Dame,Installation,3791,chemin queen-mary,Montréal,QC,H3V1A8
aff1cebbe98d852f6d77,St. Laurent Complex,Public,2355,rue decelles,Montréal,QC,H4M1C2
b05b45d2fcabc5e5f002,Saint-Pius X Complex,Public,9955,avenue papineau,Montréal,QC,H2B1Z9
