Index,Facility_Name,Facility_Type,Street_No,Street_Name,City,Prov_Terr,Postal_Code
0694725014ce6fcee24a,Gabrielle-Roy,Public,275,rue bonaventure châteauguay j6j1r7,Châteauguay,QC,J6J1R7
0deda7a085f637be32e2,Marc-André-Fortier,Public,121,rue prince châteauguay j6k3z9,Châteauguay,QC,J6K3Z9
1bd795f2075d830be824,Saint-Jude,Public,71,rue alphonse-desjardins,Châteauguay,QC,J6K1N1
2ee7e553bc438a7d9da8,Marguerite-Bourgeois,Public,68,rue principale,Châteauguay,QC,J6J3G9
31109459dd421c5352f9,Complexe Howard S. Billings,Public,210,rue mcleod châteauguay j6j2h4,Châteauguay,QC,J6J2H4
31c4df4dbd969a06e28f,Gérin-Lajoie,Public,161,rue de champlain,Châteauguay,QC,J6K4K5
35bf04aac97b56e5454e,Mary Gardner,Public,42,rue saint-hubert,Châteauguay,QC,J6K3K8
502006081665a236943a,Collège Héritage de Châteauguay inc.,Installation,270,boulevard d'youville,Châteauguay,QC,J6J4R6
67978d67656b589dd77c,Saint-Jean-Baptiste,Public,14,rue rainville,Châteauguay,QC,J6K1H6
6b6197399d794772693b,Centennial Park,Public,85,rue jeffries châteauguay j6j4a4,Châteauguay,QC,J6J4A4
78651734b14daedb99fb,Nova Career Centre,Technical and Vocational,70,maple blvd. chateauguay,Chateauguay- Quebec,QC,J6J3P8
7b1971064c9cec724a1b,Harmony,Public,280,avenue brahms,Châteauguay,QC,J6K5G1
7b5b3ee6fe637535f6b7,Alternative des Trois-Sources,Public,85,rue prince châteauguay j6k3z9,Châteauguay,QC,J6K3Z9
85edd6140aa6acf97721,"Accore, annexe, l'",Public,16,rue d'abbotsford châteauguay j6j1k2,Châteauguay,QC,J6J1K2
b13557051e33a0aeae75,Laberge,Public,315,rue rideau châteauguay j6j1s1,Châteauguay,QC,J6J1S1
b2054a3c8279218512cb,"Rive, pavillon Christ-Roi, de la",Public,6,rue d'abbotsford châteauguay j6j1k2,Châteauguay,QC,J6J1K2
b4d2168abdf79ce5ab8a,"Rive, de la",Public,180,boulevard salaberry nord,Châteauguay,QC,J6J4K9
bca4879e9a00707b5650,Saint-Willibrord,Public,300,rue mcleod châteauguay j6j2h6,Châteauguay,QC,J6J2H6
c6abb286459f5446d65b,Notre-Dame-de-l'Assomption,Public,95,rue notre-dame nord,Châteauguay,QC,J6J4T2
d361e8d934a7e34ca678,Louis-Philippe-Paré,Public,235,boulevard brisebois châteauguay j6k3x4,Châteauguay,QC,J6K3X4
d6a6d8c58304c7e9479d,"Brenda-Milner, régionale",Public,201,boulevard sutterlin châteauguay j6k4z7,Châteauguay,QC,J6K4Z7
d90667ed2c5e774a4a46,CEA l'Accore,Public,25,rue d'abbotsford châteauguay j6j1k3,Châteauguay,QC,J6J1K3
