Index,Facility_Name,Facility_Type,Street_No,Street_Name,City,Prov_Terr,Postal_Code
094735fd2b81dd1d1a1d,"Baie-Saint-François, De la",Public,70,rue louis vi major salaberry-de-valleyfield j6t3g2,Salaberry-de-Valleyfield,QC,J6T3G2
0b1710a1a39f93e60aab,Élisabeth-Monette,Public,10,rue kent,Salaberry-de-Valleyfield,QC,J6S4T3
323cfc62091b43c09b7d,Saint-Eugène,Public,415,rue dufferin,Salaberry-de-Valleyfield,QC,J6S2A9
33833ba36c50b3995d0a,Montpetit,Public,537,rue montpetit,Salaberry-de-Valleyfield,QC,J6S4A7
408a900439e8dc0f4698,Marie-Rose,Public,5383,boulevard hébert,Salaberry-de-Valleyfield,QC,J6S6G8
4f368ba6e9e6ada4c033,Centre du Nouvel-Envol,Public,115,rue saint-charles,Salaberry-de-Valleyfield,QC,J6S4A2
634de4fd1ab5942496c0,Institut Gault,Public,17,rue gault,Salaberry-de-Valleyfield,QC,J6S3R4
6c0316851597ed32948c,Saint-Joseph Artisan,Public,65,rue meloche,Salaberry-de-Valleyfield,QC,J6S1H7
9e1e0c59f919ae5212e1,Notre-Dame-du-Saint-Esprit,Public,92,rue des syndics,Salaberry-de-Valleyfield,QC,J6T2R3
a168bbea6604f6d3833d,Dominique-Savio,Public,346,chemin larocque,Salaberry-de-Valleyfield,QC,J6T4C3
a213c9b0213334e5234c,Saint-André,Public,86,rue saint-laurent,Salaberry-de-Valleyfield,QC,J6S6J8
a401966f303fed5c393b,Langlois,Public,316,rue saint-jean-baptiste,Salaberry-de-Valleyfield,QC,J6T2A9
a41e9e3386986a816605,Centre Sainte-Cécile,Public,30,rue saint-thomas,Salaberry-de-Valleyfield,QC,J6T4J2
be7a8fc3f24b411a8ace,Sainte-Agnès,Public,269,avenue,Salaberry-de-Valleyfield,QC,J6S3N3
c0fd54ccdeef1644ebb4,Sacré-Coeur,Public,285,rue alphonse-desjardins,Salaberry-de-Valleyfield,QC,J6S2P2
ce4229ec87e6e3210fa0,Centre éducatif des artisans,Public,47,rue perreault,Salaberry-de-Valleyfield,QC,J6S3L1
d38bcc2b136761f23a4e,Cégep de Valleyfield,Cégep,169,rue champlain,Salaberry-de-Valleyfield,QC,J6T1X6
db1ecb22be5ae5e50cd4,Edgar-Hébert,Public,161,rue saint-thomas,Salaberry-de-Valleyfield,QC,J6T4K1
e7e449e68706d6a67f77,Frédéric-Girard,Public,84,boulevard quevillon,Salaberry-de-Valleyfield,QC,J6T3K3
ede35f5f4508852c8465,College de Valleyfield,Junior College,169,rue champlain,Valleyfield,QC,J6T1X6
