Index,Facility_Name,Facility_Type,Street_No,Street_Name,City,Prov_Terr,Postal_Code
06aee15c3fe21891afc6,"Académie des pompiers, campus Targe",Installation,9577,rue saint-vincent,Mirabel,QC,J7N2V6
114ae5f71f6532a4d3ee,Bâtiment pour la formation mécanique agricole,Public,9745,rue de belle-rivière,Mirabel,QC,J7N2X9
188b6fa9114c07612709,Académie des pompiers,Installation,9401,côte des saints,Mirabel,QC,J7N2X4
2daa7adebc27e758ceed,De la Croisée-des-Champs,Public,13705,rue lacroix,Mirabel,QC,J7J1X4
2fdaa7d2042ded39bd80,À l'Unisson,Public,13300,rue paul-vi mirabel j7j1j2,Mirabel,QC,J7J1J2
40607bb1c067d6fcfe44,Collège d'aéronautique,Installation collège privé,12550,rue service a-4 hangar,Mirabel,QC,J7N1E8
42ddab4c0b06d93d18ba,CF agricole de Mirabel,Public,9850,rue de belle-rivière,Mirabel,QC,J7N2X8
488e779d17776fc7cc50,Mer-et-Monde,Public,16905,rue de l'ambre,Mirabel,QC,J7N0K4
5a8670aea9e4e4648738,"Clé-des-Champs, de la",Public,14700,rue jean-simon mirabel j7n2j6,Mirabel,QC,J7N2J6
5c1e111852031622f9b9,Saint-Hermas,Public,4261,rue lalande,Mirabel,QC,J7N2Z4
6972c4825c18f95e517e,Centre de formation du transport routier,Public,17000,rue aubin,Mirabel,QC,J7J1B1
6a37f6392d646886143f,"Blés-Dorés, des",Public,13000,rue pierre-perrin,Mirabel,QC,J7N0W6
7783ef7a49bd42b742f2,Sainte-Scholastique,Public,9290,côte des saints,Mirabel,QC,J7N2X5
7d13487e5fc9bd887311,Nouvelle école primaire Domaine-Vert Nord,Public,17050,rue jacques-cartier mirabel j7j0x4,Mirabel,QC,J7J0X4
96a9ce21fae99e739b08,Prés Fleuris,Public,15074,rue saint-augustin,Mirabel,QC,J7N2B2
973a51be247117ce0a59,Sainte-Anne,Public,9984,boulevard de saint-canut mirabel j7n1k1,Mirabel,QC,J7N1K1
a213e3e932bb307d4ae1,"Mirabel, secondaire de",Public,17777,rue du val-d'espoir mirabel j7j1v7,Mirabel,QC,J7J1V7
a3b8d95a31821d5d8a10,Collège d'aéronautique (secteur anglophone),Installation collège privé,12550,rue service a-4 hangar,Mirabel,QC,J7N1E8
bdf1f95c2d30b4aa2456,Aux Quatre-Vents,Public,13815,rue therrien mirabel j7j1j4,Mirabel,QC,J7J1J4
f48b5112f53136aaaed7,"Parchemin, du",Public,18555,rue hubert-aquin,Mirabel,QC,J7J0Y3
f9cbaa88ab90d7c1bbc0,Girouard,Public,9030,rue dumouchel mirabel j7n2n8,Mirabel,QC,J7N2N8
