Index,Facility_Name,Facility_Type,Street_No,Street_Name,City,Prov_Terr,Postal_Code
1b360b18c06a1f174e2a,Bellefeuille,Public,997,rue des lacs,Saint-Jérôme,QC,J5L1T3
214413ab56fe70267756,Saint-Stanislas,Public,680,9e rue saint-jérôme,Saint-Jérôme,QC,J7Z2Y9
22bee2eea992e7346f22,Centre de développement des composites du Québec (CDCQ),Centre collégial de transfert de technologie,,,Saint-Jérôme,QC,J7Z4V2
281c098538871f2460dd,"Couleurs-du-Savoir, Aux",Public,1801,montée sainte-thérèse,Saint-Jérôme,QC,J5L2L2
2c03be6da7b942a1621a,Mariboisé,Public,195,rue duvernay,Saint-Jérôme,QC,J7Y2Z6
378b2200acd4a5d1ffb0,Académie Lafontaine inc.,Installation,2171,boulevard maurice saint-jérôme j7y4m7,Saint-Jérôme,QC,J7Y4M7
3abaef600b8f4f1fdfe2,Centre d'études professionnelles,Public,917,montée saint-nicolas,Saint-Jérôme,QC,J5L2P4
4e05281d1f72ae69d718,Édifice Marchand,Public,471,rue melançon,Saint-Jérôme,QC,J7Z4K3
525c5eb9dfd55008c351,Cap-Jeunesse,Public,600,36e avenue saint-jérôme,Saint-Jérôme,QC,J7Z5W2
5841f3aeeda36c5b35da,Dubois,Public,562,rue du palais saint-jérôme,Saint-Jérôme,QC,J7Z1Y6
61cd7cd6010b4aa706e8,Polyvalente Saint-Jérôme,Public,535,rue filion,Saint-Jérôme,QC,J7Z1J6
6512cf1902953c88a91d,Sainte-Paule,Public,1030,rue saint-georges,Saint-Jérôme,QC,J7Z5E8
6738be0115e7efcf4128,Institut du véhicule innovant,Centre collégial de transfert de technologie,,,Saint-Jérôme,QC,J7Z4V2
69293e9871600c2f6408,Alternative de la Fourmilière,Public,175,rue duvernay,Saint-Jérôme,QC,J7Y2Z6
7080e94267317f4d5846,Sans-Frontières,Public,1100,112e avenue saint-jérôme j7y5c2,Saint-Jérôme,QC,J7Y5C2
744e99d10bfedc525187,De La Durantaye,Public,31,rue paul saint-jérôme j7y1z5,Saint-Jérôme,QC,J7Y1Z5
7cf0c315c1bd14f11c9a,"Horizon-Soleil, de l'",Public,1155,avenue du parc saint-jérôme,Saint-Jérôme,QC,J7Z6X6
81524b727292745b9b4e,Sacré-Coeur,Public,70,boulevard des hauteurs,Saint-Jérôme,QC,J7Y1R4
8559d85b843587d93f34,Sainte-Thérèse-de-l'Enfant-Jésus,Public,700,9e rue saint-jérôme,Saint-Jérôme,QC,J7Z2Z5
8575722237585fcb8b0b,De la Source,Public,520,boulevard de la salette,Saint-Jérôme,QC,J5L2J1
867ebdcdd322d8b77069,Prévost,Public,85,rue lauzon,Saint-Jérôme,QC,J7Y1V8
9cf9076155ea28416a40,"des-Studios, secondaire",Public,909,montée saint-nicolas,Saint-Jérôme,QC,J5L2P4
a700a554cb8d1eb9bd8d,Des Hauts-Sommets,Public,1000,112e avenue saint-jérôme j7y5c2,Saint-Jérôme,QC,J7Y5C2
c7d78c2e34df245cbafb,College de Saint-Jerome,Junior College,455,rue fournier,Saint-Jerome,QC,J7Z4V2
d8e125ebbd77a6316ef2,Notre-Dame,Public,581,rue ouimet saint-jérôme,Saint-Jérôme,QC,J7Z1R3
dca331241cc631796a3d,Laurentia Elementary School,Public,427,rue filion,Saint-Jérôme,QC,J7Z1H7
e1a4e558e08ae31574b4,Saint-Joseph,Public,616,rue saint-georges,Saint-Jérôme,QC,J7Z5B9
e1e3d0c826dd8534fb81,Saint-Jean-Baptiste,Public,240,rue de montigny,Saint-Jérôme,QC,J7Z5P8
ea978084ce1c3c4e4862,Secondaire Émilien-Frenette,Public,109,rue marie-victorin,Saint-Jérôme,QC,J7Y2G7
f4686f93c9d78ed42935,Cégep de Saint-Jérôme,Cégep,455,rue fournier saint-jérôme,Saint-Jérôme,QC,J7Z4V2
fec85b2bd2f51850315a,De l'Envolée,Public,1475,rue normand,Saint-Jérôme,QC,J5L2B6
