Index,Facility_Name,Facility_Type,Street_No,Street_Name,City,Prov_Terr,Postal_Code
6b63930c3e1f3042431d,Polyvalente Le Carrefour,Public,50,chemin de la savane,Gatineau,QC,J8T3N2
6d499112e0f1f31f248e,"Nouveau-Monde (édifice Saint-Rosaire), du",Public,9,rue sainte-yvonne,Gatineau,QC,J8T1X6
7138a33b57194f080c5d,"CEA des Draveurs, édifice l'Escale",Public,85,rue du barry,Gatineau,QC,J8T3N5
71f62c07985e3c2c42ad,College Universel,Private Institution,101,rue saint jean bosco,Gatineau,QC,J8Y3G5
74c3ebe27f1716461ecf,Polyvalente de l'Érablière,Public,500,rue de cannes,Gatineau,QC,J8V1J6
768f8587098745a8fa5f,Université du Québec en Outaouais,Constituante,283,boulevard alexandre-taché,Gatineau,QC,J9A1L8
7889eb104655f45202ea,Monseigneur-Charbonneau,Public,661,rue allaire,Gatineau,QC,J8L2B8
7b3cfdb6d8f0b09a06c3,"Centre administratif, édifice Sainte-Bernadette",Public,69,rue marengère,Gatineau,QC,J8T3T7
7da04e9008fbcf6c5f0b,"CEA des Draveurs, édifice Nouvel-Horizon",Public,100,rue de la baie,Gatineau,QC,J8T3H7
7f5aca373aa445ac171f,"Traversée, maternelle de la",Public,563,rue clément,Gatineau,QC,J8P3Y9
7fd22e2b369b1a029c6e,"Odyssée (édifice Saint-René-Goupil), de l'",Public,179,boulevard st-rené ouest,Gatineau,QC,J8P2V5
7fff2fb622e1b10ea525,Côte-du-Nord,Public,15,rue des groseilliers,Gatineau,QC,J8Z1M4
839602868fb73a41b507,"Trois-Saisons (édifice Lavictoire), des",Public,212,rue cedar,Gatineau,QC,J8P5E8
947192fb5ca8f3a7b8a2,Campus Félix-Leclerc,Centre d'enseignement,820,boulevard de la gappe,Gatineau,QC,J8T7T7
975a927a34001b24736d,"Plateau, du",Public,145,rue de l'atmosphère,Gatineau,QC,J9A3G3
99b67a80c248e9a3753a,"Ruisseau, du",Public,175,rue des samarres,Gatineau,QC,J8M2B4
9fb2c8b99792a11980a0,CFP Competences Outaouais,Technical and Vocational,183,broadway ouest,Gatineau,QC,J8P3T6
a231bbe3f95d04f5283e,L'Académie Des Rochers inc.,Installation,217,boulevard montcalm,Gatineau,QC,J8Y6X1
a3f0a3ecb0350b7b8769,Phil?mon-Wright,Public,80,rue daniel johnson,Gatineau,QC,J8Z1S3
a4514d149fc5076eb4bc,"Brébeuf, édifice A",Public,385,rue brébeuf,Gatineau,QC,J8P5W2
aad521208d4f3dd10508,Collège Select Aviation,Installation collège privé,1717,rue arthur-fecteau,Gatineau,QC,J8R2Z9
ac5003fd1aa72d739683,"Hormidas-Gamelin, secondaire",Public,"580,582,584",maclaren est,Gatineau,QC,J8L2W2
ade7e37dfd67dfcb9a93,"Vallon, du",Public,88,rue de cannes,Gatineau,QC,J8V2M4
b32107b4b7f3d66ee2e9,Centre de recherche et de transfert en cybersécurité,Centre collégial de transfert de technologie,333,boulevard de la cité-des-jeunes campus gabrielle-roy,Gatineau,QC,J8Y6M4
b5a0f5fa25d09daa4dc4,Conservatoire de musique de Gatineau,École gouvernementale,430,boul alexandre-taché,Gatineau,QC,J9A1M7
bbdffe451ef4ff85fb7e,Arc-en-Ciel,Public,107,chemin vanier,Gatineau,QC,J9H1Z2
bc1d75c5b17469aaaed5,"Quatre-Vents, aux",Public,1115,rue de neuville,Gatineau,QC,J8M2C7
bd84e92a44094a9e072f,"Sacré-Coeur (Gatineau), du",Public,420,rue du progrès,Gatineau,QC,J8M1T3
bdf2ec0dc3a0d0e7cd67,Greater Gatineau-St-Aloysius,Public,297,rue alice,Gatineau,QC,J8P3M6
c0121db6bc01034f89f1,"Traversée (édifice Sainte-Maria Goretti), de la",Public,563,rue clément,Gatineau,QC,J8P3Y9
c1496a6f357333497fce,"Tournesols, des",Public,45,rue de la fabrique,Gatineau,QC,J9J0E1
c1729903a1c11ae755db,Massé,Public,1,rue saint-alexandre,Gatineau,QC,J8V1A8
c2b93a6229edc6d77779,Heritage College - Cegep,Junior College,325,boul cite des jeunes,Gatineau,QC,J8Y6T3
c34de0d1232345fe1316,"Cavaliers, des",Public,120,rue nancy-elliott,Gatineau,QC,J9H0J3
c40841101e5ab91dcdcb,"Touraine (édifice George-Étienne-Cartier), de",Public,30,rue de savoie,Gatineau,QC,J8T1K8
c5cafd74b68f712a2c5d,La Sablonnière,Public,143,rue des sables,Gatineau,QC,J8P7G6
ccb56623b7ffafc8ecde,"Deux-Ruisseaux, des",Public,278,rue de l'atmosphère,Gatineau,QC,J9J3V2
d25aebdd0595a1fb85db,"Forêt, de la",Public,219,avenue du bois-franc,Gatineau,QC,J9J2V3
d47944fd8c3d2a6e1787,"Cheval-Blanc, du",Public,173,rue de la châteauguay,Gatineau,QC,J8P7T5
d4dc7ac911d5c020c266,Carle,Public,306,rue jacques-buteux,Gatineau,QC,J8P6A2
dcac4ba09af45f909a6a,Saint-Médard,Public,125,chemin vanier,Gatineau,QC,J9H1Z2
ddd523a31edf846f3017,"Odyssée, maternelle de l'",Public,179,boulevard st-rené ouest,Gatineau,QC,J8P2V5
de0acef2d0b5aebe1df2,Centre Carrières Western Québec,Public,100,avenue frank robinson,Gatineau,QC,J9H4A6
df319007fd545bb311c9,"Dôme, du",Public,40,rue du dôme,Gatineau,QC,J8Z3J4
df97ae11e3d180fe3bcd,Collège Héritage,Cégep,325,boulevard de la cité-des-jeunes,Gatineau,QC,J8Y6T3
dfc1ad5a53e03ba1a7b8,"Envolée, de l'",Public,299,rue ernest-gaboury,Gatineau,QC,J8V2P8
e1b53ba0d3df4819b0be,"Cépages, des",Public,445,rue nobert,Gatineau,QC,J8R3P2
e3a4a4ddf39c2667954c,Eardley Elementary School,Public,180,rue north,Gatineau,QC,J9H6Y9
e4411eedb18750083204,"Traversée (édifice Lavigne), de la",Public,257,rue luck,Gatineau,QC,J8P3S4
