Index,Facility_Name,Facility_Type,Street_No,Street_Name,City,Prov_Terr,Postal_Code
0122b6ae61997f3da8dd,"Trois-Portages, des",Public,120,rue broad,Gatineau,QC,J9H6W3
043d7c13a4b9c578e37f,Le Petit Prince,Public,44,rue de juan-les-pins,Gatineau,QC,J8T6H2
049582d269250e3a613f,South Hull,Public,86,promenade crescent,Gatineau,QC,J9H1T6
05f5e18f8521df744de4,"Trois-Saisons (édifice St-Pie X), des",Public,114,de la reine-élisabeth est,Gatineau,QC,J8P5G5
08a293690754babfb462,Universite du Quebec En Outaouais,University,101,rue saint-jean-bosco station bpo,Gatineau,QC,J8X3X7
08a9961617c0a6dc9cc1,Saint-Michel (Gatineau),Public,146b,rue maclaren est,Gatineau,QC,J8L1K1
096cde86fb5416ffb126,"Marais, du",Public,200,rue du marigot,Gatineau,QC,J9J0T9
0b4d158ba3350729cc4d,Euclide-Lanthier,Public,50,rue élizabeth,Gatineau,QC,J9H1E9
0ca12092e19f2efb06e8,Buckingham,Public,615,rue georges,Gatineau,QC,J8L2E1
0d339526107f10ed244c,"Bois Joli, du",Public,1165,boul saint-rené est,Gatineau,QC,J8R1N1
0ff2b11709c3e2aef7d3,"Nouveau-Monde (édifice Renaud), du",Public,25,rue saint-arthur,Gatineau,QC,J8T3C2
106e111374a02e7eae62,"Odyssée (édifice Jean XXIII), de l'",Public,180,rue magnus ouest,Gatineau,QC,J8P2R2
143910ddd78c8e875caa,Jean-de-Brébeuf,Public,360,boulevard de lucerne,Gatineau,QC,J9A1A7
153a8a5d52e5dabe53a4,Le Tremplin,Public,31,rue de l'abbé-ginguet,Gatineau,QC,J8T3Z4
16dbc85c6e0a40c0a2a8,Académie Trivium,Installation,88,rue jean-rené-monette,Gatineau,QC,J8P5B7
181330c8c9c598b48fb9,Collège Universel - Campus Gatineau,Collège privé,290,boulevard saint-joseph,Gatineau,QC,J8Y3Y3
1b28b380b33b0f22accf,"Montée, de la",Public,500,rue joseph-demontigny,Gatineau,QC,J8P7C4
20eca2eabe6e0929031d,"Grande-Rivière, secondaire",Public,100,rue broad,Gatineau,QC,J9H6A9
240c57ae673bd98cd057,Centre académique de l'Outaouais,Installation,858,boulevard maloney est,Gatineau,QC,J8P1H1
264717321ece7976ea49,"Touraine (édifice Riviera), de",Public,59,rue de provence,Gatineau,QC,J8T4V2
2a9b6b02f31f283598a4,Pierre-Elliott-Trudeau,Public,2,rue millar,Gatineau,QC,J8Y3N3
300fdd1699f35c32d56c,"Petite-Ourse, de la",Public,245,rue du raton-laveur,Gatineau,QC,J9J3G8
3292c68df65e5c3c540f,Saint-Jean-de-Brébeuf,Public,32,chemin de montréal est,Gatineau,QC,J8M1E9
3479a8009799907a2ded,Cégep de l'Outaouais,Cégep,333,boulevard de la cité-des-jeunes,Gatineau,QC,J8Y6M4
3a55b3dc2c78387e0503,Saint-Rédempteur,Public,39,rue saint-florent,Gatineau,QC,J8X2Z8
3e394480b30234f5383a,Notre-Dame,Public,170,rue papineau,Gatineau,QC,J8X1V9
3ec646a86eff997131a2,"Versant, secondaire du",Public,808,boulevard de la cité,Gatineau,QC,J8R3S8
4031ff8ca3c5f59e74bc,Saint-Paul,Public,45,chemin eardley,Gatineau,QC,J9H4J9
4158e4dd04ec700dbd6e,Centre l'Arrimage,Public,450,rue leguerrier,Gatineau,QC,J9H7J1
42c255ebacfce979430f,"Parc-de-la-Montagne, du",Public,15,rue doucet,Gatineau,QC,J8Y5N4
44aa86763c6034ca0980,Lord Aylmer Senior Campus,Public,116,avenue frank robinson,Gatineau,QC,J9H4A6
44eab82c15a6f4ed174e,Collège Saint-Joseph de Hull,Installation,174,rue notre-dame-de-l'île,Gatineau,QC,J8X3T4
45ed630e654e37d79ceb,Centre Mgr-Lucien-Beaudoin,Public,34,rue binet,Gatineau,QC,J8Y2T4
45fef762e3881b55a3d3,Collège Nouvelles Frontières,Installation,250,rue gamelin,Gatineau,QC,J8Y1W9
4c0485632111c13fd2a7,Symmes / D'arcy McGee,Public,925,boul. du plateau,Gatineau,QC,J9J3G2
4fcb965395dd12b28bb0,Polyvalente Nicolas-Gatineau,Public,360,boul la vérendrye est,Gatineau,QC,J8P6K7
51f8de185289b49b72d1,"Mont-Bleu, internationale du",Public,45,rue boucher,Gatineau,QC,J8Y6G2
5250274b1db3e0d1df0d,Saint-Laurent,Public,402,rue bélanger,Gatineau,QC,J8L2M2
53cf0ecef7b6aedf8bd4,Collège Saint-Alexandre de la Gatineau,Installation,2425,rue saint-louis,Gatineau,QC,J8V1E7
58e6d8928e777bc9f9d6,Centre Saint-Raymond,Public,30,rue saint-raymond,Gatineau,QC,J8Y1R6
590f215a4145b144ced4,Centre La Cité,Public,50,rue des servantes,Gatineau,QC,J8M1C2
5b65a5015bd46f03e552,Lord Aylmer Junior Campus,Public,130,avenue frank robinson,Gatineau,QC,J9H4A6
5d9e31dd9461f9f290c0,Centre d'éducation des adultes,Public,185,rue archambault,Gatineau,QC,J8Y5E3
5ea259e906819fe0f3d2,"Oiseau-Bleu, l'",Public,184,rue nelligan,Gatineau,QC,J8T6J9
5fef6d54351704b8c72c,"Boisé, du",Public,231,rue dorchester,Gatineau,QC,J8L1L9
60021e5315dfb62a32e6,La Source,Public,22,rue de l'acadie,Gatineau,QC,J8T6G8
61e2a5d706e8a716220c,École Montessori de l'Outaouais,Installation,161,rue principale,Gatineau,QC,J9H7H4
625502f816bde5107f2d,"Nouveau-Monde (édifice Paquin), du",Public,25,rue saint-arthur,Gatineau,QC,J8T3C2
65fa5ea6efd2298df300,"Escalade, de l'",Public,605,rue davidson est,Gatineau,QC,J8R2V9
