Index,Facility_Name,Facility_Type,Street_No,Street_Name,City,Prov_Terr,Postal_Code
07997168110505998819,Cegep de l'Abitibi-Temiscamingue,Junior College,425,boulevard du college,Rouyn-Noranda,QC,J9X5E5
09330dc17a695099372d,Pavillon Monseigneur-Pelletier,Public,289,rue montréal,Rouyn-Noranda,QC,J9X2Z8
0c52c06be3a5ec096072,Serre horticole D'Iberville,Public,275,avenues forbes rouyn-noranda,Rouyn-Noranda,QC,J9X5C9
0cb1e81a3b00025131bf,Kinojévis,Public,3030,avenue larivière,Rouyn-Noranda,QC,J9Y0G8
0dd0b8c892d15ad61418,Centre technologique des résidus industriels,Centre collégial de transfert de technologie,425,boulevard du collège,Rouyn-Noranda,QC,J9X5E5
11068857ef0b2e083562,Noranda,Public,10,avenue québec,Rouyn-Noranda,QC,J9X1G2
1df7e6543ea2ce45cdd6,"Étincelle, de l'",Public,56,rue gélinas,Rouyn-Noranda,QC,J0Z1Y0
1e010cbe7a3f1e2d8b7b,"Kekeko, des",Public,6884,boul témiscamingue rouyn-noranda j9y1n1,Rouyn-Noranda,QC,J9Y1N1
265e219f10cb57ae9cde,Notre-Dame-de-Grâce,Public,215,rue notre-dame,Rouyn-Noranda,QC,J9X3A2
3292f24244d53503ab64,Notre-Dame-de-Protection,Public,50,avenue murdoch,Rouyn-Noranda,QC,J9X1C6
3510893269daf62f28c7,Notre-Dame-du-Sacré-Coeur-de-Cléricy,Public,8290,route d'aiguebelle,Rouyn-Noranda,QC,J0Z1P0
3602379f0719a8881a1c,"D'Alembert, de",Public,5090,rue saguenay rouyn-noranda j9y0b1,Rouyn-Noranda,QC,J9Y0B1
41fcb19952d5b452a3b4,Sacré-Coeur,Public,580,avenue murdoch,Rouyn-Noranda,QC,J9X1H5
44f04d61b4dfc1344ade,Le Prélude,Public,910,rue côté,Rouyn-Noranda,QC,J9X3S5
58e23a09d2ca5aa68562,"Petite-Étincelle, de la",Public,30,avenue de l'église,Rouyn-Noranda,QC,J0Z1Y0
5ca75a4c019c03c7e350,Université du Québec en Abitibi-Témiscamingue,Constituante,445,boulevard de l'université,Rouyn-Noranda,QC,J9X5E4
73349be9732e851cc84f,"Granada, de",Public,2370,avenue granada rouyn-noranda j9y1h6,Rouyn-Noranda,QC,J9Y1H6
81c244f08c25386b7eac,Petit Sacré-Coeur,Public,200,19e rue rouyn-noranda,Rouyn-Noranda,QC,J9X2N3
86d1a119bb9e4aede9ea,Complexe La Source-Polymétier,Public,,,Rouyn-Noranda,QC,J9X2C5
915678782cf17bd930d2,D'Iberville,Public,275,avenue forbes rouyn-noranda,Rouyn-Noranda,QC,J9X5C9
935d41ec521ea2caf0df,Entre-Lacs,Public,3973,rang sawyer rouyn-noranda,Rouyn-Noranda,QC,J0Z1S0
9c690ca35c0c0f9c554e,Centre administratif,Public,70,rue des oblats est,Rouyn-Noranda,QC,J9X3N6
b9dbe225e2ceef59e560,Louis-Querbes,Public,106,rue de cadillac rouyn-noranda j0y1c0,Rouyn-Noranda,QC,J0Y1C0
d6ac69767433239d1111,Saint-Norbert-de-Mont-Brun,Public,9984,rang du berger,Rouyn-Noranda,QC,J0Z2Y0
d90b507e802a7748b65a,"Bellecombe, de",Public,2560,route des pionniers,Rouyn-Noranda,QC,J0Z1K0
fe7a05cb61dd62507dbf,Centre Élisabeth-Bruyère,Public,225,rue perreault est,Rouyn-Noranda,QC,J9X3C5
