Index,Facility_Name,Facility_Type,Street_No,Street_Name,City,Prov_Terr,Postal_Code
c62ef905d504aed9c189,Notre-Dame-du-Rosaire,Public,2090,boulevard tadoussac,Saguenay,QC,G7G1K9
c67b23e19cd520fc0fb6,"Odyssée / Dominique-Racine, secondaire de l'",Public,985,avenue bégin,Saguenay,QC,G7H4P1
cbadc9a40e4e92891fef,Atelier de menuiserie,Public,731,boul. de grande-baie nord,Saguenay,QC,G7B3K5
d077b434a58292d15c9f,"Odyssée / Lafontaine, secondaire de l'",Public,475,avenue lafontaine,Saguenay,QC,G7H4V2
d7b88bc7a7c1978ec246,Conservatoire de musique de Saguenay,École gouvernementale,202,rue jacques-cartier est,Saguenay,QC,G7H6R8
d829b09f19294b3806a1,Centre de géomatique du Québec inc.,Centre collégial de transfert de technologie,534,rue jacques-cartier est saguenay g7h1z6,Saguenay,QC,G7H1Z6
da99deef91fdbda01a5e,Trefflé-Gauthier,Public,2385,rue des cyprès,Saguenay,QC,G8A2E6
dc6d6893e8e9a2ad6fbf,Université du Québec à Chicoutimi,Constituante,555,boulevard de l'université,Saguenay,QC,G7H2B1
df1c54ba60453c37be76,"Grandes-Marées, secondaire des",Public,1802,avenue john-kane,Saguenay,QC,G7B1K2
df7ae3a37fdb08b6a9e0,Sainte-Thérèse,Public,737,rue victoria saguenay,Saguenay,QC,G7B3M8
e035f027eebdb0e2aa93,Bois-Joli,Public,4411,rue du bois-joli,Saguenay,QC,G7P1M4
e31538acac5ae436c9c1,CFGA De La Jonquière,Public,3842,boulevard harvey saguenay,Saguenay,QC,G7X2Z4
e7c447c2ea1dfa13e456,Centre de production automatisée (CPA),Centre collégial de transfert de technologie,3780,rue panet,Saguenay,QC,G7X0E5
e9cbe88ba4c8a85fa238,Séminaire de Chicoutimi - services éducatifs,Installation,679,rue chabanel saguenay g7h1z7,Saguenay,QC,G7H1Z7
ee2693727e5d2c400090,"Tandem - Édifice Notre-Dame-du-Rosaire, le",Public,2390,rue pelletier,Saguenay,QC,G7X6B9
f199b120e3b01b481421,Sainte-Lucie,Public,2330,rue lévesque,Saguenay,QC,G7S3T3
f21fef4ab7fc589537fb,Des Jolis-Prés,Public,1014,rue de la moisson,Saguenay,QC,G7N1G2
f5e2acaa230159c33ae7,CFP du Grand-Fjord Pavillon Oasis,Technical and Vocational,624,lafontaine,Chicoutimi,QC,G7H4V4
f5f1dc9e0884513d510e,Ctre gestion doc. & Ctre ress. multidiciplinaires,Public,1955,rue bourassa,Saguenay,QC,G7X4E1
f6b939d17f33ca9b70e6,Universite du Quebeca Chicoutimi,University,555,boul. de l'universite,Chicoutimi,QC,G7H2B1
f76741292b0794cd611b,Riverside Regional High School,Public,1770,rue joule,Saguenay,QC,G7S3B1
f901d41fa9f822b71898,ÉcolACTion,Installation,681,rue chabanel saguenay g7h1z7,Saguenay,QC,G7H1Z7
faedc86cd0af6c43f11d,La Carrière,Public,245,rue des épervières,Saguenay,QC,G7G4Y8
