Index,Facility_Name,Facility_Type,Street_No,Street_Name,City,Prov_Terr,Postal_Code
001ef4c1ef457c88f906,Polyvalente Jonquière,Public,3450,boulevard du royaume,Saguenay,QC,G7S5T2
041c5c8e3e2765a4bf2d,Cégep de Chicoutimi,Cégep,534,rue jacques-cartier est saguenay g7h1z6,Saguenay,QC,G7H1Z6
0914897e454a13832ca3,Service aux entreprises,Public,2875,boulevard du saguenay saguenay,Saguenay,QC,G7S2H2
0a59355230669b2a2f95,Notre-Dame-de-l'Assomption,Public,2075,rue hudson,Saguenay,QC,G7S3R4
0fec3e426511c68534c8,La Source,Public,129,jacques-cartier est,Saguenay,QC,G7H1Y4
103671c4c9c56afff778,Marguerite-Belley,Public,4080,boulevard harvey saguenay,Saguenay,QC,G8A1K3
108ad36077322dde2926,Polyvalente Arvida,Public,2215,boulevard mellon,Saguenay,QC,G7S3G4
133d77943e11cc2bb877,École trilingue Vision Saguenay,Installation,683,rue chabanel saguenay g7h1z7,Saguenay,QC,G7H1Z7
1ebb70f0d1572d4ac5b8,Vanier,Public,595,rue delisle,Saguenay,QC,G7G3B8
22d1150aabf1ba15e358,Centre Durocher,Public,2511,rue mgr-dufour,Saguenay,QC,G7B1E2
2983fa8191de1ed7ce01,Saint-Denis,Public,130,avenue des ormes sud,Saguenay,QC,G7H3K5
2f9f3a41586c9ff4f8c0,"CFPJ, édifice Saint-Germain",Public,3829,rue saint-germain,Saguenay,QC,G7X2W1
339f58f43af2932ba77e,Marguerite-d'Youville,Public,870,avenue boily,Saguenay,QC,G7J2Y4
33ef648a455c92dc8bee,Félix-Antoine-Savard,Public,1140,avenue bizet,Saguenay,QC,G7H4H4
35520dd8d06c3a8beea3,Sacré-Coeur,Public,1930,rue frontenac saguenay,Saguenay,QC,G7X4W3
3d29c601d3e348a307c7,Georges-Vanier,Public,1623,rue sirois,Saguenay,QC,G7B2S2
3f0766eb54b60b8a6ee8,Notre-Dame,Public,860,rue gauthier,Saguenay,QC,G7N1G8
415a9557d8cd70fa6bf1,Quatre-Vents,Public,33,rue saint-calixte saguenay,Saguenay,QC,G7G4X4
43be5dd10e140054e84d,Laure-Conan,Public,847,avenue george-vanier,Saguenay,QC,G7H4M1
4417dbe87a4710b4d863,Saint-Alphonse,Public,731,boul de grande-baie nord,Saguenay,QC,G7B3K5
47692661e451755eaa10,Saint-Isidore,Public,97,avenue arthur hamel sud,Saguenay,QC,G7H3M9
4a1de7562ab52d6fb864,"Tandem - Édifice Saint-Luc, le",Public,3950,rue de la bretagne,Saguenay,QC,G7X3W3
4b65895494a789580614,Cégep de Jonquière,Cégep,2505,rue saint-hubert,Saguenay,QC,G7X7W2
4cf3bb895bb897115c63,Saint-Coeur-de-Marie,Public,465,chemin de la réserve,Saguenay,QC,G7J3N7
539af04202b3165186dd,André-Gagnon,Public,128,rue louis-francoeur,Saguenay,QC,G7H3A8
56d67867f34012b12db7,Saint-Henri,Public,284,rue delisle,Saguenay,QC,G7G3B3
5a0720ad4eeeb16e3c05,"Mosaïque, de la",Public,3795,rue saint-laurent,Saguenay,QC,G7X2P5
5c927192b12d24262b29,Le Roseau,Public,41,rue saint-benoît,Saguenay,QC,G7G2R4
648672af0616f043b759,L'Oasis,Public,624,avenue lafontaine,Saguenay,QC,G7H4V4
6662691ef43f8226313a,Sainte-Bernadette,Public,824,avenue chabanel,Saguenay,QC,G7H3T7
685c1feb9d8b335d7046,Saint-Joseph,Public,3300,rue prince-albert,Saguenay,QC,G7B3R6
686cc697ef88d4833c8f,Collège MultiHexa Saguenay/Lac Saint-Jean,Collège privé,930,rue jacques-cartier est,Saguenay,QC,G7H7K9
6ea6329b9e20a40dcbca,Sainte-Bernadette,Public,2908,rue sainte-émilie,Saguenay,QC,G7S1S1
735db54f7610e1381765,ÉCOBES Recherche et transfert,Centre collégial de transfert de technologie,3791,rue de la fabrique,Saguenay,QC,G7X7W2
7e6cdd7c0ab26075551d,Sainte-Claire,Public,136,rue des saules,Saguenay,QC,G7G4C3
87fc06f48e2e331697cd,Notre-Dame-du-Sourire,Public,1796,rue neilson,Saguenay,QC,G7S3A2
8a1400f372bf5af48fb3,Médéric-Gravel,Public,1351,6e avenue saguenay,Saguenay,QC,G7B1R5
8a366257740f5c398778,Sainte-Marie-Médiatrice,Public,2196,rue perrier,Saguenay,QC,G7X9C9
9491a92eac8dbe20d904,College de Chicoutimi,Junior College,534,est rue jaques-cartier,Chicoutimi,QC,G7H1Z6
98ac3c64ca78f458211b,College de Jonquiere (Cegep),Junior College,2505,rue st-hubert,Jonquiere,QC,G7X7W2
9ea2998b483b0b3a6513,Centre 216,Public,216,rue des oblats ouest,Saguenay,QC,G7J2B1
a6a37fad2a05012da401,Saint-Antoine,Public,315,rue du stade,Saguenay,QC,G7J3T5
a8e0563566266fc2e0e1,L'Horizon,Public,1067,avenue jolliet,Saguenay,QC,G7J2R1
ad5efde28b1f2da07d40,Antoine-de-St-Exupéry,Public,82,boulevard université est,Saguenay,QC,G7H2M2
b6c5bc850985071071dc,Centre de services La Baie,Public,3111,rue mgr-dufour,Saguenay,QC,G7B4H5
b7b75ea30aa043ab4476,Riverside Regional Elementary School,Public,1750,rue joule,Saguenay,QC,G7S3B3
b82cecd9d0e0f2930e01,"Charles-Gravel, secondaire",Public,350,rue saint-gérard,Saguenay,QC,G7G1J2
ba7797e43b76890ea5b6,De La Pulperie,Public,906,avenue comeau,Saguenay,QC,G7J3J3
be4ae379bf1c886c5042,Saint-Jean-Baptiste,Public,2176,rue saint-edmond,Saguenay,QC,G8A1Y9
