Index,Facility_Name,Facility_Type,Street_No,Street_Name,City,Prov_Terr,Postal_Code
0aa58c3b05932c1230f4,Pavillon G. Scherrer,Public,100,rue comeau,Sept-Îles,QC,G4R1J4
0cd8f6c2971bc5bdd1a9,Flemming Elementary School,Public,542,avenue brochu,Sept-Îles,QC,G4R2X3
1672e11e056fa451569b,Roulotte / Forage Dynamitage,Public,1974,rue gagnon,Sept-Îles,QC,G4R4K3
2b81759f8730333d27eb,Cégep de Sept-Îles (section anglophone),Centre d'enseignement,175,rue de la vérendrye,Sept-Îles,QC,G4R5B7
5dc6027713af9fda31de,Manikoutai,Public,40,rue comeau,Sept-Îles,QC,G4R4N3
6bef22be83dae9b8db0a,Gamache,Public,532,avenue gamache,Sept-Îles,QC,G4R2J2
741e45fb3f96d376c70d,Queen Elizabeth,Public,95,rue père divet,Sept-Îles,QC,G4R3P2
78414a2dfd3b243f355a,Institut technologique de maintenance industrielle,Centre collégial de transfert de technologie,175,rue de la vérendrye,Sept-Îles,QC,G4R5B7
7c4c36bef3010550c75d,Camille-Marcoux,Public,1280,rue fiset,Sept-Îles,QC,G4S1M1
82d2cf563c6372120431,"Boisé, du",Public,70,rue jean-marc-dion,Sept-Îles,QC,G4R0K4
a1afeaff8a759bc00952,Notre-Dame,Public,338,rue thériault,Sept-Îles,QC,G0G1L0
b9a235cad74051e97f4a,Jacques-Cartier,Public,10,rue johnny-montigny,Sept-Îles,QC,G4R1W3
c9ddc2272a89e22fb2d3,Marie-Immaculée,Public,167,rue daigle,Sept-Îles,QC,G4R4H3
ca9004598b6985063ec8,Bois-Joli,Public,95,rue des chanterelles,Sept-Îles,QC,G4S2B9
d8b292bbc4dbce617f73,Institut d'enseignement de Sept-Îles,Installation,737,avenue gamache,Sept-Îles,QC,G4R2J8
f0e6c07089f44529a44f,Cégep de Sept-Îles,Cégep,175,rue de la vérendrye,Sept-Îles,QC,G4R5B7
f293cc742d3cf3013cd9,Jean-du-Nord,Public,110,rue comeau,Sept-Îles,QC,G4R1J4
f814b3ebd0ab8a8c3f43,Maisonneuve,Public,18,rue maisonneuve,Sept-Îles,QC,G4R1C7
f876d63ec7da7df35f1c,CFP de Northern Lights,Public,530,avenue brochu,Sept-Îles,QC,G4R2X3
fc8876d6a74c449c7a8a,Monseigneur-Blanche,Public,83,rue monseigneur-blanche,Sept-Îles,QC,G4R3G4
