Index,Facility_Name,Facility_Type,Street_No,Street_Name,City,Prov_Terr,Postal_Code
05c52079ca3f29bff0be,École secondaire catholique La Citadelle,Catholic,510,mcconnell avenue,Cornwall,ON,K6H4M1
231f691e9862dfb4db82,École secondaire publique L'Héritage,Public,1111,montréal chemin,Cornwall,ON,K6H1E1
267152d22320d07e1036,Cornwall Intermediate School,Public,437,sydney street,Cornwall,ON,K6H3H9
2ee7b765f9dbc6367727,St Joseph's Secondary School,Catholic,1500 a,cumberland st.,Cornwall,ON,K6J5V9
3573150f23ca9bbe5ae5,St Anne's School,Catholic,607,surgenor ave,Cornwall,ON,K6J2H5
36520dd7f14165ee4d38,St. Joseph Intermediate Catholic School,Catholic,1500,cumberland street,Cornwall,ON,K6J5V9
397f7a67315d2b7af0df,École élémentaire publique L'Héritage,Public,1111,montréal chemin,Cornwall,ON,K6H1E1
3e1275a002970be8afe2,St Peter's School,Catholic,1811,second street east,Cornwall,ON,K6H6P1
4b990a28eb793858a7d6,Ontario Hockey Academy,Private,1541,vincent massey drive,Cornwall,ON,K6H5R6
63fc0c72eaa97f1779dc,École élémentaire catholique Notre-Dame,Catholic,420,15e ouest rue,Cornwall,ON,K6J3K5
6a5c8530479eb8c5df71,École élémentaire publique Rose des Vents,Public,1650,2ième rue est,Cornwall,ON,K6H2C3
71aac8a22e68144a1587,St Lawrence Secondary School,Public,1450,second street east,Cornwall,ON,K6H5Z8
80c188688b7e973b1ebd,École élémentaire catholique Marie-Tanguay,Catholic,1500,holy cross boulevard,Cornwall,ON,K6H2X1
90a4b7725f7427f3337b,Eamer's Corners Public School,Public,2258,pitt street,Cornwall,ON,K6K1A3
a561a483494ff1ff1014,Bridgewood Public School,Public,850,nick kaneb drive,Cornwall,ON,K6H6Z2
a61beb2cf366cfc61b5f,Viscount Alexander Public School,Public,1401,dover road,Cornwall,ON,K6J1V6
adb85cd5369fa13454de,Bishop Macdonell Separate School,Catholic,300,adolphus st.,Cornwall,ON,K6H3S6
bf02b3528dfcb1718179,Central Public School,Public,200,amelia street,Cornwall,ON,K6H0A5
df2ae8be5f4e128e1401,Cornwall Collegiate and Vocational School,Public,437,sydney street,Cornwall,ON,K6H3H9
e57c6850d0d455a0254b,École intermédiaire catholique La Citadelle,Catholic,510,mcconnell avenue,Cornwall,ON,K6H4M1
ebf78ea78d644cd362b9,St Matthew Catholic Secondary School,Catholic,822,marlborough street north,Cornwall,ON,K6H4B4
ec1ed4d4aba911efff60,St Lawrence Intermediate School,Public,1450,second street east,Cornwall,ON,K6H5Z8
edacbc1bfc639162020d,Sacred Heart School,Catholic,1500,cumberland street,Cornwall,ON,K6J5V9
eeeddc70c1ce3436c40b,St. Matthew Catholic Elementary School,Catholic,822,marlborough st,Cornwall,ON,K6H4B4
