Index,Facility_Name,Facility_Type,Street_No,Street_Name,City,Prov_Terr,Postal_Code
b5230087d8d568dd9733,École élémentaire catholique L'Étoile-de-l'Est,Catholic,6220,beauséjour prom.,Orléans,ON,K1C8E4
b76f5eaa38fd48c4265d,Manotick Public School,Public,1075,bridge st,Manotick,ON,K4M1H3
b86699dc532d95edc22e,École élémentaire catholique Montfort,Catholic,350,rue den haag,Ottawa,ON,K1K0W9
b8f837ad71a60d8d50ac,École intermédiaire catholique Franco-Cité,Catholic,623,smyth chemin,Ottawa,ON,K1G1N7
b926d2f962aa25773ba0,Académie de la Capitale,Private,1010,morrison drive,Ottawa,ON,K2H8K7
b96c9c09a08d62910349,Canada Knowledge Academy,Private,4400,boundary road,Ottawa,ON,K0A1K0
b9b981f75c345b3045ad,Chapel Hill Catholic Elementary School,Catholic,1534,forest valley dr,Orleans,ON,K1C6G9
ba53b895c99020dee4a3,Henry Larsen Elementary School,Public,1750,sunview dr,Gloucester,ON,K1C5B3
bbe87ee468dd6b34a19d,Kanata Montessori Private School,Private,355,michael cowpland dr,Kanata,ON,K2M2C5
bc17d13cd32581b54a72,École élémentaire catholique Terre-des-Jeunes,Catholic,1303,fellows rue,Ottawa,ON,K2C2V8
bcba57f0bf0b19a228f4,École élémentaire catholique Horizon-Jeunesse,Catholic,349,olmstead rue vanier,Vanier,ON,K1L1B1
bd53d6f9ed1d06e616c4,Centre Jules-Léger ÉP Surdité palier,Provincial,281,av lanark,Ottawa,ON,K1Z6R8
be60d93b742e44ccf416,École élémentaire publique Gisèle-Lalonde,Public,500,millennium boulevard,Orléans,ON,K4A4X3
bea6e6ab0d3a2bc47f27,St Mark Intermediate School,Catholic,1040,dozois rd 1,Manotick,ON,K4M1B2
bf463c65d3f43a77f736,Alta Vista Public School,Public,1349,randall ave,Ottawa,ON,K1H7R2
bf6cf5ac7c8fe33bb47a,D. Roy Kennedy Public School,Public,919,woodroffe ave,Ottawa,ON,K2A3G9
bfa6d4822d84fb42e220,St Daniel Elementary School,Catholic,1313,field street,Ottawa,ON,K2C2P9
c0200efc44b3e7457c14,St Patrick's Intermediate School,Catholic,2525,alta vista drive dr,Ottawa,ON,K1V7T3
c03a6e22ff7010c2644d,Canterbury High School,Public,900,canterbury ave,Ottawa,ON,K1G3A7
c0645fed4565780b9ad1,École élémentaire catholique Des Pins,Catholic,1487,ridgebrook prom.,Gloucester,ON,K1B4K6
c06ab5c9ebb6aecee524,Goulbourn Middle School,Public,2176,huntley rd rr#3,Stittsville,ON,K2S1B8
c18c71f040d32f67fc87,École élémentaire publique Séraphin-Marion,Public,2147,loyola avenue,Ottawa,ON,K1J7W3
c236d896f460774002a7,Al Furqan School,Private,2825,dumaurier avenue,Ottawa,ON,K2B7W3
c26e1afc569b8f4ece98,École secondaire publique Pierre-de-Blois,Public,...,,,ON,
c3194b2d5ff505172ae2,École intermédiaire catholique Garneau,Catholic,6588,carrière rue,Orleans,ON,K1C1J4
c3632f3962637e0dc508,St. Francis Xavier (7-8) Catholic School,Catholic,3740,spratt rd,Gloucester,ON,K1V2M1
c3cdb37ca0968c35fd17,École élémentaire catholique Sainte-Anne,Catholic,235,beausoleil promenade,Ottawa,ON,K1N0C1
c42577e567be5c7477a6,École élémentaire catholique Sainte-Marie,Catholic,2599,innes chemin,Gloucester,ON,K1B3J8
c441e449dd1cd9d900c0,St. Brother Andre Elementary School,Catholic,1923,elmridge dr,Gloucester,ON,K1J8G7
c523454d2a63f8c3a842,Lakeview Public School,Public,35,corkstown rd,Nepean,ON,K2H7V4
c54c33cd5ed473d62d73,École élémentaire publique Louis-Riel,Public,1655,bearbrook chemin,Gloucester,ON,K1B4N3
c5a76cd5859d448463b7,Devonshire Community Public School,Public,100,breezehill ave,Ottawa,ON,K1Y2H5
c65b785653b111c4739c,Versailles Academy of Make-Up Art And Esthetics,Private Institution,1930,bank street,Ottawa,ON,K1V7Z8
c752cae30af94fd1b1d9,Huntley Centennial Public School,Public,118,langstaff dr,Carp,ON,K0A1L0
c85a3a3ecfa7745554e9,Sir Robert Borden Intermediate School,Public,131,greenbank rd,Nepean,ON,K2H8R1
c93ecf27fec17ee20113,Richmond Public School,Public,3499,mcbean st,Richmond,ON,K0A2Z0
c9fd350d72eb00d1fe85,St. Mother Teresa Catholic Intermediate School,Catholic,440,longfields dr,Nepean,ON,K2J4T1
cc0c18a1f1eb31b0d9dc,Roland Michener Public School,Public,100,penfield dr,Kanata,ON,K2K1M2
cc51dc8daf0b81804f44,Broadview Public School,Public,535,dovercourt,Ottawa,ON,K2A3W3
cc7bc36a681cf5083d00,Fisher Park/Summit AS Public School,Public,250,holland ave,Ottawa,ON,K1Y0Y5
cce59849001e4096c502,École élémentaire catholique Des Pionniers,Catholic,720,merkley prom.,Orléans,ON,K4A1L8
cec52e206041aaeff9c7,École lbn Batouta,Private,6479,russell road,Ottawa,ON,K0A1K0
d035a91ef46b49ddba84,Dunning-Foubert Elementary School,Public,1610,prestwick dr,Orleans,ON,K1E2N1
d04da1a5cbd2a92e5f30,Lycée Claudel,Private,1635,riverside drive,Ottawa,ON,K1G0E5
d1d383223acb768cb2dc,Our Lady of Mount Carmel Elementary School,Catholic,675,gardenvale rd,Ottawa,ON,K1K1C9
d24867af114a632ede00,International Academy of Massage,Private Institution,380,forest street,Ottawa,ON,K2B8E6
d2d9404df43ad8a752a7,John Young Elementary School,Public,5,morton dr,Kanata,ON,K2L1W7
d2fc30e77e748f07149d,École secondaire publique Barrhaven Sud,,715,brian good avenue,Ottawa,ON,K4M1B2
d72108ad27a03aef4d8e,École élémentaire publique Jeanne-Sauvé,Public,1917,gardenway chemin,Orléans,ON,K4A2Y7
