Index,Facility_Name,Facility_Type,Street_No,Street_Name,City,Prov_Terr,Postal_Code
7664216f73c7c2041d23,Divine Infant Catholic Elementary School,Catholic,8100,jeanne d'arc blvd,Orleans,ON,K1E2E1
7735f83d41d5b8815a0f,Bayshore Public School,Public,145,woodridge cres,Nepean,ON,K2B7T2
780ece06b59862351b4c,Macdonald-Cartier Academy,Private,270,crichton st,Ottawa,ON,K1M1W4
784b1feade23c0faef95,Tarbiyah Learning,Private,3990,old richmond rd road,Nepean,ON,K2H8R5
78c5feb58842faf9c86b,St Martin de Porres Elementary School,Catholic,20,mckitrick dr,Kanata,ON,K2L1T7
7928f1685d10f34263f4,Corpus Christi Catholic Elementary School,Catholic,798,lyon street south st,Ottawa,ON,K1S5H5
79410522ddd603674a38,Merivale High School,Public,1755,merivale rd,Nepean,ON,K2G1E2
7945fb98529343abe66f,Cambridge Street Community Public School,Public,250,cambridge st n,Ottawa,ON,K1R7B2
79ea810373bd15d4be94,École élémentaire catholique Arc-en-ciel,Catholic,1830,portobello boul.,Orléans,ON,K4A3T6
79ebbb96f3dc4eaa147f,École élémentaire catholique Reine-des-Bois,Catholic,1450,duford rue,Orléans,ON,K1E1E6
7a139a03c05725d5d491,École intermédiaire catholique Paul-Desmarais,Catholic,5315,abbott rue,Ottawa,ON,K2S0X3
7a573cd4dacd6fe866ee,St. John XXIII Elementary School,Catholic,165,knoxdale rd,Nepean,ON,K2G1B1
7b3c9950e089574d4c25,CHEO School,Hospital,395,smyth rd,Ottawa,ON,K1H8L2
7b4825cbe1865749d66e,Dominicain University College,University,96,empress ave.,Ottawa,ON,K1R7G3
7b5c49d997c9aa0973e8,École élémentaire catholique Alain-Fortin,Catholic,676,lakeridge prom.,Orléans,ON,K4A0J8
7b969f64d0ea853d5929,Jockvale Elementary School,Public,101,malvern dr,Nepean,ON,K2J2S8
7be082ffca70fd819cf9,Holy Trinity Catholic Intermediate School,Catholic,180,katimavik rd,Kanata,ON,K2L4A7
7c8dd9aeac3daee86b28,Hawthorne Public School,Public,2158,st. laurent blvd,Ottawa,ON,K1G1A9
7cc53136060f6386ac80,École élémentaire publique Louise-Arbour,Public,175,beech rue,Ottawa,ON,K1Y3T1
7e552f75d26fe99e9534,St. Dominic Catholic Elementary School,Catholic,2300,esprit dr,Cumberland,ON,K4A0T5
7ef991daf3b5aea4bd2c,St Augustine Elementary School,Catholic,1009,arnot rd,Ottawa,ON,K2C0H5
80004371d009ee3def7e,Orleans Wood Elementary School,Public,7859,decarie dr,Gloucester,ON,K1C2J4
800c449ccc1eee483f73,St Elizabeth Ann Seton Elementary School,Catholic,41,weybridge dr,Nepean,ON,K2J2Z8
803f4e759beb09544724,Centre Jules-Léger ÉA Difficulté,Provincial,281,av lanark,Ottawa,ON,K1Z6R8
810dd7ee80899acac16c,St. Kateri Tekakwitha Elementary School,Catholic,6400,beausejour dr,Orleans,ON,K1C4W2
8201b9c6529a1469abcd,Robert Bateman Public School,Public,1250,blohm dr,Ottawa,ON,K1G5R8
83aa51588456017242b4,École intermédiaire catholique Mer Bleue,Catholic,6401,renaud rd,Orléans,ON,K1W0H8
83f863b7d399be842baf,Glashan Public School,Public,28,arlington ave,Ottawa,ON,K2P1C2
840b4dc2f6dd73a8e9ef,W.E. Gowling Public School,Public,250,anna st,Ottawa,ON,K1Z7V6
84b4e35a3776f964789b,Pleasant Park Public School,Public,564,pleasant park rd,Ottawa,ON,K1H5N1
865b01969accbfc1267a,St Luke (Nepean) Elementary School,Catholic,60,mountshannon dr,Nepean,ON,K2J4C2
866c1716e86ef8e6073e,St. Cecilia Catholic School,Catholic,3490,cambrian road,Nepean,ON,K2J0V1
866f9b90ffa83935d200,Berrigan Elementary School,Public,199,berrigan dr,Nepean,ON,K2J5C6
87c31d707553fcfb9d00,École élémentaire publique Michaëlle-Jean,Public,11,claridge promenade,Barrhaven,ON,K2J5A3
87fce661dc0a3bb4d848,Connaught Public School,Public,1149,gladstone ave,Ottawa,ON,K1Y3H7
8a21ffa4f0ca8ca6e7a5,Sir Guy Carleton Secondary School,Public,55,centrepointe dr,Nepean,ON,K2G5L4
8a97f864067f3ebef0fc,Kanata Academy,Private,180,huntmar drive,Ottawa,ON,K2S1B9
8b3e30b593a82a127e70,Elgin Street Public School,Public,310,elgin st,Ottawa,ON,K2P1M4
8bb9184ab189d32878c0,Summerside Public School,Public,2350,portobello blvd,Ottawa,ON,K4A0K5
8cd340aac606902c7b11,Pinecrest Public School,Public,1281,mcwatters rd,Ottawa,ON,K2C3E7
8d538daa4ac44db61016,École secondaire catholique Collège catholique Franco-Ouest,Catholic,411,seyton prom.,Nepean,ON,K2H8X1
8d60e890df2425e0362c,École élémentaire publique L'Odyssée,Public,1770,grey nuns promenade,Orléans,ON,K1C1C3
8e0b17b04e8e612c6853,A.Y. Jackson Secondary School,Public,150,abbeyhill dr,Kanata,ON,K2L1H7
8ef3f10a6038bc240e69,Churchill Alternative School,Public,345,ravenhill ave,Ottawa,ON,K2A0J5
9050602834650089ae0e,Osgoode Township High School,Public,2800,8th line rd,Metcalfe,ON,K0A2P0
90c9b748e0313ed91591,Severn Avenue Public School,Public,2553,severn ave,Ottawa,ON,K2B7V8
90cc5fa71a596de72b36,Lester B. Pearson Catholic Intermediate School,Catholic,2072,jasmine cres,Gloucester,ON,K1J8M5
90ff52daa84a930fce35,Queen Mary Street Public School,Public,557,queen mary st,Ottawa,ON,K1K1V9
9103e1b0e53c1dfea23b,Greely Elementary School,Public,7066,parkway rd,Greely,ON,K4P1A9
