Index,Facility_Name,Facility_Type,Street_No,Street_Name,City,Prov_Terr,Postal_Code
0020d0d212fe148a65e4,Elizabeth Wyn Wood Secondary Alternate,Public,20,rossland ave,Nepean,ON,K2G1H6
031943ecef4fc0546bfd,École secondaire catholique Paul-Desmarais,Catholic,5315,abbott,Ottawa,ON,K2S0X3
033c5ad29a456e0047d3,École élémentaire publique Mauril-Bélanger,Public,307,montgomery rue vanier,Vanier,ON,K1L7W8
0341794db2ded17cd3da,Centre Jules-Léger ÉA Difficulté,Provincial,281,av lanark,Ottawa,ON,K1Z6R8
0385431accf06f2ddfab,Mindware Academy,Private,985,pinecrest rd,OTTAWA,ON,K2B6B4
03b0c4d569f17f35a7b4,St James Elementary School,Catholic,50,stonehaven dr,Kanata,ON,K2M2K6
05f5c4cc196429c6a349,École intermédiaire Barrahven,Public,4025,strandherd promenade,Nepean,ON,K2J6E1
05f628b719d2e5bb97bd,Centennial Public School,Public,376,gloucester st,Ottawa,ON,K1R5E8
06d074bfbc550f2ee719,Canadian National Institute of Health Inc.,Private Institution,303,dalhousie st,Ottawa,ON,K1N7E8
070f4ae7002b0473ce10,Our Lady of Fatima Elementary School,Catholic,2135,knightsbridge rd,Ottawa,ON,K2A0R3
0739bee06b2753d1f7ee,Osgoode Public School,Public,5590,osgoode main st,Osgoode,ON,K0A2W0
07765b23d7d97e6c0cd0,All Saints Catholic Intermediate School,Catholic,5115,kanata ave,Kanata,ON,K2K3K5
07b5cd3f4ca9ab2506b1,Elmwood School,Private,261,buena vista rd,Ottawa,ON,K1M0V9
07b9b87865a586ecb365,École élémentaire catholique d'enseignement personnalisé Édouard-Bond,Catholic,920,parkhaven av.,Ottawa,ON,K2B5K3
08048c0f7f59c42303e9,Assumption Catholic Elementary School,Catholic,236,levis ave,Vanier,ON,K1L6H8
099ac2431a04783a5c0c,Joan of Arc Academy,Private,2221,elmira dr,Ottawa,ON,K2C1H3
0a7b1ccee511eb1d7ab5,St Leonard Elementary School,Catholic,5344,long island rd,Manotick,ON,K4M1E8
0ac1ceaeffad45592eb8,Debbie Campbell Learning Academy,Private,440,albert st.,Ottawa,ON,K1R5B5
0ac1d521479802aef149,École secondaire catholique Centre professionnel et technique Minto,Catholic,801,de l'aviation prom.,Ottawa,ON,K1K4R3
0ad897a71e01962dbfb8,Steve MacLean Public School,Public,4175,spratt rd,Gloucester,ON,K1V1T6
0bfbdb5f6c94092d043b,Ottawa Christian School,Private,255,tartan drive,Ottawa,ON,K2J3T1
0d06fe8dddc5cfe7aa10,Westboro Academy,Private,1000,brookfield east road,Ottawa,ON,K1V6J1
0dc17b36d6ac075f92f5,La Cite Collegiale,Technical and Vocational,801,aviation parkway,Ottawa,ON,K1K4R3
0e0112b4fecdd334d53e,St Anthony Elementary School,Catholic,391,booth st,Ottawa,ON,K1R7K5
0e6053eaeb1454ee1ca2,Dunlop Public School,Public,1310,pebble rd,Ottawa,ON,K1V7R8
0eac7a72a583081330b9,Trillium College-Ottawa,Private Institution,75,albert st.,Ottawa,ON,K1P5E7
0f1d1d4545b6af1b3cde,Bibleway Ministries Christian Learning C,Private,500,bride private,Nepean,ON,K2J0J1
0fd7b3989e5fd962d0d6,Regina Street Alternative School,Public,2599,regina st,Ottawa,ON,K2B8B6
1119f6369b5c87b58165,École intermédiaire catholique Béatrice-Desloges,Catholic,1999,provence av.,Orléans,ON,K4A3Y6
113f7dda47f870813cec,École secondaire publique Louis-Riel,Public,1655,bearbrook chemin,Gloucester,ON,K1B4N3
115116b2406ef1cc8f7d,École élémentaire catholique Elisabeth-Bruyère,Catholic,100,stonehaven prom.,Kanata,ON,K2M2H4
11819b0a3465de00b7a4,St Andrew Elementary School,Catholic,201,crestway dr,Nepean,ON,K2G6Z3
125482aec223af8d790e,Beaverbrook Math Academy,Private,2,beaverbrook road,Kanata,ON,K2K1L1
12cf8af34a76a27b064c,St Mark High School,Catholic,1040,dozois rd 1,Manotick,ON,K4M1B2
135e3ae69e18b79ce587,Frank Ryan Catholic Intermediate School,Catholic,128,chesterton dr,Nepean,ON,K2E5T8
136e0cf39431717f2fc6,Thomas D'Arcy McGee Elementary School,Catholic,635,laverendrye dr,Gloucester,ON,K1J7C2
14000f99d5a34652d84b,St Marguerite d'Youville Elementary School,Catholic,89,lorry greenberg dr,Ottawa,ON,K1T3J6
1486b7491e9b4b046432,Avalon Public School,Public,2080,portobello blvd,Orleans,ON,K4A0K5
1659c9f4c5cd31886c3e,St Francis of Assisi Elementary School,Catholic,795,watters rd,Orleans,ON,K4A2T2
1756b71f3f612a7de588,Blyth Academy Ottawa Upper School,Private,397,richmond road,Ottawa,ON,K2A0G9
18ab39304f05f9323c56,Carson Grove Elementary School,Public,1401,matheson rd,Gloucester,ON,K1J8B5
19b67536911478f1b42a,École élémentaire catholique Notre-Dame-des-Champs,Catholic,6280,renaud ch,Ottawa,ON,K4B1H9
1a131006894bec94ed53,North Gower/Marlborough Public School,Public,2403,church st,North Gower,ON,K0A2T0
1a5e8dfc48d1810698bf,Polaris School and Centre - A Waldorf In,Private,225,donald street,Ottawa,ON,K1K1N1
1a83737c5cceffff1a08,Ottawa Islamic School,Private,10,coral ave,Nepean,ON,K2E5Z6
1bcf1d309d1d86864c3d,Glebe Montessori School,Private,650,lyon st south,Ottawa,ON,K1S3Z7
1c35cfce709d8a97c18f,St. Stephen Catholic Elementary School,Catholic,1145,stittsville main street,Stittsville,ON,K2S0M5
1cafe98a800c60d5dd09,Heritage Academy,Private,207,bayswater avenue,Ottawa,ON,K1Y2G5
1e0806c6f99886f31afa,École élémentaire publique De la Salle,Public,501,ancienne st-patrick rue,Ottawa,ON,K1N8R3
