Index,Facility_Name,Facility_Type,Street_No,Street_Name,City,Prov_Terr,Postal_Code
d7b696ef1bb4eacc41b1,Ottawa Torah Institute,Private,1119,lazard street,Ottawa,ON,K2C2R5
d7de8f0facf8c1d657f2,Glen Ogilvie Public School,Public,46,centrepark dr,Gloucester,ON,K1B3C1
d88e2bf76ddef831b401,Castlefrank Elementary School,Public,55,mccurdy dr,Kanata,ON,K2L4A9
d8b659f01773b21239ee,Convent Glen Elementary School,Public,1708,grey nuns dr,Gloucester,ON,K1C1C1
d92922e4141db6be5057,École élémentaire catholique Bernard-Grandmaître,Catholic,4170,spratt chemin,Ottawa,ON,K1V0Z5
d948461b2f96f083c677,École secondaire catholique Franco-Cité,Catholic,623,smyth chemin,Ottawa,ON,K1G1N7
da001b69a72e3cd566b1,École secondaire des adultes Le Carrefour,Public,2445,st-laurent boulevard,Ottawa,ON,K1G6C3
da7b2be2bff255611e71,Académie Providence Soeurs Antonines,Private,998,frances rue,Ottawa,ON,K1K3L5
db2195faa3fce257d8c3,Westwind Public School,Public,111,hartsmere dr,Ottawa,ON,K2S2G1
db3e49b569f301ffc780,École élémentaire catholique De la Découverte,Catholic,866,scala av.,Cumberland,ON,K4A4T6
dc6c6ccfcd18fb177b9f,Castor Valley Elementary School,Public,2630,grey's creek rd,Greely,ON,K4P1N2
dc78c65af2cd0d457b42,University of Ottawa,University,,,Ottawa,ON,K1N6N5
dcbb1c574a28e35d2ac2,Katimavik Elementary School,Public,64,chimo dr,Kanata,ON,K2L1Y9
ddc272581861c57079a5,Emily Carr Middle School,Public,2681,innes rd,Gloucester,ON,K1B3J7
df690098c2e8dafe7d12,St Thomas More Elementary School,Catholic,1620,blohm dr,Ottawa,ON,K1G5N6
df70a8a74a128604ddf6,York Street Public School,Public,310,york st,Ottawa,ON,K1N5V3
dfa63aede19be7b9f491,École secondaire publique Barrhaven sud,Public,4025,strandherd promenade,Nepean,ON,K2J6E1
e2c29659fff0b818b98a,St Luke (Ottawa) Elementary School,Catholic,2485,dwight cres,Ottawa,ON,K1G1C7
e3103b9e743fae5d18ec,Frederick Banting Secondary Alternate Pr,Public,1453,stittsville main st,Stittsville,ON,K2S1A3
e3bc2c9b79c3ffb77aa5,Edelweiss Private Academy,Private,31,nadolny sachs private private,Ottawa,ON,K2A1R9
e569d801d60dbe48ddd3,St Michael (Corkery) Elementary School,Catholic,1572,corkery rd,Carp,ON,K0A1L0
e597aaa8fdcbd64bf15a,Parkdale Montessori School,Private,555b,parkdale avenue,Ottawa,ON,K1Y1H9
e68eb52024c810e2e051,Featherston Drive Public School,Public,1801,featherston dr,Ottawa,ON,K1H6P4
e7274bc6999858e9e35a,St Pius X High School,Catholic,1481,fisher ave,Ottawa,ON,K2C1X4
e96c9263e8316d71c9e2,Arch Street Public School,Public,2129,arch st,Ottawa,ON,K1G2H5
e970d1f4b9951eee7617,Ashbury College,Private,362,mariposa ave,Ottawa,ON,K1M0T3
e998b70e5e6eecf857ef,Kanata Highlands Public School,Public,425,terry fox dr,Kanata,ON,K2T0N3
ea40924c7525b02ce4a9,École élémentaire publique Marie-Curie,Public,837,quinlan avenue,Ottawa,ON,K1G1R8
eaa25bf7637baeaec496,Centre Jules-Léger ÉP Surdicécité,Provincial,281,av lanark,Ottawa,ON,K1Z6R8
eb616d86b91f4b1315f2,Robert Hopkins Public School,Public,2011,glenfern ave,Gloucester,ON,K1J6H2
ec516fa0cfce34428fe2,École élémentaire catholique Saint-Rémi,Catholic,100,promenade,KANATA,ON,K2K0G8
ec6741c31f5c2411adcf,École élémentaire publique Michel-Dupuis,Public,715,brian good avenue,Ottawa,ON,K4M1B2
ec6dc1a4f475a0ed37dd,École secondaire catholique Mer Bleue,Catholic,6401,renaud rd,Orléans,ON,K1W0H8
edaf8a321af79ccbee28,Gloucester High School,Public,2060,ogilvie rd,Gloucester,ON,K1J7N8
edc07495ba3a9ceee823,Chapman Mills Elementary School,Public,260,leamington way,Ottawa,ON,K2J3V1
ee043cf0d794f8fbf8ce,Marlborough Academy,Private,6408,malakoff rd,North Gower,ON,K0A2T0
ee5e3e46fe7e8402a2b9,Maryvale Academy of Ottawa,Private,2191,benjamin avenue,OTTAWA,ON,K2A1P6
ef100f70aed2862676f0,École secondaire catholique Pierre-Savard,Catholic,1110,longfields prom.,Nepean,ON,K2J0H9
ef4fc06a7596c1989d06,École élémentaire publique Charlotte Lemieux,Public,2093,bel-air promenade,Ottawa,ON,K2C0X2
ef578b0640a928ade830,St. Paul University,University,223,main st,Ottawa,ON,K1S1C4
ef5cb6f4723217af9ded,Georges Vanier Catholic Elementary School,Catholic,40,varley dr,Kanata,ON,K2K1G5
efd30f02f63aa785c815,The Audio Recording Academy,Junior College,1540,raven avenue,Ottawa,ON,K1Z7Y9
f09b2ce52444a98fd541,Sir Robert Borden High School,Public,131,greenbank rd,Nepean,ON,K2H8R1
f18c48eb12156847c9ad,Hillcrest High School,Public,1900,dauphin rd,Ottawa,ON,K1G2L7
f2228266fcb2963cce51,Longfields Davidson Heights Intermediate School,Public,149,berrigan dr,Nepean,ON,K2J5C6
f2552ea0b3794ee9562e,Half Moon Bay Public School,Public,3525,river run ave,Nepean,ON,K2J6E2
f2ff94ed391ff32295a0,Holy Trinity Catholic High School,Catholic,180,katimavik rd,Kanata,ON,K2L4A7
f3397abbcf243b24f7c5,École Notre-Dame du Mont Carmel,Private,40,cobourg st,Ottawa,ON,K1N8Z6
f33c9b23c4069941e367,École élémentaire catholique Marius-Barbeau,Catholic,1345,nottinghill av.,Ottawa,ON,K1V6T3
