Index,Facility_Name,Facility_Type,Street_No,Street_Name,City,Prov_Terr,Postal_Code
44b6fcedbdad177c6962,Sir Wilfrid Laurier Secondary School,Public,1515,tenth line rd,Orleans,ON,K1E3E8
450186fdeb8474633384,Forest Valley Elementary School,Public,1570,forest valley dr,Orleans,ON,K1C6X7
452d3b38245a29ce52c3,Woodroffe High School,Public,2410,georgina dr,Ottawa,ON,K2B7M8
460bf1d8611a99d3992a,Ambassadors Christian School,Private,2031,stittsville main st,Stittsville,ON,K2S1A3
46ad1cb58cd8bc6cefac,Centre Jules-Léger ÉP Surdité palier,Provincial,281,av lanark,Ottawa,ON,K1Z6R8
46cb9e655f35d0a30379,St Theresa Elementary School,Catholic,2000,portobello blvd,Cumberland,ON,K4A4M9
47bd8e00e4f4b51d1671,St Peter Intermediate School,Catholic,750,charlemagne blvd,Orleans,ON,K4A3M4
47c7ddb94d93c5812075,École élémentaire catholique Sainte-Kateri,Catholic,2450,river mist chemin,Ottawa,ON,K2J0S2
47e420ebebd68743bea0,Hopewell Avenue Public School,Public,17,hopewell ave,Ottawa,ON,K1S2Y7
4833eb3450b79fed812b,St. Francis Xavier (9-12) Catholic School,Catholic,3740,spratt rd,Gloucester,ON,K1V2M1
48bd8783bea2d7761220,Adult High School,Public,300,rochester st,Ottawa,ON,K1R7N4
48c6f92693594e841b63,Mary Honeywell Elementary School,Public,54,kennevale dr,Nepean,ON,K2J3B2
48cd44d6edc1b59c0ef3,Carleton University,University,1125,colonel by dr.,Ottawa,ON,K1S5B6
496c24c93465cdc984df,Hilson Avenue Public School,Public,407,hilson ave,Ottawa,ON,K1Z6B9
4a24a5255819c21fab2e,St. Laurent Academy Inc,Private,641,sladen avenue,Ottawa,ON,K1K2S8
4a7d71fc141b3a56205f,St Mary (Gloucester) Elementary School,Catholic,5536,bank st,GLOUCESTER,ON,K1X1G9
4bba1212746a61235afe,École élémentaire publique Le Prélude,Public,6025,longleaf promenade,Orléans,ON,K1W1G3
4c01709787c9462ec802,École secondaire publique De La Salle,Public,501,ancienne st-patrick rue,Ottawa,ON,K1N8R3
4c5c1ec4f86f08b29f38,St. John Paul II Elementary School,Catholic,1500,beaverpond dr,Gloucester,ON,K1B3R9
4c98cf21b5a8bf13d7e1,École élémentaire publique Omer-Deslauriers,Public,159,chesterton promenade,Nepean,ON,K2E7E6
4d00ffb889107db9883a,Stonecrest Elementary School,Public,3791,stonecrest rd rr 2,Woodlawn,ON,K0A3M0
4f978c82074b70ba79d0,École élémentaire publique Ottawa Ouest,Public,20,harrison street,Nepean,ON,K2H7N5
500db680bc39a055a432,Holy Cross Elementary School,Catholic,2820,springland dr,Ottawa,ON,K1V6M4
5154ffdd30dad20df49e,École secondaire publique Omer-Deslauriers,Public,159,chesterton promenade,Ottawa,ON,K2E7E6
51e592b5234aaecdb151,St Matthew Intermediate School,Catholic,6550,bilberry dr,Orleans,ON,K1C2S9
544900bdf2f75a2158d3,Agincourt Road Public School,Public,1250,agincourt rd,Ottawa,ON,K2C2J2
54eac617170b0b65d9b5,Bayview Public School,Public,185,owl dr,Ottawa,ON,K1V9K3
551ce2d02022d7408161,École secondaire catholique Collège catholique Samuel-Genest,Catholic,704,carson's chemin,Ottawa,ON,K1K2H3
551cf0cf65a417efa869,Torah High Ottawa,Private,261,centrepointe dr,Ottawa,ON,K2G6E8
554d9ebff906183e6541,Guardian Angels Elementary School,Catholic,4,baywood dr,Stittsville,ON,K2S1K5
5757f2b51444a382ba59,Our Lady of Victory Elementary School,Catholic,1175,soderlind st,Ottawa,ON,K2C3B3
5780928cadd83398b3de,Ottawa Technical Secondary School,Public,485,donald st,Ottawa,ON,K1K1L8
5783235649b40b5d4e7b,Algonquin College of Arts-Ottawa/Perth,Technical and Vocational,1385,woodroffe ave.,Ottawa,ON,K2G1V8
57dbeb1fd16dc469a14d,Abraar School - Elementary,Private,70,fieldrow street,Ottawa,ON,K2G2Y7
58422e554b7136a7fc4e,Ottawa Victory Christian Academy,Private,1080b,st. pierre street,Orleans,ON,K1C1L3
58662e25ac542f17c813,Brookfield High School,Public,824,brookfield rd,Ottawa,ON,K1V6J3
58bfae47d54cd215191c,École élémentaire catholique Riverside Sud II,Catholic,925,ralph hennessy avenue,Gloucester,ON,K1X0C3
599cf54869f9038234cc,St. Gemma Elementary School,Catholic,1760,mcmaster ave,Ottawa,ON,K1H6R8
59d514beeba893492928,Clifford Bowey Public School,Public,1300,kitchener ave,Ottawa,ON,K1V6W2
59d9fe5ff95370f72736,Stephen Leacock Public School,Public,25,leacock dr,Kanata,ON,K2K1S2
5a04b12988eb9a78e49b,Ottawa Jewish Community School,Private,31,nadolny sachs pvt,OTTAWA,ON,K2A1R9
5a06ea65f7e084feda58,St Patrick Elementary School,Catholic,68,larkin dr,Nepean,ON,K2J1A9
5a279071b02798ea99c8,All Saints Catholic High School,Catholic,5115,kanata ave,Kanata,ON,K2K3K5
5b63d1a54a85c244dc9d,Elmdale Public School,Public,49,iona st,Ottawa,ON,K1Y3L9
5b9269fc9a030cfcee94,St. Mother Teresa High School,Catholic,440,longfields dr,Nepean,ON,K2J4T1
5bf514a04e692cb687ca,St. Gabriel Elementary School,Catholic,400,keyrock drive,Kanata,ON,K2T0G6
5c0ec94341ec61806b59,Faculty of Engineering Secondary School,Private,161,louis-pasteur prvt,Ottawa,ON,K1N6N5
5c72d19df263d3899d9e,St Clare Elementary School,Catholic,2133,gardenway dr,Orleans,ON,K4A3M2
5c8a2cfe6317e0c471b0,March Academy Private School,Private,325,sandhill rd rr1,Kanata,ON,K2K1X7
