Index,Facility_Name,Facility_Type,Street_No,Street_Name,City,Prov_Terr,Postal_Code
1e9446750682b45fba0b,Ottawa Adventist Elementary School,Private,2191,benjamin ave,Ottawa,ON,K2A1P6
1faca873af905cc94816,École élémentaire publique Maurice-Lapointe,Public,17,bridgestone dr,KANATA,ON,K2M0E9
20c906e5c3c536dacda2,Ridgemont High School,Public,2597,alta vista dr,Ottawa,ON,K1V7T3
21923a069a6d884dc47f,Urban Aboriginal Alternate High School,Public,440,albert street,Ottawa,ON,K1R5B5
21fb6b103e3e6871659e,Lisgar Collegiate Institute,Public,29,lisgar st,Ottawa,ON,K2P0B9
220aa5253f2f595439e9,Bell Intermediate School,Public,40,cassidy rd,Nepean,ON,K2H6K1
222837541a468a1db00f,Immaculata Intermediate School,Catholic,140,main st,Ottawa,ON,K1S5P4
224b5d67d74e95b6ea49,St Bernard Elementary School,Catholic,1722,st bernard st,Ottawa,ON,K1T1K8
236f42d342d4b3e833f6,Le Cercle des savoirs,Private,435,saint-laurent,Ottawa,ON,K1K2Z6
238eeb12252bf709c4db,St Rita Elementary School,Catholic,1,inverness ave,Nepean,ON,K2E6N6
23f7d380bc58a6cf6ab3,Bell High School,Public,40,cassidy rd,Nepean,ON,K2H6K1
24c5144a6c7814f349a8,École élémentaire publique Gabrielle-Roy,Public,3395,daoust avenue,Gloucester,ON,K1T4A8
24d021d78eefc76b9e49,St John the Apostle Elementary School,Catholic,30,costello avenue,Nepean,ON,K2H7C5
25294de2b0decdcf8b00,Monsignor Paul Baxter Elementary School,Catholic,333,beatrice dr,Nepean,ON,K2J4W1
271cc6d8efe537b7f123,École secondaire publique Gisèle-Lalonde,Public,500,millennium boulevard,Orléans,ON,K4A4X3
27665c12bb8b4bf765a4,Torah Academy of Ottawa Elementary Schoo,Private,1119,lazard st,Ottawa,ON,K2C2R5
2a1081c476f3b2ceff5d,Our Lady of Wisdom Elementary School,Catholic,1565,st georges st,Orleans,ON,K1E1R2
2a4ba7a3ec0520805a56,Glebe Collegiate Institute,Public,212,glebe ave,Ottawa,ON,K1S2C9
2a4d0e865f3b3c6d7d78,St Joseph High School,Catholic,3333,greenbank rd,Nepean,ON,K2J4J1
2a749d3cd26c15b176a6,St. Rose of Lima Elementary School,Catholic,50,bayshore dr,Nepean,ON,K2B6M8
2b1279e68fa6d6f3a3b8,École élémentaire catholique d'enseignement personnalisé Lamoureux,Catholic,2540,kaladar av.,Ottawa,ON,K1V8C5
2b4b5730e32c2d54e007,W.O. Mitchell Elementary School,Public,80,steeple chase dr,Kanata,ON,K2M2A6
2be37fb5c83af0e0fb78,The Element,Private,425,marché way,Ottawa,ON,K1S5H6
2c6747ae086c211f0a16,Heritage Public School,Public,1375,colonial rd,Navan,ON,K4B1N1
2cc4f9d0cca74af7e634,Holy Spirit Elementary School,Catholic,1383,main st,Stittsville,ON,K2S1A6
2da0eb19309f0efe5f60,Barrhaven Public School,Public,80,larkin dr,Nepean,ON,K2J1B7
2ed5eb4aec99ab3420ac,Earl of March Secondary School,Public,,,Kanata,ON,K2K1Y4
2ed6932cac7c1ebe0fb5,Farley Mowat Public School,Public,75,waterbridge dr,Nepean,ON,K2G6T3
2f1ad53fb0ea701255d5,École élémentaire publique Francojeunesse,Public,119,osgoode rue,Ottawa,ON,K1N6S3
30c1d39ac321e3794fe3,Rockcliffe Park Public School,Public,350,buena vista rd,Ottawa,ON,K1M1C1
30ec27ef4b953add7de3,St Joseph Intermediate School,Catholic,3333,greenbank rd,Ottawa,ON,K2J4J1
31e253582eaf557f06cc,St Paul High School,Catholic,2675,draper ave,Ottawa,ON,K2H7A1
3237288f24f94807ece2,St. Isabel Catholic Elementary School,Catholic,785,goulbourn forced road,Kanata,ON,K2T0N5
34328a7d1b57eeae6a37,Notre Dame Intermediate School,Catholic,710,broadview ave,Ottawa,ON,K2A2M2
346c2959910ac56cf252,Kars on the Rideau Public School,Public,6680,dorack dr,Kars,ON,K0A2E0
3632accc68d1bb039d9d,Earl of March Intermediate School,Public,,,Kanata,ON,K2K1Y4
36f300421e34a0ea4cf7,St Isidore Elementary School,Catholic,1105,march rd rr 1,Kanata,ON,K2K1X7
376c252e5a276f8231a0,Longfields Davidson Heights Secondary School,Public,149,berrigan dr,Nepean,ON,K2J5C6
38468adc42e19a584284,St Brigid Elementary School,Catholic,200,springfield rd,Ottawa,ON,K1M1C2
3c1c1c2da542f44fd746,Ottawa Academy,Private Institution,1980,ogilvie road gloucester centre,Ottawa,ON,K1J9L3
3c458abfc3b3eff65a76,Le Phare Elementary School,Public,1965,naskapi dr,Gloucester,ON,K1J8M9
3caf1550d87b25f02878,Marvel Beauty School,Private Institution,240,bank street,Ottawa,ON,K2P1X4
3cd021680f1d14646ad4,St Elizabeth Elementary School,Catholic,1366,coldrey ave,Ottawa,ON,K1Z7P5
3de94ab398869d39e957,Dr F J McDonald Catholic Elementary School,Catholic,2860,ahearn ave,Ottawa,ON,K2B6Z9
3f064781b2c6cc9e9b7e,St. Benedict Elementary School,Catholic,2525,river mist road,NEPEAN,ON,K2J5Z1
401e3bba7d9fb65b7889,St Matthew High School,Catholic,6550,bilberry dr,Orleans,ON,K1C2S9
40e3911c7b0f5d34bfd9,Norman Johnston Secondary Alternate Prog,Public,2401,cléroux cres,Ottawa,ON,K1W1A1
41e5f4ba27b0010fa086,Merivale Intermediate School,Public,1755,merivale rd,Nepean,ON,K2G1E2
4266661197b15f855a3a,Immaculata High School,Catholic,140,main st,Ottawa,ON,K1S5P4
