Index,Facility_Name,Facility_Type,Street_No,Street_Name,City,Prov_Terr,Postal_Code
5cf66b2c768a9181e862,Bells Corners Public School,Public,3770,old richmond rd,Nepean,ON,K2H5C3
5d6363f8870cd676d948,École élémentaire publique Des Sentiers,Public,2159,nantes rue,Orléans,ON,K4A4C4
5d76290245416324ec8a,Henry Munro Middle School,Public,2105,kender ave,Gloucester,ON,K1J6J7
5d7705ca729d3c9fcecc,Stittsville Public School,Public,40,granite ridge dr,Stittsville,ON,K2S1Y9
5d77498ecdb969e148e9,Roberta Bondar Public School,Public,159,lorry greenberg dr,Ottawa,ON,K1T3J6
5d9cdc71c33f67a8a1e2,Knoxdale Public School,Public,170,greenbank rd,Nepean,ON,K2H5V2
5daf36a2afc4e1fbe452,École élémentaire catholique Sainte-Thérèse-d'Avila,Catholic,9575,marionville chemin,Marionville,ON,K4R1E5
5e76b0268d2b15a5a03c,Sacred Heart Intermediate School,Catholic,5870,abbott st,Stittsville,ON,K2S1X4
5e94dabf9f3abca44675,Bridlewood Community Elementary School,Public,63,bluegrass dr,Kanata,ON,K2M1G2
5f46a842a03ffaab6976,École élémentaire catholique Saint-François-d'Assise,Catholic,35,melrose av.,Ottawa,ON,K1Y1T8
5fb9745d6550a76ba62c,École secondaire catholique Béatrice-Desloges,Catholic,1999,provence av.,Orléans,ON,K4A3Y6
5fc15135797ff1a24c52,École élémentaire catholique Au Coeur d'Ottawa,Catholic,88,main street,Ottawa,ON,K1S1C2
5fd764818b63337e0126,École élémentaire catholique Sainte-Geneviève,Catholic,2198,arch rue,Ottawa,ON,K1G2H7
6066ed49607045c9c6cf,Lady Evelyn Alternative School,Public,63,evelyn ave,Ottawa,ON,K1S0C6
607a5f024f91c20b15ca,Herzing College-Ottawa West,Private Institution,1825,woodward dr,Ottawa,ON,K2C0P9
609466a7c6577e3e883e,Astolot Education Centre,Private,1187,bank st,Ottawa,ON,K1S3X7
60ca87aa591f7e6ea791,Fielding Drive Public School,Public,777,fielding dr,Ottawa,ON,K1V7G1
6150171ec1680793e88e,Good Shepherd Elementary School,Catholic,101,bearbrook rd,Gloucester,ON,K1B3H5
619fa50d2438749b46a8,École élémentaire catholique Sainte-Bernadette,Catholic,3781,sixth,Gloucester,ON,K1T1K5
62fc520209c2ddeb8b34,École élémentaire publique Trille des Bois,Public,140,rue vanier,Vanier,ON,K1L7Y9
63140ab11e3168cd14b6,Bishop Hamilton Montessori School,Private,2199,regency terrace dr,Ottawa,ON,K2C1H2
640f9bc618a13a4ffb05,Cedarview Middle School,Public,2760,cedarview rd,Nepean,ON,K2J4J2
646b3f7a78753fbb663a,Lester B Pearson Catholic High School,Catholic,2072,jasmine cres,Gloucester,ON,K1J8M5
6533960ad02188f92fde,Fallingbrook Community Elementary School,Public,679,deancourt cres,Orleans,ON,K4A3E1
6554594e3f4fb62190fd,Gina's College of Advanced Aesthetics - Ottawa,Private Institution,215,dalhousie street,Ottawa,ON,K1N7C9
6572597fdcb57dcbe4d0,Glen Cairn Public School,Public,182,morrena rd,Kanata,ON,K2L1E1
65f49d004e97b2f40303,Herzing College,Private Institution,1200,st laurent blvd,Ottawa,ON,K1K3B8
6650b0dbddea03b72c60,Bytown Brigantine Academy,Private,2700,queensview dr,Ottawa,ON,K2B8H6
67294c7aff40bfb7527e,Sacred Heart High School,Catholic,5870,abbott st,Stittsville,ON,K2S1X4
674da5c75428affce553,St. Timothy's Classical Academy,Private,1601,pinecrest rd,Ottawa,ON,K2B6B7
679df0e37df3f8f8c73b,St Michael Elementary School,Catholic,437,donald st,Ottawa,ON,K1K1L8
6801fb6d9eccff29609c,Queen Elizabeth Public School,Public,689,st laurent blvd,Ottawa,ON,K1K3A6
69b6d4d7be8375b3a080,Community Christian School,Private,2681,glen street,Metcalfe,ON,K0A2P0
6ab2cadf906e2601f927,Notre Dame High School,Catholic,710,broadview ave,Ottawa,ON,K2A2M2
6ad1f56de4244e6f0f61,École élémentaire catholique Saint-Guillaume,Catholic,5750,buckland chemin,Vars,ON,K0A3H0
6afa56171b0096623e61,Willis Business College Limited,Private Institution,1200,st laurent blvd,Ottawa,ON,K1K3B8
6b4139bc2f5e59c2a391,St Gregory Elementary School,Catholic,148,meadowlands dr w,Nepean,ON,K2G2S5
6b8c220044522a649ffa,École élémentaire catholique Notre-Place,Catholic,665,des aubepines drive,Orleans,ON,K4A0Z3
6cc38943e8497d119250,Vimy Ridge Public School,Public,4180,kelly farm drive,Ottawa,ON,K1T4J2
6e4f28b550eabfed9f01,St Nicholas Adult High School,Catholic,893,admiral ave,Ottawa,ON,K1Z6L6
6f1c764424b480324922,Revel Academy,Private,1550,laperriere avenue,Ottawa,ON,K1Z7T2
6fb5ea30f1600aab9ce7,École élémentaire publique Francojeunesse – Pavillon Maternelle et Jardin,,339,rue wilbrod k1n,Ottawa,ON,K1N6M4
6fbc8f761d3d5195f94f,Centre Jules-Léger ÉP Surdicécité,Provincial,281,av lanark,Ottawa,ON,K1Z6R8
702727a279d52ad4fbbc,St Peter High School,Catholic,750,charlemagne blvd,Orleans,ON,K4A3M4
71be9f91f619f2413f4d,Holy Family Elementary School,Catholic,245,owl dr,Ottawa,ON,K1V9K3
72dbaa7cb0120b6e813c,St Michael (Fitzroy) Elementary School,Catholic,159,kedey st,Fitzroy Harbour,ON,K0A1X0
7329d5f3408d22cf85ec,École secondaire catholique Garneau,Catholic,6588,carrière rue,Orléans,ON,K1C1J4
737ebb108bfd53fd6718,École élémentaire catholique La Vérendrye,Catholic,614,eastvale prom.,Gloucester,ON,K1J6Z6
7390998259addbcbd9b5,Viscount Alexander Public School,Public,55,mann ave,Ottawa,ON,K1N6Y7
