Index,Facility_Name,Facility_Type,Street_No,Street_Name,City,Prov_Terr,Postal_Code
f4d7afb0f57e773fcd4a,École élémentaire catholique Jean-Robert-Gauthier,Catholic,651,chapman mills prom.,Ottawa,ON,K2J0W7
f69aae4ea1a2eaea16ba,Trillium Elementary School,Public,1515,varennes blvd,Orleans,ON,K4A3S1
f76658399e4108664aa1,Jack Donohue Public School,Public,101,penrith st,Kanata,ON,K2W1H4
f7e1b1abf0e13ad8c85c,Saco Academy,Private Institution,1980,ogilvie rd,Ottawa,ON,K1J9L3
f9381dce6a15110b9fee,École élémentaire catholique George-Étienne-Cartier,Catholic,880,thorndale prom.,Ottawa,ON,K1V6Y3
f97d7c691d5f204c6e0d,St Monica Elementary School,Catholic,2000,merivale rd,Nepean,ON,K2G1G6
fa6d172c11869f706fdf,École intermédiaire catholique Franco-Ouest,Catholic,411,seyton prom.,Nepean,ON,K2H8X1
fab767723ba2b3e5ff5f,Mutchmor Public School,Public,185,fifth ave,Ottawa,ON,K1S2N1
fb2600935111d47c3d73,Sir Winston Churchill Public School,Public,49,mulvagh ave,Nepean,ON,K2E6M7
fb525221f781cb9855f5,W. Erskine Johnston Public School,Public,50,varley dr,Kanata,ON,K2K1G7
fb5cbe0926168b81f343,Robert E. Wilson Public School,Public,373,mcarthur ave,Vanier,ON,K1L6N5
fb8d4e98cf005645abcd,Ahlul Bayt Islamic School,Private,200,baribeau st,Ottawa,ON,K1L7R6
fca09a0e0ee32b000a53,South March Public School,Public,1032,klondike rd,Kanata,ON,K2K0H9
fd7deffaca581b8a2ec4,Woodroffe Avenue Public School,Public,235,woodroffe ave,Ottawa,ON,K2A3V3
fe890db07988787320ba,École élémentaire catholique d'enseignement personnalisé La Source,Catholic,1445,duford prom.,Orléans,ON,K1E1E8
ff1fd8707640546f4f6c,Fern Hill School,Private,50,vaughan street,Ottawa,ON,K1M1X1
ff323274ad7a7191fd42,École élémentaire catholique Des Voyageurs,Catholic,6030,voyageur prom.,Orléans,ON,K1C2T1
ff3ea5173cf1956bed3b,École élémentaire publique Julie-Payette,Public,1385,halton terrasse,Kanata,ON,K2K2P9
ff78ff3f160d8410fc77,Convent Glen Catholic Elementary School,Catholic,6212,jeanne d'arc blvd,Orleans,ON,K1C2M4
ff8e227e9da86b7cb225,École élémentaire catholique Roger-Saint-Denis,Catholic,186,barrow crois.,Kanata,ON,K2L2C7
ffa9dcd3164d2c657933,Carleton Heights Public School,Public,1660,prince of wales dr,Ottawa,ON,K2C1P4
ffda66efd23cec5569e4,École secondaire publique L'Alternative,Public,2445,st-laurent boulevard,Ottawa,ON,K1G6C3
