Index,Facility_Name,Facility_Type,Street_No,Street_Name,City,Prov_Terr,Postal_Code
92d404746117cd392d53,First Avenue Public School,Public,73,first ave,Ottawa,ON,K1S2G1
9360d9d4ffe43c3bfabf,Terry Fox Elementary School,Public,6400,jeanne d'arc blvd,Orleans,ON,K1C2S7
93a43854a943ceeaa1e9,West Carleton Secondary School,Public,3088,dunrobin rd,Dunrobin,ON,K0A1T0
9438f057e9626a2a868d,Riverview Alternative School,Public,260,knox cres,Ottawa,ON,K1G0K8
94adccb7615235bc488e,École intermédiaire catholique Samuel-Genest,Catholic,704,carson chemin,Ottawa,ON,K1K2H3
94cd7112d9210a40f11a,St Philip Elementary School,Catholic,79,maitland st,Richmond,ON,K0A2Z0
94f35621961d7cd85b06,West End Academy,Private Institution,1642,merivale road,Ottawa,ON,K2G4A1
95cc0623cd75f829c46d,Metcalfe Public School,Public,2701,8th line rd,Metcalfe,ON,K0A2P0
960f5718f5074c57778e,Manor Park Public School,Public,100,braemar st,Ottawa,ON,K1K3C9
983fe427af5ac3f9973a,Meadowlands Public School,Public,10,fieldrow st,Nepean,ON,K2G2Y7
98910b1b3d54a8e5405d,St Jerome Elementary School,Catholic,4330,spratt rd,Gloucester,ON,K1V2A7
99b2d8536383e2e95067,St Patrick's High School,Catholic,2525,alta vista dr,Ottawa,ON,K1V7T3
9a5391472bc6e1760ffe,Prince of Peace Elementary School,Catholic,1620,heatherington rd,Ottawa,ON,K1V9P5
9b28e28e6071f8c94dcb,Nepean High School,Public,574,broadview ave,Ottawa,ON,K2A3V8
9eaeddcd5504c3e2d36a,Peak Centre Academy,Private,1565,maple grove rd,KANATA,ON,K2V1A4
a0620ae31fabba907fa9,Briargreen Public School,Public,19,parkfield cres,Nepean,ON,K2G0R9
a1af69dd31d32f00424d,St Emily (Elementary) Separate School,Catholic,500,chapman mills dr,Nepean,ON,K2J0J2
a2b79a1733b7d8b6de41,Chesterton Academy of Ottawa,Private,415,piccadilly avenue,Ottawa,ON,K1Y0H3
a38a9b4f78c2246ae665,St Paul Intermediate School,Catholic,2675,draper ave,Ottawa,ON,K2H7A1
a45a6ac5d302dec2bf91,Blossom Park Public School,Public,3810,sixth st,Gloucester,ON,K1T1K6
a47a28e3b94fdba9a673,Ottawa Montessori School/Ecole Montessor,Private,335,lindsay street,Ottawa,ON,K1G0L6
a5982668bc621cf543bc,Vincent Massey Public School,Public,745,smyth rd,Ottawa,ON,K1G1N9
a5be50adb9274e1d8c4e,St Catherine Elementary School,Catholic,2717,8th line rd,Metcalfe,ON,K0A2P0
a641686a07edcfaabc94,Redeemer Christian High School,Private,82,colonnade rd n,Nepean,ON,K2E7L2
a6c47083cc3017c9ba64,John McCrae Secondary School,Public,103,malvern dr,Nepean,ON,K2J4T2
a755dcf0ffabf4a8061b,Our Lady of Peace Elementary School,Catholic,3877,richmond road,Nepean,ON,K2H5C1
a85bb0bdd4b861338ed3,Cedar Ridge High School,Private,275,michael cowpland drive,Kanata,ON,K2M2G2
a9df6f1548547833d2f0,École élémentaire catholique Saint-Jean-Paul II,Catholic,5473,abbott est rue stittsville,Stittsville,ON,K2S0A8
ab1b293f6da342cb2b8c,Abraar,Private,1085,grenon ave,Ottawa,ON,K2B8L7
ab7e46f13069a1bccac8,Adrienne Clarkson Elementary School,Public,170,stoneway dr,Nepean,ON,K2G6R2
acbc943fabd29941b3c5,R.I.S.E. Academy,Private,70,bongard avenue,Ottawa,ON,K2E7Z9
acbe20af447524545bc7,École secondaire publique Maurice-Lapointe,Public,17,bridgestone dr,KANATA,ON,K2M0E9
ad3a17e643474238ca10,École élémentaire catholique Saint-Joseph d'Orléans,Catholic,6664,carrière rue,Orléans,ON,K1C1J4
add4b5376f1a89f5d6cf,Cairine Wilson Secondary School,Public,975,orleans blvd,Orleans,ON,K1C2Z5
ae7191d0ce2032bcb85a,École élémentaire catholique Pierre-Elliott-Trudeau,Catholic,601,longfields prom.,Nepean,ON,K2J4X1
aedbfe70d3a01ec2b32c,Algonquin Careers Academy - Ottawa,Private Institution,75,albert street,Ottawa,ON,K1P5E7
af3dbfd4b33b9e23098b,Richard Pfaff Secondary Alternate Site,Public,160,percy st,Ottawa,ON,K1R6E5
aff6a99d4e86be95c98e,École élémentaire catholique Laurier-Carrière,Catholic,14,four seasons prom.,Nepean,ON,K2E7P8
b00c762b5e56c5adc7b2,Colonel By Secondary School,Public,2381,ogilvie rd,Gloucester,ON,K1J7N4
b20c979edc66cda3fe31,Algonquin Careers Academy-Ottawa,Private Institution,1830,bank st.,Ottawa,ON,K1V7Y6
b2ac7d2a4697c458bd5e,Holy Redeemer Elementary School,Catholic,75,mccurdy dr,Kanata,ON,K2L3W6
b2bd7a69a5685b46d2c2,South Carleton High School,Public,3673,mcbean st,Richmond,ON,K0A2Z0
b2c5fcc095fd1d72946f,Turnbull School,Private,1132,fisher avenue,Ottawa,ON,K1Z6P7
b2f55ed4aa336aa64a2b,St George Elementary School,Catholic,130,keyworth ave,Ottawa,ON,K1Y0E6
b41e1ac60a47c27725b5,A. Lorne Cassidy Elementary School,Public,27,hobin st,Stittsville,ON,K2S1G8
b434985e017f95a8055a,Inspira Academy,Private,62,silver horse crescent,Ottawa,ON,K2M2E3
b4bb7cdaa5b846911abf,Maple Ridge Elementary School,Public,1000,valin st,Orleans,ON,K4A4B5
b5230087d8d568dd9733,École élémentaire catholique L'Étoile-de-l'Est,Catholic,6220,beauséjour prom.,Orléans,ON,K1C8E4
b76f5eaa38fd48c4265d,Manotick Public School,Public,1075,bridge st,Manotick,ON,K4M1H3
