Index,Facility_Name,Facility_Type,Street_No,Street_Name,City,Prov_Terr,Postal_Code
09872fd2fdaa6a561028,Collins Bay Public School,Public,4075,bath rd,Kingston,ON,K7M4Y6
0a3ba987b1516bc92fbf,La Salle Secondary School,Public,773,highway 15,Kingston,ON,K7L4V3
0becb24d4307068914f1,Cathedrale Catholic School,Catholic,301,johnson st,Kingston,ON,K7L1Y5
12073291a668137a4330,École secondaire catholique Marie-Rivier,Catholic,711,dalton av,Kingston,ON,K7M8N6
1664f973f8515e2ef97c,Module Vanier,Public,235,frontenac st,Kingston,ON,K7L3S7
18120d6fa0f6b950285b,Quintilian Private School of Kingston,Private,41,baiden street,KINGSTON,ON,K7M2J9
1d8ce3e204d42b16b49e,École élémentaire catholique Mgr-Rémi-Gaulin,Catholic,51,virginia rue,Kingston,ON,K7K5Y3
2001bbf52a735e1ac957,Lakeshore School,Private,2312,princess street,Kingston,ON,K7M3G4
2419b35fe09b4c280276,Archbishop O'Sullivan Catholic School,Catholic,974,pembridge cres,Kingston,ON,K7P1A3
2ef54a71646938ecf3e8,LaSalle Intermediate School Intermediate School,Public,773,highway 15 rr #2,Kingston,ON,K7L4V3
3031793e4b90c6e0988c,Our Lady of Lourdes Catholic School,Catholic,20,cranbrook st,Kingston,ON,K7M4M9
3351fd4a4060a55ef912,Centennial Public School,Public,120,norman rogers dr,Kingston,ON,K7M2R2
373e391500affc54df19,Molly Brant Elementary School,Public,30,lyons street,Kingston,ON,K7K0C9
396cd6d3feab5fce2866,St Joseph School,Catholic,671,brock st,Kingston,ON,K7L1V7
411cec32e3139cded9d0,Polson Park Public School,Public,165,robert wallace dr,Kingston,ON,K7M1Y3
442458d61776dac28827,Leahurst College,Private,4,cataraqui street,Kingston,ON,K7K1Z7
47b51a922369915cf0b4,Elginburg & District Public School,Public,2100,unity rd,Elginburg,ON,K0H1M0
519bd0726e4d3a97807d,Ecole Sir John A. Macdonald Public School,Public,529,st martha street,Kingston,ON,K7K7C2
5282f355c09fff65cf7f,St Marguerite Bourgeoys Catholic School,Catholic,355,waterloo ave,Kingston,ON,K7M8P5
56c67fe85807a397a93e,Holy Name Catholic School,Catholic,370,kingston mills road,Kingston,ON,K7L5H6
595a39aa60807866fd8b,Academy of Learning College,Private,1469,princess st,Kingston,ON,K7M3E9
5d26b15651f8f344630c,École intermédiaire catholique Marie-Rivier,Catholic,711,dalton ave,Kingston,ON,K7M8N6
63b06a92b81c61560d56,James R Henderson Public School,Public,361,roosevelt dr,Kingston,ON,K7M4A8
64e130394e6c51551b0a,Rideau Heights Public School,Public,77,maccauley st,Kingston,ON,K7K2V8
6b2f74710c8b8f334bf0,Module de l'Acadie,Public,1789,bath road,Kingston,ON,K7M4Y3
6e169b02b88503fb1c70,Loyalist Collegiate and Vocational Institute,Public,153,van order dr,Kingston,ON,K7M1B9
738dbc63a7428c08fa3c,St Lawrence College of Applied Arts & Technology-Kingston,Technical and Vocational,,,Kingston,ON,K7L5A6
7c84a7764177ad080056,Frontenac Secondary School,Public,1789,bath rd,Kingston,ON,K7M4Y3
7d50f80491fdc9e61558,Holy Cross Catholic Secondary School,Catholic,1085,woodbine rd,Kingston,ON,K7P2V9
7e278d9560d0336ffb18,École secondaire publique Mille-Iles,Public,158,patrick rue,Kingston,ON,K7K3P5
7e5520eb3902711670ce,Cataraqui Woods Elementary School,Public,1255,birchwood dr,Kingston,ON,K7P2G6
886b1d8ab5c8f597daf2,Academy of Learning-Kingston,Private Institution,1469,princess st parkway plaza,Kingston,ON,K7M3E9
8e2aecd1e93de90e76bb,Glenburnie Public School,Public,2252,battersea rd 1,Glenburnie,ON,K0H1S0
8e7d05c42520a75ede50,St Martha Catholic School,Catholic,455,st martha st,Kingston,ON,K7K7C2
912b4b10c13735e892d1,Lancaster Drive Public School,Public,1020,lancaster dr,Kingston,ON,K7P2R7
935987a1c44a8dca5082,Calvin Park Public School,Public,153,van order dr,Kingston,ON,K7M1B9
936afd2c99b2b66129fe,Winston Churchill Public School,Public,530,earl st,Kingston,ON,K7L2K3
9a93f6b068a103c756fb,St Francis of Assisi Catholic School,Catholic,114,wiley street,Kingston,ON,K7K5B5
9cf08cc9d732daad2183,Frontenac Learning Centre,Public,38,cowdy st,Kingston,ON,K7K3V9
9d98f38df3bd783a754d,John Graves Simcoe Public School,Public,90,wiley st,Kingston,ON,K7K5B4
9f42d642d96eab99d655,St Paul Catholic School,Catholic,266,mcmahon ave,Kingston,ON,K7M3H2
9f6d51b9570e3eb06966,Welborne Avenue Public School,Public,190,welborne ave,Kingston,ON,K7M4G3
a35db54d16a76c8939c8,Bayridge Secondary School,Public,1059,taylor-kidd blvd,Kingston,ON,K7M6J9
a3baf840f281cda74dc1,Rideau Public School,Public,9,dundas st,Kingston,ON,K7L1N2
a9a24cdedb20e70cf373,Bayridge Public School,Public,1066,hudson dr,Kingston,ON,K7M5K8
b349d02a548fc0c31020,Sydenham Public School,Public,5,clergy st e,Kingston,ON,K7L3H7
b39944bab0b4c4588710,Mother Teresa Catholic School,Catholic,1044,lancaster dr,Kingston,ON,K7P2L6
b726106e59878b55eec5,Trillium College-Kingston,Private Institution,797,princess st,Kingston,ON,K7L1G1
bb41560963beb633a469,R Gordon Sinclair Public School,Public,19,crerar blvd,Kingston,ON,K7M3P7
