Index,Facility_Name,Facility_Type,Street_No,Street_Name,City,Prov_Terr,Postal_Code
06b80307064b9e2bb8d2,St Joseph Catholic School,Catholic,405,bridge st e,Belleville,ON,K8N1P7
0a7d6a46ce09a3c1af2b,Prince of Wales Public School,Public,37,prince of wales dr,Belleville,ON,K8P2T6
142d18f361c60714385b,Queen Elizabeth Public School,Public,135,macdonald ave,Belleville,ON,K8N3Y4
1f900fa241d3d5ba84b1,Centennial Secondary School,Public,160,palmer rd,Belleville,ON,K8P4E1
24b2bdeabba16eee26fa,Harry J Clarke Public School,Public,77,rollins dr,Belleville,ON,K8N4J6
2985060b39910c9050e2,St Michael Catholic School,Catholic,273,church st,Belleville,ON,K8N3C7
369f0d647bd983835dac,St Theresa Catholic Secondary School,Catholic,135,adam st,Belleville,ON,K8N5S1
3d3c23e832be9fd13f56,Queen Victoria School,Public,46,pine st,Belleville,ON,K8N2M2
4d94c621e57cddd9049f,Prince Charles Public School,Public,75,ritchie ave,Belleville,ON,K8P3W2
505af45a6ed725016f2f,Centennial Secondary School Elementary School,Public,160,palmer road,Belleville,ON,K8P4E1
5b814022c156ee393e52,Our Lady of Fatima Catholic School,Catholic,300,sidney st,Belleville,ON,K8P3Z3
625dec127349f487b483,Foxboro Public School,Public,658,ashley st rr 1,Foxboro,ON,K0K2B0
6350c79cf1e44cb0609a,Park Dale Public School,Public,73,poplar st,Belleville,ON,K8P4J3
67b36bb34d0f2f0ff678,Albert College,Private,160,dundas st w,Belleville,ON,K8P1A6
6ff8942259b85de3a534,Georges Vanier Catholic School,Catholic,100,tracey st e,Belleville,ON,K8P2R8
83be662ac6be1bac9d94,Susanna Moodie Senior Elementary School,Public,376,avon lough rd,Belleville,ON,K8N4Z2
89bd2702eede907be2a1,Sir James Whitney/Sagonaska Secondary School,Provincial,350,dundas st w,Belleville,ON,K8P1B2
89d83484b28e199902c8,Sir James Whitney School for the Deaf,Provincial,350,dundas st w,Belleville,ON,K8P1B2
98d0597be4e0cd19db7d,Sir James Whitney/Sagonaska Elementary School,Provincial,350,dundas st w,Belleville,ON,K8P1B2
ad35de9fb40b8b2c1777,Eastside Secondary School,Public,275,farley ave,Belleville,ON,K8N4M2
b36275649bbe067cda22,Applewood Academy,Private,72,orchard drive,Belleville,ON,K8P2K7
b72c76dcb93894e2edf8,Holy Rosary Catholic School,Catholic,10,prince of wales dr,Belleville,ON,K8P2T4
c027b5aad4b51484936f,Sir John A Macdonald Public School,Public,22,harder dr,Belleville,ON,K8P1H2
c68fec64ce99f6f3baff,Sir James Whitney School for the Deaf,Provincial,350,dundas st w,Belleville,ON,K8P1B2
c9e36c93d07ac621eb94,Quinte Christian High School,Private,138,wallbridge-loyalist road 2,Belleville,ON,K8N4Z2
d05be03984a405729239,Belleville District Christian School,Private,18,christian school road rr5,Belleville,ON,K8N0L7
d873ae8ef93062d9e89e,Belleville Montessori School,Private,28,oriole park ave,BELLEVILLE,ON,K8N4C7
d882020630e7a86eeff6,Nicholson Catholic College,Catholic,301,church st,Belleville,ON,K8N3C7
dcfc441c5d070ab8a191,Harmony Public School,Public,626,harmony rd rr 1,Corbyville,ON,K0K1V0
