Index,Facility_Name,Facility_Type,Street_No,Street_Name,City,Prov_Terr,Postal_Code
3cf1e422ad114762119a,École secondaire publique Marc-Garneau,Public,30,fullerton avenue,Trenton,ON,K8V1E4
40788fc233d98c5347be,Bayside Secondary School,Public,1247,old hwy 2,Belleville,ON,K8N4Z2
4b7e1b99d4a26bc952ce,Trenton Christian,Private,340,second dug hill rd 4,Trenton,ON,K8V5P7
4c5a6a5b58213a04828a,Trent River Public School,Public,84,dixon drive,Trenton,ON,K8V1W8
4d4dc443b668082c324a,Bayside Public School,Public,132,aikens rd rr 2,Belleville,ON,K8N4Z2
549d588d1802443fd5fb,Horizons Secondary School,Private,83,marmora street,Trenton,ON,K8V2J1
59cf348b117f9930c5f2,École élémentaire publique Cité Jeunesse,Public,30,fullerton avenue,Trenton,ON,K8V1E4
7894fc1c3762eca3ead7,École élémentaire catholique L'Envol,Catholic,45,johnson prom.,Trenton,ON,K8V6V7
88974ef81bd752b11e9a,Frankford Public School,Public,36,adelaide st,Frankford,ON,K0K2C0
9213a691fac49eec151c,Murray Centennial Public School,Public,654,county rd 40 1,Trenton,ON,K8V5P4
923e59b7fa7c15de96ec,St Peter Catholic School,Catholic,15a,tripp blvd,Trenton,ON,K8V6M2
9c41a5db9b18c6a7779b,Trenton High School Elementary School,Public,15,fourth avenue,Trenton,ON,K8V5N4
b3499312c01891aeda34,École élémentaire publique Marc-Garneau,Public,30,fullerton avenue,Trenton,ON,K8V1E4
ba2057bd9f501f9681ae,St Paul Catholic Elementary School,Catholic,15,tripp blvd,Trenton,ON,K8V6M2
bf2800a6de8bed4f7389,Stockdale Public School,Public,994,will johnson rd,Frankford,ON,K0K2C0
cd49d3968aa23e29f591,V P Carswell Public School,Public,4,seneca rd,Trenton,ON,K8V2E9
cf26359c439eaa8730f2,St Paul Catholic Secondary School,Catholic,15,tripp blvd,Trenton,ON,K8V6M2
d06c7308f46759e71eff,St Mary Catholic School,Catholic,85,campbell st,Trenton,ON,K8V3A2
df6eb057791c374b910e,Prince Charles Public School,Public,138,dufferin ave s,Trenton,ON,K8V5E1
e68e6eed58c7f5457004,North Trenton Public School,Public,12,briardale blvd,Trenton,ON,K8V4W4
edf33ed8816efc3e31fb,Sacred Heart Catholic School,Catholic,31,thomas bata blvd,Batawa,ON,K0K1E0
fe8fdc6b0df0974f26e1,Trenton High School,Public,15,fourth ave,Trenton,ON,K8V5N4
