Index,Facility_Name,Facility_Type,Street_No,Street_Name,City,Prov_Terr,Postal_Code
00dfb94dbb36ac0ffa61,ÉSC Monseigneur-Jamot,Catholic,2350,woodglade boulevard,Peterborough,ON,K9K2L1
0185f166343ec5dd32cd,Peterborough Collegiate and Vocational School,Public,201,mcdonnel st,Peterborough,ON,K9H2W1
0a4163f296e77e34ae21,Edmison Heights Public School,Public,1111,royal dr,Peterborough,ON,K9H6P9
0de514101f7fd79080bf,Holy Cross Catholic Secondary School,Catholic,1355,lansdowne st w,Peterborough,ON,K9J7M3
224337f9f13ee86e8fea,Immaculate Conception Catholic Elementary School,Catholic,76,robinson st,Peterborough,ON,K9H1E8
28fd6ab4a36a3c07a75c,Prince of Wales Public School,Public,1211,monaghan rd,Peterborough,ON,K9J5L4
2bfef1f65a9494ef0398,Roger Neilson Public School,Public,550,erskine ave,Peterborough,ON,K9J5T4
37f0d9ba452c9d824b04,St. Peter Catholic Secondary School,Catholic,730,medical dr,Peterborough,ON,K9J8M4
40bc0d638021c8757aed,Kenner Collegiate and Vocational Institute,Public,633,monaghan rd s,Peterborough,ON,K9J5J2
47674d55e48a4b40c658,Keith Wightman Public School,Public,860,st marys st,Peterborough,ON,K9J4H6
49fd09776eff32ba8310,James Strath Public School,Public,1175,brealey dr,Peterborough,ON,K9J6X4
5674b7f1c30fad07c858,Kawartha Heights Public School,Public,11,kawartha heights blvd,Peterborough,ON,K9J1N4
57c2e7dba37fd8120614,St. Anne Catholic Elementary School,Catholic,240,bellevue st,Peterborough,ON,K9H5E5
6062731a62864092c8c3,Trillium College,Private Institution,360,george st n,Peterborough,ON,K9H7E7
75c272a3ddaa5d07dd99,Highland Heights Public School,Public,430,highland rd,Peterborough,ON,K9H5J7
88384156a2e70f8e1119,Queen Mary Public School,Public,1445,monaghan st,Peterborough,ON,K9J5M8
8d5e763b9c6d576fd7e1,Armour Heights Public School,Public,245,mcfarlane st,Peterborough,ON,K9H1K1
8db8acb66d44da1eac26,Adam Scott Intermediate School,Public,175,langton street,Peterborough,ON,K9H6K3
8efc31e693b10d96f549,Adam Scott Collegiate and Vocational Institute,Public,175,langton st,Peterborough,ON,K9H6K3
9082cfe26260da7f01ce,St. Teresa Catholic Elementary School,Catholic,1525,fairmount blvd,Peterborough,ON,K9J6S9
92e82906897ec029d49d,"Children's Montessori School, The",Private,186,romaine st,Peterborough,ON,K9J2C4
a01328e1312c3871277e,Monsignor O'Donoghue Catholic Elementary School,Catholic,2400,marsdale dr,Peterborough,ON,K9L1R4
aaaecada92b85cd0c92b,St. Patrick Catholic Elementary School,Catholic,300,otonabee dr,Peterborough,ON,K9J8L9
abe6418df06116456de6,Master's College & Seminary,Private Institution,780,argyle street,Peterborough,ON,K9H5T2
b5e70683072b1a4cce54,St. Catherine Catholic Elementary School,Catholic,1575,glenforest blvd,Peterborough,ON,K9K2J6
b60ea66acc2641963c4f,Oxford College of Arts- Business and Technology - Peterborough,Private Institution,360,george street north,Peterborough,ON,K9H7E7
b891b2f71a40f4727eb1,Westmount Public School,Public,1520,sherwood cres,Peterborough,ON,K9J6T8
c124681dea9450db55cf,Otonabee Valley Public School,Public,580,river rd s,Peterborough,ON,K9J1E7
c592e1e734fca9616f72,Kawartha Classical Christian School,Private,306,braidwood avenue,Peterborough,ON,K9J1V6
cd5ae184658a3171ebbb,Queen Elizabeth Public School,Public,830,barnardo ave,Peterborough,ON,K9J5V9
ce2d4861b9470c3b6dba,ÉÉC Monseigneur-Jamot,Catholic,2350,woodglade boulevard,Peterborough,ON,K9K2L1
d0e43a3c3ab38124672e,St. Paul Catholic Elementary School,Catholic,1101,hilliard st,Peterborough,ON,K9H5S3
d6c490ca4bec61361bde,King George Public School,Public,220,hunter st e,Peterborough,ON,K9H1H1
da3ebc610ea03c62241f,Kenner Intermediate School,Public,633,monaghan rd s,Peterborough,ON,K9J5J2
e4529d7d46f51cc8d97a,R F Downey Public School,Public,1221,neptune st,Peterborough,ON,K9H7L9
f465224a80f0e1d67bbb,St. John Catholic Elementary School,Catholic,746,park street s,Peterborough,ON,K9J3T4
f7ac66da968ae5bf5834,St. Alphonsus Catholic Elementary School,Catholic,875,st mary's st,Peterborough,ON,K9J4H7
fc4a9763a24cfd706afe,Gates College of Business- Culinary & Healthcare,Private Institution,1135,landsdowne st,Peterborough,ON,K9J7M2
fe229e0ea5f840319feb,Thomas A Stewart Secondary School,Public,1009,armour rd,Peterborough,ON,K9H7H2
