Index,Facility_Name,Facility_Type,Street_No,Street_Name,City,Prov_Terr,Postal_Code
09586f5ce0d1f4faa142,Heritage Christian School,Private,159,colborne st w,Lindsay,ON,K9V5Z8
24bed561e3e06b1d4d7d,Fenelon Twp Public School,Public,#1,cameron,Cameron,ON,K0M1G0
27dfc3ff3a3f66adee18,King Albert Public School,Public,49,glenelg st w,Lindsay,ON,K9V2T9
39d2cbc68896a66f7581,Scott Young Public School,Public,27,walnut st,Omemee,ON,K0L2W0
453cc587990bfefcab26,St. John Paul II Catholic Elementary School,Catholic,130,orchard park rd,Lindsay,ON,K9V5K1
518dced995eac8ccadc2,Parkview Public School,Public,133,adelaide st n,Lindsay,ON,K9V4M2
567595bb90d6a91260d8,Lady Mackenzie Public School,Public,1746,kirkfield rd,Kirkfield,ON,K0M2B0
5913c474ef28aafbaaa0,I E Weldon Secondary School,Public,24,weldon rd,Lindsay,ON,K9V4R4
6ba1391d496b1ff2d665,Queen Victoria Public School,Public,11,john st,Lindsay,ON,K9V1J3
6da55d97702fd70b9140,Grandview Public School,Public,698,7a hwy rr1,Bethany,ON,L0A1A0
6efd3efc4f2c22e81685,Langton Public School,Public,35,wychwood cres,Fenelon Falls,ON,K0M1N0
7bcba788de9aa41aec71,Bobcaygeon Public School,Public,30,balaclava st,Bobcaygeon,ON,K0M1A0
8ec49470722876047220,Jack Callaghan Public School,Public,5,tracey's hill rd rr 5,Lindsay,ON,K9V4R5
8f3ebcc2d04eb2bee966,Leslie Frost Public School,Public,51,angeline st s,Lindsay,ON,K9V3L1
98288ebcf9f0ee9c6246,Lindsay Collegiate and Vocational Institute,Public,260,kent st w,Lindsay,ON,K9V2Z5
b53c29f2915f3137e75e,Alexandra Public School,Public,65,sussex st n,Lindsay,ON,K9V4H9
b865a5e91c8ca29a79c0,Dr George Hall Public School,Public,374,eldon rd,Little Britain,ON,K0M2C0
bc083280842971ed1f66,St. Mary Catholic Elementary School,Catholic,16,st lawrence st,Lindsay,ON,K9V2J8
c4bd5d7b59165f5a78a3,Mariposa Elementary School,Public,755,eldon rd rr 2,Oakwood,ON,K0M2M0
c95b07d67469d7366546,Fenelon Falls Secondary School,Public,66,lindsay st,Fenelon Falls,ON,K0M1N0
cb799556613f3d052379,Ridgewood Public School,Public,6763,35 hwy,Coboconk,ON,K0M1K0
cdac2bbcf907f03af860,St. Thomas Aquinas Catholic Secondary School,Catholic,260,angeline st s rr 2,Lindsay,ON,K9V0J8
ce9fb3c3633f19e68c5d,Dunsford District Elementary School,Public,33,dunsford rd rr 2,Dunsford,ON,K0M1L0
d05b6f3869721b262279,Lady Eaton Elementary School,Public,17,james st,Omemee,ON,K0L2W0
e377e1ae2abc0a1d1bee,St. Dominic Catholic Elementary School,Catholic,320,mary st w,Lindsay,ON,K9V5X5
ec19c6f405ff383f0156,Rolling Hills Public School,Public,694,7a highway rr1,Bethany,ON,L0A1A0
f45c151249284b5057cc,Central Senior School,Public,242,kent st w,Lindsay,ON,K9V2Z4
f57456958c29ddb72f35,St. Luke Catholic Elementary School,Catholic,335,st luke's road 5,Lindsay,ON,K9V4R5
f9a7321ce9ac64c56ee1,Woodville Elementary School,Public,109,nappadale st,Woodville,ON,K0M2T0
