Index,Facility_Name,Facility_Type,Street_No,Street_Name,City,Prov_Terr,Postal_Code
0023074c83f22d86fcb3,One Care Academy,Private,32,elgin st e,Oshawa,ON,L1G1T1
0735a852ea9dd2f42e75,G L Roberts Collegiate and Vocational Institute,Public,399,chaleur ave,Oshawa,ON,L1J1G5
0f96b0cd491909649a63,St Joseph Catholic School,Catholic,1200,summerwood heights,Oshawa,ON,L1K0C2
0fb7282b067076a5c986,St John XXIII Catholic School,Catholic,195,athabasca st,Oshawa,ON,L1H7J2
1379facce00491775a9a,Vincent Massey Public School,Public,211,harmony rd n,Oshawa,ON,L1G6L4
15755da1db9aebd3a799,Monsignor Paul Dwyer Catholic High School,Catholic,700,stevenson rd n,Oshawa,ON,L1J5P5
1a2ac0e6bcb61fa524b2,St John Bosco Catholic School,Catholic,1600,clearbrook dr,Oshawa,ON,L1K2P6
1dec313693ad47800351,Mary Street Community School,Public,110,mary st n,Oshawa,ON,L1G7S2
24c35f6d99d7ceeb7dd4,Durham Alternative Secondary School,Public,240,simcoe street,Oshawa,ON,L1H4H4
25ce51609884f247eb0e,St Hedwig Catholic School,Catholic,421,olive ave,Oshawa,ON,L1H2R2
2ab7d07db7a21bf5a45b,Woodcrest Public School,Public,506,woodcrest ave,Oshawa,ON,L1J2T8
2ae5436607a89aea1b90,Stephen G Saywell Public School,Public,855,roundelay dr,Oshawa,ON,L1J7V1
2cce6bc843e9923d6325,Sir Albert Love Catholic School,Catholic,425,wilson rd n,Oshawa,ON,L1G6E6
2d1221f9b300d416156d,St Kateri Tekakwitha Catholic School,Catholic,1425,coldstream drive,Oshawa,ON,L1K2Y8
2d8cfd84489b97f590af,St Thomas Aquinas Catholic School,Catholic,400,pacific ave,Oshawa,ON,L1J1V9
2dd7a29f38459490851c,Dr S J Phillips Public School,Public,625,simcoe st n,Oshawa,ON,L1G4V5
2e3e5dfb4b72e9a35255,Village Union Public School,Public,155,gibb street,Oshawa,ON,L1J1Y4
321ec5c9fd42268d4d67,Kedron Public School,Public,1935,ritson rd,OSHAWA,ON,L1H7K5
3f8a752fa7cd41f32352,Queen Elizabeth Public School,Public,1205,simcoe st n,Oshawa,ON,L1G4X1
40a98d8ac04156acfa62,St Christopher Catholic School,Catholic,431,annapolis ave,Oshawa,ON,L1J2Y5
511208c33806cebbb93f,Sunset Heights Public School,Public,1130,mohawk st,Oshawa,ON,L1G4G7
58d6924b815b73a07be3,Walter E Harris Public School,Public,495,central park blvd,OSHAWA,ON,L1G6A2
5903a699c6d928350d2a,Columbus Private School,Private,3285,simcoe street north,Oshawa,ON,L1H7K4
595227cfa68c832e2d37,Hillsdale Public School,Public,525,oshawa blvd n,Oshawa,ON,L1G5T6
5eac63294be9f4bf1d4a,Monsignor John Pereyma Catholic Secondary School,Catholic,316,conant st,Oshawa,ON,L1H3S6
6061b3ea50a766c85752,Coronation Public School,Public,441,adelaide ave e,Oshawa,ON,L1G2A4
67a28186db791faa72d2,Bobby Orr Public School,Public,7,waterloo st,Oshawa,ON,L1H8V9
6dee596f3a1a18202afe,Career School of Hairstyling,Private Institution,43,mcmillan st,Oshawa,ON,L1G3Z5
71c0d63889f77667f509,Northern Dancer Public School,Public,2200,bridle road,Oshawa,ON,L1L0L5
7b95676fee7fa784b177,Lakewoods Public School,Public,323,chaleur ave,Oshawa,ON,L1J1G5
836d9c7339492081c4a2,Campbell Children's School,Hospital,600,townline rd s,Oshawa,ON,L1H0C8
83877bf66ca05b0799bb,Eastdale Collegiate and Vocational Institute,Public,265,harmony rd n,Oshawa,ON,L1G6L4
84ff5318175ad35a7f0d,Trillium College - Oshawa,Private Institution,419,king street west,Oshawa,ON,L1J2K5
852b2eb2bd20ceb55201,Jeanne Sauvé Public School,Public,950,coldstream drive,Oshawa,ON,L1K0X1
8566f57ab0ac04b34e29,Elsie MacGill Public School,Public,800,greenhill avenue,Oshawa,ON,L1K0C8
88ac46d23589bd17c692,Clara Hughes Public School,Public,250,harmony rd s,Oshawa,ON,L1H6T9
89129809037a01be8080,O'Neill Collegiate and Vocational Institute,Public,301,simcoe st n,Oshawa,ON,L1G4T2
923c3362c8487c61f3c4,ÉÉC Corpus-Christi,Catholic,362,hillside avenue,Oshawa,ON,L1J6L7
92b7eb4bc3ca136ca04e,R S Mclaughlin Collegiate and Vocational Institute,Public,570,stevenson rd n,Oshawa,ON,L1J5P1
95108798ed304a9c17af,Harmony Heights Public School,Public,590,galahad dr,Oshawa,ON,L1K1M2
96dbbd92ed0d9d307922,St. Anne Catholic Elementary School,Catholic,2465,bridle road,Oshawa,ON,L1L0H9
ab76562e30263f3110f6,Beau Valley Public School,Public,230,marigold ave,OSHAWA,ON,L1G3G3
af5b731a1e67951cc43c,Dr C F Cannon Public School,Public,1196,cedar st,OSHAWA,ON,L1J3S2
af8767d87617289351ca,David Bouchard Public School,Public,460,wilson road,Oshawa,ON,L1H6C9
b30ad9739137c22c27ce,College Park Elementary School,Private,220,townline rd n,Oshawa,ON,L1K2J6
b9ffead74e1d2978c3b8,Mosaic Academy,Private,209,lichen crescent,Oshawa,ON,L1J7W2
ba90443166a8737f7521,Forest View Public School,Public,65,athabasca street,Oshawa,ON,L1H7H7
baf35ca63aa94661a181,Monsignor Philip Coffey Catholic School,Catholic,1324,oxford st,Oshawa,ON,L1J3W6
be1dfa2b3aa9f0d20dbd,Glen Street Public School,Public,929,glen st,Oshawa,ON,L1J3T9
