Index,Facility_Name,Facility_Type,Street_No,Street_Name,City,Prov_Terr,Postal_Code
0230a474321866e1438a,Clarke High School,Public,115,hwy,Newcastle,ON,L1B0R7
03615724badc71beedf0,Clarington Central Secondary School,Public,200,clarington blvd,Bowmanville,ON,L1C5N8
0a478865c615e5eab97b,Dr Ross Tilley Public School,Public,45,west side dr,Bowmanville,ON,L1C4Y8
0fe3bd10695bb06ec39d,Charles Bowman Public School,Public,195,bons ave,Bowmanville,ON,L1C0L3
129ea52dacb494f99666,Harold Longworth Public School,Public,350,longworth ave,Bowmanville,ON,L1C5J5
17e75f3c349181e2b849,Holy Trinity Catholic Secondary School,Catholic,2260,courtice rd,Courtice,ON,L1E2M8
20a48d85af1d4822c4d9,St. Stephen Catholic Secondary School,Catholic,300,scugog st,Bowmanville,ON,L1C6Y8
2455941a9cdade9e0bd1,Central Public School,Public,120,wellington st,Bowmanville,ON,L1C1V9
3e181eef3ce1be21c658,John M James School,Public,175,mearns ave,Bowmanville,ON,L1C5C6
45b5458b99c4fb504c40,École élémentaire Viola-Léger,Public,116,ontario street,Bowmanville,ON,L1C2T4
4a7d092639847cd12191,Lydia Trull Public School,Public,80,avondale dr,Courtice,ON,L1E3C2
55548380a4d8995fbccc,The Pines Senior Public School,Public,115,hwy,Newcastle,ON,L1B0R7
574d01c3a356a5840af0,Duke of Cambridge Public School,Public,47,liberty st n,Bowmanville,ON,L1C2L8
6323dd1b500a09da0d23,Clarington Central Intermediate School,Public,200,clarington boulevard,Bowmanville,ON,L1C5N8
6408e5ddb0f243d22454,Vincent Massey Public School,Public,10,church st,Bowmanville,ON,L1C1S3
64a7ad394472d5f253b3,Centre for Individual Studies,Public,140,high st,Bowmanville,ON,L1C3C1
69ffa1de6d4dc60aebf0,Enniskillen Public School,Public,8145,old scugog rd,Hampton,ON,L0B1J0
80e08aab5ccf2d7970ff,Newcastle Public School,Public,50,glass crt,Newcastle,ON,L1B1M5
83bf0bc4246e6dd15bc7,St. Elizabeth Catholic Elementary School,Catholic,610,longworth ave,Bowmanville,ON,L1C5B8
8b32de082131e797d35f,Bowmanville High School,Public,49,liberty st n,Bowmanville,ON,L1C2L8
9003e706eb46839a49f9,Courtice Secondary School,Public,,nash rd & courtice rd,Courtice,ON,L1E2L8
9368af6a7e1b5daf8027,Durham Private Secondary School,Private,2038,nash road,Bowmanville,ON,L1C3K4
969cf918ccf2ccd18338,Dr G J MacGillivray Public School,Public,75,meadowglade rd,Courtice,ON,L1E3G7
9886553dddbf96d9c481,Monsignor Leo Cleary Catholic Elementary School,Catholic,3820,courtice rd n,Courtice,ON,L1E2L5
a0aadceb888c8015377c,Good Shepherd Catholic Elementary School,Catholic,20,farmington dr,Courtice,ON,L1E3B9
a2143e8010b925cf0396,S T Worden Public School,Public,1462,nash rd,Courtice,ON,L1E1S7
ade542dbb5e83157221f,St. Joseph Catholic Elementary School,Catholic,90,parkway cres,Bowmanville,ON,L1C1C3
b34ac29aa7edcf29f588,Orono Public School,Public,171,church st,Orono,ON,L0B1M0
b3d66c520370b9e89bce,Holy Family Catholic Elementary School,Catholic,125,aspen springs dr,Bowmanville,ON,L1C0C6
bb509f84a5a2852a4986,Dr Emily Stowe School,Public,71,sandringham dr,Courtice,ON,L1E1W8
bdd5e3cb53c587736486,Waverley Public School,Public,168,waverley rd,Bowmanville,ON,L1C3Y8
bf7876e98777ec3a2e7e,Four Winds Montessori School Inc.,Private,116,church st,Bowmanville,ON,L1C1T2
c223c82b53aa2ca17936,Durham Christian High School,Private,340,west scugog lane,Bowmanville,ON,L1C7C1
c72fe5c97f764ba7b2bc,M J Hobbs Senior Public School,Public,2296,taunton rd,Hampton,ON,L0B1J0
cdff14af6d95d43dd428,Courtice North Public School,Public,1675,nash rd,Courtice,ON,L1E2Y4
d5bf14581a35190dbd39,Knox Christian School,Private,410,north scugog crt,Bowmanville,ON,L1C6T1
d7357b54e6cf60c44b33,St. Mother Teresa Catholic Elementary School,Catholic,78,glenabbey dr,Courtice,ON,L1E2B5
da88a7aa5faa5e670699,Hampton Junior Public School,Public,43,ormiston st,Hampton,ON,L0B1J0
def25bd8bb82df972653,St. Francis of Assisi Catholic Elementary School,Catholic,1774,rudell rd,Newcastle,ON,L1B1E2
e83804897fef9048ce4b,Courtice Intermediate School,Public,1717,nash rd,COURTICE,ON,L1E2L8
