Index,Facility_Name,Facility_Type,Street_No,Street_Name,City,Prov_Terr,Postal_Code
044103d93c501ef8ac17,Claremont Public School,Public,1675,central st,CLAREMONT,ON,L1Y1A8
102890e04a043e20e45e,Bayview Heights Public School,Public,1400,garvolin ave,Pickering,ON,L1W1J6
1074dd836b6782a3fd37,Crawford Adventist Academy (East Campus),Private,1765,meadowview ave ave,PICKERING,ON,L1V4M2
11eb6915272dde31dde3,Montessori Learning Centre,Private,401,kingston rd,Pickering,ON,L1V1A3
1234e27b2f3773819677,St Elizabeth Seton Catholic School,Catholic,490,strouds lane,Pickering,ON,L1V6W7
1280735296c6a050680c,St Monica Catholic School,Catholic,275,twyn rivers dr,Pickering,ON,L1V1E3
13fe5b5bad72d8215e11,Fairport Beach Public School,Public,754,oklahoma dr,Pickering,ON,L1W2H5
160717bf14bd5c38a5cc,Glengrove Public School,Public,1934,glengrove rd,Pickering,ON,L1V1X2
1e17203a7ce7d4db422f,St Wilfrid Catholic School,Catholic,2360,southcott rd,Pickering,ON,L1X2S9
254ebea2eea0e98349bd,Gandatsetiagon Public School,Public,1868,parkside dr,Pickering,ON,L1V3R2
390b2727f52bd538946a,Highbush Public School,Public,605,stroud's lane,Pickering,ON,L1V5M5
3b35e2f211bee3f37533,Sir John A Macdonald Public School,Public,777,balaton ave,Pickering,ON,L1W1W7
3c2f6dfd2a5bc95ef086,École intermédiaire Ronald-Marion,Public,2235,brock chemin pickering ontario l1v2p8,Pickering,ON,L1V2P8
49194b82590ee1c349ae,St Isaac Jogues Catholic School,Catholic,1166,finch ave,Pickering,ON,L1V1J6
4ee00be8d6285bc236ce,Herzing College,Private Institution,1099,kingston rd,Pickering,ON,L1V1B5
536f98ccf4cf5917c221,École élémentaire Ronald-Marion,Public,2235,brock chemin pickering ontario l1v2p8,Pickering,ON,L1V2P8
597bdce356b7034d722e,École secondaire Ronald-Marion,Public,2235,brock chemin pickering ontario l1v2p8,Pickering,ON,L1V2P8
745f21aa099370d979c8,Maple Ridge Public School,Public,2010,bushmill st,Pickering,ON,L1X2M2
7f9364ed0b4b367bc299,Elizabeth B Phin Public School,Public,1500,rougemont dr,Pickering,ON,L1V1N1
817f583fc7f80296e731,Altona Forest Public School,Public,405,woodsmere,PICKERING,ON,L1V7A3
89426d9ce243abfbb49a,Brock Elementary School,Private,2065,brock road north pickering ontario l1v2p8,Pickering,ON,L1V2P8
a0bcab55d6c6a6cd07d7,Westcreek Public School,Public,1779,westcreek,PICKERING,ON,L1V6M9
a399276938381c523778,OnStudy Academy,Private,1066,dunbarton road pickering,Pickering,ON,L1V1G8
ab8ef6a5d225f22c86ed,Vaughan Willard Public School,Public,1911,dixie rd,PICKERING,ON,L1V1V4
aed907d4e9dd4e3bd0cd,Valley View Public School,Public,3530,westney rd,Greenwood,ON,L0H1H0
b484c3f0efd4e64cfac3,Valley Farm Public School,Public,1615,pepperwood gate,PICKERING,ON,L1X2K5
bca95b55ebcbcb087556,Dunbarton High School,Public,655,sheppard ave,Pickering,ON,L1V1G2
bd18fe9346e898fe2058,St Mary Catholic Secondary School,Catholic,1918,whites rd,Pickering,ON,L1V1R9
cb96aef8f63902771035,Rosebank Road Public School,Public,591,rosebank rd s,Pickering,ON,L1W2N6
d639a99161a7441d77a3,William Dunbar Public School,Public,1030,glenanna rd,Pickering,ON,L1V5E5
e773e17dd4f13d222752,Frenchman's Bay Public School,Public,920,oklahoma dr,PICKERING,ON,L1W2H7
efcf9f7ff1760d80ce00,Father Fenelon Catholic School,Catholic,795,eyer drive,Pickering,ON,L1W2K2
f37464a171d8a041eb5b,Blaisdale Montessori,Private,415,toynevale rd,Pickering,ON,L1W2G9
f8461708fc990cc1a5b6,Pine Ridge Secondary School,Public,2155,liverpool rd n,Pickering,ON,L1X1V4
