Index,Facility_Name,Facility_Type,Street_No,Street_Name,City,Prov_Terr,Postal_Code
05008ea37299763442cd,Vimy Ridge Public School,Public,40,telford street east,Ajax,ON,L1T4Z4
0f73cd9f6da7f1e9f911,St Francis de Sales Catholic School,Catholic,72,church st s,Ajax,ON,L1S6B3
17edff6bef43626b42b1,Lincoln Avenue Public School,Public,70,lincoln st,Ajax,ON,L1S6C9
1bab44487a25e67ac9df,St Catherine of Siena Catholic School,Catholic,15,bennett ave,Ajax,ON,L1T3P1
20c01d9578e0a1dfcc6f,Lincoln Alexander Public School,Public,95,church st n,Ajax,ON,L1S6A9
215debccad4a9f832f29,Westney Heights Public School,Public,45,brennan rd,AJAX,ON,L1T1X5
24e26bc502a4b10c449e,Michaëlle Jean Public School,Public,180,williamson drive e,Ajax,ON,L1Z0G7
25e2ab5cdf41447162fc,Terry Fox Public School,Public,30,kerrison dr,AJAX,ON,L1Z1K1
3360464032c6864ad154,Duffin's Bay Public School,Public,66,pittmann cres,Ajax,ON,L1S3G4
372d361658e641525d63,Bolton C Falby Public School,Public,80,falby crt,Ajax,ON,L1S1N4
3a103b4dc5d37fb8a402,da Vinci Public School Public School,Public,61,williamson drive,Ajax,ON,L1T0A9
41644e2a624b5aacb252,Archbishop Denis O'Connor Catholic High School,Catholic,80,mandrake st,Ajax,ON,L1S5H4
48205aaefa71879f4d03,Ajax High School,Public,105,bayly st e,Ajax,ON,L1S1P2
4ba0456ba14fcc1c75bc,Lester B Pearson Public School,Public,21,coughlen st,Ajax,ON,L1T2M9
548f007ae3750e27d331,Lakeside Public School,Public,4,parkes dr,Ajax,ON,L1S4X1
59d7fee758eec2ad6a3c,ÉÉC Notre-Dame-de-la-Jeunesse-Ajax,Catholic,71,ritchie avenue,Ajax,ON,L1S6S5
5d1c3844c236fb7a3d14,Roland Michener Public School,Public,95,ritchie ave,Ajax,ON,L1S6S2
5ea8e5d98ad4cb1a0388,Notre Dame Catholic Secondary School,Catholic,1375,harwood ave n,Ajax,ON,L1T4G8
6e1ca125d24e76bbb2ab,Pickering High School,Public,180,church st n,Ajax,ON,L1T2W7
6ff90f49fba3ec370af2,Cadarackque Public School,Public,15,miles dr,Ajax,ON,L1Z1C7
7521698430e23023a053,Pickering Christian School,Private,162,rossland rd east,Ajax,ON,L1T4V2
780353209451dff4f38e,Lord Elgin Public School,Public,24,ontario st,Ajax,ON,L1S1T6
792694d387a12e6ed3e0,Nottingham Public School,Public,50,seggar ave,Ajax,ON,L1T4Y4
7d618a8c16d3c6138532,Harwood Montessori School Inc,Private,23,church st s,Ajax,ON,L1S6A6
7e77f218b98990b2d6da,J Clarke Richardson Collegiate Institute,Public,1355,harwood ave,AJAX,ON,L1T4G8
8481d9c1e0155f4a71a1,Eagle Ridge Public School,Public,425,delaney dr,AJAX,ON,L1T4N1
873c6d2ceebfc7d1a00f,Cambridge International Academy,Private,130,commercial avenue,Ajax,ON,L1S2H3
8bb55b45e45fb320c013,St James Catholic School,Catholic,10,clover ridge dr w,Ajax,ON,L1S3E5
972d0ea6655923b2cae8,Romeo Dallaire Public School,Public,300,williamson drive east,Ajax,ON,L1Z0H6
a06df902dce7b8926f35,Southwood Park Public School,Public,28,lambard cres,Ajax,ON,L1S1M5
a10b9b0d787634cd91dd,St Josephine Bakhita Catholic Elementary School,Catholic,51,williamson dr e,Ajax,ON,L1T0B4
a675aab0e69017bd1cc9,Viola Desmond Public School,Public,39,formosa avenue,Ajax,ON,L1Z0M6
ae45c684ec6accbdb338,St Patrick Catholic School,Catholic,280,delaney drive,Ajax,ON,L1T3N5
aefd5e1f58a81910bbfc,Carruthers Creek Public School,Public,1,greenhalf dr,AJAX,ON,L1S7N6
b2f47a8f1084dd396e19,Exceptional Learning Centre,Private,520,westney rd south,Ajax,ON,L1S6W4
bbc8d872304e4bc41b00,Alexander Graham Bell Public School,Public,25,,AJAX,ON,L1T3T6
c35031691e6d79f963a2,Faithway Baptist Church School,Private,1964,salem rd,Ajax,ON,L1T4V3
cbb47c3db355e5ae56b9,St Bernadette Catholic School,Catholic,41,bayly st e,Ajax,ON,L1S1P2
cd34a608650b3e5f6e5b,St Teresa of Calcutta Catholic School,Catholic,15,fishlock st,Ajax,ON,L1Z1H1
ce4907f05b9e00e6d7b0,St André Bessette Catholic School,Catholic,60,seggar ave,Ajax,ON,L1T4Y4
df63f8699b12215755a6,Applecroft Public School,Public,55,coles ave,Ajax,ON,L1T3H5
df72a48b716bbfa5dc7f,Brackendale Montessori,Private,1485,harwood ave n,AJAX,ON,L1T4T9
ee49feed6f68c573a94a,Dr Roberta Bondar Public School,Public,25,sullivan dr,Ajax,ON,L1T3L3
fbade5f8b8fb40964b99,St Jude Catholic School,Catholic,68,coles ave,Ajax,ON,L1T3H5
