Index,Facility_Name,Facility_Type,Street_No,Street_Name,City,Prov_Terr,Postal_Code
00c7cefdc6e8aca85b22,Whitby Montessori & Elementary School,Private,95,taunton road east,Whitby,ON,L1R3L3
01a5f0d20d937190fcea,Captain Michael VandenBos Public School,Public,3121,country lane,WHITBY,ON,L1P1N3
027a5840b31aaf409f7a,ÉIC Saint-Charles-Garnier,Catholic,4101,baldwin sud rue whitby ontario l1r2w6,Whitby,ON,L1R2W6
05189654f786a13ded70,ÉSC Saint-Charles-Garnier,Catholic,4101,baldwin sud rue whitby ontario l1r2w6,Whitby,ON,L1R2W6
05505a028f860bde3a1c,Brooklin Mill Montessori School Inc,Private,23-25,cassels rd e,Brooklin,ON,L1M1A4
064d4d80577be3824abc,St John the Evangelist Catholic School,Catholic,1103,giffard st,Whitby,ON,L1N2S3
0cf9926499075e20f9d2,Henry Street High School,Public,600,henry st,WHITBY,ON,L1N5C7
1925a67c028ce4e96e60,Anderson Collegiate and Vocational Institute,Public,400,anderson st,Whitby,ON,L1N3V6
1c2084672d290a547d1f,Blyth Academy Whitby Middle School,Private,114,dundas street east,Whitby,ON,L1N2H7
1d35e1d58842b03cab07,Robert Munsch Public School,Public,20,norista street,Whitby,ON,L1R0J2
2284e1979104369d113a,Brooklin High School,Public,20,carnwith drive,Whitby,ON,L1M0K7
2978eef7a56a5ee305a8,Williamsburg Public School,Public,20,kirkland place,Whitby,ON,L1P1W7
29a3e0ecb949ce8dbd6a,Father Leo J Austin Catholic Secondary School,Catholic,1020,dryden blvd,Whitby,ON,L1R2A2
33d36eb65f8cecf206cf,Chris Hadfield Public School,Public,160,carnwith drive west,Whitby,ON,L1M0A5
34998786685ec6bb200d,St Luke the Evangelist Catholic School,Catholic,55,twin streams rd,Whitby,ON,L1P1N9
42b0c6adb9b66ea2d01d,St Leo Catholic School,Catholic,120,watford st,Brooklin,ON,L1M1H2
47d412eeb908edbafad9,Blair Ridge Public School,Public,100,blackfriar avenue,Whitby,ON,L1M0E8
4a73b98a3069b699f241,Colonel J E Farewell Public School,Public,810,mcquay blvd,Whitby,ON,L1P1J1
50e344062d869958267b,Fallingbrook Public School,Public,155,fallingbrook st,WHITBY,ON,L1R2G2
57978f9f28e218b10804,Kendalwood Montessori,Private,104,consumers drive,Whitby,ON,L1N5T3
5fbd259eb34fb8b5c5c6,Julie Payette,Public,300,garden street,Whitby,ON,L1N3W4
60b76cdf7e68260e58d8,Sir Samuel Steele Public School,Public,55,bakerville st,Whitby,ON,L1R2S6
6189eb1b2dd8df5babe3,Soul Studio Annex,Private,19,cassels road east,Whitby,ON,L1M1A4
69c632ef309d2dfe6f21,Canada Christian College & School of Graduate Theological,Private Institution,300,water street,Whitby,ON,L1N9B6
6f472c32ac742118355c,St Bridget Catholic School,Catholic,200,carnwith dr w,Brooklin,ON,L1M2J8
7b1fa89d085cbc70e3dd,Trafalgar Castle School,Private,401,reynolds st,Whitby,ON,L1N3W9
7cad3232001d29b947c6,Ormiston Public School,Public,20,forest heights,WHITBY,ON,L1R1T5
867bb8f7dbf768e8d322,West Lynde Public School,Public,270,michael blvd,Whitby,ON,L1N6B1
890c057a79b15447994d,Whitby Shores Public School,Public,485,whitby shores greenway,Whitby,ON,L1N0G8
8a83333f4e4eeeb6911f,All Saints Elementary Catholic School,Catholic,3001,country lane,Whitby,ON,L1P1M1
8eb38c2ddc21bf40f54d,Sir William Stephenson Public School,Public,1125,athol street,Whitby,ON,L1N4A6
8f8ce350635f400a48c5,St Theresa Catholic School,Catholic,173,crawforth st,Whitby,ON,L1N3S4
943b700ca5186c878f27,KLC College:Healthcare- Business- Education-Whitby,Private Institution,1615,dundas st. e.,Whitby,ON,L1N2L1
961cc5a22b3c1748f264,Glen Dhu Public School,Public,29,fallingbrook st,Whitby,ON,L1R1M7
98ee4944706a6a200599,Pringle Creek Public School,Public,80,ribblesdale dr,Whitby,ON,L1N8M1
9aa29570f2f70613b3a8,Brooklin Village Public School,Public,25,selkirk drive,Brooklin,ON,L1M2L5
9ad4c7ddc8ea49f09bb7,St Marguerite d'Youville Catholic School,Catholic,250,michael blvd,Whitby,ON,L1N6B1
a32aa439a45e4077a09c,Donald A Wilson Secondary School,Public,681,rossland rd. w,Whitby,ON,L1P1Y1
a8b89a934eb7ed13298e,Jack Miner Public School,Public,144,whitburn,WHITBY,ON,L1R2N1
add254dc75f2026850c8,St Bernard Catholic School,Catholic,1000,dryden blvd,Whitby,ON,L1R2A2
b5df1cb005b14d31269e,St Matthew the Evangelist Catholic School,Catholic,60,willowbrook dr,Whitby,ON,L1R1S6
c315b26a0aa7345d8907,ÉÉC Jean-Paul II,Catholic,1001,hutchison avenue,Whitby,ON,L1N2A3
c39adea801e821d4faa2,Blyth Academy Whitby,Private,209,dundas street east,Whitby,ON,L1N7H8
caf0fea11d2749c6de20,St Paul Catholic School,Catholic,200,garrard rd,Whitby,ON,L1N3K6
cea19fb03ff587cba9b4,Bellwood Public School,Public,30,bellwood dr,Whitby,ON,L1N8M4
cf44b656083d97520d16,Dr Robert Thornton Public School,Public,101,hazelwood drive,WHITBY,ON,L1N3L4
d3cd2dc6f34d2eb62261,St Mark the Evangelist Catholic School,Catholic,95,waller st,Whitby,ON,L1R1Z7
d47986b23dc5f5947948,St John Paull II Catholic Elementary School,Catholic,160,cachet blvd,Brooklin,ON,L1M2L9
d83cddb5a1e31e027c61,Winchester Public School,Public,70,watford st,BROOKLIN,ON,L1M1E8
