Index,Facility_Name,Facility_Type,Street_No,Street_Name,City,Prov_Terr,Postal_Code
0078247d6376023699b9,Micro Schools by The Play Base,Private,61,casavant court,Maple,ON,L6A5A5
0336739f3094d122a32d,Wilshire Elementary School,Public,265,beverley glen blvd,Thornhill,ON,L4J7S8
048f8094e448fc97b58d,St Gregory the Great Catholic Academy,Catholic,140,greenpark blvd,Woodbridge,ON,L4L6Z6
08ff8f847626ddb9fb6c,Mesivta Ohr Temimim Lubavitch,Private,770,chabad gate,Thornhill,ON,L4J3V9
1078535cfdee813c4099,Charlton Public School,Public,121,joseph aaron blvd,Thornhill,ON,L4J6J5
107dec7daf29fd950771,Teston Village Public School,Public,80,murray farm lane,Maple,ON,L6A3G1
122eb103fd78a66ea1f6,Rutherford Private School and Daycare,Private,37,jacob keffer parkway,CONCORD,ON,L4K5N8
12c72e38a2bf1be0dea6,Michael Cranny Elementary School,Public,155,melville ave maple ontario l6a1y9,Maple,ON,L6A1Y9
13ffb14a2d0672fb5a69,Toronto Academy Plus,Private,7378,yonge street,Vaughan,ON,L4J8J1
16d87706e3859cb26cb3,Kayla's Children Centre,Private,36,atkinson avenue thornhill ontario l4j8c9,Thornhill,ON,L4J8C9
18f6b0bac501951a65b1,ML Montessori,Private,8142,islington avenue,Woodbridge,ON,L4L1W6
1a6a50c25972978a2443,Thornhill Woods Public School,Public,341,thornhill woods dr,Thornhill,ON,L4J8V6
1de6ded210369b0f198c,Nellie McClung Public School,Public,360,thomas cook avenue,Vaughan,ON,L6A4M1
20998a481dd1b49faae9,Pope Francis Catholic Elementary School,Catholic,15,secord avenue,Kleinburg,ON,L4H3Z3
20b5d98d54e6bdef9ac4,Pine Grove Public School,Public,86,gamble st,Woodbridge,ON,L4L1R2
22060bac76e84f264e47,Toronto Waldorf School,Private,9100,bathurst st,Thornhill,ON,L4J8C7
23646bcc6efc58a28361,St Jean de Brebeuf Catholic High School,Catholic,2,davos rd,Woodbridge,ON,L4H2Y1
237022475c58054f7ea8,Louis-Honore Frechette Public School,Public,40,new westminster dr,Thornhill,ON,L4J7Z8
246e0349180d39dcb469,Anne Frank Public School,Public,431,ilan ramon blvd maple ontario l6a0x2,Maple,ON,L6A0X2
24fe66082172ac379742,St Cecilia Catholic Elementary School,Catholic,300,peter rupert avenue maple ontario l6a4p3,Maple,ON,L6A4P3
2680e93e17da9d95d0b8,Johnny Lombardi Public School,Public,350,lawford road,Woodbridge,ON,L4H4C3
29a0c1732f8d65d7e6d5,Ontario eSchool,Private,132,jardin drive,Vaughan,ON,L4K1X9
2e7ee910b448134d012a,Autumn Hill Academy,Private,9050,dufferin street,Concord,ON,L4K5M4
2f3c6ec79e2c8a129e77,Laureates Academy,Private,62,knightshade drive,Thornhill,ON,L4J8Z5
3007fb0f5d88275cb4e8,Rosedale Heights Public School,Public,300,,Thornhill,ON,L4J6Y8
32234ea565a8194e6ed9,Dr Roberta Bondar Public School,Public,401,grand trunk avenue maple ontario l6a0t4,Maple,ON,L6A0T4
364ae3523c1d4bc61842,Canaway Private School,Private,15,schuster lane,Thornhill,ON,L4J8Y7
375232da832054f9db7a,St Gabriel the Archangel Catholic Elementary School,Catholic,91,fiori dr,Woodbridge,ON,L4L5S4
38375d80da212bf748b3,Ventura Park Public School,Public,121,worth blvd,Thornhill,ON,L4J7V5
3dde7eb66a9117f5a938,Holy Jubilee Catholic Elementary School,Catholic,400,st joan of arc ave maple ontario l6a2s8,Maple,ON,L6A2S8
3ed0d1012b7a82653ecb,Bakersfield Public School,Public,121,mistysugar trail,Thornhill,ON,L4J8T6
4178e7b99152f0216a41,King Heights Academy - Woodbridge,Private,28,rotec road,Woodbridge,ON,L4L8E4
46365d3b64d60770d9c9,St Peter Catholic Elementary School,Catholic,120,andrew park cres,Woodbridge,ON,L4L1G2
47b730b03fa3a6577462,Birchas Shmuel,Private,11,noam court,Thornhill,ON,L4J9K6
47efeecea644c9b9be56,YYZ Academy,Private,8301,keele street,Concord,ON,L4K1Z6
4b2dc99f3ca5881ec7cc,Roots Private School,Private,10195,keele street,Maple,ON,L6A3Y9
4b5b9481e0ff7e94d94e,Or Haemet Sephardic School,Private,7026,bathurst st,Thornhill,ON,L4J8K3
4c46b945a5d0e71bfff9,Evergreen Leadership Academy,Private,2701,rutherford road,Vaughan,ON,L4K2N6
5052fb7fc93d9ac98f2e,St Raphael the Archangel Catholic Elementary School,Catholic,131,ravineview drive maple ontario l4g0m1,Maple,ON,L4G0M1
50779dd11f041df13f99,Vellore Woods Public School,Public,115,starling blvd,Woodbridge,ON,L4H2T9
5116433de9fd3832cfa2,Vaughan Secondary School,Public,1401,clark ave w,Thornhill,ON,L4J7R4
5308f12a037f53c5e30b,Forest Run Elementary School,Public,200,forest run boulevard,Woodbridge,ON,L4K5H3
54dd9d371af1d371801b,Netivot Hatorah Day School,Private,18,atkinson ave,Thornhill,ON,L4J8C8
561f64aba94a720e8654,Glenn Gould Public School,Public,675,vellore park avenue,Vaughan,ON,L4H2G1
5a39428b654d2d557adc,St Padre Pio Catholic Elementary School,Catholic,770,napa valley ave,WOODBRIDGE,ON,L4H1W9
5aafa52c88bb5e24ec74,Blessed Trinity Catholic Elementary School,Catholic,230,hawker rd,Maple,ON,L6A2R2
5bd63624c46fcbe362ff,Guardian Angels,Catholic,200,lawford road,Vaughan,ON,L4H0Z5
5bf1a1a2b433738c64d7,Shmuel Zahavy Cheder Chabad School,Private,148,thornridge drive,Thornhill,ON,L4J1E3
5c523fc2f2a6d230f501,St Andrew Catholic Elementary School,Catholic,151,forest fountain dr,Woodbridge,ON,L4H1S4
