Index,Facility_Name,Facility_Type,Street_No,Street_Name,City,Prov_Terr,Postal_Code
0192c89a76ad4164444d,Buttonville Public School,Public,141,john button blvd,Markham,ON,L3R9C2
0386196880c47adeb344,Willowbrook Public School,Public,45,willowbrook rd,Thornhill,ON,L3T4X6
045cc1f95777d0148893,Parkland Public School,Public,18,coxworth ave,Markham,ON,L3S3B8
057b4d653de338a765d0,JEI Learning Center - Greensborough,Private,10,greensborough village circle,Markham,ON,L6E1M4
05ce061d582a736c4985,Bravo Education Centre,Private,72-80,cathedral high street,Markham,ON,L6C0P3
0867166cb956fc1b3688,Daryk High School (DH School),Private,7181,yonge street,Markham,ON,L3T0C7
0cde4f921fb9ababc73a,Town Centre Private School - Pre-School,Private,155,clayton dr,Markham,ON,L3R7P3
0d5eb61a5b7f8b4e5247,Ramer Wood Public School,Public,11,cairns dr,Markham,ON,L3P7M8
0dee011d3eb8c566b8a6,Aspiration Academy,Private,60,riviera drive,Markham,ON,L3R5M1
0f5aa2edbcb1a8d6f292,Princeton Academy of Canada,Private,2800,john street,Markham,ON,L3R0E2
0fde41c513aa2482e1da,Reesor Park Public School,Public,69,wootten way,Markham,ON,L3P2Y5
103b3ce1e450983ec93d,St Rene Goupil-St Luke Catholic Elementary School,Catholic,135,green lane,Thornhill,ON,L3T6K7
11a84662bec8ecf25f7d,Mount Joy Public School,Public,281,williamson rd,Markham,ON,L6E1X1
12c4da457cefd7562b68,Rouge Park Public School,Public,568,riverlands avenue,Markham,ON,L6B0Y1
12d8400747a44b045a3b,St Francis Xavier Catholic Elementary School,Catholic,223,highglen ave,Markham,ON,L3S1Y4
12eb26e4b66f614456e1,Alliance Coaching Academy,Private,8525,mccowan road,Markham,ON,L3P5E5
15163a77d62bbe7fb820,Legacy Public School,Public,61,russell jarvis dr,Markham,ON,L3S4B1
15cbe8a4e74cd494ff7d,Green Road High School,Private,7191,yonge street,Thornhill,ON,L3T0C4
162d1bf095ba46716187,Sir Wilfrid Laurier Public School,Public,160,hazelton avenue,Markham,ON,L6C3H6
1656c5a704d154fe59fb,Unionville High School,Public,201,town centre blvd,Unionville,ON,L3R8G5
16790e7ec651cdd045b2,St Brother Andr√© Catholic High School,Catholic,6160,16th ave e,Markham,ON,L3P3K8
1764b8e60278c13c0943,Upper York School,Private,2832,16th avenue,Markham,ON,L3R0K8
19c550cc09859af207b7,John McCrae Public School,Public,565,fred mclaren blvd,Markham,ON,L6E1N7
19f8f8baab71f4a890e0,Thornlea Secondary School,Public,8075,bayview ave,Thornhill,ON,L3T4N4
1b30b88a25543acb80a6,St Anthony Catholic Elementary School,Catholic,141,kirk dr,Thornhill,ON,L3T3L3
1bb1470af09600d59add,Sir Richard W Scott Catholic Elementary School,Catholic,90,roxbury st,Markham,ON,L3S3S8
1e9fd4c0695d98a4dadd,Westfield English Language School,Private,160,commerce valley dr east,Markham,ON,L3T0A9
24ad216751fcecd63455,Pierre Elliott Trudeau High School,Public,90,bur oak ave,Markham,ON,L6C2E6
256bc464cc2c10347af3,Bayview Glen Public School,Public,42,limcombe dr,Thornhill,ON,L3T2V5
2955ec6ba5d9c9b4edf9,David Suzuki Public School,Public,45,riverwalk dr,Markham,ON,L6B0L9
2a725dacc0b733870411,YIP's Collegiate School,Private,7700,brimley rd,Markham,ON,L3R0E5
2a98031be0d21b331075,Unionville Meadows Public School,Public,355,south unionville ave,Markham,ON,L3R5C8
2e911aad53014d2d36c4,Canada Cambridge Academy,Private,1001,dennison street,Markham,ON,L3R3K5
2f4e155ae91778383866,Wishing Well Montessori Schools,Private,455,cochrane dr,Markham,ON,L3R9R4
2fe2f7b97c47750ec1b0,Sharpminds Tutoring Inc.,Private,137,main street n,Markham,ON,L3P1Y2
30f98305697d2e0d1439,St Justin Martyr Catholic Elementary School,Catholic,140,hollingham rd,Unionville,ON,L3R8K4
323bc1fc2ca317417d92,Victoria Square Public School,Public,50,prince of wales drive,Markham,ON,L6C0K2
32c13ac41a1ad967a71f,Bill Crothers Secondary School,Public,44,main street,Unionville,ON,L3R2E4
33548b99469b97f668c0,Carlton Prep Academy,Private,4681,highway 7e,Unionville,ON,L3R1M6
337cd43147187a884fde,Sid Academy,Private,570,hood rd,Markham,ON,L3R4N6
33b1d4289a9687c85890,Sunrise Montessori School,Private,180,amber st,Markham,ON,L3R3L2
354ac168d8046cb1b7ae,Central Park Public School,Public,100,central park dr,Markham,ON,L3P7G2
36b86517f0bbeb5bb090,BrightMinds Online School,Private,8920,woodbine avenue,Markham,ON,L3R9W9
37adfe19fed722825b10,Toronto International Collegiate,Private,80,acadia avenue,Toronto,ON,L3R9V1
3859c95682d3178ceed7,Baythorn Public School,Public,201,baythorn dr,Thornhill,ON,L3T3V2
3ac4aa462424b37a4f8c,Yorkdale Academy,Private,505,hood road,Markham,ON,L3R5V6
3b29684a673216432f59,AIS Elementary School (Aurora Internatio,Private,250,ferrier street,Markham,ON,L3R2Z5
3d3f4cf33e6187cc0d99,Somerset Academy,Private,7700,brimley rd,Markham,ON,L3R0E5
3d479d89bbf496aeda06,William Berczy Public School,Public,120,carlton rd,Unionville,ON,L3R1Z9
