Index,Facility_Name,Facility_Type,Street_No,Street_Name,City,Prov_Terr,Postal_Code
023f97400d58f56e8868,"RWS, Richmond Hill World School",Private,10087,yonge st.,Richmond Hill,ON,L4C1T7
04a4d6bd716ecd3b1a01,Doncrest Public School,Public,124,blackmore ave,Richmond Hill,ON,L4B2B1
054ecf2bc0485b7815f9,Lake Wilcox Public School,Public,80,wildwood ave,Richmond Hill,ON,L4E3B5
0cbafce4e2b6b00904d3,Day Day Up Learning Centre,Private,883,16th avenue,Richmond Hill,ON,L4B3E5
0e6863357068f5f7a53a,Beverley Acres Public School,Public,283,neal dr,Richmond Hill,ON,L4C3L3
0ea3de9099d06d8282d1,Beacon Mile Academy,Private,10620,yonge street,Richmond Hill,ON,L4C3C8
0ecc549f655df2546bc0,Our Lady Help of Christians Catholic Elementary School,Catholic,275,redstone rd,Richmond Hill,ON,L4S2H1
0fe77a3f55f3a103069d,Richmond Hill Montessori Private School,Private,189,weldrick road east,Richmond Hill,ON,L4C0A6
100b5540d4744fc6c69f,Eureka Montessori,Private,13345,yonge street,Richmond Hill,ON,L4E3L3
10b14e0b407162beb0be,Oak Ridges Public School,Public,160,coons rd,Richmond Hill,ON,L4E2P7
1115717422c8dd1ec0ce,Windham Ridge Public School,Public,32,red cardinal trail,Richmond Hill,ON,L4E3Y4
13b6d31a2d8853e58706,Longbridge Academy,Private,1550,16th avenue,Richmond Hill,ON,L4B3K9
14139eef5c8da696af6b,Astrum Academy,Private,10201,yonge street,Richmond Hill,ON,L4C3B2
16f5fdd52452980bd539,Roselawn Public School,Public,422,carrville rd,Richmond Hill,ON,L4C6E6
252082b88ce68e7d9867,Our Lady of Hope Catholic Elementary School,Catholic,80,red cardinal trail,Richmond Hill,ON,L4E4B8
277e3a1b760228d950b7,Bayview Secondary School,Public,10077,bayview ave,Richmond Hill,ON,L4C2L4
2af5ae8eda5d0e16f1f5,Beynon Fields Public School,Public,258,selwyn rd,Richmond Hill,ON,L4E0R9
2da36d644105ff367796,Richmond Rose Public School,Public,160,frank endean rd,Richmond Hill,ON,L4S1S7
30ee6deab8ad4ddef19e,Alathena International Academy - Elgin M,Private,10720,yonge street,Richmond Hill,ON,L4C3C9
348f0afff38ea7818261,St Joseph Catholic Elementary School,Catholic,301,roney ave,Richmond Hill,ON,L4C2H4
366540b638a54b21c531,"Academy for Gifted Children, The (PACE)",Private,12,bond cres,Richmond Hill,ON,L4E3K2
38bce1109b5ac3c5652f,St. Mary Secondary School,Private,9030,leslie street,Richmond Hill,ON,L4B1G2
3c1c72e5986d453dfbd4,TMS School - Elgin Mills,Private,500,elgin mills road e.,Richmond Hill,ON,L4C5G1
3ceab37ec302869f309a,TMS School - Bayview,Private,8569,bayview avenue,Richmond Hill,ON,L4B3M7
3e04bac6795e373ee3d1,Westwood Academy,Private,3-40,vogel road,Richmond Hill,ON,L4B3N6
41691dd2b017fa6e5911,St Mary Immaculate Catholic Elementary School,Catholic,161,regent st,Richmond Hill,ON,L4C9N9
428e1d93915ce4cdcc98,Toronto High School,Private,9555,yonge street,Richmond Hill,ON,L4C9M5
435c6210791eab4cfaed,Christ the King Catholic Elementary School,Catholic,329,valleymede dr,Richmond Hill,ON,L4B2E1
4500eb0ae40abbfc198b,Duowei Education Centre,Private,245,west beaver creek road,Richmond Hill,ON,L4B1L1
4857173e9d47bf8e8c3f,St John Paul II Catholic Elementary School,Catholic,155,red maple rd,Richmond Hill,ON,L4B4P9
4a04a8d62f809b4b30c1,Langstaff Secondary School,Public,106,garden ave,Richmond Hill,ON,L4C6M1
4c749960ebcd5d39ac6f,Alexander MacKenzie High School,Public,300,major mackenzie dr w,Richmond Hill,ON,L4C3S3
506a75eced8c332af1a3,No. 1 Chinese School,Private,212,hillsview drive,Richmond Hill,ON,L4C1T2
536bebc386306b4744f1,Redstone Public School,Public,235,redstone rd,Richmond Hill,ON,L4S2E2
55e9c5ca9c412eb9989a,JEI Learning Center,Private,1650,elgin mills road,Richmond Hill,ON,L4S0B2
5657e5301675d2010a72,École élémentaire Norval-Morrisseau,Public,51,wright rue,Richmond Hill,ON,L4C4A1
57854aacb00b810334d3,Father Henri J M Nouwen Catholic Elementary School,Catholic,121,larratt lane,Richmond Hill,ON,L4C0E6
5937e3fd5f9851a22153,Sophio,Private,120,grey alder avenue,Richmond Hill,ON,L4B3P9
5ad0cc1d414f0c71bf67,St Charles Garnier Catholic Elementary School,Catholic,16,castlerock dr,Richmond Hill,ON,L4C5H5
602dbf536f287dbb25ed,Bond Lake Public School,Public,245,old colony road,Richmond Hill,ON,L4E5B9
62e49bdce27ef69b7e6d,Pleasantville Public School,Public,400,mill st,Richmond Hill,ON,L4C4B9
6328e7c17b31921f0c28,Our Lady of the Annunciation Catholic Elementary School,Catholic,30,bayswater ave,Richmond Hill,ON,L4E2L3
67ef4887dc6e9878b9c7,Foundations For Success,Private,17,oak avenue,Richmond Hill,ON,L4C6R5
6855abe64b0e1cc634f7,Elton Academy,Private,2,east beaver creek road,Richmond Hill,ON,L4B2N3
6986683638bf07969ad1,Richland Academy,Private,11570,yonge st,Richmond Hill,ON,L4E3N7
6cfe252aa4697775d4d8,Ross Doan Public School,Public,101,weldrick rd w,Richmond Hill,ON,L4C3T9
6d781acdea6844a81d47,St Theresa of Lisieux Catholic High School,Catholic,230,shaftsbury ave,Richmond Hill,ON,L4C0E8
73cf9a5969ff274f88ed,Canadian Top Science Academy,Private,10255,yonge street,Richmond Hill,ON,L4C3B2
749f0341e3e4e8900bb8,Silver Pines Public School,Public,112,stave cres,Richmond Hill,ON,L4C9J2
