Index,Facility_Name,Facility_Type,Street_No,Street_Name,City,Prov_Terr,Postal_Code
02376e993dde6844cac6,The Lighthouse Learning and Development,Private,219,old yonge street,Aurora,ON,L4G6J6
067b6b16133b0ef12bb8,Aurora Grove Public School,Public,415,stone rd,Aurora,ON,L4G6Z5
0af166a1130bf0ed08f1,ASK Online Canada,Private,92,hillview road,Aurora,ON,L4G2M5
0bc0a7c6fbb7e339f095,Light of Christ Catholic Elementary School,Catholic,290,mcclellan way,Aurora,ON,L4G6P3
0f4cff4f703fd211ef77,St Andrew's College,Private,15800,yonge st,Aurora,ON,L4G3H7
199bf362a87fb2513abb,ÉSC Renaissance,Catholic,700,bloomington ouest chemin aurora ontario l4g0e1,Aurora,ON,L4G0E1
2cc4b503286a752ed846,Aurora Montessori School,Private,330,industrial parkway n,Aurora,ON,L4G4C3
2ee78edc771bedfb00d4,Highview Public School,Public,240,mcclellan way,Aurora,ON,L4G6N9
30815a3aab7666c2c7b5,ÉÉC Saint-Jean,Catholic,90,walton promenade,Aurora,ON,L4G3K4
36fb836748f77a6f71ca,St Jerome Catholic Elementary School,Catholic,20,bridgenorth dr,Aurora,ON,L4G7P3
44c3573376f460090e29,Devins Drive Public School,Public,70,devins dr,Aurora,ON,L4G2Z4
4559fc03d84885ecc938,Hartman Public School,Public,130,river ridge blvd,Aurora,ON,L4G7T7
45bb9e86bcfe4d215df3,Northern Lights Public School,Public,40,bridgenorth dr,Aurora,ON,L4G7S6
4d7ea5e17eb5b90748fc,Dr G W Williams Secondary School,Public,39,dunning ave,Aurora,ON,L4G1A2
5bbe079f552d7f8a27ab,Diponte Academy,Private,14845,yonge street,Aurora,ON,L4G6H8
63b13eea4d96c6afdc94,St Maximilian Kolbe High School,Catholic,278,wellington street east,Aurora,ON,L4G1J5
8412ee2202b64da61e0c,Holy Spirit Catholic Elementary School,Catholic,315,stone rd,Aurora,ON,L4G6Y7
8cbc7cf59451c6ff26d8,Lester B Pearson Public School,Public,15,odin cres,Aurora,ON,L4G3T3
a2411d0c9343d7b5019c,Regency Acres Public School,Public,123,murray dr,Aurora,ON,L4G2C7
bcb36e4f367b966727c1,St Joseph Catholic Elementary School,Catholic,2,glass dr,Aurora,ON,L4G2E8
bdbebd77393ea5c603fa,Aurora Preparatory Academy,Private,81,industrial parkway north,Aurora,ON,L4G4C4
c1ea765a56b81e51f2a5,Rick Hansen Public School,Public,490,mavrinac boulevard,Aurora,ON,L4G0J6
d83b7a97d3f394f87f32,Inspiration Private School - Aurora,Private,15260,yonge street,Aurora,ON,L4G1N4
ddf73c4466625fb248de,Aurora High School,Public,155,wellington st w,Aurora,ON,L4G2P4
e8d6bb2fc040ee27f7fd,Aurora Heights Public School,Public,85,tecumseh dr,Aurora,ON,L4G2X5
eacea5c0823da4fa7f94,Wellington Public School,Public,125,wellington st w,Aurora,ON,L4G2P3
f1677e96088db443d20b,Our Lady of Grace Catholic Elementary School,Catholic,120,aurora heights dr,Aurora,ON,L4G6C4
f78cffc52104c1c5f958,Cardinal Carter Catholic Secondary School,Catholic,210,bloomington rd w,Aurora,ON,L4G3G9
