Index,Facility_Name,Facility_Type,Street_No,Street_Name,City,Prov_Terr,Postal_Code
029932843b08072aaaa1,Stuart Scott Public School,Public,247,lorne ave,Newmarket,ON,L3Y4K5
0bdef025609dd678cf1c,Maple Leaf Public School,Public,155,longford dr,Newmarket,ON,L3Y2Y7
18aeee23f56b2db1c1c8,St John Chrysostom Catholic Elementary School,Catholic,800,joe persechini dr,Newmarket,ON,L3X2S6
1b45e5d62b0acb4f2a60,Halley International Academy,Private,17565,yonge street,Newmarket,ON,L3Y5H6
221cbaebe04741211be3,Newmarket & District Christian Academy,Private,221,carlson drive,Newmarket,ON,L3Y3H4
250717972f04ae7400d1,Bogart Public School,Public,855,college manor dr,Newmarket,ON,L3Y8G7
2be2529ca57c9a80f2de,J L R Bell Public School,Public,121,queen st,Newmarket,ON,L3Y2E9
3c6268e94df942073907,Pickering College,Private,16945,bayview ave,Newmarket,ON,L3Y4X2
3dd2c318dd15b61bae8a,St Nicholas Catholic Elementary School,Catholic,480,keith ave,Newmarket,ON,L3X1V5
3e914a6faccf5e7fed52,Above and Beyond Learning Experience Inc,Private,1220,stellar drive,Newmarket,ON,L3Y7B9
3f703e864a85108c9f43,Notre Dame Catholic Elementary School,Catholic,715,kingsmere ave,Newmarket,ON,L3X1L4
41b034517091c37d86bd,Country Garden Montessori Academy,Private,601,newpark blvd,Newmarket,ON,L3X2S2
4a973e52869c8c136baa,Sacred Heart Catholic High School,Catholic,908,lemar rd,Newmarket,ON,L3Y1R9
507c943561a4f84b21b8,Stonehaven Elementary School,Public,875,stonehaven ave,Newmarket,ON,L3X2K3
5bd4d12ac41bcbf0c63c,Newmarket Montessori & Christian Academy,Private,1140,gorham street,Newmarket,ON,L3Y8W4
65c946dcdcfee9620a1b,Denne Public School,Public,330,burford st,Newmarket,ON,L3Y6L1
7143bca914eda9fc86a4,Newmarket High School,Public,505,pickering cres,Newmarket,ON,L3Y8H1
75ad844004503877c99c,Terry Fox Public School,Public,161,sawmill valley dr,Newmarket,ON,L3X2T1
7b91da81a952342644fc,Meadowbrook Public School,Public,233,patterson st,Newmarket,ON,L3Y3L5
7bc35164747ba52169bc,Clearmeadow Public School,Public,200,clearmeadow blvd,Newmarket,ON,L3X2E4
863ec3fdfc028b99957d,Dr John M Denison Secondary School,Public,135,bristol rd,Newmarket,ON,L3Y8J7
8b7ddc1bbed6cb56c99b,Mazo De La Roche Public School,Public,860,arnold cres,Newmarket,ON,L3Y2E2
8cff097a5216a73ac88d,St Elizabeth Seton Catholic Elementary School,Catholic,960,leslie valley dr,Newmarket,ON,L3Y8B3
9dc30ed45a8236c633c4,Alexander Muir Public School,Public,75,ford wilson blvd,Newmarket,ON,L3X3G1
a8993629cadca8d27826,St Paul Catholic Elementary School,Catholic,140,william roe blvd,Newmarket,ON,L3Y1B2
acaa8f1816d9478712b3,Poplar Bank Public School,Public,400,woodspring ave,Newmarket,ON,L3X2X1
acbe397336b556589cd4,Link On Learning,Private,665,davis drive,Newmarket,ON,L3Y2R2
b4fe9635a9802252fd0b,Rogers Public School,Public,256,rogers rd,Newmarket,ON,L3Y1G6
bac73c28a64e5e839e99,Prince Charles Public School,Public,684,srigley st,Newmarket,ON,L3Y1W9
d9fb41379332188036d4,La Maison Montessori House,Private,1205,stellar dr,Newmarket,ON,L3Y7B8
dc4b5575daaca8095aa6,Crossland Public School,Public,255,brimson dr,Newmarket,ON,L3X1H8
e12c32121e7f16753945,Canadian Martyrs Catholic Elementary School,Catholic,170,london rd,Newmarket,ON,L3Y6R5
f05b5d1d979c61cb9ea9,Armitage Village Public School,Public,125,savage rd,Newmarket,ON,L3X1R1
f1075e0f5cdfe2be8d84,Huron Heights Secondary School,Public,40,huron heights dr,Newmarket,ON,L3Y3J9
fd0e8e30638fe9c8edc3,Sir William Mulock Secondary School,Public,705,columbus way,Newmarket,ON,L3X2M7
fe5b13f2b2da782b7c40,Glen Cedar Public School,Public,915,wayne dr,Newmarket,ON,L3Y5W1
