Index,Facility_Name,Facility_Type,Street_No,Street_Name,City,Prov_Terr,Postal_Code
cd90b1c55c131c35a498,Our Lady of Fatima Catholic Elementary School,Catholic,191,crofters rd,Woodbridge,ON,L4L7G3
ced3470038bd3fc3a1ec,Lorna Jackson Public School,Public,589,napa valley ave,Woodbridge,ON,L4H1R1
d07fd417278052d5f005,St Stephen Catholic Elementary School,Catholic,451,napa valley ave,Woodbridge,ON,L4H1Y8
d0d601955e60e698d0af,Vaughan College,Private,9121,weston rd,Woodbridge,ON,L4H0L4
d6627620febdfb0b02f1,St Mary of the Angels Catholic Elementary School,Catholic,351,vellore park avenue,Woodbridge,ON,L4H0E4
d6f63891ad752b492777,St David Catholic Elementary School,Catholic,240,killian rd,Maple,ON,L6A1A8
d798ad21afa0f35a6d45,Kleinburg Public School,Public,10391,islington ave,Kleinburg,ON,L0J1C0
d8b8036c34dfbcdb4f01,Metro International Secondary Academy,Private,300,atkinson avenue thornhill ontario l4j8a2,THORNHILL,ON,L4J8A2
d95cabdb510e35721795,Julliard Public School,Public,61,julliard dr maple ontario l6a3w7,Maple,ON,L6A3W7
d9612bfefb51d1b08bc5,Everest Academy,Private,2600,rutherford road,Concord,ON,L4K5R1
d9d245b15632e8ae748f,Discovery Public School,Public,120,discovery trail,Maple,ON,L6A2Z2
db691554e3a614aeb2a5,Father John Kelly Catholic Elementary School,Catholic,9350,keele st maple ontario l6a1p4,Maple,ON,L6A1P4
db8584d59aff751afb3d,St Michael the Archangel Catholic Elementary School,Catholic,161,via campanile,Vaughan,ON,L4H3J8
db8d807cc5aa08de6660,St Angela Merici Catholic Elementary School,Catholic,8881,martin grove rd,Woodbridge,ON,L4H1C3
dbd647f0beb0334d6a84,Divine Mercy Catholic Elementary School,Catholic,251,melville ave maple ontario l6a1z1,Maple,ON,L6A1Z1
dcf22c2304ea5fe45b73,Yorkhill Elementary School,Public,350,hilda ave,Thornhill,ON,L4J5K2
e289abb7baefc97f1bfe,Maple High School,Public,50,springside rd,Maple,ON,L6A2W5
e292a3a9682f48b94ef7,Glencedar Montessori Private School,Private,11,sonoma blvd,WOODBRIDGE,ON,L4H3C4
e30b6485790aa7cc82d5,Ner Israel Yeshiva,Private,250,bathurst glen,Thornhill,ON,L4J8A7
e5e27050cef6fbfef6bf,Elder's Mills Public School,Public,120,napa valley drive,Woodbridge,ON,L4H1L1
e672f922a3d6b04f8112,Arts and Science Academy of Canada,Private,7,bradwick drive,Vaughan,ON,L4K2T4
e8b2bc4a8380d0365516,North Hill Private School,Private,9555,weston rd,Woodbridge,ON,L4H3A5
e8ef39e28b673f1b23e1,Our Lady of the Rosary Catholic Elementary School,Catholic,206,glen shields ave,Concord,ON,L4K1T8
ea170df063ae8af42acf,Yes! School Gymnasium,Private,101 37,jacob keffer parkway,Vaughan,ON,L4K5N8
ecd260863f04201522d5,Rom√©o Dallaire Public School,Public,550,peter rupert avenue maple ontario l6a0s1,Maple,ON,L6A0S1
efd2087751395d888120,Delano Academy,Private,200,racco parkway,Vaughan,ON,L4J8X9
f017d9fc879e615e0c27,Stephen Lewis Secondary School,Public,555,autumn hill blvd,Thornhill,ON,L4J8X2
f220a16f343d64d5b49d,Mackenzie Glen Public School,Public,575,melville ave maple ontario l6a2m4,Maple,ON,L6A2M4
f265473c89519b50de7e,San Marco Catholic Elementary School,Catholic,250,coronation dr,Woodbridge,ON,L4L6H3
f643346d699843d0bb47,Pierre Berton Public School,Public,470,via campanile,Vaughan,ON,L4H0X9
f8f244acf7833022c492,St Clare Catholic Elementary School,Catholic,391,velmar dr,Woodbridge,ON,L4L8J5
fa5201911350c5e17cde,Canadian STEM School,Private,472,brownridge drive street,Vaughn,ON,L4J5Z9
fafb8be4586a343a3e5d,Sharp Eagles,Private,8108,yonge street,Thornhill,ON,L4J1W4
