Index,Facility_Name,Facility_Type,Street_No,Street_Name,City,Prov_Terr,Postal_Code
79c8cec7de5aba843efd,CWS Canadian World Schools,Private,10087,yonge street,Richmond Hill,ON,L4C1T7
8402c647fa81d4050f03,Crosby Heights Public School,Public,190,neal drive,Richmond Hill,ON,L4C3K8
857f079ebdf3793e5c76,Leslie Academy,Private,9011,leslie street,Richmond Hill,ON,L4B3B6
87703fb2381e8bdd89e6,Bayview Hill Elementary School,Public,81,strathearn ave,Richmond Hill,ON,L4B2J5
8816ce7e366db0bc735a,Michaelle Jean Public School,Public,320,shirley drive,Richmond Hill,ON,L4S2P1
8ba51e3eb415331ed719,O M MacKillop Public School,Public,206,lucas st,Richmond Hill,ON,L4C4P7
8d3b81db639331ece76c,Toronto Montessori Teacher Training Institute,Private Institution,8569,bayview avenue,Richmond Hill,ON,LB43M7
8e013579825b7fd33b30,Jingbao Bilingual Montessori School,Private,265,16th avenue,Richmond Hill,ON,L4C7A6
8f8e9f8718e835a87499,Deran Academy,Private,65,west beaver creek road,Richmond Hill,ON,L4B1K4
946625a3637fa713a4d0,St Anne Catholic Elementary School,Catholic,105,don head village blvd,Richmond Hill,ON,L4C7N1
95be704e19b7717ab83e,Marco Polo Academy,Private,9011,leslie street richmomd hill ontario l4b3b6,Richmomd Hill,ON,L4B3B6
9b4a52536633d87caaab,Richmond Hill Christian Academy,Private,9711,bayview ave,Richmond Hill,ON,L4C9X7
9c30f327a503cdbdf289,Sixteenth Avenue Public School,Public,400,16th ave,Richmond Hill,ON,L4C7A9
a07416c03c2d65898e5b,ACCESS Program,Public,36,regatta ave,RICHMOND HILL,ON,L4E4R1
a80a967a47756a14b291,Father Frederick McGinn Catholic Elementary School,Catholic,61,brockdale st,Richmond Hill,ON,L4E4W2
afabc95fc24ea1e97336,Alpha Star High School,Private,10670,yonge street,Richmond Hill,ON,L4C3C9
afb71f3fa04d6d19fd6a,Global Montessori Day Nursery & Priv.Ele,Private,265,16th avenue,Richmond Hill,ON,L4C7A6
b003fe8a148fab0a0567,Selm Academy,Private,44,drumern crescent,Richmond Hill,ON,L4C5H8
b42947d3f8b239e1ba4c,Virtute Innovation and Art Education,Private,100,east beaver creek road,Richmond Hill,ON,L4B1J6
b9fc283e66f1e350c5c6,École secondaire Norval-Morrisseau,Public,51,wright rue,Richmond Hill,ON,L4C4A1
c20e0c7f6a75bb182f1d,Académie de la Moraine,Public,115,george rue,Aurora,ON,L4G2S3
c22a548de3e0ec45ccf0,MacLeod's Landing Public School,Public,195,silver maple rd,Richmond Hill,ON,L4E4Z1
c41099bc22eb8382cd5b,Richmond Hill Academy,Private,9555,yonge street,Richmond Hill,ON,L4C9M5
c570cb7f1345d393eb96,Moraine Hills Public School,Public,85,rollinghill rd,Richmond Hill,ON,L4E4C7
c57c83d8cd08000b61e1,Charles Howitt Public School,Public,30,pearson ave,Richmond Hill,ON,L4C6T7
c7226af364c4be4a3662,"Prestige School, The -Richmond Hill",Private,11,headdon gate,Richmond Hill,ON,L4C9W9
cb7702a727adcd192b2d,Kettle Lakes Public School,Public,62,kingshill rd,Richmond Hill,ON,L4E4X5
ce1c6733514d40cc8252,Adrienne Clarkson Public School,Public,68,queens college dr,Richmond Hill,ON,L4B1X3
ce47e2f5144f45615189,Century Private School,Private,11181,yonge street,Richmond Hill,ON,L4S1L2
cf73475cda4f14b2c879,KLC College:Healthcare- Business- Education-Richmond Hill,Private Institution,,,Richmond Hill- ON,ON,L4B1G7
d432d04d2dd19bbd2120,Concord College of Canada,Private,1550,16th avenue,Richmond Hill,ON,L4B3K9
d60561baba5b267d788f,Discovery Academy Inc,Private,10030,yonge st,Richmond Hill,ON,L4C1T8
d61defca76ac3ff0cdd5,Walter Scott Public School,Public,500,major mackenzie dr e,Richmond Hill,ON,L4C1J2
da3d8b3329e0468f9665,Silver Stream Public School,Public,180,farmstead rd,Richmond Hill,ON,L4S2K9
e17fd133512841fef62d,Red Maple Public School,Public,155,red maple rd,Richmond Hill,ON,L4B4P9
e224f5ec993edf5b76f2,St Marguerite D'Youville Catholic Elementary School,Catholic,121,rollinghill rd,RICHMOND HILL,ON,L4E4L2
e493dddaa1f37a6a41ef,Our Lady Queen of the World CA High School,Catholic,10475,bayview ave,Richmond Hill,ON,L4C3P2
e60a7856c62c6a7edf6e,Trillium Woods Public School,Public,18,alamo heights dr,Richmond Hill,ON,L4S2P3
e6eaa9af24904171fc02,Holy Trinity School,Private,11300,bayview ave,Richmond Hill,ON,L4S1L4
e8181153d3f61230357c,H G Bernard Public School,Public,245,bernard ave,Richmond Hill,ON,L4S1E1
ed2de6ae7cab76a0efd4,Quantum Academy,Private,9555,yonge street,Richmond Hill,ON,L4C9M5
f3588398ec0548f06a15,Richmond Green Secondary School,Public,1,william f bell parkway,Richmond Hill,ON,L4S2T9
f37044e133e63a9bdba0,Corpus Christi Catholic Elementary School,Catholic,35,squire dr,Richmond Hill,ON,L4S1C6
f779c65b29597fac167c,Richmond Hill High School,Public,201,yorkland st,Richmond Hill,ON,L4S1A2
