Index,Facility_Name,Facility_Type,Street_No,Street_Name,City,Prov_Terr,Postal_Code
5fd7bb64ed0168e8f56b,St Luke Catholic Learning Centre,Catholic,301,barrhill road,Maple,ON,L6A1J5
61ec55d8046740923a64,New Renaissance Academy,Private,9500,dufferin street,Vaughan,ON,L6A1S2
6713e4ff434f4388f9d0,Viola Desmond Public School,Public,25,farrell road,Maple,ON,L6A4W7
6729ecb60bd89cba34f8,St Veronica Catholic Elementary School,Catholic,171,maria antonia road,Woodbridge,ON,L4H2S8
692535cfd55370e2d395,École élémentaire La Fontaine,Public,10110,islington av 1,Kleinburg,ON,L0J1C0
6b16b62caa46db2195b5,St John Bosco Catholic Elementary School,Catholic,199,belview ave,Woodbridge,ON,L4L5N9
6e6b66a2ee4acc19bc02,UMCA Rich Tree Academy,Private,130,racco parkway,Thornhill,ON,L4J8X9
72419aca9351ad378d05,Holy Cross Catholic Academy High School,Catholic,7501,martin grove rd,Woodbridge,ON,L4L1A5
766c1b1b74a8154ba5b3,Father Bressani Catholic High School,Catholic,250,ansley grove rd,Woodbridge,ON,L4L3W4
7703cab355817cc949a9,King Heights Academy - Thornhill,Private,130,racco parkway,Thornhill,ON,L4J8X9
79e11a4048d78c9db6a0,ÉIC Renaissance,Catholic,301,barrhill rd,Maple,ON,L6A1J5
7ecf27142d0badca05d3,Brainiacs Academy,Private,256,bradwick drive,Concord,ON,L4K1K8
809baf85b35e25858120,Woodbridge College,Public,71,bruce st,Woodbridge,ON,L4L1J3
835441d31a40bf3be1f5,Glen Shields Public School,Public,158,glen shields ave,Concord,ON,L4K1T8
839297e83b89ef2c639f,Westminster Public School,Public,366,mullen dr,Thornhill,ON,L4J2P3
847af0adafff93e7097b,Herbert H Carnegie Public School,Public,575,via romano blvd maple ontario l6a0g1,Maple,ON,L6A0G1
8614e9624cfb1a269c0f,Fossil Hill Public School,Public,2,firenza rd,Woodbridge,ON,L4H2P5
86f7798611be9a40291b,ÉÉC Le-Petit-Prince,Catholic,79,avro chemin vaughan ontario l6a1y3,Vaughan,ON,L6A1Y3
87093604e6714838811b,St Emily Catholic Elementary School,Catholic,60,vellore woods blvd,Woodbridge,ON,L4H2K8
89c6d604eee3fbd7a749,Blessed Scalabrini Catholic Elementary School,Catholic,290,york hill blvd,Thornhill,ON,L4J3B6
8be1d1943ea952f85cf5,Maple Creek Public School,Public,210,hawker rd,Maple,ON,L6A2J8
8dbff83be9c53ff446fa,Torah High - Maple,Private,9600,bathurst street,Maple,ON,L6A3Z8
8e44d4dc410e09181a21,Mesorah Montessori School,Private,613,clark avenue thornhill ontario l4j5v3,Thornhill,ON,L4J5V3
903d65f10c064c629777,Immaculate Conception Catholic Elementary School,Catholic,500,aberdeen ave,Woodbridge,ON,L4L5J4
9120960b26d106ec091f,Xyna International School,Private,180,winges rd,Woodbridge,ON,L4L6C6
917a3ce0cb46bda582d8,Wiz Kidz Learning Centre Inc.,Private,545,north rivrmede rd,Concord,ON,L4K4H1
92b336d16276867e8736,Westmount Collegiate Institute,Public,1000,new westminster dr,Thornhill,ON,L4J8G3
951f4b897eb9175075d0,Woodbridge Public School,Public,60,burwick ave,Woodbridge,ON,L4L1J7
95457874e79226e49b18,Blue Willow Public School,Public,250,blue willow dr,Woodbridge,ON,L4L9E1
95aaf61d7b4f30dbc097,Thornhill Public School,Public,7554,yonge st,Thornhill,ON,L4J1V8
99854836c4a7af0e87f6,St Joan of Arc Catholic High School,Catholic,1,st joan of arc ave maple ontario l6a1w9,Maple,ON,L6A1W9
99b23e182422eac59eb8,Toronto French Montessori School,Private,191,wade gate thornhll ontario l4j5y4,Thornhll,ON,L4J5Y4
99b24858a7e7958ab29e,St James Catholic Elementary School,Catholic,171,mast rd,Maple,ON,L6A3J7
9c838a78648ec4ddbeaf,St Elizabeth Catholic High School,Catholic,525,new westminster dr,Thornhill,ON,L4J7X3
9dd29dae9c009881c9a9,St Joseph The Worker Catholic Elementary School,Catholic,475,brownridge dr,Thornhill,ON,L4J5Y6
9e01bc16008891ffd062,Brownridge Public School,Public,65,brownridge dr,Thornhill,ON,L4J7R8
a1a5b5b75bfec73b37af,St Catherine of Siena Catholic Elementary School,Catholic,80,terra rd,Woodbridge,ON,L4L3J5
a76f997d1d9c016961eb,Carrville Mills Public School,Public,270,apple blossom drive,Thornhill,ON,L4J8W5
ac9670eb0f459462f05e,Vaughan Baptist Christian Academy,Private,8286,islington avenue,Woodbridge,ON,L4L1W8
ae5765ab8eda3183b8da,St Agnes of Assisi Catholic Elementary School,Catholic,120,la rocca ave,Woodbridge,ON,L4H2A9
b0b9f94cc025bbbabc35,Global Education Academy,Private,36,atkinson avenue thornhill ontario l4j8c9,Thornhill,ON,L4J8C9
b40f555bc177269e629b,Joseph A Gibson Public School,Public,,,Maple,ON,L6A1R8
b7730f8cb5990b9f592f,St Margaret Mary Catholic Elementary School,Catholic,30,margaret mary rd,Woodbridge,ON,L4L2W8
b926d5e8e2328f89aa37,Kleinburg Christian School,Private,6950,nashville rd,Kleinburg,ON,L0J1C0
bc5dd5aa3d2f41235e94,Highland Academy of Canada,Private,9600,bathurst street,Vaughan,ON,L6A3Z8
bc77b452c8d1f6e4b769,Weston Learning Centre Inc,Private,60,winges road,WOODBRIDGE,ON,L4L6B1
bcdfb87006446bc60ee1,Tommy Douglas Secondary School,Public,4020,major mackenzie dr,Woodbridge,ON,L4H4E9
bde346eabe97a86f928f,Toronto District Christian High School,Private,377,woodbridge ave,Woodbridge,ON,L4L2V7
bfc46e188c72c981c9a8,Emily Carr Secondary School,Public,4901,rutherford rd,Woodbridge,ON,L4H3C2
