Index,Facility_Name,Facility_Type,Street_No,Street_Name,City,Prov_Terr,Postal_Code
35051962c918de9a702f,Morning Glory Public School,Public,29478,hwy 48 rr 2,Pefferlaw,ON,L0E1N0
431b19344861f14d8fc2,Jersey Public School,Public,176,glenwoods ave,Keswick,ON,L4P3E9
4f75a9c4e32d428a8b0a,Our Lady of the Lake Catholic Academy High School,Catholic,185,glenwoods ave,Keswick,ON,L4P2W6
63e9386c6b5264556ece,Keswick High School,Public,100,biscayne blvd,Keswick,ON,L4P3L5
7925c2ee27fa836f674d,Sutton Public School,Public,5147,baseline rd,Sutton West,ON,L0E1R0
7a3345ff265694b2bce9,Our Lady of the Lake Catholic Elementary School,Catholic,185,glenwoods ave,Keswick,ON,L4P2W6
81858fd3aa0845b244a3,R L Graham Public School,Public,70,biscayne blvd,Keswick,ON,L4P3M8
8626408807018b8eed03,Keswick Public School,Public,25,the queensway n,Keswick,ON,L4P1E2
87c392b76d6117f161d9,Fairwood Public School,Public,201,fairwood drive,Keswick,ON,L4P3Y5
88e55ed5930a0ad8d24c,W J Watson Public School,Public,162,carrick ave,Keswick,ON,L4P3P2
a04ec91caf5882835802,Prince of Peace Catholic Elementary School,Catholic,181,glenwoods ave rr 2,Keswick,ON,L4P3E9
a29827f0d68b181f31e7,Ontario International School,Private,316,tampa drive,Keswick,ON,L4P3A4
a62250504ef2dd6de7e4,St Bernadette's Catholic Elementary School,Catholic,5279,black river rd,Sutton West,ON,L0E1R0
bb4dd38b635c96d7c12b,Lake Simcoe Public School,Public,38,thornlodge dr,Keswick,ON,L4P4A3
ceffba3c7b49e47379ce,Lakeside Public School,Public,213,shorecrest rd,Keswick,ON,L4P1J1
d950bfc4880491ae65b1,St Thomas Aquinas Catholic Elementary School,Catholic,262,old homestead road,Keswick,ON,L4P3C8
e3bd23e08f5fca64c835,Sutton District High School,Public,20798,dalton rd,Sutton,ON,L0E1R0
f5f259a3850b6935991d,Black River Public School,Public,5279,black river rd,Sutton West,ON,L0E1R0
ff780e84be00646b9dd2,Deer Park Public School,Public,605,varney rd,Keswick,ON,L4P3C8
