Index,Facility_Name,Facility_Type,Street_No,Street_Name,City,Prov_Terr,Postal_Code
eaec186482f8252873e9,Thorncliffe Park Public School,Public,80,thorncliffe park dr,East York,ON,M4H1K3
eb1b4227a50fea2dc6c0,George Syme Community School,Public,69,pritchard ave,York,ON,M6N1T6
eb246e801705af2bb4c5,TAIE International Institute,Private,399,church st,Toronto,ON,M5B2J6
eb272ef25465691000c3,Keystone International Schools,Private,23,toronto street,Toronto,ON,M5C2R1
eb2f811076787f2aff55,Frankland Community School Junior,Public,816,logan ave,Toronto,ON,M4K3E1
eb30f1d5182a55c6df0a,"Dalton School, The",Private,906,yonge street,Toronto,ON,M4W2J2
ebee99f8e92e7a37fd31,TanenbaumCHAT Wallenberg Campus,Private,200,wilmington ave,Toronto,ON,M3H5J8
ec0c3dcb4b48b8a7c507,Jasper Academy,Private,150,lesmill road,Toronto,ON,M3B2T5
ec61490a89a3f93277a3,Hudson College,Private,21,ascot ave,Toronto,ON,M6E1E6
ecc4e7d3f27678c0174b,Deer Park Junior and Senior Public School,Public,23,ferndale ave,Toronto,ON,M4T2B4
ecd8ab8c7a6f740d105a,St Ambrose Catholic School,Catholic,20,coules crt,Toronto,ON,M8W2N9
ecdfcc9649dc6530ccb7,Etobicoke School of the Arts,Public,675,royal york rd,Toronto,ON,M8Y2T1
ecf73bef4de2b42d2fad,Tumpane Public School,Public,48,tumpane st,North York,ON,M3M1L8
ed4572a5e9fc85ae290c,Vercore Business Academy,Private Institution,65,adelaide street east,Toronto,ON,M5C1K6
ed92cf7895af90b4f9dc,Brock Public School,Public,93,margueretta st,Toronto,ON,M6H3S4
ee11d4bb798832977be0,St Margaret Catholic School,Catholic,85,carmichael ave,Toronto,ON,M5M2X1
ee5f36eaf5bc7f0e6b86,Epiphany of our Lord Catholic Academy,Catholic,3150,pharmacy ave,Toronto,ON,M1W3J5
eeac417e7a23909b04fd,Institute of Canadian Education,Private,140,la rose avenue,Etobicoke,ON,M9P1B2
eebc3ed0f86529d8a156,West Hill Collegiate Institute,Public,350,morningside ave,Toronto,ON,M1E3G3
eed9413327693c4fb001,"Junior Academy, The",Private,2454,bayview avenue,Toronto,ON,M2L1A6
eeeab469183e487c78b3,Our Lady of Wisdom Catholic School,Catholic,10,japonica rd,Scarborough,ON,M1R4R7
ef4b5c3031cd5ed776fe,Kimberley Junior Public School,Public,50,swanwick ave,Toronto,ON,M4E2Z5
ef7598f0544675adff74,Bishop Macdonell Catholic School,Catholic,20,brunel crt,Toronto,ON,M5V3Y2
ef8ff8d5f19eb2521415,St Wilfrid Catholic School,Catholic,1685,finch ave w,Toronto,ON,M3J2G8
ef92658328a09d2c23a6,Perth Avenue Junior Public School,Public,14,ruskin ave,Toronto,ON,M6P3P8
efe354e3b29ec0772276,Pleasant Public School,Public,288,pleasant ave,North York,ON,M2R2R1
f04a88a7213b5fc027f4,Iroquois Junior Public School,Public,265,chartland blvd s,Scarborough,ON,M1S2S6
f071e2c2b05798d148ca,Norman Ingram Public School,Public,50,duncairn rd,North York,ON,M3B1C8
f0bdc2bd975415dd8649,Maria Montessori School Inc.,Private,125,brentcliffe road,Toronto,ON,M4G3Y7
f10ef15b1efa5c63675b,Albert Campbell Collegiate Institute,Public,1550,sandhurst circle,Toronto,ON,M1V1S6
f1140e3a61f14d161bb5,St Thomas Aquinas Catholic School,Catholic,636,glenholme ave,Toronto,ON,M6E3G9
f12998374385ecaa95bd,FH International High School,Private,670,progress avenue,Toronto,ON,M1H3A4
f13b39ae324cbecfed6f,D A Morrison Middle School,Public,271,gledhill ave,East York,ON,M4C4L2
f15a3ca403fba75969f9,St Matthew Catholic School,Catholic,18,lavender rd,Toronto,ON,M6N2B5
f1c9410c584a11569916,St Victor Catholic School,Catholic,20,bernadine st,Toronto,ON,M1P4M2
f1db9b0c89544bc32ec8,Rosethorn Junior School,Public,2,remington dr,Etobicoke,ON,M9A2J1
f1e6642162c3f42869a7,St Paul Catholic School,Catholic,80,sackville st,Toronto,ON,M5A3E5
f1f6d05a85b62e6d79e4,Central Technical School,Public,725,bathurst st,Toronto,ON,M5S2R5
f2081666538490ef4869,Hodgson Middle School,Public,282,davisville ave,Toronto,ON,M4S1H2
f2ade800b76a74c51d7f,CALC Secondary School,Public,1,danforth ave,Toronto,ON,M4K1M8
f2e44e2603431afafe02,Highfield Junior School,Public,85,mount olive dr,Etobicoke,ON,M9V2C9
f318d9625f8121e98eb0,Three Valleys Public School,Public,76,three valleys dr,North York,ON,M3A3B7
f393d8b7edd8fa983fdb,Eglinton Junior Public School,Public,223,eglinton ave e,Toronto,ON,M4P1L1
f3a403ec0ef8a1e1232a,Mountview Alternative School School,Public,99,mountview ave,Toronto,ON,M6P2L5
f3cb78f9bf5da67e7fd1,École élémentaire Charles-Sauriol,Public,55,pelham avenue,Toronto,ON,M6N1A5
f3d2139d4c832840fecb,Duke of Connaught Junior and Senior Public School,Public,70,woodfield rd,Toronto,ON,M4L2W6
f3d3bad421f5ca1f4211,Briarcrest Junior School,Public,60,wellesworth dr,Etobicoke,ON,M9C4R3
f427da78bc6243d22681,École élémentaire Mathieu-da-Costa,Public,116,cornelius parkway,North York,ON,M6L2K5
f43147d7c8c9dc9f3e65,Canadian Business College,Private Institution,2,bloor street west,Toronto,ON,M4W3E2
