Index,Facility_Name,Facility_Type,Street_No,Street_Name,City,Prov_Terr,Postal_Code
529e3bd2bf9924323891,Birch Cliff Public School,Public,1650,kingston rd,Scarborough,ON,M1N1S2
53144021a3189a9e287c,Fieldstone King's College School,Private,2999,dufferin street,Toronto,ON,M6B3T4
5314e03057db3bd2ded3,Lord Roberts Junior Public School,Public,165,lord roberts dr,Scarborough,ON,M1K3W5
5317cd235314477b9f35,ÉÉC Saint-Noël-Chabanel-Toronto,Catholic,30,thistle down boulevard,Etobicoke,ON,M9V1H8
533ea4d94c112c104eb8,Marshall McLuhan Catholic Secondary School,Catholic,1107,avenue rd,Toronto,ON,M5N3B1
53a36d30b1e5673b6e4f,Higher Marks Educational Institute,Private,87,thornmount drive,Scarborough,ON,M1B5S5
53dbb02623f973b71800,Parkdale Collegiate Institute,Public,209,jameson ave,Toronto,ON,M6K2Y3
5429864cfbd71f442b0f,Bayview Glen,Private,85,moatfield dr,Toronto,ON,M3B3L6
548fe72e39b27f16638a,St Elizabeth Seton Catholic School,Catholic,25,havenview rd,Toronto,ON,M1S3A4
549b3b2e6896b3ce25e1,Norman Cook Junior Public School,Public,725,danforth rd,Scarborough,ON,M1K1G4
54b38cf90b874642f089,Danforth Gardens Public School,Public,20,santamonica blvd,Scarborough,ON,M1L4H4
54d9d71113aa25327394,Our Lady of the Assumption Catholic School,Catholic,125,glenmount ave,Toronto,ON,M6B3C2
54efc0761cfbeb9532c2,Regal Road Junior Public School,Public,95,regal rd,Toronto,ON,M6H2J6
552dc3303850f43b5840,Immaculate Conception Catholic School,Catholic,23,comay rd,Toronto,ON,M6M2K9
55445f30b64f0ff76dd1,Donwood Park Public School,Public,61,dorcot ave,Scarborough,ON,M1P3K5
555062ec78bb61b0d7fb,Yorkville University-Dundas,Private Institution,10,dundas st east,Toronto,ON,M5B2G9
557a141bb8267b6ba96b,Career College Group Medix-Scarborough,Private Institution,2130,lawrence avenue east,Scarborough- On,ON,M1R3A6
55ef95526244cc536d26,Shiridi Sai School of Canada,Private,2701,markham road,Scarborough,ON,M1X1M4
56298cb4196c98c54f98,Canada Agile Preparatory Academy,Private,184,steeles avenue east,Markham,ON,L3T1A5
5652f0fc3c5fa37b98aa,St Robert Catholic School,Catholic,70,bainbridge ave,NORTH YORK,ON,M3H2K2
565f94ac26b3fd6fa84e,Valley Park Middle School,Public,130,overlea blvd,East York,ON,M3C1B2
56bbf21d2f2dbaf53fa8,Alvin Curling Public School,Public,50,upper rouge trail,Scarborough,ON,M1B6K4
56c4744c9342c88c9bae,École élémentaire Félix-Leclerc,Public,50,celestine promenade,Etobicoke,ON,M9R3N3
56ca36f08742bc0f66e0,St Fidelis Catholic School,Catholic,9,bannerman st,Toronto,ON,M6L2S5
570c6233d934d13058d2,Runnymede Collegiate Institute,Public,569,jane st,Toronto,ON,M6S4A3
575828b5850926ce9d34,Alexmuir Junior Public School,Public,95,alexmuir blvd,Scarborough,ON,M1V1H6
57a5cea4e9d70426ac00,Kesser Yosef,Private,10,bainbridge avenue,Toronto,ON,M3H2J7
57ceac20cc965d065513,King Edward Junior and Senior Public School,Public,112,lippincott st,Toronto,ON,M5S2P1
57f8f90ef04df5d09961,Beverly Glen Junior Public School,Public,85,beverly glen blvd,Scarborough,ON,M1W1W4
58148ef4eb6c54495c2e,North York Academy,Private,155,consumers road,Toronto,ON,M2J0A3
581a3e7370ab4452ae3f,Yeshiva Bnei Zion of Toronto,Private,44,champlain blvd,Toronto,ON,M3H2Z1
58384c0a05a56be61f00,The Orchard Montessori School Ltd. (Elem,Private,375,dovercourt road,Toronto,ON,M6J3E5
585cc02f1110b1405c71,St Malachy Catholic School,Catholic,80,bennett rd,Toronto,ON,M1E3Y3
5860e529a7e1815c7043,Institute for Christian Studies,Private Institution,229,college st,Toronto,ON,M5T1R4
589863c14d1dd3693989,St Monica Catholic School,Catholic,14,broadway ave,Toronto,ON,M4P1T4
58a7ef7c2373eefdfae4,Winston Churchill Collegiate Institute,Public,2239,lawrence ave e,Toronto,ON,M1P2P7
58bd3774b705bb8685b2,Stanford International College of Business & Technology,Junior College,25,scarsdale rd units 8 & 9,Toronto,ON,M3B2R2
58c024d838c72bcd31d6,Elite Academy,Private,100,tempo avenue,Toronto,ON,M2H2N8
58c03dc121de57fe3fae,St John the Evangelist Catholic School,Catholic,23,george street,Weston,ON,M9N2B4
58e074394c03ab37b587,Norway Junior Public School,Public,390,kingston road,Toronto,ON,M4L1T9
59328d64b79bed0b9707,Berner Trail Junior Public School,Public,120,berner trail,Toronto,ON,M1B1B3
59353e7c46866500eff2,AIM Academy,Private,56,boustead avenue,Toronto,ON,M6R1Y9
59545ff3dc4a4d3e3402,Cedarvale Community School,Public,145,ava rd,York,ON,M6C1W4
59defd584c0ef113670e,Native Learning Centre East,Public,145,guildwood parkway,Scarborough,ON,M1E1P5
5a12324d221f87838acf,Our Lady of Grace Catholic School,Catholic,121,brimwood blvd,Toronto,ON,M1V1E5
5a2b8afa98af6afd5e3b,Dennis Avenue Community School,Public,17,dennis ave,York,ON,M6N2T7
5a9145bfad70af8a5d36,Holy Spirit Catholic School,Catholic,3530,sheppard ave e,Toronto,ON,M1T3K7
5ac8ccb76f27133adbe2,Sunnybrook,Private,469,merton st,Toronto,ON,M4S1B4
5b254a055e1a422dde62,Thistletown Collegiate Institute,Public,20,fordwich cres,Toronto,ON,M9W2T4
