Index,Facility_Name,Facility_Type,Street_No,Street_Name,City,Prov_Terr,Postal_Code
9fad3e44632610036483,Indian Road Crescent Junior Public School,Public,285,indian road cres,Toronto,ON,M6P2G8
9fc0749567298be8e579,Noori Islamic Institute,Private,100,rexdale blvd,Etobicoke,ON,M9W1N7
9fc4ebc12ad359078c45,Don Mills Collegiate Institute,Public,15,the donway e,North York,ON,M3C1X6
a01d3e8ff377b176cf86,George R Gauld Junior School,Public,200,melrose st,Etobicoke,ON,M8Y1B7
a0206a38bf6216345885,Adler Centre for Learning,Private Institution,890,yonge st,Toronto,ON,M4W3P4
a032041e9de131d837d7,Prime Academy,Private,2154,yonge street,Toronto,ON,M4S2A8
a039a4c55c089cf346ba,Online School Canada,Private,250,consumers rd,Toronto,ON,M2J4R4
a03ffb41127c59e99056,William G Davis Junior Public School,Public,128,east ave,Scarborough,ON,M1C3L6
a05918594e048f0ddd69,Rosedale Heights School of the Arts,Public,711,bloor st e,Toronto,ON,M4W1J4
a06af2df4ad2059dc3bd,George Peck Public School,Public,1,wayne ave,Scarborough,ON,M1R1Y1
a0a7a71e0d977f8d9df9,Williamson Road Junior Public School,Public,24,williamson rd,Toronto,ON,M4E1K5
a0afad51f1bbacd064d8,Toronto School of Traditional Chinese Medicine,Private Institution,700,lawrence ave w,Toronto,ON,M6A3B4
a0f2c379b7fed94d2e83,Oak Learners,Private,394,royal york road,Etobicoke,ON,M8V3B8
a114002ca5f1693ee966,Queen Alexandra Middle School,Public,181,broadview ave,Toronto,ON,M4M2G3
a13bbc62f3bf914cd510,Ontario International College,Private,501,consumers road,North York,ON,M2J5E2
a1634cc880780405520b,Richview Collegiate Institute,Public,1738,islington ave,Etobicoke,ON,M9A3N2
a175c9fa6cc5bfcaa588,Voice Integrative Private School,Private,50,gristmill lane,Toronto,ON,M5A3C4
a23a930090ce3928e626,Our Lady of Fatima Catholic School,Catholic,3176,st clair ave e,Toronto,ON,M1L1V6
a256afce2c0ee11381b4,Neil McNeil High School,Catholic,127,victoria park ave,Toronto,ON,M4E3S2
a26ee4a8c2f16c35f5e3,Toronto Berkshire Academy,Private,3550,victoria park avenue,Toronto,ON,M2H2N5
a294599be4812673334a,Signet Christian Private School,Private,675,sheppard ave east,North York,ON,M2K1B6
a2c542dbfa49e65b5a11,Greenholme Junior Middle School,Public,10,jamestown cres,Etobicoke,ON,M9V3M5
a2f004133c3573fd08b2,Enquiring Minds Montessori School,Private,24,progress avenue,Toronto,ON,M1P2Y4
a338987237901e1c0e60,Ionview Public School,Public,90,ionview rd,Scarborough,ON,M1K2Z9
a33c6cdd981a8fe9e86d,Woodbine Middle School,Public,2900,don mills rd,Toronto,ON,M2J3B6
a349590a321f82fcf36a,North Agincourt Junior Public School,Public,60,moran rd,Scarborough,ON,M1S2J3
a34ccd6a98e5846d61f5,General Mercer Junior Public School,Public,30,turnberry ave,Toronto,ON,M6N1P8
a358af2b97bd1d3cd2c1,Bethune Memorial School,Private,3000,lawrence avenue east,Toronto,ON,M1P2V1
a38240362ef31cf0cd25,Cedarbrook Public School,Public,56,nelson st,Scarborough,ON,M1J2V6
a3e36278fd35e0868819,"Abelard Centre for Education, The",Private,557,church street,Toronto,ON,M4Y2E2
a3f3b1452ca5cf4ee3b3,St Bernard Catholic School,Catholic,12,duckworth st,Toronto,ON,M6M4W4
a3f7297c2b83da82957d,Albion Heights Junior Middle School,Public,45,lynmont rd,Etobicoke,ON,M9V3W9
a4514441c4644aa35fe9,Salaheddin Islamic School,Private,741,kennedy road,Scarborough,ON,M1K2C6
a484e27cf549e0e7bfdd,Cardinal Carter Academy for the Arts,Catholic,36,greenfield ave,Toronto,ON,M2N3C8
a4c485d6b768bf1c953f,Our Lady of Victory Catholic School,Catholic,70,guestville ave,Toronto,ON,M6N4N3
a4d213cfa8d9ce848bf8,Gosford Public School,Public,30,gosford blvd,North York,ON,M3N2G8
a4f1ca4140d6cc2ce9be,Three Fishes Christian Elementary School,Private,1160,bellamy rd n,Toronto,ON,M1H2X4
a50c5d3d3888d99228e9,Annette Street Junior and Senior Public School,Public,265,annette st,Toronto,ON,M6P1R3
a55823d74bef4cc12822,St Maria Goretti Catholic School,Catholic,21,kenmark blvd,Toronto,ON,M1K3N8
a5c0dfc5611da1a5663a,St Joseph's College School,Catholic,74,wellesley st w,Toronto,ON,M5S1C4
a5da60538d4e19e35979,CaST School,Private,720,bathurst street,Toronto,ON,M5S2R4
a656cd9ee15abf5c5af7,Glen Briar Academy,Private,210,wilson avenue,Toronto,ON,M5M3B1
a65f7e5eab8d9a40eeca,St Ursula Catholic School,Catholic,215,livingston rd,Toronto,ON,M1E1L8
a68de753641158e05e31,St Josaphat Catholic School,Catholic,110,tenth street,Toronto,ON,M8V3G1
a69e116cd05de6a61c03,C D Farquharson Junior Public School,Public,1965,brimley rd,Scarborough,ON,M1S2B1
a6bcc277894891f648e1,Willowdale Christian School,Private,60,hilda ave,North York,ON,M2M1V5
a6db66c4f2970845d29a,Bond Academy,Private,1500,birchmount road,Toronto,ON,M1P2G5
a71dca4a65773b70d80f,CareerQuest - Toronto,Private,129,yorkville avenue,Toronto,ON,M5R1C4
a72066a1dbce6e4bad8f,Trios College Business- Technology- & Healthcare Inc.,Private Institution,425,bloor street east,Toronto,ON,M4W3R4
