Index,Facility_Name,Facility_Type,Street_No,Street_Name,City,Prov_Terr,Postal_Code
499e72a9efd43453aaac,Rene Gordon Health and Wellness Academy,Public,20,karen rd,North York,ON,M3A3L6
49a8fa14b188c7be6a80,Malvern Collegiate Institute,Public,55,malvern ave,Toronto,ON,M4E3E4
4a16f3b61c91cf7d2d27,Amberson College,Private,3470,pharmacy avenue,Toronto,ON,M1W2S7
4a17dc448e1e6a843c3f,Pelmo Park Public School,Public,180,gary dr,North York,ON,M9N2M1
4a29f5de0bd75e6f4f81,Smithfield Middle School,Public,175,mount olive dr,Etobicoke,ON,M9V2E3
4a6cd6d833f6185ee7e1,Dublin Heights Elementary and Middle School,Public,100,bainbridge ave,North York,ON,M3H2K2
4a71254dfd2a501bafe8,Tecumseh Senior Public School,Public,720,scarborough golf club rd,Scarborough,ON,M1G1H7
4b33e997dcec23447290,Ancaster Public School,Public,44,ancaster rd,North York,ON,M3K1S6
4b44dfd78aa13ab1a2ce,C/J Health Care Support College - Scarborough,Private Institution,1371,neilson road,Scarborough,ON,M1B4Z8
4b714b2f01ecf3a631bf,The Holy Trinity Catholic School,Catholic,6,colonel samuel smith park drive,Toronto,ON,M8V4B7
4b7b6230d378c3c124a0,Buchanan Public School,Public,4,bucannan rd,Scarborough,ON,M1R3V3
4b82c4361fd8fbde71fc,Aveda Institute Toronto,Private Institution,125,king st e,Toronto,ON,M5C1G6
4b8c013ba8ad56ba9a55,Francis Libermann Catholic High School,Catholic,4640,finch ave e,Toronto,ON,M1S4G2
4b92113a076aea5de139,SEED Alternative School,Public,885,dundas st e,Toronto,ON,M4M1R4
4bae16eb40e8cea8121d,L'Amoreaux Collegiate Institute,Public,2501,bridletowne circle,Agincourt,ON,M1W2K1
4bb9980499ef8b7d39a7,St Rose of Lima Catholic School,Catholic,3220,lawrence ave e,Toronto,ON,M1H1A4
4c37afce6fd8ac506f08,Niagara University-Toronto,Private Institution,319,ossington ave,Toronto,ON,M6J3A6
4c97d6c407663b5263ea,Monsignor Percy Johnson Catholic High School,Catholic,2170,kipling ave,Toronto,ON,M9W4K9
4c9c7b365604eb733639,John A Leslie Public School,Public,459,midland ave,Scarborough,ON,M1N4A7
4ca6b11ac48b9a803e0f,Brebeuf College School,Catholic,211,steeles ave e,Toronto,ON,M2M3Y6
4d0bad67815d768d2ed1,Madresatul Banaat Almuslimaat,Private,10,vulcan st,Etobicoke,ON,M9W1L2
4d3be671d1333e4a619d,Dora Education Centre,Private,3333,bayview avenue,Toronto,ON,M2K1G4
4e26edf22df91b0971c7,Guildwood Junior Public School,Public,225,livingston rd,Scarborough,ON,M1E1L8
4e88f3f716dd32c76706,Charles H Best Junior and Middle School,Public,285,wilmington ave,North York,ON,M3H5K8
4ec0e4c7d1bfa372c860,Ellesmere Montessori School Inc,Private,37,marchington circle,Scarborough,ON,M1R3M6
4ecfa8dd693382b61c75,Academy of Learning-Scarborough,Private Institution,3585,lawrence avenue east,Scarborough,ON,M1G1P4
4ee512d53a54734da717,St Edward Catholic School,Catholic,1,botham rd,Toronto,ON,M2N2J6
4f16d1723e16536b81f9,Acad√©mie Alexandre-Dumas,Public,255,coronation promenade,Scarborough,ON,M1E2J3
4f1eef6c2af45179e31a,Yeshivas Nachalas ZVI,Private,475,lawrence ave w,Toronto,ON,M5M1C6
4f2194339eaa8f85fdb7,George Webster Elementary School,Public,50,chapman avenue,East York,ON,M4B1C5
4f36885affa2189d49e6,Brown Junior Public School,Public,454,avenue rd,Toronto,ON,M4V2J1
4faa31592672dbe0e950,North East Year Round Alternative Centre,Public,2900,don mills rd,Toronto,ON,M2J3B6
4fc546e090ffaf6ea53b,Tiferes Bais Yaakov High School,Private,85,stormont avenue,Toronto,ON,M5N2C3
4fee934915a29fe893c1,Warren Park Junior Public School,Public,135,varsity rd,York,ON,M6S4P4
4ffa5705ee5f657c0e2a,George Harvey Collegiate Institute,Public,1700,keele st,Toronto,ON,M6M3W5
4ffb692306515214e02e,Petre College,Private,3359,yonge st,TORONTO,ON,M4N2M6
50b037ac3ee565e5a69d,Kensington Community School School Junior,Public,401,college st,Toronto,ON,M5T1S9
50cb2682ad0c9ff6a082,Sacred Heart Catholic School,Catholic,75,hupfield trail,Toronto,ON,M1B4S3
51030d85c0fc7212ce4a,Mason Road Junior Public School,Public,78,mason rd,Scarborough,ON,M1M3R2
510fc28674466cfb6ca0,Spectrum Alternative Senior School,Public,529,vaughan road,York,ON,M6C2R1
51296559984483762b46,"Dunblaine School, The",Private,21,deloraine ave,Toronto,ON,M5M2A8
5152acee6963d3c03d5c,Rouge Valley Public School,Public,30,durnford rd,Scarborough,ON,M1B4X3
51903b091c52f7b2e7ea,Lord Dufferin Junior and Senior Public School,Public,350,parliament st,Toronto,ON,M5A2Z7
519553df74d511628394,East York Collegiate Institute,Public,650,cosburn ave,East York,ON,M4C2V2
51ce6292be111937f65c,St Denis Catholic School,Catholic,67,balsam ave,Toronto,ON,M4E3B8
51cffcf89a86878471b9,Unique Chinese School - 2,Private,3143,sheppard avenue east,Scarborough,ON,M1T3J7
51e4159014a53e5056fe,Associated Hebrew Schools of Toronto,Private,252,finch ave w,Toronto,ON,M2R1M9
52438902a156d57e3c9a,St Jane Frances Catholic School,Catholic,2745,jane st,North York,ON,M3L2E8
52820e68000184f10011,Dundas Junior Public School,Public,935,dundas st e,Toronto,ON,M4M1R4
