Index,Facility_Name,Facility_Type,Street_No,Street_Name,City,Prov_Terr,Postal_Code
78aa90aae92b7e115f13,ÉÉC Saint-Jean-de-Lalande,Catholic,500,sandhurst cercle,Toronto,ON,M1S3Y7
78f5f5f4275d605cdeb8,Port Royal Public School,Public,408,port royal trail,Scarborough,ON,M1V4R1
7a097edb39fb23a67d70,da Vinci School,Public,33,robert street,Toronto,ON,M5S2K2
7a134f227c2d0950a115,Msgr Fraser-Midland,Catholic,2900,midland ave,Toronto,ON,M1S3K8
7a14df6f88c95d0c40ae,Subway Academy II,Public,64,baldwin st,Toronto,ON,M5T1L4
7a41275d67a9ef37f485,Burrows Hall Junior Public School,Public,151,burrows hall blvd,Scarborough,ON,M1B1M5
7a636868bfe0024793aa,Ellington Montessori School,Private,40,cowdray court,Scarborough,ON,M1S1A1
7ae47e08975043efa35f,Taddle Creek Montessori School,Private,39,spadina rd,TORONTO,ON,M5R2S9
7b2785ce9c905dfbe74b,St Helen Catholic School,Catholic,1196,college st,Toronto,ON,M6H1B8
7b820b3a10a4a0589a49,Al Haadi (9828770 Canada Institute),Private,690,progress avenue,Scarborough,ON,M1H3A6
7bd0c1117a1da9ee51d7,West Preparatory Junior Public School,Public,70,ridge hill dr,Toronto,ON,M6C2J6
7be3116aa444d214040c,James Cardinal McGuigan Catholic High School,Catholic,1440,finch ave w,Toronto,ON,M3J3G3
7be93fb728ea611c5c1f,Brookmill Boulevard Junior Public School,Public,25,brookmill blvd,Scarborough,ON,M1W2L5
7c6c8117b66911b651c5,Knob Hill Public School,Public,25,seminole ave,Scarborough,ON,M1J1M8
7cb4c627c9f5a11d3ed3,Tredway Woodsworth Public School,Public,112,sedgemount dr,Scarborough,ON,M1H1X9
7d0ef871a03b304fde20,Karen Kain School of the Arts,Public,60,berl ave,Etobicoke,ON,M8Y3C7
7d2925a8b8b8eda235cb,Blessed Margherita of Citta Castello Catholic School,Catholic,108,spenvalley dr,Toronto,ON,M3L1Z5
7da18ec4059a6825961a,Harrison Public School,Public,81,harrison rd,North York,ON,M2L1V9
7db31cae08cab0430a1d,North Kipling Junior Middle School,Public,2,rowntree rd,Etobicoke,ON,M9V5C7
7e0e547c4e175e337372,Polaris Learning Centre,Private,1560,bayview ave,TORONTO,ON,M4G3B8
7e8bab7537accf3c1564,UT Preparatory Academy,Private,205,sparks avenue,Toronto,ON,M2H2S5
7ece1dfd547b33f5b7db,Great Oaks Secondary School,Private,225,sparks avenue,Toronto,ON,M2H2S5
7edc6694c4bc9f60049a,Timberbank Junior Public School,Public,170,timberbank blvd,Scarborough,ON,M1W2A3
7eea3ef99468423a9003,Central Montessori Schools,Private,157,willowdale ave,Toronto,ON,M2N4Y3
7fb2250168cfac1baa5c,Canadian All Care College,Private Institution,4630,dufferin st,Toronto,ON,M3H5S4
7fc37ae039e5ce8e623c,Immaculate Heart of Mary Catholic School,Catholic,101,birchmount rd,Toronto,ON,M1N3J7
7fcac44541cfafc96528,Sir William Osler High School,Public,1050,huntingwood dr,Toronto,ON,M1S3H5
7fd5c91117c356a8ad5b,Jack Miner Senior Public School,Public,405,guildwood pkwy,Scarborough,ON,M1E1R3
8043dad1fab988c4115b,James Culnan Catholic School,Catholic,605,willard ave,Toronto,ON,M6S3S1
8067e919eb88b210eb39,CJ Health Care College,Private Institution,1123,albion rd l101,Toronto,ON,M9V1A9
80716d496b1a00cf3be8,Palmerston Avenue Junior Public School,Public,734,palmerston ave,Toronto,ON,M6G2R4
80b0918dbb4dc2af505f,Armour Heights Public School,Public,148,wilson ave,North York,ON,M5M3A5
80b136b64f1a4866c630,"Linden School, The",Private,10,rosehill ave,Toronto,ON,M4T1G5
80b4fb470c0679dc4076,Clinton International College,Private,1,elmhurst avenue,Toronto,ON,M2N1R3
80e7f852b05992501213,St Mother Teresa Catholic Academy Secondary School,Catholic,40,sewells rd,Toronto,ON,M1B3G5
8149c7295cfa5b6336aa,Great Lakes Online Academy,Private,323,keeke street,Toronto,ON,M6P2K6
81d1cc4c6ed86a6cf10c,Native Learning Centre,Public,83,alexander st,Toronto,ON,M4Y1B7
81d6962e46b58481cecb,Calico Public School,Public,35,calico dr,North York,ON,M3L1V5
81e14442b5f656302e08,Bridlewood Junior Public School,Public,60,bridlewood blvd,Scarborough,ON,M1T1P7
8249e4e9c35b08a4dc3c,Sir Oliver Mowat Collegiate Institute,Public,5400,lawrence ave e,Toronto,ON,M1C2C6
82b37d6b5c4fa5f82ab3,King's College Preparatory School Canada,Private,40,carl hall road,Toronto,ON,M3K2C1
82bfd4c5ce1e84286a8f,John McCrae Public School,Public,431,mccowan rd,Scarborough,ON,M1J1J1
8317abe835b518837660,Avalon Children's Montessori School,Private,2181,queen street east,Toronto,ON,M4E1E5
83277dc88b71240ec3b0,Queen's Elite Academy of Canada,Private,3650,victoria park avenue,Toronto,ON,M2H3B2
8328d1dd44ed97d6d7a3,Elizabeth Simcoe Junior Public School,Public,166,sylvan ave,Scarborough,ON,M1E1A3
834b81d57be91fe0bc26,Contact Alternative School School,Public,132,saint patrick st,Toronto,ON,M5T1V1
835d5dc636830341cd8b,Uchenna Academy,Private,1205,st. clair avenue west,Toronto,ON,M6E1B5
835d9287878747f55ba1,Yorkdale Secondary School,Public,38,orfus rd,Toronto,ON,M6A1L6
83c133931ed46399e246,Humberwood Downs Junior Middle Academy,Public,850,humberwood blvd,Etobicoke,ON,M9W7A6
