Index,Facility_Name,Facility_Type,Street_No,Street_Name,City,Prov_Terr,Postal_Code
09337989ea201900f017,Carleton Village Junior and Senior Public School,Public,315,osler st,Toronto,ON,M6N2Z4
09410fe8d570cdfae1cc,Hanson High School,Private,36,eglinton avenue west,Toronto,ON,M4R1A1
09593a16d6aaf5a0f7fe,Westminster Classical Christian Academy,Private,9,hewitt avenue,Toronto,ON,M6R1Y4
09b830eb25d7c4796c2d,Ryerson Community School Junior Senior,Public,96,denison ave,Toronto,ON,M5T1E4
09bc6777e7d4949dbf44,Sprucecourt Junior Public School,Public,70,spruce st,Toronto,ON,M5A2J1
09d77bb0c32bf3eea202,Centennial College,Technical and Vocational,,,Scarborough,ON,M1K5E9
0a3ad261870df9da5db9,Blantyre Public School,Public,290,blantyre ave,Scarborough,ON,M1N2S4
0a62a7cda2ef833fcc06,Jean Lumb Public School,Public,20,brunel ct,Toronto,ON,M5V0R5
0a644eca137bad355c95,Computek College of Business Healthcare & Technology,Private Institution,2425,eglinton ave. e.,Toronto,ON,M1K5G8
0a7eea09580e985e3ed2,Maryvale Public School,Public,1325,pharmacy ave,Scarborough,ON,M1R2J1
0abd0e03a1c34011550c,Fairbank Public School,Public,2335,dufferin st,York,ON,M6E3S5
0b20bc6ad79adcd31aac,St Andrew Catholic School,Catholic,2533,kipling ave,Toronto,ON,M9V3A8
0b51ac62978990b8f276,Father Serra Catholic School,Catholic,111,sun row dr,Toronto,ON,M9P3J3
0be716b095397f809813,Lester B Pearson Elementary School,Public,7,snowcrest ave,Toronto,ON,M2K2K5
0c3009e4c7567b0b862c,Children's Garden Junior School,Private,670,eglinton ave e,Toronto,ON,M4G2K4
0c6f68ada378e8c156e7,Grenoble Public School,Public,9,grenoble dr,Toronto,ON,M3C1C3
0c82ee0b6405fe46c7bf,Toronto Institute of Pharmaceutical Technology,Private Institution,55,town centre court,Scarborough,ON,M1P4X4
0c984341d4b9400c25a5,Pauline Junior Public School,Public,100,pauline ave,Toronto,ON,M6H3M8
0caa299ee0fb1ea60c80,Adel Academic High School,Private,396,spring garden avenue,North York,ON,M2N3H5
0cfb49c01eb449f73643,ÉÉC Sainte-Marguerite-d'Youville,Catholic,755,royal york chemin,Toronto,ON,M8Y2T3
0d1bdd57ad49a44ac645,Kipling Collegiate Institute,Public,380,the westway,Etobicoke,ON,M9R1H4
0dc2ba6850350b34ccad,Lamberton Public School,Public,33,lamberton blvd,North York,ON,M3J1G6
0dd9939b69f5fc65f8d8,Broadlands Public School,Public,106,broadlands blvd,North York,ON,M3A1J7
0dd9c22e07f5288b2ca9,St Leo Catholic School,Catholic,165,stanley ave,Toronto,ON,M8V1P1
0dff62ec0b0e12587816,"Giles School, The",Private,80,scarsdale rd,Toronto,ON,M3B2R7
0e05e48398482dce4285,Glen Ravine Junior Public School,Public,11,gadsby dr,Scarborough,ON,M1K4V4
0e59944aae1bbca8e5de,Canadian School of Private Investigation & Security,Private Institution,2828,dufferin str.,Toronto,ON,M6B3S3
0e5d760fc37773ec2c05,Secord Elementary School,Public,101,barrington ave,East York,ON,M4C4Y9
0e68632443fb343d3fee,Madina Academy,Private,2680,lawrence avenue east,Scarborough,ON,M1P4Y4
0e95c537799a830466c7,Alternative Scarborough Education 1,Public,60,brimortondr,Scarborough,ON,M1P3Z1
0eef34fc5f9a1d4597a6,Hillcrest Community School,Public,44,hilton ave,Toronto,ON,M5R3E6
0ef5e668385963abb029,William Burgess Elementary School,Public,100,torrens ave,East York,ON,M4J2P5
0f5a3acf393476c64e47,Clinton Street Junior Public School,Public,460,manning ave,Toronto,ON,M6G2V7
0f77bb9a649695fb63ea,St Francis de Sales Catholic School,Catholic,333,firgrove cres,Toronto,ON,M3N1K9
0f8a93b2da85225824e8,CANNY,Private,250,consumers road,Toronto,ON,M2J4V6
0f954acee7fdcc892ba7,Kingslake Public School,Public,90,kingslake rd,North York,ON,M2J3E8
0ff903b53164394b866f,Blyth Academy Etobicoke,Private,2489,bloor street west,Etobicoke,ON,M6S1R6
0ffc89c9c721294161ca,St Gabriel Lalemant Catholic School,Catholic,160,crow trail,Toronto,ON,M1B1Y3
106772829ed94343b5a7,Canada Syringa International College,Private,3550,victoria park avenue,North York,ON,M2H2N5
1072227c3921141f55ea,Humewood Community School,Public,15,cherrywood ave,York,ON,M6C2X4
10ca15c7f28adcc39862,DataWiz Academy,Private,2855,markham road,Scarborough,ON,M1X0C3
10cb83ba40e9acccb90e,Blue Gene Education,Private,11a,glen watford drive,Scarborough,ON,M1S2B8
10d7c65ea9bb0c7514a6,Weston Memorial Junior Public School,Public,200,john st,York,ON,M9N1K2
113513f722a76a17f74f,Harwood Public School,Public,50,leigh st,York,ON,M6N3X3
1144c30be730f409bc85,Vradenburg Junior Public School,Public,50,vradenberg dr,Scarborough,ON,M1T1M6
1182d1c09a0f464ac058,St Clare Catholic School,Catholic,124,northcliffe blvd,Toronto,ON,M6E3K4
119fe1eb2885541159f6,Danforth Collegiate Institute and Technical School,Public,800,greenwood ave,Toronto,ON,M4J4B7
121511241e7c39d06ea9,C W Jefferys Collegiate Institute,Public,340,sentinel rd,North York,ON,M3J1T9
122c169bb45c4155b833,Niagara Street Junior Public School,Public,222,niagara st,Toronto,ON,M6J2L3
