Index,Facility_Name,Facility_Type,Street_No,Street_Name,City,Prov_Terr,Postal_Code
c820911403be73daa891,Crescent Town Elementary School,Public,4,massey square,East York,ON,M4C5M9
c840ab4d1381739e96fd,Subway Academy I,Public,16,phin ave,Toronto,ON,M4J3T2
c87be7b78242b33ff64b,Unique Chinese School - 1,Private,4271,sheppard avenue east,Scarborough,ON,M1S4G4
c8b4a91d88ba764deb00,Fairglen Junior Public School,Public,2200,pharmacy ave,Scarborough,ON,M1W1H8
c8cbc852fdcc33f698b3,Ernest Public School,Public,150,cherokee blvd,North York,ON,M2J4A4
c956b8d101cfb51d1c2f,McDonald International Academy,Private,920,yonge st,Toronto,ON,M4W3C7
c98eb71126707118f7b0,St Catherine Catholic School,Catholic,30,roanoke rd,Toronto,ON,M3A1E9
ca41446198e0a6e50de2,Park Lane Public School,Public,60,park lane cir,North York,ON,M3C2N2
ca421de1003388489818,Canada's National Ballet,Private,400,jarvis st,Toronto,ON,M4Y2G6
ca8646ffa787da0316be,Canada International College,Private,2347,kennedy rd,Toronto,ON,M1T3T8
ca9f876a449a6c971a1e,Northview Heights Secondary School,Public,550,finch ave w,Toronto,ON,M2R1N6
caa50899d097ad56b93e,Parkside Elementary School,Public,401,cedarvale ave,East York,ON,M4C4K7
cad166ff1c7b910b5b16,Great Lyn International Academy,Private,4789,yonge street,North York,ON,M2N0G3
cae574362cd43fbaab90,Jean Vanier Catholic Secondary School,Catholic,959,midland ave,Toronto,ON,M1K4G4
cb1c2ba4a45a54220a16,Drewry Secondary School,Public,70,drewry ave,North York,ON,M2M1C8
cc504bd9124e369b318b,St Aidan Catholic School,Catholic,3521,finch ave e,Toronto,ON,M1W2S2
cc6a22bf86d4146a9e3a,H J Alexander Community School,Public,30,king st,York,ON,M9N1K9
cc8ace243bfd778efc3a,St Bruno/St. Raymond Catholic School,Catholic,402,melita cres,Toronto,ON,M6G3X6
ccb28e4e80d305d3a6e6,Norseman Junior Middle School,Public,105,norseman st,Etobicoke,ON,M8Z2R1
ccb5046dac1f8bc01af2,Crestwood School,Private,411,lawrence ave. e,Toronto,ON,M3C1N9
ccbefec8e02705cc1573,Glen Park Public School,Public,101,englemount ave,North York,ON,M6B4L5
ccd1da33a643afd984cd,Victoria Park Elementary School,Public,145,tiago ave,East York,ON,M4B2A6
ccff2b06e01094809c39,Keelesdale Junior Public School,Public,200,bicknell ave,York,ON,M6M4G9
cd6f3f8dbd52322590c6,Shoreham Public School,Public,31,shoreham dr,North York,ON,M3N2S6
cd7048544cfeb1a657fe,Al-Azhar Academy of Canada,Private,2074,kipling ave,Etobicoke,ON,M9W4J4
cd76b840c53237cd098c,Hollycrest Middle School,Public,630,renforth dr,Etobicoke,ON,M9C2N6
cdf6c274c34e63be3129,Greenwood Secondary School,Public,800,greenwood avenue,Toronto,ON,M4J4B7
ce12d01a56f1754eff97,O'Connor Public School,Public,1665,o'connor dr,North York,ON,M4A1W5
ce59d7d67f764ac86eb5,St Clement's School,Private,21,st. clements ave,Toronto,ON,M4R1G8
ce5b8c14db387dd31ac5,Alathena International Academy,Private,1065,mcnicoll ave,SCARBOROUGH,ON,M1W3W6
cea7a5a64f50534fec16,Ogden Junior Public School,Public,33,phoebe st,Toronto,ON,M5T1A8
ceb1ec28c678464d9c5f,ETON Academy,Private,222,sheppard avenue east,Toronto,ON,M2N3A9
cee49295266163fe75c0,Elite High School,Private,4750,yonge street,North York,ON,M2N0J6
cefc166bc194c5f4f728,South East Year Round Alternative Centre,Public,720,midland avenue,Toronto,ON,M1K4C9
cf4f5a78ff6202917f88,Toronto French School,Private,306,lawrence ave e,Toronto,ON,M4N1T7
cf51b90668c65ed090fa,Bedford Park Public School,Public,81,ranleigh ave,Toronto,ON,M4N1X2
cf54b254dbd26774604d,Father Henry Carr Catholic Secondary School,Catholic,1760,martin grove road,Toronto,ON,M9V3S4
cf747b7041ea244437c2,St John Paul II Catholic Secondary School,Catholic,685,military trail,Toronto,ON,M1E4P6
cf7855174a809c7abed5,Princess Margaret Junior School,Public,65,tromley dr,Etobicoke,ON,M9B5Y7
cf7a36d365528692d10b,King George Junior Public School,Public,25,rexford rd,York,ON,M6S2M2
cf89a656b4aad23f98ac,Liberty Prep School,Private,162,parliament street,Toronto,ON,M5A2Z1
cfd105f5d16a1767d7cb,"Crescent School, The",Private,2365,bayview ave,Toronto,ON,M2L1A2
d02e7a703fed5c2fc16b,Agincourt Junior Public School,Public,29,lockie ave,Toronto,ON,M1S1N3
d06a97f5eeb4df0d4baa,Cedarbrae Collegiate Institute,Public,550,markham rd,Scarborough,ON,M1H2A2
d0e6c672f7c05bf3730d,Our Lady of Sorrows Catholic School,Catholic,32,montgomery rd,Toronto,ON,M8X1Z4
d1171b9518532b2454f6,Shirley Street Junior Public School,Public,38,shirley st,Toronto,ON,M6K1S9
d12cc48b7a17dcb3509d,Stella Maris Catholic School,Catholic,31,ascot ave,Toronto,ON,M6E1E6
d18789538670c5a82a09,Woburn Collegiate Institute,Public,2222,ellesmere rd,Toronto,ON,M1G3M3
d1a52435746353cb08e8,Academy of Learning (Toronto/Finch Av West),Private Institution,1280,finch avenue west,Toronto,ON,M3J3K6
