Index,Facility_Name,Facility_Type,Street_No,Street_Name,City,Prov_Terr,Postal_Code
002d0eca7ded909a143e,Outward Bound Canada,Private,550,bayview ave,Toronto,ON,M4W3X8
0036c1b2088d8d793472,Leaside High School,Public,200,hanna rd,East York,ON,M4G3N8
004734bff3497e360684,Ontario College of Traditional Chinese Medicine - Markham,Private Institution,3190,steeles ave east,Markham,ON,L3R1G9
0136c0fbf52b959e65e2,Foundation for Montessori Education,Private Institution,2100,bloor street west,Toronto,ON,M6S1M6
0139998d695adfcfaaea,Madinatul Uloom Academy Inc,Private,710,progress ave,Scarborough,ON,M1H2X3
016b76135538fd6584eb,Outstanding Academy Innovation Elite,Private,150,consumers road,Toronto,ON,M2J1P9
0174bb7582a2025376e6,Church Street Junior Public School,Public,83,alexander st,Toronto,ON,M4Y1B7
01cd6655a56f6945efee,ÉÉC Georges-Étienne-Cartier,Catholic,250,gainsborough chemin,Toronto,ON,M4L3C6
01e74dcea42f6fc94a36,Westside Montessori School,Private,95,bellevue avenue,Toronto,ON,M5T2N8
01eca34a45a14830e685,Percy Williams Junior Public School,Public,35,white heather blvd,Toronto,ON,M1V1P6
0207f33e681322c7a6d6,York Construction Academy,Private Institution,155,champagne dr,North York,ON,M3J2C6
0218515d592ea743c15f,Rouge River Academy,Private,3601,victoria park ave,Scarborough,ON,M1W3Y3
02463383ac5c0d5dcd31,SuOn Academy,Private,5,queenslea ave,Toronto,ON,M9N3X9
024bb48ffb3bb9ddb306,KNB Learning,Private,3,ringway crescent,Etobicoke,ON,M9W1X2
02bf0d4a6a75d2d9fdba,St Gerald Catholic School,Catholic,200,old sheppard ave,Toronto,ON,M2J3L9
02f10d761cf0eb29e286,Westmount Junior School,Public,95,chapman rd,Toronto,ON,M9P1E9
02fac727c70c5c9c7f2a,Canadian Tamil Academy,Private,8,milner avenue,Scarborough,ON,M1S3P8
034a474964b8cd124278,Blaydon Public School,Public,25,blaydon ave,North York,ON,M3M2C9
0369fb2ed992f75c4e27,Mother Cabrini Catholic School,Catholic,720,renforth dr,Toronto,ON,M9C2N9
036d9b653b6e59cc2648,Summit Heights Public School,Public,139,armour blvd,North York,ON,M3H1M1
0372f024c86020b521c9,Baitul Mukarram Academy - Boys Section,Private,3334,danforth avenue,Toronto,ON,M1L1C6
0380226d61b9d55ce99b,ÉIC Saint-Frère-André,Catholic,330,lansdowne ave,TORONTO,ON,M6H3Y1
03d1b9c4d357d09a4bf5,Yeshivas Nefesh Dovid,Private,70,fairholme ave,Toronto,ON,M6B2W8
040a12c042b191ffd4bc,St Kateri Tekakwitha Catholic School,Catholic,70,margaret ave,Toronto,ON,M2J4C5
0435a5593ac0399c1f42,Islamic Institute of Toronto Academy,Private,1630,neilson rd,SCARBOROUGH,ON,M1X1S3
04a3d1a6fe0798f55830,Computek College of Business Healthcare & Technology-Toronto,Private Institution,2390,eglinton ave e,Toronto- ON,ON,M1K2P5
04cd02bb12802e8e5b06,Westwood Middle School,Public,994,carlaw ave,Toronto,ON,M4K3M6
04cead153224b0e33cf1,MacKenzie Academy,Private,240,duncan mill road,Toronto,ON,M3B3S6
04d8ee3663f8c4de3167,Windfields Middle School,Public,375,banbury rd,North York,ON,M2L2V2
0507c14373a38d350462,Insight Academy of Canada,Private,1039,mcnicoll avenue,Toronto,ON,M1W3W6
050a9d5719a5581630bd,Essex Junior and Senior Public School,Public,50,essex st,Toronto,ON,M6G1T3
05522bb44b3928727c1b,Darul Arqam Islamic Academy,Private,585,trethewey drive,North York,ON,M6M4B8
05ad5705c9e242ca30d5,Withrow Avenue Junior Public School,Public,25,bain ave,Toronto,ON,M4K1E5
05b26f3db83a57dd1991,Elia Middle School,Public,215,sentinel rd,North York,ON,M3J1T7
0612cba20037294e0ffc,Abubakr Education Academy,Private,2665,lawrence ave east,Scarborough,ON,M1P2S2
066b19f8c29d9d9ca5f9,North Preparatory Junior Public School,Public,1100,spadina rd,Toronto,ON,M5N2M6
068f4c20489f934653ca,Toronto Film School-Davisville Campus,Private Institution,1835,yonge street,Toronto,ON,M4S1X8
06e9036b45d618a88dbd,St Oscar Romero Catholic Secondary School,Catholic,99,humber blvd,Toronto,ON,M6L2H4
06fe5a80035d9448396f,St Martin Catholic School(OL of Lourdes,Catholic,270,cherokee blvd,Toronto,ON,M2H3B9
075b00f0b66e95a2f3a1,Canada Online Academy,Private,3470,pharmacy avenue,Toronto,ON,M1W2S7
07a2d0a843280b788a5a,Bloorview School Authority,Hospital,150,kilgour rd,Toronto,ON,M4G1R8
07ab1cbac930d28bea78,Avondale Secondary Alternative School,Public,24,silverview dr dr,North York,ON,M2N2B3
07d6ba0f73bc889d5d41,MAC Al-Furqan School,Private,60,town centre court,Toronto,ON,M1P0B1
08206d7d04d87ebe1210,Holy Child Catholic Catholic School,Catholic,850,humberwood blvd,Toronto,ON,M9W7A6
083610e81f0c81cfba59,Etobicoke Year Round Alternative Centre,Public,160,silverhill drive,Toronto,ON,M9B3W7
083f6ab820bd5be026c5,Yeshiva Yesodei Hatorah,Private,77,glen rush blvd,Toronto,ON,M5N2T8
088b34a52cbd6caebb69,St Martha Catholic School,Catholic,1865,sheppard ave w,Toronto,ON,M3L1Y5
08ae2b719c7da9a6412f,Silver Springs Public School,Public,222,silver springs blvd,Scarborough,ON,M1V1S4
091de01e9603c3227cfa,John G Diefenbaker Public School,Public,70,dean park rd,Scarborough,ON,M1B2X3
