Index,Facility_Name,Facility_Type,Street_No,Street_Name,City,Prov_Terr,Postal_Code
e2a22759e7754affcc25,St Simon Catholic School,Catholic,24,strathburn boulevard,North York,ON,M9M2K3
e2b926dcc7ce9427f2b3,Elkhorn Public School,Public,10,elkhorn dr,North York,ON,M2K1J3
e2ce4f8c46a57a9e1e0d,Rouge Valley Education Center,Private,3351,ellesmere road,Scarborough,ON,M1C1G9
e2e74245d06f2dccd956,Daystrom Public School,Public,25,daystrom dr,North York,ON,M9M2A8
e2e962ca05baecfad840,Lucy Maud Montgomery Public School,Public,95,murison blvd,Scarborough,ON,M1B2L6
e2edf5d2217a2a0afaab,Beaumonde Heights Junior Middle School,Public,70,monterrey dr,Etobicoke,ON,M9V1T1
e2f901b290757ecf2626,Northlea Elementary and Middle School,Public,305,rumsey rd,East York,ON,M4G1R4
e31f84d2513226e82acd,John Fisher Junior Public School,Public,40,erskine ave,Toronto,ON,M4P1Y2
e372c50d935ebef5c11c,Camp Oochigeas,Private,464,bathurst street,Toronto,ON,M5T2S6
e3b13f8b3ff411233df5,UMC High School â€“ Eglinton Campus,Private,36,eglinton avenue west,Toronto,ON,M4R1A1
e3e264c256a5427f97c9,ACADEMY OF LEARNING CAREER AND BUSINESS,Private Institution,29,gervais drive,North York,ON,M3C1Y9
e3e8c733108c8c15f3f2,Glen Ames Senior Public School,Public,18,williamson rd,Toronto,ON,M4E1K5
e3f6cf73e65f583baaaa,St John XXIII Catholic School,Catholic,175,grenoble dr,Toronto,ON,M3C3E7
e468c67b6cb4db1b73da,West Humber Collegiate Institute,Public,1675,martin grove rd,Toronto,ON,M9V3S3
e4785ac9cc5158c2b64f,Regent Heights Public School,Public,555,pharmacy ave,Scarborough,ON,M1L3H1
e4a9c0928424cca25593,Yorkville High School,Private,24,drewry avenue,North York,ON,M2M1C8
e4caa4a501559f7f10ac,Downsview Secondary School,Public,7,hawksdale rd,North York,ON,M3K1W3
e4ceebf6ae24c02ffcac,Second Street Junior Middle School,Public,71,second st,Etobicoke,ON,M8V2X4
e5095dba5b0735e60ab4,Lynnwood Heights Junior Public School,Public,50,southlawn dr,Toronto,ON,M1S1J1
e5150e8f921721c6cf06,Grey Owl Junior Public School,Public,150,wickson trail,Scarborough,ON,M1B1M4
e54b03e600f0987d1057,City Academy,Private,1910,yonge st,Toronto,ON,M4S3B2
e584a2ea511cd2e292cb,Al-Madrasah Al-Inamiyyah Private School,Private,3665,lawrence ave. e ave.,Scarborough,ON,M1G1P7
e5e743c4525a6c2ca7ce,Kew Beach Junior Public School,Public,101,kippendavie ave,Toronto,ON,M4L3R3
e5e851fdaf02084e2be4,Alexander Muir/Gladstone Ave Junior and Senior Public School,Public,108,gladstone ave,Toronto,ON,M6J3L2
e681f1c162f1c68ea87e,KLC College:Healthcare- Business- Education-Smith Falls,Private Institution,55,town centre court,Toronto,ON,M1P4X4
e68dbacaef53031ab59c,Forest Hill Academy,Private,439,spadina road,Toronto,ON,M5P3M6
e6c3a1d86ba0fee6e2ff,Topcliff Public School,Public,65,topcliff ave,North York,ON,M3N1L6
e75ff5c0fab7780fe4e2,York Humber High School,Public,100,emmett ave,Toronto,ON,M6M2E6
e7680428bd159ba62bc9,Pine Lake Montessori School,Private,255,sheppard avenue west,Toronto,ON,M2N1N2
e76933558c17fa33e968,Trebas Institute- Toronto,Private Institution,543,yonge st.,Toronto,ON,M4Y1Y5
e77c6bf8fb67ad3db2d2,Kapapamahchakwew - Wandering Spirit Scho Junior Senior,Public,16,phin ave,Toronto,ON,M4J3T2
e7f5d73817c7f2951f7c,Forest Hill Collegiate Institute,Public,730,eglinton ave w,Toronto,ON,M5N1B9
e832e860cae852622ae9,R H McGregor Elementary School,Public,555,mortimer ave,East York,ON,M4J2G9
e860abb2e2d6b4a4711b,Robbins Hebrew Academy,Private,1700,bathurst street,Toronto,ON,M5P3K3
e89e428b5bb4f5e63929,Manhattan Park Junior Public School,Public,90,manhattan dr,Scarborough,ON,M1R3V8
e8eca58387d3b49087cd,Delta Senior Alternative School,Public,301,montrose ave,Toronto,ON,M6G3G9
e903e7e30241ac553f95,Sunny View Junior and Senior Public School,Public,450,blythwood rd,Toronto,ON,M4N1A9
e91c56d02a66744b5fdf,Bennington Academy,Private,201,consumers road,Toronto,ON,M2J4G8
e96b8ec0e34782ba8d5c,Islamic Foundation School,Private,441,nugget ave,Scarborough,ON,M1S5E1
e9aa7fde735083b2005c,Oxford School of Canada,Private,5231,yonge street,Toronto,ON,M2N5P8
e9bd5656a4a055f25452,Eastern Canada High School,Private,2141,kipling avenue,Toronto,ON,M9W4K8
e9c4a8646c88eb438dd7,Maple Leaf School,Private,506-4002,sheppard avenue east,Scarborough,ON,M1S4R5
ea199d37fa0433529a48,Jackman Avenue Junior Public School,Public,79,jackman ave,Toronto,ON,M4K2X5
ea54ca0a44541473786f,Galloway Road Public School,Public,192,galloway rd,Scarborough,ON,M1E1X2
ea8a39130b3e14e52f26,Wellesworth Junior School,Public,225,wellesworth dr,Etobicoke,ON,M9C4S5
ea8b3f07c4f026f1e15d,Earl Haig Secondary School,Public,100,princess ave,North York,ON,M2N3R7
eab73d12a8f42df59653,Greenland Public School,Public,15,greenland rd,North York,ON,M3C1N1
eac0f4f8521989f0c0cd,The Study Academy,Private,2040,yonge street,Toronto,ON,M4S1Z9
eae17366eb31c8759847,St Agnes Catholic School,Catholic,280,otonabee ave,North York,ON,M2M2T2
