Index,Facility_Name,Facility_Type,Street_No,Street_Name,City,Prov_Terr,Postal_Code
842254337ee72ad99330,Mill Valley Junior School,Public,411,mill rd,Etobicoke,ON,M9C1Y9
847dd21ff9b11025d691,Howard Junior Public School,Public,30,marmaduke st,Toronto,ON,M6R1T2
849404397703723c0215,St Boniface Catholic School,Catholic,20,markanna dr,Scarborough,ON,M1M2J1
84db120868794b46c105,Dr Norman Bethune Collegiate Institute,Public,200,fundy bay blvd,Toronto,ON,M1W3G1
850fb91c4539c09a6c58,Delta Academy Inc,Private,1160,birchmount road,Scarborough,ON,M1P2B8
8542e2b08b16e4a08073,St Rita Catholic School,Catholic,178,edwin ave,Toronto,ON,M6P3Z9
8584545f937374632f19,University of Toronto Schools,Private,30,humbert street,Toronto,ON,M6J1M5
85a150738e538103b0be,Yorkwoods Public School,Public,25,yorkwoods gate,North York,ON,M3N1K1
85a3da672cfb389793a5,Ontario Virtual School,Private,4773,yonge street,Toronto,ON,M2N0G2
85c111c7f7acb1ccdd2d,Hunter's Glen Junior Public School,Public,16,haileybury dr,Scarborough,ON,M1K4X5
85deb64dba1a1f75dea4,Ontario Academy of Technology (OAT),Private,55,eglinton avenue east,Toronto,ON,M4P1G8
85e0f8a06123b05ca76c,Bloordale Middle School,Public,10,toledo rd,Etobicoke,ON,M9C2H3
85f041247858b1e59a09,Jarvis Collegiate Institute,Public,495,jarvis st,Toronto,ON,M4Y2G8
85f1e9ada6660b6ab0b9,Meadowvale Public School,Public,761,meadowvale rd,Scarborough,ON,M1C1T1
864d61c378540c5342bb,Ontario Institute of Technology,Private,501,consumers rd,North York,ON,M2J5E2
865177cdb6194db1fbc9,Market Lane Junior and Senior Public School,Public,246,the esplanade,Toronto,ON,M5A4J6
86c8c61b9319dd8dc382,Gradale Academy,Private,159,roxborough drive,Toronto,ON,M4W1X7
86cbf446b8403680be3f,The Laurel School,Private,44,upjohn road,Toronto,ON,M3B2W1
86e2e88069b50e3bd3fb,École secondaire Toronto Ouest,Public,330,lansdowne avenue,Toronto,ON,M6H3Y1
871fbdc382eb65644732,St Eugene Catholic School,Catholic,30,westroyal rd,Toronto,ON,M9P2C3
874d1c6e620a16fcc8df,Lakeshore Collegiate Institute,Public,350,kipling ave,Etobicoke,ON,M8V3L1
8773f4bef20618f56498,St Pius X Catholic School,Catholic,71,jane st,Toronto,ON,M6S3Y3
87ade4e25629b3f99b09,C R Marchant Middle School,Public,1,ralph st,York,ON,M9N3A8
87cfd092437bdaa0310a,École élémentaire Jeanne-Lajoie,Public,150,carnforth rd,North York,ON,M4A2K7
87dac5e3a5dcbb54f738,Herzing College - Scarborough,Private Institution,1457,mccowan rd.,Scarborough,ON,M1S5K7
87f2c235e2aaf8b2bfad,NOIC Academy,Private,3660,midland ave,Toronto,ON,M1V0B8
8816fa646616b8355a2d,Tyndale University,Private Institution,3377,bayview ave.,Toronto,ON,M2M3S4
8828c72ed611badf2afd,David Lewis Public School,Public,130,fundy bay blvd,Scarborough,ON,M1W3G1
882c0117b4690557a498,Scarborough Village Public School,Public,15,luella st,Scarborough,ON,M1J3P2
8852a3027c7097ed906a,Toronto Prep School,Private,250,davisville avenue,Toronto,ON,M4S1H2
885b1e07c97c90284a5d,APLUS Institute,Private Institution,4950,yonge st concourse,Toronto,ON,M2N6K1
88620d4b0a576efd0b1b,Parkside Academy,Private,1071,midland avenue,Scarborough,ON,M1K4G7
8877d2866e36acda3dcf,Kisomo International Collegiate,Private,15,bethridge road,Toronto,ON,M9W1M6
88bd2fee0a56d5d0b1db,Alpha Quality Education Inc,Private,6120 a,yonge st,North York,ON,M2M3W7
88d1d598d6452169f75b,Sir Ernest MacMillan Senior Public School,Public,149,huntsmill blvd,Scarborough,ON,M1W2Y2
8905952688f7066377ae,Donview Middle School,Public,20,evermede dr,North York,ON,M3A2S3
894f069746f4199e4568,Gledhill Junior Public School,Public,2,gledhill ave,Toronto,ON,M4C5K6
8969d84a0bf956e27c1d,Central Montessori School - York Mills,Private,18,coldwater road,Toronto,ON,M3B1Y7
89d41954fd4d8fd215f3,Blyth Academy Downsview Park,Private,75,carl hall road,Toronto,ON,M3K2B9
89d4bf20fbdec0779293,Crestview Public School,Public,101,seneca hill dr,Toronto,ON,M2J2W3
89f8ec1618eebbdecaf1,Braemar College,Private,229,college st,Toronto,ON,M5T1R4
8a02ce73b1ff96ed15e2,Sunview College - Business Technology Healthcare-Scarborough,Private Institution,7-1220,ellesmere rd,Scarborough,ON,M1P2X5
8a2bff4731c27d468787,Highland Creek Public School,Public,1410,military trail,West Hill,ON,M1C1A8
8a5c575a2da723f73198,Randolph College for the Performing Arts,Private Institution,736,bathurst street,Toronto,ON,M5S2R4
8aaa2d94b9a5d4fd4268,Brookside Public School,Public,75,oasis blvd,Scarborough,ON,M1X0A3
8acd77b2170b0ee4fe19,John Buchan Senior Public School,Public,2450,birchmount rd,Scarborough,ON,M1T2M5
8af53cf08a50dc427aa1,Loretto College School,Catholic,151,rosemount ave,Toronto,ON,M6H2N1
8b0b2af0fc6bb4ac5788,St Albert Catholic School,Catholic,1125,midland ave,Toronto,ON,M1K4H2
8b1161f3ec99aadc96dd,Cassandra Public School,Public,45,cassandra blvd,North York,ON,M3A1S5
