Index,Facility_Name,Facility_Type,Street_No,Street_Name,City,Prov_Terr,Postal_Code
2834a2986b72e70efaec,Alathena International Academy - Finch W,Private,222,finch avenue west,North York,ON,M2R1M6
283ea5416738d798e2eb,North West Year Round Alternative Centre,Public,425,patricia avenue,NORTH YORK,ON,M2R2N1
284e442b3f3633ea30a4,Beacon of Light Private Elementary Schoo,Private,2191,gerrard street east,Toronto,ON,M4E2C6
28648337fe71ce2fbf33,St Bede Catholic School,Catholic,521,sewells rd,Toronto,ON,M1B5H3
287d87356d0fcadb0da8,St George Academy,Private,77,finch avenue west,Toronto,ON,M2N2H5
28a8ad97deeb2ea077ae,Seventh Street Junior School,Public,101,seventh st,Etobicoke,ON,M8V3B5
28cc584d6e9c09a0f9af,St Norbert Catholic School,Catholic,60,maniza rd,Toronto,ON,M3K1R6
291a42d7c530c69a70d0,St Joachim Catholic School,Catholic,3395,st clair ave e,Toronto,ON,M1L1W3
295a1b9a145f7c04cb05,Swansea Junior and Senior Junior and Senior Public School,Public,207,windermere ave,Toronto,ON,M6S3J9
297671fef81fb63c711c,Chief Dan George Public School,Public,185,generation blvd,Scarborough,ON,M1B2K5
298da220e93af662a371,Cardinal Carter Academy for the Arts,Catholic,36,greenfield ave,Toronto,ON,M2N3C8
2995e6f522db8cc9c1dc,St Sylvester Catholic School,Catholic,260,silver springs blvd,Toronto,ON,M1V1S4
29a86d743b951081b9f9,Bliss Carman Senior Public School,Public,10,bellamy rd s,Scarborough,ON,M1M3N8
29bbff7b39eddc61f930,Wilmington Elementary School,Public,330,wilmington ave,North York,ON,M3H5L1
29c6f10fcc94e3abd257,Milliken Public School,Public,130,port royal trail,Scarborough,ON,M1V2T4
29d0c6ecf726c7fca33b,Sathya Sai School of Toronto-Canada,Private,451,ellesmere rd,Toronto,ON,M1R4E5
2a0646957afb7f725cdd,Caring and Safe Schools LC1,Public,30,barrhead cres,Etobicoke,ON,M9W3Z7
2a4bd5583f6e26302bea,William G Miller Junior Public School,Public,60,bennett rd,Scarborough,ON,M1E3Y3
2ad1aa64f166bf1e8ebc,Zion Heights Middle School,Public,5900,leslie st,North York,ON,M2H1J9
2af53f869a38997cac9b,Martingrove Collegiate Institute,Public,50,winterton dr,Etobicoke,ON,M9B3G7
2bd3d793080317bcd682,Create Art Studio,Private,1801,danforth avenue,Toronto,ON,M4C1J2
2c0807666204ac67f247,Trios College -Scarborough,Private Institution,1333,kennedy rd.,Scarborough,ON,M1P2L9
2c64ad5aeb3a7b523834,Toronto Zoo,Private,361,old finch ave,TORONTO,ON,M1B5K7
2c7d0571d7f826d7ad9f,Lillian Public School,Public,1059,lillian st,North York,ON,M2M3G1
2cc944fb9484e19148bc,Fairbank Memorial Community School,Public,555,harvie ave,York,ON,M6E4M2
2cdc82dbdc0f9f0dbda3,Whitefield Christian Schools,Private,5808,finch ave e,Scarborough,ON,M1B4Y6
2cf9a3a8baf2d854f363,General Brock Public School,Public,140,chestnut cres,Scarborough,ON,M1L1Y5
2d348d63b96618696f09,Canadian Martyrs Catholic School,Catholic,520,plains rd,Toronto,ON,M4C2Z1
2d402d1510232bdcf01b,North Albion Collegiate Institute,Public,2580,kipling ave,Toronto,ON,M9V3B2
2dd792bfc2f99af860ca,R J Lang Elementary and Middle School,Public,227,drewry ave,North York,ON,M2M1E3
2e4646af1a7c10247cec,Fraser Mustard Early Learning Academy,Public,82,thorncliffe park drive,Toronto,ON,M4H0A2
2e68677b1ca1c7c8c886,Alive Christian Academy International,Private,1360,birchmount road,Scarborough,ON,M1P2E3
2f22974fa15711f1bb86,Father John Redmond Catholic Secondary School,Catholic,28,colonel samuel smith park dr,Toronto,ON,M8V4B7
2f91c54dfdfde1553dbe,ABM College of Health & Technology,Private Institution,205-705,lawrence ave. w.,Toronto,ON,M6A1B4
2f99467a55545c439575,Canadians Private School,Private,396,patricia avenue,North York,ON,M2R2M9
2fe95c3c1149543ffa2b,Elite Academic School,Private,201,consumers road,Toronto,ON,M2J4G8
305cf6069fe584ece3a0,St Paul VI Catholic School,Catholic,270,laughton ave,Toronto,ON,M6N2X5
3071fd8e630841c50754,Faywood Arts-Based Curriculum School,Public,95,faywood blvd,North York,ON,M3H2X5
30cfcf629213cbcfb5f0,Driftwood Public School,Public,265,driftwood ave,North York,ON,M3N2N6
30e93f9a729900db4e89,"Mildenhall School, The",Private,35,ourland ave,ETOBICOKE,ON,M8Z4E1
30fa48195b5017db141c,Melody Village Junior School,Public,520,silverstone dr,Etobicoke,ON,M9V3L5
31897fe7e0f7d45a4f96,Royal St George's College,Private,120,howland ave,Toronto,ON,M5R3B5
31afabe913d80ff76ab0,North American College of Information Technology,Private Institution,2100,ellesmere rd.,Scarborough,ON,M1H3B7
31e147d731fe64fc8d88,Academy of Excellence,Private,128,willowdale ave,Toronto,ON,M2N4Y2
3268f0682f014408ed48,Gordon A Brown Middle School,Public,2800,st clair ave e,East York,ON,M4B1N2
327412488a8efc591b4f,Bishop Allen Academy Catholic Secondary School,Catholic,721,royal york rd,Toronto,ON,M8Y2T3
328cad7b335882a08c07,St Barbara Catholic School,Catholic,25,janray dr,Toronto,ON,M1G1Y2
3370c94a64af15a7a6e7,Ryerson University,University,350,victoria st.,Toronto,ON,M5B2K3
33fffcf75f160fd5287e,Agincourt Collegiate Institute,Public,2621,midland ave,Agincourt,ON,M1S1R6
