Index,Facility_Name,Facility_Type,Street_No,Street_Name,City,Prov_Terr,Postal_Code
a74ca3c51998baab7299,Westward International Academy,Private,511,mcnicoll avenue,North York,ON,M2H2C9
a75c6eb90b1dd94660c9,Humber College Institute of Technology & Advanced Learning,Technical and Vocational,205,humber college blvd,Etobicoke,ON,M9W5L7
a766d998ba79a8ab9703,Emily Carr Public School,Public,90,john tabor trail,Scarborough,ON,M1B2V2
a7933c59024cd38a0271,Cresthaven Public School,Public,46,cresthaven dr,North York,ON,M2H1M1
a79cbfd2ade4c0027bfe,Downtown Alternative School,Public,85,lower jarvis st,Toronto,ON,M5E1R8
a7a03e62cf7480848f27,Nelson Mandela Park Public School,Public,440,shuter st,Toronto,ON,M5A1X6
a7d124b24a586a3cc421,St Francis Xavier Catholic School,Catholic,53,gracefield ave,Toronto,ON,M6L1L3
a817f152603a7ea77c0f,Broadacres Junior Public School,Public,45,crendon dr,Etobicoke,ON,M9C3G6
a887c076a1c93cd2e661,Delphi Secondary Alternative School,Public,109,chartland blvd s,Scarborough,ON,M1S2R7
a8987d6dbf76413d7135,Courcelette Public School,Public,100,fallingbrook rd,Scarborough,ON,M1N2T6
a8b77c452d79c372b9df,Lawrence Heights Middle School,Public,50,highland hill,North York,ON,M6A2R1
a8c3c5926c1faf5aaf9e,Keele Street Public School,Public,99,mountview ave,Toronto,ON,M6P2L5
a8f1d0576bc3ced43316,West Rouge Junior Public School,Public,401,friendship ave,Scarborough,ON,M1C2X8
a9e3ce0efc7a8e7b08a6,Pineway Public School,Public,110,pineway blvd,North York,ON,M2H1A8
a9f5144fe03074411f7f,Étienne Brûlé Junior School,Public,50,cloverhill rd,Etobicoke,ON,M8Y1T3
aa0339acd3a86ec0c90c,Lowell Academy,Private,3601,victoria park avenue,Scarborough,ON,M1W3Y3
aa4da5717023c3430e4e,École élémentaire La Mosaïque,Public,80,queensdale av,East York,ON,M4J1Y3
aa868ef2c726045b2d20,Harris Institute for the Arts,Private Institution,118,sherbourne street,Toronto,ON,M5A2R2
aa8c1e6b7f2a4c0d03b6,Bloorlea Middle School,Public,4050,bloor st w,Etobicoke,ON,M9B1M5
aab589242cfc9e425056,Twentieth Street Junior School,Public,3190,lake shore blvd w,Etobicoke,ON,M8V1L8
ab2ce361b1e6f39ee7de,Bowmore Road Junior and Senior Public School,Public,80,bowmore rd,Toronto,ON,M4L3J2
ab69593e64af537c59fd,East Alternative School of Toronto,Public,21,boultbee ave,Toronto,ON,M4J1A7
abb2277e30a9eb14bb57,Rippleton Public School,Public,21,rippleton rd,North York,ON,M3B1H4
ac7049c85a6eb9aa3721,St Sebastian Catholic School,Catholic,717,brock ave,Toronto,ON,M6H3P1
aca00948b07edf16c49c,Metropolitan Bible Baptist Christian Aca,Private,53,madawaska avenue,Toronto,ON,M2M2R2
acbd106be9561052baab,James S Bell Junior Middle School,Public,90,thirty first st,Etobicoke,ON,M8W3E9
ad163bee56688daeacc4,A+ Academy of Advancement,Private,2425,eglinton ave east ave,Toronto,ON,M1K5G8
ad3f69d27c25d1ffd496,St Demetrius Catholic School,Catholic,125,la rose ave,Toronto,ON,M9P1A6
ad67c7a94cbbbeb46dfe,Pope Francis Catholic School,Catholic,319,ossington ave,Toronto,ON,M6J3A6
ade71dfa56980f336772,Acupuncture and Integrative Medicine Academy Inc.,Private Institution,,,Toronto,ON,M5S2G8
ae2f1780c36b6ee5ada7,ALPHA Alternative Junior School,Public,20,brant st,Toronto,ON,M5V2M1
ae5ad245c4aa97700228,Henry Hudson Senior Public School,Public,350,orton park rd,Scarborough,ON,M1G3H4
ae7036bcf2fc096b3bc0,Collège français secondaire,Public,100,carlton rue,Toronto,ON,M5B1M3
ae89de5a6b74f523a226,Canaan Global Academy,Private,32,kern road,North York,ON,M3B1T1
aee8a918a59ba1e6d255,Canadian College of Massage & Hydrotherapy,Private Institution,477,mt pleasant rd to 250 davisvill ave,Toronto,ON,M4S1H2
aef0b7dc5972a6951e32,Apex Academy Online,Private,44,gower street,Toronto,ON,M4B1E6
af0af7de57c9cc0351a2,Oasis Alternative Secondary School,Public,20,brant st,Toronto,ON,M5V2M1
af0d2e7b80c556c5bb35,Wilkinson Junior Public School,Public,53,donlands ave,Toronto,ON,M4J3N7
af22f0c70657505c3cda,Dixon Grove Junior Middle School,Public,315,the westway,Etobicoke,ON,M9R1H1
af2ba0a2da58574649a0,Elmbank Junior Middle Academy,Public,10,pittsboro dr,Etobicoke,ON,M9V3R4
af3b5544a88f5d4af253,Shaughnessy Public School,Public,30,shaughnessy blvd,North York,ON,M2J1H5
af6a7189ee66acf01625,Walter Perry Junior Public School,Public,45,falmouth ave,Scarborough,ON,M1K4M7
af9878acbd2dcb11f7ca,Rawlinson Community School,Public,231,glenholme ave,York,ON,M6E3C7
afa28900ab8206b2446c,Wales College Secondary School,Private,56,redlea ave,Toronto,ON,M1V4S3
afb9b4cfc4f4d21d4c16,Weston Collegiate Institute,Public,100,pine st,Toronto,ON,M9N2Y9
aff49bae4fa4004e61b7,Children's Garden Nursey School,Private,1847,bayview avenue,Toronto,ON,M4G3E4
b002914f97e094021c41,Selwyn Elementary School,Public,1,selwyn ave,East York,ON,M4B3J9
b0314a0b3940fc4fe407,Westview Centennial Secondary School,Public,755,oakdale rd,Toronto,ON,M3N1W7
b063e05882e55415294c,Golf Road Junior Public School,Public,730,scarborough golf club rd,Scarborough,ON,M1G1H7
