Index,Facility_Name,Facility_Type,Street_No,Street_Name,City,Prov_Terr,Postal_Code
1d82e805e90d0c64ae0a,UMCA International Academy - North York,Private,1470,don mills road,North York,ON,M3B2X9
1db6589674bd16eafe7d,Monarch Park Collegiate Institute,Public,1,hanson st,Toronto,ON,M4J1G6
1e1282b3919b6f1e9245,High Park Gardens Montessori School,Private,35,high park gardens,Toronto,ON,M6R1S8
1e3d4eba8e053ba0eeca,Montessori Jewish Day School,Private,55,yeomans rd,Toronto,ON,M3H3J7
1e5075d038ee4cfee4ed,Madinah Islamic School,Private,1015,danforth avenue,Toronto,ON,M4J1M1
1eb30924ae45c4b70eeb,St George's Junior School,Public,70,princess anne cres,Etobicoke,ON,M9A2P7
1eb31106667cc5161f6f,Ursula Franklin Academy,Public,146,glendonwynne rd,Toronto,ON,M6P3J7
1ee96a9c1824ebb637ce,Garden Avenue Junior Public School,Public,225,garden ave,Toronto,ON,M6R1M9
1eeff88e55a321e14076,Bayview Glen (Elementary),Private,275,duncan mill road,Toronto,ON,M3B3H9
1f2477b604bbad635170,The Study,Private,20,glebe road east,Toronto,ON,M4S1N6
1f261e97a318f2f405a0,École élémentaire Paul-Demers,Public,100,ravel road,North York,ON,M2H1S9
1f29965ac9e8730044b5,Valleyfield Junior School,Public,35,saskatoon dr,Etobicoke,ON,M9P2E8
1f8d14bcee52da009a3d,Toronto Scholars' Collegiate,Private,41,metropolitan road,Toronto,ON,M1R2T5
204ae0cb3692f32e27cf,Bay School of Canada,Private,1110,sheppard avenue east,Toronto,ON,M2K2W2
205ef7abae851adcf6ab,Groveville Collegiate,Private,235,dixon rd,Etobicoke,ON,M9P2M5
209893266fd9f691acf3,Samuel Hearne Public School,Public,21,newport ave,Scarborough,ON,M1L4N7
20beb9fc6d67bdcff869,Eight Branches Academy of Eastern Medicine,Private Institution,112,merton street,Toronto,ON,M4S2Z8
20cde6ee4ebb72a32818,Oakwood Village Montessori School,Private,473,oakwood avenue,Toronto,ON,M6E2W4
20f5f2d50e965e8d8be7,Emery EdVance Secondary School,Public,3395,weston road,Toronto,ON,M9M2V9
21087b28b5c3a939ac40,Our Lady of Lourdes Catholic School,Catholic,444,sherbourne st,Toronto,ON,M4X1K2
2128d70d441071f4e752,John English Junior Middle School,Public,95,mimico ave,Toronto,ON,M8V1R4
2185ad0d9ccd5a957e77,Oakdale Park Middle School,Public,315,grandravine dr,North York,ON,M3N1J5
21c33dcdc9b5caca2166,École élémentaire Laure-Rièse,Public,339,alton towers circle,Scarborough,ON,M1V4L3
21e4ab5f77cf499a6c92,St Patrick Catholic Secondary School,Catholic,49,felstead ave,Toronto,ON,M4J1G3
22074055029236a77eb8,Al Azhar Islamic School,Private,100,mclevin ave,Scarborough,ON,M1B5K1
22592c34f1c3b0b7cc12,Islamic Education Guidance Centre,Private,40,south station st,YORK,ON,M9N2B3
225dce00447ded9db183,A Y Jackson Secondary School,Public,50,francine dr,Toronto,ON,M2H2G6
2263407481081296f1a1,Joseph Brant Senior Public School,Public,270,manse rd,Scarborough,ON,M1E3V4
22c0fb87e0f8fd31f541,Cornerstone Montessori Prep School - Don,Private,33,mallard road,Toronto,ON,M3B1S4
22febfc99ce8361b797b,Um Al-Qura Islamic School,Private,41,metropolitan rd,Scarborough,ON,M1R2T5
2320e416d32b0dadc9a4,Ontario Academy of International Educati,Private,4,lansing square,Toronto,ON,M2J5A2
23a2483c3bdec2ed5a72,Diefenbaker Elementary School,Public,175,plains rd,East York,ON,M4J2R2
23b4f5f9bb81479152c8,Boys Leadership Academy,Public,45,golfdown drive,Etobicoke,ON,M9W2H8
23fea3bdfa0675e727fe,King's Academy,Private,1033,1033 mcnicoll ave,Scarborough,ON,M1W3W6
241f20243c2078e43bae,John G Althouse Middle School,Public,130,lloyd manor rd,Etobicoke,ON,M9B5K1
243d21a04a106e29f350,Toronto Maple Leaf Academy,Private,10,noganosh road,Scarborough,ON,M1L1K5
245bebeeac140c7e13a5,ALPHA II Alternative School,Public,1141,bloor st w,Toronto,ON,M6H1M9
24d181372a35c07852a0,St Mary Catholic School,Catholic,20,portugal sq,Toronto,ON,M6H1M4
24db54fbaa35002ca371,Venerable John Merlini Catholic School,Catholic,123,whitfield ave,Toronto,ON,M9L1G9
253cff4e1a5f3e1eafe7,St John Catholic School,Catholic,780,kingston rd,Toronto,ON,M4E1R7
254a44d7d5bf7f39ab38,"Leo Baeck Day School, The",Private,501,arlington avenue,Toronto,ON,M6C3A4
2588fe32c6892e7e7133,North American College Information & Technology,Private Institution,,,Toronto,ON,M4Y1B7
258a71c91132d2e8b19a,Newtonbrook Secondary School,Public,155,hilda ave,Toronto,ON,M2M1V6
2599f0202897bfbb7aac,Brighton,Private,240,the donway west,Toronto,ON,M3B2V8
25e07fa605909fac1dab,Oxford College of Canada,Private,155,consumers road,TORONTO,ON,M2J0A3
25ec2573881c94cc0a19,St Mary of the Angels Catholic School,Catholic,1477,dufferin st,Toronto,ON,M6H4C7
2608c299c62cd5311ea9,St. Clement's Early Learning,Private,70,st clements avenue,Toronto,ON,M4R1H2
2641f480f7e2eebaaecf,"Rosedale Day School, The",Private,131,bloor street west,Toronto,ON,M5S1R1
279b1f42c862f8a2d37f,Arrowsmith School,Private,245,st clair ave w,Toronto,ON,M4V1R3
