Index,Facility_Name,Facility_Type,Street_No,Street_Name,City,Prov_Terr,Postal_Code
f4704ce425288542c50c,Canadian Academy of Secondary Studies,Private,51,scarlett road,York,ON,M6N4J8
f47faebd78da50fc5638,Lucy McCormick Senior School,Public,2717,dundas st w,Toronto,ON,M6P1Y1
f4909053d37df4ee4839,Sheppard Public School,Public,1430,sheppard ave w,North York,ON,M3M2W9
f494371a27a89b833a48,Emery Collegiate Institute,Public,3395,weston rd,North York,ON,M9M2V9
f4a17fe6c1a8d542ca3f,Blessed Pier Giorgio Frassati Catholic School,Catholic,8,seasons dr,Scarborough,ON,M1X1X4
f4a355029e900d107fa0,Amairah Private School (APS),Private,1625,albion road,Etobicoke,ON,M9V5H8
f4fc27804240af384f90,Bestune Academy,Private,2,duncan mill road,Scarborough,ON,M3B1Z4
f511a685d3f1cf86e9ba,Beverley School,Public,64,baldwin st,Toronto,ON,M5T1L4
f56531ed2d760796594b,Anderson College of Health- Business & Technology,Private Institution,5734,yonge street,Toronto,ON,M2M3V5
f6062d90ea57686a3f7f,Canadian College of Naturopathic Medicine,Private Institution,1255,sheppard avenue east,North York,ON,M2K1E2
f64ea149f3621354c2a3,Dorset Park Public School,Public,28,blaisdale rd,Scarborough,ON,M1P1V6
f66f7c4e2f5009b6c3e1,Lambton Park Community School,Public,50,bernice cres,York,ON,M6N1W9
f68713c243ae93fb7296,John D Parker Junior School,Public,202,mount olive dr,Etobicoke,ON,M9V3Z5
f69ddc982c6f03758ad5,Caring and Safe Schools LC2,Public,1641,pharmacy avenue,Scarborough,ON,M1R2L2
f6b43ece177852cbb159,Apollo High School,Private,5467,yonge street,Toronto,ON,M2N5S1
f705388d6230d8aefc2c,Joseph Howe Senior Public School,Public,20,winter gardens trail,Scarborough,ON,M1C3E7
f7c728db560c23405fab,John Ross Robertson Junior Public School,Public,130,glengrove ave w,Toronto,ON,M4R1P2
f7e7867d8c1c71feec17,"Toronto Cheder, The",Private,3995,bathurst st,Toronto,ON,M3H5V3
f7f30bf7e16492f0764f,Olivet School,Private,279,burnhamthorpe rd,Etobicoke,ON,M9B1Z6
f8382631104c8404d6f6,Academy of Learning - Toronto,Private Institution,2190,warden avenue,Toronto,ON,M1T1V6
f8795e17e7c7c3b5c30a,Amesbury Middle School,Public,201,gracefield ave,North York,ON,M6L1L7
f8d02f7fa71d2936a19c,Canadian College of Business- Science & Technology,Private Institution,4900,sheppard ave. e.,Scarborough,ON,M1S4A7
f97584279dbb9b6411c7,Lawrence Academy,Private,1061,mcnicoll avenue,Toronto,ON,M1W3W6
f98b70d2cb94256bc60c,White Haven Junior Public School,Public,105,invergordon ave,Scarborough,ON,M1S2Z1
f9e43b0a4e89dd20adcf,Our Lady of Peace Catholic School,Catholic,70,mattice ave,Toronto,ON,M9B1T6
fa0b0105f59365489e08,Muirhead Public School,Public,25,muirhead rd,Toronto,ON,M2J3W3
fa58543bfb480336f332,Pauline Johnson Junior Public School,Public,35,dunmurray blvd,Scarborough,ON,M1T2K2
fab37c7cbc69f9d08bb3,Birch Cliff Heights Public School,Public,120,highview ave,Toronto,ON,M1N2J1
fab3a4d6cf89a098c5e2,Toronto Film School,Private Institution,2000,steeles avenue west,Concord,ON,L4K4N1
fad56251435c0cbfc534,ÉÉC Sainte-Madeleine,Catholic,1,ness promenade,Toronto,ON,M3A2W1
fb74614c0aff84f867bd,Yeshiva Darchei Torah Private High Schoo,Private,18,champlain blvd,Toronto,ON,M3H2Z1
fb755f0ba69fdd084a9d,Corvette Junior Public School,Public,30,corvette ave,Scarborough,ON,M1K3G2
fbe292baeda75818c436,Blake Street Junior Public School,Public,21,boultbee ave,Toronto,ON,M4J1A7
fbe32a23355b1f687c6c,St Edmund Campion Catholic School,Catholic,30,highcastle rd,Toronto,ON,M1E4N1
fbf48a44e1b606d44bca,Centennial Road Junior Public School,Public,271,centennial rd,Scarborough,ON,M1C2A2
fc0a478da7b748c9dd5a,St Nicholas Catholic School,Catholic,33,amarillo dr,Toronto,ON,M1J2P7
fc0b15c81c5684d828a0,The Student School,Public,160,glendonwynne road,Toronto,ON,M6P0A5
fc4a903b58029e20af4f,Msgr Fraser College (Midtown Campus),Catholic,36,eglinton avenue west,Toronto,ON,M4R1A1
fcb1b2da3e422e8c5b73,Military Trail Public School,Public,701,military trail,Scarborough,ON,M1E4P6
fcf1cdeb245d0891f8d4,St Joseph Morrow Park Catholic Secondary School,Catholic,3379,bayview ave,Toronto,ON,M2M3S4
fd060263a54a2bdf06fa,East York Alternative Secondary School,Public,670,cosburn ave,East York,ON,M4C2V2
fd17b6c2b37ee5adae67,Islington Junior Middle School,Public,44,cordova ave,Etobicoke,ON,M9A2H5
fd442a48cac84972b05c,Urban International High School - North,Private,172,drewry avenue,North York,ON,M2M1E4
fd67d13c5fa37e658380,Lord Lansdowne Junior Public School,Public,33,robert st,Toronto,ON,M5S2K2
fe0035772d264eed156b,St Dorothy Catholic School,Catholic,155,john garland blvd,Toronto,ON,M9V1N7
fe7aeb42ad4601c51140,Leslieville Junior Public School,Public,254,leslie st,Toronto,ON,M4M3C9
fe7dcae32f929e91fc97,Fisherville Senior Public School,Public,425,patricia ave,North York,ON,M2R2N1
ff4940f08f0170e1ff13,École élémentaire Toronto Ouest,Public,330,lansdowne avenue,Toronto,ON,M6H3Y1
ff73fb4eba3c47d4b9cd,Michener Institute of Education at UHN,Technical and Vocational,222,st. patrick street,Toronto,ON,M5T1V4
