Index,Facility_Name,Facility_Type,Street_No,Street_Name,City,Prov_Terr,Postal_Code
6484aa34709cc6294bbd,Jackman Institute of Child Study,Private,45,walmer rd,Toronto,ON,M5R2X2
64ba542dfd514f24b70b,Leonardo Da Vinci Academy of Arts and,Private,100,allanhurst dr,Toronto,ON,M9A4K4
64ca1cb6a40727ad962b,St Agatha Catholic School,Catholic,49,cathedral bluffs dr,Toronto,ON,M1M2T6
652235d9a6a0cf0111ad,Hillmount Public School,Public,245,mcnicoll ave,Toronto,ON,M2H2C6
65238d73ddd8e451e96c,Lawrence Park Collegiate Institute,Public,125,chatsworth dr,Toronto,ON,M4R1S1
65641fdae0bc8e943c70,Malvern Montessori School,Private,10,sewells rd,Scarborough,ON,M1B3G5
65f2a636fe4f36db6a25,St Clement Catholic School,Catholic,4319,bloor st,Etobicoke,ON,M9C2A2
6649aea077e3d6170587,Dovercourt Public School,Public,228,bartlett ave,Toronto,ON,M6H3G4
6649be5961601f1caf7e,Phoenix Montessori School Inc,Private,2,station road,Etobicoke,ON,M8V2P9
664e386c8bf0face0fff,Bnos Chaya,Private,4116,bathurst street,Toronto,ON,M3H3P2
6677a96705cd3c698c3a,Bond International College,Private,1500,birchmount road,Toronto,ON,M1P2G5
6687a7d4af021a539b2b,Humberside Montessori School,Private,121,kennedy ave,Toronto,ON,M6S2X8
6694707faa5a15c384e9,Josyf Cardinal Slipyj Catholic School,Catholic,35,west deane park dr,Toronto,ON,M9B2R5
673bc16d34851710dba6,The Glenn Gould School of Royal Conservatory of Music,Private Institution,273,bloor st w,Toronto- ON,ON,M5S1W2
673c6c1bb5db57a54e2e,Bnei Akiva School - Yeshivat Or Chaim,Private,159,almore avenue,Toronto,ON,M3H2H9
67cfd7a601e8b0b281e5,Jesse Ketchum Junior and Senior Public School,Public,61,davenport rd,Toronto,ON,M5R1H4
67d8b7ab977ed41e0c13,Woburn Junior Public School,Public,40,dormington dr,Scarborough,ON,M1G3N2
67efeedde8d83f2fb003,Loretto Abbey Catholic Secondary School,Catholic,101,mason blvd,Toronto,ON,M5M3E2
682db076fab2ffa013ca,St Francis of Assisi Catholic School,Catholic,80,clinton st,Toronto,ON,M6G2Y3
68a4f72dea3b5a1bb99d,Beth Jacob Private School,Private,410,lawrence ave w,Toronto,ON,M5M1C2
68a9a6b406d704694e3d,The Ambassadors of God Academy,Private,807,arrow road,North York,ON,M9M2L4
68d11ae59a867b6f52fb,Academy of Learning (Etobicoke/Albion),Private Institution,1123,albion road,Toronto,ON,M9V1A9
68e4ca5635952f546541,Humberside Collegiate Institute,Public,280,quebec ave,Toronto,ON,M6P2V3
693bc4afb0a26e2445cc,Anson S Taylor Junior Public School,Public,20,placentia blvd,Scarborough,ON,M1S4C5
69adf0b69ea193339564,Protege School,Private Institution,3390,midland ave,Toronto,ON,M1V5K3
69dbb49b5825eb987167,Rose Avenue Junior Public School,Public,675,ontario st,Toronto,ON,M4X1N4
69eb9ff85eec9d98b23d,Bnei Akiva School - Ulpanat Orot,Private,45,canyon ave,Downsview,ON,M3H3S4
69fe6aeb8fb3e4d83418,Kapapamahchakwew - Wandering Spirit Scho,Public,16,phin avenue,Toronto,ON,M4J3T2
6a404082f3c116450d2e,Fairmount Public School,Public,31,sloley rd,Scarborough,ON,M1M1C7
6a7e5d51f9319658a9c3,Hawthorne II Bilingual Alternative Junior School,Public,50,essex st,Toronto,ON,M6G1T3
6a9b4236f2c19729b52f,West Hill Public School,Public,299,morningside ave,Scarborough,ON,M1E3G1
6b260121bdfe1980f25a,St Antoine Daniel Catholic School,Catholic,160,finch ave w,Toronto,ON,M2N2J2
6b5d162d4be860db07f6,Holy Name Catholic School,Catholic,690,carlaw ave,Toronto,ON,M4K3K9
6baa5f0d4453d4f0843a,Victoria Village Public School,Public,88,sweeney dr,North York,ON,M4A1T7
6be14d31f33ba0926732,Academy of Learning (Bay/Bloor),Private Institution,401,bay street,Toronto,ON,M5H2Y4
6beac6810162469e4029,CMU College of Makeup Art & Design,Private Institution,366,adelaide street east,Toronto,ON,M5A3X9
6c9ee52557f0c124d6b1,Bennington Heights Elementary School,Public,76,bennington heights dr,East York,ON,M4G1B1
6ca299ff37730f3e92c3,St Anselm Catholic School,Catholic,182,bessorough dr,Toronto,ON,M4G3J9
6ce73eda56e0062ee2bd,Alexander Stirling Public School,Public,70,fawcett trail,Scarborough,ON,M1B3A9
6cfb1b42cb260240be65,ÉIC Père-Philippe-Lamarche,Catholic,2850,eglinton e avenue,Toronto,ON,M1J2C8
6d06c045d1c9f807c237,Collège français élémentaire,Public,100,carlton rue,Toronto,ON,M5B1M3
6d1a68f46f6f41a8c333,Anderson College of Health- Business & Technology,Private Institution,180,bloor st w,Toronto,ON,M5S2V6
6d6c74978fb216657ea7,Msgr Fraser College (Midland North),Catholic,2900,midland avenue blvd,Toronto,ON,M1S3K8
6d93e1092147ed766a52,William Lyon Mackenzie Collegiate Institute,Public,20,tillplain rd,Toronto,ON,M3H5R2
6da3af858bceb7478312,Forest Hill Junior and Senior Public School,Public,78,dunloe rd,Toronto,ON,M5P2T6
6e17ae36bec743920315,Sir Adam Beck Junior School,Public,544,horner ave,Etobicoke,ON,M8W2C2
6e1f818b14bd63e5533c,Equinox Holistic Alternative School,Public,151,hiawatha road,Toronto,ON,M4L2Y1
6e50b8bde94b282eba7b,Downsview Public School,Public,2829,keele st,North York,ON,M3M2G7
6e58f47ded074581e85e,Yorkville University,Private Institution,2000,steeles avenue west,Concord,ON,L4K4N1
