Index,Facility_Name,Facility_Type,Street_No,Street_Name,City,Prov_Terr,Postal_Code
947649bd9733bf9425ac,St Dunstan Catholic School,Catholic,14,pharmacy ave,Toronto,ON,M1L3E4
958f0536fa01510fbb59,Msgr Fraser College (Northeast),Catholic,100,fundy bay boulevard,Scarborough,ON,M1W3G1
95b26c8454b91f5fa96d,Taylor Creek Public School,Public,644,warden ave,Scarborough,ON,M1L3Z3
95c923c254f605ca015b,Bessborough Drive Elementary and Middle School,Public,211,bessborough dr,East York,ON,M4G3K2
95f136c754759cc975ac,Charlottetown Junior Public School,Public,85,charlottetown blvd,Scarborough,ON,M1C2C7
9645013b86cd3cb4f51c,St Martin De Porres Catholic School,Catholic,230,morningside ave,Toronto,ON,M1E3E1
967ee22c5dc649595a44,WillowWood School,Private,55,scarsdale road,Toronto,ON,M3B2R3
968d02e0c90da593f481,National E School,Private,1300,bay street,Toronto,ON,M5R3K8
9698f9ef1c42782bfc87,Aristotele's Credit School,Private,200,graydon hall dr,Toronto,ON,M3A3A6
96e00b7ad1f630da4808,Castlebar Junior School,Public,70,chartwell road,Etobicoke,ON,M8Z4G6
97294e9396b536064465,Alive Montessori & Private School,Private,2,wembley road,Toronto,ON,M6C2E9
9784752a261671d65b60,Abu Huraira Center Academy,Private,270,yorkland boulevard,Toronto,ON,M2J5C9
979af438b0336ce332f9,Quest Alternative School Senior,Public,25,bain ave,Toronto,ON,M4K1E5
97d504fa665fd1e18bd7,Alathena International Academy - Deep Sp,Private,2131,lawrence avenue east,Toronto,ON,M1R3A3
97dff460aceaa6612729,Metropolitan Preparatory Academy,Private,1,duncan mill road,Toronto,ON,M3B1Z2
97e1988e9c21783fc4fc,Portage Trail Community School,Public,100,sidney belsey cres,North York,ON,M6M5H6
97e3f16af08fd335d131,Stilecroft Public School,Public,50,stilecroft dr,North York,ON,M3J1A7
98add39a45e045d642cc,P.T.Montessori,Private,280,culford road,Toronto,ON,M6L2V3
991fe45b8f10539738ac,Blessed Sacrament Catholic School,Catholic,24,bedford park ave,Toronto,ON,M5M1H9
996e8bc48f995be75037,Sir John A Macdonald Collegiate Institute,Public,2300,pharmacy ave,Toronto,ON,M1W1H8
99738cdf507b79566385,Windsor Career College - Toronto,Private Institution,1625,albion road,Toronto,ON,M9V5H8
99769b90069811147295,The Clover School,Private,585,cranbrooke avenue,Toronto,ON,M6A2X9
99a6d3de6c95eb573dd9,Henry Kelsey Senior Public School,Public,1200,huntingwood dr,Scarborough,ON,M1S1K7
99d43ea5621e9eaa73ad,Malvern Junior Public School,Public,70,mammoth hall trail,Toronto,ON,M1B1P6
9a22d92386344a5d798e,Montrose Junior Public School,Public,301,montrose ave,Toronto,ON,M6G3G9
9a31f7c0a7b9ad172d34,"Behaviour Innovations, Children's Colleg",Private,618,the queensway,Toronto,ON,M8Y1K3
9a364e8d786a2cef02cc,ÉÉC du Sacré-Coeur-Toronto,Catholic,98,essex street,Toronto,ON,M6G1T3
9a8536642d14583fcb4a,ÉÉC Saint-Michel,Catholic,29,meadowvale rd,TORONTO,ON,M1C1R7
9ae1e2398785ea163f84,St Charles Catholic School,Catholic,50,claver ave,Toronto,ON,M6B2W1
9b520b3ea38c4ccce6b4,Darwin International Academy,Private,3790,victoria park avenue,North York,ON,M2H3H7
9bfbaadccfe769321523,Howlett Academy,Private,15,madison ave,Toronto,ON,M5R2S2
9c116cfe9325d683a354,Seneca Hill Public School,Public,625,seneca hill dr,North York,ON,M2J2W6
9c533406a1c6ab1a01be,Bais Chomesh High School for Girls,Private,3600,bathurst st,Toronto,ON,M6A2C9
9c9a9f62d8db3172d31f,Cornell Junior Public School,Public,61,holmfirth terr,Scarborough,ON,M1G1G8
9cdc00285dc0e9b28c2d,Riverdale Collegiate Institute,Public,1094,gerrard st e,Toronto,ON,M4M2A1
9d041aa5541ec25e6b21,Seneca School,Public,580,rathburn rd,Etobicoke,ON,M9C3T3
9d1d881354eb5ab575aa,Banting and Best Public School,Public,380,goldhawk trail,Scarborough,ON,M1V4E7
9d9fe822b10e529f8467,CMU College of Makeup Art & Design,Private Institution,110,,Toronto,ON,M5C1M3
9dbc6587b6ea85a3e2dd,Excel High School,Private,55,nugget ave,SCARBOROUGH,ON,M1S3L1
9dce7745a3fab5d3ed62,Rolph Road Elementary School,Public,31,rolph rd,East York,ON,M4G3M5
9dde3dbe861c2acedbd8,Msgr John Corrigan Catholic School,Catholic,100,royalcrest rd,Toronto,ON,M9V5B4
9dec4d447ba5bb69aa1e,Balanced Education Network B.E.N. School,Private,394,harvie ave,YORK,ON,M6E4L8
9dfc58b08715c8c0d870,Canadian Mothercraft Society,Private Institution,646,st clair avenue west,Toronto,ON,M6C1A9
9e09ba28cd3238762f49,Fieldstone Day School,Private,2999,dufferin st,Toronto,ON,M6B3T4
9e3b5ab68fc3de5d3a50,Al-Qasim Academy,Private,3482,lawrence ave east,Scarborough,ON,M1H3E5
9e7ad8cfa7d4925a9b64,Lolart School,Private,15,hove street,North York,ON,M3H4Y8
9f459191b6e70a1b9b47,Frank Oke Secondary School,Public,500,alliance ave,Toronto,ON,M6N2H8
9f5d2c83a13fa74217f1,Cherokee Public School,Public,390,cherokee blvd,North York,ON,M2H2W7
9f6da0d7a09d91eeb551,Parkview Alternative School,Public,1641,pharmacy avenue,Scarborough,ON,M1R2L2
