Index,Facility_Name,Facility_Type,Street_No,Street_Name,City,Prov_Terr,Postal_Code
b0ef901588ba416ea1c3,Cathedral Christian Academy,Private,1111,arrow rd,Toronto,ON,M9M3B3
b0f5125f205c2f9378c4,McKee Public School,Public,35,church ave,North York,ON,M2N6X6
b1319d400b415a44e59c,University of Toronto (Admission And Awards),University,172,st george st,Toronto,ON,M5R0A3
b1659098466b0cbc0b79,Glenview Senior Public School,Public,401,rosewell ave,Toronto,ON,M4R2B5
b1b95079b4df86a8028c,Oakridge Junior Public School,Public,110,byng ave,Toronto,ON,M1L3P1
b1e9bb55ba197984f2c7,St Margaret's Public School,Public,235,galloway rd,Scarborough,ON,M1E1X5
b20bf658ee78e8845b64,Inglewood Heights Junior Public School,Public,45,dempster st,Scarborough,ON,M1T2T6
b2ec56c8d266857667b2,Chester Le Junior Public School,Public,201,chester le blvd,Scarborough,ON,M1W2K7
b34124f9a96c7dcf89fd,Apollo High School,Private,5467,yonge street,Toronto,ON,M2N5S1
b3e4d946147802000f14,Bais Yaakov Elementary School,Private,15,saranac boulevard,Toronto,ON,M6A2G4
b41ee8a79c8977aab594,Highcastle Public School,Public,370,military trail,Scarborough,ON,M1E4E6
b42e0330641904f99cd5,Herzing Institutes of Canada,Private Institution,11,kodiak crescent,Toronto,ON,M3J3E5
b451cb276564c0bdbfa5,Toronto Heuristic International Academy,Private,513,mcnicoll avenue,Toronto,ON,M2H2C9
b45f40f38239a70f9933,St Cecilia Catholic School,Catholic,355,annette st,Toronto,ON,M6P1R3
b51037fb046ec1c886a1,St Brendan Catholic School,Catholic,186,centennial rd,Scarborough,ON,M1C1Z9
b553cf0665d9e56e96bc,Msgr Fraser College (Isabella Campus),Catholic,146,isabella st,Toronto,ON,M4Y1P6
b595faa6884715bdcb24,Our Lady of Perpetual Help Catholic School,Catholic,,,Toronto,ON,M4T1E6
b59e341ddbaf0260446a,St Barnabas Catholic School,Catholic,30,washburn way,Toronto,ON,M1B1H3
b5a732fe0524603eff98,Victoria Park Collegiate Institute,Public,15,wallingford rd,Toronto,ON,M3A2V1
b684bde222e1f9aeae16,World Strides,Private,3080,yonge street,Toronto,ON,M4N3N1
b696fc6c3b6f51c6ffbf,Pleasant View Middle School,Public,175,brian dr,North York,ON,M2J3Y8
b6ff40d47ad889b05862,Integral High School,Private,323,cummer avenue,Toronto,ON,M2M2E8
b72a4dcf8fae44dc7edf,Metamorphosis Greek Orthodox School,Private,30,scarsdale rd,Toronto,ON,M3B2R7
b76c59d3ef7c3b3119ed,ÉSC Père-Philippe-Lamarche,Catholic,2850,eglinton e avenue,Toronto,ON,M1J2C8
b77c95fec1a998e01dd0,Beaches Alternative Junior School,Public,50,swanwick ave,Toronto,ON,M4E2Z5
b7cebaf808522a8edfac,Derrydown Public School,Public,120,derrydown rd,North York,ON,M3J1R7
b7cf57898c64e262794b,Park Street Education,Private,,,Toronto,ON,M4V3A9
b85530c7b6ef02e60c50,Highland Middle School,Public,201,cliffwood rd,North York,ON,M2H3B5
b9564c25178aae2c8c8e,Bannockburn School,Private,12,bannockburn ave,Toronto,ON,M5M2M8
b9b196ca7d80fe594288,Abacus Montessori & Private School,Private,4,credit union dr,NORTH YORK,ON,M4A2S6
b9ffb50d49a4a9508428,École élémentaire Pierre-Elliott-Trudeau,Public,65,grace rue,Toronto,ON,M6J2S4
ba15e18832063a70e3e6,Earl Grey Senior Public School,Public,100,strathcona ave,Toronto,ON,M4J1G8
ba3070c6826d78d96a3c,Canada's National Ballet School,Private Institution,400,jarvis street,Toronto,ON,M4Y2G6
ba3fad202a9000f267ea,Academy of New Echo Education,Private,1041,mcnicoll avenue,Scarborough,ON,M1W3W6
ba62e3e4e934549595fe,Morrish Public School,Public,61,canmore blvd,Scarborough,ON,M1C3T7
bacb802048cb02df949e,Madonna Catholic Secondary School,Catholic,20,dubray ave,Toronto,ON,M3K1V5
bad871bd1258f74fc20b,St Kevin Catholic School,Catholic,15,murray glen dr,Scarborough,ON,M1R3J6
bb00a002d213bfc24c76,New Covenant Church School,Private,1800,ellesmere rd,Toronto,ON,M1H2V5
bb4a5d3182bd0eaccf22,Heydon Park Secondary School,Public,70,d'arcy st,Toronto,ON,M5T1K1
bb869a3b4a1acacef3c8,Holy Nation Christian School,Private,1108,greenwood avenue,Toronto,ON,M4J4E8
bbb371d3cce18b757e1b,Huron Street Junior Public School,Public,541,huron st,Toronto,ON,M5R2R6
bbbe991a89d7b6e99c9f,Fleming Public School,Public,20,littles rd,Scarborough,ON,M1B5B5
bbc17cf709851be2093a,CDI College of Business- Technology and Healthcare-North York,Private Institution,,,North York,ON,M2N6K1
bbc92d6bcf21e68a53e2,Roywood Public School,Public,11,roywood dr,North York,ON,M3A2C7
bbd260d0f2155c27345c,Iqra Nejasni Islamic School,Private,171,mccormack street,Toronto,ON,M6N1X8
bc5a755bb4c38b46c897,Kikkawa College,Private Institution,2340,dundas street west,Toronto,ON,M6P4A9
bc6591d421e1d50dfcc9,Humber Summit Middle School,Public,60,pearldale ave,North York,ON,M9L2G9
bccd22c62aa5e51cea3e,The Grove Community School,Public,108,gladstone avenue,Toronto,ON,M6J3L2
bcd91bb4b1a51a268b10,St Gabriel Catholic Catholic School,Catholic,396,spring garden ave,Toronto,ON,M2N3H5
