Index,Facility_Name,Facility_Type,Street_No,Street_Name,City,Prov_Terr,Postal_Code
12d2c8d936a98d9f5209,Milne Valley Middle School,Public,100,underhill dr,North York,ON,M3A2J9
13132c95876e87288f60,Pape Avenue Junior Public School,Public,220,langley ave,Toronto,ON,M4K1B9
1321162ee17596f951c6,Tamarack West Outdoor School,Private,2264,bloor street west,Toronto,ON,M6S1N9
134b57fbe8a9c5cd0839,Notre Dame Catholic High School,Catholic,12,malvern ave,Toronto,ON,M4E3E1
136654d9405fa7789a66,St Henry Catholic Catholic School,Catholic,100,bamburgh circle,Toronto,ON,M1W3R3
145c5e42b5f7144ac2ee,Khairul Ummah School,Private,25,civic road,Scarborough,ON,M1L2K6
1474bacf03068a0f5e6c,Precious Blood Catholic School,Catholic,1035,pharmacy ave,Toronto,ON,M1R2G8
147f237932da21284c5b,Innunco Academy,Private,55,town centre court,Scarborough,ON,M1P4X4
1496c19240949a4dde73,North Toronto Christian School,Private,255,yorkland blvd,Toronto,ON,M2J1S3
149f4f5ea690211d6f3d,Realin Academy,Private,,,Toronto,ON,M2H2C9
14ce84341494f06aab22,Cosburn Middle School,Public,520,cosburn ave,East York,ON,M4J2P1
14d8d20131bc4f583e42,Pre-Apprenticeship Training Institute,Private Institution,11,kodiak crescent,Toronto,ON,M3J3E5
15ad76981d214a647148,Holy Angels Catholic School,Catholic,65,jutland rd,Toronto,ON,M8Z2G6
15d2f90779e3054e2f84,St John Bosco Catholic School,Catholic,75,holmesdale rd,Toronto,ON,M6E1Y2
16085e8cfaa0e488e93f,Allenby Junior Public School,Public,391,st clements ave,Toronto,ON,M5N1M2
160f3b529be1bc463fca,Sloane Public School,Public,110,sloane ave,North York,ON,M4A2B1
162d414b055e053872ea,Winona Drive Senior Public School,Public,101,winona dr,Toronto,ON,M6G3S8
1668cf38e722b42600c6,St James Catholic School,Catholic,230,humbercrest blvd,Toronto,ON,M6S4L3
171ee880a328c0cdb4c4,Niagara University,Private Institution,131,farnham ave,Toronto,ON,M4V1H7
1741264bba7fafab0c2e,Your Future School,Private,2070,avenue road,North York,ON,M5M4A6
174abfd6bddcaf40fb42,City High School,Private,1300,bay street,Toronto,ON,M5R3K8
1754a1299d570a520ca2,ALPHA II Alternative School,Public,1141,bloor st w,Toronto,ON,M6H1M9
175c7f066f912b1d049b,Royal Crown Academic School,Private,4620,finch avenue east,Scarborough,ON,M1S4G2
1803da5ce67a5d9b8316,Royal Online School,Private,90,eglinton avenue west,North York,ON,M4R1A2
1866fd6e9c4d935cee26,Churchill Heights Public School,Public,749,brimorton dr,Scarborough,ON,M1G2S4
18fe27d44fcaceb7f97b,Z3 Education Centre,Private,1200,markham m1h 2y9,Scarborough,ON,M1H2Y9
19345895a64f12190273,Willow Park Junior Public School,Public,45,windover dr,Scarborough,ON,M1G1P1
19569044dac4e1d1b9d7,Drewry Academy,Private,24,drewry ave,Toronto,ON,M2M1C8
19d0668a501f5afe0058,The School of Makeup Art,Private Institution,25,yorkville avenue,Toronto,ON,M4W1L1
19d544cf01b38e421950,Ossington/Old Orchard Junior Public School,Public,380,ossington ave,Toronto,ON,M6J3A5
1a402b5a7d13dae82872,Etobicoke Collegiate Institute,Public,86,montgomery rd,Etobicoke,ON,M9A3N5
1a59e37da1ce416ee1b4,Chaminade College School,Catholic,490,queen's dr,Toronto,ON,M6L1M8
1aba60ab9a0f9a74b307,Nile Academy Blue Haven Campus,Private,5,blue haven crescent,Toronto,ON,M9M1W6
1ad511040b74a2b1c50b,St Raphael Catholic School,Catholic,3,gade dr,Toronto,ON,M3M2K2
1b0b4f257cef5b508214,La Citadelle International Academy,Private,36,scarsdale rd,North York,ON,M3B2R7
1b3d83e5efeccd3f8327,Cottingham Junior Public School,Public,85,birch ave,Toronto,ON,M4V1E3
1b5844be5de5121b7f4c,Holy Cross Catholic School,Catholic,,,Toronto,ON,M4J3R7
1b65bca93b7ab400f897,New Heights International Academy,Private,27,carlton street,Toronto,ON,M5B1L2
1b99d4b7f7ca3867eab3,Hilltop Middle School,Public,35,trehorne dr,Etobicoke,ON,M9P1N8
1bbf0ff1d2b506416c2e,Metro College of Technology,Private Institution,789,don mills road,Toronto,ON,M3C1T5
1c5d09587a963e2ef731,Westway Junior School,Public,25,poynter dr,Etobicoke,ON,M9R1K8
1c89181bc66072983822,Dr Marion Hilliard Senior Public School,Public,280,washburn way,Scarborough,ON,M1B2P3
1c9f02a63377a362b0a7,St Theresa Shrine Catholic School,Catholic,2665,kingston rd,Toronto,ON,M1M1M2
1ca2ab63d210dd889c69,Downtown Vocal Music Academy of Toronto,Public,96,denison avenue,Toronto,ON,M5T1E4
1cae4c77e9bb35d8d5d4,Roden Public School,Public,151,hiawatha rd,Toronto,ON,M4L2Y1
1cba95588a5b8fc98ff9,Gibraltar Leadership Academy,Private,4140,finch avenue e,Scarborough,ON,M1S3T9
1ce6c33ff3db684272df,Cordella Junior Public School,Public,175,cordella ave,York,ON,M6N2K1
1d0f6afb12163c47d7bc,Dunlace Public School,Public,20,dunlace dr,North York,ON,M2L2S1
1d1ce080cb7a50e407be,De La Salle College,Private,131,farnham ave,TORONTO,ON,M4V1H7
