Index,Facility_Name,Facility_Type,Street_No,Street_Name,City,Prov_Terr,Postal_Code
8b4885266a60396e8fd4,Canadian Business College -Scarborough,Private Institution,55,town centre court,Scarborough,ON,M1P4X4
8b4c5b29b97d0cb6c9ea,Fern Avenue Junior and Senior Public School,Public,128,fern ave,Toronto,ON,M6R1K3
8b5966d6bb03c20ebafe,Kingsway College School,Private,4600,dundas st w,Etobicoke,ON,M9A1A5
8b5ee92bd2afba9540af,Waldorf Academy,Private,250,madison ave,Toronto,ON,M4V2W6
8b8c93c5d38118b9097a,Urban International School,Private,150,eglinton avenue east,Toronto,ON,M4P1E8
8baca804d39cf4082792,Oxford College of Arts- Business and Technology - Toronto,Private Institution,869,yonge street,Toronto,ON,M4W2H2
8c0b0536e814ee37e7d3,William Academy Scarborough,Private,3761,victoria park avenue,Toronto,ON,M1W3S3
8cb96fa14d25cb46646d,Claude Watson School for the Arts,Public,130,doris avenue,North York,ON,M2N0A8
8cdacefa04e8c41fd13b,Crown Academy,Private,25,sheppard ave west,North York,ON,M2N6S6
8cdd898458e062cf71c8,Rosedale Junior Public School,Public,22,south dr,Toronto,ON,M4W1R1
8ce3064863ffb17f0705,St Jean de Brebeuf Catholic School,Catholic,101,dean park rd,Toronto,ON,M1B2X2
8cf65d0e3a232e95f815,"Sterling Hall School, The",Private,99,cartwright ave,Toronto,ON,M6A1V4
8d41362f9a5ae0a67718,Joyce Public School,Public,26,joyce pkwy,North York,ON,M6B2S9
8d5e0fe73c6c523d7138,Rayson Academy,Private,1033,mcnicoll ave,Toronto,ON,M1W3W6
8dc353890018abf03307,Annunciation Catholic School,Catholic,65,avonwick gate,Toronto,ON,M3A2M8
8dc3e5deec98717af396,Sir Wilfrid Laurier Collegiate Institute,Public,145,guildwood pkwy,Toronto,ON,M1E1P5
8dfea2ed8d059a15c463,St Mary Catholic Academy Secondary School,Catholic,66,dufferin park ave,Toronto,ON,M6H1J6
8e000d0e2c30c4228978,Northern Secondary School,Public,851,mount pleasant rd,Toronto,ON,M4P2L5
8e11fe7a61e32c6c5489,Claireville Junior School,Public,350,silverstone dr,Etobicoke,ON,M9V3J4
8e2c5aa897b3531b5e0b,Holy Rosary Catholic School,Catholic,308,tweedsmuir ave,Toronto,ON,M5P2Y1
8ec5c7a30388f1a3c4fc,Gateway Public School,Public,55,gateway blvd,North York,ON,M3C1B4
8f18f8a3ff2733ae745d,St Cyril Catholic School,Catholic,18,kempford blvd,Toronto,ON,M2N2B9
8f23f5b82088e377c913,Alborz Education Centre,Private,20,tangreen crt,Toronto,ON,M2M3Y9
8f2d867a87b463f5d9a1,ÉÉC du Bon-Berger,Catholic,343,jones avenue,Toronto,ON,M4J3G4
8f53f1e513903737c1f8,St Marcellus Catholic School,Catholic,15,denfield st,Toronto,ON,M9R3H2
8f5af58102dbb798fc4a,Wisdom Academy,Private,480,lawrence avenue west,North York,ON,M5M1C4
8f8c78d9d9e2a6811c14,The York School,Private,1639,yonge street,Toronto,ON,M4T2W6
8f9e3b590a07ab0a2185,Hudson Academy,Private,501,consumers road,Toronto,ON,M2J1P8
8fe54b7165a8114c3080,Deutsche Schule Toronto,Private,980,dufferin,Toronto,ON,M6H4B4
8fff27e7198afb08321e,Markham International College,Private,3660,midland avenue,Toronto,ON,M1V0B8
901db74b3b252eb52fbd,St Augustine Catholic School,Catholic,98,shoreham dr,Toronto,ON,M3N1S9
904a09cc9ce1b82fce02,St Benedict Catholic School,Catholic,2202,kipling ave,Toronto,ON,M9W4K9
905375d2c110c7664e1a,Adelfiha's Christian Academy,Private,4340,dufferin st,Toronto,ON,M3H5R9
911897bd1028e9bddcd7,Burnhamthorpe Collegiate Institute,Public,500,the east mall,Etobicoke,ON,M9B2C4
9122ba085cdb8172d31c,St Stephen Catholic School,Catholic,55,golfdown dr,Toronto,ON,M9W2H8
9136aa5a54e5eb5d4e5c,Marca College of Hair & Esthetics (Danforth),Private Institution,2902,danforth avenue,Toronto,ON,M4C1M1
919efbb066a303798d70,H A Halbert Junior Public School,Public,25,halbert place,Scarborough,ON,M1M0E1
91afd46374ff565c8d7e,Adam Beck Junior Public School,Public,400,scarborough rd,Toronto,ON,M4E3M8
91ccce8b950062aa0ab4,Lescon Public School,Public,34,lescon rd,North York,ON,M2J2G6
91eda336818061d5d043,Bethune International Collegiate,Private,4438,sheppard avenue east,Scarborough,ON,M1S5V9
91f9f0e570981a80d1b9,Msgr Fraser College (Alternate Study) Secondary School,Catholic,700,markham street,Toronto,ON,M6G2M3
929380dbd94589f02060,Bendale Junior Public School,Public,61,benshire dr,Scarborough,ON,M1H1M4
9361ab8e79f386936562,The Elms Junior Middle School,Public,45,golfdown dr,Etobicoke,ON,M9W2H8
93a21aa3d1e28887842d,Seneca Hill Private School,Private,33,overland dr,North York,ON,M3C2C3
93e6d7c5065a91d5a9c9,Can-AIM High School,Private,2,elmhurst drive,Etobicoke,ON,M9W2J3
9404506340881e5a26ae,Eastview Public School,Public,20,waldock st,Scarborough,ON,M1E2E5
9451f567f4a3a72816da,Cestar High School,Private,271,yorkland boulevard,Toronto,ON,M2J1S5
945245d072e5601feb42,Bloor Collegiate Institute,Public,1141,bloor st w,Toronto,ON,M6H1M9
945b5253095b5f7ef08e,St Paschal Baylon Catholic School,Catholic,15,st paschal crt,Toronto,ON,M2M1X6
