Index,Facility_Name,Facility_Type,Street_No,Street_Name,City,Prov_Terr,Postal_Code
4083957f92721b700938,Ontario College of Traditional Chinese Medicine - Toronto,Private Institution,283,spadina avenue,Toronto,ON,M5T2E3
40d6f774a357bf3fedff,Charles Gordon Senior Public School,Public,25,marcos blvd,Scarborough,ON,M1K5A7
40e84bbc9678b00b1385,Oxford College of Arts- Business and Technology - Scarborough,Private Institution,670,progress avenue,Toronto,ON,M1H3A4
410810e454b29eef45c5,Sir Alexander Mackenzie Senior Public School,Public,33,heather rd,Scarborough,ON,M1S2E2
413d46b60f595b891f09,St Joseph Catholic School,Catholic,176,leslie st,Toronto,ON,M4M3C7
4145df8480b2a24a180a,Northmount School,Private,26,mallard rd,Toronto,ON,M3B1S3
41492e22f8c0b95567d4,Birmingham Int'l Collegiate of Can,Private,90,eglinton avenue west,Toronto,ON,M4R2E4
414db08ae8a69dd07c90,West Humber Junior Middle School,Public,15,delsing dr,Toronto,ON,M9W4S7
416cfc501cb0b17f6992,Steelesview Public School,Public,105,bestview dr,North York,ON,M2M2Y1
4184176a3e3754c42b50,Mary Ward Catholic Secondary School,Catholic,3200,kennedy rd,Toronto,ON,M1V3S8
41d6c6d89b9b6868e48f,Ellesmere-Statton Public School,Public,739,ellesmere rd,Toronto,ON,M1P2W1
421290402d4eeeabb4c0,Lester B Pearson Collegiate Institute,Public,150,tapscott rd,Scarborough,ON,M1B2L2
4293e41a6654d38724f8,Brimwood Boulevard Junior Public School,Public,151,brimwood blvd,Scarborough,ON,M1V1E5
42a2a8fc0eb22e1caf79,Msgr Fraser College (Southwest),Catholic,319,ossington avenue,Toronto,ON,M6J3A6
42af1670e2f0e0b09bc5,Cliffside Public School,Public,27,east haven dr,Scarborough,ON,M1N1M1
42ccaa05d785b84d6764,R H King Academy,Public,3800,st clair ave e,Toronto,ON,M1M1V3
4309cdcf7b1fa9593e59,F H Miller Junior Public School,Public,300,caledonia rd,York,ON,M6E4T5
430ca1ff453481a1deef,"Great Lakes College of Toronto, The",Private,323,keele st,Toronto,ON,M6P2K6
430cd6df9fedf7339f44,Denlow Public School,Public,50,denlow blvd,Toronto,ON,M3B1P7
43313209a9721d548ed8,Branksome Hall,Private,10,elm ave,Toronto,ON,M4W1N4
433f8bf70882a4e1481e,Ã‰IC Monseigneur-de-Charbonnel,Catholic,110,drewry avenue,Toronto,ON,M2M1C8
435a402fcc029143bead,Glamorgan Junior Public School,Public,51,antrim cres,Scarborough,ON,M1P4N4
436a89c3dbb779947b14,The Waterfront School,Public,635,queen's quay w,Toronto,ON,M5V3G3
437a93c4eadcf8456b9a,Belka-Jane School,Private,120,norfinch drive,North York,ON,M3N1X3
43d3968b720eb189dd7e,Acacia International High School,Private,2,rosemount ave,York,ON,M9N3B3
43e35bc7e76cbc46ced3,City View Alternative Senior School,Public,38,shirley street,Toronto,ON,M6K1S9
43e35f80724c4d2273bd,St Bonaventure Catholic School,Catholic,1340,leslie st,Toronto,ON,M3C2K9
440273e98e3f5793a667,Havergal College,Private,1451,avenue rd,Toronto,ON,M5N2H9
4461678e64a968f8a565,Toronto Film School-Dundas,Private Institution,10,dundas st. e.,Toronto,ON,M5B2G9
44629d49a0c4e98a71f7,Erudite School,Private,2323,bloor street west,Toronto,ON,M6S4W1
44b9d91115a07843ce74,Trillium College Inc-Toronto,Private Institution,869,yonge st.,Toronto,ON,M4W2H2
44c9238265b8d47d7461,Bialik Hebrew Day School,Private,2760,bathurst st,Toronto,ON,M6B3A1
450a4050f9cfa6b158c2,St Brigid Catholic School,Catholic,50,woodmount ave,Toronto,ON,M4C3X9
453e1afee17373a21f07,Toronto Eschool,Private,41,metropolitan road,Toronto,ON,M1R2T5
454d100b355e974120cd,Don Valley Middle School,Public,3100,don mills rd,Toronto,ON,M2J3C3
4584324d472e8ae64fcc,Summit Micro School,Private,291,jane street,Toronto,ON,M6S3Z3
45b323440b3419cdc2da,Alathena International Academy - Brimley,Private,4386,sheppard avenue east,Scarborough,ON,M1S1T8
460d44ce01f8f148858d,Western Technical & Commercial School,Public,125,evelyn cres,Toronto,ON,M6P3E3
46104d142b291f1f42e1,UMC High School,Private,425,mccowan road,Scarborough,ON,M1J1J1
463ec3757ce25b3226b2,St Timothy Catholic School,Catholic,25,rochelle cres,Toronto,ON,M2J1Y3
4653f49e1dab813185fb,Agincourt Montessori School Inc,Private,2575,midland ave,Toronto,ON,M1S1R3
465a834cb1071548d08c,St Columba Catholic School,Catholic,10,john tabor trail,Toronto,ON,M1B1M9
47288d32e5ac40dd43ae,York Mills Collegiate Institute,Public,490,york mills rd,Toronto,ON,M3B1W6
47b2b9fd88a8d5095087,ADRABA,Private,2-115,kenwood avenue,Toronto,ON,M6C2S4
47faabbe10dff60df0e0,Stephen Leacock Collegiate Institute,Public,2450,birchmount rd,Toronto,ON,M1T2M5
4804d3052c590f2112d4,Cornerstone Preparatory - Main,Private,177,beverley st,Toronto,ON,M5T1Y7
48a3886c3e5e8e3682ab,Oriole Park Junior Public School,Public,80,braemar ave,Toronto,ON,M5P2L4
492d3bae3f023eeec2f4,Mindwerx4kids Learning Centre,Private,76,anglesey blvd.,Etobicoke,ON,M9A3C1
497e3c53e12d3d197f25,Stanford International College of Business & Technology,Private Institution,930,progress avenue,Scarborough,ON,M1G3T5
