Index,Facility_Name,Facility_Type,Street_No,Street_Name,City,Prov_Terr,Postal_Code
5ba38a1bb47326773daa,Msgr Fraser College (Norfinch Campus),Catholic,45,norfinch avenue,Toronto,ON,M3N1W8
5bd3baea6041bb654df6,St Michael's Choir (Sr) School,Catholic,67,bond st,Toronto,ON,M5B1X2
5be4c0181d4640c514f5,CITI COLLEGE OF CANADIAN CAREERS,Private Institution,1448,lawrence ave east,Toronto,ON,M4A2V6
5bf70a2b2db2f5726268,Eastdale Collegiate Institute,Public,701,gerrard st e,Toronto,ON,M4M1Y4
5c370721dfa288dc0cd1,Chester Elementary School,Public,115,gowan ave,East York,ON,M4K2E4
5c4464e26be95505d082,Toronto Academy of EMC,Private,5145,steeles avenue west,Toronto,ON,M9L1R5
5c646c2757d5a732d8b2,St Marguerite Bourgeoys Catholic Catholic School,Catholic,75,alexmuir blvd,Toronto,ON,M1V1H6
5caef6f0074074adfdd9,Blythwood Junior Public School,Public,2,strathgowan cres,Toronto,ON,M4N2Z5
5cb1317a2c6f1361d3a1,The School of Toronto Dance Theatre,Private Institution,80,winchester st.,Toronto,ON,M4X1B2
5cc76028b1ba4ee0a750,Our Lady of Guadalupe Catholic School,Catholic,3105,don mills rd,Toronto,ON,M2J3C2
5ce83d71ae3b30da4219,Kew Park Montessori Day School,Private,79,hiawatha rd,Toronto,ON,M4L2X7
5d0e8f635bbbaef12ca0,Parkfield Junior School,Public,31,redgrave dr,Etobicoke,ON,M9R3T9
5d3fd7f9a1203247140d,Africentric Alternative School,Public,1430,sheppard avenue west,Toronto,ON,M3M2W9
5d46645ac6d8e0221af5,Fenside Public School,Public,131,fenside dr,North York,ON,M3A2V9
5d685f242dc659908d5c,Canadian College of Business Science & Technology-Etobicoke,Private Institution,5001,yonge st,North York,ON,M2N6R9
5d7900ae786b3c12c65f,Toronto College of Dental Hygiene & Auxiliaries Inc.,Private Institution,28,vanley crescent,North York,ON,M3J2B8
5d7d6b9bc5082719f05b,TAHA ACADEMY OF BEAUTY- BUSINESS & HEALTH,Private Institution,2210,markham rd.,Scarborough,ON,M1B5V6
5d92a65c2d97fd8e5541,Inspired Mind Academy,Private,24,drewry ave,Toronto,ON,M2M1C8
5df165ffdbca1debac33,George B Little Public School,Public,125,orton park rd,Scarborough,ON,M1G3G9
5e9421728a6ddb13e12f,Lighthouse Academy,Private,17,cree avenue,Scarborough,ON,M1M1Z3
5ee07ba29ffdcc6abb68,Crawford Adventist Academy -Secondary,Private,531,finch ave w,Toronto,ON,M2R3X2
5ee4cf8c380987177df9,North Bridlewood Junior Public School,Public,50,collingsbrook blvd,Scarborough,ON,M1W1L7
5eeb012d3cc9b769d37c,Oakwood Collegiate Institute,Public,991,st clair ave w,Toronto,ON,M6E1A3
5f504892eb764e6e87c7,St Dominic Savio Catholic School,Catholic,50,tideswell blvd,Toronto,ON,M1B5X3
5f6fcd48c5e2f97498fa,Gracedale Public School,Public,186,gracedale blvd,North York,ON,M9L2C1
5f703ad2ea24f9a23ab3,Nativity of Our Lord Catholic School,Catholic,35,saffron cres,Toronto,ON,M9C3T8
5f71ec5f08f477febf8f,Willowdale Middle School,Public,225,senlac rd,North York,ON,M2R1P6
5f75c3aaf1e53e38d3e7,Firgrove Public School,Public,270,firgrove cres,North York,ON,M3N1K8
5ff86b7fa14032d4856b,École élémentaire Micheline-Saint-Cyr,Public,85,forty first street,Etobicoke,ON,M8W3P1
602911ad773a88304dbd,Yeshiva Gedolah of Toronto,Private,567,lawrence ave w,Toronto,ON,M6A1A4
604716750eb8497d0f9d,Gulfstream Public School,Public,20,gulfstream rd,North York,ON,M9M1S3
608147a2d37322cf3b6b,Sunnylea Junior School,Public,35,glenroy ave,Etobicoke,ON,M8Y2M2
60977586292acf839d76,Inglenook Community School,Public,19,sackville st,Toronto,ON,M5A3E1
609e0b6a3b6082d2f6cc,Tayyibah Islamic Academy Inc.,Private,100,mclevin avenue,Scarborough,ON,M1B2V5
60f20c0e13b01b79af7c,Pharma-Medical Science College of Canada,Private Institution,505,consumers rd.,North York,ON,M2J4V8
6169a493a276ff14c00c,Regina Mundi Catholic School,Catholic,70,playfair ave,Toronto,ON,M6B2P9
616e022793d41289dad6,A R S Armenian Private School,Private,50,hallcrown place,Toronto,ON,M2J1P7
6184c38f58026a8eb4f8,Upper Canada College,Private,200,lonsdale rd,Toronto,ON,M4V1W6
62003194c94c8fa03a21,Forest Manor Public School,Public,25,forest manor rd,North York,ON,M2J1M4
620f93bd586fb29d1cef,Presteign Heights Elementary School,Public,2570,st clair ave e,Toronto,ON,M4B1M3
623186d9f64e76e464ea,Montcrest School,Private,4,montcrest blvd.,Toronto,ON,M4K1J7
623ca2941bc78499de7f,Manor Montessori School,Private,909,mount pleasant rd,Toronto,ON,M4P2Z6
624e7d009c6baa9cc944,Automotive Training Centre,Private Institution,152,norseman street,Toronto,ON,M8Z2R4
625152c66e8f859bd76f,Cedar Drive Junior Public School,Public,21,gatesview ave,Scarborough,ON,M1J3G4
627a2951d50676cb1e6c,St Mark Catholic School,Catholic,45,cloverhill rd,Toronto,ON,M8Y1T4
62a4d9c39d45227c445e,Sidney Ledson Institute - North York,Private,220,duncan mill road,North York,ON,M3B3J5
63621606fb97ab67c8bb,Avondale Public School,Public,171,avondale ave,North York,ON,M2N2V4
642fdedfa5ba5443a137,Earl Haig Public School,Public,15,earl haig ave,Toronto,ON,M4C1E2
6431bd855936eee2c01a,Torah High,Private,1072,eglinton avenue west,Toronto,ON,M6C2E2
