Index,Facility_Name,Facility_Type,Street_No,Street_Name,City,Prov_Terr,Postal_Code
d20e9425e1293fe0d6dd,Caring and Safe Schools LC4,Public,540,jones ave,Toronto,ON,M6P4G4
d22698dd1df1577fd4df,Cummer Valley Middle School,Public,70,maxome ave,North York,ON,M2M3K1
d26cacf96fb6686f650a,FH International High School Online,Private,670,progress avenue,Scarborough,ON,M1H3A4
d27dfdd2149c85e48db3,Flemington Public School,Public,10,flemington rd,North York,ON,M6A2N4
d27f8736722142c4190e,Sir Samuel B Steele Junior Public School,Public,131,huntsmill blvd,Scarborough,ON,M1W2Y2
d2c3fb9b04c7ff96cee9,St Rene Goupil Catholic School,Catholic,44,port royal trail,Toronto,ON,M1V2G8
d30e64cc23db016681f4,"Prestige School, The -Toronto",Private,21,eddfield avenue,Toronto,ON,M2N2M5
d30ea5617f64880de613,Bala Avenue Community School,Public,6,bala ave,York,ON,M6M2E1
d335096880041e60b1c9,High Park Alternative School Junior,Public,265,annette st,Toronto,ON,M6P1R3
d36c89945b55c87d3f45,SuOn Academy Queenslea,Private,5,queenslea avenue,Toronto,ON,M9N3X9
d39794e81da729a6a246,St Isaac Jogues Catholic School,Catholic,1330,york mills rd,Toronto,ON,M3A1Z8
d3c971722ea40c267959,Blyth Academy - Yorkville,Private,85,st. nicholas street,Toronto,ON,M4Y1W8
d3cbc6d003c25aabd5d4,Anson Park Public School,Public,30,macduff cres,Scarborough,ON,M1M1X5
d3cdc8c09407cd68a3c2,Eatonville Junior School,Public,15,rossburn dr,Etobicoke,ON,M9C2P7
d40614bf1d4882567158,St Matthias Catholic School,Catholic,101,van horne ave,Toronto,ON,M2J2S8
d45fae31bf7da327bc4e,Charles G Fraser Junior Public School,Public,79,manning ave,Toronto,ON,M6J2K6
d4a01ca7b6807ba6a9c6,ÉSC Monseigneur-de-Charbonnel,Catholic,110,drewry avenue,Toronto,ON,M2M1C8
d4d00fe05f14034b0e62,Paul Penna Downtown Jewish Day School,Private,750,spadina ave,Toronto,ON,M5S2J2
d521483208420a79cbf6,Msgr Fraser Orientation Centre,Catholic,146,isabella st,Toronto,ON,M4Y1P6
d538b0a796690e9d139e,School of Experiential Education,Public,40,mcarthur st,Toronto,ON,M9P3M7
d56b3bd54334d0bf8e72,Lycée Français de Toronto,Private,2327,dufferin st,Toronto,ON,M6E3S5
d57f288a3b23c92e79eb,Harbord Collegiate Institute,Public,286,harbord st,Toronto,ON,M6G1G5
d5901e3b0f40bfd0c926,Magnificent Minds,Private,37,southbourne avenue,Toronto,ON,M3H1A4
d59d73389e73f6d8ce09,Park Lawn Junior and Middle School,Public,71,ballacaine dr,Etobicoke,ON,M8Y4B6
d5bbce4d63f3051e4466,Transfiguration of our Lord Catholic School,Catholic,55,ludstone dr,Toronto,ON,M9R2J2
d5be8a8a43e7ed9a51f5,Earl Beatty Junior and Senior Public School,Public,55,woodington ave,Toronto,ON,M4C3J6
d6153de699b572a4fdf4,ThriveKids Academy,Private,873,st. clair avenue west,Toronto,ON,M6C1C4
d626bc831d2f47f16f2e,Amanah Academy North America Foundation,Private,1160,birchmount road,Scarborough,ON,M1P2B8
d6542bc17d46ebc466b4,CDI College of Business- Technology & Health Care-Scarborough,Private Institution,205-2206,eglinton ave e,Scarborough,ON,M1L4S8
d6a23128479e1e6925a1,Rivercrest Junior School,Public,30,harefield dr,Toronto,ON,M9W4C9
d6e7805407e4cc004067,Lorvale Academy,Private,1,chestnut hills cres,Toronto,ON,M9A2W3
d74a432779ca49697d0d,Imperial College of Toronto,Private,20,queen elizabeth blvd,Toronto,ON,M8Z1L8
d7c67c2a81172a502eaf,St Martin Catholic School (St.Martin),Catholic,55,salisbury avenue,Toronto,ON,M4X1C5
d7dacefbfc28f6191797,New Arising Christian School,Private,69,long branch avenue,Etobicoke,ON,M8W3J5
d7eba00afe171cbe3206,David and Mary Thomson Collegiate Institute,Public,2740,lawrence ave e,Scarborough,ON,M1P2S7
d7f7a4e1803354cc84cb,Orde Street Public School,Public,18,orde st,Toronto,ON,M5T1N7
d805a55d4ee23b9e252a,Bellmere Junior Public School,Public,470,brimorton dr,Scarborough,ON,M1H2E6
d823fcfbaec3d897bd68,National Academy of Health & Business-Toronto,Private Institution,20,,Toronto,ON,M4P1A9
d84038192f51886222c8,Tam O'Shanter Junior Public School,Public,21,king henrys blvd,Scarborough,ON,M1T2V3
d8d8a5bbf2806a9ea0d1,Beverley Heights Middle School,Public,26,troutbrooke dr,North York,ON,M3M1S5
d8fa24862b5688aa43ac,Toronto International College,Private,3550,victoria park avenue,Toronto,ON,M2H2N5
d9973771c84a5c064461,CCGP Learning Academy,Private,102-705,progress avenue,Scarborough,ON,M1H2X1
d9a701badbf76c1cbd31,York Memorial Collegiate Institute,Public,2690,eglinton ave w,Toronto,ON,M6M1T9
d9d5abf8c8e4ade0545d,David Hornell Junior School,Public,32,victoria st,Etobicoke,ON,M8V1M6
d9d7056e5a70d1c2097f,City School,Public,635,queen's quay w,Toronto,ON,M5V3G3
d9d75e56bded6196d7a3,Brian Public School,Public,95,brian dr,North York,ON,M2J3Y6
da1782f449a7c4532e0b,Rockcliffe Middle School,Public,400,rockcliffe blvd,Toronto,ON,M6N4R8
da3ea256dcddef72e480,Robert Service Senior Public School,Public,945,danforth rd,Scarborough,ON,M1K1J2
da4c8b7aa04dd7203086,Madinatul Uloom Academy - Scarborough,Private,700,progress avenue,Toronto,ON,M1H2Z7
