Index,Facility_Name,Facility_Type,Street_No,Street_Name,City,Prov_Terr,Postal_Code
bd09cac90eaae0f43147,General Crerar Public School,Public,30,mcgregor rd,Scarborough,ON,M1P1C8
bd0f7cc7544f653dfa1c,ALIF Canada,Private,505,ellesmere road,Toronto,ON,M1R4E5
bd1059b514b4f7590ded,Island Public/Natural Science School,Public,30,centre island pk,Toronto,ON,M5J2E9
bd3a310e26dee3243557,Al-Hidayah Academy Inc,Private,65,rexdale blvd,Toronto,ON,M9W1P1
bd661036c7585c52bc62,Fireside Analytics,Private,11,watkinson avenue,Toronto,ON,M6P2E6
bdb4e9eb9e4bd040bc93,Thomas L Wells Public School,Public,69,nightstar road,Scarborough,ON,M1X1V6
be2441c204dcab3f2615,"Mabin School, The",Private,50,poplar plains road,Toronto,ON,M4V2M8
be369040161ce8947cad,Talenta Academy,Private,2020,ellesmere road,Scarborough,ON,M1H2Z8
be5e9246d321af88ad03,George S Henry Academy,Public,200,graydon hall dr,North York,ON,M3A3A6
be71c4b0acac40721d8f,George P Mackie Junior Public School,Public,60,heathfield dr,Scarborough,ON,M1M3B1
bea4b5587a03807e45f8,Mary Shadd Public School,Public,135,hupfield trail,Scarborough,ON,M1B4R6
beee989ce04e7dfabb18,Terraview-Willowfield Public School,Public,95,pachino blvd,Scarborough,ON,M1R4K1
bf083952e531980d2cc1,Maplewood High School,Public,120,galloway rd,West Hill,ON,M1E1W7
bf5338fb4388f10fd65f,Cliffwood Public School,Public,140,cliffwood rd,North York,ON,M2H2E4
bfb457041fa753327307,Greenwood College School,Private,443,mount pleasant rd,Toronto,ON,M4S2L8
c00215d05e51381159c6,Academy of Applied Pharmaceutical Sciences,Private Institution,200,consumers road,Toronto,ON,M2J4R4
c029eab5da82591112e7,Seneca College of Applied Arts & Technology- Newnham/Jane-Toronto,Technical and Vocational,1750,finch avenue east,Toronto,ON,M2J2X5
c07730df172af4acbf0a,Chartland Junior Public School,Public,109,chartland blvd s,Scarborough,ON,M1S2R7
c096273377751b06d54e,J G Workman Public School,Public,487,birchmount rd,Toronto,ON,M1K1N7
c0cff0ccaa68e38b863d,Canadian International Talent Academy -C,Private,1646,victoria park avenue,North York,ON,M1R1P7
c15878abe2cefc278cca,Ranchdale Public School,Public,60,ranchdale cres,North York,ON,M3A2M3
c1b0c86b00fdcc31e32a,Toronto International School,Private,20,tangreen court,North York,ON,M2M3Y9
c1d665bc6da288398403,Avola College of Hairstyling & Esthetics,Private Institution,282,dundas st. east,Toronto,ON,M5A1Z9
c29ec167f4d499c16944,John Polanyi Collegiate Institute,Public,640,lawrence avenue west,Toronto,ON,M6A1B1
c309ad8cd7840af7d08f,Metro Virtual Academy,Private,3195,sheppard avenue east,Scarborough,ON,M1T3K1
c32c899da495b49ae9f6,Finch Public School,Public,277,finch ave e,Toronto,ON,M2N4S3
c3614da12674eeb5b28e,Lynngate Junior Public School,Public,129,cass ave,Scarborough,ON,M1T2B5
c36609bec8afd24c2be8,Poplar Road Junior Public School,Public,66,dearham wood,Scarborough,ON,M1E1S4
c3d057e1ff9d85ca1b59,Heritage Park Public School,Public,80,old finch avenue,Scarborough,ON,M1B5J2
c416a9d0edabdb65521b,Givins/Shaw Junior Public School,Public,49,givins st,Toronto,ON,M6J2X5
c44b71f1500815034307,Horizon Alternative Senior School,Public,570,shaw st,Toronto,ON,M5T1S9
c4612fe299ac13c2da1d,Winchester Junior and Senior Public School,Public,15,prospect st,Toronto,ON,M4X1C7
c464b76107dc670d3834,Silverthorn Community School,Public,300,kane ave,Toronto,ON,M6M3P1
c4ba741706fb1d602d05,St Andrews Public School,Public,60,brimorton dr,Scarborough,ON,M1P3Z1
c525f440e68a753b0588,Central Toronto Academy,Public,570,shaw st,Toronto,ON,M6G3L6
c53045f6bf3dd8d41ebe,Al-Ikhlaas Foundation School,Private,2050,kipling ave,Etobicoke,ON,M9W4J9
c5857b1d5be68eafad00,Morse Street Junior Public School,Public,180,carlaw ave,Toronto,ON,M4M2R9
c5af9ef110dc11e3ebb5,St Richard Catholic School,Catholic,960,bellamy rd n,Toronto,ON,M1H1H1
c5bc4ccdefde69e82bfa,Crestwood Preparatory College Inc.,Private,217,brookbanks dr,Toronto,ON,M3A2T7
c60f9d7bb11f8739c11e,Santa Maria Catholic School,Catholic,25,avon ave,Toronto,ON,M6N4X8
c61db53b6113b108b6d5,Pierre Laporte Middle School,Public,1270,wilson ave,North York,ON,M3M1H5
c62193b28a7ba9a0bc18,Scarborough Centre for Alternative Studi,Public,720,midland avenue,Toronto,ON,M1K4C9
c649b642570aacbb9f6b,West Glen Junior School,Public,47,cowley ave,Etobicoke,ON,M9B2E4
c670b07f55b87f9dc690,Ben Heppner Vocal Music Academy,Public,80,slan avenue,Scarborough,ON,M1G3B5
c6c4ad5e35fe70d763a6,Maurice Cody Junior Public School,Public,364,belsize dr,Toronto,ON,M4S1N2
c6f35f180562ed1e4c92,Discovering Minds Montessori Preschool I,Private,828,richmond street west,Toronto,ON,M6J1C9
c6f49f5527430d7044c2,Elmlea Junior School,Public,50,hadrian dr,Etobicoke,ON,M9W1V4
c6faa95b055ccf7674e2,St Alphonsus Catholic School,Catholic,60,atlas ave,Toronto,ON,M6C3N9
c7160c1654e5041b87db,Sunview College -Toronto,Private Institution,127,westmore drive,Etobicoke,ON,M9V3Y6
