Index,Facility_Name,Facility_Type,Street_No,Street_Name,City,Prov_Terr,Postal_Code
3474f9723fa53548eabc,J B Tyrrell Senior Public School,Public,10,corinthian blvd,Scarborough,ON,M1W1B3
34e0448c710c5c35869e,One Direction Academy,Private,885,don mills road,Toronto,ON,M3C1V9
353b1265c32d8845affd,St Michael's College School,Private,1515,bathurst st,Toronto,ON,M5P3H4
35d48c753cbc69aacac6,St Jerome Catholic School,Catholic,111,sharpecroft blvd,Toronto,ON,M3J1P5
35dadcdbfa4e777f4752,SIMRA Academy Private School,Private,2929,lawrence avenue east,Toronto,ON,M1P2S8
35e2df3e6b8a1a4add82,Ontario College of Art and Design University,Technical and Vocational,100,mccaul st,Toronto,ON,M5T1W1
35f173da5f33d3370a11,Madinatul-Uloom Academy,Private,670,progress ave,Scarborough,ON,M1H3A4
361ac3efb3a258beec7a,Highview Public School,Public,22,highview ave,North York,ON,M3M1C4
36cb7713f2707eba6d77,Newton International College,Private,17,toronto street,Toronto,ON,M5C2R1
36d6c60e5ababf3c72a0,Success Academy Canada,Private,27,blue haven cresent,Toronto,ON,M9M1W6
36f52f768f79bce8fefe,Caring and Safe Schools LC3,Public,720,midland avenue,Scarborough,ON,M1K4C9
3726e53066e46629567a,The Institute of Technical Trades,Private Institution,749,warden avenue,Scarborough,ON,M1L4A8
37298827059e7811232d,Community Life Christian School,Private,140,dawes road,Toronto,ON,M4C5C2
374b9a76d65040174e7b,Timothy Christian School,Private,28,elmhurst dr,Rexdale,ON,M9W2J5
3755df920e473b99b3bc,Avondale Alternative Elementary School,Public,171,avondale ave,North York,ON,M2N2V4
37863a603d1bb5221d75,Agincourt International Academy,Private,1001,sandhurst circle east,Scarborough,ON,M1V1Z6
37f144aa5e746327c7fe,J R Wilcox Community School,Public,231,ava rd,York,ON,M6C1X3
387372606f4624abef8b,Runnymede Junior and Senior Public School,Public,357,runnymede rd,Toronto,ON,M6S2Y7
393f077c62052153b914,Holy Family Catholic School,Catholic,141,close ave,Toronto,ON,M6K2V6
393f08e6fccccfc381bb,Marc Garneau Collegiate Institute,Public,135,overlea blvd,Toronto,ON,M3C1B3
3972e812293f526f394f,Deran Online School,Private,212,eglington avenue east,Toronto,ON,M4P1K2
39e2a2bfa15dc3e4331f,Sts Cosmas and Damian Catholic School,Catholic,111,danesbury ave,Toronto,ON,M6B3L3
3a15d9555bb6268cc30f,McMurrich Junior Public School,Public,115,winona dr,Toronto,ON,M6G3S8
3a53b055d3025d7b3625,Queen Victoria Junior Public School,Public,100,close ave,Toronto,ON,M6K2V3
3ab29ad894cecdf40e3a,Caesar International Academy,Private,20,eglinton avenue east,Toronto,ON,M4P1A9
3abd0c07838078f5cbd8,Course Concepts Academy,Private,111,anaconda avenue,Scarborough,ON,M1L4M4
3b6b83c2710effd2e4d1,École élémentaire Gabrielle-Roy,Public,14,pembroke rue,Toronto,ON,M5A2N7
3b865e6950272d68ffc6,Humbercrest Public School,Public,14,saint marks rd,York,ON,M6S2H7
3bba5d1a9b33add6e96c,Bnos Bais Yaakov High School,Private,2949,bathurst st,Toronto,ON,M6B3B2
3bf3cbe987c997d4df01,Brookhaven Public School,Public,70,brookhaven dr,North York,ON,M6M4N8
3bfb6d6a37300ee9f6cb,Career College Grouop Medix-Toronto,Private Institution,700,lawrence avenue west,Toronto,ON,M6A3B4
3c108d9234cd0769e7ee,Afzal Islamic Montessori & Academy,Private,33,casebridge court,Scarborough,ON,M1B3J5
3c192e9039d472aee05b,Academy of Math and English,Private,5101,dundas street west st,ETOBICOKE,ON,M9A5G8
3c35bc8b6044c01f6ad3,St Elizabeth Catholic School,Catholic,5,redcar ave,Etobicoke,ON,M9B1J8
3c8e44a58d3345485400,YMCA Academy,Private,15,breadalbane street,Toronto,ON,M4Y1C2
3cd43a95ba7088c984bd,Stanley Public School,Public,75,stanley rd,North York,ON,M3N1C2
3cd94e765931ab731384,Maple Leaf Collegiate,Private,4002,s sheppard avenue east,Scarborough,ON,M1S4R5
3ce91a6518c2ba6baacf,Lanor Junior Middle School,Public,450,lanor ave,Etobicoke,ON,M8W2S1
3d160d092e7d579f35af,St Anthony Catholic School,Catholic,130,shanly street,Toronto,ON,M6H1L9
3d247521993068e62a33,"Toronto Heschel School, The",Private,819,sheppard ave w,Toronto,ON,M3H2T3
3db0524b5b4e091a8cf2,St Vincent de Paul Catholic School,Catholic,116,fermanagh ave,Toronto,ON,M6R1M2
3dcfc39e65ca73dfd90e,Toronto International Business College,Private Institution,1265,morningside ave,Scarborough,ON,M1B3V9
3e48f08b78520a98926a,Toronto West Academy,Private,77,bloor street west,Toronto,ON,M5S1M2
3e4d86d211d8c3010628,Michael Power/St Joseph High School,Catholic,105,eringate dr,Toronto,ON,M9C3Z7
3eca3510bec5ef3cee49,Bryan College of Applied Health & Business Sciences,Private Institution,1200,lawrence ave west,North York,ON,M6A1E3
3f228080a17481fa613e,Central Etobicoke High School,Public,10,denfield st,Toronto,ON,M9R3H1
3f3501779ed1923a421f,St Michael Catholic School,Catholic,50,george st s,Toronto,ON,M5A4B2
3fc8ccff3c56572b2ecb,The Divine Infant Catholic School,Catholic,30,ingleton blvd,Scarborough,ON,M1V3H7
3fde637e0f6ad17c4695,JNY Day School,Private,465,patricia avenue,Toronto,ON,M2R2N1
