Index,Facility_Name,Facility_Type,Street_No,Street_Name,City,Prov_Terr,Postal_Code
6f0317b8a554dd7e5991,Georges Vanier Secondary School,Public,3000,don mills rd,North York,ON,M2J3B6
6f3bd7400b9b079bce63,Wexford Collegiate School for the Arts,Public,1176,pharmacy ave,Toronto,ON,M1R2H7
6f3c182516c60398680a,Dante Alighieri Academy,Catholic,60,playfair ave,Toronto,ON,M6B2P9
6f9295cd6baec46a8b55,Plymouth Canadian Academy,Private,6,nebula star way,North York,ON,M2J1M8
6f9d132893beebd10660,Humber Valley Village Junior Middle School,Public,65,hartfield rd,Etobicoke,ON,M9A3E1
6fafc37b77cee0e083bc,Birchmount Park Collegiate Institute,Public,3663,danforth ave,Scarborough,ON,M1N2G2
700fa2e1f709f904c12b,St Andrew's Middle School,Public,131,fenn ave,North York,ON,M2P1X7
7017026c0c24371f51f1,St Conrad Catholic School,Catholic,5,exbury road,North York,ON,M3M0A8
70396aa104015b56ba49,St Luigi Catholic School,Catholic,2,ruskin ave,Toronto,ON,M6P3P8
70c2aec037cde76f9a29,"York School, The",Private,1320,yonge st,Toronto,ON,M4T1X2
70d2cd5061823aaeed90,Clairlea Public School,Public,25,rosalind cres,Scarborough,ON,M1L2X1
70f3cd0438e72794ac6b,ELPIS COLLEGE TORONTO,Private,18,greenfield avenue,North York,ON,M2N3C8
7112881bb17f178facdb,ÉSC Saint-Frère-André,Catholic,330,lansdowne ave,TORONTO,ON,M6H3Y1
72173380a3c12a5dcd4f,Cornell International Academy,Private,250,sheppard avenue east,Toronto,ON,M2N6M9
723bdf2564f67b13be7e,Seneca College of Applied Arts & Technology - York Campus,Technical and Vocational,70,the pond road,Toronto,ON,M3J3M6
7248fe77d648f5ec339c,St Bartholomew Catholic School,Catholic,51,heather rd,Toronto,ON,M1S2E2
72672b0114f0f3a9f230,Millwood Junior School,Public,222,mill rd,Etobicoke,ON,M9C1Y2
72e370177462e7f91321,Wedgewood Junior School,Public,5,swan ave,Etobicoke,ON,M9B1V1
73394a264704ab37b834,Seerah Mission School,Private,43,railside road,Toronto,ON,M3A1B2
735c395e9ada6bbe45fb,École secondaire Étienne-Brûlé,Public,300,banbury chemin north,North York,ON,M2L2V3
73bc7bb08fa9a8c0ebf1,St Maurice Catholic School,Catholic,45,kingsview blvd,Toronto,ON,M9R1T7
73c4f0d571bc048019b1,Kennedy Public School,Public,20,elmfield cres,Scarborough,ON,M1V2Y6
7402087398e35f476cc7,SATEC @ W A Porter Collegiate Institute,Public,40,fairfax cres,Scarborough,ON,M1L1Z9
74173c5c36d7c2f88c51,Early Years Education System,Private,3000,victoria park avenue,Toronto,ON,M2J4Y2
7420142f69fa9f368b13,IQRA Academy,Private,2704,danforth ave,TORONTO,ON,M4C1L7
743b88a1f55b23f9ba87,D'Arcy McGee Catholic School,Catholic,20,bansley ave,Toronto,ON,M6E2A2
74558990739172332555,CLI College of Business Health & Technology,Private Institution,203-2300,sheppard ave. w.,Toronto,ON,M9M3A4
74561654785d320fc140,Davisville Junior Public School,Public,43,millwood rd,Toronto,ON,M4S1J6
749517924096e82de285,St Lawrence Catholic School,Catholic,2216,lawrence ave e,Toronto,ON,M1P2P9
74a0145ed09115da9bdb,Braeburn Junior School,Public,15,tandridge cres,Etobicoke,ON,M9W2N8
74be24611fd6e3ea228f,Canadian All Care College,Private Institution,240,alton towers circle suite 302 & 308,Scarborough,ON,M1V4P3
74cde59540d38644dbd3,St John Henry Newman Catholic High School,Catholic,100,brimley rd,SCARBOROUGH,ON,M1M3X4
74f62cc88b5a0cc49f8d,Owen Public School,Public,111,owen blvd,North York,ON,M2P1G6
75113d9bdd5a63e78d48,John Wanless Junior Public School,Public,245,fairlawn ave,Toronto,ON,M5M1T2
75160a7dfd990c81444d,Brookview Middle School,Public,4505,jane st,North York,ON,M3N2K7
752c4dd4ff5515e849ed,"Claremont School, The",Private,70,silver birch ave,TORONTO,ON,M4E3K9
755eaa3c254d8ba35588,Don Mills Middle School,Public,17,the donway e,North York,ON,M3C1X6
75781bc61dde1183c3ad,St Angela Catholic School,Catholic,220,mount olive dr,Toronto,ON,M9V3Z5
759903352e231bcc28bd,William J McCordic School,Public,45,balfour ave,Toronto,ON,M4C1T4
7616923a86c112a65c8b,Bishop Marrocco/Thomas Merton Catholic Secondary School,Catholic,1515,bloor st w,Toronto,ON,M6P1A3
765f693a88a7c9d48169,École élémentaire Étienne-Brûlé,Public,300,banbury rd,North York,ON,M2L2V3
76610b4c4de45e7fe2e9,Alathena International Academy - Millike,Private,240,alton towers circle,Scarborough,ON,M1V3Z4
76b1904dacbb6749081f,St Thomas More Catholic School,Catholic,2300,ellesmere rd,Toronto,ON,M1G3M7
76e7f9694c4a7763e0e7,Bais Chaya Mushka,Private,4375,chesswood drive,Toronto,ON,M3J2C2
76edfd35236e90eb620d,Chalkfarm Public School,Public,100,chalkfarm dr,North York,ON,M3L1L4
773e1e1b51f49864e196,Fiorio Beauty Academy,Private Institution,1981,queen street east,Toronto,ON,M4L1J1
77ed7dce7f8318ac8e8c,Recording Arts Canada,Private Institution,111,peter street,Toronto,ON,M5V2H1
783dbc0027877ad2cdb6,Dallington Public School,Public,18,dallington dr,North York,ON,M2J2G3
7849e323bc8a6d0d6297,Ledbury Park Elementary and Middle School,Public,95,falkirk st,North York,ON,M5M4K1
