Index,Facility_Name,Facility_Type,Street_No,Street_Name,City,Prov_Terr,Postal_Code
da9256f216eb900f80ee,St Andre Catholic School,Catholic,36,yvonne ave,Toronto,ON,M3L1C9
da99823ef82856113f5b,McDonald International Academy-North Yo,Private,5,park home ave,Toronto,ON,M2N6L4
daa575e5c29a499515f4,Balmy Beach Community School,Public,14,pine ave,Toronto,ON,M4E1L6
daeb6376d8f850732d5c,Agnes Macphail Public School,Public,112,goldhawk trail,Scarborough,ON,M1V1W5
db19e981ef9bbff9250d,Roselands Junior Public School,Public,990,jane st,York,ON,M6N4E2
db217b43b6be1129a00f,Canadian Memorial Chiropractic College,Private Institution,6100,leslie street,Toronto,ON,M2H3J1
db2c1a105fdd65378865,Hawthorn School for Girls,Private,101,scarsdale road,Toronto,ON,M3B2R2
db3dcb18c44eee404720,Yorkview Public School,Public,130,yorkview dr,North York,ON,M2R1K1
db5ed21aee2575288984,All Saints Catholic School,Catholic,1435,royal york rd,Etobicoke,ON,M9P3A7
dbd135c6880e864eb04e,Blessed Trinity Catholic School,Catholic,3205,bayview ave,North York,ON,M2K1G3
dc01b6b21df268e997af,Hollywood Public School,Public,360,hollywood ave,North York,ON,M2N3L4
dc3d12b79a45ae46819a,ÉÉC Notre-Dame-de-Grâce,Catholic,59,clement road,Etobicoke,ON,M9R1Y5
dc45e0020303ec17819b,St Roch Catholic School,Catholic,174,duncanwoods dr,Toronto,ON,M9L2E3
dc4ae576103eac9b9e7c,Children's Urban Enrichment Studio,Private,2986,lakeshore boulevard west,Toronto,ON,M8V1J9
dc5069c00fea359ce6af,Churchill Public School,Public,188,churchill ave,North York,ON,M2N1Z5
dcda86d7d8c86e41304b,Girls Only Academy,Private,33,davisville avenue,Toronto,ON,M4S2Y9
dd54800db5776b74877b,Heather Heights Junior Public School,Public,80,slan ave,Scarborough,ON,M1G3B5
dda8772910037c874216,Macklin Public School,Public,136,ingleton blvd,Scarborough,ON,M1V2Y4
de001d77d03d74515195,Cardinal Leger Catholic School,Catholic,600,morrish rd,Toronto,ON,M1C4Y1
de0e16dd77c27adfd9ad,Arbor Glen Public School,Public,55,freshmeadow dr,North York,ON,M2H3H6
de106a7681fa47e84370,Yorkland High School,Private,3840,finch ave east,Toronto,ON,M1T3T4
de393a4bb9daa6e8ef0c,Rockford Public School,Public,60,rockford rd,North York,ON,M2R3A7
de4bc4b34b1fa8eddfbf,George Anderson Public School,Public,30,george anderson dr,North York,ON,M6M2Y8
de589329d441cbe1f881,New Haven Learning Centre,Private,301,lanor ave,Etobicoke,ON,M8W2R1
de6da2f43f8ab402da83,Parkdale Junior and Senior Public School,Public,78,seaforth ave,Toronto,ON,M6K3L2
de805839860d9e23125e,"Bishop Strachan School, The",Private,298,lonsdale rd,Toronto,ON,M4V1X2
ded9ec1e7f1ef18da94b,Senator O'Connor College School,Catholic,60,rowena drive,Toronto,ON,M3A3R2
dee2977350af48354c58,Bright Start Academy,Private,318 4630,dufferin street,North York,ON,M3H5S4
df0dc3db5dbec57ff914,St John Vianney Catholic School,Catholic,105,thistledown blvd,Toronto,ON,M9V1J5
df0f9dce1b65d4a69362,St Nicholas of Bari Catholic School,Catholic,363,rogers rd,Toronto,ON,M6E1R6
dfa682a9172a6f179a7d,North Toronto Collegiate Institute,Public,17,broadway ave,Toronto,ON,M4P1T7
dfc24f498ce802c86e78,St Florence Catholic School,Catholic,101,murison blvd,Toronto,ON,M1B2L6
dfc5b0f78d98af709f93,West End Alternative School,Public,777,bloor st w,Toronto,ON,M6G1L6
dfcce8c8ae6343de546a,York University,University,4700,keele street,North York,ON,M3J1P3
dffcd84e86d9c976931c,Chine Drive Public School,Public,51,chine dr,Scarborough,ON,M1M2K8
e001f78a30f2c098994e,Ronald McDonald House Charities Toronto,Private,240,mccaul st,Toronto,ON,M5T1W5
e0156d130456a66ba404,Brooklyn College,Private,150,lesmill road,North York,ON,M3B2T5
e0878aa1b27ea2809955,Dewson Street Junior Public School,Public,65,concord ave,Toronto,ON,M6H2N9
e08cc09f7b3a4aa2e84f,ACE Acumen High School,Private,1440,don mills road,Toronto,ON,M3B3M1
e0ba4af842eb4ffe7dc1,Prince of Peace Catholic School,Catholic,255,alton towers cir,Toronto,ON,M1V4E7
e0e0582b323be18fdef5,Willowdale High School,Private,160,eglinton avenue east,Toronto,ON,M4P3B5
e0e4ceb83422bc36721a,Lambton Kingsway Junior Middle School,Public,525,prince edward dr,Etobicoke,ON,M8X2M6
e0e5a0f034e7bb34c05c,St Michael's Choir (Jr) School,Catholic,66,bond st,Toronto,ON,M5B1X2
e19ead9590fe7304c70a,Terry Fox Public School,Public,185,wintermute blvd,Scarborough,ON,M1W3M9
e1eb24320cf53f4f3692,St Gregory Catholic School,Catholic,126,rathburn rd,Toronto,ON,M9B2K6
e22b45526f7ebe65e69a,Gracefield Public School,Public,177,gracefield ave,North York,ON,M6L1L7
e24fcd8f18e9fd25f914,Edgewood Public School,Public,230,birkdale rd,Scarborough,ON,M1P3S4
e2529e8cb3d4e41d138a,Maple Leaf Public School,Public,301,culford rd,North York,ON,M6L2V4
e256a3127f99e96dbd84,Toronto Nobel Academy,Private,6305,yonge street,North York,ON,M2M3X7
