Index,Facility_Name,Facility_Type,Street_No,Street_Name,City,Prov_Terr,Postal_Code
ab310177b869b7fb1894,St Christopher School,Catholic,1195,clarkson rd n,Mississauga,ON,L5J2W1
ad9c27e280de34cd014f,All Saints Catholic School,Catholic,4105,colonial dr,Mississauga,ON,L5L4E8
ae908aaad54a629ba60f,Cooksville Creek Public School,Public,5100,salishan circle,Mississauga,ON,L5R3E3
af099563ab434a62d542,ABC Montessori Private School,Private,305,matheson boulevard east,Mississauga,ON,L4Z1X8
af4a91ac75fbd49e273e,Kaban Montessori School,Private,2465,dunwin drive,Mississauga,ON,L5L1T1
afa9b35a3415e1ff21de,Plum Tree Park Public School,Public,6855,tenth line w,Mississauga,ON,L5N5R2
b57dde78b920fd5f9578,St Vincent de Paul Separate School,Catholic,665,willowbank trail,Mississauga,ON,L4W3L6
b5d351bd51d354070484,Springfield Public School,Public,3251,the credit woodlands,MISSISSAUGA,ON,L5C2J7
b68cd09c5abef7e2f9b9,St David of Wales Separate School,Catholic,4200,beacon lane,Mississauga,ON,L5C3V9
b6f9f2d39389eb95bc02,Meadowvale Secondary School,Public,6700,edenwood dr,Mississauga,ON,L5N3B2
b75e73da49ede74ba6be,Clarkson Secondary School,Public,2524,bromsgrove rd,Mississauga,ON,L5J1L8
b88d745ce2a26b32f32b,Philip Pocock Catholic Secondary School,Catholic,4555,tomken rd,Mississauga,ON,L4W1J9
b947ebf0daa70137a01a,St. James Catholic Global Learning Centr,Catholic,98,wanita road,Mississauga,ON,L5G1B8
b974e3ca08e7e2651ae0,Tecumseh Public School,Public,1480,chriseden dr,Mississauga,ON,L5H1V4
ba6e09b092c35710668c,Oscar Peterson Public School,Public,5120,perennial dr,Mississauga,ON,L5M7T6
bb44caf360d6582a0edf,Briarwood Public School,Public,1065,mississauga valley blvd,Mississauga,ON,L5A2A1
bb47eee998f1783c9c04,Philopateer Christian College,Private,6341,mississauga road,Mississauga,ON,L5N1A5
bb8ce6c0aa64f71dfa42,St Francis of Assisi School,Catholic,2480,thorn lodge dr,Mississauga,ON,L5K1K5
bc003c57edbfb89d5cd5,Oakwood Academy,Private,2150,torquay mews,Mississauga,ON,L5N2M6
be585c30652621ef771d,Whiteoaks Public School,Public,1690,mazo cres,Mississauga,ON,L5J1Y8
bed668ba5d06b40ea7a0,Northstar Montessori Private School,Private,4900,tomken rd,Mississauga,ON,L4W1J8
bf5c6bf7816ae3fd44b3,St Joseph Secondary School,Catholic,5555,creditview rd,Mississauga,ON,L5V2B9
c089d154764d2b6ce692,Burnhamthorpe Public School,Public,3465,golden orchard dr,Mississauga,ON,L4Y3H7
c0c85348f279a8168cd5,Ellengale Public School,Public,3480,ellengale dr,Mississauga,ON,L5C1Z7
c1bb56a2afa705326924,Queen Elizabeth Senior Public School,Public,60,south service rd,Mississauga,ON,L5G2R9
c1fc3e528bfa8043e0fe,JIC School,Private,2380,tedlo street mississauaga ontario l5a3v3,Mississauaga,ON,L5A3V3
c31c556673e124d04fd7,Floradale Public School,Public,210,paisley blvd w,Mississauga,ON,L5B2A4
c34a43e214e3048599e5,Thorn Lodge Public School,Public,2730,thorn lodge dr,Mississauga,ON,L5K1L2
c8350d81129b3c4bcac7,Mississauga Secondary Academy,Private,33,city centre drive,Mississauga,ON,L5B2N5
c86f902542e7e45fb3eb,Ridgewood Public School,Public,7207,cambrett dr,Mississauga,ON,L4T2R3
c8ed9400c5ab8fe0ee3d,Gina's College of Advanced Aesthetics - Mississauga,Private Institution,3045,southcreek rd.,Mississauga,ON,L4X2X6
c96df8b7010a9d233a5f,St Valentine Elementary School,Catholic,5610,heatherleigh ave.,Mississauga,ON,L5V2V7
ca02797fe420123530f9,Christ The King Catholic School,Catholic,3240,garthwood rd,Mississauga,ON,L5L5A3
ca39cebe1a3179c2455f,Green Glade Senior Public School,Public,1550,green glade,Mississauga,ON,L5J1B5
ca84006df92b778f6766,Al Huda Elementary School,Private,1135,central parkway west,Mississauga,ON,L5C3J2
caab73e6401b82662ea4,Citi College of Canadian Careers-Mississauga,Private Institution,50,burnhamthrope road west,Mississauga,ON,L5B3C2
caf725bfc039450193fe,IQRA Islamic School,Private,5751,coopers ave,Mississauga,ON,L4Z1R9
cc5acb49bc2598af5a71,Forest Glen Public School,Public,3400,ponytrail dr,Mississauga,ON,L4X1V5
cc882307c56de034acff,CDI College of Business- Technology & Health Care-Mississauga,Private Institution,33,city centre dr,Mississauga,ON,L5B2N5
ccd4195b4520c788b160,St Rose of Lima Separate School,Catholic,4590,the gallops,Mississauga,ON,L5M3A9
cd57e2d81b27d17b1cc3,Corpus Christi School,Catholic,4155,elora dr,Mississauga,ON,L5B3N4
cdb99838a972e69f5aed,GlenOak Academy,Private,1516,clarkson road north,Mississauga,ON,L5J2W9
ce0bb48dd50a5e0da2ad,AI-Manarat Heights,Private,2550,argentia road,Mississauga,ON,L5N5R1
cf98e64b7387e013c65d,Lynn-Rose College,Private,7310,rapistan crt.,Mississauga,ON,L5N6L8
d2080e6c9285fd62e710,Maingate Islamic Academy,Private,5280,maingate drive,Mississauga,ON,L4W1G5
d26051a0a6a9a455fc70,Lancaster Public School,Public,7425,netherwood rd,Mississauga,ON,L4T2N7
d2ea099630b0d3a6f290,Our Lady of Mount Carmel Secondary School,Catholic,3700,trelawny circle,Mississauga,ON,L5N5J7
d3a28b8ba85aa81fd1e7,Ascension of Our Lord Secondary School,Catholic,7640,anaka drive,Mississauga,ON,L4T3H7
d512302d0a6ddfa97713,Bristol Road Middle School,Public,210,bristol rd e,Mississauga,ON,L4Z3V5
