Index,Facility_Name,Facility_Type,Street_No,Street_Name,City,Prov_Terr,Postal_Code
d6f3ab51c44db3462890,Clark Boulevard Public School,Public,201,clark blvd,Brampton,ON,L6T2C9
d73c7e2e49a9d392f255,Balmoral Drive Senior Public School,Public,233,balmoral dr,Brampton,ON,L6T1V5
d7b209751c43b6ebea01,Premium Institute of Excellence,Private,4515,ebenezer road,Brampton,ON,L6P2K7
d7fa7e68cab3795fd02b,St. Jacinta Marto Catholic Elementary School,Catholic,40,fallowfield road,Brampton,ON,L6X0W5
d9f2ce7a769c496dae1f,Sir John A. Macdonald Senior Public School,Public,250,centre st n,Brampton,ON,L6V2R4
d9f927bcff6c2c2f81a5,St. Josephine Bakhita Catholic Elementary School,Catholic,430,van kirk drive,Brampton,ON,L7A0J2
da649ebfff2ff2adbd58,Thorndale Public School,Public,133,thorndale road,Brampton,ON,L6P1K5
db5afbd9276401bde236,Sir William Gage Middle School,Public,625,queen street,Brampton,ON,L6Y5L6
dbbdba37ea9cc453c96a,Doon School,Private,375,howden blvd.,Brampton,ON,L6S4L6
dbca7a3da86d416ff876,Father Francis McSpiritt Catholic Elementary School,Catholic,55,lexington road,Brampton,ON,L6P2A9
dfe4b5646e2690a3f3ae,Sir Wilfrid Laurier Public School,Public,364,bartley bull pky,BRAMPTON,ON,L6W2L8
e0864b2f3bc01dc3001a,Countryside Village PS (Elementary),Public,40,dolbyhill drive,Brampton,ON,L6R3V8
e2ddf2c7fcfa87004d65,Our Lady of Lourdes Catholic Elementary School,Catholic,25,mount royal circle,Brampton,ON,L6P1W3
e3bacc5070f00215d99a,Castle Oaks Public School,Public,155,castle oaks cross,Brampton,ON,L6P3V4
e4ee72cf7e86e21e955e,David Suzuki Secondary School,Public,45,daviselm drive,Brampton,ON,L6X0Z3
e639ce6486319f621875,Our Lady of Providence Elementary School,Catholic,35,black oak dr,Brampton,ON,L6R1B9
e6f868595b29111338ab,Parkway Public School,Public,24,duncan bull dr,Brampton,ON,L6W1H4
e755482dfd9b5b402a55,Ummati Learning Center,Private,205,county court boulevard,Brampton,ON,L6W4R6
e7c089376de4d0ebb227,St. Alphonsa Catholic Elementary School,Catholic,60,olivia marie rd,Brampton,ON,L6Y0M4
e830f32dbdd46b356cd0,École secondaire Jeunes sans frontières,Public,7585,financial promenade,Brampton,ON,L6Y5P4
e8cd32c13a1315ae1db4,Chinguacousy Secondary School,Public,1370,williams pky,BRAMPTON,ON,L6S1V3
e8d8dc15f52e121e9b8a,Sandalwood Heights Secondary School,Public,2671,sandalwood pkwy e,Brampton,ON,L6R0K7
e94bfc3cfadbc1706c54,Georges Vanier Catholic School,Catholic,28,finchgate blvd,Brampton,ON,L6T3H9
ea06a3f78486f4ecccad,Nucleus High School,Private,2250,bovaird drive east,Brampton,ON,L6R0W3
ef068c82ca775776d26a,Queens Gate Academy,Private,255,queen street east,Brampton,ON,L6W2B8
efec53de0d967ad6d181,CDI College of Business- Technology & Health Care-Toronto,Private Institution,2,county court boulevard,Brampton,ON,L6W3W8
f095ea4b55fccc23b28d,Burnt Elm Public School,Public,85,burnt elm dr,Brampton,ON,L7A1T8
f0a1ef90749ac32d4761,St. Jean-Marie Vianney Catholic Elementary School,Catholic,75,jordensen drive,Brampton,ON,L6X0S1
f11d8b7aa8b68c8109ab,Sir Frederick Banting International Scho,Private,21,coventry road,Brampton,ON,L6T4V7
f771835e53cbdf5a36e0,St. Bonaventure Catholic Elementary School,Catholic,35,mccrimmon drive,Brampton,ON,L7A2Z5
f7d83407573269ca4080,Jefferson Public School,Public,48,jefferson rd,Brampton,ON,L6S2N9
f87ee1a977b78c70a1d2,Lester B Pearson Catholic School,Catholic,140,howden blvd,Brampton,ON,L6S2G1
f906c5af9d4fa740fe9e,Eldorado P.S. (Elementary),Public,25,wardsville drive,Brampton,ON,L6Y0T7
fa92122fc4684420a4cc,Queenswood High School,Private,1090,peter robertson boulevard,Brampton,ON,L6R3B3
fcfc6643e6a7f7edcc5f,St Thomas Aquinas Secondary School,Catholic,25,corporation dr,Brampton,ON,L6S6A2
fd3809affdfc00dec695,Russell D Barber Public School,Public,255,north park dr,Brampton,ON,L6Y3M6
fde37214dbbc77b73e03,Hickory Wood Public School,Public,630,ray lawson blvd,Brampton,ON,L6Y4W8
fff83cabf6b0635b275a,Rowntree Public School,Public,254,queen mary dr,Brampton,ON,L7A3L6
