Index,Facility_Name,Facility_Type,Street_No,Street_Name,City,Prov_Terr,Postal_Code
36f6e43603c717205251,Carberry Public School,Public,526,fernforest drive,Brampton,ON,L6R0W1
372207a08ad69869c585,St Francis Xavier Elementary School,Catholic,111,bartley bull pkwy,Brampton,ON,L6W2J8
3982b6dd1c5e47c83658,Dolson Public School,Public,95,remembrance road,Brampton,ON,L7A4W3
39994d5de2331b24e36b,Our Lady of Fatima School,Catholic,39,sunset blvd,Brampton,ON,L6X1X1
39d8e76ac9a331a23389,Green Apple Alternative School,Private,5,brisdale drive,Brampton,ON,L7A0S9
3a699ded01e450f6204f,Esker Lake Public School,Public,10420,heart lake rd,Brampton,ON,L6Z4S2
3aba39406c129419ce08,Terry Fox Public School,Public,95,richvale dr n,Brampton,ON,L6Z1Y6
3c36f00fb971463519f7,Northwood Public School,Public,70,gretna dr,Brampton,ON,L6X2E9
3c818c229f2e81c40d1f,Harold M. Brathwaite Secondary School,Public,415,great lakes dr,Brampton,ON,L6R2Z4
3cdb4bd29cb392c3ad74,St Anthony School,Catholic,950,north park dr,Brampton,ON,L6S3L5
3dcd82aa772d8ba2d1f5,Roberta Bondar Public School,Public,30,pantomine blvd,BRAMPTON,ON,L6Y5N2
3f14363a9902986491ad,Stanford International College of Business & Technology-Brampton,Private Institution,18,corporation drive,Brampton,ON,L6S6B5
3fe8dde14de540f5e910,Cardinal Leger Secondary School,Catholic,75,mary st,Brampton,ON,L6W3K5
42005409362987ee40ff,Westervelts Corners Public School,Public,20,brickyard way,Brampton,ON,L6V4L5
449be45f5689c4545e26,Helen Wilson Public School,Public,9,abbey rd,Brampton,ON,L6W2T7
44c381de7f6b016476cb,Williams Parkway Senior Public School,Public,1285,williams pky,BRAMPTON,ON,L6S3J8
450d08d1a000c5e0d106,Father C W Sullivan Catholic School,Catholic,62,seaborn rd,Brampton,ON,L6V2C1
481f5d66690d967b7b68,St. Lucy Catholic Elementary School,Catholic,25,kanata road,Brampton,ON,L7A3R2
48db9c8d8d7d9f318578,St Monica Elementary School,Catholic,60,sterritt dr,Brampton,ON,L6Y5B6
49a45a4323b062ded0e5,Aloma Crescent Public School,Public,57,aloma cres,Brampton,ON,L6T2N8
4f58f57bbff4759b2409,Goldcrest Public School,Public,24,goldcrest rd,Brampton,ON,L6S1G3
5003ee5058d089837ceb,Mount Royal Public School,Public,65,mount royal crl,Brampton,ON,L6P2K4
518573f9bb28f3078364,Hilldale Public School,Public,100,hilldale cres,Brampton,ON,L6S2N3
520529816d37bcc76462,Northview Collegiate,Private,2,dewside drive,Brampton,ON,L6R0Y5
5249e7c466f3675ace5d,Bishop Francis Allen Catholic School,Catholic,325,mcmurchy ave s,Brampton,ON,L6Y1Z4
530e6da868a98949b3ca,Greenbriar Senior Public School,Public,1140,central park dr,BRAMPTON,ON,L6S2C9
537e88d2035f963e06ec,Maranatha Christian Academy,Private,395,north park dr,Brampton,ON,L6S6A9
544b2a8f5071c4813e7c,William G. Davis Senior Public School,Public,491,bartley bull pky,BRAMPTON,ON,L6W2M7
555ac8da02e4fd4e4890,Venerable Michael McGivney Catholic Elementary School,Catholic,450,fernforest dr,Brampton,ON,L5R2P7
555b8b1b9262bb063616,St. Aidan Catholic Elementary School,Catholic,34,buick blvd,Brampton,ON,L7A3B9
58e936fb2b16ec4b5c4f,Marca College of Hair & Esthetics-Brampton,Private Institution,370,main st north,Brampton,ON,L6V4A4
59d1babbede406429683,Montessori Leaders School,Private,20,red maple dr,BRAMPTON,ON,L6X4N7
5c974d69abecd0ef4d37,Fletcher's Meadow Secondary School,Public,10750,chinguacousy rd,Brampton,ON,L7A2Z7
5ead6398dab32aeb8764,Hewson Elementary Public School,Public,235,father tobin road,Brampton,ON,L6R0G2
5ec4b5531ae2c9b3a8c7,Treeline Public School,Public,145,treeline blvd,Brampton,ON,L6P1E7
609a9ce02857b3c7843b,Canadian College of Business- Science & Technology,Private Institution,2,rutherford road south plaza,Brampton,ON,L6W4N6
60a855478d46f62dffb7,Notre Dame Catholic Secondary School,Catholic,2,notre dame ave,Brampton,ON,L6Z4L5
638cd4d27cd00d674d18,Great Lakes Public School,Public,285,great lakes drive,Brampton,ON,L6R2R8
6457792d688551cd53ce,Academy of Learning (Richmond),Private Institution,8740,gore road,Brampton,ON,L6P0B1
659ceeb022c05d857a99,Sunny View Middle School,Public,30,chapparal dr,Brampton,ON,L6R3C4
66faee6dd8f66020b715,Peel Alternative North ISR,Public,315,bartley bull pky,BRAMPTON,ON,L6W2L4
67ebdc49688acf5b003b,Cherrytree Public School,Public,155,cherrytree dr,Brampton,ON,L6Y3M9
693c90bb6a8d1e710426,Robert H Lagerquist Senior Public School,Public,105,richvale dr n,Brampton,ON,L6Z1Y6
697d33b90911fcb43568,Sir Isaac Brock P.S. (Elementary),Public,45,meltwater crescent,Brampton,ON,L6P3V8
6afdb40891c3758aaaf5,Scholars Academy,Private,2955,sandalwood parkway east,Brampton,ON,L6R3J6
6cf70ac6c2e47d927866,Noon Academy,Private,12,rutherford road,Brampton,ON,L6W3J1
6d372505058d37b83b53,KinderKollege Elementary School,Private,150,central park dr,Brampton,ON,L6T2T9
6d55e7f7258a96d070a2,St Augustine Secondary School,Catholic,27,drinkwater rd,Brampton,ON,L6Y4T6
704da7daf11fa1b4e7df,Copeland Public School,Public,5,young drive,Brampton,ON,L6Y0P4
