Index,Facility_Name,Facility_Type,Street_No,Street_Name,City,Prov_Terr,Postal_Code
d859dc050ab8eff3b06c,Applewood Acres Secondary School,Public,3675,thomas st,MISSISSAUGA,ON,L5M7E6
dc60180a30d39ae2885c,St Therese of the Child Jesus (Elementary) Separate School,Catholic,6930,forest park dr,Mississauga,ON,L5N6X7
dcc1ad9eba4185ed7cd2,Iona Secondary School,Catholic,2170,south sheridan way,Mississauga,ON,L5J2M4
dd08705d2039f26de1b0,St. Joan of Arc Catholic Secondary School,Catholic,3801,thomas st,Mississauga,ON,L5M7G2
dd1384fb118cdfef7f1c,Tomken Road Senior Public School,Public,3200,tomken rd,Mississauga,ON,L4Y2Y6
dea7474258cb89614755,Guiding Light Academy,Private,225,broadway street,Mississauga,ON,L5M1J1
deb324607474ca4dd0e1,École élémentaire Le Flambeau,Public,600,novo star promenade,Mississauga,ON,L5W1G4
dec2f767d1f6a65d1722,Stanford International College of Business & Technology,Private Institution,1011,eglinton ave east,Mississauga,ON,L4K1K4
df29d5d51d5b60fefede,John Cabot Catholic Secondary School,Catholic,635,willowbank trail,Mississauga,ON,L4W3L6
df55433d2f4083f8e90b,Cashmere Avenue Public School,Public,2455,cashmere ave,Mississauga,ON,L5B2M7
e05265bb06ad8cd4cf78,Meadow Green Academy,Private,649,the queensway w,Mississauga,ON,L5B1C2
e0701c1aeb30293f1f38,Levi Creek Public School,Public,1525,samuelson circle,Mississauga,ON,L5N7Z1
e1bdceeb2e1ca636e8eb,Erin Centre Middle School,Public,3240,erin centre blvd,MISSISSAUGA,ON,L5M7T9
e2eb87a5d9f2e4a1c047,St Edith Stein Elementary School,Catholic,6234,osprey blvd,Mississauga,ON,L5N5V5
e504b5ec040a3fb2b502,Canadian Martyrs School,Catholic,1185,mississauga valley blvd,Mississauga,ON,L5A3R7
e6a4edb44e0a095c390a,Silverthorn Public School,Public,3535,cedar creek dr,Mississauga,ON,L4Y2Y4
e6d63aa12c00f9bf08e9,Sherwood Heights School - Mississauga,Private,5870,kennedy road,Mississauga,ON,L4Z4G6
e7103678883efe45df96,Derry West Village Public School,Public,620,twain ave,Mississauga,ON,L5W1M1
e71f04e1571eb0766e73,Ontario Online Schools,Private,1055,shawnmarr drive,Mississauga,ON,L5H3V2
e749c731825bf64817b7,Mentor College,Private,40,forest ave,Mississauga,ON,L5G1L1
e775963d1a7ed683c20c,St Sofia School,Catholic,3540,havenwood dr,Mississauga,ON,L4X2M9
e7bdbf91317182af7951,Huntington Ridge Public School,Public,345,huntington ridge dr,Mississauga,ON,L5R1R6
e81f85e4772174b11bf4,Star Academy,Private,1587,cormack crescent,Mississauga,ON,L5E2P8
e82d8abc42d55817cf98,Credit Valley Public School,Public,2365,credit valley rd,Mississauga,ON,L5M4E8
e89d45b846745569e8d1,Streetsville Secondary School,Public,72,joymar dr,Mississauga,ON,L5M1G3
e8ff26c61e28b97d078d,Anderson College of Health- Business & Technology-Mississauga,Private Institution,300a 165,dundas street west,Mississauga,ON,L5B2N6
ec44edaed3424d5d6379,Our Lady of Good Voyage Catholic School,Catholic,5850,river grove ave,Mississauga,ON,L5M4W2
ec682e70b6f04503c8df,Stanford International College of Business & Technology,Private Institution,1011,eglinton ave. e.,Mississauga,ON,L4K1K4
ec8fb9e31b8b66b085d6,Rick Hansen Secondary School,Public,1150,dream crest road,Mississauga,ON,L5V1N6
eca7b541438aa115fd11,École élémentaire Horizon Jeunesse,Public,1445,lewisham promenade,Mississauga,ON,L5J3R2
ee031994b7e88f53e4b1,Holy Name of Mary College School,Private,2241,mississauga rd,MISSISSAUGA,ON,L5H2K8
eeb9d9af41e46b04422e,Academy of Learning - Mississauga East Campus,Private Institution,1310,dundas street east,Mississauga,ON,L4Y2C1
ef06f06c3fad46a0ac93,Mississauga Christian French School,Private,1245,eglinton avenue west mississauaga ontario l5v2m4,Mississauaga,ON,L5V2M4
f080a7419a8ad90bf7a1,St Raphael School,Catholic,3470,clara dr,Mississauga,ON,L4T2C7
f0c33b33d0b59a6f5766,T. L. Kennedy Secondary School,Public,3100,hurontario st,Mississauga,ON,L5B1N7
f0f2c9c5f2878780785e,St Pio of Pietrelcina Elementary School,Catholic,4765,huron heights dr,Mississauga,ON,L4Z4G9
f131a215833f59ab0d84,Hazel McCallion Senior Public School,Public,5750,river grove ave,Mississauga,ON,L5M4R5
f22954a703f804064fed,Mississauga Secondary School,Public,550,courtneypark dr. west,Mississauga,ON,L5W1L9
f23a59d6b62d16037cca,Applewood Heights Secondary School,Public,945,bloor st e,Mississauga,ON,L4Y2M8
f4df6eaca3ca42d92543,St Francis Xavier Secondary School,Catholic,50,bristol rd w,Mississauga,ON,L5R3K3
f585f8188ad1e968ea69,St Louis School,Catholic,1450,lewisham dr,Mississauga,ON,L5J3R3
f5a56e407169f5c18593,Plowman's Park Public School,Public,5940,montevideo rd,Mississauga,ON,L5N3J5
f64d9a8f4af52f4f732d,Silver Creek Public School,Public,460,silver creek blvd,Mississauga,ON,L5A2B3
f6895235aa4bee4ab3db,Brian W. Fleming Public School,Public,3255,havenwood dr,Mississauga,ON,L4X2M2
f6f224e669f3c3fa8373,Flexi Academy,Private,23,moonstream crt.,Mississauga,ON,L5N2P8
f70955a12a2996949868,Glenforest Secondary School,Public,3575,fieldgate dr,Mississauga,ON,L4X2J6
f853e082220117547da5,Lisgar Middle School,Public,6755,lisgar dr,Mississauga,ON,L5N6S9
f87f587415e112d1bb2b,Suffah Academy of Learning,Private,6610,turner valley road,mississauga,ON,L5N2P1
f8b2a590ae199403a512,Greenbriar High School,Private,3660,hurontario st,Mississauga,ON,L5B3C4
