Index,Facility_Name,Facility_Type,Street_No,Street_Name,City,Prov_Terr,Postal_Code
7984509b90150c0d8ad7,École élémentaire Carrefour des Jeunes,Public,375,centre n rue brampton ontario l6v4n4,Brampton,ON,L6V4N4
79cf16a91919c8b46d7b,St Joachim Separate School,Catholic,435,rutherford rd n,Brampton,ON,L6V3V9
79f2ee1b27e093017e31,Huttonville Public School,Public,2322,embleton rd,Huttonville,ON,L6X0C9
7a7129ed14db0a577710,North Park Secondary School,Public,10,north park dr,Brampton,ON,L6S3M1
7a82cfc52d99b6f1ea15,St. Daniel Comboni Catholic Elementary School,Catholic,120,veterans drive,Brampton,ON,L7A3Z7
7ab9c722d834ef6e935a,Fernforest Public School,Public,275,fernforest dr,Brampton,ON,L6R1L9
7b30749cacf960e75296,Ray Lawson,Public,725,ray lawson boulevard,Brampton,ON,L6Y0T8
7dc0dfe5c294c59ac4f6,Stanley Mills Public School,Public,286,sunny meadow blvd,BRAMPTON,ON,L6R3C3
8091bf7fc9549d924c30,St. John Henry Newman Catholic Elementary School,Catholic,698,balmoral dr,Brampton,ON,L6T1X1
80cae2649a145222edaa,Father Clair Tipping School,Catholic,25,mountainberry rd,Brampton,ON,L6R1J3
81e041d51d4a21c0b615,Somerset Drive Public School,Public,50,somerset dr,Brampton,ON,L6Z1C7
822f2add83d17fd9ed4c,Ridgeview Public School,Public,25,brenda ave,Brampton,ON,L6Y2A1
8310b908aed52b5f0d29,Cheyne Middle School,Public,236,queen mary dr,Brampton,ON,L7A3L3
839ae064b46d26c05fc9,St Jean Brebeuf Separate School,Catholic,63,glenforest rd,Brampton,ON,L6S1L8
841cdd84eeb6fadcf3ff,McHugh Public School,Public,31,craig st,Brampton,ON,L6Y1J2
8567110df2cf9cd927e1,Sacred Heart Separate School,Catholic,24,kerwood place,Brampton,ON,L6Z1Y1
867fb39ed2071dc1b8e1,Parkholme Secondary School,Public,10750,chinguacousy road,Brampton,ON,L7A2Z7
872b6f237f6b77979586,Walden International School,Private,1030,queen street west,Brampton,ON,L6X0B2
878ae548f3ff30da443b,St John Fisher Separate School,Catholic,330,balmoral dr,Brampton,ON,L6T1V6
881678c5ae623f2f4557,Lorenville P.S. (Elementary),Public,10,lorenville drive,Brampton,ON,L6X2Z9
884634a6bfbd5cf67073,Lote tree Foundation,Private,291,great lakes drive,BRAMPTON,ON,L6R2Z4
8d16aab2294a380c9d65,Eastbourne Drive Public School,Public,702,balmoral dr,Brampton,ON,L6T1X3
8f2b1be12d8a786ade4c,Folkstone Public School,Public,104,folkstone cres,Brampton,ON,L6T3M5
8f811f84144f1c1f194b,James Potter Public School,Public,9775,creditview road,Brampton,ON,L6X0H7
8f9052f30254626f3ed7,Canstem Education Private School,Private,30,rambler drive,Brampton,ON,L6W1E2
8fae15171329c714d75b,Xpert Private High School,Private,50,lacoste boulevard,Brampton,ON,L6P3Z8
8fdeac4a4eba58db997b,St Leonard School,Catholic,185,conestoga dr,Brampton,ON,L6Z2Z7
90efa8b6e564357fdde0,Red Willow Public School,Public,80,red willow rd,Brampton,ON,L6P2B1
925e210c2f65653503ea,Harold F Loughin Public School,Public,39,herkley dr,Brampton,ON,L6V2E7
93300912023b108bd2a1,McCrimmon Middle School,Public,83,mccrimmon dr,Brampton,ON,L7A2Z3
93f05074a9e52b2e4d67,Birchbank Public School,Public,52,birchbank rd,Brampton,ON,L6T1L7
965c90afacec0b9909d4,Khalsa Community School,Private,69,maitland street,Brampton,ON,L6S3B5
96950bf8e78941c9ab69,Our Lady of Peace School,Catholic,15,fincham ave,Brampton,ON,L6X3V2
9bc5578c4dd924997668,St Agnes Separate School,Catholic,103,richvale dr s,Brampton,ON,L6Z4G6
9cf456c461ec1775605d,Holy Spirit Catholic Elementary School,Catholic,25,bloomsbury avenue,Brampton,ON,L6P1W9
9d037f726e996aa6128d,Arnott Charlton Public School,Public,140,winterfold dr,Brampton,ON,L6V3V8
9e57c281a0dde2fab9e0,Sir Winston Churchill Public School,Public,89,ardglen dr,Brampton,ON,L6W1V1
9e9618a17a5830de6ca1,Al-Ameen Elementary School,Private,389,main street north,Brampton,ON,L6X3P1
9f70282309f9fc4b0dd5,KCS Online Learning,Private,69,maitland street,Brampton,ON,L6S3B5
9fb5e33a36c1de9ea34f,Good Shepherd Catholic Elementary School,Catholic,28,red river dr,Brampton,ON,L6R2H9
a315d229f091330ccc4c,Wali ul Asr School -GTA West Campus,Private,7580,kennedy road,Brampton,ON,L6W0A1
a3686780bbb5c9cc2e59,St Ursula Elementary School,Catholic,11,dwellers rd,Brampton,ON,L6X5C1
a4e4eb4788f178a303f2,Canadian National High School,Private,76,chesterwood cres,Brampton,ON,L6Y0G8
a52d7b81f6010e61ef62,Canadian Institute of Learning,Private Institution,37,george st. n,Brampton,ON,L6X1R5
a57cbd2ede60cfeb5579,École élémentaire Jeunes sans frontières,Public,7585,financial promenade,Brampton,ON,L6Y5P4
a5a8aa8fd2e4b76d98f8,Churchville Public School,Public,90,bonnie braes drive,Brampton,ON,L6Y0Y3
a6175d3b2d0226387fe1,Brampton Centennial Secondary School,Public,251,mcmurchy ave s,Brampton,ON,L6Y1Z4
a6e56205bc6ec4f305bc,Eagle Plains Public School,Public,40,eagle plains drive,Brampton,ON,L6R2X8
a780491ad6588b71a989,High Five Academy for Learning,Private,611,wanless dr,Brampton,ON,L7A3Y6
