Index,Facility_Name,Facility_Type,Street_No,Street_Name,City,Prov_Terr,Postal_Code
88bb6ec1e9b9703f56de,Safa & Marwa Islamic School,Private,5550,mcadam road,Mississauga,ON,L4Z1P1
89e5c0f3a9c651fe7ef4,Queen of Heaven School,Catholic,1198,alexandra ave,Mississauga,ON,L5E2A5
8a8f20ef1344b4fd16a0,"Mississauga Children Montessori, The",Private,2980,crosscurrent dr,Mississauga,ON,L5N6K4
8af0d99d82ebf59535d5,Toronto International Academy,Private,1140,burnhamthorpe road west,Mississauga,ON,L5C4E9
8b89e2c7530440f6486a,Shelter Bay Public School,Public,6735,shelter bay rd,Mississauga,ON,L5N2C5
8c13412cb858fac3fc27,Alathena International Academy Mississau,Private,2642,liruma road,Mississauga,ON,L5K1Z1
8c74b60bbb28ee59490a,Safa & Marwa Islamic School,Private,5585,mcadam rd,Mississauga,ON,L4Z1P1
8c80cf0eb348ac9ee2f6,Fallingbrook Middle School,Public,5187,fallingbrook dr,Mississauga,ON,L5V1N7
8cb86be9ccc41ff1fab7,Peel Alternative South,Public,1500,ogden avenue,Mississauga,ON,L5E2H8
8edf3cae0c5bc84bd1dc,Blyth Academy Mississauga  Lower Campus,Private,850,enola avenue,Mississauga,ON,L5G4B2
8fe6e0ea7943308db863,Kindree Public School,Public,7370,terragar blvd,Mississauga,ON,L5N7L8
90501bfd13c762e32cde,Hillcrest Public School,Public,1530,springwell ave,Mississauga,ON,L5J3H6
909b94baf38f3ecd0837,Cawthra Park Secondary School,Public,1305,cawthra rd,Mississauga,ON,L5G4L1
917eda4cab8bad0b66bf,ÉIC Sainte-Famille,Catholic,1780,meadowvale boulevard,Mississauga,ON,L5N7K8
92f1446bc8e9743891e8,Saba's Academy,Private,1675,the chase road,Mississauga,ON,L5M5Y7
936064ab96fa4d36fb38,Fairview Public School,Public,3590,joan dr,Mississauga,ON,L5B1T8
93f5990454eeeccf8737,Aspen Preparatory Academy,Private,3024,hurontario street,Mississauga,ON,L5B4M4
95dfc9885b68a604fedc,Barondale Public School,Public,200,barondale dr,Mississauga,ON,L4Z3N7
99f48c271db9c6e5e972,Academy of Applied Pharmaceutical Sciences,Private Institution,2960,drew rd 140a,Mississauga,ON,L4T0A6
9a73b60211eccacb2368,McBride Avenue Public School,Public,974,mcbride ave,Mississauga,ON,L5C1L6
9ab5d06b3a0c466f6e3d,Father Daniel Zanon Elementary School,Catholic,450,hillcrest ave,Mississauga,ON,L5B4J3
9ab6a3bae169a76557c8,Sunview College - Mississauga,Private Institution,2120,dundas street,Mississauga,ON,L4X1L9
9acdd2ea57a697a462fd,Trios College Business- Technology & Healthcare Inc.,Private Institution,55,city centre drive,Mississauga,ON,L5B1M3
9c1c5749112209b534b8,Hawthorn Public School,Public,2473,rosemary dr,Mississauga,ON,L5C1X1
9c61af045c3ba9e52843,Queen Elizabeth Academy,Private,1020,johnson's lane,Mississauga,ON,L5J2P7
9c8a4fa7fa7085ba2c2d,The Canadian Academy of Dental Health & Community Sciences,Private Institution,1599,hurontario st,Mississauga- ON,ON,L5B2N6
9cb20c59bdd32dff9c32,Olive Grove School,Private,2300,speakman dr,Mississauga,ON,L5K1B4
9ce101d2309bad663494,Port Credit Secondary School,Public,70,mineola rd e,Mississauga,ON,L5G2E5
9e2a7a4e64b7fdb399a0,West Credit Secondary School,Public,6325,montevideo rd,Mississauga,ON,L5N4G7
9e51ba793d3996f37ca5,Erin Mills Middle School,Public,3546,south common crt,Mississauga,ON,L5L2B1
9f65f1d1274797a128e2,ÉÉC Ange-Gabriel,Catholic,1830,meadowvale boulevard,Mississauga,ON,L5N7L2
9f6f8c039015a0ade943,St Herbert School,Catholic,5180,fallingbrook dr,Mississauga,ON,L5V2C6
a0bdbd1d6c0789de2897,St Martin Secondary School,Catholic,2470,rosemary dr,Mississauga,ON,L5C1X2
a0ea26db47190f9a04f0,Lynn-Rose Heights Private School - Elem,Private,7215,millcreek dr,Mississauga,ON,L5N3R3
a17f943e2ee04389d5b0,3sixty Education,Private,141,brunel road mississauaga,Mississauaga,ON,L4Z1X3
a2e54443fe428a61eccd,ISNA High School,Private,2200,south sheridan way,Mississauga,ON,L5J2M4
a309c09769e3062efec4,Chris Hadfield P.S. (Elementary),Public,465,fairview road,Mississauga,ON,L5B3W7
a3ddfd2c52cb3a2b17f0,St Timothy School,Catholic,2214,cliff rd,Mississauga,ON,L5A2N9
a42454bef64a4e925744,Olive Grove High School,Private,2270,speakman drive,Mississauga,ON,L5K1B4
a44a50cd39897737fd96,ÉÉC René-Lamoureux,Catholic,385,meadows boulevard,Mississauga,ON,L4Z1G5
a45c23085f98b2e644ed,The Woodlands Secondary School,Public,3225,erindale station rd,Mississauga,ON,L5C1Y5
a4706659bdbffb756d50,St Mark Separate School,Catholic,3675,sawmill valley dr,Mississauga,ON,L5L2Z5
a79a4d4428d8d291a930,Nahani Way Public School,Public,235,nahani way,Mississauga,ON,L4Z3J6
a7e0c3ab26d832b361f4,McKinnon Public School,Public,3270,tacc drive,Mississauga,ON,L5M0H3
a8034376bdb8e44ee397,C.E. Academy,Private,155,queen street east,Mississauga,ON,L5G1N2
a949ff70812490155fda,Elite Montessori School,Private,6395,mississauga road,Mississauga,ON,L5N1A5
a96139df5d4d0f2d6110,Sawmill Valley Public School,Public,3625,sawmill valley dr,Mississauga,ON,L5L2Z5
aa58d55eee661af60a71,Brookmede Public School,Public,2250,council ring rd,Mississauga,ON,L5L1B7
ab1d28623de92bafe1a5,Mary Fix Catholic School,Catholic,486,paisley blvd w,Mississauga,ON,L5B2M4
