Index,Facility_Name,Facility_Type,Street_No,Street_Name,City,Prov_Terr,Postal_Code
003b923979464555aaa1,St John Bosco School,Catholic,1025,north park dr,Brampton,ON,L6S4E1
00e42992745af7d55410,Calderstone Middle Middle School,Public,160,calderstone road,Brampton,ON,L6P2L7
019eb130f1c3709ad661,Hope Academy,Private,4316,ebenezer road,Brampton,ON,L6P0R9
04097a098809ee57c74a,Mountain Ash (Elementary),Public,280,mountainash rd,Brampton,ON,L6R3G2
0419d4ca682f1b7a5792,McClure PS (Elementary),Public,50,parity road,Brampton,ON,L6X5M8
066bf512f1edbce97273,Beatty-Fleming Sr Public School,Public,21,campbell dr,Brampton,ON,L6X2H6
06c196dd36e55445c7a5,Queen Street Public School,Public,20,academic dr,Brampton,ON,L6Y0R7
0791180b5f84c31d81d0,Holy Name of Mary Secondary School,Catholic,115,glenvale boulevard,Brampton,ON,L6S3J7
07c4761e16a011e83017,Judith Nyman Secondary School,Public,1305,williams pky,BRAMPTON,ON,L6S3J8
09389845095bb6e3257f,Peel Alternative North,Public,315,bartley bull pky,BRAMPTON,ON,L6W2L4
09504e888b49f072afdc,St Isaac Jogues Elementary School,Catholic,300,great lakes dr,Brampton,ON,L6R2W7
0963a6fd176117f3f5bf,Ace Scholars Academy,Private,9990,gore road,Brampton,ON,L6P0A7
098e4d94d1f5ffd84a29,Cardinal Ambrozic Catholic Secondary School,Catholic,10,castle oaks crossing,Brampton,ON,L6P3A2
0a1c37bcd962bca70476,Mount Pleasant Village Public School,Public,100,commuter drive,Brampton,ON,L7A0P7
0bd17f385b8d5c1161a1,St Brigid School,Catholic,81,torrance woods,Brampton,ON,L6Y2X4
0bf9d0e7b24527bd246e,Songbirds Montessori School,Private,2,fisherman drive,Brampton,ON,L7A1B5
0ccb82a84ea2917a54d7,Lougheed Middle School,Public,475,father tobin dr,Brampton,ON,L6R0J9
1068ae1378663edda841,Pauline Vanier Catholic Elementary School,Catholic,56,oaklea blvd,Brampton,ON,L6Y4G5
10a3d13a94c97b79becc,St Mary Elementary School,Catholic,66,main st s,Brampton,ON,L6W2C6
10bb770c18f7f8eb84ab,St Patrick School,Catholic,11948,the gore rd rr 9,Brampton,ON,L6P0A2
1115c294eaa9f37106c7,STEM Montessori Academy of Canada,Private,24,alexander street,Brampton,ON,L6V1H6
11af0d7f991efe4dbf8f,Whaley's Corners Public School,Public,140,howard stewart road,Brampton,ON,L6Y6B1
11fd5885f5297675cac9,Shaw Public School,Public,10,father tobin rd,Brampton,ON,L6R3K2
125b007772fa3078c65e,Aylesbury Public School,Public,25,aylesbury drive,Brampton,ON,L7A0V3
152d8b33aac51a0edd45,Grenoble Public School,Public,33,greenbriar rd,BRAMPTON,ON,L6S1V8
162706051de70ebca945,Sunview College - Brampton,Private Institution,8897,the gore rd.,Brampton,ON,L6P0B7
163a25bd6ca1a4d1e5d9,Springdale Public School,Public,100,dewside dr,Brampton,ON,L6R3B6
17bac3393e70ce762d0d,Heart Lake Secondary School,Public,296,conestoga dr,Brampton,ON,L6Z3M1
18330afb2b7de2f6407b,Castlebrooke SS Secondary School,Public,10,gardenbrooke trail,Brampton,ON,L6P3L1
18b0b97539561fdde839,Worthington Public School,Public,71,worthington ave,Brampton,ON,L7A1N9
1b50bfa316fbae72abce,Learning Genius Academy Inc,Private,4515,ebenezer rd,Brampton,ON,L6P2K7
1d03b1d9bf31fdbf8ed7,Ingleborough (Elementary),Public,60,ingleborough drive,Brampton,ON,L6X0X5
1db2db262c60861e3db3,Centennial Senior Public School,Public,50,ladore dr,Brampton,ON,L6Y1V5
256a43949f2324804842,Gobind Sarvar Brampton,Private,187,deerhurst drive,Brampton,ON,L6T5K3
269e4188f542f0279765,St. Oscar Romero Catholic Secondary School,Catholic,2495,credit valley road,Mississauga,ON,L5M4G8
26e98257151526de80fc,Glendale Public School,Public,35,sunset blvd,Brampton,ON,L6X1X1
27959f4a741f91c68035,Knox Bridge School,Private,9886,torbram road,Brampton,ON,L6S3L9
2927928749a200e2b2e0,Pte. Buckam Singh PS (Elementary),Public,12175,bramalea road,Caledon,ON,L7C2P9
2bcd10ade940a3cbe235,CareerQuest - Brampton,Private,201,county court boulevard,Brampton,ON,L6W4L2
2cb9b094f11cfb771ff9,Kingswood Drive Public School,Public,235,kingswood dr,Brampton,ON,L6V3B3
30134e9becf796172fba,St Joseph School,Catholic,8,parkway ave,Brampton,ON,L6X2G4
303e75c978c3d68db5d1,Career College Group Medix-Brampton,Private Institution,499,main street s,Brampton,ON,L6Y1N7
30634e610bb35a3c5cf4,John Knox Christian,Private,82,mclaughlin rd s,Brampton,ON,L6Y2C7
310b95e33c59c42f208f,Canada Christian Academy,Private,22,abbey road,Brampton,ON,L6W2T8
312a03466cec39b8ebc3,Tall Pines School,Private,8525,torbram road,Brampton,ON,L6T5K4
31d0383dcf068d2e9ea1,Royal Orchard Middle School,Public,77,royal orchard dr,Brampton,ON,L6X4M4
32586d2c1c429e7f6c1c,Turner Fenton Secondary School,Public,7935,kennedy rd s rr 10,Brampton,ON,L6W0A2
337ae5edfc693a54c99c,Fletcher's Creek Senior Public School,Public,92,malta ave,Brampton,ON,L6Y4C8
338e3f02866df84ef43b,Brisdale Public School,Public,370,brisdale dr,Brampton,ON,L7A3K7
