Index,Facility_Name,Facility_Type,Street_No,Street_Name,City,Prov_Terr,Postal_Code
0ae79a66b14633698736,Brampton Christian School,Private,12480,hutchinson farm lane,CALEDON,ON,L7C2B6
0fdcd1a4d08e6498c3d8,King's College School for Bright and Gif,Private,16379,the gore road,Caledon,ON,L7E0X4
109251f6b99040cf87af,Alton Public School,Public,19681,main st,Caledon,ON,L7K0E1
10d0474d3e7095c8643f,Caledon Central Public School,Public,18357,kennedy rd,CALEDON VILLAGE,ON,L7K1Y7
13e1c51ff2ef63917aa2,Macville Public School,Public,7280,king st w rr 5,Caledon,ON,L7C0S3
159df007775e81a4e7e3,Peel Adventist School,Private,2626,mayfield rd,Caledon,ON,L7C3K7
18de8d1ac6f34a76b190,Mayfield Secondary School,Public,5000,mayfield road,Caledon,ON,L7C0Z5
2473cc81c8dff2c9fc4c,Allan Drive Middle School,Public,254,allan dr,Bolton,ON,L7E1R9
2522ef3177cb2b64f477,SouthFields Village (Elementary),Public,110,learmont ave,CALEDON,ON,L7C3R1
307684950c8bd50dddb4,Headwater Hills Montessori School,Private,21170,hurontario street,Caledon,ON,L7K1X1
30c95e70317d86052e60,Caledon East Public School,Public,15738,airport rd,Caledon East,ON,L7C2W8
322c62aa2f64fd4931c9,Jehovah Jireh Christian School,Private,20554,hurontario street,Caledon,ON,L7K1W9
330191b2714167f75257,Herb Campbell Public School,Public,3749,king st,INGLEWOOD,ON,L7C0T6
48b6bc4fe9fe8f2aef90,St John the Baptist Elementary School,Catholic,299,landsbridge st,Bolton,ON,L7E2K4
4eca2e2e8da6c634a3a8,Tony Pontes (Elementary),Public,12872,kennedy road,Caledon,ON,L7C4E1
5185ed9b7299e735b148,James Grieve Public School,Public,12175,bramalea road,Brampton,ON,L7C2P9
5736895e2e2723610e7e,James Bolton Public School,Public,225,kingsview dr,Bolton,ON,L7E3X8
579d6b94ae92c1c96284,St. Evan Catholic Elementary School,Catholic,500,dougall avenue,Caledon,ON,L7C4C6
65a36902b3711a4a9e65,Wali ul Asr School,Private,84,simpson road rd,Caledon,ON,L7E4G2
65f73f7a5bab67f32ba3,Home Sweet Home Montessori Academy,Private,2939,old school road,Caledon,ON,L7C0X7
6d3660512b7aab06c733,Holy Family School,Catholic,61,allan dr,Bolton,ON,L7E1P7
7a96afeee4a302fdd58d,Robert F Hall Catholic Secondary School,Catholic,6500,old church rd,Caledon East,ON,L7C0H3
80f494b747e86079cc49,Alloa Public School,Public,12287,mississauga road,Caledon,ON,L7C0Y7
814d8c57209635b2d505,Malala Yousafzai PS (Elementary),Public,1248,mayfield road,Caledon,ON,L7C0Y7
8f04bef8d0632d97f119,Ellwood Memorial Public School,Public,35,ellwood dr e,Bolton,ON,L7E2A7
9133924e61e3a2392327,St Cornelius School,Catholic,16066,innis lake rd,Caledon East,ON,L7C2Z2
96f8ec513ff740472656,Countryside Montessori Private School,Private,1,loring drive,Bolton,ON,L7E1Y1
a0daf7ac934bcc8cc46c,Palgrave Public School,Public,8962,patterson sideroad,Palgrave,ON,L7E0L2
acdb763cad0e3f5289bd,ÉÉC Saint-Jean-Bosco,Catholic,55,abbotside way,Caledon,ON,L7C4C3
ae8b4f964fe0c521526e,St. Michael Catholic Secondary School,Catholic,9130,columbia way,Bolton,ON,L7E4G6
af12cf1314d75645f19b,Belfountain Public School,Public,17247,shaw's creek rd,Belfountain,ON,L7K0E8
ceaad95b9c93addbd76c,Humberview Secondary School,Public,135,kingsview dr,Bolton,ON,L7E3V8
f21672d7dd1055e4592b,St. John Paul II Catholic Elementary School,Catholic,9094,bolton heights rd rr 2,Bolton,ON,L7E5R8
f362a880feb899981621,St Nicholas Elementary School,Catholic,120,harvest moon dr,Bolton,ON,L7E2W1
