Index,Facility_Name,Facility_Type,Street_No,Street_Name,City,Prov_Terr,Postal_Code
28f345d9fccbd65509f4,St Basil School,Catholic,4235,golden orchard dr,Mississauga,ON,L4W3G1
296a2c952f9c5de53970,Sherwood Mills Public School,Public,1385,sherwood mills blvd,Mississauga,ON,L5V2B8
29dc0402430d9cc62d00,Owenwood Public School,Public,930,owenwood dr,Mississauga,ON,L5H3J2
2a6d191ce50c3dbb3b11,St Albert of Jerusalem Elementary School,Catholic,7185,rosehurst dr,Mississauga,ON,L5N7G6
2b102f8ba30cdf683809,Khalsa School Malton,Private,7280,airport rd,Mississauga,ON,L4T2H3
2be26fa1112e4cf57b4b,The Erindale Academy,Private,1576,dundas street west,Mississauga,ON,L5C1E5
2cc3e465114c36c1cab0,Ahmadiyya Elementary School,Private,1194,matheson blvd east,Mississauga,ON,L4W1R2
2d176a785aa7b0e736a8,Al-Risala Academy,Private,1224,dundas street e,MISSISSAUGA,ON,L4Y4A2
2e585465d6c6bb26b8d6,Holy Cross School,Catholic,3615,morning star dr,Mississauga,ON,L4T1Y4
2f63145be97ccf9b83c7,Vista Heights Public School,Public,89,vista blvd,Mississauga,ON,L5M1V8
2fc9028c91bb4813acf0,Canadian Business College - Mississauga,Private Institution,77,city centre drive,Mississauga,ON,L5B1M5
31415dbe01784ae0e74e,Ace Acumen Online School,Private,131,brunel road,Mississauga,ON,L4Z1X3
33612d9b8cc15636caa8,White Oaks Montessori School,Private,1200,vanier drive,Mississauga,ON,L5H4C7
34a91a020ff48273f23d,Brandon Gate Public School,Public,3800,brandon gate,Mississauga,ON,L4T3V9
35eadab5d64e509dc572,Queen's College of Business- Technology & Public Safety,Private Institution,121,brunel road,Mississauga,ON,L4Z3E9
366745b23f2c2bcd2335,Edenrose Public School,Public,1342,edenrose st,Mississauga,ON,L5V1K9
36cf30bf2eab974d5274,St Clare School,Catholic,4140,glen erin dr,Mississauga,ON,L5L2Z3
38d60160b49cb53f3bdb,ISNA Islamic School,Private,1525,sherway dr,Mississauga,ON,L4X1C5
3a7fa1a30a8b28ab742f,Blyth Academy Mississauga   Upper Campus,Private,507,lakeshore road east,Mississauga,ON,L5G1H9
3b4f62dd4c1210553f85,Lorne Park Public School,Public,1325,indian rd,Mississauga,ON,L5H1S3
3b7b6ca11f7224567c46,Clifton Public School,Public,2389,cliff rd,Mississauga,ON,L5A2P1
3bea5dc984519999a5c5,Kenollie Public School,Public,1376,glenwood dr,Mississauga,ON,L5G2X1
3c0901f8bc2518d5661b,Father Michael Goetz Secondary School,Catholic,330,central pkwy w,Mississauga,ON,L5B3K6
3f0339bda29d3c1ae972,St Jerome Separate School,Catholic,790,paisley blvd w,Mississauga,ON,L5C3P5
3f78a0f83d626d5569f6,CareerQuest - Vaughan,Private,55,city centre drive,Mississauga,ON,L5B1M3
419690485db257893ee8,St. Charles Garnier School,Catholic,4233,central pkwy e,Mississauga,ON,L4Z1M7
41becc4f7b38be9038d2,McCanny Secondary School (West Campus),Private,50,burnhamthorpe road west,Mississauga,ON,L5B3C2
42e42310418a2e0f3104,Passion Beauty Academy Inc,Private Institution,5120,dixie road,Mississauga,ON,L4W4J7
433ac932319d9bf1022c,Middlebury Public School,Public,5482,middlebury dr,Mississauga,ON,L5M5E8
4350db44f4b308253110,Marvin Heights Public School,Public,7455,redstone rd,Mississauga,ON,L4T2B3
440992dd40a790718ee5,Mineola Public School,Public,145,windy oaks dr,Mississauga,ON,L5G1Z4
44917c1414f1b34c8ba2,Artesian Drive Public School,Public,3325,artesian dr,Mississauga,ON,L5M7J8
44c5d5e69b09257a9277,Oakridge Public School,Public,2060,stonehouse cres,Mississauga,ON,L5H3J1
451f085de9fe0ad63471,Meadowvale Village Public School,Public,890,old derry rd w,Mississauga,ON,L5W1A1
4695e116489e7013e751,St Raymond Elementary School,Catholic,5735,whitehorn ave,Mississauga,ON,L5V2A9
47218b25aeef62b911a7,St Helen Separate School,Catholic,1325,bodley rd,Mississauga,ON,L5J3X1
4ad7463cb41ff6a94aa0,Bishop Scalabrini School,Catholic,225,central pkwy w,Mississauga,ON,L5B3J5
4b2b657f290aaf62f80c,The Woodlands,Public,3225,erindale station rd,Mississauga,ON,L5C1Y5
50d15f873558afddfbcb,M'Learning Student Centre,Private,,,Mississauga,ON,L5M3V8
50f125a3e7285b1da608,St Luke Catholic Elementary School,Catholic,1280,cobalt st,Mississauga,ON,L5H4L8
5172704d24d00bca6f5b,Peel Alternative - South Elementary,Public,1500,ogden avenue,Mississauga,ON,L5E2H8
5192e247513ba7cf750e,John Fraser Secondary School,Public,2665,erin centre blvd,Mississauga,ON,L5M5H6
52bab1118c77b93c2023,St Marcellinus Secondary School,Catholic,730,courtneypark dr w,Mississauga,ON,L5W1L9
53bb94aa2dc959f8ea0c,San Lorenzo Ruiz Elementary School,Catholic,100,barondale dr,Mississauga,ON,L4Z3R1
54684fa079e9203881e3,Allan A Martin Senior Public School,Public,1390,ogden ave,Mississauga,ON,L5E2H8
558211319d2287f55b46,St Gregory School,Catholic,1075,swinbourne dr,Mississauga,ON,L5V1B9
56aea57b443768f3023f,Thornwood Public School,Public,277,mississauga valley blvd,Mississauga,ON,L5A1Y6
5738f8560a80dd9ee5f5,T.E.A.M. School,Private,275,rudar rd,Mississauga,ON,L5A1S2
576f3a569e33d6f31d04,Mississauga Christian Academy,Private,2720,gananoque drive,Mississauga,ON,L5N2R2
