Index,Facility_Name,Facility_Type,Street_No,Street_Name,City,Prov_Terr,Postal_Code
00d54ffff955213fca13,Settler's Green Public School,Public,5800,montevideo rd,Mississauga,ON,L5N2S1
01d96ce1fd054fb3e2ee,Palm Islamic Academy of Malton,Private,7097,airport road,Mississauga,ON,L4T2G7
0532605415c6ea105504,Elm Drive (Elementary),Public,3215,thorncrest drive,Mississauga,ON,L5L4K7
053743cfd3ea893be212,Canadian Higher Learning Academy,Private,3464,semenyk court,Mississauga,ON,L5C4P8
06e4ee2c1d800c2193b3,Sunnybrook Secondary School,Private,7517,bren road,Mississauga,ON,L4T3V4
06e8110cfc1a291439dd,Castlebridge Public School,Public,2801,castlebridge dr,Mississauga,ON,L5M5J9
06f67c4548819c1da8f5,Peel Montessori School,Private,964,meadow wood rd,Mississauga,ON,L5J2S6
07fef2056a539ae2d5ce,St. Jude's Academy,Private,2150,torquay mews,Mississauga,ON,L5N2M6
097375d17c7f4d1fdb32,Edenwood Middle School,Public,6770,edenwood dr,Mississauga,ON,L5N3B2
0ab7ceeeb43d04f9afae,Glenhaven Senior Public School,Public,3570,havenwood dr,Mississauga,ON,L4X2M9
0b33c811de135c2a4a95,St Teresa of Avila Separate School,Catholic,6675,montevideo rd,Mississauga,ON,L5N4E8
0bbc10417a038bd70411,Dunrankin Drive Public School,Public,3700,dunrankin dr,Mississauga,ON,L4T1V9
0ca125eb15b0fd436b11,Riverside Public School,Public,30,john st n,Mississauga,ON,L5H2E8
0e761396c674dfa24bc4,Corliss Public School,Public,3730,corliss cres,Mississauga,ON,L4T2Z4
0f7775186c9c9f2f82fa,St Philip Elementary School,Catholic,345,fairview rd w,Mississauga,ON,L5B3W5
110e3ffb436f8c127890,Corsair Public School,Public,2230,corsair road,Mississauga,ON,L5A2L9
11508a5c2794b0864484,St Matthew Separate School,Catholic,280,kingsbridge garden circle,Mississauga,ON,L5R1L3
11a6ee3435ae2b6acbd0,Metalworks Institute of Sound & Music Production,Private Institution,3611,mavis rd,Mississauga,ON,L5C1T7
1238a71405fcaa8ab945,Clarkson Public School,Public,888,clarkson rd s,Mississauga,ON,L5J2V3
12fb1320318071cdd7d6,St. Bernard of Clairvaux Catholic Elementary School,Catholic,3345,escada drive,Mississauga,ON,L5M7V5
147c1bb8524a08841cd5,Sts Martha & Mary Separate School,Catholic,1760,bough beeches blvd,Mississauga,ON,L4W2B9
14ea9ecba5e2bb9bbd68,Dolphin Senior Public School,Public,18,brookside dr,Mississauga,ON,L5M1H3
156441dd040a6a42f0c2,Oxford College of Arts- Business and Technology - Mississauga,Private Institution,1300,central parkway west,Mississauga,ON,L5C4G8
179111afd1e7953d1b6b,Newton's Grove School,Private,6850,goreway drive,Mississauga,ON,L4V1V7
18cdff055d2daac5f5a2,Thomas Street Middle School,Public,2640,thomas st,Mississauga,ON,L5M5G8
1966b4741dbfb77f860c,St Julia Catholic Elementary School,Catholic,6770,historic trail,Mississauga,ON,L5W1J3
1972d41fbf99381fcba2,Dixie Public School,Public,1120,flagship dr,Mississauga,ON,L4Y2K1
19737bd94436f359c95c,Forest Avenue Public School,Public,20,forest ave,Mississauga,ON,L5G1K7
19a5b6cb3bea6e92054c,Biztech Institute Inc,Private Institution,5170,dixie rd,Mississauga,ON,L4W1E5
1a99dfa7c222d553fa16,ÉÉC Saint-Jean-Baptiste,Catholic,1910,broad hollow gate,Mississauga,ON,L5L3T4
1b095557d6c8c7731347,Osprey Woods Public School,Public,6135,lisgar dr,Mississauga,ON,L5N7V2
1ba7b39ccf28ec1c52e9,Whitehorn Public School,Public,5785,whitehorn ave,Mississauga,ON,L5V2A9
1ce8735103efa12230ca,Churchill Meadows Public School,Public,3310,mcdowell dr,Mississauga,ON,L5M6R8
1e28b93899368a1b727a,The Valleys Senior Public School,Public,1235,mississauga valley blvd,Mississauga,ON,L5A3R8
1e97e7165ce4b89ab4e4,Elpis College,Private,2155,dunwin dr,Mississauga,ON,L5L4M1
2005db04dacf56c073cf,Algonquin Careers Academy-Mississauga,Private Institution,3025,hurontario street,Mississauga,ON,L5A2H1
205225fa8f11088f9c3a,Sts. Peter & Paul Catholic School,Catholic,4205,woodington dr,Mississauga,ON,L4Z1K2
218f9690f77c28cc1e37,Mentor College Primary Campus,Private,56,cayuga avenue,Mississauga,ON,L5G3S9
220628062dff40367e38,Marca College of Hair and Esthetics-Mississauga,Private Institution,4141,dixie road,Mississauga,ON,L4W1V5
2221601aadf57b3e93c5,Lorne Park Secondary School,Public,1324,lorne park rd,Mississauga,ON,L5H3B1
2253675a0c7cd42b97ca,St Gerard Separate School,Catholic,1300,mcbride ave,Mississauga,ON,L5C1M8
2553672f10cdef32ad5f,Darcel Avenue Senior Public School,Public,7635,darcel ave,Mississauga,ON,L4T2Y2
25913c1893c6f23548e6,ÉSC Sainte-Famille,Catholic,1780,meadowvale boulevard,Mississauga,ON,L5N7K8
25f2b31f0196e91081b4,St. John XXIII Catholic Elementary School,Catholic,915,mcbride ave,Mississauga,ON,L5C1M1
26998ee511095d3dc998,Ruth Thompson Middle School,Public,5605,freshwater dr,Mississauga,ON,L5M7M8
26b8a4be793a32575ec2,St Dominic Separate School,Catholic,515,hartsdale ave,Mississauga,ON,L5G2G7
26baf990db9f8ff57264,Homelands Senior Public School,Public,2420,homelands dr,Mississauga,ON,L5K1H2
271636fcf2432538eefb,The Toronto French School - Mississauga,Private,1293,meredith avenue,Mississauga,ON,L5E2E6
27dbd7e83cd84ec2df21,St Joseph Separate School,Catholic,249,church st,Mississauga,ON,L5M1N1
