Index,Facility_Name,Facility_Type,Street_No,Street_Name,City,Prov_Terr,Postal_Code
580d8c5ac1f21d3383b7,St Faustina Elementary School,Catholic,3420,mcdowell dr,Mississauga,ON,L5M6R7
58b97c5d5eee718c8b4f,Metropolitan Andrei Catholic School,Catholic,515,mississauga valley boulevard,Mississauga,ON,L5A3G6
597c877285fdc88f04cc,St Veronica Elementary School,Catholic,680,novo star dr,Mississauga,ON,L5W1C7
5a46b41df6af090d81bc,Camilla Road Senior Public School,Public,201,cherry post drive,Mississauga,ON,L5A1J1
5a4ddf93b1bc1645d20e,St Aloysius Gonzaga Secondary School,Catholic,2800,erin centre blvd,Mississauga,ON,L5M6R5
5aac10a1b229c9f797ac,Champlain Trail Public School,Public,895,ceremonial dr,Mississauga,ON,L5R3B5
5b1b9e5aa65066e3e274,International Canadian Future School,Private,3195,erindale station road,Mississauga,ON,L5C1Y5
5d570f70a1a51d87210c,USCA Academy,Private,170,robert speck parkway,Mississauga,ON,L4Z3G1
5d79e4454c1cf2cbcc53,St. Teresa of Calcutta Catholic Elementary School,Catholic,1120,runningbrook dr,Mississauga,ON,L4Y2T2
5e48b38b67ad912bb5e1,Kendelhurst Academy,Private,170,church street,Mississauga,ON,L5M2M3
5fc8678fd7118d9f4bf6,St Catherine of Siena School,Catholic,2350,hurontario st n,Mississauga,ON,L5B1N1
60110996f490bb05d1a7,Trelawny Public School,Public,3420,trelawny circle,Mississauga,ON,L5N6N6
6060e0ecfba8315c3e59,Canadian College of Business- Science & Technology Inc - Mississauga,Private Institution,90,burnhamthrope road west,Mississauga,ON,L5B3C2
60fe33e1f69a5baadf9d,Hillside Public School Public School,Public,1290,kelly rd,Mississauga,ON,L5J3V1
64d4ad589450390b0a8a,Miller's Grove School,Public,6325,miller grove rd,Mississauga,ON,L5N3K2
65800e005f0338c7e09b,Westacres Public School,Public,2165,breezy brae dr,Mississauga,ON,L4Y1N3
67c2da61c534f81574cb,Dewey College,Private,5889,coopers avenue,Mississauga,ON,L4Z1R9
67e9b44ae43ad219b97a,Maple Wood Public School,Public,2650,gananoque dr,Mississauga,ON,L5N2R2
6d9beeaf6a11ce3a2dfe,Beacon House International College,Private,3050,confederation parkway,Mississauga,ON,L5B3Z6
6ef394820647b3173045,Willow Way Public School,Public,1715,willow way,Mississauga,ON,L5M3W5
70418557a18c085a526d,UFuture Virtual Academy,Private,3450,wolfedale road,Mississauga,ON,L5C2V6
7202ac1a68499a5ec254,St Margaret of Scotland School,Catholic,2266,council ring rd,Mississauga,ON,L5L1C1
735a401706120f5cf107,Waterloo Private High School,Private,6980,maritz drive,Mississauga,ON,L5W1Z3
738a82302f91fd5286d4,Ray Underhill Public School,Public,32,suburban dr,Mississauga,ON,L5N1G6
7404ef73183554b566ea,St Bernadette Elementary School,Catholic,1060,white clover way,Mississauga,ON,L5V1G7
744882f5769210c68e63,St Edmund Separate School,Catholic,1250,melton dr,Mississauga,ON,L4Y1L5
746f0b4f3a3aeae1aae4,Blake Academy,Private,5171,huntingfield drive,Mississauga,ON,L5R2L8
770412c9ce9bf38ed3be,Garthwood Park Public School,Public,3245,colonial drive,Mississauga,ON,L5L5G2
77579d946085fd43bf7c,Queenston Drive Public School,Public,3520,queenston dr,Mississauga,ON,L5C2G6
784bc1c9c9969ec468da,Munden Park Public School,Public,515,tedwyn dr,Mississauga,ON,L5A1J8
78d0b8d406af447fe5f3,Our Lady of Mercy Elementary School,Catholic,5820,glen erin dr,Mississauga,ON,L5M5J9
7bde3587594d65598522,Sheridan Park Public School,Public,2280,perran dr,Mississauga,ON,L5K1M1
7f8325b7b384cb031b91,Global Art and Desgin Academy,Private,1140,burnhamthorpe road west,Mississauga,ON,L5C4E9
7f97fbf596bf63f7330f,Madaniyya Academy,Private,3930,nashua drive,Mississauga,ON,L4V1M5
805097f6b881ec1653f5,David Leeder Middle School,Public,6900,gooderham estate blvd,Mississauga,ON,L5W1B4
81f770103b496c4bb9b4,Janet I. McDougald Public School,Public,498,hartsdale avenue,Mississauga,ON,L5G2G6
8235117caf679fe26c7c,St Paul Secondary School,Catholic,815,atwater ave,Mississauga,ON,L5E1L8
82570e00b8d783e66560,Loyola Catholic Secondary School,Catholic,3566,south common crt,Mississauga,ON,L5L2B1
8314df1e19b173b58e01,Aoguan Prestige School,Private,2171,dunwin drive,Mississauga,ON,L5L1X2
83390c1c927e62313b06,Bronte College,Private,88,bronte college crt,Mississauga,ON,L5B1M9
835572bb15f1a3f83863,St Alfred School,Catholic,3341,havenwood dr,Mississauga,ON,L4X2M2
839638f63f64245df387,St. Barbara Elementary School,Catholic,1455,samuelson circle,Mississauga,ON,L5N7Z2
83e9f13621fb2550bf3e,Britannia Public School,Public,1145,swinbourne dr,Mississauga,ON,L5V1C2
848635fef4f0758aaf84,Fairwind Senior Public School,Public,5235,fairwind dr,Mississauga,ON,L5R3L2
84c7c152711d418281c5,Stephen Lewis Secondary School,Public,3675,thomas street,Mississauga,ON,L5M7E6
8521dd27301267c02614,St Hilary Elementary School,Catholic,5070,fairwind dr,Mississauga,ON,L5R2N4
8571f57c7445bdfe6623,Looks Aesthetic Academy,Private Institution,25,watline ave gr 16,Mississauga,ON,L4Z2Z1
86d89c4f671c2c7d6122,Divine Mercy School,Catholic,2840,duncairn dr,Mississauga,ON,L5M5C6
87e93d1bc92e42d86a64,St Elizabeth Seton School,Catholic,6133,glen erin dr,Mississauga,ON,L5N2T7
