Index,Facility_Name,Facility_Type,Street_No,Street_Name,City,Prov_Terr,Postal_Code
0065c203fcc7fe483cdf,Willow Road Public School,Public,125,willow rd,Guelph,ON,N1H1W4
075933fc6cb195f7b573,Central Public School,Public,97,dublin st n,Guelph,ON,N1H4N2
09b845073fb52fe4cc4e,Ecole Guelph Lake Public School,Public,595,watson parkway n,Guelph,ON,N1E6X2
11c6af2fba6741f3bd80,College Heights Secondary School,Public,371,college ave w,Guelph,ON,N1G1T3
1ffcc6377695ea57aa01,St John Catholic School,Catholic,63,victoria rd n,Guelph,ON,N1E5G9
265a83b527e4af18cb17,Ottawa Crescent Public School,Public,75,ottawa cres,Guelph,ON,N1E2A8
2777fc763b507b191c3b,St Francis of Assisi Catholic School,Catholic,287,imperial rd s,Guelph,ON,N1K1Z4
27ea4dc8d09f24c38b96,Sacred Heart Catholic School,Catholic,125,huron st,Guelph,ON,N1E5L5
284926c537627427ba42,ÉÉC Saint-René-Goupil,Catholic,221,scottsdale promenade,Guelph,ON,N1G3A1
2b02cdb11b60c7fc6e56,Mary Phelan Catholic School,Catholic,8,bishop crt,Guelph,ON,N1G2R9
304b517fb83daa59e1c3,Guelph Community Christian School,Private,195,college ave west,Guelph,ON,N1G1S6
30a09f0dcb22aa3d21d5,St Michael Catholic School,Catholic,9,mcelderry rd,Guelph,ON,N1G4W7
3114caf8b18aba7d082a,Paisley Road Public School,Public,406,paisley rd,Guelph,ON,N1H2R3
31f6b63aec072fc6e323,St John Bosco Catholic School,Catholic,19,northumberland st,Guelph,ON,N1H3A6
326fd29610f740f6e723,Victory Public School,Public,135,exhibition st,Guelph,ON,N1H4R4
331a4381fb802e301c5e,St Peter Catholic School,Catholic,150,westwood rd,Guelph,ON,N1H7G1
3387f95eb0e6cfeb4b05,Meezan School,Private,286,water street,Guelph,ON,N1G1B8
338ff4eb2c1795c3c757,Resurrection Christian Academy,Private,400,speedvale avenue e,Guelph,ON,N1E1N9
3613c619c61962b30b4d,Academy of Learning (Guelph),Private Institution,226,speedvale avenue west,Guelph,ON,N1H1C4
3708e67537fcda7bd511,Waverley Drive Public School,Public,140,waverley dr,Guelph,ON,N1E1H2
3adae2b00d063def0516,St James Catholic School,Catholic,57,victoria rd n,Guelph,ON,N1E5G9
3b74297a1010180e3b22,William C. Winegard Public School,Public,25,lee st,Guelph,ON,N1E7E7
3f2bf877eb329ae15281,Arkana Education Guelph,Private,,,Guelph,ON,N1H2Z4
3fc2449bbccb84a70d07,Holy Trinity Catholic School,Catholic,487,grange rd,Guelph,ON,N1E7C4
42a2cf52396d9d2f1594,Edward Johnson Public School,Public,397,stevenson st n,Guelph,ON,N1E5C1
43cda7a929941528364e,June Avenue Public School,Public,30,june ave,Guelph,ON,N1H1H6
4580576c5c6cf62a6334,Mitchell Woods Public School,Public,670,willow rd,Guelph,ON,N1H8K2
462f5e831d0133e3de95,Westminster Woods Public School,Public,140,goodwin dr,Guelph,ON,N1L0G7
48a2da0f0b380487b7d8,St Patrick Catholic School,Catholic,391,victoria road north,Guelph,ON,N1E5J9
491a18ddfca5f937c28c,Priory Park Public School,Public,275,scottsdale dr,Guelph,ON,N1G3A1
5458598c3ba7e8bb0219,Ken Danby Public School,Public,525,grange rd,Guelph,ON,N1E7C4
595b7df509e0063c8dc0,Centennial Collegiate and Vocational Institute,Public,289,college ave w,Guelph,ON,N1G1S9
5b2ed2043be8bad8ac4b,John F Ross Collegiate and Vocational Institute,Public,21,meyer dr,Guelph,ON,N1E4H1
5cd7ad7ec6ae77dd62ea,Rickson Ridge Public School,Public,177,rickson ave,Guelph,ON,N1G4Y6
700029c4ebe3fccc570a,John McCrae Public School,Public,189,water st,Guelph,ON,N1G1B3
80450337d1aae4ac4713,John Galt Public School,Public,50,laurine ave,Guelph,ON,N1E4M9
859343cb62cff8695aab,École élémentaire L'Odyssée,Public,30,brighton rue,Guelph,ON,N1E3S9
861865206ad33af62ded,Holy Rosary Catholic School,Catholic,365,stevenson st n,Guelph,ON,N1E5B7
9c045bfda5259466b1cf,Gateway Drive Public School,Public,33,gateway dr,Guelph,ON,N1H6X1
9f3e0757babb189d10b0,Day School -Wellington Centre For ContEd,Public,1428,gordon st,Guelph,ON,N1L1C8
a801571140692bb3afa0,Ecole King George Public School,Public,72,lemon st,Guelph,ON,N1E2H5
a8edaacc12b3125541a0,Ecole Arbour Vista Public School,Public,200,mccann st,Guelph,ON,N1G0C5
ad6795aebac78d83abc5,St Ignatius of Loyola Catholic School,Catholic,251,colonial dr,Guelph,ON,N1L0G4
af7a376b90a5ecae2b0c,University of Guelph,University,50,stone road east,Guelph,ON,N1G2W1
c487b23c58597985aa2e,St Paul Catholic School,Catholic,182,clairfields dr e,Guelph,ON,N1L1N4
c4dce2bc4ce08b7a6b4a,Village Hearth Community School,Private,20,shelldale crescent,Guelph,ON,N1H1C8
c750036525473f6a9e60,Guelph Montessori School,Private,151,waterloo ave,Guelph,ON,N1H3H9
d14255b18ca63b5d1c85,Westwood Public School,Public,495,willow rd,Guelph,ON,N1H7C7
d1e79bc78140bee0b13c,Kortright Hills Public School,Public,23,ptarmigan dr,Guelph,ON,N1C1B5
