Index,Facility_Name,Facility_Type,Street_No,Street_Name,City,Prov_Terr,Postal_Code
02720786d966799ae311,Oxford Learning Academy,Private,741,main street east,Milton,ON,L9T3Z3
05ed1d8e7f43411c1c1b,J M Denyes Public School,Public,215,thomas st,Milton,ON,L9T2E5
10bfe20d44c30d9bfa6b,St. Anthony of Padua Catholic Elementary School,Catholic,1240,tupper drive,Milton,ON,L9T6T7
123fdd882659a1246179,Brookville Public School,Public,11325,guelph line,Campbellville,ON,L0P1B0
126b3c072141b0c127d7,Ernest C Drury School for the Deaf,Provincial,255,ontario st s,Milton,ON,L9T2M5
12776f7f8214dfa95775,Guardian Angels Catholic Elementary School,Catholic,650,bennett blvd,Milton,ON,L9T6B1
240b5c926be13e0004f4,E C Drury/Trillium Demonstration School,Provincial,347,ontario st s,Milton,ON,L9T3X9
268fb0bf142a8c1d2975,St. Scholastica Catholic Elementary School,Catholic,170,whitlock ave,Town of Milton,ON,L9T7K6
27c5a192f73d571b77be,Viola Desmond Public School,Public,1450,leger way,Milton,ON,L9E1H9
2851b01e65a54c72206f,Tarbiyah Elementary School,Private,89,ontario street north,Milton,ON,L9T2T1
2b7041c492744c36511e,Anne J. MacArthur Public School,Public,820,farmstead drive,Milton,ON,L9T8J6
316dc7b5318d3e09b07c,Bruce Trail Public School,Public,1199,costigan road,Milton,ON,L9T6N8
443b5eecc5f02aad68a4,Hawthorne Village Public School,Public,850,bennett blvd,Milton,ON,L9T6X9
45354e27ccd5cedbf2a5,Our Lady of Victory Catholic Elementary School,Catholic,540,commercial st,Milton,ON,L9T4Z3
49d4db1da11bc5c040d4,E C Drury/Trillium Demonstration School,Provincial,347,ontario st s,Milton,ON,L9T3X9
5066ab999798deca972d,Lumen Christi Catholic Elementary School,Catholic,841,savoline boulevard,Milton,ON,L9T0Z1
528c3ae50e2d7e596e48,Martin Street Public School,Public,184,martin st,Milton,ON,L9T2R4
553838317b31a9947fbe,Montessori School of Milton Inc,Private,336,bronte street s,Milton,ON,L9T7W6
56dfa4e43f9d3e1fd2c1,École élémentaire Dyane-Adam,Public,500,cedar hedge road,Milton,ON,L9T6J4
575bc90cd5a2218e2760,Tiger Jeet Singh Public School,Public,650,yates drive,Milton,ON,L9T7P6
6366a0318a9144f6edd2,Boyne Public School,Public,1110,farmstead drive,Milton,ON,L9E0B5
6866c0a2daa890c0e715,ÉÉC Sainte-Anne,Catholic,1150,ferguson drive,Milton,ON,L9T7V8
68e445d0f124ff7dd550,Sam Sherratt Public School,Public,649,laurier ave,Milton,ON,L9T4N4
6aa431c1c32541158774,P. L. Robertson Public School,Public,840,scott blvd,Milton,ON,L9T2C9
70c516e8d4dca178445a,St. Benedict Catholic Elementary School,Catholic,80,mclaughlin ave,Milton,ON,L9T8N2
79a28fba3225f0762c7c,Ernest C Drury School for the Deaf,Provincial,255,ontario st,Milton,ON,L9T2M5
8463b860cdd735c2752f,Irma Coulson Elementary Public School,Public,625,sauve street,Milton,ON,L9T8M4
8beeab446e576b16b529,ÉÉC Saint-Nicolas,Catholic,720,woodward ave,MILTON,ON,L9T4A3
95ef9a36e7a8c3021369,Bishop Paul Francis Reding Catholic Secondary School,Catholic,1120,main st e,Milton,ON,L9T6H7
a62cbe7263189a3d9bee,Milton District High School,Public,396,williams ave,Milton,ON,L9T2G4
a9f10860042a5c572511,St. Peter Catholic Elementary School,Catholic,137,dixon drive,Milton,ON,L9T5P7
abb992e17c03c21ba58e,W I Dick Middle School,Public,351,highside dr,Milton,ON,L9T1W8
b364da29ef34a189b1a7,Escarpment View Public School,Public,351,scott blvd,Milton,ON,L9T0T1
bec2ea0c53cc3ff5f4a1,E W Foster School,Public,320,coxe blvd,Milton,ON,L9T4M5
cabb7fca480dc4b46f0c,Chris Hadfield Public School,Public,1114,woodward ave,Milton,ON,L9T5P5
cb610ac5e14182c02499,Craig Kielburger Secondary School,Public,1151,ferguson drive,Milton,ON,L9T7V8
d192ddc575a774c16cba,Stirling Montessori Academy Inc,Private,123,main street east,Milton,ON,L9T1N4
d5cbbbda4b7700700ff4,Queen of Heaven Catholic Elementary School,Catholic,311,salvoline blvd,Milton,ON,L9T7M4
d9d6ec81ba8f1f4dbaaf,Gary Allan High School - Milton,Public,215,ontario st s,Milton,ON,L9T4N5
daade9d3940ce8af9d5e,Robert Baldwin Public School,Public,180,wilson dr,Milton,ON,L9T3J9
db688946d6c58e93de3c,Holy Rosary (Milton) Catholic Elementary School,Catholic,141,martin st,Milton,ON,L9T2R3
ea97af174f438ee275a2,St. Francis of Xavier Catholic Secondary School,Catholic,1145,bronte street south,Milton,ON,L9T8B4
f41bde72d6ce70cdf887,Our Lady of Fatima Catholic Elementary School,Catholic,709,bolingbroke drive,Milton,ON,L9T6Z3
