Index,Facility_Name,Facility_Type,Street_No,Street_Name,City,Prov_Terr,Postal_Code
beba85acca9a9c77f925,ÉÉC Saint-Philippe,Catholic,901,francis chemin burlington ontario l7t3y3,Burlington,ON,L7T3Y3
bfd02ae991cbee68ec46,Missing Links Academy,Private,2317,fairview st,BURLINGTON,ON,L7R2E3
c49d63d0da2b901b8782,Maplehurst Public School,Public,481,plains rd e,Burlington,ON,L7T2E2
cd1d12d0df6f4f08ebea,Clarksdale Public School,Public,2399,mountainside dr,Burlington,ON,L7P1C6
cd4b8d64e47decf700ca,St. Elizabeth Seton Catholic Elementary School,Catholic,5070,dryden ave,Burlington,ON,L7L6Y3
d1690c43e68c33f116e4,St. Gabriel Catholic Elementary School,Catholic,2227,parkway dr,Burlington,ON,L7P1S9
d220089eaede00787dfd,Burlington Royal Arts Academy,Private,2054,mountainside drive,Burlington,ON,L7P1A8
d7eaa1d99678c82e210d,Career College Group Medix - Burlington,Private Institution,5315,north services road,Burlington,ON,L7L6C1
db38e1df39aed3a8e0a0,Tecumseh Public School,Public,3141,woodward ave,Burlington,ON,L7N2M3
ddfeb53b25b3193a75f4,Aldershot High School,Public,50,fairwood pl w,Burlington,ON,L7T1E5
e0dfde5ff0dcfb35c338,Florence Meares Public School,Public,2102,berwick dr,Burlington,ON,L7M4W6
e13b176b3aa7caad1fac,Bruce T Lindley,Public,2510,cavendish dr,Burlington,ON,L7P4K5
e24e96b42b5190f3ac27,Glenview Public School,Public,143,townsend ave,Burlington,ON,L7T1Z1
e64a65cbd8aa7989d5c2,Glenn Arbour Academy,Private,5051,mainway,Burlington,ON,L7L5H9
eb7f629251cb58c7e6bc,Blyth Academy Burlington,Private,422,pearl street,Burlington,ON,L7R2N1
edfd9878aacc938de7e1,Pauline Johnson Public School,Public,4350,longmoor dr,Burlington,ON,L7L1X7
f2423547f55a925e2ce4,St. Christopher Catholic Elementary School,Catholic,2400,sutton drive,Burlington,ON,L7L7N2
f2ea12df2b40aa4af891,St. Timothy Catholic Elementary School,Catholic,2141,deer run ave,Burlington,ON,L7M4C7
f57f26a314c1f75465f1,Trillium College-Burlington,Private Institution,1 760,brant street,Burlington,ON,L7R4B7
f9481e5501fe47dfd6bf,Woodview Learning Centre,Private,69,flatt rd,Burlington,ON,L7P0T3
f965b72b92ca540611b2,Burlington Central High School,Public,1433,baldwin st,Burlington,ON,L7S1K4
fa23108eba621d1e07d9,Rolling Meadows Public School,Public,1522,mountain grove ave,Burlington,ON,L7P2H5
fb353e46f5731abe5fd9,Frontenac Public School,Public,5140,pinedale ave,Burlington,ON,L7L3V4
