Index,Facility_Name,Facility_Type,Street_No,Street_Name,City,Prov_Terr,Postal_Code
054468676e4f3c4bb218,Corpus Christi Catholic Secondary School,Catholic,5150,upper middle rd,BURLINGTON,ON,L7L0E5
0549da18b8b210e312cf,Burlington Central Elementary School,Public,1433,baldwin st,Burlington,ON,L7S1K4
0bddf52943df61b1032b,Alexander's Public School,Public,2223,sutton drive,BURLINGTON,ON,L7L0B9
0c864c163f2d4caee412,St. Anne Catholic Elementary School,Catholic,4675,doug wright drive,Burlington,ON,L7M0N9
11218bbb16c3c0e779d2,Central Public School,Public,638,brant st,Burlington,ON,L7R2H2
122326741a8d78983695,OneSchool Global - Hamilton,Private,890,harrington crt,Burlington,ON,L7N3N4
151811b3ed427a497c7f,Dr Charles Best Public School,Public,3110,parkgate cres,Burlington,ON,L7M1C7
159fb90d6f8a69c2b540,Ryerson Public School,Public,565,woodview rd,Burlington,ON,L7N2Z9
1a1ca3eed18a8bccd890,M M Robinson High School,Public,2425,upper middle rd,Burlington,ON,L7P3N9
1febf17679d3e7ad52cc,John T Tuck Public School,Public,3365,spruce ave,Burlington,ON,L7N1J7
2b775670ddf2a57feed5,St. John (Burlington) Catholic Elementary School,Catholic,653,brant st,Burlington,ON,L7R2H1
2e08b474064c02791df4,Kings Road Public School,Public,660,greenwood dr,Burlington,ON,L7T3P3
2fb1da9f7232b722dde9,Brant Hills Public School,Public,2330,duncaster dr,Burlington,ON,L7P4C3
30604f6537ebe2a67e4e,St. Mark Catholic Elementary School,Catholic,2145,upper middle rd,Burlington,ON,L7P4G1
363d4a764fe72b1881a6,Fairview Glen Montessori,Private,3508,commerce crt,BURLINGTON,ON,L7N3L7
39aaa26c788a754e9f9f,École élémentaire Renaissance,Public,1226,lockhart chemin burlington ontario l7s1h1,Burlington,ON,L7S1H1
4127e2ecde4d05306d23,Sir Ernest Macmillan Public School,Public,1350,headon rd,Burlington,ON,L7M1V8
44d129155fd3f752140f,Oxford College of Arts- Business and Technology - Burlington,Private Institution,760,brant street,Burlington,ON,L7R4B7
45719370e317874b25a0,Pineland Public School,Public,5121,meadowhill rd,Burlington,ON,L7L3K7
459f7b0944864622a899,Ascension Catholic Elementary School,Catholic,5205,new st,Burlington,ON,L7L1V3
482afbc1a76a2ebce548,Orchard Park Public School,Public,5151,dryden ave,Burlington,ON,L7L7J3
4bf53a054eaceb5e467c,Nelson High School,Public,4181,new st,Burlington,ON,L7L1T3
5341c893a8f20a4f777f,St. Raphael Catholic Elementary School,Catholic,4056,new st,Burlington,ON,L7L1S9
59ded2ae8298b964bf2c,Dr. Frank J. Hayden Secondary School,Public,3040,tim dobbie drive,Burlington,ON,L7M0M3
5a10e445422b340bcdda,Burlington Christian Academy,Private,521,north service rd,Burlington,ON,L7P5C3
5f6152fd1778b65be099,Canadian Martyrs Catholic Elementary School,Catholic,3201,lansdown dr,Burlington,ON,L7M1K1
5f821e40cff64d4b4a0b,Ashwood Glen,Private,3430,fairview street,Burlington,ON,L7N2R5
604f2a1725991e7871e1,Assumption Catholic Secondary School,Catholic,3230,woodward ave,Burlington,ON,L7N3P1
60c5162af787743bc546,St. Paul Catholic Elementary School,Catholic,530,cumberland ave,Burlington,ON,L7N2X2
610524f5c24cd4d6d719,St. Patrick Catholic Elementary School,Catholic,200,kenwood ave,Burlington,ON,L7L4L8
66adeb79b8715db9ad3e,John William Boich Public School,Public,2474,sutton dr,Burlington,ON,L7L0G2
7401ace274ace547b97f,C H Norton Public School,Public,2120,cleaver ave,Burlington,ON,L7M4B6
740981f81344293eb6b2,Charles R. Beaudoin Public School,Public,4313,clubview dr,Burlington,ON,L7M5A1
75fec692c404b39d2bae,Kilbride Public School,Public,6611,panton st,Kilbride,ON,L7P0L8
77a0c99941af65948338,Notre Dame Catholic Secondary School,Catholic,2333,headon forest dr,Burlington,ON,L7M3X6
79223ff05c26127f52bc,One World International School,Private,760,brant st.,Burlington,ON,L7R4B8
7a59a4da1c8110f59cf8,Robert Bateman High School,Public,5151,new street,Burlington,ON,L7L1V3
7bf6a18fe060ba065aaf,Alton Village Public School,Public,3290,steeplechase drive,Burlington,ON,L7M0W1
7d895b5148b4fd5c3b6d,Paul A Fisher Public School,Public,2175,cavendish dr,Burlington,ON,L7P3J8
82c587cbac6a1b6e1bc4,Sacred Heart of Jesus Catholic Elementary School,Catholic,2222,country club dr,Burlington,ON,L7M4S5
88071f50f1529c622e9e,Lakeshore Public School,Public,2243,lakeshore rd,Burlington,ON,L7R1B1
8b1fd43452c4a7f87f45,Holy Rosary (Burlington) Catholic Elementary School,Catholic,261,plains rd e,Burlington,ON,L7T2C7
91aa93db9cc71672abf7,Aldershot Elementary School,Public,50,fairwood place w,Burlington,ON,L7T1E5
9ac8f4388f302d36cd65,Waterdown Montessori School,Private,1921,snake road,Burlington,ON,L7P4Y2
9dc28a7fc6137f87e3e4,Gary Allan High School - Burlington,Public,3250,new st,Burlington,ON,L7N1M8
9f55c35069590b0ae058,Tom Thomson Public School,Public,2171,prospect st,Burlington,ON,L7R1Z6
a10986d2e844ebb9f470,Mohawk Gardens Public School,Public,5280,spruce ave,Burlington,ON,L7L1N3
a11862a180f15abc712c,Halton Waldorf School,Private,2193,orchard rd,Burlington,ON,L7L7J8
a2e070fff7874463a906,Trinity Christian School,Private,2170,itabashi way,Burlington,ON,L7M5B3
