Index,Facility_Name,Facility_Type,Street_No,Street_Name,City,Prov_Terr,Postal_Code
0867c07825f67c7110bf,Park Public School,Public,6,hyde park dr,Georgetown,ON,L7G2B6
2a8cdf20fb17b93e7852,Georgetown District High School,Public,70,guelph st,Georgetown,ON,L7G3Z5
36abe0559893724a08df,Glen Williams Public School,Public,512,main st,Glen Williams,ON,L7G3S8
3f4e13b4d08cf70ab820,Christ the King Catholic Secondary School,Catholic,161,guelph street,Georgetown,ON,L7G4A1
42c78835995a0691372a,St. Joseph (Acton) Catholic Elementary School,Catholic,147,mill street,Acton,ON,L7J1G7
54b7e5f6ba4e09766979,Joseph Gibbons Public School,Public,41,moore park cres,Georgetown,ON,L7G2T3
59e0ff1442386a73c032,George Kennedy Public School,Public,75,weber dr,Georgetown,ON,L7G1C5
5d92c6d40867caf195ad,Limehouse Public School,Public,11139,22 side rd,Limehouse,ON,L0P1H0
6c8302cf6439c9e9d2d7,Acton District High School,Public,21,cedar rd,Acton,ON,L7J2V2
757c9a33c6ead38abbc6,St. Catherine of Alexandria Catholic Elementary School,Catholic,407,barber dr,Georgetown,ON,L7G5H7
8c2b5b3bbc24491a8034,Stewarttown Middle School,Public,13068,15 side rd rr 2,Georgetown,ON,L7G4S5
929bc8f0c02e21372da8,Harrison Public School,Public,59,rexway dr,Georgetown,ON,L7G1P9
a3ea41270368f96fa2d7,Silver Creek Public School,Public,170,eaton st,Georgetown,ON,L7G5V6
a9ce45a71a41bcb31506,ÉÉC du Sacré-Coeur-Georgetown,Catholic,34,miller promenade,Georgetown,ON,L7G5P7
aa267fc7894b4d1833fd,Pineview Public School,Public,13074,5 side rd rr 2,Georgetown,ON,L7G4S5
aaeaf460188645170da8,St. Brigid Catholic Elementary School,Catholic,73,miller drive,Georgetown,ON,L7G5T2
bf1945b0b9b9d92fd153,Gary Allan High School - Halton Hills,Public,96,guelph st,Georgetown,ON,L7G3Z5
c5b14d99dedfa4fde0ac,Nimbus Christian Education,Private,11643,trafalgar road,Georgetown,ON,L7G4S4
c6f02aade931bd0204a2,Ethel Gardiner Public School,Public,14365,danby road,Georgetown,ON,L7G6L8
c8b0061af17389d67134,Robert Little Public School,Public,41,school lane,Acton,ON,L7J1B9
cd290da8d5cdc2740c8f,Holy Cross Catholic Elementary School,Catholic,222,maple ave,Halton Hills,ON,L7G1X2
e2243b63673c946e7a3d,Halton Hills Christian School,Private,11643,trafalgar road,Georgetown,ON,L7G4S4
e3b44fef0a587c4b3ae8,Centennial Middle School,Public,233,delrex blvd,Georgetown,ON,L7G4G1
f2cd9d6be225224d588e,McKenzie-Smith Bennett,Public,69,acton blvd,Acton,ON,L7J2H4
fe39d9aa68020d1c1472,St. Francis of Assisi Catholic Elementary School,Catholic,120,sinclair ave,Georgetown,ON,L7G5Z6
