Index,Facility_Name,Facility_Type,Street_No,Street_Name,City,Prov_Terr,Postal_Code
0240bd1e1b4d1d65e1f8,Clanmore Montessori School,Private,2463,lakeshore rd e,Oakville,ON,L6J1M7
069b8ff446def282bfd8,Joshua Creek Public School,Public,1450,arrowhead road,Oakville,ON,L6H7P9
076c1832a230755d7bb6,St. Bernadette Catholic Elementary School,Catholic,1201,heritage way,Oakville,ON,L6M3A4
0a92cc239e2db163ac7e,Oakville Christian School,Private,112,third line,Oakville,ON,L6L3Z6
0eb4b6f9b6acc3e8e1ee,White Oaks High School,Public,1330,montclair dr,Oakville,ON,L6H1Z5
0edacd58400c7740f830,MacLachlan College,Private,337,trafalgar road,Oakville,ON,L6J3H3
0f0862774bcea148cf35,St. Ignatius of Loyola Catholic Secondary School,Catholic,1550,nottinghill gate,Oakville,ON,L6M1X7
0f4883f88d2f6a613d9c,St. Matthew Catholic Elementary School,Catholic,1050,nottinghill gate,Oakville,ON,L6M2G3
174481ee32329b6c6c8a,Eastview Public School,Public,2266,hixon st,Oakville,ON,L6L1T4
19c61bd71b5e30996f47,Palermo Public School,Public,2561,valleyridge drive,Oakville,ON,L6M5H4
1a202e05d77f727bd968,Rotherglen School - Oakville Elementary,Private,2050,neyagawa boulevard,Oakville,ON,L6H6R2
1c74a3b59c98479afd43,American Islamic School,Private,2010,winston park drive,Oakville,ON,L6H5R7
20fa7cbab6a5ce2fdb2e,Forest Trail Public School (Elementary),Public,1406,pine glen road,Oakville,ON,L6M4B9
24f04a43b21ea19139eb,Trafalgar Ridge Montessori School,Private,2379,trafalgar rd,Oakville,ON,L6H6K7
2afca3ce9af97147ed56,Inspiration Private School - Oakville,Private,2345,wyecroft road,Oakville,ON,L6L6L8
2bdf6e436746c4600b3e,ÉSC Sainte-Trinité,Catholic,2600,grand oak trail,Oakville,ON,L6M0R4
337c15aa113b0b19f823,Post's Corners Public School,Public,2220,caldwell dr,Oakville,ON,L6H6B5
3bd75bd7239876bf678b,Munn's Public School,Public,1511,sixth line,Oakville,ON,L6H1X8
3e2cf041160f70112d57,Merriam High School,Private,2359,bristol circle,Oakville,ON,L6H6P8
3ed5708f703fbec6aa7b,St. Mary Catholic Elementary School,Catholic,2175,colonel william pky,Oakville,ON,L6M0B7
4125da11669c9a91f636,École élémentaire Gaetan-Gervais,Public,1075,mccraney street,Oakville,ON,L6H1H9
45553a5354161e5d43cd,Holy Family Catholic Elementary School,Catholic,1420,grosvenor st,Oakville,ON,L6H2X8
46ee60f29805fe7dc36a,Gary Allan High School - Oakville,Public,485,kerr street,Oakville,ON,L6K3C5
4acba6754a2f67f661d0,Dearcroft Montessori School,Private,1167,lakeshore rd e,OAKVILLE,ON,L6J1L3
4bad575ebb28d3bf8da9,Chisholm Academy,Private,1484,cornwall rd,Oakville,ON,L6J7W5
4c58fe75dd6dcc2d2345,St. Michael Catholic Elementary School,Catholic,165,sewell dr,Oakville,ON,L6H1E3
4c710f1382f8f4f4e900,Oakville Trafalgar High School,Public,1460,devon rd,Oakville,ON,L6J3L6
5412294678253dc17b1c,W H Morden Public School,Public,180,morden rd,Oakville,ON,L6K2S3
560c0c63cbb175822cc6,St. Marguerite d'Youville Catholic Elementary School,Catholic,1359,bayshire dr,Oakville,ON,L6H6C7
594300e547110f1783d5,Gladys Speers Public School,Public,2150,samway rd,Oakville,ON,L6L2P6
5d84ef7a288c35e8a452,St. Teresa of Calcutta Catholic Elementary School,Catholic,1190,westview terrace,Oakville,ON,L6M3N2
66c65646714185ef98cb,Heritage Glen Public School,Public,1641,heritage way,Oakville,ON,L6M2Z4
68b54e166699e55773da,Thomas A Blakelock High School,Public,1160,rebecca st,Oakville,ON,L6L1Y9
6b6dd49c6407574aa65b,St. Dominic Catholic Elementary School,Catholic,2405,rebecca st,Oakville,ON,L6L2B1
71b5b3cb0353c05f5487,Fern Hill,Private,3300,ninth line,Oakville,ON,L6H7A8
77dec496867681ef54ea,Brookdale Public School,Public,1195,bridge rd,Oakville,ON,L6L2C3
818edecfa0cc23d1f9d2,St. Andrew Catholic Elementary School,Catholic,145,millbank dr,Oakville,ON,L6H6G3
82e2b5f5f7c73417efee,Emily Carr Public School,Public,2255,pine glen road,Oakville,ON,L6M0G5
869cb7a640e7c2adb611,St. Gregory the Great Catholic Elementary School,Catholic,138,sixteen mile drive,Oakville,ON,L6M0T7
8d4902f280fe13623f97,St. Nicholas Catholic Elementary School,Catholic,477,warminster drive,Oakville,ON,L6L4N4
8dab1d4252a239b26a22,Montclair Public School,Public,1285,montclair dr,Oakville,ON,L6H1Z3
928fb54e831de43fd473,ÉIC Sainte-Trinité,Catholic,2600,grand oak trail,Oakville,ON,L6M0R4
932d7b0438f68fc622bd,King's Christian Collegiate,Private,528,burnhamthorpe rd w,Oakville,ON,L6M4K6
94f9d6515419ae332ebd,Iroquois Ridge High School,Public,1123,glenashton dr,Oakville,ON,L6H5M1
973423d90a6968d946be,Linbrook School,Private,1079,linbrook road,Oakville,ON,L6J2L2
98607ac9f5f9eff74eb1,Wildwood Academy,Private,2250,sheridan garden dr,Oakville,ON,L6J7T1
9869bce51435de494c39,Holy Trinity Catholic Secondary School,Catholic,2420,sixth line,Oakville,ON,L6H5Z8
9aef69c1f558cf6f3543,Garth Webb Secondary School,Public,2820,westoak trails boulevard,Oakville,ON,L6M4W2
9fe62550e7d413712efa,Our Lady of Peace Catholic Elementary School,Catholic,391,river glen dr,Oakville,ON,L6H5X5
