Index,Facility_Name,Facility_Type,Street_No,Street_Name,City,Prov_Terr,Postal_Code
a5e019dc515474a39709,Spring Valley School,Public,99,dunham drive drive,Ancaster,ON,L9G1X7
a6c71c49605362bb97d7,St. Agnes Catholic Elementary School,Catholic,80,colcrest st,Hamilton,ON,L8E3Y8
a89ecbbd4b650f420b16,New Heights Academy Hamilton,Private,1104,fennell avenue east,Hamilton,ON,L8T1R9
a8e281be9f666bd8ee4c,Immigrants Working Centre - IWC Academy,Private,8,main street east,Hamilton,ON,L8N1E8
afbd36e1b94f944614ea,Dundana Public School,Public,23,dundana avenue,Dundas,ON,L9H4E5
b16d8c0c5d663cf89189,Anderson College of Health- Business & Technology,Private Institution,31,king st e,Hamilton- ON,ON,L8N1A1
b31c457c6010285a61f8,Hill Park System Alternative Education,Public,100,james street,Hamilton,ON,L8P2Z2
b385e4258b82f2468457,Janet Lee Public School,Public,291,winterberry drive,Stoney Creek,ON,L8J2N5
b5374cd4491cf9fd4abc,Corpus Christi Catholic Elementary School,Catholic,25,alderson dr,Hamilton,ON,L9B1G3
b59f2b7677f5cff35f26,Rebecca Street Alternative Education Secondary School,Public,225,king william street,Hamilton,ON,L8R1B1
b5a8bc4bfde3e0cd2a4e,Lynden School,Private,95,howard street,LYNDEN,ON,L0R1T0
b5c92e98ac3b8fe6fbe3,Glenwood School School,Public,150,lower horning road,Hamilton,ON,L8S4P2
b7d1ad935b3f45cb2219,Providence Christian School,Private,542,ofield road,Dundas,ON,L9H5E2
b9cdc7157e84640cefe7,St. Ann (Hamilton) Catholic Elementary School,Catholic,15,st ann street,Hamilton,ON,L8L0B8
ba31853bb1235f489700,Westwood Junior Public School,Public,9,lynbrook drive,Hamilton,ON,L9C2K6
bb0a4b9dae0f1b02b043,ÉIC Mère-Teresa,Catholic,50,lisgar drive,Hamilton,ON,L8T4Y4
bb0e9b27f9ee522c9750,Saltfleet High School,Public,108,highland road west,Stoney Creek,ON,L8J2T2
bea34ee28f14c475546b,Bishop Tonnos Catholic Secondary School,Catholic,100,panabaker dr,Ancaster,ON,L9G5E3
bedd2d6e8c549e6b30ff,Hamilton Academy of Performing Arts,Private,108,park st west,DUNDAS,ON,L9H1X4
bfc93521732ef40752b6,St. Martin of Tours Catholic Elementary School,Catholic,60,grays rd,Stoney Creek,ON,L8G2X5
c16a05ee29d7a2a4aa98,St. Gabriel Catholic Elementary School,Catholic,1361,barton street east,Stoney Creek,ON,L8E5L1
c34e47681bb5218b3b1d,St. David Catholic Elementary School,Catholic,33,cromwell cres,Hamilton,ON,L8G2E9
c4082d645b23b35946f1,St. Marguerite d'Youville Catholic Elementary School,Catholic,20,bonaparte way,Hamilton,ON,L9B2E3
c450456ca3ae6fbe7155,St. Teresa of Calcutta Catholic Elementary School,Catholic,1,rexford dr,Hamilton,ON,L8W3E8
c53b79f23bf2a860438a,Mother Earth's Learning Village,Private,,,Hamilton,ON,L8K5N2
c5f0a043dbdd1092b878,Immaculate Heart of Mary Catholic Elementary School,Catholic,190,glover road,Stoney Creek,ON,L8E5H7
c90bb62149a2ff10525b,St. Francis Xavier Catholic Elementary School,Catholic,298,8 hwy,Stoney Creek,ON,L8G1E6
c9914fc0b76f0639fd12,Gordon Price School,Public,11,guildwood drive,Hamilton,ON,L9C7K2
ca36940f0459f61dd058,Turning Point Alternative Education School,Public,135,avenue,Hamilton,ON,L9C0E5
cafe4f5e074782ebf3b5,Central Junior Public School,Public,75,hunter street west,Hamilton,ON,L8P1P9
cba36c7871ff2874bd19,Holy Name of Mary Catholic Elementary School,Catholic,161,meadowlands blvd,Ancaster,ON,L9K1H8
cee563bb86db20419011,Viscount Montgomery Public School,Public,1525,lucerne avenue,Hamilton,ON,L8K1R3
d00354f1a87492097d4b,St. Teresa of Avila Catholic Elementary School,Catholic,171,san remo dr,Hamilton,ON,L9C6P8
d0c375696b52d40ade37,Cecil B Stirling School,Public,340,queen victoria drive,Hamilton,ON,L8W1T9
d35e2720d2ec73d0dcc0,Billy Green Elementary School,Public,1105,paramount drive,Stoney Creek,ON,L8J1W2
d3966b2b1e93d8f0ee50,Pauline Johnson Public School,Public,25,hummingbird lane,Hamilton,ON,L9A4B1
d4e37d05e0d84e6362a0,Cathedral High School,Catholic,30,wentworth st n,Hamilton,ON,L8L8H5
d5bfad0678084a645cab,Frank Panabaker South Senior Public School,Public,295,nakoma road,Ancaster,ON,L9G1T2
d5e104a0882a21b50e1c,Glen Echo Junior Public School,Public,140,glen echo drive,Hamilton,ON,L8K4J1
d68ee7793432feaf5d70,R A Riddell Public School,Public,200,cranbrook drive,Hamilton,ON,L9C4S9
d7ffb547dab6411275f6,St. Bernadette Catholic Elementary School,Catholic,270,governor's rd,Dundas,ON,L9H5E3
d8214b5d3bcccd3f1b70,St. Matthew Catholic Elementary School,Catholic,200,windwood dr,Binbrook,ON,L0R1C0
dba6a037cce86d7ab5dd,Sherwood Secondary School,Public,25,high street,Hamilton,ON,L8T3Z4
dc53731d3cb47e06ee57,Ridgemount Junior Public School,Public,65,hester street,Hamilton,ON,L9A2N3
dc68126295b51ffcf320,St. Mary Catholic Secondary School,Catholic,200,whitney ave,Hamilton,ON,L8S2G7
dcaef78c2611dd296e33,McMaster Divinity College,Private Institution,1280,main st w,Hamilton,ON,L8S4K1
decae5235d5fd7540923,Highview Public School,Public,1040,queensdale avenue east,Hamilton,ON,L8T1J4
df1a83f216bdc4882854,Christadelphian Heritage College,Private,522,book road east,Ancaster,ON,L9G3L1
df35f67b81df4d157969,Frank Panabaker North School,Public,168,huron avenue,Ancaster,ON,L9G1V7
