Index,Facility_Name,Facility_Type,Street_No,Street_Name,City,Prov_Terr,Postal_Code
6f5111a78a25573e475d,Summit College - Hamilton,Private,1119,fennell avenue east,Hamilton,ON,L8T1S2
6f731806d984cec4dd45,Mountview Junior Public School,Public,59,karen crescent,Hamilton,ON,L9C5M5
6fc6fa0d5875f0b3f887,Guido de Bres Christian High School,Private,420,crerar drive,Hamilton,ON,L9A5K3
70409049ebc30cee139b,Glendale Secondary School,Public,145,rainbow drive,Hamilton,ON,L8K4G1
7415fa861772f46efba7,Winona Elementary Elementary School,Public,301,lewis road,Stoney Creek,ON,L8E5H1
755a53d8f75967334885,St. Margaret Mary Catholic Elementary School,Catholic,25,brentwood dr,Hamilton,ON,L8T3V9
75ee9e99713bb2c00dd2,Islamic School of Hamilton,Private,1545,stone church rd e,Hamilton,ON,L8W3P8
77646db30637defcfef2,Sacred Heart of Jesus Catholic Elementary School,Catholic,5,hamilton ave,Hamilton,ON,L8V2S3
7781d427c37452801fa6,Hess Street Junior Public School,Public,107,hess street north,Hamilton,ON,L8R2T1
78ee8044669268c97889,Oak Hill Academy,Private,557,garner road west,Ancaster,ON,L9G3K9
7a2389bdf3fd1c83f9c7,Dundas Valley Montessori School,Private,14,kemp drive,Dundas,ON,L9H2M9
7d35b7c61c4e1a9f5868,Bernie Custis Secondary School Secondary School,Public,1055,king street,Hamilton,ON,L8M1E2
7eea8506bd916ff1194c,Strathcona Junior Public School,Public,10,lamoreaux street,Hamilton,ON,L8R1V1
7f2fa49b7a097e1f6141,Franklin Road Elementary Public School,Public,500,franklin road,Hamilton,ON,L8V2A4
809449ab365cd52a9fac,Rockton Beverly Central Public School,Public,1346,4th concession road west,Troy,ON,L0R2B0
81710c132794a01e4003,St. Kateri Tekakwitha Catholic Elementary School,Catholic,22,queensbury dr,Hamilton,ON,L8W1Z6
82e99a3700e2f2d82445,Westdale Secondary School,Public,700,main street west,Hamilton,ON,L8S1A5
84a25132e49bc9e785aa,Tapply Binet College,Private,245,garner rd w,Ancaster,ON,L9G3K9
85327115b48da00861f7,Columbia International College of Canada,Private,1003,main st w,Hamilton,ON,L8S4P3
8630979c6fab5b4b571f,Literacy and Mathematics Academy,Private,1,king street west,Stoney Creek,ON,L8G1G7
871a9daa0604bd21466f,Rockton School,Public,670,highway 8,"Rockton, Ontario",ON,L0R1X0
8766b2f3e993f6731f63,St. John Paul II Catholic Elementary School,Catholic,600,acadia dr,Hamilton,ON,L8W3A5
88b7f9cb30d5d6bba595,Chedoke Middle School,Public,500,bendamere avenue,Hamilton,ON,L9C1R3
88ccc7733847ec4b910b,Queensdale School,Public,67,queensdale avenue east,Hamilton,ON,L9A1K4
89be607b52c47fa6dbfb,Blessed Sacrament Catholic Elementary School,Catholic,315,east 37th st,Hamilton,ON,L8V4B5
8d73fd4054e67cb9a2fc,St. John the Baptist Catholic Elementary School,Catholic,115,london st s,Hamilton,ON,L8K2G6
8de84ac2f0b3d6d6a1ca,ÉÉC Notre-Dame,Catholic,400,cumberland avenue,Hamilton,ON,L8M2A2
904fdf06fe9c0e244867,Earl Kitchener Junior Public School,Public,300,dundurn street south,Hamilton,ON,L8P4L3
9137f5ba1f2cd5b59e68,Bennetto Elementary School,Public,47,simcoe street east,Hamilton,ON,L8L3N2
94c6741657e425a8936d,Buchanan Park School,Public,30,laurier avenue,Hamilton,ON,L9C3R9
95677fc83adc35013eeb,St. Paul Catholic Elementary School,Catholic,24,amberwood st,Stoney Creek,ON,L8J2H9
9635dc9833288f218da0,Balaclava Public School,Public,280,10th concession east,Freelton,ON,L8B1H6
98e0529e86bc16e3c127,Covenant Canadian Reformed Teachers' College,Private Institution,410,crerar dr,Hamilton,ON,L9A5K3
991fcff379c0cfa796e1,Templemead Elementary School,Public,62,templemead drive,Hamilton,ON,L8W3Z7
994662a07b2e1d48a43f,Allan A Greenleaf,Public,211,parkside drive,Waterdown,ON,L0R2H1
9bc6e9b2157304e3819a,Spring Valley Public School,Public,1886,governor's road,Copetown,ON,L0R1J0
9bcfff86fca02acf7141,Queen Victoria Elementary Public School,Public,166,forest avenue,Hamilton,ON,L8N0A5
9c4a2db4359c2b17a902,St. Ann (Ancaster) Catholic Elementary School,Catholic,24,fiddler's green rd,Ancaster,ON,L9G1W1
9d28aadc8d01409100a0,St. Michael Catholic Elementary School,Catholic,135,hester st,Hamilton,ON,L9A2N9
9e5dc6472ada6c00ed15,Eastdale Public School,Public,99,lincoln road,Stoney Creek,ON,L8E1Z4
9fe8d45090c8ef099ef6,Sir Winston Churchill Secondary School,Public,1715,main street east,Hamilton,ON,L8H1E3
9fedcfc81fd4a4b06823,Norwood Park Elementary School,Public,165,terrace drive,Hamilton,ON,L9A2Z2
a04978bd394b85ca7ae8,Metropolitan College,Private,146,james street south,Hamilton,ON,L8P3A2
a0a4e1106893a9b40163,Dr. J. Edgar Davey (New) Elementary Public School,Public,99,ferguson ave,Hamilton,ON,L8R1L6
a0b2245717ecb3e44b3c,R L Hyslop Elementary School,Public,20,lake avenue south,Stoney Creek,ON,L8G1P3
a14163958d4240a513e9,Our Lady of the Assumption Catholic Elementary School,Catholic,103,fletcher road,Hannon,ON,L0R1P0
a259d9c77b72b561e8ac,Cootes Paradise Public School,Public,900,king street west,Hamilton,ON,L8S1K6
a2f6e3c97878344c3438,St. Eugene Catholic Elementary School,Catholic,120,parkdale ave s,Hamilton,ON,L8K3P3
a4965fe06d9951edc372,Adelaide Hoodless Public School,Public,71,maplewood avenue,Hamilton,ON,L8M1W7
