Index,Facility_Name,Facility_Type,Street_No,Street_Name,City,Prov_Terr,Postal_Code
3579b6d66badcd36bbcb,Westview Middle School,Public,60,rolston drive,Hamilton,ON,L9C3X7
37268653f878d177df7f,St. John Henry Newman Catholic Secondary School,Catholic,127,gray rd,Stoney Creek,ON,L8G3V3
37a7eb9c5dbdc003b8c1,Annunciation of Our Lord Catholic Elementary School,Catholic,250,limeridge road west,Hamilton,ON,L9C2V2
3afe8d93a2c13408b559,Yorkview School,Public,86,cameron avenue,Dundas,ON,L9H1P8
3b5561a19cee5f225f7c,St. Patrick Catholic Elementary School,Catholic,20,east ave s,Hamilton,ON,L8N3X1
3c2ad76f9d9a19218247,Dalewood Senior Public School,Public,1150,main street west,Hamilton,ON,L8S1C2
3c440cf512c9bba7bfa5,Spencer Valley Public School,Public,441,old brock road,Greensville,ON,L9H6A7
3c9e0890601373f3250e,École élémentaire Pavillon de la jeunesse,Public,105,,Hamilton,ON,L8T3Z4
3cb9c97bbe1be4279b65,Ray Lewis (Elementary) School,Public,27,jessica street,Hamilton,ON,L8W4A1
3f84950653f4de88c092,Sir Isaac Brock Junior Public School,Public,130,greenford drive,Hamilton,ON,L8G2G8
403060ba9b140b250f13,Huntington Park Junior Public School,Public,80,kingslea drive,Hamilton,ON,L8T4A5
4037a521ce5cb79814b4,St. Mark Catholic Elementary School,Catholic,43,whitedeer rd,Stoney Creek,ON,L8J3T1
4050bcfae9ef880d156c,ÉÉC Monseigneur-de-Laval,Catholic,135,bendamere avenue,Hamilton,ON,L9C1N4
40cbd061444b952f14a3,Westmount Secondary School,Public,39,montcalm drive,Hamilton,ON,L9C4B1
41f53a44149865744cff,Academy of Learning (Hamilton),Private Institution,401,main street east,Hamilton,ON,L8N1J7
42859a508fbf62d8fe25,Our Lady of Peace Catholic Elementary School,Catholic,252,dewitt rd,Stoney Creek,ON,L8E2R1
437c8ef795422d46482a,Bronston Canadian Academy,Private,2,webber avenue,Hamilton,ON,L8N1W3
45a62a45f167576e51d2,St. Clare of Assisi Catholic Elementary School,Catholic,185,glenashton dr,Stoney Creek,ON,L8G4E7
466772eaa567ae5106ad,St. Thomas Catholic Elementary School,Catholic,170,skinner road,Waterdown,ON,L0R2H7
47f4cb54c0ef2f145c06,Redeemer University,Private Institution,777,garner road east,Ancaster,ON,L9K1J4
4a12b6b6e1361d2c7999,George L Armstrong Public School,Public,460,concession street,Hamilton,ON,L9A1C3
4a14f3d1eb6ae7d06abb,Kehila Jewish Community Day School,Private,215,cline ave n,Hamilton,ON,L8S4A1
4b606b5cf2a10ff5d63b,Millgrove Public School,Public,375,5th concession,Millgrove,ON,L0R1V0
4bf9f2aae2672e68e472,Ancaster Meadow Elementary Public School,Public,93,kitty murray lane,Ancaster,ON,L9K1S3
4c2b64f66385eebcf33c,Lake Avenue Public School,Public,157,lake avenue north,Stoney Creek,ON,L8E1L5
4c7d01c12d692ae66472,Guardian Angels Catholic Elementary School,Catholic,705,centre rd rr2,Hamilton,ON,L8N2Z7
4ce1025fdaee83f81f7c,James MacDonald Public School,Public,200,chester avenue,Hamilton,ON,L9C2X1
4e47eefea5dacb6d4fa9,Glen Brae Middle School,Public,50,secord drive,Hamilton,ON,L8K3W7
4ed64cc6a72cc89187c7,Memorial Public School,Public,211,memorial avenue,Stoney Creek,ON,L8G3B2
4f1d3f3d0e9744aa4760,Mohawk College of Applied Arts And Technology,Technical and Vocational,135,fennell ave west,Hamilton,ON,L9C0E5
50ed98026ba45c9f4a6b,Mcmaster University,University,1280,main street west gilmore hall-c/o cashier's off,Hamilton,ON,L8S4L8
51b4be357080ef5a81cb,Memorial (City) School,Public,1175,main street east,Hamilton,ON,L8M1P3
5278f705e77318492754,Mary Hopkins Public School,Public,211,mill street north,Waterdown,ON,L0R2H0
5838a153915ff4878cc9,Rockton Dr John Seaton Senior Public School,Public,1279,seaton road,Sheffield,ON,L0R1Z0
587d616db0bb7b3de51a,Our Lady of Hope Catholic Elementary School,Catholic,400,pumpkin pass,Binbrook,ON,L0R1C0
58a421918b9355a23ec9,Queen Mary Public School,Public,1292,cannon street east,Hamilton,ON,L8H1V6
58e19cd379d7583b3d56,Lee Academy Private Elementary School,Private,1978,2nd concession w rr 1,Lynden,ON,L0R1T0
5a47f86392e2696324fe,St. Augustine Catholic Elementary School,Catholic,25,alma st,Dundas,ON,L9H2C9
5ae18cba24891e003765,Sir William Osler Elementary School,Public,330,governor's road,Dundas,ON,L9H5P8
5ba712f8c255ec507ccb,Grand Health Academy,Private Institution,760,king street east,Hamilton,ON,L8M1A6
5c9f3ed8aea7af8b12e8,Canadian International Learning,Private,289,crerar drive,Hamilton,ON,L9A5B7
5e43b5992261ed08ee33,Hamilton Downtown Islamic School,Private,221,york boulevard,Hamilton,ON,L8R1Y6
601e471388b57a728e70,St. Thérèse of Lisieux Catholic Elementary School,Catholic,1760,garth street,Hamilton,ON,L9B2X5
64e8c3c04b9f6aae2c19,Nora Henderson Secondary School,Public,75,palmer road,Hamilton,ON,L8T3G1
669d20aa8c61548f8e0d,St. Jean de Brebeuf Catholic Secondary School,Catholic,200,acadia dr,Hamilton,ON,L8W1B8
67254d9880f4f90bbca0,St. Joachim Catholic Elementary School,Catholic,75,concerto crt,Ancaster,ON,L9G4V6
68747cc7548f23988384,Holy Name of Jesus Catholic Elementary School,Catholic,181,belmont ave,Hamilton,ON,L8L7M5
6acf47abd6922199914e,Hamilton District Christian Private Scho,Private,92,glancaster rd,Ancaster,ON,L9G3K9
6b29f5a81c27f5ed6363,Rousseau Public School,Public,103,mcniven road,Ancaster,ON,L9G3T7
