Index,Facility_Name,Facility_Type,Street_No,Street_Name,City,Prov_Terr,Postal_Code
032ed6efcef87db1d26b,Living Hope Christian School,Private,1045,garth st,Hamilton,ON,L9C4L5
0437f3feeba3773a1111,Hillfield Strathallan College,Private,299,fennell ave w,Hamilton,ON,L9C1G3
0a2500901e1665f01c0a,James Street Alternative Education,Public,100,james street,Hamilton,ON,L8P2Z2
0b00e185ad60afb6ac22,École élémentaire Michaëlle Jean Elementary School,Public,,,Hamilton,ON,L0R1C0
0b47fc06b33d5c523929,OnCourse Education,Private,775,upper wentworth street,Hamilton,ON,L9A4V7
0c9b78e3465bdc7a3668,St. Luke Catholic Elementary School,Catholic,345,albright rd,Hamilton,ON,L8K6N3
0d21d41ae941a50a9160,Helen Detwiler Junior Elementary School,Public,320,brigade drive,Hamilton,ON,L9B2E3
0db745898095740ab071,St. Anthony Daniel Catholic Elementary School,Catholic,75,anson ave,Hamilton,ON,L8T2X5
0ec5211f1e1e97f8ec74,Dundas Central Public School,Public,73,melville street,Dundas,ON,L9H2A2
0f6b2f6fe459e6d30d09,Ancaster High School,Public,374,jerseyville road west,Ancaster,ON,L9G3K8
0f7da2226a30c595509e,Our Lady of Lourdes Catholic Elementary School,Catholic,420,mohawk rd e,Hamilton,ON,L8V2H7
10aa839e699fb617c671,Tiffany Hills Elementary Public School,Public,255,raymond road,Ancaster,ON,L9K0H5
13226b75608807948d8d,Canadian Martyrs Catholic Elementary School,Catholic,1355,main st w,Hamilton,ON,L8S4M7
13b46020689e6ff45a87,ÉSAC Mère-Teresa,Catholic,50,lisgar cour,Hamilton,ON,L8T4Y4
14f1aadf14b6ce59953a,Gatestone Elementary Public School,Public,127,gatestone drive,Stoney Creek,ON,L8J3Z5
1506151d49774390caa4,Mount Albion Public School,Public,24,kennard street,Stoney Creek,ON,L8J2E5
160720d395fedfb54249,Prince of Wales Elementary Public School,Public,77,melrose avenue north,Hamilton,ON,L8L6X4
164b478d1fae95f85cb1,Waterdown District High School,Public,215,parkside drive,Waterdown,ON,L8B1B9
16a8d448f7bb5ae1f2aa,École élémentaire Georges-P-Vanier,Public,100,macklin n rue,Hamilton,ON,L8S3S1
1703a3d84d8ac9c9cf3d,Richard Beasley Junior Public School,Public,80,currie street,Hamilton,ON,L8T3M9
19df653015b22902f864,Mountain View Public School,Public,299,barton street,Stoney Creek,ON,L8E2K7
1a603d4dd4320815558c,Sir Wilfrid Laurier Public School,Public,70,albright road,Hamilton,ON,L9H0A3
1ab9a27419545b6de3e6,Our Lady of Mount Carmel Catholic Elementary School,Catholic,1624,centre rd,Carlisle,ON,L0R1H0
1b868004dc8fe14635f0,Southern Ontario Collegiate,Private,28,rebecca street,Hamilton,ON,L8R1B4
1c2f33c732190ee8b873,Sir Allan MacNab Secondary School,Public,145,magnolia drive,Hamilton,ON,L9C5P4
1c6ad9c0f46cd1adaa0e,Mount Hope Public School,Public,9149,airport road,Mount Hope,ON,L0R1W0
1dfdd151b164eaf939cc,Regina Mundi Catholic Elementary School,Catholic,675,mohawk rd w,Hamilton,ON,L9C1X7
1e8bb30d49c4e0c6babc,Bridge International School,Private,1025,king street east,Hamilton,ON,L8M1C9
2028d82a346ee5517144,St. Charles Catholic Adult Secondary School,Catholic,150,east 5th,Hamilton,ON,L9A2Z8
2239800d781d3eab0ebd,Dundas Valley Secondary School,Public,310,governor's road,Dundas,ON,L9H5P8
2433a8d305186d90abfa,Tapleytown Public School,Public,390,mud street,Stoney Creek,ON,L8J3C6
251eaf5dbacacdc31cde,Cathy Wever Elementary Public School,Public,160,wentworth street north,Hamilton,ON,L8L5V7
272fe54af2eda8c200e2,Hillcrest Elementary Public School,Public,40,eastwood street,Hamilton,ON,L8H6R7
289707de1ad77d08d3aa,Gateway Alternative Education,Public,465,east 16th street,Hamilton,ON,L9A4K6
291227c97a879a6cac9b,St. Joseph Catholic Elementary School,Catholic,270,locke st s,Hamilton,ON,L8P4C1
2a1d6a37974c06a36340,Bellmoore Public School,Public,35,pumpkin pass,Binbrook,ON,L0R1C0
2a87afc600b87a8db15e,Parkdale School,Public,139,parkdale avenue north,Hamilton,ON,L8H5X3
2d6419d6465055f7cb7e,Lincoln Alexander Public School,Public,50,ravenbury drive,Hamilton,ON,L8W2B5
2dfa1853123bc564ca74,A M Cunningham Junior Public School,Public,100,wexford avenue south,Hamilton,ON,L8K2N8
2f4cf2b82fb3121f705c,New Greensville School,Public,625,harvest road,Dundas,ON,L9H5K8
303653f3a2506cc1f76d,Calvin Christian School,Private,547,west 5th street,Hamilton,ON,L9C3P7
30edaa62e7599505180a,W H Ballard Public School,Public,801,dunsmure road,Hamilton,ON,L8H1H9
318b3987845e4d6026cc,CDI College of Business- Technology and Healthcare-Hamilton,Private Institution,14,& 20 houghson street south,Hamilton,ON,L8N4H3
3208a25cc16cc0ac39ec,Trios Career Business- Technology & Healthcare Inc.,Private Institution,,hughson street south,Hamilton,ON,L8N3Z1
334264dae0a56d403a38,Grand Health Academy,Private Institution,574,concession st,Hamilton,ON,L8V1B1
33c09e7bd488d8a821f7,Shannen Koostachin Elementary School Elementary Public School,Public,110,bellagio avenue,Hamilton,ON,L0R1P0
34136eb3bd8d24ffddcd,Holbrook Junior Public School,Public,450,sanatorium road,Hamilton,ON,L9C2B1
342ecc38b54d41421380,Lyonsgate Montessori School,Private,248,locke street south,Hamilton,ON,L8P4B9
3507a7e12a490f3b7782,Orchard Park Secondary School,Public,200,dewitt road,Stoney Creek,ON,L8E4M5
