Index,Facility_Name,Facility_Type,Street_No,Street_Name,City,Prov_Terr,Postal_Code
e2107824cf066b2b2267,Ryerson Middle School,Public,222,robinson street,Hamilton,ON,L8P1Z9
e30d1703b10239026bbf,Lisgar Junior Public School,Public,110,anson avenue,Hamilton,ON,L8T2X6
e4a349f3f36f6d0e3bf2,Nora Henderson,Public,620,rymal road,Hamilton,ON,L8W1B3
e4d3cb0da6b1aea3ae25,Ã‰cole secondaire Georges-P-Vanier,Public,100,macklin n rue hamilton ontario l8s3s1,Hamilton,ON,L8S3S1
e8c29163c8470bd0cda0,Southern Ontario Dental College,Private Institution,201,wilson street east,Ancaster,ON,L9G2B2
e99e99c53d988147c61a,St. Thomas More Catholic Secondary School,Catholic,1045,upper paradise rd,Hamilton,ON,L9B2N4
ea970ec5f78263e0ba7d,Green Acres School,Public,45,randall avenue,Stoney Creek,ON,L8G2K8
eb482eb083b91a2cd058,St. Lawrence Catholic Elementary School,Catholic,88,macaulay street east,Hamilton,ON,L8L3X3
ee2c60b28b2dde6e5a0a,St. Vincent de Paul Catholic Elementary School,Catholic,295,greencedar dr,Hamilton,ON,L9C7M9
f30b91fb868b76131146,Flamborough Centre School,Public,922,centre road r. r. #2,Hamilton,ON,L8N2Z7
f5126a521cc6058f6852,Canada eSchool,Private,1033,main street west,Hamilton,ON,L8S1B7
f53dc7e7a436c2b0af0c,Guy B Brown Elementary Public School,Public,55,braeheid avenue,Waterdown,ON,L8B0C5
f5c6e6e97dc2fa53ecca,Hamilton Hebrew High,Private,60,dow ave,HAMILTON,ON,L8S1W3
f6c0cc7d553032fa4ac0,Bishop Ryan Catholic Secondary School,Catholic,1824,rymal road east,Hannon,ON,L0R1P0
f7b20738a6dc3c7e7761,Lawfield Elementary School,Public,45,berko avenue,Hamilton,ON,L8V2R3
f7c192577118dd3bbd5c,Immaculate Conception Catholic Elementary School,Catholic,470,kitty murray lane,Ancaster,ON,L9K0C3
f85fb1cce298e5d89800,Ontario College of Health & Technology,Private Institution,1040,south service rd,Stoney Creek,ON,L8E6G3
f8fc196bf2409eebd5c4,Rosedale Elementary School,Public,25,erindale avenue,Hamilton,ON,L8K4R2
f969b535a96fc65054ce,Sts. Peter and Paul Catholic Elementary School,Catholic,49,fennell ave e,Hamilton,ON,L9A1R5
feb6c6362c67be344967,Elizabeth Bagshaw School,Public,350,albright road,Hamilton,ON,L8K5J4
