Index,Facility_Name,Facility_Type,Street_No,Street_Name,City,Prov_Terr,Postal_Code
00e5bf7e2072e0fd3e38,Lockview Public School,Public,505,bunting rd,St Catharines,ON,L2M3A9
041d6b3a4ebcb315a48b,Applewood Public School,Public,130,woodrow st,St Catharines,ON,L2P3T7
05d64a01a377163a9243,Canada Prep Academy,Private,10,seymour avenue,St. Catherines,ON,L2P1A4
05fcc1a993feb86c94ae,Beacon Christian Elementary School,Private,300,scott st,St Catharines,ON,L2N1J3
0673cda3b937b6f33896,Royal Imperial Collegiate of Canada,Private,10,seymour ave,St. Catharines,ON,L2P1A4
08c6f251252d068b6338,Niagara Falls Collegiate Institute,Private,2,o'malley drive,St. Catharines,ON,L2N6N7
0a033800d5a07e661967,Denis Morris Catholic High School,Catholic,40,glen morris dr,St Catharines,ON,L2T2M9
26b10bc21d43408df7bc,Calvary Christian School,Private,310,scott st,St Catharines,ON,L2N1J5
2c1049f6db28a08d052c,ÉÉC Sainte-Marguerite-Bourgeoys-St.Cath,Catholic,12,burleigh hill promenade,St Catharines,ON,L2T2V5
2d5c577ba662790b4175,Our Lady of Fatima Catholic Elementary School,Catholic,439,vine st,St Catharines,ON,L2M3S6
302ee22b262399afe565,Grapeview Public School,Public,106,first st louth,St Catharines,ON,L2R6P9
30da1ec59dfd91007818,St James Catholic Elementary School,Catholic,615,geneva st,St Catharines,ON,L2N2J3
314a903d7763b47545cd,DSBN Academy,Public,130,louth street,St. Catharines,ON,L2S2T4
33d59c5a1a49f410dd18,École élémentaire L'Héritage,Public,35,prince charles promenade,St. Catharines,ON,L2N3Y8
354fd05c6bac8a9f4b6c,MAC Niagara Islamic School,Private,140,haig street,St. Catharines,ON,L2R6L3
3e7e403eb1090d31b0b8,Gracefield Public School,Public,117,bayview dr,St Catharines,ON,L2N4Z7
3e86b014117954c1e3da,Agate Private School,Private,43,chaplin ave,St. Catharines,ON,L2R2E4
45443519e0ee1e497afb,Terra Viva Montessori Bilingual,Private,85,lakeshore road,St. Catherines,ON,L2N2T6
4643a67b3a5c7c59bebc,Harriet Tubman Public School,Public,84,henry street,St. Catharines,ON,L2R5V4
46702c09faec90f26e8a,Summit College - St. Catharines,Private,20,hartzel road,St. Catharines,ON,L2P1M3
50c42e12b70432cb8ea4,St Peter Catholic Elementary School,Catholic,7,aberdeen circle,St Catharines,ON,L2T2B7
5859eba34830667041e5,Sir Winston Churchill Secondary School,Public,101,glen morris dr,St Catharines,ON,L2T2N1
587859b091ded8011748,Governor Simcoe Secondary School,Public,15,glenview ave,St Catharines,ON,L2N2Z7
5a1c33c67b52bcef8560,Laura Secord Secondary School,Public,349,niagara st,St Catharines,ON,L2M4V9
5b535e7e082317efb405,Assumption Catholic Elementary School,Catholic,225,parnell rd,St Catharines,ON,L2M1W3
5ee1f9b4f25d033f4cdb,St Catharines Collegiate Institute and Vocational School,Public,34,catherine st,St Catharines,ON,L2R5E7
5f9bfe921c195bfb1e0d,Lifetime Learning Centre Secondary School,Public,535,lake st,St Catharines,ON,L2N4H7
6ba6555168a661a83def,Cappa School of Professional Hairstyling & Aesthetics,Private Institution,56,st. paul st. w,St. Catharines,ON,L5S2C2
6e7becb56601e5c00777,St Alfred Catholic Elementary School,Catholic,280,vine st,St Catharines,ON,L2M4T3
72ccb1fc790e29f36c75,Ferndale Public School,Public,35,ferndale ave,St Catharines,ON,L2P1V8
745251c6a39f807fa6ea,Pine Grove Public School,Public,690,lake st,St Catharines,ON,L2N4J5
7787ae542b027065c168,Westdale Public School,Public,130,rykert st,St Catharines,ON,L2S2B4
7d65817c6b9cb947a789,Trillium College Inc.-St Catharines,Private Institution,60,james st.,St. Catherines,ON,L2R7E7
894e83a7db7594ac96aa,Connaught Public School,Public,28,prince st,St Catharines,ON,L2R3X7
8a62c4c18bbe349dd58d,Wheatley School of Montessori Education,Private,497,scott street,St Catharines,ON,L2M3X3
8ba03854e28a54e7c04e,ÉÉC Immaculée-Conception,Catholic,153,church rue,St Catharines,ON,L2R3E2
96bcb2bff274f537074d,Saint Francis Catholic Secondary School,Catholic,541,lake st,St Catharines,ON,L2N4H7
999ecc9bb42e6307762b,Woodland Public School,Public,1511,7th st louth,St Catharines,ON,L2R6P9
9e8101d1f6b169f182b0,Parnall Public School,Public,507,geneva st,St Catharines,ON,L2N2H7
aba8ae4a8a6887d8c4e4,St Christopher Catholic Elementary School,Catholic,33,woodrow ave,St Catharines,ON,L2P2A1
b12a7fc249864b3e97e6,Niagara Peninsula Children's Centre School,Hospital,567,glenridge ave,St Catharines,ON,L2T4C2
b26da8ca5db4adc1c206,Holy Cross Catholic Secondary School,Catholic,460,linwell rd,St Catharines,ON,L2M2P9
b2729435e6581ad986ad,DSBN Academy,Public,130,louth street,St. Catharines,ON,L2S2T4
b48be0eb6d4cea61fb51,Jeanne Sauve Public School,Public,91,bunting road,St. Catharines,ON,L2P3G8
b6a3c72522778be6f4a4,Brock Academy,Private,92,main street,St. Catharines,ON,L2N4V2
b7c8c45afbcaacae90b8,Canadian Martyrs Catholic Elementary School,Catholic,502,scott st,St Catharines,ON,L2M3X2
b948460ecd2f1bcc47d9,Ridley College,Private,#2,ridley road,St Catharines,ON,L2R7C3
b9cc98459ebc318919d3,Dalewood Public School,Public,61,duncan dr,St Catharines,ON,L2N3P3
ba17acd7b8c990111668,William Hamilton Merritt Public School,Public,114,linwell rd,St Catharines,ON,L2N6N8
