Index,Facility_Name,Facility_Type,Street_No,Street_Name,City,Prov_Terr,Postal_Code
077146f8c6735f0498f8,Eastdale Secondary School,Public,170,wellington st,Welland,ON,L3B1B3
0c5ceae17005795dafe4,St Kevin Catholic Elementary School,Catholic,182,aqueduct st,Welland,ON,L3C1C4
176a410d83447bd80a7c,Pope Francis Catholic Secondary School,Catholic,8,merritt island,Welland,ON,L3B3E9
190b472578b0bffdec9d,Plymouth Public School,Public,111,first st,Welland,ON,L3B4S1
26c69f04eba4d6b1f045,École élémentaire Nouvel Horizon,Public,621,quaker chemin welland ontario l3c3h1,Welland,ON,L3C3H1
3166819f96b5f9b3e9a9,École secondaire Franco-Niagara,Public,670,tanguay avenue,Welland,ON,L3B4G2
3d1235fd9f39ae3efb44,Diamond Trail Public School,Public,315,southworth street,Welland,ON,L3B1Z8
3d6c6fbee78e2a7df3bf,St Augustine Catholic Elementary School,Catholic,300,santone ave,Welland,ON,L3C2J8
4c33a0ccf3d1bc20d253,Holy Name Catholic Elementary School,Catholic,290,fitch st,Welland,ON,L3C4W5
4fb033622a34a4d5e0df,Welland Centennial Secondary School,Public,240,thorold rd,Welland,ON,L3C3W2
533dfa6e13e2f8d64cc1,Glendale Public School,Public,24,farnham ave,Welland,ON,L3C3R1
67950e4ce29bf3047d80,Fitch Street Public School,Public,164,fitch st,Welland,ON,L3C4V5
6aaded22329a722f2559,St Andrew Catholic Elementary School,Catholic,16,st andrews ave,Welland,ON,L3B1E1
8337c4898e1cba6d392a,Niagara College - Timmins,Technical and Vocational,300,woodlawn road,Welland,ON,L3C7L3
86d9b5426e5fb5b8969d,ÉIC Saint-Jean-de-Brébeuf,Catholic,620,river,Welland,ON,L3B5N6
878eb6e2c7f883ee0bbf,Pope Francis Catholic Elementary School,Catholic,8,merritt island,Welland,ON,L3B3E9
8a7ce21a5669af09bd95,ÉÉC Saint-François-d'Assise,Catholic,58,empress avenue,Welland,ON,L3B1K9
8c74bb8063dcf28b627f,Gordon Public School,Public,468,thorold rd w,Welland,ON,L3C3W6
990a796f54c5bf2f714f,Welland Christian Academy,Private,109,chaffey street,Welland,ON,L3B2Y6
a2a6eddf301a1c6fc531,ÉÉC du Sacré-Coeur-Welland,Catholic,310,fitch rue welland ontario l3c4w5,Welland,ON,L3C4W5
a45134799bd8f360f9ae,École intermédiaire Franco-Niagara,Public,670,tanguay av,Welland,ON,L3B4G2
b37b8bb6d77d771af58c,St Mary Catholic Elementary School,Catholic,120,plymouth rd,Welland,ON,L3B3C7
c7d42da1969afeeca6b0,Princess Elizabeth Public School,Public,330,scholfield ave s,Welland,ON,L3B1P2
c832fd5d498e1a5bd3f9,Quaker Road Public School,Public,333,quaker rd,Welland,ON,L3C3G7
cdce0f17acf1e6c025a6,ÉSC Saint-Jean-de-Brébeuf,Catholic,620,river chemin,Welland,ON,L3B5N6
dfc95940e2f9b081e666,Notre Dame College School,Catholic,64,smith st,Welland,ON,L3C4H4
ea203192f203567c6e9d,École élémentaire Franco-Niagara,Public,101,afton av,Welland,ON,L3B1W1
eed557e847fab8e13164,Ross Public School,Public,358,niagara st,Welland,ON,L3C1K9
f15d48b1e56a5b5c8d70,Fullbright Academy,Private,738,lyons creek road,Welland,ON,L3B5N4
f3c31c7a533feaf3a5a0,Alexander Kuska KSG Catholic Elementary School,Catholic,333,rice rd,Welland,ON,L3C2V9
