Index,Facility_Name,Facility_Type,Street_No,Street_Name,City,Prov_Terr,Postal_Code
14b398a20b94e0e1cb9e,Victoria Public School,Public,5635,heritage dr,Niagara Falls,ON,L2J3L6
178588e8d51d12249e37,Princess Margaret Public School,Public,6624,culp st,Niagara Falls,ON,L2G2C4
1f5408b7e15abee86e40,Pathways Academy & Early Learning Centre,Private,6642,st. thomas more drive,NIAGARA FALLS,ON,L2G5N4
2ba1ddd001efb397cdb9,St John Henry Newman Catholic Elementary School,Catholic,8120,beaverdams rd,Niagara Falls,ON,L2H1R8
2d0b98a31735ff94c7a8,Greendale Public School,Public,5504,montrose rd,Niagara Falls,ON,L2H1K7
349273e4d1807b12e50a,Kent School,Private,4700,epworth circle,Niagara Falls,ON,L2E1C6
4056bf7fa77c3326d63a,École élémentaire LaMarsh,Public,4571,drummond rd,Niagara Falls,ON,L2E6C8
4617e0b7805980952218,Orchard Park Public School,Public,3691,dorchester rd,Niagara Falls,ON,L2J3A6
47f25be9234360e1b5c5,James Morden Public School,Public,7112,dorchester rd,Niagara Falls,ON,L2G5V6
5016c3941d38d3f9c287,Mary Ward Catholic Elementary School,Catholic,2999,dorchester rd,Niagara Falls,ON,L2J2Z9
5adc1f40fa43425bd3ed,Heximer Avenue Public School,Public,6727,heximer ave,Niagara Falls,ON,L2G4T1
5f5c210a0d894190a047,St Mary Catholic Elementary School,Catholic,5719,morrison st,Niagara Falls,ON,L2E2E8
60fcd9df29692be49726,Loretto Catholic Elementary School,Catholic,6855,kalar rd,Niagara Falls,ON,L2H2T3
66d692fef93796f30340,John Marshall Public School,Public,3910,st james ave,Niagara Falls,ON,L2J2R3
680ecc2c79027beebd49,Martha Cullimore Public School,Public,3155,st andrew ave,Niagara Falls,ON,L2J2R7
6f3b713f7071850b6b6a,ÉÉC Notre-Dame-de-la-Jeunesse-Niagara.F,Catholic,7374,wilson croissant,Niagara Falls,ON,L2G4S1
7d59501b119e35a609d5,Sacred Heart Catholic Elementary School,Catholic,8450,oliver st,Niagara Falls,ON,L2G6Z2
806c8c23280777f44780,Our Lady of Mount Carmel Catholic Elementary School,Catholic,6525,carlton ave,Niagara Falls,ON,L2G5K4
9929ac1c37831ebfc049,St Gabriel Lalemant Catholic Elementary School,Catholic,6121,vine st,Niagara Falls,ON,L2J1L4
a18cf64748d7d5c76771,St Vincent de Paul Catholic Elementary School,Catholic,3900,kalar rd,Niagara Falls,ON,L2H0K2
a97df24ba939f880e780,Forestview Public School,Public,8406,forestview blvd,Niagara Falls,ON,L2H0B9
ae1fee486395bc6579bd,Valley Way Public School,Public,5315,valley way,Niagara Falls,ON,L2E1X4
b1ad5324426bfc150487,Saint Paul Catholic High School,Catholic,3834,windermere rd,Niagara Falls,ON,L2J2Y5
b287ccd163bd8ac4e57e,A N Myer Secondary School,Public,6338,oneil st,Niagara Falls,ON,L2J1M7
b372fc7a30e934aaa326,Saint Michael Catholic High School,Catholic,8699,mcleod rd,Niagara Falls,ON,L2H0Z2
b3dc1da98d2f269dabca,Prince Philip Public School,Public,3112,dorchester rd n,Niagara Falls,ON,L2J2Z7
b6ba461db6290365c6fa,Notre Dame Catholic Elementary School,Catholic,6559,caswell st,Niagara Falls,ON,L2J1C2
ba9dec95344c29afa62e,Kate S Durdan Public School,Public,6855,kalar rd,Niagara Falls,ON,L2H2T3
baf785d4ca10a6b4e300,St Patrick Catholic Elementary School,Catholic,4653,victoria ave,Niagara Falls,ON,L2E4B8
c12e184206e42a3b068b,ÉÉC Saint-Antoine,Catholic,4572,portage chemin,Niagara Falls,ON,L2E6A8
c83fb423565d37597588,Simcoe Street Public School,Public,4760,simcoe st,Niagara Falls,ON,L2E1V6
d17fb92ac641768dd6fe,Stamford Collegiate,Public,5775,drummond rd,Niagara Falls,ON,L2G4L2
d400f4df8dfc8b200a98,Al-Mahdi Learning Institute,Private,8333,willoughby drive,Niagara Falls,ON,L2G6X4
db9092478db83166f017,Father Hennepin Catholic Elementary School,Catholic,6032,churchill st,Niagara Falls,ON,L2G2X1
e1c9395b6a1cc33d7b4b,Cherrywood Acres Public School,Public,4635,pettit ave,Niagara Falls,ON,L2E6L4
f28bc1103565ecc10efa,Westlane Secondary School,Public,5960,pitton rd,Niagara Falls,ON,L2H1T5
f303827c639f0c821eb9,River View Public School,Public,3300,cattell dr,Niagara Falls,ON,L2G6M9
