Index,Facility_Name,Facility_Type,Street_No,Street_Name,City,Prov_Terr,Postal_Code
03d3542e7ea9eaf27db0,Courtland Public School,Public,1012,queen st,Courtland,ON,N0J1E0
16ad20c833278d9a953b,Teeterville Public School,Public,229,teeter st,Teeterville,ON,N0E1S0
1d92e1f290be8c9efafe,Langton Public School,Public,23,albert st,Langton,ON,N0E1G0
262f0be2781508a4960d,West Lynn Public School,Public,18,parker dr,Simcoe,ON,N3Y1A1
2d4cadbf40cd45799f6c,Lynndale Heights Public School,Public,55,donly dr s,Simcoe,ON,N3Y5G7
51c327dfe7786608c136,Waterford District High School,Public,227,main st s,Waterford,ON,N0E1Y0
530bd30b08976c616e12,Houghton Public School,Public,505,fairground side rd rr 5,Langton,ON,N0E1G0
587409a653b31c250cac,ÉÉC Sainte-Marie-Simcoe,Catholic,165,queen nord rue norfolk,Norfolk,ON,N3Y3Y7
65675e64d76afb7359ed,Boston Public School,Public,2993,cockshutt rd rr 1,Waterford,ON,N0E1Y0
6970a61f51d2756c188a,St. Frances Cabrini School,Catholic,373,northern ave,Delhi,ON,N4B2R4
75a298a94b883d5c98fe,Valley Heights Secondary School,Public,2561,hwy 59,Langton,ON,N0E1G0
75d5fd658c1aa2c3f49c,Walsh Public School,Public,933,st john's road west rr 2,Simcoe,ON,N3Y4K1
7e0c418d94d067033fa3,Our Lady of Fatima School,Catholic,120,talbot rd,Courtland,ON,N0J1E0
8fce712ad16f22ad1f01,Port Rowan Public School,Public,48,college ave,Port Rowan,ON,N0E1M0
9674a51ff1f82cce2645,St. Joseph's School,Catholic,34,potts rd,Simcoe,ON,N3Y2S8
99979d8d14a09c8b446b,Sacred Heart School,Catholic,26,albert st,Langton,ON,N0E1G0
a0608924b21e7536dd7d,Lakewood Elementary School,Public,713,st george st,Port Dover,ON,N0A1N0
a9de83feb99f8495b310,Elgin Avenue Public School,Public,80,elgin ave,Simcoe,ON,N3Y4A8
aa3f3f58ceb6b2cc1157,St. Michael's C School,Catholic,972,st john's rd,SIMCOE,ON,N3Y4K1
aea003d8f610848cbbcc,St. Bernard of Clairvaux School,Catholic,250,washington st,Waterford,ON,N0E1Y0
bbe4a209983f3872a6ff,St. Cecilia's School,Catholic,3,lynn park ave,Port Dover,ON,N0A1N5
c273ca40af2bc57e9435,Delhi District Secondary School,Public,393,james st,Delhi,ON,N4B2B6
c6051a9adf51c3f14b26,Waterford Public School,Public,100,east church st,Waterford,ON,N0E1Y0
d111e2a4fdc9890cf5ed,Lynedoch Christian School,Private,295,charlton street,Delhi,ON,N4B2W4
d7c0451154638aba30ac,Simcoe Composite School,Public,40,wilson drive,Simcoe,ON,N3Y2E5
e16aac791c35f2adb5e3,Holy Trinity Catholic High School,Catholic,128,evergreen hill rd,Simcoe,ON,N3Y4N5
f1f5136a38950a89cf06,Bloomsburg Public School,Public,25,concession 12 rd 3,Waterford,ON,N0E1Y0
fcdf832451f5fa95ea49,Delhi Public School,Public,227,queen st,Delhi,ON,N4B2K6
