Index,Facility_Name,Facility_Type,Street_No,Street_Name,City,Prov_Terr,Postal_Code
169848f987876f8da4ab,Seneca Central Public School,Public,2767,regional road,York,ON,N0A1R0
19a6a681b1221e0ea6ae,Caledonia Centennial Public School,Public,110,shetland street,Caledonia,ON,N3W2H1
2095dca7f87f91c999fc,St. Stephen's School,Catholic,17,brant street west,Cayuga,ON,N0A1E0
2ac2e99db264a0e7ce9b,Hagersville Secondary School,Public,70,parkview rd,Hagersville,ON,N0A1H0
3caa326b58728d836a49,Mapleview Elementary School,Public,223,fairview ave. west,Dunnville,ON,N1A1M4
5c427e528b3c3a1e60aa,Thompson Creek Elementary School,Public,800,cross st w,Dunnville,ON,N1A1N7
6169c2dd9dc68ff0d0c5,Rainham Central School,Public,572,concession 5 rr 1,Fisherville,ON,N0A1G0
6faf9612e4453cb41d51,McKinnon Park Secondary School,Public,91,haddington st,Caledonia,ON,N3W2H2
72b9d4de9a67520e9c0e,Notre Dame Catholic Catholic Elementary School,Catholic,35,braemar ave,Caledonia,ON,N3W2M5
7dadd07ce019d8fb7e77,Jarvis District Christian School,Private,149,talbot st. east,Jarvis,ON,N0A1J0
7dafcdf51bc4d8f9586d,J L Mitchener Public School,Public,60,munsee st. s,Cayuga,ON,N0A1E0
8db9d9103dc8b4ad0ae7,River Heights School,Public,37,forfar st e,Caledonia,ON,N3W1L6
943c3b91e24d8805a70c,St. Mary's School,Catholic,92,main street south,Hagersville,ON,N0A1H0
aedc77fc02c1327ead76,Cayuga Secondary School,Public,70,haldiamnd hwy #54,Cayuga,ON,N0A1E0
aefcd9374a351a20957b,Hagersville Elementary School,Public,40,parkview rd,Hagersville,ON,N0A1H0
af5809466dd6f75c790a,St. Michael's School,Catholic,209,alder street west,Dunnville,ON,N1A1R3
b1d7357e7a6fbd29c566,Oneida Central Public School,Public,661,4th line,Caledonia,ON,N3W2B2
b4972fa5158b33cbcc7e,Dunnville Secondary School,Public,110,helena st,Dunnville,ON,N1A2S5
c487f6f37047ec658e41,Jarvis Public School,Public,14,monson st,Jarvis,ON,N0A1J0
d870935e4e9d5f134d6a,Dunnville Christian Private Elementary,Private,37,robinson rd rr 1,Dunnville,ON,N1A2W1
e198416dffc662e49193,St. Patrick's School,Catholic,81,orkney st e,Caledonia,ON,N3W1L3
e397ca9d887fc6247438,Riverside Christian Montessori School,Private,3,front street south,York,ON,N0A1R0
fca1a2c8828b49dfb647,Walpole North Elementary School,Public,1895,r.r. 5,Hagersville,ON,N0A1H0
