Index,Facility_Name,Facility_Type,Street_No,Street_Name,City,Prov_Terr,Postal_Code
0b6efd9fcf10c05badaa,Onondaga-Brant Public School,Public,21,brant school road 1,Brantford,ON,N3T5L4
1f92f04249081c54614b,Holy Family School,Catholic,20,sunset dr,Paris,ON,N3L3W4
21debbe1370a6794d0cb,Paris District High School,Public,231,grand river st n,Paris,ON,N3L2N6
36dade0831f7c7a6e1ac,W Ross Macdonald Deaf Blind Secondary School,Provincial,350,brant ave,Brantford,ON,N3T3J9
4856b7789e8312170b11,W Ross Macdonald Deaf Blind Elementary School,Provincial,350,brant ave,Brantford,ON,N3T3J9
556c6c47f8b20e19eb49,Hope Reformed Christian School,Private,331,german school road,Paris,ON,N3L3E1
8b6ca718f1febbfa7d38,Cobblestone Elementary School,Public,179,grandville circle,Paris,ON,N3L0A9
a4b64fb9540f06b082d7,Glen Morris Central Public School,Public,522,glen morris rd e,Glen Morris,ON,N0B1W0
a94a1d6fb6d263ddcd85,North Ward School,Public,107,silver st,Paris,ON,N3L1V2
aa03c992b30d36514f12,Blessed Sacrament School,Catholic,185,king st w burford ontario n0e1a0,Burford,ON,N0E1A0
b93125db9cde82a49684,St George-German Public School,Public,3,college st,St George,ON,N0E1N0
baf06bf9a44285f934ff,Mount Pleasant School,Public,667,mount pleasant rd,Mount Pleasant,ON,N0E1K0
c6a5fcc2477631f883cc,St. Theresa School,Catholic,12,dalewood ave rr 4,Brantford,ON,N3T0M5
d8a64443903e6206467a,W Ross Macdonald Provincial Secondary School,Provincial,350,brant ave,Brantford,ON,N3T3J9
dad591635d24603c7638,W Ross Macdonald Provincial School for Elementary,Provincial,350,brant ave,Brantford,ON,N3T3J9
e6a79b4d658cced88614,Oakland-Scotland Public School,Public,15,church st w,Scotland,ON,N0E1R0
e89dd123db23424d5034,Burford District Elementary School,Public,35,alexander st,Burford,ON,N0E1A0
f5d2dc05d5115c3c7653,Sacred Heart Catholic Elementary School,Catholic,180,grandville cir,PARIS,ON,N3L0A9
fb9185967819c8df740a,Paris Central Public School,Public,7,broadway st e,Paris,ON,N3L2R2
