Index,Facility_Name,Facility_Type,Street_No,Street_Name,City,Prov_Terr,Postal_Code
071fef2cad571090465b,St Joseph Catholic Elementary School,Catholic,980,westminster dr s,Cambridge,ON,N3H1V2
0aadabfe8bee6f88ba10,St Peter Catholic Elementary School,Catholic,92,avenue rd,Cambridge,ON,N1R1C1
11cf9e12c77e26d708bb,Parkway Public School,Public,436,preston pkwy,Cambridge,ON,N3H5C7
1269195edbda76e94f9f,St Augustine Catholic Elementary School,Catholic,177,bismark dr,Cambridge,ON,N1S4Y2
19a5ff6ccfef4511cb13,St Andrew's Public School,Public,65,victoria ave,Cambridge,ON,N1S1X2
1b54b1367b38f9a2716e,Hillcrest Public School,Public,31,renwick ave,Cambridge,ON,N3C2T5
1c1b9d8a55d6347de528,Ryerson Public School,Public,749,grand valley dr,Cambridge,ON,N3H2S3
1cebb84c29fd32391ee8,Glenview Park Secondary School,Public,55,mckay st,Cambridge,ON,N1R4G6
2106619c49c51a28e5ed,ÉÉC Saint-Noël-Chabanel-Cambridge,Catholic,640,trico promenade,Cambridge,ON,N3H5P2
28a97b8e36ae09e5ef07,St. Teresa of Calcutta Catholic Elementary School,Catholic,520,saginaw pkwy,Cambridge,ON,N1T1W9
2c6ef960d3cc7bae169b,St Elizabeth Catholic Elementary School,Catholic,50,adler dr,Cambridge,ON,N3C4B7
31942b150426037dd936,Southwood Secondary School,Public,30,southwood dr,Cambridge,ON,N1S4K3
330c567381cd1f2f2e36,ÉSC Père-René-de-Galinée,Catholic,450,maple grove chemin,Cambridge,ON,N3H4R7
3c0550dd01c97bb56640,Cambridge Christian Elementary School,Private,229,myers rd,Cambridge,ON,N1R7H3
3dadd54738977f165cb6,Manchester Public School,Public,455,dundas st,Cambridge,ON,N1R5R5
420f71d0803efaa5525b,Hespeler Public School,Public,300,winston blvd,Cambridge,ON,N3C3J6
422d75e92ab8b7b440f3,Silverheights Public School,Public,390,scott rd,Cambridge,ON,N3C3Z7
42f97e091fc7239aadba,Beechwood Brainery,Private,745,coronation boulevard,Cambridge,ON,N1R7R1
450d30209153622a89db,St Benedict Catholic Secondary School,Catholic,50,saginaw pkwy,Cambridge,ON,N1R5W1
53198019c9a4f832be5a,Marvel Beauty School,Private Institution,11,ainslie street south,Cambridge,ON,N1R3J9
57bf7f6e46ebb741c35a,Heritage Baptist College,Private Institution,175,holiday inn drive,Cambridge,ON,N3C3T2
584fd6c57e64d8a4a057,Highland Public School,Public,125,salisbury ave,Cambridge,ON,N1S1J8
59f62fb0318f6c778f33,Grand View Public School,Public,1144,hamilton st,Cambridge,ON,N3H3G2
6122fb932189d48e00ea,St Michael Catholic Elementary School,Catholic,1150,concession rd,Cambridge,ON,N3H4L6
655098870a70fab29904,Monsignor Doyle Catholic Secondary School,Catholic,185,myers rd,Cambridge,ON,N1R7H2
6856399c7d670a6901dc,St Anne Catholic Elementary School,Catholic,127,elgin st n,Cambridge,ON,N1R5H6
6af745b007641eff5466,St Gabriel Catholic Elementary School,Catholic,15,baldwin drive,Cambridge,ON,N3C0G1
6be812729ef4cde49444,Avenue Road Public School,Public,40,gail st,Cambridge,ON,N1R4M2
6cde9d43d73fc5ba1698,Chalmers Street Public School,Public,35,chalmers st s,Cambridge,ON,N1R5B4
7cb6e92aa3a5f4439b7f,St Margaret Catholic Elementary School,Catholic,210,cowan blvd,Cambridge,ON,N1T1V4
814a3abbd79f7aa31beb,Blair Road Public School,Public,85,sunset blvd,Cambridge,ON,N1S1A9
8489e369b76465257fc0,St Gregory Catholic Elementary School,Catholic,34,osborne ave,Cambridge,ON,N1S3H1
8d544c18b9bcfbd5a191,Our Lady of Fatima Catholic Elementary School,Catholic,55,hammet st,Cambridge,ON,N3C2H5
8e588259464663116898,Elgin Street Public School,Public,685,elgin st n,Cambridge,ON,N1R7W6
8f6d016999d12280b11b,William G Davis Public School,Public,530,lang's dr,Cambridge,ON,N3H5G5
956df8c9465523820601,Ontario Muslim Academy,Private,82,beverly street,cambridge,ON,N1R3Z7
95e39c706ea021309b71,International School of Cambridge,Private,1550,dunbar rd,Cambridge,ON,N1R8J5
a1c5b4e31466c1c59382,Saginaw Public School,Public,740,saginaw pkwy,Cambridge,ON,N1T1V6
a1d11085b1e6e2962258,Tait Street Public School,Public,184,tait st,Cambridge,ON,N1S3G3
a30ab8fe51dec1a8b56f,Kindie Pre N'PLay,Private,102-103 15,queen street east,Cambridge,ON,N3C2A7
a4dd57b9fb952a3e5242,Central Public School,Public,175,main st e,Cambridge,ON,N1R1W5
acb800c41dd15cb8a9b9,Christ The King Catholic Elementary School,Catholic,70,acorn way,Cambridge,ON,N1R8M5
b47975a9462da743b3a1,Stewart Avenue Public School,Public,145,stewart ave,Cambridge,ON,N1R2V5
b79178dff73048eec774,Holy Spirit Catholic Elementary School,Catholic,15,gate house dr,Cambridge,ON,N1P1C7
c12788ae226c937e2a1f,Moffat Creek Public School,Public,710,myers road,Cambridge,ON,N1P0A8
c45792e1c267794a233f,Centennial (Cambridge) Public School,Public,100,weaver st,Cambridge,ON,N3C1W4
c50d0fd8a4b39f32072c,Preston Public School,Public,210,westminster dr n,Cambridge,ON,N3H5C8
cdd6b38f9fcdb3d3b8f9,St Vincent de Paul Catholic Elementary School,Catholic,30,faial road,Cambridge,ON,N1R7C3
cfa44f43259665817dfe,Coronation Public School,Public,757,concession rd,Cambridge,ON,N3H4L1
