Index,Facility_Name,Facility_Type,Street_No,Street_Name,City,Prov_Terr,Postal_Code
02cb7a6c1149bb8d68f7,Balsam Grove Parochial,Private,2542,northfield drive east 2,Elmira,ON,N3B2Z2
1284482367196482ce00,St John's-Kilmarnock School,Private,2201,shantz station rd,Breslau,ON,N0B1M0
17f144ca9ec06692a836,John Mahood Public School,Public,5,first st w,Elmira,ON,N3B1G1
291c821a4747a567e27a,East Heidelberg Parochial School,Private,1316,martin creek road 3,Waterloo,ON,N2J3Z4
4c464c71bd5c39ef2651,Park Manor Public School,Public,18,mockingbird dr,Elmira,ON,N3B1T1
4e300a4647e9087545f6,North Woolwich Parochial School,Private,4194,arthur st n 1,Elmira,ON,N3B2Z1
67ec34db746af55313c8,Woodland Christian High School,Private,1058,spitzig road rr 1,Breslau,ON,N0B1M0
6f1b80b46ff1eca1e1d7,King Alfred Academy,Private,1373,lobsinger line,Waterloo,ON,N2J4G8
842354f9146f3c6ce389,Spruce Ridge Parochial School,Private,1408,halm road 1 west,West Montrose,ON,N0B2V0
84950589c797eba2275e,Winterbourne Parochial School,Private,1210,jiggs hollow road 2 west,West Montrose,ON,N0B2V0
92b65451951e730016e9,Floradale Public School,Public,35,florapine rd,Elmira,ON,N3B2Z1
981580c12cfa0842c734,Conestogo Public School,Public,1948,sawmill rd,Conestogo,ON,N0B1N0
9a1dd712a8b2be98cb73,Three Bridges Old Colony Christian Schoo,Private,2043,three bridges road 1,St. Jacobs,ON,N0B2N0
9eb79c5e0254b89309ef,Riverside Public School,Public,250,william st,Elmira,ON,N3B0B9
a391c2447ad4a704f777,Koinonia Christian Academy,Private,850,sawmill rd,Bloomingdale,ON,N0B1K0
ae2790cc58d98b16e870,Foundation Christian School,Private,28,katherine street south,Winterbourne,ON,N0B2V0
b3f86e6d888f28fac315,Discipleship Christian Secondary,Private,100,andover drive,Breslau,ON,N0B1M0
c06a1144c35161f592dd,Breslau Public School,Public,58,joseph st,Breslau,ON,N0B1M0
c84874f0a53d1bb38c0a,Elmira District Secondary School,Public,4,university ave,Elmira,ON,N3B1K2
cc972758667d502eef36,St Boniface Catholic Elementary School,Catholic,1354,maryhill rd,Maryhill,ON,N0B2B0
e4fe463eeea73b38bd30,West Montrose Parochial School,Private,543,katherine street north west,West Montrose,ON,N0B2V0
ecfd244df3d5a7710183,Elmira North Parochial School,Private,1560,tilman road 1,Elmira,ON,N3B2Z1
f136eae13efc2cbb90b8,St Teresa of Avila Catholic Elementary School,Catholic,69,first street,Elmira,ON,N3B1G5
fcb7d3f8fb6a90918197,Clearview Parochial,Private,2447,three bridges road 4,Elmira,ON,N3B2Z3
fce8759738e41318db8f,St Jacobs Public School,Public,72,queensway dr,St Jacobs,ON,N0B2N0
