Index,Facility_Name,Facility_Type,Street_No,Street_Name,City,Prov_Terr,Postal_Code
07c495e6b810014e58e7,Kitchener Waterloo Bilingual School,Private,600,erb street west,Waterloo,ON,N2J3Z4
11c0e3338d97c6488a42,St David Catholic Secondary School,Catholic,4,high st,Waterloo,ON,N2L3X5
1ea64a3c1716f3b4970b,Great Lakes Bible College,Private Institution,470,glenelm crescent,Waterloo,ON,N2L5C8
258fa59908b61a73458e,Vanguard High School,Private,255,king street north,Waterloo,ON,N2J4V2
293a0bd8eb8cfbe04c98,Lincoln Heights Public School,Public,270,quickfall dr,Waterloo,ON,N2J3S9
2b2f0de61dae04b4b9ff,MacGregor Public School,Public,32,central st,Waterloo,ON,N2L3A6
2c41d46dcfd0cfe760f7,Wilfrid Laurier University,University,75,university ave w,Waterloo,ON,N2L3C5
2e975394600710e2b173,Sir Edgar Bauer Catholic Elementary School,Catholic,660,glen forest blvd,Waterloo,ON,N2L4K2
319adce24d0571dc2668,Gina's College of Advanced Aesthetices - Waterloo,Private Institution,385,weber street north,Waterloo,ON,N2J3J2
3e8cc5e1d46b84001a61,Waterloo Collegiate Institute,Public,300,hazel st,Waterloo,ON,N2L3P2
41f4d17e177f5bbc9f0c,Sir John A Macdonald Secondary School,Public,650,laurelwood dr,Waterloo,ON,N2V2V1
43489476262c29462a6f,St Luke Catholic Elementary School,Catholic,550,chesapeake dr,Waterloo,ON,N2K4G5
4ababd28b169077951c8,Lexington Public School,Public,431,forestlawn rd,Waterloo,ON,N2K2J5
541d5a16234908b64040,Mary Johnston Public School,Public,475,brynhurst blvd,Waterloo,ON,N2T2C6
598c7076ad4dc9224bb8,N A MacEachern Public School,Public,580,rolling hills dr,Waterloo,ON,N2L4Z9
5dd6cf76290149efff5d,St Nicholas Catholic Elementary School,Catholic,525,laurelwood dr,Waterloo,ON,N2V2N1
654334dd0fc59e860d4d,Waterloo Independent Secondary School,Private,435,king street north,North Waterloo,ON,N2J2Z5
6914834d48f5b5d49276,University of Waterloo,University,,university avenue,Waterloo,ON,N2L3G1
6cb1dd95d91b6b2dd60c,Westvale Public School,Public,265,westvale dr,Waterloo,ON,N2T2B2
70eeeb313bbc3df15225,Vanguard Online Academy,Private,119,university avenue east,Waterloo,ON,N2J2W1
77400325bee7569c89cf,Centennial (Waterloo) Public School,Public,141,amos ave,Waterloo,ON,N2L2W8
77a4f3a483335fe16922,École élémentaire L'Harmonie,Public,158,bridgeport e rd,Waterloo,ON,N2J2K4
78d1e0c7b76c4813a728,Bluevale Collegiate Institute,Public,80,bluevale st n,Waterloo,ON,N2J3R5
7e5c93288571547b45e4,St Agnes Catholic Elementary School,Catholic,254,neilson ave,Waterloo,ON,N2J2M3
86c3bb950e489cf6c55e,Sandowne Public School,Public,265,sandowne dr,Waterloo,ON,N2K2C1
8a4cd2c2f4798a9d455a,ÉÉC Mère-Élisabeth-Bruyère,Catholic,280,glenridge promenade,Waterloo,ON,N2J3W4
8cc4c0ad4ee676e46210,Laurelwood Public School,Public,460,brentcliffe dr,Waterloo,ON,N2T2R5
92de6396e49bf1fb6a80,Empire Public School,Public,83,empire st,Waterloo,ON,N2L2M1
9b2e8cfc0cb6a0116931,Elizabeth Ziegler Public School,Public,90,moore ave s,Waterloo,ON,N2J1X2
a64b6ecb87707d510f62,KidsAbility School,Hospital,500,hallmark dr,Waterloo,ON,N2K3P5
a7f010d974db8216da0d,Lester B Pearson PS Public School,Public,520,chesapeake dr,Waterloo,ON,N2K4G5
b228a8e8efeffb78bb44,Vista Hills Public School,Public,314,sweet gale street,Waterloo,ON,N2V0B3
b53c991b03efce576124,Winston Churchill Public School,Public,100,milford ave,Waterloo,ON,N2L3Z3
b5f902b34fadcdd7c251,AIM KW School,Private,435,king street north,Waterloo,ON,N2J2Z5
bfae81cdff78864f7204,Edna Staebler Public School,Public,450,bernay dr,Waterloo,ON,N2T3A3
c354bf3b3f4d06c05efd,Keatsway Public School,Public,323,keats way,Waterloo,ON,N2L5V9
c433e92b5652ed887074,Abraham Erb Public School,Public,710,laurelwood dr,Waterloo,ON,N2V2V3
cc6283def8a374911f47,St Matthew Catholic Elementary School,Catholic,405,pastern trail,Waterloo,ON,N2K3V6
db7ff50db284dea16dd7,Millen Woods Public School,Public,640,new hampshire street,Waterloo,ON,N2K0A5
e8d41bbb08c59bca8d0f,Tayba Islamic Academy,Private,619,wild ginger avenue,Waterloo,ON,N2V2X1
eb3d1b3c99a8d5767b50,Holy Rosary Catholic Elementary School,Catholic,485,thorndale dr,Waterloo,ON,N2T1W5
f38d21f322c84a2ae895,Canada TEMS Academy,Private,100,blythwood road,Waterloo,ON,N2L4A2
f3eec68fd81668bb944a,Northlake Woods Public School,Public,500,northlake dr,Waterloo,ON,N2V2A4
f81dce6585bd65ee284f,Cedarbrae Public School,Public,230,cedarbrae ave,Waterloo,ON,N2L4S7
fad540f8775642d68566,Our Lady of Lourdes Catholic Elementary School,Catholic,55,roslin ave s,Waterloo,ON,N2L6N5
