Index,Facility_Name,Facility_Type,Street_No,Street_Name,City,Prov_Terr,Postal_Code
004809a57cb5e2eb5dc9,Meadowlane Public School,Public,236,forestwood dr,Kitchener,ON,N2N1C1
0523b312b7435d95da6b,Queen Elizabeth Public School,Public,191,hoffman st,Kitchener,ON,N2M3N2
08ebe05186e4e168a391,Sandhills Public School,Public,1250,victoria st s,Kitchener,ON,N2N3J2
0a7f29ef2dd56cdca89e,Eastwood Collegiate Institute,Public,760,weber st e,Kitchener,ON,N2H1H6
0a934037771b6003ecc2,Crestview Public School,Public,153,montcalm dr,Kitchener,ON,N2B2R6
0cd67d9a4f127bd6b46b,Rockway Mennonite Collegiate Inc,Private,110,doon rd,KITCHENER,ON,N2G3C8
1166c273512572510685,St Paul Catholic Elementary School,Catholic,45,birchcliffe ave,Kitchener,ON,N2M4V7
14c8b2f0f5e713ac7abe,Resurrection Catholic Secondary School,Catholic,455,university ave w,Kitchener,ON,N2N3B9
14f4f0d9e07228c6e7aa,Brigadoon Public School,Public,415,caryndale dr,Kitchener,ON,N2R1J7
1a05e18d08195e44ad57,St Aloysius Catholic Elementary School,Catholic,504,connaught st,Kitchener,ON,N2C1C2
1a281cfca83507f59621,One Forest,Private,3328,king street east,Kitchener,ON,N2A1B3
1bd715a5e46af49f5d0f,Scholars' Hall Private School,Private,888,trillium dr,Kitchener,ON,N2R1K4
1cdaaf12f42d89390847,Margaret Avenue Public School,Public,325,louisa st,Kitchener,ON,N2H5N1
21e5e03e0a7d187c9f0f,Groh Public School,Public,225,thomas slee drive,Kitchener,ON,N2P0B8
22377bcb68a0bc9c9e7e,Stanley Park Public School,Public,191,hickson dr,Kitchener,ON,N2B2H8
22e2016bdd7932ac4edc,Trios College Business- Technology & Healthcare Inc.,Private Institution,110,king street east,Kitchener,ON,N2G0A5
233771a862166456fab7,Sunnyside Public School,Public,1042,weber st e,Kitchener,ON,N2A1B6
23eb1a8fa1d8933d1b49,Prueter Public School,Public,40,prueter ave,Kitchener,ON,N2H6G6
2715d92d5118ffae0e2d,Glencairn Public School,Public,664,erinbrook dr,Kitchener,ON,N2E2R1
284520ab81b78d0b84c6,Chicopee Hills Public School,Public,300,chicopee hills dr,Kitchener,ON,N2A0J6
2b6e806d89ced880dccf,Emmanuel Bible College,Private Institution,100,fergus ave.,Kitchener,ON,N2A2H2
2c24b88842b5a01364f3,Rockway Public School,Public,70,vanier dr,Kitchener,ON,N2C1J5
2d83162e7e71ec096c85,Suddaby Public School,Public,171,frederick st,Kitchener,ON,N2H2M6
325e2faef4499817300f,Verideia Classical Christian Academy,Private,1780,glasgow street,Kitchener,ON,N2N0A7
35053a88193eac533529,Monsignor Haller Catholic Elementary School,Catholic,118,shea cres,Kitchener,ON,N2E1E8
365f4a55798b49a121e6,John Darling Public School,Public,200,rolling meadows dr,Kitchener,ON,N2N3G9
38c95b684d707df56a44,Smithson Public School,Public,150,belleview ave,Kitchener,ON,N2B1G7
3998c6c9c8d2cf46b85d,Janet Metcalfe Public School,Public,335,seabrooke drive,Kitchener,ON,N2R0G3
40de541f4b99fc877f2d,Driftwood Park Public School,Public,50,parkland cres,Kitchener,ON,N2N1S4
42b9846f8b03584c434a,Forest Hill Public School,Public,255,westmount rd e,Kitchener,ON,N2M4Z2
49d0a85e44b57afefd6e,St Kateri Tekakwitha Catholic Elementary School,Catholic,560,pioneer dr,Kitchener,ON,N2P1P2
4ed0d1e41145982c780b,Summit College - Kitchener,Private,1500,weber street east,Kitchener,ON,N2A2Y5
502aa4f33e2760e79606,Howard Robertson Public School,Public,130,morgan ave,Kitchener,ON,N2A2M5
508a83c855423a638427,St Mark Catholic Elementary School,Catholic,240,autumn hill cres,Kitchener,ON,N2N1K8
54ecfd60edfb74648537,Our Lady of Grace Catholic Elementary School,Catholic,70,gracefield cres,Kitchener,ON,N2E1R9
56c94ad180940702938c,École secondaire David Saint-Jacques,Public,80,burlington drive,Kitchener,ON,N2B1T5
58d0c4e511ec639fe036,Forest Heights Collegiate Institute,Public,255,fischer-hallman rd,Kitchener,ON,N2M4X8
5a88fc46b66fadf2a893,Franklin Public School,Public,371,franklin st n,Kitchener,ON,N2A1Y9
5e17464ddf13c29f5058,Bridgeport Public School,Public,59,bridge st w,Kitchener,ON,N2K1K6
5fc7d1980cff3617c532,Rosemount - U Turn School,Public,151,weber st,Waterloo,ON,N2J2A9
6127238851b4ee2d8eae,St. Jude's School Inc,Private,888,trillium drive,Kitchener,ON,N2R1K4
64bd78d33b2b5fe4cdb6,John Sweeney Catholic Elementary School,Catholic,185,activa ave,Kitchener,ON,N2E4A1
6911bbaac651cb2f5c9e,Sunshine Montessori School,Private,10,boniface avenue,Kitchener,ON,N2C1L9
6ac3259ee9be664b290b,Carmel New Church School,Private,40,chapel hill dr,Kitchener,ON,N2R1N2
6e47c159718a9b0a4ade,École élémentaire David-Saint-Jacques,Public,80,burlington drive,Kitchener,ON,N2B1T5
7069882aa38c54fd183c,Victus Academy,Private,35,sportsworld crossing road,Kitchener,ON,N2P0A5
723f7c37a418035afe7d,St Dominic Savio Catholic Elementary School,Catholic,3,westforest trail,Kitchener,ON,N2N3A6
773531daed1596efafb3,St Teresa Catholic Elementary School,Catholic,270,edwin st,Kitchener,ON,N2H4P4
79dd24144900084d1a44,Voila Institute School of Hair Design,Private Institution,72-74,king st. w.,Kitchener,ON,N2G1A6
