Index,Facility_Name,Facility_Type,Street_No,Street_Name,City,Prov_Terr,Postal_Code
0afa20c7f7635c763379,Shakespeare Public School,Public,35,mowat st,Stratford,ON,N5A2B8
1369fbf3444cf200a0b8,Bedford Public School,Public,59,bedford dr,Stratford,ON,N5A5J7
24176e84d2afa11d01d7,St Joseph Separate School,Catholic,363,st vincent st,Stratford,ON,N5A2Y2
244ac3cec2ee094052c7,Stratford Northwestern Public School,Public,428,forman ave,Stratford,ON,N5A6R7
3e0d6e8a0bb661af22c2,Nancy Campbell Academy,Private,45,waterloo street south,Stratford,ON,N5A4A8
41c1aa0c2dfdf2786fae,Avon Public School,Public,31,huntingdon ave,Stratford,ON,N5A6N7
51c0005d82c689d78e21,Jeanne Sauv√© Catholic School,Catholic,8,grange st,Stratford,ON,N5A3P6
58541e8a1fb58d3ddb6f,Romeo Public School,Public,49,rebecca st,Stratford,ON,N5A3P2
590201037253d11aa3b1,Stratford Central Public School,Public,60,st. andrew st,Stratford,ON,N5A1A3
63c7bf642f74b9ef9de4,Stratford Intermediate School,Public,60,st andrew,Stratford,ON,N5A1A3
6593d1479ac439045d0a,Stratford Central Secondary School,Public,60,st andrew st,Stratford,ON,N5A1A3
a6d26d70e9ea22c7b0c0,Hamlet Public School,Public,315,west gore st,Stratford,ON,N5A7N4
a782376c5f8f9a56fca1,St Michael Catholic Secondary School,Catholic,240,oakdale ave,Stratford,ON,N5A7W2
ac50e119800b62305298,Stratford District Secondary School,Public,428,forman ave,Stratford,ON,N5A6R7
b5753aca88ce609279a5,Anne Hathaway Public School,Public,77,bruce st,Stratford,ON,N5A4A2
bfe629c81f4d0879781a,Stratford District Christian School,Private,190,queensland rd,Stratford,ON,N4Z0A3
d7816ce01cb502ce26ab,Stratford Chefs School,Private Institution,192,ontario street,Stratford,ON,N5A3H4
dd3809db03b391c848ec,St Ambrose Separate School,Catholic,181,louise st,Stratford,ON,N5A2E6
f6c0917533b47508d897,Stratford Northwestern Secondary School,Public,428,forman ave,Stratford,ON,N5A6R7
fc29faea9a2f02c030ac,St Aloysius School,Catholic,228,avondale ave,Stratford,ON,N5A6N4
