Index,Facility_Name,Facility_Type,Street_No,Street_Name,City,Prov_Terr,Postal_Code
0024196944db634ad854,St Don Bosco Catholic Secondary School,Catholic,77,young street,Kitchener,ON,N2H4Y9
0b5685d008779373f91c,Huron Park Secondary School,Public,900,cromwell st,Woodstock,ON,N4S5B5
0e9e5af0be4560c0bff0,Eastdale Public School,Public,65,aileen dr,Woodstock,ON,N4S4A2
0ee90c458e80e766a97c,Southside Public School,Public,360,albert st,Woodstock,ON,N4S2L4
11d6a96fce68d76d9dfe,Holy Family School,Catholic,177,oxford st,Woodstock,ON,N4S6A8
1af4c39a9c6a51067b42,St Mary's High School,Catholic,431,juliana dr,Woodstock,ON,N4V1E8
22c1ab13dbc2bd565598,Springbank Public School,Public,1060,sprucedale rd,Woodstock,ON,N4S4Z9
25e2d5dfd463e154a343,Woodstock Collegiate Institute,Public,35,riddell st,Woodstock,ON,N4S6L9
2807ff64dfbd717243d6,Roch Carrier French Immersion Public School,Public,840,sloane st,Woodstock,ON,N4S7V3
33b15a3709bd5ae0c115,St Michael's School,Catholic,1085,devonshire ave,Woodstock,ON,N4S5S1
45a6e53f79aadc501b13,École secondaire catholique École secondaire Notre-Dame,Catholic,700,bristol rue,Woodstock,ON,N4T0E4
547b1c47e4f672acface,Northdale Public School,Public,290,victoria st n,Woodstock,ON,N4S6W5
6169b64200ce55cc97e6,École élémentaire catholique Sainte-Marguerite-Bourgeoys,Catholic,700,bristol rue,Woodstock,ON,N4T0E4
76508b5e43a2e06a1845,Central Public School,Public,410,hunter st,Woodstock,ON,N4S4G4
83f18071c388906ad831,École élémentaire catholique Notre-Dame,Catholic,700,bristol rue,Woodstock,ON,N4T0E4
b07a0a0d634e281a9018,Millpond Academy,Private,675,princess street,Woodstock,ON,N4S4H7
b2f9d63cdf89f48d6281,St Patrick's School,Catholic,344,parkinson rd,Woodstock,ON,N4S2N6
ba8ef383a6afdf8bfcfe,Oliver Stephens Public School,Public,164,fyfe ave,Woodstock,ON,N4S3S6
d24f7f9db326ec1fb400,Algonquin Public School,Public,59,algonquin rd,Woodstock,ON,N4T1R8
dba302dc30aa9ca1fb25,College Avenue Secondary School,Public,700,college ave,Woodstock,ON,N4S2C8
e7eaa4638318c34c182c,Woodstock Christian School,Private,800,juliana drive,Woodstock,ON,N4S0A8
ee0749d6000d7e9c7692,Winchester Street Public School,Public,110,winchester st,Woodstock,ON,N4S7K6
