Index,Facility_Name,Facility_Type,Street_No,Street_Name,City,Prov_Terr,Postal_Code
02140081a941e98963e2,Meadow Cress School,Private,55,forest street,Chatham,ON,N7L1Z9
026deda76658bf05dae5,Croton Christian Day School,Private,29923,oakdale road,Croton,ON,N0P2K0
028f2af1a868e0afb457,École élémentaire catholique Sainte-Catherine,Catholic,24162,winterline chemin pain,Pain Court,ON,N0P1Z0
02e4f0511bc97f87a88a,Tilbury District High School,Public,97,queen st s,Tilbury,ON,N0P2L0
081766ddbaca77f61fb3,Indian Creek Road Public School,Public,511,indian creek rd w,Chatham,ON,N7M0P5
0ce637e3bf1a67076551,St Vincent Catholic School,Catholic,9399,mcnaughton line rr7,Chatham,ON,N7M5J7
10198ef123ee693bbda2,Gregory Drive Public School,Public,180,gregory dr w,Chatham,ON,N7L2L4
16209e76c08133c582f4,Victor Lauriston Public School,Public,44,alexandra ave,Chatham,ON,N7M1Y1
1be1758d07a549863760,University of Guelph - Ridgetown College,Technical and Vocational,120,main street east,Ridgetown,ON,N0P2C0
222a0be1159067ac5ac3,Georges P Vanier Catholic School,Catholic,20,cecile ave,Chatham,ON,N7M2C3
22850dd5705ead010ff0,Lambton Kent Composite School,Public,231,st george st n,Dresden,ON,N0P1M0
24297a1bc1583e05dd6a,John McGregor Secondary School,Public,300,cecile ave,Chatham,ON,N7M2C6
2569930108153095b377,Queen Elizabeth II C Public School,Public,79,eugenie st,Chatham,ON,N7M3Y9
2625941a5fe73458d388,Darul-Uloom Canada - Chatham,Private,51,prince st n,CHATHAM,ON,N7M4J7
29b509b69dc4002e2e45,Thamesville Area Central Public School,Public,30,mary st,Thamesville,ON,N0P2K0
2cdf7594435d2acbc5ae,École secondaire catholique École secondaire de Pain Court,Catholic,14,notre dame rue pain,Pain Court,ON,N0P1Z0
2dd84205d3836adaf951,École élémentaire catholique Sainte-Marie,Catholic,90,dale promenade,Chatham,ON,N7L0B2
307e8f8a1f17f95e8bd5,St Ursula Catholic School,Catholic,426,lacroix st,Chatham,ON,N7M2W3
32388c4911fdb360eb1e,Wallaceburg DSS-Gr. 7 & 8,Public,920,elgin street,Wallaceburg,ON,N8A3E1
354d4249924e39b8412f,École élémentaire catholique Saint-Philippe,Catholic,7195,st-philippe line,Grande Pointe,ON,N0P1S0
384f0db9b1e4b10171b8,Christ the King Catholic School,Catholic,227,thomas ave,Wallaceburg,ON,N8A2B9
392ef43077b53aca25e9,King George VI Public School,Public,227,delaware ave,Chatham,ON,N7L2W5
41cc18fc312353431e95,St Agnes Catholic School,Catholic,55,croydon st,Chatham,ON,N7L1L5
4476abecfc923c34c324,Freedom Collective,Private,10985,ridge line,Blenheim,ON,N0P1A0
458e706fa7995e5c68bc,St Joseph Catholic School,Catholic,43,st clair st,Tilbury,ON,N0P2L0
4b6594690a37f151fad9,Our Lady of Fatima Catholic School,Catholic,545,baldoon rd,Chatham,ON,N7L5A9
4dd858fca137e467ac03,St Michael Catholic School,Catholic,25,maple st s,Ridgetown,ON,N0P2C0
534f1155c9073b099bab,Merlin Area Public School,Public,21184,erie st n,Merlin,ON,N0P1W0
5b6df72add3dc8a55ee0,Monsignor Uyen Catholic School,Catholic,255,lark st,Chatham,ON,N7L1G9
5c59c5b18a69986e46c1,Dresden Private Mennonite School,Private,10923,countryview line,Dresden,ON,N0P1M0
609868d1178a045af616,Wallaceburg Christian Private School,Private,693,albert street,Wallaceburg,ON,N8A1Y8
6f3c853be4ea6c839536,Blenheim District High School,Public,163,chatham st s,Blenheim,ON,N0P1A0
6f9a32933905c16d5f82,École élémentaire catholique Saint-Francis,Catholic,11,st clair rue tilbury ontario,Tilbury,ON,N0P2L0
74c0923c2d41ece11621,Holy Family Catholic School,Catholic,649,murray st,Wallaceburg,ON,N8A1W1
7b3e985c92090e193db8,St Anne Catholic School,Catholic,183,snow ave,Blenheim,ON,N0P1A0
7d8c14fb5f2d42864574,Marvel Beauty School-Chatham,Private Institution,199,king street,Chatham,ON,N7M1E6
7de77a1a6fa945c95894,Zone Township Central School,Public,730,main st n,Bothwell,ON,N0P1C0
7ff6afbf0782c5e004bd,Eben-Ezer Christian School,Private,485,mcnaughton ave e,Chatham,ON,N7L2H2
8302bec4b7a2221343e9,McNaughton Ave Public School,Public,480,mcnaughton ave e,Chatham,ON,N7L2G9
84e88796db54c2f1859b,Ridgetown DHS-Gr. 7 & 8,Public,9,harold st n,Ridgetown,ON,N0P2C0
8fe94d12a33acf96b783,Harwich-Raleigh Public School,Public,231,chatham st s,Blenheim,ON,N0P1A0
995d7126cb1706c37405,Tilbury Area Public School,Public,5,mable st,Tilbury,ON,N0P2L0
a96a013f863042e7eb6a,Chatham Christian,Private,475,keil dr s,Chatham,ON,N7M6L8
aa34dffcbe1ef35e3be0,Kent International Academy,Private,185,murray st,Chatham-Kent,ON,N7M3L4
ab9a45497c822aeaf08b,Good Shepherd Catholic School,Catholic,4,edith st,Thamesville,ON,N0P2K0
b8d63f340298b8e9b2cd,Ridgetown District High School,Public,9,harold st n,Ridgetown,ON,N0P2C0
bc319642614043965f16,St. Angela Merici Catholic School,Catholic,801,mcnaughton avenue west,Chatham,ON,N7L5P7
c2e46b5c8065d78a1011,A A Wright Public School,Public,55,elm st,Wallaceburg,ON,N8A3M7
c420ee39776c6f3fe1f3,Old Colony Christian Academy,Private,21311,campbell road 1,Wheatley,ON,N0P2P0
