Index,Facility_Name,Facility_Type,Street_No,Street_Name,City,Prov_Terr,Postal_Code
87befda8cd04c0146101,Coronation Public School,Public,5400,coronation dr,Windsor,ON,N8T1B1
8953e9d246a656ad85ae,W. F. Herman Academy Elementary School,Public,1905,bernard rd,Windsor,ON,N8W4R6
8c40375c5a153a6abe6f,Walkerville Collegiate Institute,Public,2100,richmond st,Windsor,ON,N8Y1L4
8d813b540d452ba78adb,J A McWilliam Public School,Public,1901,e c row ave e,Windsor,ON,N8W1Y6
8dbb24041bcc0e464c93,École élémentaire catholique Monseigneur Jean Noël,Catholic,3225,california avenue,Windsor,ON,N9E3K5
8e08506fcb433d5ff4ba,W. F. Herman Academy Secondary School,Public,1905,bernard rd,Windsor,ON,N8W4R6
8e465af5339de55f1744,Centre de formation pour adultes,Catholic,875,ouellette avenue,Windsor,ON,N9A4J6
9079454772bdadc0da85,H J Lassaline Catholic School,Catholic,3145,wildwood dr,Windsor,ON,N8R1Y1
972b5da10b486a724220,Vincent Massey Secondary School,Public,1800,liberty st,Windsor,ON,N9E1J2
989d52fec17a4263da88,Princess Elizabeth Public School,Public,5399,raymond ave,Windsor,ON,N8S1Z6
99650aabce55da062b16,Ford City Public School,Public,4195,milloy blvd,Windsor,ON,N8Y2C2
9c6f9f5d4ff73298725e,Our Lady of Mount Carmel Catholic School,Catholic,1400,cousineau rd,Windsor,ON,N9G1V9
9e5523a271d942f0d5bf,Hon W C Kennedy Collegiate Institute,Public,245,tecumseh rd e,Windsor,ON,N8X2R2
a17a61634a4ca067874e,Immaculate Conception Catholic School,Catholic,465,victoria ave,Windsor,ON,N9A4N1
bac06fa3221c9c47a896,Canadian College of Health- Science & Technology,Private Institution,1737,walker road,Windsor,ON,N8W3P2
baf59906836f7ae13c92,St Teresa of CalcuttaCatholic School,Catholic,1860,chandler road,Windsor,ON,N8W0A9
bc27e5aa117adc59c31c,General Brock Public School,Public,3312,sandwich st,Windsor,ON,N9C1B1
beae5b7e0b23524e49bf,St Angela Catholic School,Catholic,816,ellis st e,Windsor,ON,N8X2H7
c44b46defef4935645b9,Trios College Business- Technology & Healthcare Inc.,Private Institution,7610,tecumseh road east,Windsor,ON,N8T1E9
c6ebfc709a9658e16483,Westview Freedom Academy Secondary School,Public,1375,california ave,Windsor,ON,N9B2Z8
c7be146648262a006913,First Lutheran Christian Academy,Private,3850,locke st,Windsor,ON,N9G1S1
c940d7da2aeb92cdef70,École élémentaire de Lamothe-Cadillac,Public,1775,totten st,WINDSOR,ON,N9B1X4
cb2f23fa127a45ebcee7,Al-Sadeq Academy,Private,1485,janette avenue,Windsor,ON,N8X1Z2
cebfb6cf0e9fd2f80bab,St Joseph's High School,Catholic,2425,clover ave,Windsor,ON,N8P2A3
d008b518370a4d1d0bb9,Parkview Public School,Public,3070,stillmeadow rd,Windsor,ON,N8R1N3
d20a0306170e120db4c3,William G Davis Public School,Public,2855,rivard avenue,Windsor,ON,N8T2H9
d289db067f8f0d7cd9d7,W J Langlois Catholic School,Catholic,3110,rivard ave,Windsor,ON,N8T2J2
d2e86ead2b6fe5311981,Notre Dame Catholic School,Catholic,2751,partington ave,Windsor,ON,N9E3A9
d7bc1cc04b439b2bc68c,Assumption Middle School,Catholic,1100,huron church rd,Windsor,ON,N9C2K7
e93c071f3ee2e03c5bfc,Frank W Begley Public School,Public,1093,assumption st,Windsor,ON,N9A3C5
ebd3006a6745ea047823,Giles Campus French Immersion Public School,Public,874,giles blvd e,Windsor,ON,N9A4E8
ef54bdeb30c2c7bf1448,Canadian Christian Academy,Private,2275,wellesley ave,Windsor,ON,N8W2G1
f3cf198b4c36e3885f9b,Riverside Secondary School,Public,8465,jerome st,Windsor,ON,N8S1W8
f6e06dfb7b205899e163,Prince Edward Public School,Public,949,giles blvd e,Windsor,ON,N9A4G2
fbda26dee51e9c5d581d,John Campbell Public School,Public,1255,tecumseh rde,Windsor,ON,N8W1B7
fce0fb96dacc5b5a21e3,Windsor Public Alternative Secondary School,Public,284,cameron ave,Windsor,ON,N9B1Y6
fe5f2dcd17b9990c485b,École élémentaire catholique E.J. Lajeunesse,Catholic,600,e.c. row ouest ave,Windsor,ON,N9E1A5
