Index,Facility_Name,Facility_Type,Street_No,Street_Name,City,Prov_Terr,Postal_Code
4acced5b7b314208be51,Wortley Road Public School,Public,301,wortley rd,London,ON,N6C3R6
4e907ce3b2162b7a3795,Northbrae Public School,Public,335,belfield st,London,ON,N5Y2K3
4f734844ce88d81a5f1d,Lord Elgin Public School,Public,1100,victoria dr,London,ON,N5Y4E2
5057ad9fc9672dc983ff,Ontario Institute of Audio Recording Technology,Private Institution,502,newbold street,London,ON,N6E1K6
50a35765e5c7777bb477,London Islamic School,Private,151,oxford st w,London,ON,N6H1S3
527f17af007acd5414e0,Bonaventure Meadows Public School,Public,141,bonaventure dr,London,ON,N5V4S6
528b0bf40565f6e955e2,London International Academy,Private,365,richmond st,London,ON,N6A3C2
54c1526a0e719513cf85,Clara Brenton Public School,Public,1025,st croix ave,London,ON,N6H3X8
56537a06cf607b401c6c,Lester B Pearson School for the Arts,Public,795,trafalgar st,London,ON,N5Z1E6
56a2343486d6d3c64d10,St Michael Separate School,Catholic,926,maitland st,London,ON,N5Y2X1
57cdf48ffa4b10e2935f,École élémentaire Gabriel-Dumont,Public,2463,evans boul,London,ON,N6M0B1
59257d0afc3670574eaa,École élémentaire catholique Monseigneur-Bruyère,Catholic,920,huron rue,London,ON,N5Y4K4
5a98477f645b1e08c655,Thames Valley Alternative Secondary School,Public,70,jacqueline st,London,ON,N5Z3P7
5ba8cbdfb351061b45be,Matthews Hall,Private,1370,oxford st w,London,ON,N6H1W2
61ba894b63feabd60ff4,Nicholas Wilson Public School,Public,927,osgoode dr,London,ON,N6E1C9
6784706e4a3f6f77fd31,Beauty Academy London,Private Institution,785,wonderland rd s,London,ON,N6A4L1
67e92ea042f95d0f95f3,Arthur Stringer Public School,Public,43,shaftesbury ave,London,ON,N6C2Y5
67f13e241972c2c0dd16,Montessori Academy of London,Private,711,waterloo street,London,ON,N6A3W1
68864cfa4964082433ef,Kensal Park Public School,Public,328,springbank dr,London,ON,N6J1G5
6cf19513c20c92f18824,Covenant Christian School,Private,7,howard ave,London,ON,N6P1B8
6e1770f0b396dc72bc3c,Trios College of Business- Technology & Healthcare (London),Private Institution,520,first street,London,ON,N5V3C6
6f2d2eee0a24bd5332a7,St Sebastian Separate School,Catholic,225,cairn st,London,ON,N5Z3W6
711945f3911a9535ccb4,Tecumseh Public School,Public,401,tecumseh ave e,London,ON,N6C1T4
736ef77d7db7107be212,Sir Frederick Banting Secondary School,Public,125,sherwood forest sq,London,ON,N6G2C3
7a3090eb20d0d997f406,Wilton Grove Public School,Public,626,osgoode dr,London,ON,N6E1C1
7adb8d95dc78b252d9eb,C C Carrothers Public School,Public,360,chippendale cres,London,ON,N5Z3G2
7b4c40cd5f44805e0955,St Catherine of Siena Elementary School,Catholic,2140,quarrier rd,London,ON,N6G5L4
7eb24f629855cd0bd4e5,Riverside Public School,Public,550,pinetree dr,London,ON,N6H3N1
7ec0cb4fe7719df24e7c,École élémentaire catholique Ste-Jeanne-d'Arc,Catholic,35,fallons lane,London,ON,N5V5C1
7fccb6a52f949a0aec60,Saunders Secondary School,Public,941,viscount rd,London,ON,N6K1H5
81f203fb92483b9026de,Westminster Central Public School,Public,2835,westminster dr,London,ON,N6N1L7
83b9e26668c3ecf27d62,Wilfrid Jury Public School,Public,950,lawson road,London,ON,N6G3M2
85071bccde0a447d58dd,Trafalgar Public School,Public,919,trafalgar st,London,ON,N5Z1G3
8573d241d54fcc765438,Princess AnneFrench Immersion Public School,Public,191,dawn dr,London,ON,N5W4W9
862c16b8f8ce40fa4861,John P Robarts Public School,Public,84,bow st,London,ON,N5V1B1
87cc2e300c32d274824d,Notre Dame Separate School,Catholic,767,valetta st,London,ON,N6H4N1
8885d2fca8ef22e9f479,Arthur Ford Public School,Public,617,viscount rd,London,ON,N6J2Y4
897526cd5f3bd7a106fe,Sir Isaac Brock Public School,Public,80,st lawrence blvd,London,ON,N6J2X1
898603b5c612e859ff87,Clarke Road Secondary School,Public,300,clarke rd,London,ON,N5W5N4
89b611b1724c5dbdbd73,Jean Vanier Separate School,Catholic,1019,viscount rd,London,ON,N6K1H5
8b1f90a7f3324dc4ff54,Elegance Schools Incorporated-London,Private Institution,,,London,ON,N6H1S6
8c41a0d5803142ca4afe,École élémentaire catholique Saint-Jean-de-Brébeuf,Catholic,270,chelton chemin,London,ON,N6M0B9
8e907a521e1947a43e32,John Paul II Catholic Secondary School,Catholic,1300,oxford st e,London,ON,N5V4P7
918c24c0148c8d1c486b,Jeanne-Sauvé Public School,Public,215,wharncliffe rd n,London,ON,N6H2B6
92204a564ce8e2072dad,West Oaks French Immersion Public School,Public,1050,plantation road,London,ON,N6H2Y5
9338d409b9725884fc98,St Francis School,Catholic,690,osgoode dr,London,ON,N6E2G2
93c0b7349f1742a05831,Orchard Park Public School,Public,50,wychwood park,London,ON,N6G1R6
97c5634acc90d79aae7a,St. Nicholas Senior Separate School,Catholic,1956,shore rd,London,ON,N6K0B4
989ed11d67d529c52a53,B Davison Secondary School Secondary School,Public,785,trafalgar st,London,ON,N5Z1E6
