Index,Facility_Name,Facility_Type,Street_No,Street_Name,City,Prov_Terr,Postal_Code
9badcd54ad1a7c5489a7,St Paul Separate School,Catholic,1090,guildwood blvd,London,ON,N6H4G6
9c18aef9f062fc977921,Tweedsmuir Public School,Public,349,tweedsmuir ave,London,ON,N5W1L5
a096a7c4a739ea61ee0c,Knollwood Park Public School,Public,70,gammage st,London,ON,N5Y2B1
a108592eb17afd6dc271,St Pius X Separate School,Catholic,255,vancouver st,London,ON,N5W4R9
a497a1f04f3c483c115b,Cedar Hollow Public School,Public,1800,cedarhollow blvd,LOndon,ON,N5X0C4
a8189baf98af2f9eeb45,École élémentaire Marie-Curie,Public,40,hunt club dr,London,ON,N6H3Y3
ac2dbfad1848093870c6,W Sherwood Fox Public School,Public,660,steeplechase dr,London,ON,N6J3P4
ae24d395ed0dbf54e53b,Chippewa Public School,Public,1035,chippewa dr,London,ON,N5V2T6
afb27a216fd587b3f519,Blyth Academy London,Private,441,ridout street north,London,ON,N6A2P6
b24a6eca993d9004c7e4,The London School,Private,615,wellington street,London,ON,N6A3R6
b48e918b0ff23a30c8a3,John Dearness Public School,Public,555,sanatorium rd,London,ON,N6H3W6
b565b767e1b696c65144,London Waldorf School,Private,7,beaufort st,London,ON,N6G1A5
b6e8016087503810d1a3,Masonville Public School,Public,25,hillview blvd,London,ON,N6G3A7
b7ac0a58ab80a74b11b4,Byron Southwood Public School,Public,1379,lola st,London,ON,N6K3R6
b8260ae74335c569d8c9,St Mary School,Catholic,347,lyle st,London,ON,N5W3R3
b90277a3aa304e213bab,Montcalm Secondary School,Public,1350,highbury ave n,London,ON,N5Y1B5
b933757a418c6dc692eb,St Anne's Separate School,Catholic,1366,huron st,London,ON,N5V2E2
bb8ed2ab952d73bcd115,Regina Mundi College,Catholic,5250,wellington rd south,London,ON,N6E3X8
bc4dda2c934cb9ae8c77,White Oaks Public School,Public,565,bradley ave,London,ON,N6E3Z8
bc8c6c6a1bd8408e1d66,St Mark Separate School,Catholic,1440,glenora dr,London,ON,N5X1V2
bf3484a0e907625a6518,Evelyn Harrison Public School,Public,50,tewksbury cres,London,ON,N5V2M8
c0e4da544b806abd6348,École élémentaire catholique Frère André,Catholic,400,base line ouest rue,London,ON,N6J1W1
c1cfc484829d3749eae1,St Georges Public School,Public,782,waterloo st,London,ON,N6A3W4
c4b79147598947f4c252,North American Trade School,Private Institution,847,highbury avenue north,London- ON,ON,N5Y5B8
c54dca723993336c2ede,Adventist Christian Elementary School,Private,805,shelborne st,LONDON,ON,N5Z5C6
c699cc09eec59801a35b,Prince Charles Public School,Public,1601,wavell st,London,ON,N5W2C9
c6e4fd1f6b7110ae7798,A B Lucas Secondary School,Public,656,tennent ave,London,ON,N5X1L8
c8e3e73aea0c60d3d5e1,École élémentaire La Pommeraie,Public,3500,settlement trail,London,ON,N6P0B6
c9deab1a1367803e34c4,London Christian Academy,Private,85,charles st,London,ON,N6H1H1
cb755dae735a9c1f9d93,Mountsfield Public School,Public,8,mountsfield dr,London,ON,N6C2S4
cca0185d368a5c853a03,Robarts/Amethyst Demonstration Elementary School,Provincial,1515,cheapside street,London,ON,N5V3N9
cd607be396f7a80e3663,Eagle Heights Public School,Public,284,pxfprd st w,London,ON,N6H1S9
d5d7d38c719408360e11,Stoney Creek Public School,Public,1335,nicole avenue,London,ON,N5X4M7
da215c3eec16e5be814b,St Thomas Aquinas Secondary School,Catholic,1360,oxford st w,London,ON,N6H1W2
db175baa4c4610de2de9,Sir Arthur Currie Public School,Public,2434,buroak drive,London,ON,N6G0L5
dbcbc82b2a35d81fe81d,Byron Northview Public School,Public,1370,commissioners rd w,London,ON,N6K1E1
ddc814eee21d3b2af4a9,Woodland Heights Public School,Public,474,springbank dr,London,ON,N6J1G8
dfe2bb236ea864605526,London Central Secondary School,Public,509,waterloo st,London,ON,N6B2P8
e0ffc943a60dc42fad92,G A Wheable Secondary School,Public,70,jacqueline st,London,ON,N5Z3P7
e1fab1276cbac2684184,eLearning Consortium Canada,Private,86,elmwood avenue east,London,ON,N6C1J5
e33a9611bb46609400be,London South Collegiate Institute,Public,371,tecumseh ave e,London,ON,N6C1T4
e4196bdaf25b0dfcfea5,Infinity School,Private,115,askin st,London,ON,N6C1E7
e6cfae05a455368fa877,Robarts Provincial School for the Deaf,Provincial,1515,cheapside street,London,ON,N5V3N9
f0d5c2b7562cbd1001e8,Victoria Public School,Public,130,wharncliffe rd s,London,ON,N6J2K5
f2fb350a9efc220032de,St Bernadette Separate School,Catholic,155,tweedsmuir ave,London,ON,N5W1K9
f54a2a4289075cd73379,D'Arcy Lane Incorporated,Private Institution,520,first st,London,ON,N5V3C6
f7d08654f228565ab53d,St Anthony Catholic French Immersion School,Catholic,1380,ernest ave,London,ON,N6E2H8
f8c8d7e5f9bc996889d5,St. Kateri Separate School,Catholic,220,sunnyside drive,London,ON,N5X3R1
f8f41d011d4271c7fd8e,Fairmont Public School,Public,1040,hamilton rd,London,ON,N5W1A6
