Index,Facility_Name,Facility_Type,Street_No,Street_Name,City,Prov_Terr,Postal_Code
00b5c33fbc3660773988,St Thomas More Separate School,Catholic,18,wychwood pk,London,ON,N6G1R5
0149053d7ba4ef9f0ee4,Robarts Provincial School for the Deaf,Provincial,1515,cheapside street,London,ON,N5V3N9
02888122be03c86dbf81,Jack Chambers Public School,Public,1650,hastings dr,London,ON,N5X3E3
030c85cc446ef1257a3d,École secondaire catholique École secondaire Monseigneur-Bruyère,Catholic,920,huron rue,London,ON,N5Y4K4
0467eee05cb465c0afcd,Rick Hansen Public School,Public,70,ponderosa cres,London,ON,N6E2L7
07989e03a0e98677dfb8,Sir Arthur Carty Separate School,Catholic,1655,ernest ave,London,ON,N6E2S3
07b135efc6a6f252f8a0,Emily Carr Public School,Public,44,hawthorne rd,London,ON,N6G2H5
090502b606a54a3de1ce,Ryerson Public School,Public,940,waterloo st,London,ON,N6A3X3
0a0ee6f603c994e97854,Marvel Beauty Schools,Private Institution,496,dundas street,London,ON,N6B1W6
0cccf9037495631b205f,St. Andre Bessette Secondary School,Catholic,2727,tokala trail,London,ON,N6G0L8
0d4133856cfc78563c15,Sir George Etienne Cartier Public School,Public,695,chiddington ave,London,ON,N6C2W9
0d79460c29463ce7b4cd,St Marguerite d'Youville School,Catholic,170,hawthorne rd,London,ON,N6G4Z9
0e8c1a73501446e93322,Oakridge Secondary School,Public,1040,oxford st w,London,ON,N6H1V4
0e9e243d6f980310ef9a,Northridge Public School,Public,25,mclean dr,London,ON,N5X1Y2
123d99294d61c0074af8,Aberdeen Public School,Public,580,grey st,London,ON,N6B1H8
14cc85d5044c482d5bd1,Westmount Public School,Public,1011,viscount rd,London,ON,N6K1H5
15c20d7a31b859632782,Blessed Sacrament Separate School,Catholic,1063,oxford st e,London,ON,N5Y3L4
16244343194499e667a9,Robarts/Amethyst Demonstration Secondary School,Provincial,1515,cheapside street,London,ON,N5V3N9
1902c202561fa10a2f8c,Hillcrest Public School,Public,1231,fuller st,London,ON,N5Y4P7
195593f9a42947eaf139,Lord Nelson Public School,Public,1990,royal cres,London,ON,N5V1N8
19d1ea5e1a82c4564347,Académie de la Tamise,Public,1260,dundas rue,London,ON,N5W5P2
1bca79b4dc45dd68dd8b,Catholic Central High School,Catholic,450,dundas st,London,ON,N6B3K3
1cf25934c1b9165c38d7,Glen Cairn Public School,Public,53,frontenac rd,London,ON,N5Z3Y5
1d50c7d56fa1fd12b977,St George Separate School,Catholic,375,lynden cres,London,ON,N6K2J1
20235b026a77355d287e,Louise Arbour French Immersion Public School,Public,365,belfield st,London,ON,N5Y2K3
21e52ea6547a3ee7ca9b,Cleardale Public School,Public,780,dulaney dr,London,ON,N6C3W4
231d5ec43f7f5ee92d43,P.E.B.E.C. School of Esthetics,Private Institution,496,dundas street,London,ON,N2B3C7
249bfc8f05b028d67cd9,Byron Woods Montessori,Private,1468,commissionsers road west,London,ON,N6K1E6
24ed8d366eb31d9fafbc,Sir John A Macdonald Public School,Public,1150,landor st,London,ON,N5Y3W3
29275ee68256a09dc256,Franklin D Roosevelt Public School,Public,560,second st,London,ON,N5V2B7
2a9c96e0c5208cbb022d,Ashley Oaks Public School,Public,121,ashley cres,London,ON,N6E3W2
2c4603a2cc1a17d462ca,London Christian High,Private,24,braesyde ave,London,ON,N5W1V3
2ca8a2d10e17c0e112db,Western University,University,,,London,ON,N6A3K7
2d7fdbc449bc2b9e19e4,Westervelt College - London,Private Institution,303,richmond street,London,ON,N6B2H8
31a80062a4715ef70ae2,Sir Wilfrid Laurier Secondary School,Public,450,millbank dr,London,ON,N6C4W7
32ab99b16e9426fe3c27,Mother Teresa Catholic Secondary School,Catholic,1065,sunningdale rd e,London,ON,N5X4B1
33367f7266e74d8c6506,St Martin Separate School,Catholic,140,duchess ave,London,ON,N6C1N9
35b410a0de56344c5a91,London Christian Elementary School,Private,202,clarke road,London,ON,N5W5E4
36833a99d00a1c262b7f,Blyth Academy Online,Private,100,kellogg lane,London,ON,N5W2T5
36dddd2a280ec376ad83,Holy Family Elementary School,Catholic,329,hudson dr,London,ON,N5V1E4
37ca0c7f22c344de8184,St. John French Immersion School,Catholic,1212,coronation drive dr,London,ON,N6G0B4
39a795d1f6ce4631b8e7,Lambeth Public School,Public,6820,duffield st,London,ON,N6P1A4
3af8a527e80d471d80f1,Lord Roberts Public School,Public,440,princess ave,London,ON,N6B2B3
3cca13d3845932ab520b,Stoneybrook Public School,Public,1460,stoneybrook cres,London,ON,N5X1C4
3cdfe446276ea92ed245,H B Beal Secondary School,Public,525,dundas st,London,ON,N6B1W5
403db6e7ca286409ac15,École secondaire Gabriel-Dumont,Public,2463,boulevard,London,ON,N6M0B1
466126f147ff53e79b5a,East Carling Public School,Public,814,quebec st,London,ON,N5Y1X4
4702dd12636a265c8063,Princess Elizabeth Public School,Public,247,thompson rd,London,ON,N5Z2Z3
473a60c3ed920d04b5e2,University Heights Public School,Public,27,ford cres,London,ON,N6G1H8
