Index,Facility_Name,Facility_Type,Street_No,Street_Name,City,Prov_Terr,Postal_Code
019afa84d228465fe9a4,ÉÉC Frère-André,Catholic,273,cundles est chemin barrie ontario l4m6l1,Barrie,ON,L4M6L1
04307da5f713d67d8184,Allandale Heights Public School,Public,124,bayview dr,Barrie,ON,L4N3P4
04e1a73ac46584b3c525,Holly Meadows Elementary School,Public,151,mapleton ave,Barrie,ON,L4N9N7
04fefe2b14cf6fe506ac,St Michael the Archangel Catholic Elementary School,Catholic,349,big bay point rd,Barrie,ON,L4N8A2
07c486c6fe84aac11930,Bear Creek Secondary School,Public,100,red oak dr,Barrie,ON,L4N9M5
10cd47ce93189869a0e6,Eastview Secondary School,Public,421,grove st e,Barrie,ON,L4M5S1
113a3500c055e96ffd89,Emma King Elementary School,Public,383,cundles rd w,Barrie,ON,L4N7C7
142ca7c5a972ade8d2fc,Steele Street Public School,Public,36,steele st,Barrie,ON,L4M2E7
190766a2b726eeba0d8e,Barrie North Collegiate Institute,Public,110,grove st e,Barrie,ON,L4M2P3
1b7453f4274365eaac5b,École élémentaire Roméo Dallaire,Public,736,essa chemin,Barrie,ON,L4N9E9
225a99c2e6121b457a9a,Sevenoaks Academy,Private,190,cook street,Barrie,ON,L4M4H5
25a86bd2606ae70261da,Maple Grove Public School,Public,242,grove st e,Barrie,ON,L4M2P9
288312d8bbb6732ee6c3,St Catherine of Siena School,Catholic,111,summerset dr,Barrie,ON,L4N0A6
2a4ec8cb311839e31b57,Ardagh Bluffs Public School,Public,159,summerset drive,Barrie,ON,L4N6H2
2e20df783808a7fb8475,Simcoe Shores Secondary School,Public,229,mapleview drive,Barrie,ON,L4N0W5
3ad807de8e18b86253c5,École secondaire Roméo Dallaire,Public,736,essa chemin barrie ontario l4n9e9,Barrie,ON,L4N9E9
4073b5ff874e6e926bdb,Assikinack Public School,Public,226,little ave,Barrie,ON,L4N6L3
4437d6769dab2aa361bd,ÉIC Nouvelle-Alliance,Catholic,249,anne nord rue,Barrie,ON,L4N0B5
4dc9ff5246033fb7df1d,Cundles Heights Public School,Public,60,cundles rd e,Barrie,ON,L4M2Z7
60f454146021169c4160,Barrie Campus,Public,320,bayfield st,Barrie,ON,L4M3C1
6c04cb70b2bc1ee707d3,Warnica Public School,Public,211,warnica rd,Barrie,ON,L4N3Z2
6c6a1d3f292777d83d9f,Hewitt's Creek Public School,Public,41,sandringham drive,Barrie,ON,L4N0J9
6fbb4d2509702c10b8d6,St Marys - Barrie Separate School,Catholic,340,leacock drive,Barrie,ON,L4N6J8
75e0c0f1cfdb1c7e0a0a,St Joseph's Separate School,Catholic,243,cundles rd e,Barrie,ON,L4M6L1
7830194b0a7eefc54fed,Bulldog Kids Academy,Private,576,bryne drive,Barrie,ON,L4N9P6
7f0df8842be3710a9608,Monsignor Clair Separate School,Catholic,345,livingstone st e,Barrie,ON,L4M7B5
7f70406ec16bcbc5a100,W. C. Little Elementary School,Public,11,bear creek dr,Barrie,ON,L4N9M9
8290dc079cf652132574,Ferndale Woods Elementary School,Public,170,ferndale dr s,Barrie,ON,L4N8A1
8dbd756f2fa4383998fe,West Bayfield Elementary School,Public,49,ford st,Barrie,ON,L4N7J4
930eadc91cfa69bd35d3,Portage View Public School,Public,124,letitia st,Barrie,ON,L4N1P5
93795615718a810f860c,St John Vianney Separate School,Catholic,393,innisfil st,Barrie,ON,L4N3G7
94a9019b90f544c59a4b,Terry Fox Elementary School,Public,100,livingstone st,BARRIE,ON,L4M6X9
9e1fc2e286a3e1e7d315,Modern College of Hairstyling & Esthetics-Barrie,Private Institution,400,bayfield street,Barrie,ON,L4M5A1
a3bb52d1c11d6aaf3ac2,Unity Christian High School,Private,25,burton avenue,Barrie,ON,L4N2R3
a41327d85ee356924ec5,École élémentaire La Source,Public,70,madelaine promenade,Barrie,ON,L4N9T2
a60c7323b2dbdf710e12,Algonquin Ridge Elementary School,Public,191,golden meadow rd,Barrie,ON,L4N9R6
a793a62aad0110145d2d,Oxford College of Arts- Business and Technology - Barrie,Private Institution,320,bayfield street b100,Barrie,ON,L4M3C1
a89675c81502bf794f55,Marvel Beauty School,Private Institution,18,cundles road east,Barrie,ON,L4M5L1
ab71a43db2ac5570df2a,St Marguerite d'Youville Elementary School,Catholic,87,hanmer street,Barrie,ON,L4N7H6
ae5202b4723588622db4,Heritage Christian Academy,Private,79,ardagh rd,Barrie,ON,L4N9B6
aea88938febc895efe1d,Codrington Public School,Public,217,codrington st,Barrie,ON,L4M1S4
afacd79e7070e8091c55,Ontario Secondary Arts,Private,,,Barrie,ON,L4N6S7
b02dbe2cab970e8ccc9f,Hillcrest Public School,Public,184,toronto st,Barrie,ON,L4N1V5
bc3e7f700c2d45ea9f2b,Trillium Woods Elementary Public School,Public,20,elmbrook dr,Barrie,ON,L4N0Z1
bf117ea8bc500363da78,Oakley Park Public School,Public,22,davidson st,Barrie,ON,L4M3R8
c4b860b6e59c192e0ad1,Willow Landing Elementary School,Public,330,big bay point rd,Barrie,ON,L4N8A8
c842e44f14dd2fd21369,Hyde Park Public School,Public,72,the queensway,Barrie,ON,L4M7J3
c9dfd7b37f02ccfecfa8,St Bernadette Elementary School,Catholic,101,marsellus dr,Barrie,ON,L4N8R6
cb676be3d467a567638f,St Nicholas School,Catholic,100,lougheed rd,Barrie,ON,L4N8E1
