Index,Facility_Name,Facility_Type,Street_No,Street_Name,City,Prov_Terr,Postal_Code
0a6b7517c9277e5f4f54,Modern College of Hairstyling & Esthetics,Private Institution,34,commerce crt,North Bay,ON,P1B8G4
208696a6da88bc9e7ed9,Canadore College of Applied Ar,Technical and Vocational,100,college dr.,North Bay,ON,P1B8K9
20f15ddcebbec3ba4292,St Hubert Separate School,Catholic,850,lorne ave,North Bay,ON,P1B8M2
2be2468f75d860da3315,E W Norman Public School,Public,599,lake heights rd,North Bay,ON,P1A3A1
2c7d1967a95e16d00d7c,Nipissing University,University,100,college drive,North Bay,ON,P1B8L7
2ee5521f0c9ff5688f48,E T Carmichael Public School,Public,1351,chapais st,North Bay,ON,P1B6M6
3197c248ee509f04616b,W J Fricker Senior Public School,Public,790,norman ave,North Bay,ON,P1B8C4
34ec14e2ed4d2fa82b9f,École secondaire catholique Algonquin,Catholic,555,algonquin avenue,North Bay,ON,P1B4W8
3fb6e94306ac7c97eb8e,Chippewa Intermediate School,Public,539,chippewa st w,North Bay,ON,P1B6G8
48e8d23a23e2e7edf763,École Saint-Raymond,Catholic,22,borge avenue,North Bay,ON,P1A2S7
4c69ad776f82720729cf,St Francis Separate School,Catholic,68,gertrude st,North Bay,ON,P1A1J8
5a0cc6c82f7f31b612b1,École secondaire publique Odyssée,Public,480,norman ave,North Bay,ON,P1B0A8
61c3a12f1b80569f97a3,Woodland Public School,Public,1325,cedargrove drive,North Bay,ON,P1B4S3
68e1029fca8c1bde7196,Mother St Bride School,Catholic,414,second ave w,North Bay,ON,P1B3L2
6a678f77fa9d76003afe,Widdifield Secondary School,Public,320,ski club rd,North Bay,ON,P1B7R2
71397b3d1375ca7edc0e,École élémentaire publique Odyssée,Public,480,norman ave,North Bay,ON,P1B0A8
79b2860787749f3294c4,Holy Cross Catholic School,Catholic,602,lake heights rd,North Bay,ON,P1A2Z8
8280b7c09512781f0f09,Our Lady of Fatima Separate School,Catholic,60,marshall ave,North Bay,ON,P1A1R1
853c5e295a6faeb4d497,Silver Birches Elementary School,Public,65,marshall ave w,North Bay,ON,P1B3L4
94c68e99b48291a90fb1,École publique Héritage,Public,2345,connaught ave,North Bay,ON,P1B0A3
9621ae29b261a5fb13b2,École secondaire catholique Algonquin,Catholic,555,algonquin av,North Bay,ON,P1B4W8
9e563f4e0e64a6ee659d,West Ferris Intermediate,Public,60,marshall park drive,North Bay,ON,P1A2P2
a4236eeea40517c6b595,St Alexander Separate School,Catholic,900,bloem st,North Bay,ON,P1B4Z8
af4092e6e80968404e58,St Joseph-Scollard Hall Secondary School,Catholic,675,o'brien st,North Bay,ON,P1B9R3
bd53df5bdeb95a66ecec,Sunset Park Public School,Public,1191,lakeshore dr,North Bay,ON,P1B8Z4
c29d2fbb4a4341c84514,St. Luke Separate School,Catholic,225,milani road,North Bay,ON,P1B7P4
d0cabef7f557e6e200bd,Vincent Massey Public School,Public,15,janey ave,North Bay,ON,P1C1N1
d453104c3b36c156c9d5,École séparée Saint-Vincent,Catholic,124,king est rue north,North Bay,ON,P1B1P2
d7639e161045f60d84b0,West Ferris Secondary School,Public,60,marshall pk dr,North Bay,ON,P1A2P2
da721d980dc2ce81f3fd,Alliance French Immersion Public School,Public,700,stones st,North Bay,ON,P1B6C1
eb4375093219bf2b2ba3,Chippewa Secondary School,Public,539,chippewa st w,North Bay,ON,P1B6G8
fff2e4e0a2d5edc035bc,École élémentaire catholique Saints-Anges,Catholic,681-b,chippewa ouest rue north,North Bay,ON,P1B6G8
