Index,Facility_Name,Facility_Type,Street_No,Street_Name,City,Prov_Terr,Postal_Code
02fb9446bb964b85c9f8,St Charles Catholic School,Catholic,26,charlotte street,Chelmsford,ON,P0M1L0
03b33c9a204cc6e23124,Cambrian College,Technical and Vocational,1400,barrydown rd.,Sudbury,ON,P3A3V8
04ce77a7cdc43463c4b5,École séparée Sainte-Thérèse,Catholic,4617,sainte-thérèse rue val,Val Therese,ON,P3P1S5
06c49ca5bf6493992cbd,École séparée Saint-Dominique,Catholic,2096,rue sudbury ontario p3a2k8,Sudbury,ON,P3A2K8
09be456e370a65896e13,St Benedict Catholic Secondary School,Catholic,2993,algonquin road,Sudbury,ON,P3E6K2
0cd9688d63dc8904631e,École publique de la Découverte,Public,1450,main rue val,Val Caron,ON,P3N1R8
15c42892e5515b63ff53,Jean Hanson Public School,Public,31,tuddenham ave,Sudbury,ON,P3C3E9
18c37dc424a3c553663c,École publique Jean-Éthier-Blais,Public,2190,lasalle boul,Sudbury,ON,P3A2A8
1918c4dadaf94d8bc581,St. Charles College Elementary,Catholic,1940,hawthorne drive,Sudbury,ON,P3A1M8
195dfa6388c7202810be,École séparée Saint-Joseph,Catholic,1215,st. anthony rue hanmer,Hanmer,ON,P3P1B7
1ae1247c105597333189,Churchill Public School,Public,1722,fielding st,Sudbury,ON,P3A1P1
1c95a9e7adcd5233d327,Bishop Alexander Carter Catholic Secondary School,Catholic,539,francis street,Hanmer,ON,P3P1E6
1dc050912293b84fbb1e,Chelmsford Public School,Public,121,charlotte st,Chelmsford,ON,P0M1L0
2017bd1c6a912d8b4b28,Trillium College - Sudbury,Private Institution,248 40,elm street,Sudbury,ON,P3C1S8
21b3da3f848e5f38f211,Lansdowne Public School,Public,185,lansdowne st,Sudbury,ON,P3C4M1
22ebba876267868c7cda,Lively District Elementary School,Public,265,fifth ave,Lively,ON,P3Y1M4
2465b190da2fa2555760,École séparée Notre-Dame-de-la-Merci,Catholic,2,edward avenue,Coniston,ON,P0M1M0
2667888f2cce26937620,École séparée Félix-Ricard,Catholic,691,lasalle boulevard,Sudbury,ON,P3A1X3
28b9dcca6bc9efd2414c,Ernie Checkeris Public School,Public,1570,agincourt ave,Sudbury,ON,P3A3K3
29b5a95b694b76f3897f,École séparée St-Joseph,Catholic,100,bruyère rue sudbury ontario p3c2v1,Sudbury,ON,P3C2V1
2d238897b2f46fb78b8f,École publique Hélène-Gravel,Public,1412,stephen rue sudbury ontario p3e4l5,Sudbury,ON,P3E4L5
2e439112e804838d04c6,Lockerby Composite School,Public,1391,ramsey view crt,Sudbury,ON,P3E5T4
2e4e7918615185ec5940,École séparée Notre-Dame,Catholic,4503,dennie rue hanmer,Hanmer,ON,P3P1L1
2ef04191433bdacbb75d,Collège Notre-Dame,Catholic,,rue sudbury ontario p3c2h1,Sudbury,ON,P3C2H1
332b35b3203f50611c74,Northeastern Elementary School,Public,45,spruce st,Garson,ON,P3L1P8
333fe58babf8779f7950,École publique Pavillon-de-l'Avenir,Public,370,côté ave,Chelmsford,ON,P0M1L0
3493ebee736aa39846ac,MacLeod Public School,Public,23,walford road,Sudbury,ON,P3E2H2
377efc192b7e704ced32,Queen Elizabeth II Public School,Public,32,dell st,Sudbury,ON,P3C2X8
37c439ab24292cc51ad0,Lo-Ellen Park Elementary School,Public,275,loach's rd,Sudbury,ON,P3E2P8
3addf3cc09b81ee3a025,Marymount Academy Catholic School,Catholic,165,d'youville street,Sudbury,ON,P3C5E7
3ec640c177d13ce938a9,R. H. Murray Public School,Public,3,henry st rr 1,Whitefish,ON,P0M3E0
3f3688e5e7618b89fdb6,Lively District Secondary School,Public,265,fifth ave,Lively,ON,P3Y1M4
3fa27d900bc0b812f794,École séparée Saint-Augustin,Catholic,648,o'neil ouest promenade,Garson,ON,P3L1T6
426f4f387fb6898fb20e,École séparée Saint-Denis,Catholic,1200,ramsey view cour,Sudbury,ON,P3E0E5
4379b98306639f785897,St Paul the Apostle Catholic School,Catholic,1,edward ave,Coniston,ON,P0M1M0
4435e67d6eb19cedb18b,Adult Day School,Public,154,college st,Sudbury,ON,P3C4Y2
4589fd170deecdda85cc,Levack Public School,Public,100,high st,Levack,ON,P0M2C0
461ec1fe6193849d86d0,Holy Trinity School,Catholic,1945,hawthorne drive,Sudbury,ON,P3A0C1
4751ca30f19d4d839d00,St James Catholic School,Catholic,280,anderson drive,Lively,ON,P3Y1M8
4a551653dab53614a09c,Walden Public School,Public,249,sixth ave,Greater Sudbury,ON,P3Y1M4
4a96801434328a2a590d,Laurentian University,University,,ramsey lake rd.,Sudbury,ON,P3E2C6
4c53110e387c0979483b,Holy Cross Catholic School School,Catholic,2997,algonquin rd,SUDBURY,ON,P3E4X5
4c9047e35a2f2a0ef8d4,Alternative Program Elementary School,Public,31,tuddenham ave,Sudbury,ON,P3C3E9
5893ccde654f5e9e0d4d,Arkana Education Sudbury,Private,1060,lynwood drive,Sudbury,ON,P3A3M7
590a67129c46f2afb7c2,R L Beattie Public School,Public,102,loach's rd,Sudbury,ON,P3E2P7
59a64eb99bee5af61a3e,Confederation Elementary School,Public,1918,main street,Val Caron,ON,P3N1R8
5eb8ca2677588a6e5ef1,Algonquin Road Public School,Public,2650,algonquin rd e,Sudbury,ON,P3E4X6
5f02d939ecbe21f6efdc,St Francis Catholic School,Catholic,691,lilac street,Sudbury,ON,P3E4E2
61a9716e9d141640e0b0,Barrydowne College Senior,Public,1400,barrydowne road,Sudbury,ON,P3A3V8
