Index,Facility_Name,Facility_Type,Street_No,Street_Name,City,Prov_Terr,Postal_Code
62c53c5cd2c8a747a4df,Redwood Acres Public School,Public,4625,carl st,Hanmer,ON,P3P1V1
6674c467db1888dbf838,St Anne Separate School,Catholic,4500,st michel street,Hanmer,ON,P3P1M8
7138f010650c2db6dec7,Confederation Secondary School,Public,1918,main street,Val Caron,ON,P3N1B4
71750b249e35b911061f,Pius XII Catholic School,Catholic,44,third avenue,Sudbury,ON,P3B3P8
7a944931de507a541269,École secondaire Hanmer,Public,4800,notre dame ave,Hanmer,ON,P3P1X5
7e0c125541e776a86902,École Cap sur l'Avenir,Public,190,larch rue,Sudbury,ON,P3E1C5
7e37d08b8e53bd480c6c,Alexander Public School,Public,39,st brendan st,Sudbury,ON,P3E1K3
808942ef56f65d542b24,N'Swakamok Native Alternative School,Public,110,elm st,Sudbury,ON,P3C1T6
8673a79f71e5233983d3,École secondaire catholique l'Horizon,Catholic,1650,valleyview chemin,Val Caron,ON,P3N1K7
8be62e741b182d8f8104,Copper Cliff Public School,Public,50,school st,Copper Cliff,ON,P0M1N0
8bfdc0b2fd132c55f47b,Chelmsford Valley District Elementary School,Public,3594,144 hwy,Chelmsford,ON,P0M1L0
9066fd61e132c995ae64,Lasalle Secondary School,Public,1545,kennedy st,Sudbury,ON,P3A2G1
913974343d0acb919eb5,St David Catholic School,Catholic,549,frood road,Sudbury,ON,P3C5A2
9307a29ff8c006b6b6d4,St. Benedict Elementary Catholic School,Catholic,2993,algonquin road,Sudbury,ON,P3E6K2
948212679424e2c42799,Larchwood Public School,Public,43,main st,Dowling,ON,P0M1R0
968c8922318502b739b6,École Alliance St-Joseph,Catholic,3634,errington avenue,Chelmsford,ON,P0M1L0
9ae5ec6c82037bad31f9,Cts Canadian Career College (Sudbury),Private Institution,66,elm st,Sudbury,ON,P3C1R8
9e7bbf30ba46d3655ff3,Modern College of Hairstyling & Esthetics,Private Institution,66,elm st,Sudbury,ON,P3C1R8
a881996dc3e4170106ed,École publique Foyer-Jeunesse,Public,4752,notre dame avenue,Hanmer,ON,P3P1X5
a9fe1073e4b9c11cde9d,École publique Macdonald-Cartier,Public,37,lasalle ouest boul,Sudbury,ON,P3A1W1
b0d846cf90661a4f0346,Chelmsford Valley District Composite School,Public,3594,144 hwy,Chelmsford,ON,P0M1L0
b2ce4893ef60cbb99aca,Lasalle Elementary,Public,1545,kennedy street,Sudbury,ON,P3A2G1
b6e828dbb57cc464c9c6,C R Judd Public School,Public,8,lincoln cres,Capreol,ON,P0M1H0
b7c9a06b2638c68211d9,École secondaire du Sacré-Coeur,Catholic,261,notre-dame avenue,Sudbury,ON,P3C5K4
b7cd20145684e5e87375,École élémentaire catholique Jean-Paul II,Catholic,1795,main rue,Val Caron,ON,P3N1R8
bdf108c2898f0adc6c30,Lo-Ellen Park Secondary School,Public,275,loach's rd,Sudbury,ON,P3E2P8
bdfbed88a8b32dbf07bf,École publique Jeanne-Sauvé,Public,300,van horne rue,Sudbury,ON,P3B1H9
bfe63d0f971ca07ad1a6,Princess Anne Public School,Public,500,douglas st w,Sudbury,ON,P3C1H7
c71324020a96ce5bbace,École publique Franco-Nord,Public,178,junction avenue,Azilda,ON,P0M1B0
cf85e1a067b8fa18318c,College Boreal,Technical and Vocational,21,boulevard lasalle,Sudbury,ON,P3A6B1
cffa29d35afe26f22674,Cyril Varney Public School,Public,1545,gary st,Sudbury,ON,P3A4G5
d4925666693f4ba753e0,École secondaire Catholique Champlain,Catholic,61,brookside chemin,Chelmsford,ON,P0M1L0
db357fc91c1472740ac7,Westmount Avenue Public School,Public,511,westmount ave,Sudbury,ON,P3A1B3
de03ea8366b5cb4e4072,Carl A Nesbitt Public School,Public,1241,roy st,Sudbury,ON,P3A3M5
df58ef0bdcb8cf6faa32,École séparée Saint-Paul,Catholic,185,6e avenue,Lively,ON,P3Y1M4
dfd770452c3d2ff7f607,École séparée St-Étienne,Catholic,79,houle avenue,Dowling,ON,P0M1R0
e93552ceddd91c9a22f4,Carrefour Options +,Catholic,504,rue st-raphael,Sudbury,ON,P3B1M4
ecc88c952cc8d885504d,St John Catholic School,Catholic,181,william street,Garson,ON,P3L1T7
ee460528365664687355,École séparée élémentaire l'Horizon,Catholic,1650,valleyview chemin val,Val Caron,ON,P3N1K7
ee74cf99fe55dd409801,Valley View Public School,Public,1840,valleyview rd,Val Caron,ON,P3N1S1
eebc89fa021b73714b4f,École séparée Saint-Pierre,Catholic,2115,rita rue sudbury ontario p3b1l9,Sudbury,ON,P3B1L9
ef6d75581ea79013880f,St Charles College,Catholic,1940,hawthorne drive,Sudbury,ON,P3A1M8
f2965559b1b7df11e00d,Adamsdale Public School,Public,181,first ave,Sudbury,ON,P3B3L3
f381bc05e94b921d505e,École publique Hanmer,Public,4800,notre dame avenue,Hanmer,ON,P3P1X5
f82b9048d36c535079bf,Marymount Elementary Academy,Catholic,165,d'youville street,Sudbury,ON,P3C5E7
f88c4d12e07fe85ebf3a,École secondaire Macdonald-Cartier,Public,37,lasalle ouest boul,Sudbury,ON,P3A1W1
fc66387709aa132c6ae9,Sudbury Secondary School,Public,154,college st,Sudbury,ON,P3C4Y2
feb81930e99b3295d8d6,Immaculate Conception Catholic School,Catholic,1748,pierre street,Val Caron,ON,P3N1C5
