Index,Facility_Name,Facility_Type,Street_No,Street_Name,City,Prov_Terr,Postal_Code
003b4001af400583efdf,Timmins Centennial Public School,Public,545,wilcox st,Timmins,ON,P4N3K5
018c9a14ad0c795d0e4a,St Joseph Separate School,Catholic,207,huot st.,South Porcupine,ON,P0N1H0
01f0af1d00a9f7b2c752,École catholique St-Jude,Catholic,255,dixon rue porcupine,Porcupine,ON,P0N1C0
0e56f303c127ea419336,École secondaire catholique Theriault,Catholic,341,thériault boulevard,Timmins,ON,P4N7K3
1ebf973f45d7b47c520c,Golden Avenue Public School,Public,117,golden avenue,South Porcupine,ON,P0N1H0
2062a0101d300672200e,École catholique St-Dominique,Catholic,855,park avenue,Timmins,ON,P4N4C5
25c6dc51633dc8957bcd,O'Gorman High School,Catholic,150,george avenue,Timmins,ON,P4N4M1
32de88a86be4f47177ee,École publique Lionel-Gauthier,Public,145,st-jean rue,Timmins,ON,P4R0J7
3acf2920e69bfcc5714f,R Ross Beattie Senior Public School,Public,300,pearl ave,Timmins,ON,P4N7X5
4109a2b639ce10bccdd3,École secondaire Cochrane,Public,310,algonquin avenue,North Bay,ON,P1B4W2
4e8f375b07b1c06720cc,PACE,Public,273,third ave,Timmins,ON,P4N1E2
652112b0abd7f4f593e7,École catholique Jacques-Cartier (Timmins),Catholic,377,maple nord rue,Timmins,ON,P4N6C4
694c1964755088ccaa6c,Bertha Shaw Public School,Public,109,powell ave,South Porcupine,ON,P0N1H0
6b905da13bdeb85926a3,Pope Francis Elementary School Catholic Elementary School,Catholic,387,balsam street,Timmins,ON,P4N6H5
7a19262ac1d826bfb8db,École catholique Anicet-Morin,Catholic,1070,power avenue,Timmins,ON,P4R1B4
7a8241f4a374dead89e4,École secondaire Renaissance,Public,301,shirley n rue,Timmins,ON,P4R1N5
7d00cfe3fde50bd920bb,O'Gorman Intermediate Catholic School,Catholic,490,maclean dr,Timmins,ON,P4N4W6
a42698726f0777294cc4,W Earle Miller Public School,Public,200,victoria ave,Timmins,ON,P4N8G9
add758a8484cb5d133d4,École catholique St-Gérard,Catholic,59,sterling est avenue,Timmins,ON,P4N1R7
b5e459c27671161f29d6,Roland Michener Secondary School,Public,155,legion dr,South Porcupine,ON,P0N1H0
bc6584b759311d187971,NCDSB Access Center Secondary School,Catholic,383,birch street north,Timmins,ON,P4N6E8
bddef007b065522e97f9,Roland Michener Secondary School (Elementary),Public,155,legion dr,South Porcupine,ON,P0N1H0
be012d35213a71344bec,Pinecrest Public School,Public,542,toke st,Timmins,ON,P4N6W1
be2a13b1d219bc58343d,Timmins High and Vocational School,Public,451,theriault blvd,Timmins,ON,P4N8B2
bf595aae9223f4378f05,École publique Pavillon Renaissance,Public,301,shirley rue,Timmins,ON,P4R1N5
c31c0aa027bc2f30b618,École catholique Sacré-Coeur (Timmins),Catholic,560,rue,Timmins,ON,P4N7N4
dfdf8642758bf39289f7,La Clef,Catholic,896,riverside promenade,Timmins,ON,P4N3W2
e503559aaf2c88e3483d,École catholique Louis-Rhéaume,Catholic,600,pine nord rue,Timmins,ON,P4N6M3
e68e15514144b1ec4eab,École catholique Don-Bosco,Catholic,400,lonergan boulevard,Timmins,ON,P4P1C7
f01da55c26c4257342bf,Schumacher Public School,Public,64,croatia ave,Schumacher,ON,P0N1G0
