Index,Facility_Name,Facility_Type,Street_No,Street_Name,City,Prov_Terr,Postal_Code
0041416aa8206f6b2bb6,Holy Angels Learning Centre,Catholic,102,wellington st e,Sault Ste Marie,ON,P6A2L2
0a1ab15b7f4debbdca34,Francis H Clergue Public School,Public,80,weldon ave,Sault Ste Marie,ON,P6B3C6
0a1c04fce0ca39932e96,Isabel Fletcher Public School,Public,599,third line,Sault Ste Marie,ON,P6A6K4
0ceaab999df07aa076ce,Superior Heights Community Education,Public,750,north avenue,Sault Ste Marie,ON,P6B2C5
106082d4cf2e524f8d4d,Holy Family Catholic School,Catholic,42,rushmere dr,Sault Ste Marie,ON,P6C2T4
1ef312e8caae81136dce,École Notre-Dame-du-Sault,Catholic,600,north rue,Sault Ste. Marie,ON,P6B2B9
22e04774d137df15a50f,Our Lady of Lourdes Catholic School,Catholic,319,prentice ave,Sault Ste Marie,ON,P6C4R7
3028f5acebe5b2c7bca8,Algoma Education Connection Secondary School,Public,550,northern ave,Sault Ste Marie,ON,P6B4J4
36ebca39d85ad32e7224,École secondaire Notre-Dame-du-Sault,Catholic,600,north rue,Sault Ste Marie,ON,P6B2B9
4e2a172b95e8386aef01,Algoma University College,University,1520,queen st. e.,Sault Ste. Marie,ON,P6A2G4
5b0d3306f70bda2aa3a0,R M Moore Public School,Public,1272,base line,Sault Ste Marie,ON,P6A6K4
5da17fcfd3399255f38d,Korah Collegiate and Vocational School,Public,636,goulais ave,Sault Ste Marie,ON,P6C5A7
5ebd26df32ff9cb72e6a,White Pines Intermediate School,Public,1007,trunk road,SAULT STE. MARIE,ON,P6A5K9
6178efd214b63dd15a97,St Francis French Immersion Catholic School,Catholic,147,brookfield ave,Sault Ste Marie,ON,P6C5P2
6a74d07afe0378906f55,Korah Intermediate School,Public,636,goulais ave,Sault Ste Marie,ON,P6C5A7
6acd8a1706fc9c32bf6c,H M Robbins Public School,Public,83,east balfour st,Sault Ste Marie,ON,P6C1X4
6cc723d4adc7c508abc0,St Paul Catholic School,Catholic,78,dablon st,Sault Ste Marie,ON,P6B5E6
73e2657402fde7f63ffc,Boreal French Immersion Public School,Public,232,northern ave,Sault Ste Marie,ON,P6B4H6
7513a460519d299d64a6,Superior Heights Collegiate and Vocational School,Public,750,north street,Sault Ste. Marie,ON,P6B2C5
75e56879a96f8a2d4268,East View Public School,Public,75,arizona ave,Sault Ste Marie,ON,P6A4L9
7aed0b6f0c6e603e610f,Queen Elizabeth Public School,Public,139,elizabeth st,Sault Ste Marie,ON,P6A3Z5
81c531d8d0d181ef106d,Grand View Public School,Public,161,denwood dr,Sault Ste Marie,ON,P6A5R4
86010c1d8ca653375955,CTS Canadian Career College-Sault Ste Marie.,Private Institution,100,churchill ave.,Sault Ste. Marie,ON,P6C2R2
8d659995764761c8601a,Parkland Public School,Public,54,amber st,Sault Ste Marie,ON,P6A5G1
962251c87622816425b0,Northern Heights Public School,Public,210,grand blvd,Sault Ste Marie,ON,P6B4S8
a5c3c981976935dfc0e8,Ben R McMullin Public School,Public,24,paradise ave,Sault Ste Marie,ON,P6B5K2
ac6dc2f4d45acb0dfd47,St. Basil Catholic School,Catholic,250,st. george's avenue,Sault Ste. Marie,ON,P6B1X5
b3b752a5bcf3f7eb101b,Kiwedin Public School,Public,735,north st,Sault Ste Marie,ON,P6B2C4
b59b0f7ba04a46b56e92,Greenwood Public School,Public,8,fourth line w,Sault Ste Marie,ON,P6A5K8
c048d2b3bab2d61a453e,École publique Écho-des-Rapides,Public,145,hugill rue sault-ste-marie ontario p6a4e9,Sault-Ste-Marie,ON,P6A4E9
cd88d681cb3e5e8b0d49,St Mary's French Immersion Catholic School,Catholic,124,gibbs st,Sault Ste Marie,ON,P6A5H6
d1cc2877adfaf57ec60a,River View Public School,Public,51,wireless ave,Sault Ste Marie,ON,P6B1L4
d79e71340f32fb834ad4,Superior Heights Intermediate School,Public,750,north street,Sault Ste. Marie,ON,P6B2C5
df84f2d51a6568fe51d9,Meadow Park Montessori School,Private,339,elizabeth street,Sault Ste. Marie,ON,P6B3H3
e033b5bfc7ef20fed84a,Anna McCrea Public School,Public,250,mark st,Sault Ste Marie,ON,P6A3M7
e0e4a3f6b55611642a06,Gates College of Business- Culinary & Healthcare,Private Institution,345,queen st. east,Sault Ste Marie,ON,P6A1Z2
e4df1700ab0a43dc4a6b,St Mary's College Separate School,Catholic,868,second line,Sault Ste Marie,ON,P6B4K4
e6853c1c3ba2292ea0ef,Batchewana Learning Centre,Private,15,jean avenue,Sault Ste Marie,ON,P6B4B1
edae5bd1aaa00e8e72a2,Holy Cross Catholic School,Catholic,16,texas avenue,Sault Ste Marie,ON,P6A4Y8
eebcbdc89b0a30d1318a,Tarentorus Public School,Public,96,northwood st,Sault Ste Marie,ON,P6B4M4
f5768af0a8fee87a9962,Pinewood Public School,Public,3924,queen st e,Sault Ste Marie,ON,P6A5K9
fb5f7b704057b552bce8,True North Christian Academy,Private,707,old goulais bay road,Sault Ste Marie,ON,P6A0B5
fda864b84f2a297f371c,White Pines Collegiate and Vocational School,Public,1007,trunk rd,Sault Ste Marie,ON,P6A5K9
