Index,Facility_Name,Facility_Type,Street_No,Street_Name,City,Prov_Terr,Postal_Code
e833222e37dc94b4c641,GRAY ACADEMY OF JEWISH EDUCATION,,100 123,doncaster street,WINNIPEG,MB,R3N2B4
ea2680d7982d516c26f5,VINCENT MASSEY COLLEGIATE,,975,dowker avenue,WINNIPEG,MB,R3T1R7
ea3f4809d561d8ba0383,ÉCOLE PRÉCIEUX-SANG,,209,rue kenny saint-boniface,SAINT-BONIFACE,MB,R2H2E5
eb667c1f7eb73bebe41c,EMERSON ELEMENTARY,,323,emerson street,WINNIPEG,MB,R2G1G3
eb8a9e6f49a085265535,WEST KILDONAN COLLEGIATE,,101,ridgecrest avenue,WINNIPEG,MB,R2V4T6
ec3f6165302aefb2550e,ARTHUR E. WRIGHT COMMUNITY SCHOOL,,1520,jefferson avenue,WINNIPEG,MB,R2P1K1
ec473fd8d2cf9032ebbf,ÉCOLE ROBERT-BROWNING,,130,boulevard,WINNIPEG,MB,R3K0L8
ec4ad5191d56271ea48d,CHIEF PEGUIS JUNIOR HIGH,,1400,rothesay street,WINNIPEG,MB,R2G1V2
ec87b9bd0b5785e0dc17,COLLICUTT SCHOOL,,75,cottingham street,WINNIPEG,MB,R2V3B5
f00b150587c1ee962767,NELSON MCINTYRE COLLEGIATE,,188,st. mary's road,WINNIPEG,MB,R2H1H9
f0cc0393054d6c562c2a,ÉCOLE SAGE CREEK SCHOOL,,315,sage creek blvd,WINNIPEG,MB,R3X0G4
f16e7e0b119dab2996ee,GORDON BELL HIGH SCHOOL,,3,borrowman place,WINNIPEG,MB,R3G1M6
f36891fc85b22f64159c,TYNDALL PARK COMMUNITY SCHOOL,,2221,king edward street,WINNIPEG,MB,R2R1M5
f3db426d08388b46e664,RADISSON SCHOOL,,1105,winona street,WINNIPEG,MB,R2C2P9
f60a66c3be4fd65ab461,QUEENSTON SCHOOL,,245,queenston street,WINNIPEG,MB,R3N0W6
f650d783c30df86e463f,ÉCOLE GUYOT,,400,croissant willow lake,WINNIPEG,MB,R2J3K2
f724fb3cf2fab6ad102c,BERNIE WOLFE COMMUNITY SCHOOL,,95,bournais drive,WINNIPEG,MB,R2C3Z2
f8429db547c3ce517f8f,HAMPSTEAD SCHOOL,,920,hampstead avenue,WINNIPEG,MB,R2K2A3
f95c7d9a2112e34f4846,CHAMPLAIN SCHOOL,,275,church avenue,WINNIPEG,MB,R2W1B7
fa9da810b7391b2101e0,GROSVENOR SCHOOL,,1045,grosvenor avenue,WINNIPEG,MB,R3M0M8
fac4e4ceb15a15edef46,COLLÈGE LOUIS-RIEL,,585,rue st-jean-baptiste,SAINT-BONIFACE,MB,R2H2Y2
fb091d72f2bc82cd4aa2,OAKENWALD SCHOOL,,666,oakenwald avenue,WINNIPEG,MB,R3T1M4
fb82d837e15f9573e454,ÉCOLE SACRÉ-COEUR,,809,rue furby,WINNIPEG,MB,R3A1T2
fbe9bf830e4889c96e3f,JAMESWOOD ALTERNATIVE SCHOOL,,1,braintree crescent,WINNIPEG,MB,R3J1C7
fbf8ced5babdad3d0329,NORDALE SCHOOL,,99,birchdale avenue,WINNIPEG,MB,R2H1S2
fc81344c1e7455123ec8,BERTRUN E. GLAVIN ELEMENTARY,,166,antrim road,WINNIPEG,MB,R2K3L2
fcffbce9e7863ee29a0b,WESTVIEW SCHOOL,,600,hoka street,WINNIPEG,MB,R2C2V1
fd0b38381c1a955377ff,GEORGE V SCHOOL,,265,grey street,WINNIPEG,MB,R2L1V6
fd0cfa92556265e66a87,STRATHMILLAN SCHOOL,,339,strathmillan road,WINNIPEG,MB,R3J2V6
fd2449a89d1495ecb681,MULVEY SCHOOL,,750,wolseley avenue,WINNIPEG,MB,R3G1C6
fd402deebe5f80f8300d,WHYTE RIDGE ELEMENTARY,,400,scurfield boulevard,WINNIPEG,MB,R3Y1L3
fe05adfcd9c0e360f7ae,RIVERBEND COMMUNITY SCHOOL,,123,red river boulevard west,WINNIPEG,MB,R2V3X9
fee5b6fbe7a5472fa744,ST. GERARD SCHOOL,,40,foster street,WINNIPEG,MB,R2L1V7
ff7756f860714c061639,ISLAND LAKES COMMUNITY SCHOOL,,445,island shore blvd.,WINNIPEG,MB,R3X2B4
ff9bf89de5b18c761699,HOLY GHOST SCHOOL,,319,selkirk avenue,WINNIPEG,MB,R2W2L8
