Index,Facility_Name,Facility_Type,Street_No,Street_Name,City,Prov_Terr,Postal_Code
27f6b5c05ea522034a6c,Northwest Law Enforcement Academy,Private Institution,200 -1821,wellington avenue,Winnipeg,MB,R3H0G4
27f9a93d5546db780639,Criti Care Emergency Medical Services,Private Institution,200,osborne street n.,Winnipeg,MB,R3C1V4
28670fbaa30469018cfa,ARTHUR DAY MIDDLE SCHOOL,,43,whitehall boulevard,WINNIPEG,MB,R2C0Y3
2b59309585c8f8477c8a,ST. JOHN'S-RAVENSCOURT SCHOOL,,400,south drive,WINNIPEG,MB,R3T3K5
3045a2e93ed617b83b51,Traditional Chinese Medicine and Acupuncture College of Manitoba,Private Institution,661,pembina highway,Winnipeg,MB,R3M2L5
30823af0a7235fcae4bd,ÉCOLE HENRI-BERGERON,,363,croissant enfield,WINNIPEG,MB,R2H1C6
33dfdf3e3da48e204916,HUGH JOHN MACDONALD SCHOOL,,567,bannatyne avenue,WINNIPEG,MB,R3A0G8
345cf65a8f48e87eac05,BAIRDMORE SCHOOL,,700,bairdmore boulevard,WINNIPEG,MB,R3T5R3
35893641a7001c9a0906,COLLÈGE SAINT-NORBERT COLLEGIATE,,870,ste. therese avenue,ST. NORBERT,MB,R3V1H8
384b50d3d60e6d4f2fad,ÉCOLE ASSINIBOINE,,175,chemin winston,WINNIPEG,MB,R3J1N1
386024a6d3ab9a5fa976,COLLÈGE PIERRE-ELLIOTT-TRUDEAU,,216,rue redonda,WINNIPEG,MB,R2C1L6
3c9b099eb3028c4fe5b1,RALPH BROWN SCHOOL,,460,andrews street,WINNIPEG,MB,R2W4Y1
3d126fcaaa8a5f039179,ARCHWOOD SCHOOL,,800,archibald street,WINNIPEG,MB,R2J0Y4
3d242a7691c8eea00322,WILLIAM WHYTE SCHOOL,,200,powers street,WINNIPEG,MB,R2W4P3
3e7dd16da993e1f862d0,BUCHANAN SCHOOL,,815,buchanan boulevard,WINNIPEG,MB,R2Y1N1
3f8729774381d2793678,BEAUMONT SCHOOL,,5880,betsworth avenue,WINNIPEG,MB,R3R0J7
404f69abe03e19845989,GONZAGA MIDDLE SCHOOL,,174,maple street north,WINNIPEG,MB,R2W3L4
40c03b8eca26bab55cef,CECIL RHODES SCHOOL,,1570,elgin avenue west,WINNIPEG,MB,R3E1C2
4218752ee76c7a0a2f2f,ST. JOHN BREBEUF SCHOOL,,605,renfrew street,WINNIPEG,MB,R3N1J8
424bfcb1ab4b381fd090,ÉCOLE SIR WILLIAM OSLER,,1600,grant avenue,WINNIPEG,MB,R3N0M5
43dbbafd884d08a60253,ÉCOLE JULIE-RIEL,,316,rue ashworth,WINNIPEG,MB,R2N2L7
46353ff07a366e7583a6,ÉCOLE TACHÉ,,744,rue langevin,SAINT-BONIFACE,MB,R2H2W7
46a9b5408509caade72f,ÉCOLE VISCOUNT ALEXANDER,,810,avenue,WINNIPEG,MB,R3T1G7
46ef1f3f4817049d2fde,JOSEPH TERES SCHOOL,,131,sanford fleming drive,WINNIPEG,MB,R2C5B8
479cc2a0dfa53cb49d45,MARYMOUND SCHOOL,,442,scotia street,WINNIPEG,MB,R2V1X4
487e0365171789072830,OHOLEI TORAH SCHOOL,,1845,mathers avenue,WINNIPEG,MB,R3N0N2
4921b7e850c0eeee2c38,FORT ROUGE SCHOOL,,115,river avenue,WINNIPEG,MB,R3L0A8
494875994c034e67c4fc,SPRINGFIELD HEIGHTS SCHOOL,,505,sharron bay,WINNIPEG,MB,R2G0H8
4b48b4b888dcd8622b09,ÉCOLE LACERTE,,1101,promenade autumnwood,SAINT-BONIFACE,MB,R2J1C8
4bed5dd9ab6db83308c9,SANSOME SCHOOL,,181,sansome avenue,WINNIPEG,MB,R3K0N8
4c4649dd56d66ab26d74,POLSON SCHOOL,,491,munroe avenue,WINNIPEG,MB,R2K1H5
4ca351ccbbef04f774ef,PINKHAM SCHOOL,,765,pacific avenue,WINNIPEG,MB,R3E1G1
4d4de8a9c6a183460179,CHILDREN OF THE EARTH HIGH SCHOOL,,100,salter street,WINNIPEG,MB,R2W4J6
4d7db8c3b8f17a6874c3,CENTRE SCOLAIRE LÉO-RÉMILLARD,,1095,chemin sainte-anne,WINNIPEG,MB,R2N4G5
4d7df9bbfd9a4a5e63d5,MONTROSE SCHOOL,,691,montrose street,WINNIPEG,MB,R3M3M4
4daca4b7b098655d9b6e,Louis Riel School Division Arts and Technology Centre,Technical and Vocational,,5 de bourmont avenue,Winnipeg,MB,R2J1J9
4dbc24bc5588110ebe40,WINDSOR SCHOOL,,80,cunnington avenue,WINNIPEG,MB,R2M0W7
4dfe035ed43c02355f8f,COLLÈGE CHURCHILL,,510,rue hay,WINNIPEG,MB,R3L2L6
4e1ba7469652f48a17e0,PRINCIPAL SPARLING SCHOOL,,1150,sherburn street,WINNIPEG,MB,R3E2N4
501834011b07f3bed387,HENRY G. IZATT MIDDLE SCHOOL,,960,scurfield blvd.,WINNIPEG,MB,R3Y1N6
51255bfa1173ceb58707,ÉCOLE NESS,,3300,ness avenue,WINNIPEG,MB,R2Y0G6
52262ecc0bcfc52a7fa2,GENERAL WOLFE SCHOOL,,661,banning street,WINNIPEG,MB,R3G2G3
524f0452183bc7b9b1aa,PRINCESS MARGARET SCHOOL,,367,hawthorne avenue,WINNIPEG,MB,R2G0H6
527e775a119873a7f3ea,Academy of Learning (Winnipeg North),Private Institution,77,redwood avenue,Winnipeg,MB,R2W5J5
52e1ccaaa1ae4b03aa52,ROBERT H. SMITH SCHOOL,,315,oak street,WINNIPEG,MB,R3M3P8
53fc5b65782f53809f82,NEIL CAMPBELL SCHOOL,,845,golspie street,WINNIPEG,MB,R2K2V5
54eb5e8902fe4a9f7def,MARION SCHOOL,,619,desmeurons street,WINNIPEG,MB,R2H2R1
550eb313294123721d85,NEW DIRECTIONS INC. SCHOOL,,500 717,portage avenue,WINNIPEG,MB,R3G0M8
56b8f2282cf36c5c8476,O. V. JEWITT ELEMENTARY,,66,neville street,WINNIPEG,MB,R2P1W3
