Index,Facility_Name,Facility_Type,Street_No,Street_Name,City,Prov_Terr,Postal_Code
7ae6e0bbf7e19c884ec2,MILES MACDONELL COLLEGIATE,..,757,roch street,WINNIPEG,MB,R2K2R1
7b206752a93ce9b7a69a,SUN VALLEY SCHOOL,..,125,sun valley drive,WINNIPEG,MB,R2G2W4
7be60fddee223cd3cc65,LAVALLEE SCHOOL,..,505,st anne's road,WINNIPEG,MB,R2M3E5
7c2bbd3af2c021a86a97,KING EDWARD COMMUNITY SCHOOL,..,825,selkirk avenue,WINNIPEG,MB,R2X2Y6
7ca418cd7caa63e6021a,Yellowquill College,Private Institution,480,madison street,Winnipeg,MB,R3J1J1
8080c3b622432901be64,R.B. Russell Vocational High School,Technical and Vocational,364,dufferin avenue,Winnipeg,MB,R2W2Y3
819c947a21392baa4c3b,SHKOLA R.F. MORRISON SCHOOL,..,25,morrison street,WINNIPEG,MB,R2V3B3
82e39df039e466e6a32d,Aveda Institute Winnipeg,Private Institution,80,rorie street,Winnipeg,MB,R3B3L6
82fc7a16bdd6bc657fb8,VICTOR H.L. WYATT SCHOOL,..,485,meadowood drive,WINNIPEG,MB,R2M5C1
83cd7f743670c3922198,LINCOLN MIDDLE SCHOOL,..,3180,mcbey avenue,WINNIPEG,MB,R3K0T7
85bf066e62be9e45ea98,ATHLONE SCHOOL,..,110,athlone drive,WINNIPEG,MB,R3J3L4
85c070f5e6b18efd28da,H. C. AVERY MIDDLE SCHOOL,..,10,marigold bay,WINNIPEG,MB,R2V2M1
882c94d5cfd78fdca368,ST. JAMES COLLEGIATE,..,1900,portage avenue,WINNIPEG,MB,R3J0J1
886768b014d38fdce23c,ÉCOLE VAN BELLEGHEM,..,10,chemin vermillion,WINNIPEG,MB,R2J2T1
897668dc6cbdb9adf0dc,J. H. BRUNS COLLEGIATE,..,250,lakewood boulevard,WINNIPEG,MB,R2J3A2
897aad6844be92228bb1,ÉCOLE BELMONT,..,525,avenue,WINNIPEG,MB,R2V0Z6
8cb7765dd7bdae8fba88,Wellington College of Remedial Massage Therapies Inc,Private Institution,435,berry street,Winnipeg,MB,R3J1N6
8cc792a573465a56036f,M.C. College,Private Institution,575,wall street,Winnipeg,MB,R3G2T5
8fcc6d6dbc933dfa5260,MINNETONKA SCHOOL,..,200,minnetonka street,WINNIPEG,MB,R2M3Y6
904a0e44d8a02c9e0aab,ELMWOOD HIGH,..,505,chalmers avenue,WINNIPEG,MB,R2L0G4
904fede99b6489c17131,Canadian Mennonite University,University,500,shaftesbury boulevard,Winnipeg,MB,R3P2N2
911db40f633f04cc115c,CLIFTON SCHOOL,..,1070,clifton street,WINNIPEG,MB,R3E2T7
963f6c10bc15bebde5f3,NIJI MAHKWA SCHOOL,..,450,flora avenue,WINNIPEG,MB,R2W2R8
983dc415438ba9b40b80,CLINICAL SUPPORT SERVICES,..,1075,wellington avenue,WINNIPEG,MB,R3E0J7
986fbada6f2f66420bdd,Universite de Saint-Boniface,University,200,ave de la cathedrale,Saint-Boniface,MB,R2H0H7
9a45c8a74074938838e6,MAPLES COLLEGIATE,..,1330,jefferson avenue,WINNIPEG,MB,R2P1L3
9b2137f871186da6caf5,ST. AIDAN'S CHRISTIAN SCHOOL,..,418,aberdeen avenue,WINNIPEG,MB,R2W1V7
9daef14c93c1c1aa2e3e,ST. IGNATIUS SCHOOL,..,239,harrow street,WINNIPEG,MB,R3M2Y3
9e30070007782232abe4,JOHN M. KING SCHOOL,..,525,agnes street,WINNIPEG,MB,R3G1N7
9e9a6f622f220541e810,GOLDEN GATE MIDDLE SCHOOL,..,330,bruce avenue,WINNIPEG,MB,R3J0V8
9f282088a2f9d3e8ca6b,WINNIPEG S.D. SUMMER SCHOOL,..,401,church avenue,WINNIPEG,MB,R2W1C4
9f2e477601ee08556fe7,R.B. RUSSELL VOCATIONAL SCHOOL,..,364,dufferin avenue,WINNIPEG,MB,R2W2Y3
a05c125c193112f81de9,ÉCOLE BANNATYNE,..,363,promenade thompson,WINNIPEG,MB,R3J3E5
a18ec984a4d90060be11,ÉCOLE DIEPPE,..,530,chemin dieppe,WINNIPEG,MB,R3R1C4
a29942f4193dee458a8a,LORD NELSON SCHOOL,..,820,mcphillips street,WINNIPEG,MB,R2X2J7
a2fca2626ec7fe2eddb5,NIAKWA PLACE SCHOOL,..,200,pebble beach road,WINNIPEG,MB,R2J3K3
a342c6a3adf42839c06c,NORQUAY SCHOOL,..,132,lusted avenue,WINNIPEG,MB,R2W2P2
a34b404ec6c03628d9f6,GARDEN GROVE SCHOOL,..,2340,burrows avenue,WINNIPEG,MB,R2R1W1
a361fc98461b09d6cb2a,ST. ALPHONSUS SCHOOL,..,343,munroe avenue,WINNIPEG,MB,R2K1H2
a531aca69080d2808738,TECH-VOCATIONAL HIGH SCHOOL,..,1555,wall street,WINNIPEG,MB,R3E2S2
a58a1b36e3983411e4f4,DALHOUSIE SCHOOL,..,262,dalhousie drive,WINNIPEG,MB,R3T2Z1
a606d49880617fdd9421,SHAUGHNESSY PARK SCHOOL,..,1641,manitoba avenue,WINNIPEG,MB,R2X0M3
a607570e5106adec8342,WINNIPEG SOUTH ACADEMY,..,870,scotland ave,WINNIPEG,MB,R3M1X8
a63bf81706c372aa72ca,SOUTHEAST COLLEGIATE,..,1301,lee blvd,WINNIPEG,MB,R3T5W8
a78a0f482a454a0d7a29,ACADÉMIE ISLAMIQUE DU MANITOBA,..,208,provencher blvd,WINNIPEG,MB,R2H3B4
a7a710357060a18d6ffe,GENERAL VANIER SCHOOL,..,18,lomond boulevard,WINNIPEG,MB,R2J1Y2
a7a855725d8f769f6fb8,ST. JOSEPH THE WORKER SCHOOL,..,505,brewster street,WINNIPEG,MB,R2C2W6
a7ebc438b44731fe05c6,MARGARET PARK SCHOOL,..,385,cork avenue,WINNIPEG,MB,R2V1R6
a82a23c3a5e3b2ac22c9,ST. EDWARD'S SCHOOL,..,836,arlington street,WINNIPEG,MB,R3E2E4
