Index,Facility_Name,Facility_Type,Street_No,Street_Name,City,Prov_Terr,Postal_Code
a8d055f4e7dd04f8d977,SHAFTESBURY HIGH,..,2240,grant avenue,WINNIPEG,MB,R3P0P7
a9074d74f195aa1bbd13,ÉCOLE HOWDEN,..,150,chemin howden,WINNIPEG,MB,R2J1L3
a9f3f8ea41a84b9cefb3,LAURA SECORD SCHOOL,..,960,wolseley avenue,WINNIPEG,MB,R3G1E7
aa77e3b88d41e4710b50,MANITOBA YOUTH CENTRE,..,170,doncaster street,WINNIPEG,MB,R3N1X9
ab10e414f7d5b7614dca,WINNIPEG ADULT EDUCATION CENTRE,..,310,vaughan street,WINNIPEG,MB,R3B2N8
abf4c2ebc71ce4d6fbd2,ÉCOLE VARENNES,..,22,avenue varennes,WINNIPEG,MB,R2M0N1
ac4943f388f9f17356d3,SHAMROCK SCHOOL,..,831,beaverhill boulevard,WINNIPEG,MB,R2J3K1
ae0100ec0a675ef9e74e,ST. PAUL'S HIGH SCHOOL,..,2200,grant avenue,WINNIPEG,MB,R3P0P8
ae3c89de8cc8cf9a43b6,OAK PARK HIGH,..,820,charleswood road,WINNIPEG,MB,R3R1K6
ae757afa00a181b5724b,ÉCOLE SAINT-NORBERT IMMERSION,..,900,avenue sainte-thérèse,ST. NORBERT,MB,R3V1H8
af42ff660270507973cb,GLENLAWN COLLEGIATE,..,770,st mary's road,WINNIPEG,MB,R2M3N7
af987252e52783328327,RIVER ELM SCHOOL,..,500,riverton avenue,WINNIPEG,MB,R2L0N9
afd597d40d89d335c805,WINNIPEG MENNONITE ELEMENTARY,..,250,bedson street,WINNIPEG,MB,R3K1R7
b03434a69579d8a34afd,LAIDLAW SCHOOL,..,515,laidlaw boulevard,WINNIPEG,MB,R3P0L2
b0ca41cc6cb63c2b43f6,Evolve College of Massage Therapy,Private Institution,,,Winnipeg,MB,R3G3P4
b2a0175b85f64b8ec0b7,GENERAL BYNG SCHOOL,..,1250,beaumont street,WINNIPEG,MB,R3T0L8
b2c0144598f0d8b14ca3,VAN WALLEGHEM SCHOOL,..,1,princemere road,WINNIPEG,MB,R3P1K9
b32cb1f5aaa01d1f3b48,WINDSOR PARK COLLEGIATE,..,1015,cottonwood road,WINNIPEG,MB,R2J1G3
b33dbbd939cf45f2432b,FARADAY SCHOOL,..,405,parr street,WINNIPEG,MB,R2W5G1
b396aa73cc54b94e05d0,EDUCATIONAL SUPPORT SERVICES,..,1,braintree crescent,WINNIPEG,MB,R3J1C7
b3f72b9bf7c586c5a230,HARROW SCHOOL,..,550,harrow street,WINNIPEG,MB,R3M3A2
b4541771981343d0f00f,PRINCE CHARLES EDU. RESOURCE CENTRE,..,1075,wellington avenue,WINNIPEG,MB,R3E0J7
b559a122884c3e236010,BROCK-CORYDON SCHOOL,..,1510,corydon avenue,WINNIPEG,MB,R3N0J6
b58d46d28c6b4f0fcf4b,ÉCOLE SAINT-AVILA,..,633,avenue patricia,WINNIPEG,MB,R3T3A8
b5fbdeae181fb3095490,ÉCOLE REGENT PARK,..,411,rue moroz,WINNIPEG,MB,R2C2X4
b634e4076317634463ed,ÉCOLE SAINT-GERMAIN,..,77,chemin john forsyth,WINNIPEG,MB,R2N1R3
b69be5564382a81b58ba,ÉCOLE CHARLESWOOD SCHOOL,..,505,oakdale drive,WINNIPEG,MB,R3R0Z9
b7c51d7b51a3927ae208,COLLÈGE STURGEON HEIGHTS COLLEGIATE,..,2665,ness avenue,WINNIPEG,MB,R3J1A5
b9e482e69028e7c8d1f5,THE KING'S SCHOOL,..,851,panet road,WINNIPEG,MB,R2K4C9
ba9c06860e93889d54af,GLADSTONE SCHOOL,..,500,gertrude avenue,WINNIPEG,MB,R3L0M8
bb26dd2e54afaf0af143,STRATHCONA SCHOOL,..,233,mckenzie street,WINNIPEG,MB,R2W4Z2
bc2c6a4fd10055670b74,ÉCOLE MARIE-ANNE-GABOURY,..,95,rue pulberry,WINNIPEG,MB,R2M3X5
bc811f9b72e511cf212f,RALPH MAYBANK SCHOOL,..,20,donnelly street,WINNIPEG,MB,R3T0S4
bdae6af35740296fd263,DAKOTA COLLEGIATE,..,661,dakota street,WINNIPEG,MB,R2M3K3
bebabf1e496ff75e6bfb,WAPASKWA VIRTUAL COLLEGIATE,..,1100,waverley street,WINNIPEG,MB,R3T3X9
bf3293bc9acf15c2b432,STANLEY KNOWLES SCHOOL,..,2424,king edward street,WINNIPEG,MB,R2R2R2
bfbd56c376c913f5d6d3,ÉCOLE TUXEDO PARK,..,2300,avenue corydon,WINNIPEG,MB,R3P0N6
c08e961686e170875ae4,IMMANUEL CHRISTIAN SCHOOL,..,215,rougeau avenue,WINNIPEG,MB,R2C3Z9
c14635ed59307024e704,BEHAVIOURAL HEALTH FOUNDATION,..,35,ave de la digue,ST. NORBERT,MB,R3V1L6
c4d0ab2c168116ad27e3,INKSTER SCHOOL,..,633,inkster boulevard,WINNIPEG,MB,R2W0L3
c4e2610278cd90a2cb80,BEAVERLODGE SCHOOL,..,6691,rannock avenue,WINNIPEG,MB,R3R1Z3
c50149f243631b745494,St. Andrew's College,Private Institution,29,dysart road,Winnipeg,MB,R3T2M7
c504e6212e1d8ce0bbf5,STEVENSON SCHOOL,..,1777,silver avenue,WINNIPEG,MB,R3J1B1
c5971d7e7788a1842195,St. James-Assiniboia Continuing Education,Technical and Vocational,470,hamilton avenue,Winnipeg,MB,R2Y0H4
c7dc983870340a953aef,ÉCOLE JAMES NISBET COMMUNITY SCHOOL,..,70,doubleday drive,WINNIPEG,MB,R2P0P4
c826adb0b124a11c38f6,RIVER WEST PARK SCHOOL,..,30,stack street,WINNIPEG,MB,R3R2H3
c889faf6ec6e1947e893,CHANCELLOR ELEMENTARY,..,1520,chancellor drive,WINNIPEG,MB,R3T4P8
c9eb0dc7b545ebf2e7b3,Academy of Learning (South),Private Institution,297,st mary's road,Winnipeg,MB,R2H1J5
ca3c91f760567fd4a8a1,CHRIST THE KING SCHOOL,..,12,lennox avenue,WINNIPEG,MB,R2M1A6
