Index,Facility_Name,Facility_Type,Street_No,Street_Name,City,Prov_Terr,Postal_Code
ca3c91f760567fd4a8a1,CHRIST THE KING SCHOOL,..,12,lennox avenue,WINNIPEG,MB,R2M1A6
cb6552f9d23fc4607436,LUXTON SCHOOL,..,111,polson avenue,WINNIPEG,MB,R2W0M5
cc267e0f4c3e66f0fd90,LORD SELKIRK SCHOOL,..,170,poplar avenue,WINNIPEG,MB,R2L2B6
ccc39120b2d1c196425e,?COLE NO?L-RITCHOT,..,45,avenue de la digue,Saint-Norbert,MB,R3V1M7
cd25a41a5fdf875e5189,VICTORIA-ALBERT SCHOOL,..,110,ellen street,WINNIPEG,MB,R3A1A1
cdf4e9c6826b1dbac8d0,LORD ROBERTS COMMUNITY SCHOOL,..,665,beresford avenue,WINNIPEG,MB,R3L1J9
cfd4015fd7700f6cc27d,University of Manitoba,University,,,Winnipeg,MB,R3T2N2
d09afd2a555c26119876,Commonwealth College Inc,Private Institution,294,william avenue,Winnipeg,MB,R3B0R1
d0a850100faa5a0ade13,ÉCOLE LANSDOWNE,..,715,rue wiginton,WINNIPEG,MB,R2X2G2
d23529381af1d8b62fbe,JOHN TAYLOR COLLEGIATE,..,470,hamilton avenue,WINNIPEG,MB,R2Y0H4
d26c9520c7cb982d641e,RIVER EAST COLLEGIATE,..,295,sutton avenue,WINNIPEG,MB,R2G0T1
d2c86c2484a2e8006c6d,ST. JOHN'S HIGH SCHOOL,..,401,church avenue,WINNIPEG,MB,R2W1C4
d331b15107fd5de2249d,BROOKLANDS SCHOOL,..,1950,pacific avenue w,WINNIPEG,MB,R2R0G4
d39b16f4319b76cb319d,ST. CHARLES INTERPAROCHIAL SCHOOL,..,331,st charles street,WINNIPEG,MB,R3K1T6
d4390d4eb828945039f2,ÉCOLE CRANE,..,888,avenue crane,WINNIPEG,MB,R3T1T9
d47bf761dfcbc5e84342,ACADIA JUNIOR HIGH SCHOOL,..,175,killarney avenue,WINNIPEG,MB,R3T3B3
d6a80c551398e0673d49,DR. D. W. PENNER SCHOOL,..,121,hazelwood crescent,WINNIPEG,MB,R2M4E4
d6b3cc10077ec3d2067d,École Nord-Est,,851,Chemin Panet,Winnipeg,MB,R2K4C
d6c06f714db157cbf2da,NELSON MCINTYRE COLL. SUMMER SCHOOL,..,188,st mary's road,WINNIPEG,MB,R2H1H9
d7d2f54912896aac9629,ISAAC NEWTON SCHOOL,..,730,aberdeen avenue,WINNIPEG,MB,R2W1W9
d8138855c2e5ba206e95,Hua Xia Acupuncture- Massage- Herb College,Private Institution,2810,pembina hwy,Winnipeg,MB,R3T2H8
d8530f50b5993c1cd0e3,CHURCHILL HIGH SCHOOL,..,510,hay street,WINNIPEG,MB,R3L2L6
d92147eac0af213959df,VALLEY GARDENS JUNIOR HIGH,..,220,antrim road,WINNIPEG,MB,R2K3L2
d929d851abf84b743fc5,ÉCOLE LA VÉRENDRYE,..,290,rue lilac,WINNIPEG,MB,R3M2T5
d9c914d3218069d67547,DIAGNOSTIC LEARNING CENTRE,..,170,ashland ave,WINNIPEG,MB,R3L1L1
d9e1ba0ee3d70e94284e,ROBERTSON SCHOOL,..,550,robertson street,WINNIPEG,MB,R2X2C4
da6b58044d1996c88aea,MANITOBA SCHOOL FOR THE DEAF,..,242,stradford street,WINNIPEG,MB,R2Y2C9
dafdfd0ccb1dd89d14ec,ÉCOLE LEILA NORTH COMMUNITY SCHOOL,..,20,allan blye drive,WINNIPEG,MB,R2P2S5
db833c0e82d713ca0bda,FORT RICHMOND COLLEGIATE,..,99,killarney avenue,WINNIPEG,MB,R3T3B3
db850579a6c057756dfc,MANITOBA INSTITUTE OF TRADES AND TECH.,..,130,henlow bay,WINNIPEG,MB,R3Y1G4
dbeb4b0c809440848265,ALHIJRA ISLAMIC SCHOOL,..,410,desalaberry avenue,WINNIPEG,MB,R2L0Y7
dc200c3dbfb6e54b5f02,The Salon Professional Academy,Private Institution,,,Winnipeg,MB,R3G3P2
dcfdd825007189d305c2,IQRA ISLAMIC,..,404,webb place,WINNIPEG,MB,R3B3J4
dd52559c611322f661c8,WESTDALE JUNIOR HIGH,..,6720,betsworth avenue,WINNIPEG,MB,R3R1W3
dd6221114aac33ea6882,NOVA MONTESSORI,..,,,WINNIPEG,MB,R3V1T7
dd7220d6cc18a89e0bec,BALMORAL HALL SCHOOL,..,630,westminster avenue,WINNIPEG,MB,R3C3S1
dda2e8d0dc284388ac1b,Louis Riel Vocational College,Private Institution,,,Winnipeg,MB,R3B0J7
dea7d4841d518b1f75fd,Booth University College,Private Institution,447,webb place,Winnipeg,MB,R3B2P2
dec4baa91009fadff28b,HASTINGS SCHOOL,..,50,hastings boulevard,WINNIPEG,MB,R2M3X5
df0d9164064a685b2084,RYERSON ELEMENTARY,..,10,ryerson avenue,WINNIPEG,MB,R3T3P9
df22fabdd3f72decc668,MONTESSORI LEARNING CENTRES INC.,..,170,ashland avenue,WINNIPEG,MB,R3L1L1
df45bba6a0dbb6117862,GRANT PARK HIGH SCHOOL,..,450,nathaniel street,WINNIPEG,MB,R3M3E3
e037765c0507d7b5228b,ST. GEORGE SCHOOL,..,151,st george road,WINNIPEG,MB,R2M3J2
e05e4794e1ed9876a7d8,KILDONAN-EAST COLLEGIATE,..,845,concordia avenue,WINNIPEG,MB,R2K2M6
e1ac65d94ccf502280e3,EDMUND PARTRIDGE COMMUNITY SCHOOL,..,1874,main street,WINNIPEG,MB,R2V2A6
e1d16a575aa21ceb1a67,UNIVERSITY OF WINNIPEG COLLEGIATE,..,515,portage avenue,WINNIPEG,MB,R3B2E9
e330006f897a3ba13c71,EARL GREY SCHOOL,..,340,cockburn street north,WINNIPEG,MB,R3M2P5
e45f38181dd46742d45a,BRUCE MIDDLE SCHOOL,..,333,booth drive,WINNIPEG,MB,R3J3M8
e520b20fe41dbc87a5f7,SARGENT PARK SCHOOL,..,1070,dominion street,WINNIPEG,MB,R3E2P4
