Index,Facility_Name,Facility_Type,Street_No,Street_Name,City,Prov_Terr,Postal_Code
582aa108b80eced21401,SISLER HIGH SCHOOL,,1360,redwood avenue,WINNIPEG,MB,R2X0Z1
595aac60811b3da3b924,Manitoba Institute of Trades and Technology,Technical and Vocational,7,fultz boulevard,Winnipeg,MB,R3Y1G4
59b76fdcb20c5575e5ba,FRONTENAC SCHOOL,,866,autumnwood drive,WINNIPEG,MB,R2J1C1
5a6ae729ca5e7d48b790,LAKEWOOD SCHOOL,,55,kay crescent,WINNIPEG,MB,R2Y1L1
5ce9d182ed94dc894d44,PARADISE MONTESSORI SCHOOL,,1341,kenaston blvd.,WINNIPEG,MB,R3P2P2
5f2146e4e3a23f70811b,ÉCOLE CONSTABLE EDWARD FINNEY SCHOOL,,25,anglia avenue,WINNIPEG,MB,R2P2R1
600fabf9d64f9f032de8,LA BARRIERE CROSSINGS SCHOOL,,245,lemaire street,ST. NORBERT,MB,R3V1M2
601aedc616107008cc95,INFORM NET,,181,henlow bay,WINNIPEG,MB,R3Y1M7
60310eee673e608ae258,COLLÈGE BÉLIVEAU,,296,chemin speers,WINNIPEG,MB,R2J1M7
61e54d21f213c5c5b1dd,Willis College,Private Institution,200-464,hargrave street,Winnipeg,MB,R3A0X5
629ce2dc7c3afbd87b31,CALVIN CHRISTIAN SCHOOL,,245,sutton avenue,WINNIPEG,MB,R2G0T1
632bc20c3a9c6644caab,JOBWORKS ALTERNATIVE HIGH SCHOOL,,1175,pembina highway,WINNIPEG,MB,R3T2A5
65a5453e4dbaf8da1118,GREENWAY SCHOOL,,390,burnell street,WINNIPEG,MB,R3G2A8
65df14f8a2cb45ab512c,LINWOOD SCHOOL,,266,linwood street,WINNIPEG,MB,R3J2C6
664cedf8d79e1c7ddc6e,University of Winnipeg,University,515,portage avenue,Winnipeg,MB,R3B2E9
67ada50deb33f9f78122,DONWOOD SCHOOL,,400,donwood drive,WINNIPEG,MB,R2G0X4
68fe344e35057b9877b6,PRINCE EDWARD SCHOOL,,649,brazier street,WINNIPEG,MB,R2K2N4
694b01f522662836f56e,COLLÈGE JEANNE-SAUVÉ,,1128,rue dakota,WINNIPEG,MB,R2N3T8
6a189a7dadea17afc54b,SALISBURY MORSE PLACE SCHOOL,,795,prince rupert avenue,WINNIPEG,MB,R2K1W6
6a2eca643c95810a6fc3,INTERDIVISIONAL STUDENT SERVICES,,1075,wellington avenue,WINNIPEG,MB,R3E0J7
6a911c9587a43a968d3d,ÉCOLE PROVENCHER,,320,avenue de la cathédrale,WINNIPEG,MB,R2H0J4
6ae8506028e0a6e24a57,ELWICK COMMUNITY SCHOOL,,30,maberley road,WINNIPEG,MB,R2P0B2
6b82fb162e64efa20fca,RIVERVIEW SCHOOL,,253,maplewood avenue,WINNIPEG,MB,R3L2L4
6c7447f6ad36ab66b1dd,CHILDREN'S HOUSE,,150,pacific avenue,WINNIPEG,MB,R3B3K8
6cfc52484a7b943f935e,Herzing College,Private Institution,1700,portage ave.,Winnipeg,MB,R3J0E1
6e594a9e17a9d87aff95,MACHRAY SCHOOL,,320,mountain avenue,WINNIPEG,MB,R2W1K1
6ea2f4110bd160b9f931,BEAUTIFUL SAVIOR LUTHERAN SCHOOL,,52,birchdale ave.,WINNIPEG,MB,R2H1R9
6eb46098b0d3548ead0d,ST. BONIFACE DIOCESAN HIGH SCHOOL,,282,dubuc street,WINNIPEG,MB,R2H1E4
6f4cb19fbf8a275b5670,Code of Excellence Training Centre - Local IBEW 2085,Private Institution,550,notre dame avenue,Winnipeg,MB,R3B1S4
6f5dcab5f5af5d955a91,LOUIS RIEL S.D. ARTS AND TECHNOLOGY CTR.,,5,debourmont avenue,WINNIPEG,MB,R2J1J9
6f71f1740c5a84ea2c2b,PACIFIC JUNCTION SCHOOL,,715,cathcart street,WINNIPEG,MB,R3R3M7
70148e6a82399c2cace4,WESTWOOD COLLEGIATE,,360,rouge road,WINNIPEG,MB,R3K1K3
70df594f9d2be7dffeed,WINNIPEG MONTESSORI SCHOOL INC.,,1525,wilson place,WINNIPEG,MB,R3T4H1
71709c16d4a72e52443b,CHN College Inc.,Private Institution,670,main street,Winnipeg,MB,R3B1E4
71ce665e225b10ad2e6b,MONTCALM SCHOOL,,120,tecumseh street,WINNIPEG,MB,R3E2A9
71f988d0fce9989e1b7b,R.H.G. BONNYCASTLE SCHOOL,,1100,chancellor drive,WINNIPEG,MB,R3T4W8
73e0a01ac395e7ce89e9,MET SCHOOL,,640,jefferson avenue,WINNIPEG,MB,R2V0P7
74c457200eddaa5dca4f,MUNROE JUNIOR HIGH SCHOOL,,405,munroe avenue,WINNIPEG,MB,R2K1H5
74c55c4b483790e1f4dc,TWELVE TRIBES SCHOOL,,89,east gate,WINNIPEG,MB,R3C2C2
74f7e5c58241d4fde626,DAVID LIVINGSTONE SCHOOL,,270,flora avenue,WINNIPEG,MB,R2W2P9
76488e67af436ad030a5,J. B. MITCHELL SCHOOL,,1720,john brebeuf place,WINNIPEG,MB,R3N0M1
7693f163846d37e066f7,IMMACULATE HEART OF MARY SCHOOL,,650,flora avenue,WINNIPEG,MB,R2W2S5
77445c83fbe444db08f8,MENNONITE BRETHREN COLLEGIATE INST.,,173,talbot avenue,WINNIPEG,MB,R2L0P6
77ee36d3d1e244e4f6de,FREEDOM INTERNATIONAL SCHOOL,,376,notre dame avenue,WINNIPEG,MB,R3B1P8
78341074fed28db6c085,SHERWOOD SCHOOL,,509,grey street,WINNIPEG,MB,R2K2Z1
78f39f1ae8b3d1434e7a,Centre for Christian Studies,Private Institution,60,maryland street,Winnipeg,MB,R3G1K7
790956026c03aea378d8,KENT ROAD SCHOOL,,361,kent road,WINNIPEG,MB,R2L1X9
79a6e7506f6daa27daca,ANDREW MYNARSKI V.C. SCHOOL,,1111,machray avenue,WINNIPEG,MB,R2X1H6
79fb98b5cc61d8500685,VICTOR MAGER SCHOOL,,81,beliveau road,WINNIPEG,MB,R2M1S6
