Index,Facility_Name,Facility_Type,Street_No,Street_Name,City,Prov_Terr,Postal_Code
01cfad8712d2f26f1867,WAYOATA SCHOOL,..,605,wayoata street,WINNIPEG,MB,R2C1J8
031eb4754742243ad4eb,JOHN PRITCHARD SCHOOL,..,1490,henderson highway,WINNIPEG,MB,R2G1N5
03700d900cb1a85a884a,WELLINGTON SCHOOL,..,690,beverley street,WINNIPEG,MB,R3E2A5
037f5bbd0eaeb7aa95e9,School of Contemporary Dancers,Private Institution,,,Winnipeg,MB,R3B3P2
03a771b0a8e954315977,WOLSELEY SCHOOL,..,511,clifton street,WINNIPEG,MB,R3G2X3
03ef76d8b8f4fdb09dcf,SPRINGS CHRISTIAN ACADEMY,..,261,youville street,WINNIPEG,MB,R2H2S7
041b0d0557ec02d08086,AMBER TRAILS COMMUNITY SCHOOL,..,1575,templeton avenue,WINNIPEG,MB,R2P2T5
0613b142f83e3b49b4b1,WESTON SCHOOL,..,1410,logan avenue,WINNIPEG,MB,R3E1R9
0867f0506cb9af8be71c,GOVERNOR SEMPLE SCHOOL,..,150,hartford avenue,WINNIPEG,MB,R2V0V7
09c9d4a74b676ede0192,WESTGROVE SCHOOL,..,50,westgrove way,WINNIPEG,MB,R3R1R7
0d977949e2f006571184,TRANSCONA COLLEGIATE,..,1305,winona street,WINNIPEG,MB,R2C2P9
0e22b791272e78115f62,FOREST PARK SCHOOL,..,130,forest park drive,WINNIPEG,MB,R2V2R8
0ebb3f816ac5561307ad,ROYAL SCHOOL,..,450,laxdal road,WINNIPEG,MB,R3R0W4
116b3120252b93c45cad,Mid-Ocean School of Media Arts,Private Institution,1588,erin street,Winnipeg,MB,R3E2T1
129e5a85a3c91491b7fd,MEADOWS WEST SCHOOL,..,150,inkster garden drive,WINNIPEG,MB,R2R2R8
13f72ea955d39648d761,FAITH ACADEMY,..,437,matheson ave,WINNIPEG,MB,R2W0E1
1437e5dab47e4c4ceae4,VOYAGEUR SCHOOL,..,37,voyageur avenue,WINNIPEG,MB,R2Y0H7
157a12e40c70f5dfceb4,ISAAC BROCK SCHOOL,..,1265,barratt avenue,WINNIPEG,MB,R3G0L9
15f3b5949ff3678b4309,?COLE CHRISTINE-LESP?RANCE,..,425,chemin john forsyth,Winnipeg,MB,R2N4J3
1667cd14b6f998224aa7,ARTHUR A. LEACH JUNIOR HIGH,..,1827,chancellor drive,WINNIPEG,MB,R3T4C4
172c2e87a651dd9b00b4,WESTGATE MENNONITE COLLEGIATE,..,86,west gate,WINNIPEG,MB,R3E2E1
177b4789b0297f9b10a4,MAPLES MET SCHOOL,..,1330,jefferson avenue,WINNIPEG,MB,R2P1L3
17a546026970cabe0c30,VICTORY SCHOOL,..,395,jefferson avenue,WINNIPEG,MB,R2V0N3
17eaee77551258786be3,ÉCOLE RIVIERE ROUGE,..,55,swinford way,WINNIPEG,MB,R2V4X2
1935087266afe668f255,HERITAGE SCHOOL,..,47,heritage boulevard,WINNIPEG,MB,R2Y0N9
195c9603cea253c82b09,GLENELM SCHOOL,..,96,carmen avenue,WINNIPEG,MB,R2L0E6
19f0662e35cf53c2951a,ST. MAURICE SCHOOL,..,1639,pembina highway,WINNIPEG,MB,R3T2G6
1ac72d84151b5fd73171,RED RIVER VALLEY JUNIOR ACADEMY,..,56,grey street,WINNIPEG,MB,R2L1V3
1cbae9bcd3156828f994,CARPATHIA SCHOOL,..,300,carpathia road,WINNIPEG,MB,R3N1T3
1cbde9257a77305936bf,PARC LA SALLE SCHOOL,..,190,houde drive,ST. NORBERT,MB,R3V1C5
1df848073d2f193e454c,GEORGE WATERS MIDDLE SCHOOL,..,190,ferry road,WINNIPEG,MB,R3J1V7
1ebfb79dd8f32456432b,JOHN DE GRAFF SCHOOL,..,1020,louelda street,WINNIPEG,MB,R2K3Z4
1f0b63e8b2d5afbdfd4e,GLENWOOD SCHOOL,..,51,blenheim avenue,WINNIPEG,MB,R2M0H9
1f5fc935dcf6f6625919,ÉCOLE SEC. KELVIN HIGH SCHOOL,..,155,kingsway avenue,WINNIPEG,MB,R3M0G3
1f90343abc9fb9a5a28f,Royal Winnipeg Ballet-Professional Division,Private Institution,380,graham avenue,Winnipeg,MB,R3C4K2
2101bab46b9ddec5e925,DUFFERIN SCHOOL,..,545,alexander avenue,WINNIPEG,MB,R3A0P1
21df31eece6923f05310,Robertson College,Private Institution,180,main street,Winnipeg,MB,R3C1A6
222bab7f81757847901d,SISTER MACNAMARA SCHOOL,..,460,sargent avenue,WINNIPEG,MB,R3B1V5
23bea2d812415109697d,ÉCOLE CENTRALE,..,604,rue day,WINNIPEG,MB,R2C1B6
246e2c6c8cd313e3cca4,Red River College,Technical and Vocational,,,Winnipeg,MB,R3H0J9
24c9ac846e483968d6c9,CRESTVIEW SCHOOL,..,333,morgan crescent,WINNIPEG,MB,R2Y0C9
254246c188a3d3775b75,JOHN HENDERSON JUNIOR HIGH SCHOOL,..,930,brazier street,WINNIPEG,MB,R2K2P3
254dd7e650bad7e95c56,PRAIRIE ROSE ELEMENTARY SCHOOL,..,105,lucas avenue,WINNIPEG,MB,R2R2S8
256c6e4fb022548a5bfd,OUR LADY OF VICTORY SCHOOL,..,249,arnold avenue,WINNIPEG,MB,R3L0W4
257047536fc22aeefc0b,UNIV. OF WINNIPEG COLL. SUMMER SCHOOL,..,,,WINNIPEG,MB,R3B2E9
25f865ac89904b8ffde5,HIGHBURY SCHOOL,..,99,highbury road,WINNIPEG,MB,R2N2N5
260970464247816b70d2,SEVEN OAKS S.D. SUMMER SCHOOL,..,,,WINNIPEG,MB,R2P1L3
2636cd89f7f28e937156,ARGYLE ALTERNATIVE HIGH SCHOOL,..,30,argyle street,WINNIPEG,MB,R3B0H4
26481ae5da92daca970d,CASA MONTESSORI AND ORFF SCHOOL,..,80,fennell street,WINNIPEG,MB,R3T3M4
