Index,Facility_Name,Facility_Type,Street_No,Street_Name,City,Prov_Terr,Postal_Code
00324441fbc3e43d9272,Douglas Park School,..,635,douglas avenue,REGINA,SK,S4N1H7
01cb21c989e7e9578b61,Scott Collegiate,..,3355,6th ave,REGINA,SK,S4T0P6
074563bbb00888a0bb71,Wilfred Hunt School,..,101,mayfield road,REGINA,SK,S4V0B5
0b30e58caa384a80064c,St. Jerome School,..,770,rink avenue,REGINA,SK,S4X1V8
10a94323bf7d9cfca065,St. Gregory School,..,302,uplands drive,REGINA,SK,S4R5X3
1674c6c910d934d5a9f8,The Crescents School,..,2401,retallack,REGINA,SK,S4T2L2
1afd28b240352623cbd8,St. Michael Community School,..,431,hamilton street,REGINA,SK,S4R2A8
1b83761f8b5bba23decb,St. Joan of Arc School,..,10,dempsey avenue,REGINA,SK,S4T7H9
1fbd6d41e207786eaf69,Dr. L.M. Hanna School,..,55,davin crescent,REGINA,SK,S4R7E4
2147456b136cbf38a77b,St. Francis Community School,..,45,mikkelson drive,REGINA,SK,S4T6B7
26f4b7669ed198ee0a0a,Academy of Learning Career College - Wascana Campus,Private Institution,205,2075 hamilton street,Regina,SK,S4P2E1
2e375f6874edbac443e6,École Wilfrid Walker School,..,2102,wagman drive,REGINA,SK,S4V0R1
35c257919198f03e7432,St. Gabriel School,..,3150,windsor park road,REGINA,SK,S4V3A1
3dd2a05472aa5669fb6b,Argyle School,..,2941,lakeview avenue,REGINA,SK,S4S1G8
3f975792beb20b5fc769,Henry Braun School,..,710,graham road,REGINA,SK,S4N7A5
40c5daeb541cb0f15302,École du Parc,..,601,douglas ave,REGINA,SK,S4N1H7
40d221fa695bcd6aeece,George Lee School,..,180,wells street,REGINA,SK,S4R5Z7
40d752bfd39c9a153a19,Dr. A.E. Perry School,..,93,lincoln drive,REGINA,SK,S4S6P1
466096a86a78a3d46ccf,The Globe Theatre Conservatory,Private Institution,1801,scarth street,Regina,SK,S4P2G9
4814f07352468760ccf2,Deshaye Catholic School,..,37,cameron crescent,REGINA,SK,S4S2X1
4880edf70562df72987f,Glen Elm School,..,1225,9th avenue e,REGINA,SK,S4N0H4
4c836c6d8f617e337fc3,Isp2,..,1915,retallack st,REGINA,SK,S4T2K1
4d645a310e7b0ba89536,University of Regina Luther College,University,,,Regina,SK,S4S0A2
53a2aa87242593daa164,St. Josaphat School,..,140,greenwood crescent,REGINA,SK,S4X1G4
548b923ceec3297187b5,Marion McVeety School,..,38,turgeon crescent,REGINA,SK,S4S3Z7
58c412da83349843e181,St. Timothy School,..,280,sangster blvd,REGINA,SK,S4R7H5
59aa5bc199f42c71aa99,École St. Angela Merici,..,6823,gillmore drive,REGINA,SK,S4X4J3
62010d7afc4b690fc5b1,Ruth Pawson School,..,40,weekes crescent,REGINA,SK,S4R6X7
630395354d638c5fc6bd,Seven Stones School,..,1101,princess st,REGINA,SK,S4T3Y3
63ce8bd744c0095f2f6b,McDermid School,..,139,toronto street,REGINA,SK,S4R1L8
6518edd4c4b9ee6453ac,St. Nicholas School,..,7651,mapleford blvd,REGINA,SK,S4Y0C6
675fd51ba1bf2a8e29fb,École St. Mary,..,140,mcintosh street n,REGINA,SK,S4R4Z9
686a3ec11a220cc5922b,First Nations University of Canada,University,1,first nations way,Regina,SK,S4S7K2
6ed023e26514f904bb90,Apex Academy of Professional Grooming and Animal Arts,Private Institution,1180,winnipeg street,Regina,SK,S4R1J6
76c1e399a51a7152c6d0,Martin Collegiate,..,1100,mcintosh,REGINA,SK,S4T5B7
776c56ead01e5e3ab15e,St. Augustine Community School,..,2343,edgar street,REGINA,SK,S4N3L2
7820fc086195eec94b5f,Archbishop M.C. O'Neill Catholic High School,..,134,argyle street,REGINA,SK,S4R4C3
786575f4c1e232ada467,M.J. Coldwell School,..,103,fairview road,REGINA,SK,S4R0A6
7b250fd651ddfeed27da,Winston Knoll Collegiate,..,5255,rochdale blvd,REGINA,SK,S4X4M8
7b65482b7d69a79975ec,Western College of Remedial Massage Therapies Inc.,Private Institution,832,mccarthy boulevard,Regina,SK,S4T6S7
7d1b9608ab8385cd6819,Albert School,..,1340,robinson street,REGINA,SK,S4T2N4
859b965451197eeb3d0f,F.W. Johnson Collegiate,..,400,fines drive,REGINA,SK,S4N5L9
872927c8c08ebbe22d29,Thomson School,..,2033,toronto street,REGINA,SK,S4P1N2
8f68ecbebb5febe0a2c4,Campbell Collegiate,..,102,massey road,REGINA,SK,S4S4M9
9297a1e98c17ec00f0f9,Sacred Heart Community School,..,1325,argyle st,REGINA,SK,S4T2Z8
9695d0334c4755ab66ed,École MGR de Laval pavillon secondaire,..,1440,9th ave n,REGINA,SK,S4R8B1
9a19d7b0a3a4e72d8d08,Imperial School,..,200,broad street,REGINA,SK,S4R1W9
9b4343b66a829f57ec81,St. Matthew School,..,4710,castle road,REGINA,SK,S4S4X1
a003cd4341eeb5c26c7f,St. Peter School,..,150,argyle street,REGINA,SK,S4R4C3
