Index,Facility_Name,Facility_Type,Street_No,Street_Name,City,Prov_Terr,Postal_Code
a685010744e4e9f3e3d2,St. Luke School,..,625,elphinstone street,REGINA,SK,S4T3L1
a89f24a434fd91cbee89,St. Marguerite Bourgeoys School,..,2910,shooter drive,REGINA,SK,S4V0Y7
a952fc832667a4c2e4a5,Jean Vanier School,..,425,15th avenue,REGINA,SK,S4N0V1
ab8739477fe0151dbe96,McLurg School,..,125,paynter crescent,REGINA,SK,S4X2A9
aed1690e7aedd7d41723,École St. Pius X,..,3301,garnet street,REGINA,SK,S4S1X8
affb04899862db57fad9,Regina Huda School,..,40,sheppard street,REGINA,SK,S4R3M6
b346fcc736b46e750972,Regina Christian School,..,2505,23rd ave,REGINA,SK,S4S7K7
b3892ec4fdd2ef1fb7d8,Regina Flying Club,Private Institution,2610,airport road,Regina,SK,S4W1A3
b3af2951a55c226ef452,Ethel Milliken School,..,4510,queen street,REGINA,SK,S4S6K9
b617f7df3d5d3b1556f8,Judge Bryant School,..,2828,dewdney avenue e,REGINA,SK,S4N5G8
b7a6333031d784445acc,THE STYLE ACADEMY INC.,Private Institution,2455,broad st,Regina,SK,S4P0C7
b892ba8df2e8cf35592d,Ruth M. Buck School,..,6330,7th avenue n,REGINA,SK,S4T7J1
ba86b622fd874c973b02,Regina Catholic Learning Online,..,2160,cameron st,REGINA,SK,S4T2V6
bc43eef55c60e12f548e,St. Kateri Tekakwitha School,..,4415,james hill rd,REGINA,SK,S4W0R9
bdec1e1fdff64e4d4962,Plainsview School,..,7741,mapleford blvd,REGINA,SK,S4Y0C6
bf20f62a398e07245d40,Gladys McDonald School,..,335,garnet street n,REGINA,SK,S4R3S8
c009fec50b4698613596,Victoria Campus,..,1915,retallack st,REGINA,SK,S4T2K1
c2a3317982ab9dbafda6,Arcola School,..,2315,abbott road,REGINA,SK,S4N2K2
c3ed50a1bddffe514e3e,St. Dominic Savio Elementary,..,195,windfield road,REGINA,SK,S4V0E9
c7cd4df4966787c32863,Allan Blakeney Adult Campus,..,4210,4th ave,REGINA,SK,S4T0H6
cdf22bbd93d061803872,Holy Rosary Community School,..,3118,14th avenue,REGINA,SK,S4T1R9
cfb847c46d0011f3fd14,École Monseigneur de Laval,..,1601,cowan cres,REGINA,SK,S4S4C4
d2d278ab98da5c43d67b,W.H. Ford School,..,480,rink avenue,REGINA,SK,S4X1S7
d52667822392bf9cac03,St. Catherine School,..,150,brotherton avenue,REGINA,SK,S4N0J7
d6c120028257293a9edf,École W. S. Hawrylak School,..,2530,assiniboine avenue,REGINA,SK,S4V2R6
dbbc3b7e08e18d556c7e,Grant Road School,..,2501,grant road,REGINA,SK,S4S5E7
dbd5f362d59fcd626ca1,Michael A. Riffel Catholic High School,..,5757,rochdale blvd,REGINA,SK,S4X3P5
dd745b1ec5dca4d90a76,University of Regina Campion College,University,,,Regina,SK,S4S0A2
ddaeeff18fa771b2ae6c,MacNeill School,..,6215,whelan drive,REGINA,SK,S4X3P6
e93e4885d67e1604605b,École Wascana Plains School,..,5125,e green brooks way,REGINA,SK,S4V3M4
ea32a116c10d25edc504,Avant-Garde College,Private Institution,1033,8th avenue,Regina,SK,S4R1E1
ec2ff39a96a21279f204,Henry Janzen School,..,222,rink avenue,REGINA,SK,S4R7T8
f20898aebcf04ec53f5c,École Connaught School,..,3515,13th ave,REGINA,SK,S4T1Z5
f262c733d79a444d2d30,Kitchener School,..,840,athol street,REGINA,SK,S4T3B5
f4667aa6e967dfec2cd4,St. Theresa School,..,2707,7th avenue e,REGINA,SK,S4N5E8
f58785a0b37576272f1c,Dr. Martin LeBoldus Catholic High School,..,2330,25th avenue,REGINA,SK,S4S4E6
f7c355481fb1941cd40a,Balfour Collegiate,..,1245,college avenue,REGINA,SK,S4P1B1
f865db55f087621c1088,University of Regina,University,3737,wascana parkway,Regina,SK,S4S0A2
ff48690292b330a04822,Walker School,..,5637,7th avenue,REGINA,SK,S4T0S9
fff6642b167457284d13,Dr. George Ferguson School,..,117,brotherton avenue,REGINA,SK,S4N0J8
