Index,Facility_Name,Facility_Type,Street_No,Street_Name,City,Prov_Terr,Postal_Code
c8ee795750f55ea74656,St. Maria Goretti Community School,..,301,avenue q north,SASKATOON,SK,S7L2X7
cbf419f81259df75a3d8,Alvin Buckwold School,..,715,east drive,SASKATOON,SK,S7J2X8
cd7223637db033f5c630,Bishop Klein Community School,..,1121,northumberland avenue,SASKATOON,SK,S7L3X2
cef738ee74e90e3b9878,St. Edward School,..,1002,avenue p north,SASKATOON,SK,S7L2W7
cf859847f1bb0ed0a81b,St. Mary's Wellness and Education Centre,..,337,avenue o south,SASKATOON,SK,S7M2R9
d0d49d5c5ae822509f72,Mayfair Community School,..,510,34th streeet w,SASKATOON,SK,S7L0Y2
d224c35039321b4f1a66,Gabriel Dumont Institute,University,917,22nd street,Saskatoon,SK,S7M0R9
d2a330eff88b934dd8b1,École Mother Teresa School,..,738,konihowski road,SASKATOON,SK,S7S1M4
d4f90f6455b5c958c50a,City Park Collegiate,..,820,9th avenue n,SASKATOON,SK,S7K2Z2
d8845a8a433a0b370e82,The Sasktoon Academy of Learning,Private Institution,,,Saskatoon,SK,S7K1V2
d9701ca06db2514617ac,Academy of Fashion Design,Private Institution,,,Saskatoon,SK,S7K1X7
da5bd908d39293f5c6da,St. Andrew's College,University,1121,college dr,Saskatoon,SK,S7N0W3
dbdd10a5e91d4852f71e,École Cardinal Leger School,..,141,campion crescent,SASKATOON,SK,S7H3T8
dd5948f06b389b7e820c,Mckay Career Training Inc.,Private Institution,133,third avenue north,Saskatoon,SK,S7K2H4
e0b9b6b23adabe6faf73,Faith Alive Bible College,Private Institution,637,university drive,Saskatoon,SK,S7N0H8
e9987048010eb1db4bd0,James L. Alexander School,..,427,mccormack road,SASKATOON,SK,S7M5L8
ed4225c6d9884f674082,Greater Saskatoon Catholic Cyber School,..,2701,porter st,SASKATOON,SK,S7J3K8
f19c19dd66f8508fafed,Holy Cross High School,..,2115,mceown avenue,SASKATOON,SK,S7J3K8
f4fa883c1be24dad9663,St. Michael Community School,..,22,33rd street e,SASKATOON,SK,S7K0R7
f5aa64bea3d0b162100e,Lawson Heights School,..,430,redberry road,SASKATOON,SK,S7K5H6
f6da07e1e74adaf216ed,Prince Philip School,..,1715,drinkle street,SASKATOON,SK,S7J0P8
f6e05f1c68c448c7c5cd,Bishop Roborecki Community School,..,24,pearson place,SASKATOON,SK,S7L4S7
f75054862701cc2881b1,Centennial Collegiate,..,160,nelson rd,SASKATOON,SK,S7S1P5
f7a354d906ab72dbc9c8,The College of Emmanuel & St. Chad,University,114,seminary crescent,Saskatoon,SK,S7N0X3
f99912b9d537331c9d17,Colette Bourgonje School,..,169,olson lane west,SASKATOON,SK,S7V0L1
faf8bd5178630cb4d424,Greystone Heights School,..,2721,main street,SASKATOON,SK,S7H0M2
fb173f5c7580e5f173d4,Saskatoon Spa Academy Ltd,Private Institution,511,j 33rd street west,Saskatoon,SK,S7L0V7
fbf3370b58c4544c6adc,Hugh Cairns VC School,..,2621,cairns avenue,SASKATOON,SK,S7J1V8
fc123e01e5695893414f,St. Angela School,..,302,russell road,SASKATOON,SK,S7K6P2
