Index,Facility_Name,Facility_Type,Street_No,Street_Name,City,Prov_Terr,Postal_Code
0150e5bc319cd70a75b3,Bishop Murray High School - CNYC,..,615,wiggins ave s,SASKATOON,SK,S7H2J2
0159d7c190fca3f1cce4,Axiom Career College,Private Institution,2345,ave c north,Saskatoon,SK,S7L5Z5
02c2767662389fa2dac0,Lutheran Theological Seminary,University,114,seminary cres,Saskatoon,SK,S7N0X3
03982f94252f28a2f69a,Chief Whitecap School,..,812,gordon rd,SASKATOON,SK,S7T0J5
03a5787cf8577751f90d,ECF pavillon Gustave Dubois,..,2320,avenue louise,SASKATOON,SK,S7J3M7
05538acaa135ffaf99f7,Saskatoon Public Online Learning Centre,..,605,acadia dr,SASKATOON,SK,S7H3V8
09bc33efeeca52de8475,W.P. Bate Community School,..,2515,18th st w,SASKATOON,SK,S7M4A9
0a7f5f993b95ff0157e7,Bishop James Mahoney High School,..,231,primrose drive,SASKATOON,SK,S7K6Y3
0c4c7bac4d2a35f5c355,St. Frances Cree Bilingual School - Bateman,..,6,bateman cres,SASKATOON,SK,S7H3C2
0db6765deae1ada9f8d2,St. Augustine School,..,602,boychuk drive,SASKATOON,SK,S7H4S1
0de324f7533ece376704,St. Frances Cree Bilingual School,..,2141,mcpherson avenue,SASKATOON,SK,S7J0S8
0fbaede65669b60d61e0,Willowgrove School,..,805,stensrud road,SASKATOON,SK,S7W0B1
1035e0fdea8118c5f6f7,École St. Peter School,..,202,sumner crescent,SASKATOON,SK,S7L7A4
10faf58b6a369b734336,Marion M. Graham Collegiate,..,602,lenore drive,SASKATOON,SK,S7K6A6
111b6128fc25966e0f0d,River Heights School,..,60,ravine drive,SASKATOON,SK,S7K1E2
13454889340e17999295,Howard Coad School,..,431,avenue t north,SASKATOON,SK,S7L3B5
176df8baded490f8c0b6,Brevoort Park School,..,2809,early drive,SASKATOON,SK,S7H3K4
184fb83bae87f172d88d,Pleasant Hill Community School,..,215,avenue s south,SASKATOON,SK,S7M2Z9
195acabfc41883106539,Westmount Community School,..,411,avenue j north,SASKATOON,SK,S7L2K4
19aa620a2a5cd8fb4200,Nutana Collegiate,..,411,11th street e,SASKATOON,SK,S7N0E9
1f48dd6d7e66766375bf,Royal West Campus,..,441,witney ave n,SASKATOON,SK,S7L3M6
1fe8812ec353ff6b9831,Georges Vanier Catholic Fine Arts School,..,820,wilson crescent,SASKATOON,SK,S7J2M4
207578f0ad2e465669f2,The Recording Arts Institute of Saskatoon,Private Institution,1926,alberta avenue,Saskatoon,SK,S7K1R9
2083342f3331028a0070,École St. Paul School,..,1527,alexandra avenue,SASKATOON,SK,S7K3C1
2186bcf9411a4371bfbf,Forest Grove School,..,501,115th street east,SASKATOON,SK,S7N2X9
221c95d76e1526ac39b7,Lakeridge School,..,305,waterbury drive,SASKATOON,SK,S7J4Z7
233bbef4167ee6c7f0fb,Sylvia Fedoruk School,..,628,manek rd,SASKATOON,SK,S7W0W3
250a9d2e90b476ffb0df,St. Kateri Tekakwitha Catholic School,..,886,gordon rd,SASKATOON,SK,S7T0J5
2954b098716a2b2c3903,Saskatchewan Indian Institute of Technologies,Junior College,,,Saskatoon,SK,S7N4S1
2aead5eab76baade3434,John Lake School,..,2606,broadway avenue,SASKATOON,SK,S7J0Z6
2b5e5700db4c9d120405,École Saskatoon French School,..,1441,wellington street,SASKATOON,SK,S7M1L3
316f64a0abcb4426b2dd,St. Marguerite School,..,1235,mccormack road,SASKATOON,SK,S7M5L6
36f5fb602d4b2dd55297,Dumont Technical Institute,Technical and Vocational,917,22nd street west,Saskatoon,SK,S7M0R9
3b7901c39b8f4c666bda,École St. Matthew School,..,1508,arlington avenue,SASKATOON,SK,S7H2Y2
3be53aba107374f2ccd7,St. Mark Community School,..,414,pendygrasse street,SASKATOON,SK,S7M4M3
3c1f675bc6d38f0d7930,Brownell School,..,274,russell road,SASKATOON,SK,S7K7E1
3ecc25b659ae485bd7de,Father Vachon School,..,3722,centennial drive,SASKATOON,SK,S7L5K4
3f03c3754acbf59a61b4,École Sister O'Brien School,..,451,silverwood road,SASKATOON,SK,S7K6G1
3fdd62bc70da0bce3006,Saskatoon International Online School,..,2701,porter st,SASKATOON,SK,S7J3K7
402eb27075e1dabf5cb3,Montgomery School,..,3220,ortona street,SASKATOON,SK,S7M3R6
45553fba04fa478831e9,Silverwood Heights School,..,403,silverwood road,SASKATOON,SK,S7K6G1
469365dfd78aed97ff40,Queen Elizabeth School,..,1905,eastlake avenue,SASKATOON,SK,S7J0W9
4ab990c899becc1af8db,Mitchinson Flying Service,Private Institution,2620,thayer ave,Saskatoon,SK,S7L6S1
5025497f2cb0cd1db188,St. Bernard School,..,203,whiteshore crescent,SASKATOON,SK,S7J3W4
50cc9c5b561ed2eeb7bc,College Park School,..,3440,harrington street,SASKATOON,SK,S7H3Y4
50fcdd82a1063192fa2f,St. Anne School,..,102,ravine court,SASKATOON,SK,S7K4H6
51654bc5ca4ff8ae2664,Princess Alexandra Community School,..,210,avenue h south,SASKATOON,SK,S7M1W2
5529f4d7ec5400911674,Caswell Community School,..,204,30th street,SASKATOON,SK,S7L0N9
56b0efc8c06798d38bac,Bishop Filevich Ukrainian Bilingual School,..,125,105th street,SASKATOON,SK,S7N1N3
