Index,Facility_Name,Facility_Type,Street_No,Street_Name,City,Prov_Terr,Postal_Code
01e3c2c11251c0a399b7,Immanuel Christian Secondary School,Public,802,6 avenue n.,Lethbridge,AB,T1H0S1
0ae4e433474e8810b63b,Winston Churchill High School,Public,1605,15 avenue n.,Lethbridge,AB,T1H1W4
0cb695a92d7fffc4984d,Pitawani School,Public,528,stafford drive n.,Lethbridge,AB,T1H2B2
195241b2e09ceb8bcbfe,Children's House Day Care,ECS Private Operator,1215,4 avenue s.,Lethbridge,AB,T1J0P9
2772217b1fa3699bc057,Opokaa'sin Early Intervention Society,ECS Private Operator,241,stafford drive north,Lethbridge,AB,T1H2A5
2e82e8c497b3e0fc6074,Southern Alberta Institute of Massage - Lethbridge,Private Institution,534,18 street south,Lethbridge,AB,T1J3E7
3766c03b691a15e11490,Chinook High School,Public,259,britannia blvd. west,Lethbridge,AB,T1J4A3
3c3dc53a1d40caffc775,Lethbridge Montessori Kindergarten-Forestry Avenue Campus,ECS Private Operator,3611,forestry ave. s.,Lethbridge,AB,T1K3L5
42398bc0c1457a52703e,Children of St. Martha School,Separate,206,mcmaster boulevard w.,Lethbridge,AB,T1K4R3
477933b0474c7e0673b4,CARE (Centre for Adolescent Responsibility Education) Outreach,Separate,333,18 st. south,Lethbridge,AB,T1J3E5
6399d3d76246472bf07c,Lethbridge Writing Centre,Separate,2710,college drive south college drive community churc,Lethbridge,AB,T1K6K5
71bca4492859f05e1143,Lethbridge College,Junior College,3000,college dr. south,Lethbridge,AB,T1K1L6
7787dbe5e917adba2564,Training Inc. - Lethbridge,Private Institution,444,5 avenue south,Lethbridge,AB,T1J0T5
854e938a31ef8f5c7984,St. Teresa of Calcutta School,Separate,235,mildred dobbs blvd north,Lethbridge,AB,T1H5R4
8a0db5f833b1fbb33cce,Bella Elite Beauty & Barber Academy Ltd.,Private Institution,311,8 th street south,Lethbridge,AB,T1J2J5
8ca44faa73c0fe6f76a4,Ã‰cole Nicholas Sheran School,Public,380,laval boulevard,Lethbridge,AB,T1K3Y2
8e863ec5519de6a34d89,Lethbridge Christian School,Public,3,st. james boulevard n.,Lethbridge,AB,T1H6K6
95c01d3a8a81b6a0b18a,Fleetwood Bawden School,Public,1222,9 avenue s.,Lethbridge,AB,T1J1V4
98e9df259b17be2eb7b5,Westminster School,Public,402,18 street n.,Lethbridge,AB,T1H3G4
9bf2ef6b9deba2939bf6,Royal Health Care Aide Training School - Lethbridge,Private Institution,522,5 street south,Lethbridge,AB,T1J2B9
a2ad740f900b637f971d,Dr. Gerald B. Probe Elementary School,Public,120,rocky mountain boulevard,Lethbridge,AB,T1K6S4
a74dab9887ae7cdda404,St. Paul Elementary School,Separate,1212,12 ave. n.,Lethbridge,AB,T1H2H7
a84d48d61d0534dae253,University of Lethbridge,University,4401,university dr.,Lethbridge,AB,T1K3M4
b34577b50c2ccd1614e9,Sterling College Ltd.,Private Institution,1239,2 ave south,Lethbridge,AB,T1J0E5
b441fe9996a568eff707,St. Patrick Fine Arts Elementary School,Separate,80,rivergreen road w.,Lethbridge,AB,T1K7Y1
b5c6b69adb8c816cd4f5,One Beauty Inc.- o/a Lethbridge,Private Institution,1239,2nd street s,Lethbridge,AB,T1J0E5
b623ddbfeb2e62352a66,Lethbridge Regional Hospital School,Public,817,4 avenue s.,Lethbridge,AB,T1J0P3
bdc86e439f636dc80eb5,Our Lady of The Assumption School,Separate,2219,14 avenue s.,Lethbridge,AB,T1K0V6
c2f1ebf1ff9dbea5ff46,Stafford Ridge School,Public,402,6th ave n,Lethbridge,AB,T1H4J9
c35d2bee3b911697c4f5,General Stewart School,Public,215,corvette crescent,Lethbridge,AB,T1J3X6
cbae0e0155c762bc2060,Father Leonard Van Tighem School,Separate,25,stoney crescent w.,Lethbridge,AB,T1K6V5
d2fd38c5a312adbb5771,St. Francis Junior High School,Separate,333,18 street s.,Lethbridge,AB,T1J3E5
d3e1ee1fb31a6dca9175,Lakeview Elementary School,Public,1129,henderson lake boulevard,Lethbridge,AB,T1K3B6
daff4801d388f783d205,Galbraith School,Public,1801,8a avenue n.,Lethbridge,AB,T1H1C5
e1db52e70693c11779ad,G. S. Lakie Middle School,Public,50,blackfoot blvd. west,Lethbridge,AB,T1K7N7
e1df170b0e2243643d60,Mike Mountain Horse School,Public,155,jerry potts boulevard,Lethbridge,AB,T1K6G8
ecf555944155cbd3f782,Lethbridge Montessori Kindergarten,ECS Private Operator,915,6 street s.,Lethbridge,AB,T1J2E9
eeafe397db61513bc4e9,Coalbanks Elementary School,Public,230,coalbanks boulevard west,Lethbridge,AB,T1J4V4
fec6d79b7876a0e1041e,Ecole St. Mary School,Separate,422,20 street south,Lethbridge,AB,T1J2V5
