Index,Facility_Name,Facility_Type,Street_No,Street_Name,City,Prov_Terr,Postal_Code
9794c472a51f75c85bdc,Divine Mercy School,Separate,228,mahogany blvd se,Calgary,AB,T3M1M5
985a378250d59d4bc036,Playcare ECS,ECS Private Operator,92,canova road sw,Calgary,AB,T2W2A7
986784d4a122ce4b4847,Sanctuary Outreach,Separate,3615,radcliffe dr se,Calgary,AB,T2A6B4
990b9937e36a6c7a0702,Calgary Chinese Private School,Private School,126,2nd avenue,Calgary,AB,T2P0B9
994105e365c27b1c6bb5,Captain John Palliser School,Public,1484,northmount drive nw,Calgary,AB,T2L0G6
9963739a6c194bcdc55c,F. E. Osborne School,Public,5315,varsity drive nw,Calgary,AB,T3A1A7
99f46afe72d906570f24,St. Mary's High School,Separate,111,18 avenue sw,Calgary,AB,T2S0B8
9b0473dbf504303844bb,Society for Treatment of Autism,ECS Private Operator,404,94 avenue se,Calgary,AB,T2J0E8
9b192f4bd615d661c8fa,Griffith Woods School,Public,7652,26 avenue,Calgary,AB,T3H3X2
9b74ff9ddd333941e708,Braeside School,Public,1747,107 avenue sw,Calgary,AB,T2W0C3
9b9cfb0722139540734d,St. Benedict School,Separate,10340,19 street sw,Calgary,AB,T2V1R2
9bf2707dbdaafee91420,Huntington Hills School,Public,820,64 avenue nw,Calgary,AB,T2K0M5
9c18217750061d3fff93,Aveda Institute-Calgary,Private Institution,225,8 ave sw,Calgary,AB,T2P1B7
9c2e4dd4d46eb0cc4578,South Middle School Campus,Charter,8710,ancourt rd se,Calgary,AB,T2H1V2
9cc14d4b5bec53077503,St. Gerard Bilingual School,Separate,1204,96 avenue sw,Calgary,AB,T2V0Y1
9d15a95c7aa900ce291b,National Sport School,Public,151,canada olympic road sw,Calgary,AB,T3B6B7
9dc8af403f06ba51e6a3,Calgary Christian School,Public,2839,49 street sw,Calgary,AB,T3E3X9
9e22be90b1de419b750e,Alternative High School,Public,5003,20 street sw,Calgary,AB,T2T5A5
9e2d399a496223abd963,Ian Bazalgette School,Public,3909,26 avenue se,Calgary,AB,T2B0C6
9e729161658c3dee1f90,Bow Valley College,Junior College,345,6th avenue se,Calgary,AB,T2G4G1
9e9a25428ea58f62a3f7,Dr. Roberta Bondar School,Public,1580,strathcona drive,Calgary,AB,T3H5B1
9eb97826c369314f3214,Alberta Bible College,Private Institution,635,northmount dr nw,Calgary,AB,T2K3J6
9f619c2b683970c98932,Sacred Heart Elementary School,Separate,1312,15 street sw,Calgary,AB,T3C1G2
9fb6b4ea8c9512978cfa,East-West College of Business and Technology,Private Institution,3880,29th street ne,Calgary,AB,T1Y6B6
9feadf3871b6508747f1,Kids Developmental Services Ltd.,ECS Private Operator,76,woodgrove crescent sw,Calgary,AB,T2W3Z1
9ff648a90e7325b30e37,Elboya School,Public,4804,6 street sw,Calgary,AB,T2S2N3
a06048df14319ca4fa32,The Hamptons School,Public,10330,hamptons boulevard nw,Calgary,AB,T3A6G2
a0d4c9fea36e578f91e1,Western Canada High School,Public,641,17 avenue sw,Calgary,AB,T2S0B5
a0e643807af15e8e1ccc,Northern Lights School,Public,711,coventry drive ne,Calgary,AB,T3K4C6
a1ed5b9d960dbfd54c01,St. Kateri Tekakwitha School,Separate,1005,abbotsford drive ne,Calgary,AB,T2A7N5
a229866b6d1fa5c5174b,Father Doucet School,Separate,65,shannon drive sw,Calgary,AB,T2Y2T5
a22bb2a4806755a9440e,Silver Springs School,Public,7235,silvermead road nw,Calgary,AB,T3B3V1
a2bd00c4a1d6235f1d73,University of Calgary,University,2500,university drive nw,Calgary,AB,T2N1N4
a2ee5726fa79b3c7f7bb,King George School,Public,2108,10 street nw,Calgary,AB,T2M3M4
a2ff9dba03c6fff6f565,Maximize Early Childhood Services,ECS Private Operator,185,scenic cove bay nw,Calgary,AB,T3L1P8
a30d614038e7aa6e9f1f,Douglasdale School,Public,400,douglas park blvd se,Calgary,AB,T2Z4A3
a3273951e522c7c487e2,St. Joan of Arc Elementary/Junior High School,Separate,7970,wentworth drive sw,Calgary,AB,T3H0K2
a353dfc716aed934cfdb,St. John Henry Newman School,Separate,16201,mckenzie lake boulevard se,Calgary,AB,T2Z2G7
a372f19d08baa73b7d33,St. Matthew School,Separate,416,83 avenue se,Calgary,AB,T2H1N3
a57b8978210ce8af8f63,Montessori Alberta,ECS Private Operator,274,tusslewood terrace nw,Calgary,AB,T3L2W5
a6e1dffe7ff8bc72ec8c,Pacekids Programs South,ECS Private Operator,23,sunpark drive se,Calgary,AB,T2X3V1
a869ee594d2ea3d7c0f7,St. Catherine Elementary School,Separate,11,canata close sw,Calgary,AB,T2W1P6
a9618043087410af2ca2,Mountain View Academy,Private School,3915,34 street ne,Calgary,AB,T1Y6Z8
a9714e1e1ed8dc034146,St. Wilfrid Elementary School,Separate,4225,44 avenue ne,Calgary,AB,T1Y4Y1
a98fdd85b82de799c137,Woodbine School,Public,27,woodfield way sw,Calgary,AB,T2W5E1
aa6b040749b2c71ed032,Renfrew Educational Services-Janice McTighe Centre,Private School,2050,21 street ne,Calgary,AB,T2E6S5
aaaec01e7d67d2ef9e8e,St. Jerome Elementary School,Separate,11616,panorama hills blvd nw,Calgary,AB,T3K5S3
ab70767167fa63ac8c82,West Springs School,Public,8999,wentworth ave sw,Calgary,AB,T3H0P7
ac861322f2a4021625f5,Panorama Hills School,Public,1057,panorama hills dr ne,Calgary,AB,T3K0S4
