Index,Facility_Name,Facility_Type,Street_No,Street_Name,City,Prov_Terr,Postal_Code
6f40ab461da357958964,Tuscany School,Public,990,tuscany drive nw,Calgary,AB,T3L2T4
6f58a9c02ca57506dd4e,Dr. Gladys McKelvie Egbert,Public,6033,madigan dr ne,Calgary,AB,T2V5G9
6faaa046f85d5a52ba3a,Start Outreach,Public,4110,79 street nw,Calgary,AB,T3B5C2
70fd2e850a57a0130be9,Rosewood College,Private Institution,280,3670 63 avenue ne,Calgary,AB,T3J0S4
71038ec51068d6e33534,Columbia College,Private Institution,802,manning rd ne,Calgary,AB,T2E7N8
714fcb145bce86851fff,Ramsay School,Public,2223,spiller road se,Calgary,AB,T2G4G9
719153dbef5ae6850452,Global College of Business & Technology,Private Institution,495,36 st ne,Calgary,AB,T2A6K3
719712da301da5179070,Montessori Children's House Academy Ltd #2,ECS Private Operator,"106,20",sunpark plaza se,Calgary,AB,T2X3T2
72bbe0d224108341e8a3,Southwest Elementary Campus,Charter,898,sylvester cres sw,Calgary,AB,T2W0R7
72d36a77970dd374dcd9,Brentwood School,Public,1231,northmount drive nw,Calgary,AB,T2L0C9
737839dac83cf21014af,William Roper Hull School,Public,2266,woodpark avenue sw,Calgary,AB,T2W2Z8
73edc2b18f8c74987102,Glenbow College,Private Institution,,,Calgary,AB,T2P3T1
7427b34905eecf3c6ad3,Haultain Memorial School,Public,605,queensland drive se,Calgary,AB,T2J4S8
74359dca892188542f97,Fresh Start Outreach Program,Separate,1010,21 avenue se,Calgary,AB,T2G1N2
7443ebc01712b8ecd8de,Nelson Mandela High School,Public,45,saddletowne circle ne,Calgary,AB,T3J4W3
74c5078679fb3f290233,Crossing Park School,Public,500,martindale blvd ne,Calgary,AB,T3J4W8
750f3cc2385cb35b06b4,Crescent Heights High School,Public,1019,1 st nw,Calgary,AB,T2M2S2
766720bbbd1894dc4863,North Middle School Campus,Charter,211,mcknight blvd ne,Calgary,AB,T2E5S7
767a83dc11a47987586b,St. John XXIII School,Separate,1420,falconridge drive ne,Calgary,AB,T3J2C3
792eec2f8b207e6e8167,Banff Trail School,Public,3232,cochrane road nw,Calgary,AB,T2M4J3
7946172fdbb757713576,Clear Water Academy,Private School,2521,dieppe avenue sw,Calgary,AB,T3E7J9
79d6f0ff2ed4d2f789df,Harold Panabaker School,Public,23,sackville drive sw,Calgary,AB,T2W0W3
79eefa79625837943a44,Young Adult Program,Public,805,37 street nw,Calgary,AB,T2N4N8
7a16a84ee782663bccae,CUPS One World Child Development Centre,ECS Private Operator,1001,10th avenue sw,Calgary,AB,T2R0B7
7c7fad1b5449491d1fc5,MAC Islamic School - Calgary Chapter,Private School,64,12 street ne,Calgary,AB,T2E4P4
7cc93bb7a097943acf75,CDI College of Business- Technology and Health Care- Calgary City Centre,Private Institution,,,Calgary,AB,T2P0T9
7d55d2750d3265e0123b,St. Mark Elementary School,Separate,4589,marbank drive ne,Calgary,AB,T2A3V8
7db77dfa4180d220c01e,St. Peter Elementary School,Separate,720,58 street se,Calgary,AB,T2A5L9
7e3c4a2895b9a604cc52,Rundle College Academy,Private School,4330,16 street sw,Calgary,AB,T2T4H9
7e9b5077548cbed94b1f,St. Henry Elementary School,Separate,7423,10 street nw,Calgary,AB,T2K1H5
7f2af5d9d839fcff459a,Menno Simons Christian School,Public,7000,elkton drive sw,Calgary,AB,T3H4Y7
7f304a23c60b9f4a9f8e,M. Dent College,Private Institution,207,1711-4th street sw,Calgary,AB,T2S1V8
7f4b2e22f49411eeef54,Belfast School,Public,1229,17a street ne,Calgary,AB,T2E4V4
7f9c88ad1ed8dec235cd,Discovering Choices 2,Public,3800,memorial dr ne,Calgary,AB,T2A2K2
7faa6f947ee79bc58280,Monsignor A. J. Hetherington Elementary School,Separate,4,coral springs boulevard ne,Calgary,AB,T3J3J3
7fd1b5b8f834c78e4a49,Chief Justice Milvain School,Public,3428,42 street ne,Calgary,AB,T1Y6A3
7fd299285bd049ac7968,Numa International Institute of Makeup and Design,Private Institution,6410,1a street sw,Calgary,AB,T2H0G6
802612bb15daa0544f33,Glamorgan Community Kindergarten Society,ECS Private Operator,4715,45 street sw,Calgary,AB,T3E3W5
80486d9501b9ca2b9d24,St. Boniface Elementary School,Separate,927,lake sylvan drive se,Calgary,AB,T2J2P8
806629905fe14c33d506,Jennie Elliott School,Public,3031,lindsay drive sw,Calgary,AB,T3E6A9
8096a51268ba99e3c093,Abbeydale School,Public,320,abergale drive ne,Calgary,AB,T2A6W2
80d3273c8a8b5b37df37,Terrace Road School,Public,2103,46 street nw,Calgary,AB,T3B1B3
80e076055517c386cad4,Visual College of Art and Design of Calgary,Private Institution,,,Calgary,AB,T2P3E9
810e4be43de33e0107af,Louis Riel School,Public,9632,oakfield drive sw,Calgary,AB,T2V0L1
81722214d6c58cac53af,School of East Indian Languages and Performing Arts,Private School,376,silverado boulevard sw,Calgary,AB,T2X0N9
818899df0b5cf5369444,Academy of Learning - Calgary NE,Private Institution,495,36 st ne,Calgary,AB,T2A6K3
835234e39abb58b3fc0d,Monsignor Neville Anderson School,Separate,327,sandarac drive nw,Calgary,AB,T3K4B2
836a2d5787eb6a7f85de,St. Damien School,Separate,3619,28 street se,Calgary,AB,T2B2J1
836d2196049e36af3570,Radisson Park School,Public,2805,radcliffe drive se,Calgary,AB,T2A0C8
