Index,Facility_Name,Facility_Type,Street_No,Street_Name,City,Prov_Terr,Postal_Code
03243f730d540a6772f8,Windsong Heights School,Public,3030,windsong blvd sw,Airdrie,AB,T4B0Y3
048d7f14f7a1e6525541,Airdrie Learning Connection,Public,120,main street se,Airdrie,AB,T4B0P8
0d53a5d965a7e19a7949,Airdrie Petits Amis Support Services,ECS Private Operator,,,Airdrie,AB,T4B0J6
0f2c1d04ffe09ef94c35,Academy of Learning Airdrie,Private Institution,28,gateway drive ne,Airdrie,AB,T4B0J6
104d8a64428246f6a621,Northcott Prairie School,Public,275,hillcrest drive sw,Airdrie,AB,T4B4C8
1faa3e6ba68dae96a5a0,Footprints for Learning Society,Private School,,,Airdrie,AB,T4A0C9
3ce5c20c548f4074eeb5,St. Veronica School,Separate,380,coopers drive sw,Airdrie,AB,T4B0L8
3d99b566819d611e1772,Airdrie Francophone School,Francophone,1165,ravenswood drive,Airdrie,AB,T4A0H3
4a2cd43b95164d923ae9,Ralph McCall School,Public,1505,1 avenue nw,Airdrie,AB,T4B2L9
57a389fd73b28cfc0bf1,Learning Potential,ECS Private Operator,2309,bayside circle sw,Airdrie,AB,T4B0V4
5a9c0a1bc589cae64cdc,Muriel Clayton Middle School,Public,305,acacia drive se,Airdrie,AB,T4B1G2
5f7e4b7e5dc0a52dc635,Good Shepherd School,Separate,1319,thorburn drive se,Airdrie,AB,T4A2A5
63b2c4171fcddac1144f,A. E. Bowers Elementary School,Public,1721,summerfield boulevard se,Airdrie,AB,T4B1T3
68bf47c0133409c992b6,Airdrie Christian Academy,Private School,77,gateway drive ne,Airdrie,AB,T4B0J6
71f96c5f599e5b4f5100,Academy of Learning - Airdrie,Private Institution,2002,luxstone blvd,Airdrie,AB,T4B3K8
7c5ce39e4484c82963a2,Airdrie Foundation Four Early Childhood Intervention,ECS Private Operator,40,canoe circle,Airdrie,AB,T4B2L6
8841d890f1189a58ee05,W.H. Croxford High School,Public,2654,chinook winds drive sw,Airdrie,AB,T4B0J4
a4d9838992379ce792f4,St. Martin De Porres High School,Separate,410,yankee valley boulevard sw,Airdrie,AB,T4B2M1
bd6660d2e47328f0cc8b,George McDougall High School,Public,412,3 avenue ne,Airdrie,AB,T4B1R7
c22502cd8698be6a185c,École Edwards Elementary School,Public,241,jensen drive ne,Airdrie,AB,T4B0G2
c3ec10c4737a989d4a8c,Meadowbrook School,Public,1796,meadowbrook drive,Airdrie,AB,T4A2R1
c92354ee21b7d865be16,H. Lorimer School,Public,6,kings heights drive se,Airdrie,AB,T4A0E6
ccffad301e98a4cdc924,Coopers Crossing School,Public,1050,coopers drive sw,Airdrie,AB,T4B0X6
d4a2c60f6b2d618281e8,R. J. Hawkey Elementary School,Public,233,big springs drive se,Airdrie,AB,T4A1C4
de0ad59ad154e29b488c,Herons Crossing School,Public,1860,reunion blvd nw,Airdrie,AB,T4B0H2
deea3ad809c655d7df18,Nose Creek Elementary School,Public,1690,baywater park sw,Airdrie,AB,T4B0C3
ea33d35acf5a30e3d347,C.W. Perry School,Public,186,sagewood boulevard sw,Airdrie,AB,T4B3A6
f6a1771b4bde95ccce6e,Bert Church High School,Public,1010,east lake boulevard,Airdrie,AB,T4A2A1
fccaa169098a5e8b998d,École Airdrie Middle School,Public,332,1 ave ne,Airdrie,AB,T4B2K5
