Index,Facility_Name,Facility_Type,Street_No,Street_Name,City,Prov_Terr,Postal_Code
4000b2efe7b545a2fcaf,Wildwood School,Public,120,45 street sw,Calgary,AB,T3C2B3
40559c399700dce543c9,Le Roi Daniels School,Public,47,fyffe road se,Calgary,AB,T2H1B9
40859c95c594e656d3d3,Bay River College,Private Institution,,unit 1 & 2 3516-26 street ne,Calgary,AB,T1Y4T7
40b2d79f1a877ef553bb,Peter Lougheed School,Public,148,saddletree close ne,Calgary,AB,T3J5J1
40ebd18e802283615000,Alberta Health and Safety Training Institute-Calgary,Private Institution,3510,29 street ne,Calgary,AB,T1Y7E5
41d3b3278e2fe5f3be30,Clarence Sansom School,Public,5840,24 avenue ne,Calgary,AB,T1Y6G4
42704139ff41f15c3d5b,St. Martha School,Separate,6020,4 avenue ne,Calgary,AB,T2A4B1
42c50f58a0e3fd687bc6,Fairview School,Public,7840,fairmount drive se,Calgary,AB,T2H0Y1
42db2a80c9ee0f764e1e,Pineridge School,Public,1927,61 street ne,Calgary,AB,T1Y4W6
42f9bd225ab459e7e0c1,I'm For Kids Team,ECS Private Operator,,,Calgary,AB,T2Z2V6
43164d33f5e78c185851,Glenbrook School,Public,4725,33 avenue sw,Calgary,AB,T3E3V1
433ac551dd08d8114d6d,Bob Edwards School,Public,4424,marlborough drive ne,Calgary,AB,T2A2Z5
433e5c67711571f2635d,Prairie Western College,Private Institution,915,33 street ne,Calgary,AB,T2A6T2
436366e50a3f6a5be091,St. Albert the Great,Separate,225,prestwick ave se,Calgary,AB,T2Z3X3
440c0b342b401a558d6e,North Point School for Boys,Private School,2445,23 avenue sw,Calgary,AB,T2T0W3
443402e5ec505d5191df,Scenic Acres School,Public,50,scurfield way nw,Calgary,AB,T3L1T2
447ddd1dc63cf1407306,Balmoral School,Public,220,16 avenue nw,Calgary,AB,T2M0H4
4547c771e8eea3249238,Mountain Park School,Public,312,mt douglas close se,Calgary,AB,T2Z4Y1
45826e2f9a9a4e979588,Marlborough School,Public,4711,maryvale drive ne,Calgary,AB,T2A3A1
45d42cfe4f3ca8797129,Calgary Home Education,Public,5505,4a st sw,Calgary,AB,T2V0B7
461602b00cba175a0101,Citadel Park School,Public,808,citadel drive nw,Calgary,AB,T3G4B8
4676611be2e60391e179,Saddle Ridge School,Public,368,saddlecrest blvd ne,Calgary,AB,T3J5L6
46b9285bede707415fbf,Collingwood School,Public,3826,collingwood drive nw,Calgary,AB,T2L0R6
46c6d0349e9af60e0605,Marlborough Day Nursery Ltd.,ECS Private Operator,200,rivercrest dr,Calgary,AB,T2C2X5
470edbc6dc7bf3d5d013,William Aberhart High School,Public,3009,morley trail nw,Calgary,AB,T2M4G9
472b828dea63cff67c0a,Providence Children's Centre - Falconridge,ECS Private Operator,5232,4 street sw,Calgary,AB,T2V0Z4
47712a6b071be7dfbcae,Jack James High School,Public,5105,8 avenue se,Calgary,AB,T2A4M1
47b12bc25a6b06632503,Dalhousie Community Kindergarten,ECS Private Operator,5432,dalhart road nw,Calgary,AB,T3A1V6
485de4b646e15524f5e6,St. Marguerite School,Separate,1100,new brighton drive se,Calgary,AB,T2Z0W1
486666422c5905aad1cd,MTG Healthcare Academy,Private Institution,1324,36 ave ne,Calgary,AB,T2E8S1
4900903af43fe1da88e9,Buffalo Rubbing Stone School,Public,1308,panatella blvd nw,Calgary,AB,T3K0B6
4a156a9ec6087b2a8b95,St. Joseph Elementary Junior High School,Separate,2512,5 street nw,Calgary,AB,T2M3C7
4a746517af10b7e07383,St. Bonaventure School,Separate,1710,acadia drive se,Calgary,AB,T2J3X8
4b2e5955d1729748bde6,McKenzie Lake School,Public,16210,mckenzie lake way se,Calgary,AB,T2Z1L7
4b58e7dd0158fc9073a2,Calgary College of Traditional Chinese Med and Acupunture,Private Institution,4014,macleod trail south,Calgary,AB,T2G2R7
4cad42aa258a050e2fb7,Bearspaw Christian School & College,Private School,15001,69 street nw,Calgary,AB,T3R1C5
4cd81fd410695133342d,Our Lady of the Assumption School,Separate,7311,34 avenue nw,Calgary,AB,T3B1N5
4d74656e3df768734a05,Forest Lawn High School,Public,1304,44 street se,Calgary,AB,T2A1M8
4db5bd09cb8f7144df17,Brookes College,Private Institution,#250,6424-36 street ne,Calgary,AB,T3J4C8
4f1a14d8de6c6154eef1,Greek Community School,Private School,1,tamarac crescent sw,Calgary,AB,T3C3B7
50e462c2e62839bfd297,Asasa Academy,Private School,599,northmount drive nw,Calgary,AB,T2K3J6
5116ee75524939a4c3a8,Catherine Nichols Gunn School,Public,6625,4 street ne,Calgary,AB,T2K5C7
518930eb21438a3bc47b,Eugene Coste School,Public,10,hillgrove crescent sw,Calgary,AB,T2V3K7
51b2f6ae70528bb1d547,Professional Institute of Massage Therapy,Private Institution,15,royal vista place nw,Calgary,AB,T3R0P3
51bf6bd2b90cdc5b8c3c,Cause & Effect Early Intervention Services,ECS Private Operator,6170,12 street se,Calgary,AB,T2H2X2
527dfed8790334348d0f,Phoenix Education Foundation,Private School,320,19 street se,Calgary,AB,T2E6J6
52fab0450e5514efcedb,Colonel Walker School,Public,1921,9 avenue se,Calgary,AB,T2G0V3
535f29ba2af1a6dabbef,Webber Academy,Private School,1515,93 street sw,Calgary,AB,T3H4A8
537bf2853e1bdd770b03,Professional Institute of Massage Therapy Calgary,Private Institution,1422,kensington road nw,Calgary,AB,T2N3P9
