Index,Facility_Name,Facility_Type,Street_No,Street_Name,City,Prov_Terr,Postal_Code
84b38e85ae4631ce3ab2,Connect Charter School,Charter,5915,lewis drive sw,Calgary,AB,T3E5Z4
855e8f2c6c7405df6c5b,Janus Academy,Private School,2223,spiller road se,Calgary,AB,T2G4G9
862e673ced63e6f0ae7a,Our Lady of the Rosary School,Separate,41,cranston gate se,Calgary,AB,T3M0W7
86593cd810fd9d862983,CDI College of Business- Technology and Health Care- Calgary North,Private Institution,403,33 steet ne,Calgary,AB,T2A1X5
86bec2e2f38afb3b7bd6,Prince of Peace School,Separate,43,auburn meadows blvd se,Calgary,AB,T3M2C9
87377f0bdf43a4af3c52,Westgate School,Public,150,westminster drive sw,Calgary,AB,T3C2T3
87c9ef61ce6ef54bc8b3,Lycee Louis Pasteur,Private School,4099,garrison blvd sw,Calgary,AB,T2T6G2
87d08f272a866b4ae8ae,Samuel W. Shaw School,Public,115,shannon drive sw,Calgary,AB,T2Y0K6
8826a2344b021f82c85d,Notre Dame High School,Separate,11900,country village link ne,Calgary,AB,T3K6E4
888bcc696ad94b1a8ba3,Canadian Institute of Traditional Chinese Medicine,Private Institution,1824,crowchild trail nw,Calgary,AB,T2M3Y7
88c1d97eaa9c6df42572,Father Lacombe School,Separate,3615,radcliffe drive se,Calgary,AB,T2A6B4
891059c6c89725491122,Montessori Children's House Academy Ltd #3,ECS Private Operator,"46,4307",ave se,Calgary,AB,T2Z3V8
8955c56150bab6c5939d,Medical Reception College 1 Ltd-Calgary,Private Institution,840,7 avenue sw,Calgary,AB,T2P3G2
89b7e73a292f01b28872,St. Philip School,Separate,13825,parkside drive se,Calgary,AB,T2J5A8
89ef8e150b8867d9a6ae,Dr. George Stanley School,Public,585,cranston dr se,Calgary,AB,T3M0J4
8a58c0180c1bcf20b875,Ethel M. Johnson School,Public,255,sackville drive sw,Calgary,AB,T2W0W7
8aa629576e5afd0e415c,St. Ambrose School,Separate,1500,arbour lake road nw,Calgary,AB,T3G4X9
8b014c83ce4a55eb8dc2,Dr. Martha Cohen School,Public,116,brightondale park se,Calgary,AB,T2Z0V1
8b82af5418191a1a473e,Rideau Park School,Public,829,rideau road sw,Calgary,AB,T2S0S2
8b83641abc6ece1e096e,Lester B. Pearson High School,Public,3020,52 street ne,Calgary,AB,T1Y5P4
8ba97f38fab63dbc1aae,Renfrew Educational Services - Child Development Centre,Private School,2050,21 street ne,Calgary,AB,T2E6S5
8c1275858dd926897c32,Apple Tree Preschool,ECS Private Operator,,,Calgary,AB,T5J2N1
8c18cc4bcfac9a9a3df5,Maria Montessori School - cSPACE King Edward Location,Private School,1721,29 avenue sw,Calgary,AB,T2T6T7
8c1b5575c4302478fdb7,Cappy Smart School,Public,5808,madigan drive ne,Calgary,AB,T2A4P5
8c3b1aa7612742825e38,Arbour Lake Middle School,Public,27,arbour crest drive nw,Calgary,AB,T3G4H3
8c56ee15a4a7ccbd1234,Blessed Marie-Rose,Separate,999,sherwood blvd nw,Calgary,AB,T3R1M9
8c6f30a4303f461757f9,Peerless Training Institute,Private Institution,#260,2635-37th avenue ne,Calgary,AB,T1Y5Z6
8e0c13efe071746e77c7,Alpine Children's Centre,ECS Private Operator,3,windsor crescent sw,Calgary,AB,T2V1V4
8e366b5adf124da44bc5,Calgary Chinese Alliance School,Private School,150,beddington blvd ne,Calgary,AB,T3K2E2
8efc027d9c8390d727d5,Master's Academy,Public,4414,crowchild trail sw,Calgary,AB,T2T5J4
8f5e0a910f93751c8f82,St. Bernadette School,Separate,55,lynndale crescent se,Calgary,AB,T2C0T8
8feedf05175ae59a48bd,Ã‰cole du Nouveau-Monde,Francophone,220,scenic acres drive nw,Calgary,AB,T3L0E7
909be902c9803e3cc0e3,Pathway Montessori Inc,ECS Private Operator,,,Calgary,AB,T2W5H7
90b94771999bc823260e,Langevin School,Public,107,6a street ne,Calgary,AB,T2E0B7
90f0cf97cab1e49495db,Heritage College,Private Institution,140,3015 12 street ne,Calgary,AB,T2E7J2
911217e054a83cde3abf,Alberta College of Massage Therapy-Calgary,Private Institution,1167,kensington crescent nw,Calgary,AB,T2N1X7
9198a67c38502f052b60,Colonel J. Fred Scott School,Public,171,whitehorn road ne,Calgary,AB,T1Y3C4
92aed979872198b7fedf,Bredin College of Business and Health Care - Calgary,Private Institution,744,4 avenue sw,Calgary,AB,T2P3T4
92d13eb3a7ce02398f3f,Our Lady of Fatima,Separate,6320,taralea park ne,Calgary,AB,T3J5C4
9311c2a4f99495f57187,Haysboro School,Public,1123,87 avenue sw,Calgary,AB,T2V0W2
931db968224872b7c4c6,Cedarbrae School,Public,10631,oakfield drive sw,Calgary,AB,T2W2T3
933279079087058caa49,Children's Commons Ecological Society Nature Kindergarten,ECS Private Operator,1222,kensington close nw,Calgary,AB,T2N3J7
93a7f1f499208505f189,Earl Grey School,Public,845,hillcrest avenue sw,Calgary,AB,T2T0Z1
9504bdc45cf4da73dfbf,One World Child Development Centre,ECS Private Operator,622,11 avenue sw,Calgary,AB,T2R0E2
9550577a4cfbbd14add9,Father Scollen School,Separate,6839,temple drive ne,Calgary,AB,T1Y5N4
95895aa30cf2f4f90da8,Sir Wilfrid Laurier School,Public,819,32 street se,Calgary,AB,T2A0Y9
9673c2da455dc12b9752,Royal Oak School,Public,9100,royal birch blvd nw,Calgary,AB,T3G5R8
9683419a38db1dac11e2,Terry Fox School,Public,139,falshire drive ne,Calgary,AB,T3J1P7
96d45e0f20b6a88c7ee3,St. Teresa of Calcutta School,Separate,121,midlake boulevard se,Calgary,AB,T2X1T7
