Index,Facility_Name,Facility_Type,Street_No,Street_Name,City,Prov_Terr,Postal_Code
2eee74049973f4bb2575,Louise Dean School,Public,120,23 street nw,Calgary,AB,T2N2P1
2ef98bbc5f6ab91497f5,Calgary Academy Collegiate,Private School,1677,93rd street sw,Calgary,AB,T3H0R3
2f594027709c36395a57,St. Clare,Separate,12455,coventry hills way ne,Calgary,AB,T3K5Z4
3040cb7cbb05663b93bf,Juno Beach Academy of Canadian Studies,Public,315,86 avenue se,Calgary,AB,T2H1Z2
30c797c83e1057c1fa3e,St. James Elementary Junior High School,Separate,2227,58 avenue sw,Calgary,AB,T3E1N6
3162c874204b0cd4eac4,Auburn Bay School,Public,7,auburn bay avenue se,Calgary,AB,T3M0K6
322692467b723a4b8092,Light of Christ Catholic School,Separate,6270,saddlehorn dr ne,Calgary,AB,T3J0L8
32bdcf253beef1f28747,Nellie McClung School,Public,2315,palliser drive sw,Calgary,AB,T2V3S4
330b205b0bac95030a5c,Third Academy Calgary South,Private School,,,Calgary,AB,T2H1C3
33ae7f34541f30ea38ce,West Island College,Private School,7410,blackfoot trail se,Calgary,AB,T2H1M5
33bce03e0dd7726e1f05,St. Angela Elementary,Separate,231,6 street ne,Calgary,AB,T2E3Y1
34187c5f1ccac4a10252,Sainte Marguerite Bourgeoys,Francophone,4700,richard road sw,Calgary,AB,T3E6L1
34967efe6e09f9ba3c5a,Heritage Christian Academy,Public,2003,mcknight boulevard ne,Calgary,AB,T2E6L2
3514b98e735c41bef79d,Prince of Wales School,Public,253,parkland way se,Calgary,AB,T2J3Y9
3538335609618797a08c,Somerset School,Public,150,somerset manor sw,Calgary,AB,T2Y4S2
35662361cf14694927ca,Great Journeys Learning Centre Kindergarten,ECS Private Operator,4039,brentwood road,CALGARY,AB,T2L1L1
363e6ffcb901be0c06be,Glenmeadows School,Public,4931,grove hill road sw,Calgary,AB,T3E4G4
36772a85a1b06ab144d5,Northwest Elementary Campus,Charter,719,44 ave nw,Calgary,AB,T2K0J5
36925321afc4dea361d8,Niitsitapi Learning Centre,Public,3743,dover ridge drive sw,Calgary,AB,T2B2E1
36d417dcb9de7f761558,Aesthetics Pro,Private Institution,320,23 avenue sw,Calgary,AB,T2S0J2
36e03a70e8bbc9fc0e7e,Twelve Mile Coulee School,Public,65,tuscany hills road nw,Calgary,AB,T3L0C7
373bde6f1d7f6d05dabf,Glenmore Christian Academy Elementary,Private School,16520,24 street sw,Calgary,AB,T2Y4W2
374f44dceb847873b1ed,Copperfield School,Public,54,copperstone road se,Calgary,AB,T2Z0G7
37a36a51ef4c1914e67d,Hawkwood School,Public,650,hawkwood boulevard nw,Calgary,AB,T3G2V7
38a4eb9c5c153968d575,West Island College-Class Afloat,Provincial,7410,blackfoot trail se,Calgary,AB,T2H1M5
392770e824ba88a65a60,John G Diefenbaker High School,Public,6620,4 street nw,Calgary,AB,T2K1C2
395af0979c0e1b65d57c,Holy Family School,Separate,904,32 st se,Calgary,AB,T2A0Z1
3a0411daf69262b106ba,Pacekids Programs North,ECS Private Operator,808,55 avenue ne,Calgary,AB,T2E6Y4
3af6a097349888264751,Douglas Harkness School,Public,6203,24 avenue ne,Calgary,AB,T1Y2C5
3b1556fb8dbe5737efb1,Providence Children's Centre - McKenzie Towne,ECS Private Operator,5232,4 street sw,Calgary,AB,T2V0Z4
3b34a39c7f11c5ee6337,Our Lady of Lourdes,Separate,1916,2nd street sw,Calgary,AB,T2S1S3
3b56404f4c1dbb590ec8,Delta West Academy,Private School,414,11a street ne,Calgary,AB,T2E4P3
3b98be986f7eece97f52,Holy Trinity School,Separate,1717,41 street se,Calgary,AB,T2A1L2
3c08cdd1513d7e7c9ddc,Master's College,Public,4414,crowchild trail sw,Calgary,AB,T2T5J4
3c34fa54648c7db841d5,Providence Children's Centre - Beddington,ECS Private Operator,5232,4 street sw,Calgary,AB,T2V0Z4
3c5f74c4723565ce94e5,Midnapore School,Public,55,midpark rise se,Calgary,AB,T2X1L7
3ce7cafe331698f12ceb,Bishop Pinkham School,Public,3304,63 avenue sw,Calgary,AB,T3E5K1
3cf2e7d788f82cda870f,Capstone Edge College,Private Institution,2750,22 street ne,Calgary,AB,T2E7L9
3cfaef1f6a971ddf0f94,Colonel Irvine School,Public,412,northmount drive nw,Calgary,AB,T2K3H6
3d297f43aa7b703d8b37,Ernest Manning High School,Public,20,springborough blvd sw,Calgary,AB,T3H0N7
3d59b1fcf4de3fa4d365,St. Gianna School,Separate,800,auburn bay blvd se,Calgary,AB,T3M0H7
3d6281979ac41521915b,Glenmore Christian Academy Junior High,Private School,,16520-24 street sw,Calgary,AB,T2Y4W2
3e16aad340ce41969aaf,Bishop Carroll High School,Separate,4624,richard road sw,Calgary,AB,T3E6L1
3e415d8c7b6232bce500,Buchanan School,Public,3717,centre street nw,Calgary,AB,T2E2Y2
3e906574b04e713ab7e9,Westmount Elementary School,Charter,728,32 street nw,Calgary,AB,T2N2V9
3ebd34f7611398d7ea47,Chris Akkerman School,Public,5004,marbank drive ne,Calgary,AB,T2A3J6
3f19401c879575ba76b4,Don Bosco School,Separate,13615,deer ridge drive se,Calgary,AB,T2J6S7
3f4ad2a156157870829d,InnoTech College-Calgary,Private Institution,305,4014 macleod trail se,Calgary,AB,T2G2R7
3f638d3aa7d58177b5b1,Battalion Park School,Public,369,sienna park drive sw,Calgary,AB,T3H4S2
