Index,Facility_Name,Facility_Type,Street_No,Street_Name,City,Prov_Terr,Postal_Code
d9db695a491ef09bc581,Alex Ferguson School,Public,1704,26 street sw,Calgary,AB,T3C1K5
dad6122adb490c7de1bb,Robert Warren School,Public,12424,elbow drive sw,Calgary,AB,T2W1H2
db0af562985091902075,St. Anthony,Separate,4811,6th st sw,Calgary,AB,T2S2N5
dbd33755ccb53cb67219,Christine Meikle School,Public,3525,50 street nw,Calgary,AB,T3A2Y5
ddf365c2ec97b64e9f27,Lighthouse Labs - Calgary,Private Institution,630,8 ave sw,Calgary,AB,T2P1G6
de20d1eec4b6d573e489,Grant MacEwan School,Public,180,falshire drive ne,Calgary,AB,T3J3A5
de9f6f95ed625dcb0597,Holy Cross Elementary Junior High School,Separate,3719,26 avenue se,Calgary,AB,T2B0C6
df22f8b9a969fa445477,Fish Creek School,Public,1039,suncastle drive se,Calgary,AB,T2X2Z1
df5fd1c397ae836ef609,Colonel Macleod School,Public,1610,6 street ne,Calgary,AB,T2E3Y9
dff2883fa410153774e2,Mount Royal University,Junior College,4825,mount royal gate sw,Calgary,AB,T3E6K6
e06f03080a90932f6bb9,East-West College of Business & Technology - Calgary City Centre,Private Institution,,,Calgary,AB,T2P6B6
e0c632f49395fd152c56,Rundle School,Public,4120,rundlehorn drive ne,Calgary,AB,T1Y4W9
e0da610575c442fe705b,Calgary Girls Charter School,Charter,6304,larkspur way sw,Calgary,AB,T3E5P7
e12b2191e8a1b4aee596,West Dover School,Public,3113,30 avenue se,Calgary,AB,T2B0G9
e1760c94a56448699bf2,Capitol Hill School,Public,2210,18 street nw,Calgary,AB,T2M3T4
e1d81c412bd2dc8bc903,Eveline Charles Academy-Calgary,Private Institution,404,510 8 avenue sw,Calgary,AB,T2P4H9
e1dc81d14a7ec5b4f59a,Piitoayis Family School,Public,1921,9 ave se,Calgary,AB,T2G0V3
e25725bc27e2137050bf,Our Lady of Grace School,Separate,736,evanston drive,Calgary,AB,T3P0N7
e3a85277f99e084a1e18,Sir John Franklin School,Public,2215,8 avenue ne,Calgary,AB,T2E0T7
e3d78244650b55a727ab,St. Rita School,Separate,7811,ranchview drive nw,Calgary,AB,T3G2B3
e4169610051f2c07463d,Cambrian Heights School,Public,640,northmount drive nw,Calgary,AB,T2K3J5
e46fe17a43edc539395a,Georges P. Vanier School,Public,509,32 avenue ne,Calgary,AB,T2E2H3
e4cad5ffba2418b8ff93,Monterey Park School,Public,7400,california blvd ne,Calgary,AB,T1Y6R2
e51c53c01647654f4dc3,St. Monica School,Separate,235,18 avenue sw,Calgary,AB,T2S0C2
e54739ef2ef59fc5eefc,Creekside Campus ECS,ECS Private Operator,200,rivercrest dr se,Calgary,AB,T2C2X5
e5d5144aebd80de1883e,Reeves College - Calgary City Centre,Private Institution,910,7th avenue sw,Calgary,AB,T2P3N8
e60a7e21fd75fa2d4743,Canadian Montessori School,Private School,1112,70 avenue sw,Calgary,AB,T2V0P6
e62707c6bef07b817800,Rosemont School,Public,19,rosevale drive nw,Calgary,AB,T2K1N6
e628ed57403256051d9f,Tom Baines School,Public,250,edgepark boulevard nw,Calgary,AB,T3A3S2
e6a1fccbdb33b12a7e0c,Southern Alberta Institute of Technology,Technical and Vocational,1301,16 ave nw,Calgary,AB,T2M0L4
e6af82f32ad851c9103d,Bow Valley College - Main Campus,Provincial,345,6 ave se,Calgary,AB,T2G4V1
e6ba5bace792a53287b8,Ron Southern School,Public,483,silverado blvd sw,Calgary,AB,T2X2E2
e76c4f642a10fbe78a00,Calgary Arts Academy,Charter,640,14th avenue se,Calgary,AB,T2G1E8
e7a6dbb063919f1ab780,Dalhousie School,Public,4440,dallyn street nw,Calgary,AB,T3A1K3
e7abfd9981025f78225f,ABES (Alberta Business and Educational Services)-Calgary,Private Institution,10,221-18 street se,Calgary,AB,T2E6J5
e82b67f698f711bd7509,St. Sylvester School,Separate,7318,silver springs blvd nw,Calgary,AB,T3B4N1
e9112fc39adc6214286f,St. Jude School,Separate,730,woodbine boulevard sw,Calgary,AB,T2W4W4
e9714cc8fc87306ecdca,Artists Within Makeup Academy,Private Institution,,,Calgary,AB,T2R0E2
e992a53a7e6ef1bb7e89,St. Stephen School,Separate,10910,elbow drive sw,Calgary,AB,T2W1G6
eacbd1d06ab773cd128c,ABM College,Private Institution,112,28th street se,Calgary,AB,T2A6J9
eb749f95add65af3fc9d,Queen Elizabeth High School,Public,512,18 street nw,Calgary,AB,T2N2G5
ec13b164d7932cc5dbcf,Annie Foote School,Public,6320,temple drive ne,Calgary,AB,T1Y5V5
ec3b191dc136cf6f6e1d,Akiva Academy,Private School,140,haddon road sw,Calgary,AB,T2V2Y3
ecb389cc995a9d9e0e59,Deer Run School,Public,2127,146 avenue se,Calgary,AB,T2J6P8
edb17e75dab6e1c2b776,BCS@Home,Private School,15001,69 street nw,Calgary,AB,T3R1C5
ee1b9ebc25e097e234a0,FFCA High School Campus,Charter,2116,mckay road nw,Calgary,AB,T3B1C7
ee341817e2be08c10428,"Almadina Language Charter Academy, Ogden Campus",Charter,118,3132-26 st ne,Calgary,AB,T1Y6Z1
ee534158f2823cc529b2,Bishop O'Byrne High School,Separate,333,shawville boulevard se,Calgary,AB,T2Y4H3
eede148481e8f41e715c,Wildwood School,Public,,,Wildwood,AB,T0E2M0
