Index,Facility_Name,Facility_Type,Street_No,Street_Name,City,Prov_Terr,Postal_Code
010ab119e4370ec5daa1,Banbury Crossroads School,Private School,2451,dieppe avenue sw,Calgary,AB,T3E7K1
0140544e2a7ac477e0f3,St. Rupert School,Separate,111,rundlehill drive ne,Calgary,AB,T1Y2W9
01c986f1fbbdfec994ff,Canadian Institute of Osteopathic Therapy,Private Institution,757,57 ave ne,Calgary,AB,T2E8W6
0301fa5f3066040dddd8,St. Luke Bilingual Elementary School,Separate,1232,northmount dr nw,Calgary,AB,T2L0E1
03232bbf9649678671f4,Henry Wise Wood High School,Public,910,75 avenue sw,Calgary,AB,T2V0S6
03f4d183dccdbb7b6473,Foothills Alliance ECS,ECS Private Operator,333,edgepark boulevard nw,Calgary,AB,T3A4K4
05dee49fdcfdc7f11498,Glendale School,Public,2415,kelwood drive sw,Calgary,AB,T3E3Z8
05e9233e62909daf725d,Carousel Children's Centre,ECS Private Operator,3,windsor crescent sw,Calgary,AB,T2V1V4
05f915d4812bc6702f06,St. Michael School,Separate,4511,8 avenue sw,Calgary,AB,T3C0G9
066e9a5e0e0c45a3cf8c,W.O. Mitchell School,Public,511,silvergrove drive nw,Calgary,AB,T3B4R9
07838959b50d43fae98a,Wilma Hansen School,Public,963,queensland drive se,Calgary,AB,T2J5E5
07aa98405484e55571c5,Nose Creek School,Public,135,covepark square ne,Calgary,AB,T3K5W9
08c712d7341911eecb7c,Madeleine D' Houet Bilingual School,Separate,108,22 street nw,Calgary,AB,T2N2M8
08e1455a230d731da061,Evergreen School,Public,367,everstone dr sw,Calgary,AB,T2Y0L3
09927e485f720331cdf6,St. Brigid,Separate,730,citadel way nw,Calgary,AB,T3G5S6
09b7903168cff01a306d,Holy Angels School,Separate,275,riverglen drive se,Calgary,AB,T2C3T5
0b8e441deaacf65e9113,Hamptons College,Private Institution,,,Calgary,AB,T2A0S8
0badec4105fe75579ba6,DelMar College,Private Institution,5915,1a street sw,Calgary,AB,T2H0G4
0bdf279c9144aa82aa84,Bishop McNally High School,Separate,5700,falconridge boulevard ne,Calgary,AB,T3J3N4
0c003b476e60b9524f22,Ernest Morrow School,Public,1212,47 street se,Calgary,AB,T2A1R3
0e022f353af061e5c200,Olympic Heights School,Public,875,strathcona drive sw,Calgary,AB,T3H2Z7
0e4e042d5b1d9f005fc8,Killarney School,Public,3008,33 street sw,Calgary,AB,T3E2T9
0f013cca3a43802dbe4f,Makami College Inc.- Calgary,Private Institution,9618,horton road sw,Calgary,AB,T2V4K8
0f6a47b2ce38f1f5351f,St. Maria Goretti Elementary School,Separate,375,hawkstone drive nw,Calgary,AB,T3G3T7
0f92a5ba42d49c6b5ba7,Falconridge School,Public,1331,falconridge drive ne,Calgary,AB,T3J1T4
0fb2f7993d3e9b4fba7f,Dr. Gordon Townsend School,Public,28,oki drive nw,Calgary,AB,T3B6A8
0fe5eb8ec66b1557aad8,Guardian Angel School,Separate,20,aspen hills dr sw,Calgary,AB,T3H0G5
100babbc6d4f1a59ef3b,Wood's Homes School,Public,805,37 st nw,Calgary,AB,T2N4N8
102a1bbe765f5a8b7588,Southern Alberta Institute of Technology,Provincial,1301,16 avenue nw,Calgary,AB,T2M0L4
10b66a7d2d562d4e6549,ERP College,Private Institution,,,Calgary,AB,T2P3P8
10b73148499a26e2fe3b,Glamorgan School,Public,50,grafton drive sw,Calgary,AB,T3E4W3
10cc94df3ec00f85ebb2,Altadore School,Public,4506,16 street sw,Calgary,AB,T2T4H9
1193eca20e9760601bc0,Renfrew Thomas W. Buchanan Centre,Private School,2050,21 street ne,Calgary,AB,T2E6S5
11f81f87e90f1414bf64,New Heights School and Learning Services,Private School,2521,dieppe ave sw,Calgary,AB,T3E7J9
121efa14bf4c3773cc59,West View School,Public,12626,85 street nw,Calgary,AB,T3R1J3
1389e9e270c424e5bf13,Janet Johnstone School,Public,224,shawnessy drive sw,Calgary,AB,T2Y1M1
13f23a25411f5a1b49c5,North Haven School,Public,4922,north haven drive nw,Calgary,AB,T2K2K2
14d4dc0ecf2c0b928343,Professional Medical Associates-Calgary,Private Institution,11420,27 street se,Calgary,AB,T2Z3R6
14fbe334b0f5b1b2a191,Hidden Valley School,Public,10959,hidden valley drive nw,Calgary,AB,T3A6J2
16033704376315d62362,Sunalta School,Public,536,sonora avenue sw,Calgary,AB,T3C2J9
1624221fa018710d78cd,Ambrose University,Private Institution,150,ambrose circle sw,Calgary,AB,T3H0L5
165453072c6e78022ca8,Colonel Sanders School,Public,226,northmount drive nw,Calgary,AB,T2K3G5
175ad93f34134a0e7ac8,H. D. Cartwright School,Public,5500,dalhart road nw,Calgary,AB,T3A1V6
18fb7e742d3063f1582e,Ã‰cole de la Rose Sauvage,Francophone,2512,4 street nw,Calgary,AB,T2M2Z9
194877c1c81b2c9213c9,St. Helena School,Separate,320,64 avenue nw,Calgary,AB,T2K0L8
198cdd9208aba3eee4f2,St. Patrick School,Separate,6006,rundlehorn drive ne,Calgary,AB,T1Y2X1
199e66ad9be84934b92e,Holy Child School,Separate,31,silverado terrace sw,Calgary,AB,T2X0K4
19a774931a36db5e25bf,Bow Valley College - Airdrie Campus,Provincial,345,6 avenue se,Calgary,AB,T2G4V1
19d9e3e060de0ef00003,Briar Hill School,Public,1233,21 street nw,Calgary,AB,T2N2L8
