Index,Facility_Name,Facility_Type,Street_No,Street_Name,City,Prov_Terr,Postal_Code
0006f7d353692cef7ec3,West Park Elementary School,Public,3814,55 avenue,Red Deer,AB,T4N4N3
05e58d8db1597049ed84,Alberta College of Massage Therapy-Red Deer,Private Institution,4913,50 avenue,Red Deer,AB,T4N4A6
098486b9db1629940a8b,Sultana's Beauty Clinic And School,Private Institution,76,boyce street,Red Deer,AB,T4R1L3
0bc367a39fa940934996,St. Elizabeth Seton School,Separate,35,addinell avenue,Red Deer,AB,T4R1V5
0c261a56d65a720883f6,St. Joseph High School,Separate,110,2700 67 street,Red Deer,AB,T4P1C2
11c10be7b380b70e4b24,St. Gabriel Online School,Separate,4706,48 avenue,Red Deer,AB,T4N6J4
12b9984ff2f3e7ae1366,The Health Care Aide Academy,Private Institution,200,5009-49 street,Red Deer,AB,T4N1V4
12ec8b59db58bdbc64d8,Bredin college of Business and Health Care-Red Deer,Private Institution,501,5010-43 street,Red Deer,AB,T4N6H2
1c68b7c85c3f31f15832,Central Middle School,Public,5121,48 avenue,Red Deer,AB,T4N6X3
1e9aedff8bb45156cbb4,MCG - Red Deer,Private Institution,4719,48 avenue,Red Deer,AB,T4N3T1
3722ca337de24adcf294,Ecole Camille J Lerouge School,Separate,5530,42a avenue,Red Deer,AB,T4N3A8
39def7bb28a749fc2297,St. Gabriel Online Summer School,Separate,4706,48 avenue,Red Deer,AB,T4N6J4
40bd17f7589e905282cd,George Wilbert Smith School,Public,17,springfield avenue,Red Deer,AB,T4N0C6
40d70f873e8e9ce63405,Parkland Youth Homes,Public,198,glendale boulevard,Red Deer,AB,T4P3L5
4197f44014d7095e4a40,Oriole Park School,Public,5,oldbury street,Red Deer,AB,T4N5A8
423b032a7a4008933aee,Aspire Special Needs Resource Centre,ECS Private Operator,4826,47 street,Red Deer,AB,T4N1R2
45b5a9b5f5b00d9fe7f2,Alberta Business & Health Institute,Private Institution,210,5009 50 ave,Red Deer,AB,T4N2B4
464f61e6f787295220d4,St. Thomas Aquinas School,Separate,3821,39 street,Red Deer,AB,T4N0Y6
4704acdc25a2f117982b,Mattie McCullough Elementary School,Public,26,lawford avenue,Red Deer,AB,T4R3L6
47e9e882c728bed00199,Parkland School Special Education,Private School,6016,45 avenue,Red Deer,AB,T4N3M4
4b4d9bfc666807d5c6de,Lindsay Thurber Comprehensive High School,Public,4204,58 street,Red Deer,AB,T4N2L6
4d352eb8f4b249b6ec5c,Red Deer School District Home Education,Public,5214,47 avenue,Red Deer,AB,T4N3P7
50894a9e11daccee1939,Quest High School,Public,5214,47 avenue,Red Deer,AB,T4N3P7
56de74f40a20a3714daf,Delmar College - Red Deer Campus,Private Institution,,4929-49 street,Red Deer,AB,T4N1Z1
56e8a05f26729a319f20,Alberta Health and Safety Training Institute-Red Deer,Private Institution,7471,edgar industrial bend,Red Deer,AB,T4P3Z5
57c61e637fd3c759449c,MCG Career College - Red Deer,Private Institution,200,4806-51 ave,Red Deer,AB,T4N4H3
5ddc5724f9b2f55e2f65,Gateway Christian School,Public,4210,59 street,Red Deer,AB,T4N2M9
656543a1bfb4aa67021f,Hunting Hills High School,Public,150,lockwood avenue,Red Deer,AB,T4R2M4
6ca7261078591d4ce065,Don Campbell Elementary School,Public,99,irving crescent,Red Deer,AB,T4R3S3
70a505395e199d78127c,MTG Healthcare Academy-Red Deer,Private Institution,,4811-48 street,Red Deer,AB,T4N1S6
80cc6eebd51c7a959a23,Westpark Middle School,Public,3310,55 avenue,Red Deer,AB,T4N4N1
827a543624d44fe3ebe8,Alberta Institute of Massage,Private Institution,7710,gaetz ave,Red Deer,AB,T4P2A5
841f9ef8c3cc70843b84,First Steps & Beyond Inc.,Private School,,4910-59 street,Red Deer,AB,T4N2N1
8dde2e47c3608c62718e,Ecole La Prairie,Francophone,4810,34 street,Red Deer,AB,T4N4R6
97fbc143280439cd05fb,Eastview Middle School,Public,3929,40 avenue,Red Deer,AB,T4N2W5
998de6c47faa94eabf60,St. Patricks Community School,Separate,56,holt street,Red Deer,AB,T4N6A6
9b0f9797a72cb419f56d,Direwood Treatment Centre,Public,33,dixon crescent,Red Deer,AB,T4R2H4
a2192a18ff82efec7b9b,Maryview School,Separate,3829,39 street,Red Deer,AB,T4N0Y6
a53be0577925f3f0153e,MC College-Red Deer,Private Institution,5008,ross st,Red Deer,AB,T4N1Y3
a8349b9ef809f64755dc,Holy Family School,Separate,69,douglas avenue,Red Deer,AB,T4R2L3
aaf67625cfd33502caf9,Youth Assessment Centre,Public,26,gunn street,Red Deer,AB,T4P2N2
accb8ec758a049cec5de,Ecole Barrie Wilson Elementary School,Public,300,timothy drive,Red Deer,AB,T4P0L1
b1d70768d32ce24a7698,Ecole Secondaire Notre Dame High School,Separate,50,lees street,Red Deer,AB,T4R2P6
b2368b57b49692340a3a,Academy of Learning-Red Deer,Private Institution,2965,bremner avenue,Red Deer,AB,T4R1S2
b3f36579dac1bc952eb0,Ecole Secondaire Notre Dame Summer School,Separate,50,lees street,Red Deer,AB,T4R2P6
b52b266d4d31f8893d67,St. John Paul II Catholic Outreach School,Separate,4706,48 avenue,Red Deer,AB,T4N6J4
bcb83197abdd1e6d64cd,North Cottage High School,Public,5704,60 street,Red Deer,AB,T4N6V6
c0a8d5a4af0f350dfa96,Father Henri Voisin,Separate,60,clearview drive,Red Deer,AB,T4P0K3
c1418db6a97f82d3684a,Normandeau School,Public,61,noble ave,Red Deer,AB,T4P2C4
