Index,Facility_Name,Facility_Type,Street_No,Street_Name,City,Prov_Terr,Postal_Code
01cfd1fe015a4743189c,École St. Thomas Elementary,..,6524,35th st,LLOYDMINSTER,AB,T9V3H1
122e9bc5514f4d35c59c,Manual Osteopathic College of Canada   Lloydminster,Private Institution,5712,44 st,Lloydminster,AB,T9V0B6
187e266030d641cbd9ec,St. Mary's Elementary School,Separate,5207,42 street,Lloydminster,AB,T9V1M8
248e17fa1d0c5044761b,Holy Rosary High School,Separate,6611a,39th street,Lloydminster,AB,T9V2Z4
2b7a546c3255dd1de154,École Sans-Frontières,Francophone,4204,54e avenue,Lloydminster,AB,T9V2R6
41b9e1dac00c21885e5b,Queen Elizabeth School,..,5512,51st avenue,LLOYDMINSTER,AB,T9V0Y7
41e824781134be5a3720,Barr Colony,Public,3103,52 avenue,Lloydminster,AB,T9V1M9
466465213ba5e1498f5e,Rendell Park School,..,3401,57th avenue,LLOYDMINSTER,AB,T9V2K6
4bd1bec11a03880469b4,Lloydminster Comprehensive High School,Public,5615,42 street,Lloydminster,AB,T9V0A2
586fbd9fa0f3014ed6cb,St. Joseph's Elementary School,Separate,5706,27 street,Lloydminster,AB,T9V2B8
5bbc98c26123ce5bda8e,Barr Colony School,..,3103,52nd avenue,LLOYDMINSTER,AB,T9V1M9
5eb6f92e4881283d65f7,College Park School,Public,2115,56 ave,Lloydminster,AB,T9V2W2
6e4ba30a7d349f93a212,Rendell Park,Public,3401,57 avenue,Lloydminster,AB,T9V2K6
8fa632a877f7aec8545a,Reeves College - Lloydminster,Private Institution,5012,49 street,Lloydminster,AB,T9V0K2
94f93a54e98fe514dd94,Queen Elizabeth,Public,5512,51 avenue,Lloydminster,AB,T9V0Y7
a6f175bc3c1c833e4bd2,Alberta College of Massage Therapy-Lloydminster,Private Institution,5712,44 street,Lloydminster,AB,T9V0B6
aaee950b4fd6f121568d,St. Thomas Elementary School,Separate,6524,35 street,Lloydminster,AB,T9V3H1
b1a364be5db9e8924164,Bishop Lloyd,Public,5524,31 street,Lloydminster,AB,T9V1W1
e9abf37dfe8c8f11b342,Bishop Lloyd Middle School,..,5524,31st street,LLOYDMINSTER,AB,T9V1W1
fc0b366545de5b5c7a6e,Mother Teresa Early Childhood Education Centre,Separate,5216,44 street,Lloydminster,AB,T9V1R6
