Index,Facility_Name,Facility_Type,Street_No,Street_Name,City,Prov_Terr,Postal_Code
02fc36e776f1b7b1d494,Ecole Father Jan Community School,Separate,15,mission avenue,St. Albert,AB,T8N1H6
0611b7c74a49f54c2a86,Neil M Ross Catholic School,Separate,60,woodlands road,St. Albert,AB,T8N3X3
0bf7dc5e9f7535992a74,Ronald Harvey Elementary,Public,15,langley avenue,St. Albert,AB,T8N1S4
13cda77d532dfe3f2241,Richard S Fowler Catholic Junior High School,Separate,65,sir winston churchill ave,St. Albert,AB,T8N0G5
173846b53a6d1d48dac8,Muriel Martin Elementary School,Public,110,deer ridge drive,St. Albert,AB,T8N5Z3
22b8d2f66feef5235603,Ecole Marie Poburan,Separate,100,sir winston churchill ave,St. Albert,AB,T8N5Y2
23a9f3b5002db90ebeb6,St. Gabriel High School,Separate,6,st. vital avenue,St. Albert,AB,T8N1K2
27a99e7707f4f47f08d6,Bertha Kennedy Catholic Community School,Separate,175,larose drive,St. Albert,AB,T8N2G7
2a09a626ea0c6b1f5f79,Ecole Secondaire Sainte Marguerite d'Youville,Separate,51,boudreau road,St. Albert,AB,T8N6B7
2bb07002a9ff43a51df3,Ecole La Mission,Francophone,46,heritage drive,St. Albert,AB,T8N7J5
313b08275f62e272a3c6,Elmer S Gish School,Public,75,akins drive,St. Albert,AB,T8N3A5
51a610e292a99777c359,Wild Rose Elementary School,Public,58,grenfell avenue,St. Albert,AB,T8N2Z9
57657f3b5dbdcb71b3e4,St. Gabriel Cyber School,Separate,6,st. vital avenue,St. Albert,AB,T8N1K2
5bc231c446592c12b48d,Professional Medical Associates - St. Albert,Private Institution,265,carleton drive,St. Albert,AB,T8N4J9
7182e1cf26fab86964c2,Albert Lacombe Catholic Elementary School,Separate,50,gainsborough avenue,St. Albert,AB,T8N0W5
806a3061cca04e9d9e02,Leo Nickerson Elementary,Public,10,sycamore avenue,St. Albert,AB,T8N0K3
84a43bb7b9004c7f8b8b,Sir George Simpson Junior High,Public,50,grosvenor boulevard,St. Albert,AB,T8N0X6
95837466f539770fd7c8,Lorne Akins Junior High School,Public,4,fairview boulevard,St. Albert,AB,T8N2G1
9a597f0a6cd0abf92ad6,Vincent J Maloney Catholic School,Separate,20,mont clare place,St. Albert,AB,T8N1K9
b69658ea65fdaf08fe77,Bellerose Composite High School,Public,49,giroux road,St. Albert,AB,T8N6N4
bb5664826c68c18f0c90,École Alexandre-Taché,Francophone,30,erin ridge drive,St. Albert,AB,T8N5S5
c16c739599368dc0b315,Keenooshayo Elementary School,Public,40,woodlands road,St. Albert,AB,T8N3X3
ca481f670ae943ecdb24,J. J. Nearing Catholic Elementary School,Separate,196,deer ridge drive,St. Albert,AB,T8N6T6
f8070a569e8986d5255a,Paul Kane High School,Public,12,cunningham road,St. Albert,AB,T8N2E9
facc1ab6657afddc6ae1,Vital Grandin Catholic School,Separate,39,sunset boulevard,St. Albert,AB,T8N0N6
fffcdd8d38f06d29b72f,Sturgeon Heights School,Public,50,hogan road,St. Albert,AB,T8N3X7
