Index,Facility_Name,Facility_Type,Street_No,Street_Name,City,Prov_Terr,Postal_Code
62319b95081a16763130,Nellie Carlson School,Public,4110,mactaggart drive nw,Edmonton,AB,T6R0P7
64a14dd2f6fdaf6cd766,Edmonton Christian Northeast School,Public,5940,159 avenue,Edmonton,AB,T5Y0J5
659540321aecf66424ee,Dan Knott School,Public,1434,80 street,Edmonton,AB,T6K2C6
679e899c422d99d4bba5,Cardinal Leger,Separate,8808,144 avenue,Edmonton,AB,T5E3G7
67ce844d0a76712a868e,Holy Family,Separate,1710,millwoods road e,Edmonton,AB,T6L5C5
67e6b27c101a6d5b5974,Evansdale School,Public,9303,150 avenue,Edmonton,AB,T5E2N7
6a370a4c1a3b8aaa250e,Caernarvon School,Public,14820,118 street,Edmonton,AB,T5X1T4
6b6013d4b99cc301bd43,Alberta Caregiving Institute-Edmonton General Hospital,Private Institution,11111,jasper ave,Edmonton,AB,T5K0L4
6c56f42885613730526c,Svend Hansen School,Public,2130,16 avenue,Edmonton,AB,T6T2C1
6cda618cc8ff3ab9ee0f,Fresh Start Cardinal Collins,Separate,3802,139 avenue nw,Edmonton,AB,T5Y3G4
6dabd4377035556248de,Alberta Academy of Aesthetics,Private Institution,1041,8882 170 street,Edmonton,AB,T5T3J7
6db29afbcc68f63a1bf0,Allendale School,Public,6415,106 street,Edmonton,AB,T6H2V5
6e1ff644c0ddfa6a76ae,Over the Rainbow Academy,ECS Private Operator,9616,96 ave nw,Edmonton,AB,T6C2E4
6f782d1eca419c6ab4d8,Northmount School,Public,14020,88a street,Edmonton,AB,T5E3J4
711c4bfbc49a0a94e70f,Aboriginal Head Start - St. Francis Site,ECS Private Operator,,6770-129th avenue,Edmonton,AB,T5C1V7
7257b58fef98d7acc0e6,MC College-Edmonton,Private Institution,10345,107 street,Edmonton,AB,T5J1K3
72fc16aca790a07589c9,Delton School,Public,12126,89 street,Edmonton,AB,T5B3W4
7329a767b87ea7fcbe97,Kirkness School,Public,610,kirkness road,Edmonton,AB,T5Y2K4
73e880c43e1d58e32f02,Christ the King School,Separate,180,mcconachie drive nw,Edmonton,AB,T5Y0K9
741671493ecc9f64d282,S Bruce Smith School,Public,5545,184 street,Edmonton,AB,T6M2L9
7471f9c24257139b1358,Pollard Meadows School,Public,1715,48 street,Edmonton,AB,T6L3J6
74f40871f2ee8234dfec,Newman Theological College,Private Institution,10012,84 street nw,Edmonton,AB,T6A0B2
75dfa7c152d71dc7a446,Weinlos School,Public,2911,48 street,Edmonton,AB,T6L5T7
76a2fbde353c226a2f22,West Campus ABC Program,ECS Private Operator,12122,68 street nw,Edmonton,AB,T5B1R1
77cd6b9f5ae674d9f400,École Michaëlle-Jean,Francophone,10005,84 street nw,Edmonton,AB,T6A3P8
7a09536665962640858b,Hazeldean School,Public,6715,97 street,Edmonton,AB,T6E3J9
7e4b641afd3b7ea6ec95,Est-Elle Academy of Hair Design Limited,Private Institution,8004,gateway blvd,Edmonton,AB,T6E6A2
8027c1a2cf422fa42185,Crawford Plains School,Public,4210,12 avenue,Edmonton,AB,T6L5V6
803b27b88c7cb02d692d,Makami College Inc.- Edmonton,Private Institution,8330,82 avenue nw,Edmonton,AB,T6C4E3
80eb950f5320cb784489,Vernon Barford School,Public,32,fairway drive 119 street & 38 avenue,Edmonton,AB,T6J2C1
80f1f4ccb20ed1d814a0,Frere Antoine,Separate,2850,millwoods road,Edmonton,AB,T6K4A1
813d1993968dccd9fa18,Learning Store West Edmonton,Public,9532,163 street nw,Edmonton,AB,T5P3M7
839112347eaa88ee7436,St. Martha,Separate,7240,180 street,Edmonton,AB,T5T3B1
84007ed1f907498bdc59,Mill Creek School,Public,9735,80 ave nw,Edmonton,AB,T6E1S8
84d74df987c3e78e0d6c,Archbishop O'Leary,Separate,8760,132 avenue,Edmonton,AB,T5E0X8
87282bb4834d8e7d7dd2,Ecole Publique Gabrielle-Roy,Francophone,8728,93 avenue,Edmonton,AB,T6C1T8
87367f97a1bace9e5795,MH Vicars School of Massage Therapy - Edmonton,Private Institution,2828,calgary trail nw,Edmonton,AB,T6J6V7
8891482a7ebb48047415,W P Wagner School,Public,6310,wagner road,Edmonton,AB,T6E4N5
8963e48a36b22639cd0e,Al-Mustafa Academy,Private School,7814,83 st,Edmonton,AB,T6C2Y8
8a47568beb1b6cc829f8,Michael Strembitsky School,Public,4110,savaryn drive sw,Edmonton,AB,T6X0Z7
8aebc550c4cb5b1fb25b,Digital School,Private Institution,10010,100 street,Edmonton,AB,T5J0N3
8aeead9948bcebf95930,Reeves College - Edmonton,Private Institution,10004jasper,avenue,Edmonton,AB,T5J1R3
8b5abdf42011e1e775f6,St. Thomas More Junior High School,Separate,9610,165 street,Edmonton,AB,T5P3S6
8c70658c4f8d00b40543,MTG Healthcare Academy-Edmonton,Private Institution,6920,roper road,Edmonton,AB,T6B3H9
8dda18ed8a9a402b75e8,Rosslyn School,Public,13215,113a street,Edmonton,AB,T5E5B9
8e4b0288270529e5a471,Princeton School,Public,7720,130 avenue,Edmonton,AB,T5C1Y2
90b1e94adb8f6d2b1f06,Baturyn School,Public,10603,172 avenue,Edmonton,AB,T5X4X4
90ce7a68f861d107a95c,Lynnwood School,Public,15451,84 avenue,Edmonton,AB,T5R3Y1
91aeb598af80355f3d54,Winterburn School,Public,9527,winterburn road nw,Edmonton,AB,T5T5X9
