Index,Facility_Name,Facility_Type,Street_No,Street_Name,City,Prov_Terr,Postal_Code
0909b738bb25be1498d6,St. Theresa Catholic School,Separate,2021,brentwood boulevard,Sherwood Park,AB,T8A0X2
1055532a0ab946de7666,Woodbridge Farms School,Public,1127,parker drive,Sherwood Park,AB,T8A4E5
1a97e24450fc8ac9bc3a,Pine Street School,Public,133,pine street,Sherwood Park,AB,T8A1H2
1ee0743c505ddcbca7db,Ecole Campbelltown School,Public,271,conifer street,Sherwood Park,AB,T8A1M4
2282f2a390ce76dff829,Ardrossan Junior Senior High School,Public,222,range road,Ardrossan,AB,T8E2M8
2571e7e1ab345c2c2539,EIPS Centre for Educational Alternatives,Public,1604,sherwood drive,Sherwood Park,AB,T8A0Z2
274fbe38acd83ec78e47,Emergency Services Academy,Private Institution,161,broadway boulevard,Sherwood Park,AB,T8A2A8
2c6582a8f6b805287eb9,Strathcona Christian Academy,Public,1011,cloverbar road,Sherwood Park,AB,T8A4V7
32b7965ca2df29edefd1,Fultonvale Elementary Junior High School,Public,224,range road,Sherwood Park,AB,T8C1B5
3c3f3770dd527ddf9c86,Holy Redeemer Catholic School,Separate,53117,rr 222,Ardrossan,AB,T8E2M8
4374d125780e856eaf8f,Strathcona Christian Academy Elementary School,Public,231,range road,Sherwood Park,AB,T8B0A3
4bd285aff8c7a586deb4,Ã‰cole Claudette-et-Denis-Tardif,Francophone,10,hawkins crescent,Sherwood Park,AB,T8A3P2
51e027087ff3c3dfaf50,NSonline,Public,1604,sherwood drive,Sherwood Park,AB,T8A0Z2
56449ba0f2e6058d5579,Mills Haven Elementary School,Public,28,heron road,Sherwood Park,AB,T8A0H2
5ccfb0adf38c838609b3,Aurora Learning Foundation,Private School,349,rr 225,Sherwood Park,AB,T8C1H5
5ff7a0943005a7774a61,Davidson Creek Elementary School,Public,360,davenport drive,Sherwood Park,AB,T8H1Y1
693ad6b06477030fd66e,Ecole Pere Kenneth Kearns Catholic School,Separate,8,sandpiper drive,Sherwood Park,AB,T8A0B6
72233773ffb58edc3622,Westboro Elementary School,Public,1078,strathcona drive,Sherwood Park,AB,T8A0Z9
7795e012cc5f06563822,Cooking Lake Aviation Services,Private Institution,221,range road,Sherwood Park,AB,T8E1H1
791904820befcf5f21e9,Holy Spirit Catholic School,Separate,151,crimson drive,Sherwood Park,AB,T8H2R2
7d898adc4d64169d2944,Sherwood Park Kindergarten,ECS Private Operator,105,main terrace,Sherwood Park,AB,T8A0R7
86941cc6d9231e991b07,New Horizons School,Charter,1000,strathcona drive,Sherwood Park,AB,T8A3R6
88b1d02a77b60a453efe,Bev Facey Community High School,Public,99,colwill boulevard,Sherwood Park,AB,T8A4V5
97b1b21f8bb35a468e98,Lakeland Ridge School,Public,101,crimson drive,Sherwood Park,AB,T8H2P1
98194d6828cb76c03759,Glen Allan Elementary School,Public,106,georgian way,Sherwood Park,AB,T8A2V9
98b56003c871e95d8e5c,Uncas Elementary School,Public,21313,township road 524,Ardrossan,AB,T8G2G2
a75eea7cf15531101d6e,Sherwood Park Next Step I Outreach School,Public,1604,sherwood drive,Sherwood Park,AB,T8A0Z2
a9251398da963ff0081d,Salisbury Composite (Evening),Public,1604,sherwood drive,Sherwood Park,AB,T8A0Z2
ae8ba9dfe79d6a0c24b8,Seden Centre for Child Development and Wellness,ECS Private Operator,182,sioux road,Sherwood Park,AB,T8A3X5
b7400af3fce6ee1017ae,Brentwood School,Public,28,heron road,Sherwood Park,AB,T8A0H2
bb636e0cc5d6160da15c,EIPS Home Education,Public,1604,sherwood drive,Sherwood Park,AB,T8A0Z2
bda98ccce3ee55472c8f,Ecole Ardrossan Elementary School,Public,222,range road,Ardrossan,AB,T8E2M8
c101226abe6e48fdb600,Wes Hosford School,Public,207,granada boulevard,Sherwood Park,AB,T8A3R5
c15ba2a6cdfe67a9fbd5,International Academy of Esthetics,Private Institution,,,Sherwood Park,AB,T8A6A2
c55359fbef96aaba493a,Castle School,Public,214,rr 2,Fort Saskatchewan,AB,T8L4A3
d0283de4630cbf1ad6b0,F. R. Haythorne School,Public,300,colwill boulevard,Sherwood Park,AB,T8A5R7
d0a4469d8ae152e93c09,Jean Vanier Catholic School,Separate,109,georgian way,Sherwood Park,AB,T8A3K9
d32d78e66d8265c81e88,Archbishop Jordan Catholic High School,Separate,4001,emerald drive,Sherwood Park,AB,T8H0P5
d77850132ef988b06c36,Wye School,Public,163,22560 wye road,Sherwood Park,AB,T8A4T6
dafa54cd1c365d5c6033,Clover Bar Junior High School,Public,50,main boulevard,Sherwood Park,AB,T8A0R2
dc3a66c0b6d7016bcf70,Madonna Catholic School,Separate,15,main boulevard,Sherwood Park,AB,T8A3N3
e03092bed72b0d8e1bc9,St. Isidore Learning Centre,Separate,310,broadview road,Sherwood Park,AB,T8H1A4
eae2f6d586d8045cf98d,Salisbury Composite High School,Public,20,festival way,Sherwood Park,AB,T8A4Y1
f5ef7ec9129683405fbb,Our Lady of Perpetual Help Catholic School,Separate,273,fir street,Sherwood Park,AB,T8A2G7
f75a458c219cb8611219,Sherwood Heights Junior High School,Public,241,fir street,Sherwood Park,AB,T8A2G6
