Index,Facility_Name,Facility_Type,Street_No,Street_Name,City,Prov_Terr,Postal_Code
05c5e7a917cf11f85c19,Athabasca Delta Community School,Public,,,Fort Chipewyan,AB,T0P1B0
179dae58890af30a7eb8,Holy Trinity High School,Separate,230,powder drive,Fort McMurray,AB,T9K0W8
1bf1862b7d0a76d14504,Fort McMurray Christian School,Public,190,tamarack way,Fort McMurray,AB,T9K1A1
28031d8421ff0d1725f7,St. Paul's Elementary School,Separate,429,ross haven drive,Fort McMurray,AB,T9H3P3
2c9c768f3b9e6f3eb7bc,Walter & Gladys Hill Public School,Public,,,Fort McMurray,AB,T9K1S5
327b5e13a32bd708c073,Fr M Beauregard Education Community Centre,Separate,255,athabasca avenue,Fort McMurray,AB,T9J1G7
42179b0e0fadd8b00117,École Dickinsfield School,Public,201,dickins drive,Fort McMurray,AB,T9K1M9
4f85ca4416040fb757b0,Bill Woodward School,Public,107,christina dr,Anzac,AB,T0P1J0
57a3034723c22f3fe836,Fort McMurray Islamic School,Public,109,greely road,Fort McMurray,AB,T9H4V4
5857cebcf4b02b13fa54,St. Kateri School,Separate,,,Fort McMurray,AB,T9K1S5
5970819358dcfc1783bf,Timberlea Public School,Public,107,brett drive,Fort McMurray,AB,T9K1V1
5f966e9304b60e92cf15,École Boreal,Francophone,312,abasand drive,Fort McMurray,AB,T9J1B2
65e50681d7903e54c940,Mikisew Cree First Nation Alternative Education Program,Federal First Nations,104,paquette street,Fort Chipewyan,AB,T0P1B0
66d6e67601f18f7b39b7,Sister Mary Phillps Elementary School,Separate,177,dickins drive,Fort McMurray,AB,T9K1M3
670696a813f627f1f829,Keyano College,Provincial,8115,franklin avenue,Fort McMurray,AB,T9H2H7
6a56fe694c297c7800f9,Good Shepherd Community School,Separate,211,beacon hill drive,Fort McMurray,AB,T9H2R1
772d62f72a37e76a9cb7,Thickwood Heights School,Public,96,silin forest road,Fort McMurray,AB,T9H3A1
77ea76f9b0693c93f44c,Westview School,Public,407,wolverine drive,Fort McMurray,AB,T9H4S6
78958ef1a74f910d676e,Greely Road School,Public,109,greely road,Fort McMurray,AB,T9H4V4
9e927ab655af41a7fb3d,Alberta College of Massage Therapy-Fort McMurray,Private Institution,9908,penhorwood street,Fort McMurray,AB,T9H1L3
a8b0ea5a792387179527,Father J A Turcotte OMI School,Separate,8553,franklin avenue,Fort McMurray,AB,T9H2J5
ad591bab08ffae189ff5,St. Gabriel School,Separate,585,signal road,Fort McMurray,AB,T9H4V3
d49b0b65e682ef43db74,Frank Spragins High School,Public,190,tamarack way,Fort McMurray,AB,T9K1A1
dd7b7aabc196426dbc61,Keyano College,Technical and Vocational,8115,franklin ave,Fort Mcmurray,AB,T9H2H7
de05f2484c05ce168f94,École McTavish Public High School,Public,352,parsons creek drive,Fort McMurray,AB,T9K0C8
f97e97a54d23d0f5ca03,Beacon Hill School,Public,210,beacon hill drive,Fort McMurray,AB,T9H2R1
fc5e550092c3f3f95076,Westwood Community High School,Public,221,tundra drive,Fort McMurray,AB,T9H4Z7
