Index,Facility_Name,Facility_Type,Street_No,Street_Name,City,Prov_Terr,Postal_Code
0257309828582950f0e6,Grande Prairie Public School District #2357 Home Schooling,Public,9625,prairie road,Grande Prairie,AB,T8V6G5
067434d7cbbca9d3f9bc,St. Joseph Catholic High School,Separate,10520,68 avenue,Grande Prairie,AB,T8W2P1
0b66fcb3a503a5dcd4d1,Alberta College of Massage Therapy-Grande Prairie,Private Institution,201,11402 100 street,Grande Prairie,AB,T8V2N5
0f92acf024e0e7dfdf31,St. Kateri Catholic School,Separate,7906,mission heights drive,Grande Prairie,AB,T8W1H3
2a3c26e649435c4452be,Hillside Community School,Public,9410,106 avenue,Grande Prairie,AB,T8V1H8
34fd3571f4c3fcc6b32b,Grande Prairie Christian School,Public,8202,110 street,Grande Prairie,AB,T8W1M3
4314ce23896d1c839a34,Grande Prairie Regional College,Provincial,10726,106 avenue,Grande Prairie,AB,T8V4C4
4d3522b6c14a7ab16aff,St. Catherine Catholic School,Separate,12815,104a street,Grande Prairie,AB,T8W2N7
515719ab64322184229f,Derek Taylor School,Public,7321,104a street,Grande Prairie,AB,T8W0E9
6080627332376812c1f6,Swanavon School,Public,8908,100 street,Grande Prairie,AB,T8V2K4
62021c6cd8c95add3d9a,Alberta College of Body Art,Private Institution,10024,100 avenue,Grande Prairie,AB,T8V0V3
64600b68d681a253ee53,Manual Osteopathic College of Canada – Grande Prairie,Private Institution,11402,100 st,Grande Prairie,AB,T8V2N5
6931337bc37ff5285521,Roy Bickell Public School,Public,10410,royal oaks drive,Grande Prairie,AB,T8V8L6
7122ef86509daf8e5f65,Crystal Park School,Public,9351,116 avenue,Grande Prairie,AB,T8V6L5
7c7b5176ca351ebf3317,École Montrose School,Public,6431,98 street,Grande Prairie,AB,T8W2H3
829e006da73552969375,Middle Years Outreach School,Public,9625,prairie road,Grande Prairie,AB,T8V6G5
8348d67ba081db0b1da6,Isabel Campbell Public School,Public,7149,114 street,Grande Prairie,AB,T8W0G7
873a8447c47789907e31,Ecole Nouvelle Frontiere,Francophone,11201,pinnacle boulevard,Grande Prairie,AB,T8W0C6
9f083e39aac43765a64b,St. John Bosco Catholic School,Separate,9902,101 st,Grande Prairie,AB,T8V2P4
a5b8f96fd820081f9068,St. Clement Catholic School,Separate,9636,109 avenue,Grande Prairie,AB,T8V1R2
a66727cec52f9298730c,Alexander Forbes School,Public,7240,poplar drive,Grande Prairie,AB,T8V5A6
afa8490974072992aade,I.V. Macklin Public School,Public,8876,108 avenue,Grande Prairie,AB,T8X1N7
b6549b92dd2adfc85c8f,Grande Prairie Composite High School,Public,11202,104 street,Grande Prairie,AB,T8V2Z1
bdb52fa88456aff12f14,One Beauty Academy-Grande Prairie,Private Institution,10001-101,ave,Grande Prairie,AB,T8V0X9
c647fc24eb6510ceaa4f,ACCData Computer Systems and Training,Private Institution,,305-9804-100 avenue,Grande Prairie,AB,T8V0T8
c8f0bd1ed6f39adff9c0,Riverstone Public School,Public,8901,willow drive,Grande Prairie,AB,T8X0G8
d35e66d59398b5e03ad7,Holy Cross Catholic School,Separate,11011,90 street,Grande Prairie,AB,T8X1J7
d5c238c85568c49362ea,Peace Wapiti Academy,Public,11410,104 street,Grande Prairie,AB,T8V2Z1
e33498306106cd5b9ec8,Mother Teresa School,Separate,7501,willow drive,Grande Prairie,AB,T8X0H7
e984d97d29465d0bf6e3,Adventure Aviation Inc,Private Institution,11021,123 street,Grande Prairie,AB,T8V7Z3
ee0cc423f3bb0737d511,Harry Balfour School,Public,10815,104 street,Grande Prairie,AB,T8V6R2
f16ae02edee38ddd6645,Hillcrest Christian School,Private School,10306,102 street,Grande Prairie,AB,T8V2W3
fac8e747253ca52cf0b4,Ecole St. Gerard Catholic School,Separate,9724,88 avenue,Grande Prairie,AB,T8V0B7
fbb33b9a69dfb0027e8f,Parkside Montessori,Public,9617,91a avenue,Grande Prairie,AB,T8V0G7
fd9489323a65669f4c39,Grande Prairie Regional College,Junior College,10726,106th ave.,Grande Prairie,AB,T8V4C4
