Index,Facility_Name,Facility_Type,Street_No,Street_Name,City,Prov_Terr,Postal_Code
0da29e482fc7d04f8ac8,Wiltse Elementary,Public School,640,wiltse blvd,Penticton,BC,V2A8J2
10ea15f8982c26d7cb2e,Princess Margaret AIM,Public School,120,green ave w,Penticton,BC,V2A3T1
146073f506885074187e,ConnectEd - Continuing Education,Public School,324,eckhardt ave e,Penticton,BC,V2A1Z2
22add7f0518b9c23dae8,Holy Cross School,Independent School,1298,main st,Penticton,BC,V2A5G2
246ead3c2ec466b879a0,Concordia Lutheran School,Independent School,2800,south main st,Penticton,BC,V2A6W3
2d7c0ada1d3a414a9b49,Princess Margaret Secondary,Public School,120,green ave w,Penticton,BC,V2A3T1
3846b74af1ce3a5f5732,ConnectEd - Senior Alternate,Public School,274,eckhardt ave e,Penticton,BC,V2A1Z2
3940ffa754923e16a4ac,ConnectEd - Distributed Learning,Public School,324,eckhardt ave e,Penticton,BC,V2A1Z2
5839863fadc9d6c2b24d,Queens Park Elementary,Public School,330,power st,Penticton,BC,V2A5X2
6f69ad4a63690cebe3d1,Entre-Lacs,Public School,1213,debeck rd,Penticton,BC,V2A3Z1
782b213d57f49b6a8b8a,Parkway Elementary,Public School,225,kinney ave,Penticton,BC,V2A3P2
9c884d680123fef5ae0c,Penticton Secondary,Public School,158,eckhardt ave e,Penticton,BC,V2A1Z3
a41c728d802c838a1643,Carmi Elementary,Public School,400,carmi ave,Penticton,BC,V2A3G5
b92bfaea25c278a37cd2,Sprott Shaw College - Penticton,Private Institution,101,skaha lake road,Penticton,BC,V2A6E8
bdf8d9fd8508938c3110,Columbia StrongStart Centre,StrongStart BC,1437,allison st,Penticton,BC,V2A3X5
c8d8b7e287d1266afeb9,Columbia Elementary,Public School,1437,allison st,Penticton,BC,V2A3X5
d6ce1761b07680d6de5a,Uplands Elementary,Public School,145,middle bench rd s,Penticton,BC,V2A8S7
d7838f61f338c2e5b0b0,KVR Middle School,Public School,300,jermyn ave,Penticton,BC,V2A2E1
e02821fb860e11d70adc,Queens Park StrongStart Centre,StrongStart BC,330,power st,Penticton,BC,V2A5X2
e4f7e2571e103c8d197b,Penticton Christian School,Independent School,,,Penticton,BC,V2A2G8
f1682b6b957617a660ef,Penticton Secondary Stride,Public School,158,eckhardt ave e,Penticton,BC,V2A1Z3
f721673b0cd36fad7be4,Secondaire de Penticton,Public School,1077,nelson ave,Penticton,BC,V2A2N1
