Index,Facility_Name,Facility_Type,Street_No,Street_Name,City,Prov_Terr,Postal_Code
015268b65f8db6f30bb6,Terry Fox Elementary,Public School,3071,babich st,Abbotsford,BC,V2S5W5
03bd6566db95fafca766,Abbotsford Senior Secondary School,Public School,33355,bevan ave,Abbotsford,BC,V2S0E7
073239dad640b1bb9cea,Margaret Stenersen Elementary,Public School,3060,old clayburn rd,Abbotsford,BC,V2S4H3
0bb403d0d4930728f8d9,St John Brebeuf,Independent School,2747,townline rd,Abbotsford,BC,V2T5E1
0d6ff117f984650179f2,Dr Roberta Bondar Elementary,Public School,32717,chilcotin dr,Abbotsford,BC,V2T5S5
106b7929ea8957f6725e,Abbotsford Christian School,Independent School,35011,old clayburn rd,Abbotsford,BC,V2S7L7
12fb6bea74522d367547,Clearbrook StrongStart Centre,StrongStart BC,3614,clearbrook rd,Abbotsford,BC,V2T6N3
14d45b5e784134d506e0,South Poplar Traditional Elementary,Public School,32746,huntingdon rd,Abbotsford,BC,V2T5Z1
1b79b13a05b006b58114,Margaret Stenersen StrongStart Centre,StrongStart BC,3060,old clayburn rd,Abbotsford,BC,V2S4H3
24c61a4d5e94c4d49c06,Centennial Park Elementary,Public School,2527,gladwin rd,Abbotsford,BC,V2T3N8
280e814b339565e53bc8,Kosmetae Academy,Private Institution,3 32700,george ferguson way,Abbotsford,BC,V2T4V6
28c5ec459fbe0793d3c0,Sandy Hill Elementary,Public School,3836,old clayburn rd,Abbotsford,BC,V3G2Z5
29a4bf4d164778e4bdb5,Chinook Helicopters (1982) Ltd.,Private Institution,30720,rotor drive,Abbotsford,BC,V2T6H5
2d5d6813099a9fb0bba6,Pacific Christian School,Independent School,29623,downes rd,Abbotsford,BC,V4X1Z8
2de74349f80d36b26759,ASIA - Sumas Mountain 6-9,Public School,36232,lower sumas mtn rd,Abbotsford,BC,V3G2J3
2df469b3d65c601418cf,Columbia Bible College,Private Institution,2940,clearbrook rd.,Abbotsford,BC,V2T2Z8
2ec72dcc52aa37542162,Blue Jay Elementary,Public School,30995,southern dr,Abbotsford,BC,V2T6X5
3321b54b2ece042031fe,Vancouver Career College - Abbotsford,Private Institution,2121,clearbrook road,Abbotsford,BC,V2T4H6
39ef74e7a27a39d5346a,Legends Academy,Private Institution,7,-32700 george ferguson way,Abbotsford,BC,V2T4V6
3e4c28f4d49741723349,Abbotsford Virtual School,Public School,33952,pine st,Abbotsford,BC,V2S2P3
46ef8e34ace3a52bdac0,Dormick Park Elementary,Public School,32161,dormick ave,Abbotsford,BC,V2T1J6
497f5c1b68c3f3eb0fec,Abbotsford Middle School,Public School,33231,bevan ave,Abbotsford,BC,V2S0A9
49d7aae80b42b28a5832,Harry Sayers Elementary,Public School,31321,blueridge dr,Abbotsford,BC,V2T6W2
4c0b35c1691807249075,Sprott Shaw College- Abbotsford,Private Institution,1 33655,essendene avenue,Abbotsford,BC,V2S2G5
4fe3c01ef55169a3d272,Academy of Learning - Abbotsford,Private Institution,204-2692,clearbrook road,Abbotsford,BC,V2T2Y8
53ec3a2bf75e4cc7e38f,Jackson StrongStart Program,StrongStart BC,33165,king rd,Abbotsford,BC,V2S7Z9
5694b1f19658707faed7,Alexander Elementary,Public School,2250,lobban rd,Abbotsford,BC,V2S3W1
5fb021ed021bf9b91a42,Ross Elementary,Public School,2451,ross rd,Abbotsford,BC,V4X1J3
60d341da3562f6afe774,Matsqui Elementary,Public School,33661,elizabeth ave,Abbotsford,BC,V4X1T4
65503771e9967c8d26c6,Dr Thomas A Swift StrongStart Centre,StrongStart BC,34800,mierau st,Abbotsford,BC,V2S5Y4
66697efe28c066cd55eb,McMillan Elementary,Public School,34830,oakhill dr,Abbotsford,BC,V2S7R3
6ce31b0b42b7102d7f16,Bradner Elementary,Public School,5291,bradner rd,Abbotsford,BC,V4X2P5
705ae752445c4709e1ee,Abbotsford Traditional Middle School,Public School,2272,windsor st,Abbotsford,BC,V2T6M1
719a0c7a3bf3d5cac9e4,Dasmesh Punjabi School,Independent School,5930,riverside st,Abbotsford,BC,V4X1T8
77a4db2038d1a337a052,Dogwood School,Independent School,33886,pine st,Abbotsford,BC,V2S2P3
77f69e6b9e0b091ea98b,Auguston Traditional Elementary,Public School,36367,stephen leacock dr,Abbotsford,BC,V3G2Z6
78a5ff4a81d04d50c135,Bakerview Ctr for Learning - Alt,Public School,32622,marshall rd,Abbotsford,BC,V2T4A2
7905fab4d24741b282a6,Aberdeen Elementary,Public School,2975,bradner rd,Abbotsford,BC,V4X1K6
7c67e3bbc86bcb18c2a6,Godson Elementary,Public School,33130,bevan ave,Abbotsford,BC,V2S1T6
80a834b3ddbac95d9921,ASIA - Sumas Mountain 9-12,Public School,36232,lower sumas mtn rd,Abbotsford,BC,V3G2J3
846ec75d07fdb77fc5b0,Coastal Pacific Aviation Limited,Private Institution,30575,approach drive,Abbotsford,BC,V2T6H5
8af76022ab0b99c116eb,John MacLure Community School,Public School,2990,oriole cres,Abbotsford,BC,V2T4E1
9755b5edc9305de03be6,Clearbrook Elementary,Public School,3614,clearbrook rd,Abbotsford,BC,V2T6N3
a2756f2e1576315d52bc,Dormick Park StrongStart Centre,StrongStart BC,32161,dormick ave,Abbotsford,BC,V2T1J6
a545fd67d0f8ff10947d,Cornerstone Christian School,Independent School,,,Abbotsford,BC,V2T6Z7
a62bd3839f611f184ba5,Ten Broeck StrongStart Centre,StrongStart BC,2580,stanley st,Abbotsford,BC,V2T2R4
a80e091bfb68298ab542,Upper Sumas Elementary,Public School,36321,vye rd,Abbotsford,BC,V3G1Z5
b1f7b8dc14b898dd8cc4,Chief Dan George Middle,Public School,32877,old riverside rd,Abbotsford,BC,V2S8K2
b329173b178d167a9b1a,Harry Sayers StrongStart Centre,StrongStart BC,31321,blueridge dr,Abbotsford,BC,V2T6W2
