Index,Facility_Name,Facility_Type,Street_No,Street_Name,City,Prov_Terr,Postal_Code
0b241e6982f127b402d1,Vancouver Career College - Chilliwack,Private Institution,8392,young road,Chilliwack,BC,V2P4N9
1048926dec3aab21caf0,Mount Cheam Christian School,Independent School,48988,yale rd east,Chilliwack,BC,V4Z0B2
10c4a7780942ac14bd9c,Rosedale StrongStart Program,StrongStart BC,50850,yale road,Rosedale,BC,V0X1X0
1db359ec770a5ecb732e,John Calvin School,Independent School,4268,stewart rd,Chilliwack,BC,V2R5G2
23d1a6536f159a77ebd8,Strathcona Elementary,Public School,46375,strathcona rd,Chilliwack,BC,V2P3T1
3a42fb01b355492dfad1,Unity Christian School,Independent School,,,Chilliwack,BC,V2P6J4
3b28de4c57b0f40c5161,Franc Depart La-Verendrye StrongStart,StrongStart BC,6610,lickman rd,Chilliwack,BC,V2R4A9
42aa18f4dbd5c51456f3,Cheam Elementary,Public School,9895,banford rd,Chilliwack,BC,V2P6H3
48b2218bf6cca97b3e2f,A D Rundle Middle School,Public School,45660,hocking ave,Chilliwack,BC,V2P1A1
5ebf08dfab8341f62108,Chilliwack Central Elementary Community,Public School,9435,young rd,Chilliwack,BC,V2P2P9
8286830a6c30b53fbebe,St Mary's,Independent School,8909,mary st,Chilliwack,BC,V2P4J4
83b7b09184ff07705ca6,Chilliwack Middle School,Public School,46354,yale rd,Chilliwack,BC,V2P2R1
94b316660c65a48f9b38,La Verendrye,Public School,6610,lickman rd,Chilliwack,BC,V2R4A9
94cb2fae01b84a4e392a,Highroad Academy,Independent School,46641,chilliwack central rd,Chilliwack,BC,V2P1K3
9825dff841f1e6b60533,Sprott Shaw College - Chilliwack,Private Institution,45860,cheam avenue,Chilliwack,BC,V2P1N6
9bd496e8a9ed800984a6,Little Mountain Elementary,Public School,9900,carleton st,Chilliwack,BC,V2P6E1
a2f0e849294c648c4931,East Chilliwack Elementary,Public School,49190,chilliwack central rd,Chilliwack,BC,V2P6H3
a39d400064e88607eb75,Mount Slesse Middle School,Public School,5871,tyson rd,Chilliwack,BC,V2R2R3
aa89a183462095d49b4a,McCammon Traditional Elementary,Public School,9601,hamilton st,Chilliwack,BC,V2P3X4
ac72e828f0b65f547179,Evans Elementary,Public School,7600,evans rd,Chilliwack,BC,V2R1L2
ad6d9e7350d2bec5567f,Robertson Elementary,Public School,46106,southlands cres,Chilliwack,BC,V2P1B1
ae471a0b9f83b7917477,Promontory Heights Community Elementary,Public School,46200,stoneview dr,Chilliwack,BC,V2R5W8
af2c8fd7685a6513a348,Kwiyeqel Secondary,Public School,8855,elm dr,Chilliwack,BC,V2P4Y8
b435f8677f34eaaab6d6,F G Leary Fine Arts Elementary,Public School,9320,walden st,Chilliwack,BC,V2P7Y2
b68a93d9012edd91a27f,Timothy Christian School,Independent School,50420,castleman rd,Chilliwack,BC,V2P6H4
c59244ef478563ae4068,Vedder Middle School,Public School,45560,south sumas rd,Chilliwack,BC,V2R1S3
c736aa1d47943ad25f50,Chilliwack Adventist Christian School,Independent School,46018,riverside dr,Chilliwack,BC,V2P3K8
cd343ce4fa3fc0b6b62c,Vedder Elementary,Public School,45850,promontory rd,Chilliwack,BC,V2R5Z5
d356c2c0d90777c009b0,Bernard Elementary,Public School,45465,bernard ave,Chilliwack,BC,V2P1H5
d4787d0a5266521a00d1,Cascade Christian School,Independent School,45657,yale road,Chilliwack,BC,V2P2N1
de511eb6fc55e30aa9bb,Unsworth Elementary,Public School,5685,unsworth rd,Chilliwack,BC,V2R4P5
df52c777cddcbdcb34e4,McCammon StrongStart Centre,StrongStart BC,9601,hamilton st,Chilliwack,BC,V2P3X4
f0ea0104e890fcc8e21a,Rosedale Traditional Community,Public School,50850,yale rd rr 1,Rosedale,BC,V0X1X2
f70b6da0365bfb43577a,Unsworth StrongStart Centre,StrongStart BC,5685,unsworth rd,Chilliwack,BC,V2R4P5
f74d0f72cc10e04068f3,Little Mountain StrongStart Centre,StrongStart BC,9900,carleton st,Chilliwack,BC,V2P6E5
feb377bf0cadd19d9416,Greendale Elementary,Public School,6621,sumas prairie rd,Chilliwack,BC,V2R4K1
