Index,Facility_Name,Facility_Type,Street_No,Street_Name,City,Prov_Terr,Postal_Code
c109d371e09b7ae663de,BC Helicopters Ltd.,Private Institution,1404,townline rd,Langley,BC,V2T6E1
c2cdc200648087b5e114,Blue Jay Elementary StrongStart,StrongStart BC,30995,southern dr,Abbotsford,BC,V2T6X5
c3955e6af1c52c6e57e6,Ten Broeck Elementary,Public School,2580,stanley st,Abbotsford,BC,V2T2R4
c55f49bdf4bb03f60100,Jackson Elementary,Public School,33165,king rd,Abbotsford,BC,V2S7Z9
c5e18bd692e11da47563,Colleen and Gordie Howe Middle School,Public School,3174,clearbrook rd,Abbotsford,BC,V2T4N6
ccd877a6302820892151,Abbotsford Traditional Senior Secondary,Public School,2272,windsor st,Abbotsford,BC,V2T6M1
d10b461df4dcdc390e87,Terry Fox StrongStart Centre,StrongStart BC,3071,babich st,Abbotsford,BC,V2S5W5
d32c928cc70eae0b4f6c,Godson StrongStart Centre,StrongStart BC,33130,bevan ave,Abbotsford,BC,V2S1T6
d4952ccac0f2a36d97ba,Clayburn Middle School,Public School,35139,laburnum ave,Abbotsford,BC,V2S8N3
d6ef5d355d4ebdf5eca3,Yale Secondary,Public School,34620,old yale rd,Abbotsford,BC,V2S7S6
d894f41955e9dbb35182,Rick Hansen Secondary,Public School,31150,blueridge dr,Abbotsford,BC,V2T5R2
db56dab041d1fc18f80d,St James,Independent School,2767,townline rd,Abbotsford,BC,V2T5E1
de6e91f95d810be20fa7,Mt Lehman Elementary,Public School,6381,mt lehman rd,Abbotsford,BC,V4X2G5
de87fb6a3b2598a65a20,Mennonite Educational Institute,Independent School,4081,clearbrook rd,Abbotsford,BC,V4X2M8
e71ab48d2087b242e149,King Traditional Elementary,Public School,28776,king rd,Abbotsford,BC,V4X2R4
e7f51e63696a0eddac0a,Summit Pacific College,Private Institution,35235,straiton rd,Abbotsford,BC,V2S7E7
e94f5118969670dade32,University of the Fraser Valley,University,33844,king road,Abbotsford,BC,V2S7M8
ebd6304803a0443efebe,Ashton College - Abbotsford,Private Institution,110-30475,cardinal ave,Abbotsford,BC,V2T0E4
ecd2fb0972d28c9d5430,Prince Charles Elementary,Public School,35410,mckee rd,Abbotsford,BC,V3G3B1
ed997fa158dbee03ca23,W J Mouat Secondary,Public School,32355,mouat dr,Abbotsford,BC,V2T4E9
eef40a4ed5e864caad5c,Dr Thomas A Swift Elementary,Public School,34800,mierau st,Abbotsford,BC,V2S5Y4
eff0c263e504a883cc21,Robert Bateman Secondary,Public School,35045,exbury ave,Abbotsford,BC,V2S7L1
f557881e2e57b6010deb,Eugene Reimer Middle School,Public School,3433,firhill dr,Abbotsford,BC,V2T6X6
f619730b70c7e2ac2416,Alexander StrongStart Centre,StrongStart BC,2250,lobban rd,Abbotsford,BC,V2S3W1
f79f172116979972d36b,ASIA - North Poplar,Public School,32041,marshall rd,Abbotsford,BC,V2T1A2
fa6a0e39d0d2cfa7e2c0,John MacLure StrongStart Centre,StrongStart BC,2990,oriole cres,Abbotsford,BC,V2T4E1
fbc682689bd5a9505f74,Barrowtown Elementary,Public School,5137,tolmie rd,Abbotsford,BC,V3G2V4
