Index,Facility_Name,Facility_Type,Street_No,Street_Name,City,Prov_Terr,Postal_Code
b642a75b1546590ca7e1,Ocean Quest Watersports Ltd,Private Institution,#107-3790,canada way,Burnaby,BC,V5G1G4
b9b83b96506df3f399c0,Burnaby Central Secondary,Public School,6011,deer lake parkway,Burnaby,BC,V5G0A9
c31b36bd8b240bf77ace,Rosser Elementary,Public School,4375,pandora st,Burnaby,BC,V5C2B6
c4155933e626e56a6177,Create Career College - Burnaby,Private Institution,650-4789,kingsway,Burnaby,BC,V5H0A3
ca2a2cf456a381f1790c,John Knox Christian - Elementary Campus,Independent School,8260,13th ave,Burnaby,BC,V3N2G5
cc143a92d93652094995,Clinton Elementary,Public School,5858,clinton st,Burnaby,BC,V5J2M3
d07feb39237e27ecde3b,Lochdale Community Elementary,Public School,6990,aubrey st,Burnaby,BC,V5B2E5
d2dffa80d1ba5b91a0e6,Dominion Herbal College,Private Institution,271,byrne rd,Burnaby,BC,V5J3J1
d2f07f4184261de8d1b2,Kitchener StrongStart Centre,StrongStart BC,1351,gilmore ave,Burnaby,BC,V5C4S8
d8adff5163734e772e92,Brighton College - Burnaby,Private Institution,305 4538,kingsway,Burnaby,BC,V5H4T9
d93f1c03550cdd19ba56,Lochdale Community StrongStart Centre,StrongStart BC,6990,aubrey st,Burnaby,BC,V5B2E5
dd8f80773e7e7eeec658,PCU College of Holistic Medicine,Private Institution,100 5021,kingsway,Burnaby,BC,V5H4A5
e1837fbe291975a572a1,Gilpin Elementary,Public School,5490,eglinton st,Burnaby,BC,V5G2B2
e1886d219634b6204b4a,Simon Fraser University,University,8888,university drive,Burnaby,BC,V5A1S6
e2f830f4a881480129fb,Alpha Secondary,Public School,4600,parker st,Burnaby,BC,V5C3E2
e3d6968360a8a914ebfe,Kitchener Elementary,Public School,1351,gilmore ave,Burnaby,BC,V5C4S8
e42f528c20a7e2545f2f,Cameron Elementary,Public School,9540,erickson dr,Burnaby,BC,V3J1M9
eb1b1df77a19e3e18876,St Helen's,Independent School,3894,triumph st,Burnaby,BC,V5C1Y7
f75950b9e7852859af74,Confederation Park Elementary,Public School,4715,pandora st,Burnaby,BC,V5C2C2
ffb21bf4bb6ea1df7b05,Royal Metro College,Private Institution,403,north rd,Coquitlam,BC,V3K3V9
ffe80abf05b277dea5a7,Armstrong Elementary,Public School,8757,armstrong ave,Burnaby,BC,V3N2H8
