Index,Facility_Name,Facility_Type,Street_No,Street_Name,City,Prov_Terr,Postal_Code
01a6bd1746d2a29f5a1f,Ã‰cole Riverdale Elementary,Public School,14835,108a ave,Surrey,BC,V3R1W9
038d496ae912ee915819,Cloverdale Traditional,Public School,17857,56 ave,Surrey,BC,V3S1E2
03b3c5fcb1ac0b92dc5b,Jessie Lee Elementary,Public School,2064,154 st,Surrey,BC,V4A4S3
042e9a02cc4bd1a47613,Enver Creek Secondary,Public School,14505,84 ave,Surrey,BC,V3S8X2
067127e996e4da98d3b2,Latimer Road Elementary,Public School,19233,60 ave,Surrey,BC,V3S2T5
06ace75fc4af6ce65fa4,Walnut Road Elementary,Public School,16152,82 ave,Surrey,BC,V4N0N5
07186b90ef2bdf6b17c3,Cambridge Elementary,Public School,6115,150 st,Surrey,BC,V3S3H7
072eeba1955c02194b6b,Vancouver Hairdressing Academy - Surrey,Private Institution,,,Surrey,BC,V4P1G6
0867ea0efea266206a2e,St Bernadette,Independent School,13130,65b ave,Surrey,BC,V3W9M1
0940d113e44dd4c07122,Woodward Hill Elementary,Public School,6082,142 st,Surrey,BC,V3X1C1
09d5de5341208ecc42f4,H T Thrift Elementary,Public School,1739,148 st,Surrey,BC,V4A4M6
0e8a9d8eaf8166dc60fb,Southridge School,Independent School,2656,160 st,Surrey,BC,V3Z0B7
0e9fad4d2e9768577827,Tamanawis Secondary,Public School,12600,66 ave,Surrey,BC,V3W2A8
0f3ff313c4afcfcdc370,Fraser Wood Elementary,Public School,10650,164 st,Surrey,BC,V4N1W8
0f53ade9d937161640ed,North Ridge Elementary,Public School,13460,62 ave,Surrey,BC,V3X2J2
12651cd291aefb0e313a,Jessie Lee StrongStart Centre,StrongStart BC,2064,154 st,Surrey,BC,V4A4S3
1515937c9340c97b75af,SD 36 StrongStart BC Outreach Program #1,StrongStart BC,12834,115a ave,Surrey,BC,V3R2X4
164e652e0687f05ba1e2,Lena Shaw StrongStart Centre,StrongStart BC,14250,100a ave,Surrey,BC,V3T1K8
16c5b5e99aea8e1bc726,Surrey Centre Elementary,Public School,16670,old mclellan rd,Surrey,BC,V3S1K3
1b2aba0175b322ea808e,Hyland Elementary,Public School,6677,140 st,Surrey,BC,V3W5J3
1bda116cffa78b7b977d,Sullivan Heights Secondary,Public School,6248,144 st,Surrey,BC,V3X1A1
1e873846ea0a5ebec311,Hazelgrove Elementary,Public School,7057,191 street,Surrey,BC,V4N6E5
1f0b77764805a474b148,Frost Road Elementary,Public School,8606,162 st,Surrey,BC,V4N1B5
20fd9819907e2e44ac8b,Lord Tweedsmuir Secondary,Public School,6151,180 st,Surrey,BC,V3S4L5
248edb328254c38181ed,Lena Shaw Elementary,Public School,14250,100a ave,Surrey,BC,V3T1K8
26ac5d806469624b8ac4,David Brankin Elementary,Public School,9160,128 st,Surrey,BC,V3V5M8
284fc26d3194e1a05d62,Martha Jane Norris Elementary,Public School,12928,66a ave,Surrey,BC,V3W8Z7
28810f1c2508ba9eee68,Westerman StrongStart Centre,StrongStart BC,7626,122 st,Surrey,BC,V3W1H4
29229121fdf14d462073,Westerman Elementary,Public School,7626,122 st,Surrey,BC,V3W1H4
2960fcd0fdce648c88dc,Cedar Hills Elementary,Public School,12370,98 ave,Surrey,BC,V3V2K3
2a244a82985767a4e4eb,Cindrich StrongStart Centre,StrongStart BC,13455,90 ave,Surrey,BC,V3V8A2
2a25daa3dfd08405d058,Cambria College - Surrey,Private Institution,10388,whalley boulevard,Surrey,BC,V3T4H4
2b9ee4ac4bc22f17d213,Sterling College - Surrey,Private Institution,320,king george blvd,Surrey,BC,V3T2W5
2cff6abb73734aa9f717,West Coast College of Health Care,Private Institution,,,Surrey,BC,V3T2X9
2df7b6eeddbf29d0d24a,McLeod Road Traditional,Public School,6325,142 st,Surrey,BC,V3X1B9
30a120cee4065364ee68,T E Scott Elementary,Public School,7079,148 st,Surrey,BC,V3S3E5
32744735f687eb2759d3,Cindrich Elementary,Public School,13455,90 ave,Surrey,BC,V3V8A2
32ef263cff1714d442c7,Heritage Community College,Private Institution,8166,128 street,Surrey,BC,V3W1R1
35e18229dcb5995096a5,Simon Cunningham Elementary,Public School,9380,140 st,Surrey,BC,V3V5Z4
36521bb0c4c5d522f6d0,SD36 Alternate North Surrey LC,Public School,9260,140 st,Surrey,BC,V3V5Z4
3871df37dffec54644b4,Kwantlen Park Secondary,Public School,10441,132 st,Surrey,BC,V3T3V3
394cd39e964457010362,Gabrielle-Roy,Public School,6887,132 st,Surrey,BC,V3W4L9
3c785efa8818b53ab931,Clayton Elementary,Public School,7541,184 st,Surrey,BC,V4N3G5
3c9d063809f2c7a36c2f,Georges Vanier StrongStart Centre,StrongStart BC,6985,142 st,Surrey,BC,V3W5N1
3ebded8adbacf7e4a6c7,Princess Margaret Secondary,Public School,12870,72 ave,Surrey,BC,V3W2M9
3ef377935406f7a87d70,Forsyth Road Elementary,Public School,10730,139 st,Surrey,BC,V3T4L9
4107475ae9d185272777,Academy of Learning - Surrey,Private Institution,,,Surrey,BC,V3W2P2
41c6f3dac7a732a9f0f9,Strawberry Hill Elementary,Public School,7633,124 st,Surrey,BC,V3W8N2
4339d8dc371a4848a231,Forsyth Road StrongStart Centre,StrongStart BC,10730,139 st,Surrey,BC,V3T4L9
