Index,Facility_Name,Facility_Type,Street_No,Street_Name,City,Prov_Terr,Postal_Code
098cdfd9a97f35465e67,Gray Elementary,Public School,10855,80 ave,Delta,BC,V4C1W4
127fec0f51638fab98e1,Hellings Elementary,Public School,11655,86 ave,Delta,BC,V4C2X5
15883248d009fa850fc4,Chalmers StrongStart Centre,StrongStart BC,11315,75 ave,Delta,BC,V4C1H4
4799754c8958499f3aa8,Holly Elementary,Public School,4625,62 st,Delta,BC,V4K3L8
70b997f535769ed2d174,Gibson Elementary,Public School,11451,90 ave,Delta,BC,V4C3H3
770fca0d9511b6d0f6aa,Beach Grove Elementary,Public School,5955,17a ave,Delta,BC,V4L1J7
7be8dcd267f47bd71573,Delview Secondary,Public School,9111,116 st,Delta,BC,V4C5W8
7ea81a215ac416221e99,Sunshine Hills Elementary,Public School,11285,bond blvd,Delta,BC,V4E1N3
7eb1617fe1c9364f2043,du Bois-Joli,Public School,785,49 st,Tsawwassen,BC,V4M2P3
81a7644c2b7fa24fb3d5,Ladner Elementary,Public School,5016,44 ave,Delta,BC,V4K1C1
83b873fe81f7069656d8,Burnsview Secondary,Public School,7658,112 st,Delta,BC,V4C4V8
8404e6d2d5d9b215fa41,Cliff Drive Elementary,Public School,5025,12 ave,Delta,BC,V4M2A7
84c6afdd4f2c108a634f,McCloskey Elementary,Public School,11531,80 ave,Delta,BC,V4C1X5
868f293e66a4ac615db7,Southpointe Academy,Independent School,1900,56 st,Delta,BC,V4L2B1
8b60e9817fb35b62f10d,McCloskey Elementary PM StrongStart Cent,StrongStart BC,11531,80 ave,Delta,BC,V4C1X5
8c6fdf37b346d0e44d0a,Richardson Elementary,Public School,11339,83 ave,Delta,BC,V4C7B9
8eaeafcdead3e6d722f5,Chalmers Elementary,Public School,11315,75 ave,Delta,BC,V4C1H4
908c4f714594f1514525,South Delta Secondary,Public School,750,53 st,Delta,BC,V4M3B7
93130ef09a3d70f5c391,Cougar Canyon Elementary,Public School,11664,lyon rd,Delta,BC,V4E2K4
9360d67f41d84bb2f577,Devon Gardens Elementary,Public School,8884,russell dr,Delta,BC,V4C4P8
a2edabede48b7dea2261,Delta Continuing Education,Public School,4750,57 st,Delta,BC,V4K3C9
b08f24aeb4b81e25a6e0,Port Guichon Elementary,Public School,4381,46a st,Delta,BC,V4K2M2
b1339d7ffd92c617efda,English Bluff Elementary,Public School,402,english bluff rd,Delta,BC,V4M2N2
b15b08b2b063e6ed3342,Delta Christian School,Independent School,4789,53 st,Delta,BC,V4K2Y9
c0e4dbaf688c7ba0d27c,South Park Elementary,Public School,735,gilchrist dr,Delta,BC,V4M3L4
c3b1b0e6eba86e667a68,Pinewood Elementary,Public School,11777,pinewood dr,Delta,BC,V4E3E9
c61643a355716be086c4,Neilson Grove Elementary,Public School,5500,admiral blvd,Delta,BC,V4K5B7
c6974256ec94437306e1,Jarvis Traditional Elementary,Public School,7670,118 st,Delta,BC,V4C6G8
c97fd48a4c30b68ec6c7,Sands Secondary,Public School,10840,82 ave,Delta,BC,V4C2B3
c9e2379b482d991618ad,UA Piping Industry College of BC- Delta,Private Institution,,,Delta,BC,V3M6S6
d506bed113d5e2dac714,North Delta Secondary,Public School,11447,82 ave,Delta,BC,V4C5J6
e2f86c65f850a53cbfdc,Western Community College,Private Institution,,201-209 8318 120 street,Surrey,BC,V3M3N4
e3b2b61e48c9eff67a65,Seaquam Secondary,Public School,11584,lyon rd,Delta,BC,V4E2K4
efbf7687fd327ffeb3b6,Jarvis StrongStart Centre,StrongStart BC,7670,118 st,Delta,BC,V4C6G8
f72f21bb829339ad55fa,Hellings StrongStart Centre,StrongStart BC,11655,86 ave,Delta,BC,V4C2X5
f752eb83c76ef0e0a858,Hawthorne Elementary,Public School,5160,central ave,Delta,BC,V4K2H2
fc37813b27af85399318,McCloskey Elementary AM StrongStart Cent,StrongStart BC,11531,80 ave,Delta,BC,V4C1X5
