Index,Facility_Name,Facility_Type,Street_No,Street_Name,City,Prov_Terr,Postal_Code
ad5ef26d738d575b91f7,Cloverdale Learning Centre,Public School,200-5658,176 st,Surrey,BC,V3S4C6
aff290e7cfb3f75239de,Don Christian Elementary,Public School,6256,184 st,Surrey,BC,V3S8E6
b09dea91b43d571c7ac9,K B Woodward Elementary,Public School,13130,106 ave,Surrey,BC,V3T2C3
b25cb15a98c0f604cbe7,S Fraser Adolescent Day Treatment Prog.,Public School,14033,92 ave,Surrey,BC,V3V0B7
b268098e5bdc26a5408c,Kwantlen Polytechnic University,University,12666,72 avenue,Surrey,BC,V3W2M8
b33635f66ea2e6b097cb,SAIL Secondary,Public School,14033,92 ave,Surrey,BC,V3V0B7
b542e9bd275b2640d74f,South Surrey/White Rock Learning Centre,Public School,13-2320,king george hwy,Surrey,BC,V4A5A5
b56e9990e233ea4107a4,Mary Jane Shannon Elementary,Public School,10682,144 st,Surrey,BC,V3T4W1
b62ebfab851e568b8f32,Hjorth Road StrongStart Centre,StrongStart BC,14781,104 ave,Surrey,BC,V3R5X4
b855cea6b70b63b3e18e,Old Yale Road Elementary,Public School,10135,132 st,Surrey,BC,V3T3T6
b880104a302f83899520,Sullivan Elementary,Public School,6016,152 st,Surrey,BC,V3S3K6
b95ff2ca73acbc25c308,Our Lady of Good Counsel,Independent School,10504,139 st,Surrey,BC,V3T4L5
bb3d43fe1433fda61398,Adolescent Psychiatric Unit Prog,Public School,14033,92 ave,Surrey,BC,V3V0B7
bc65da2db053f515149c,Berkshire Park Elementary,Public School,15372,94 ave,Surrey,BC,V3R1E3
bd72a589ee4ebd60eecf,Bothwell Elementary School,Public School,17070,102 ave,Surrey,BC,V4N4N6
c00e28b61af0c78db848,SD36 Alternate Guildford LC,Public School,10183,152a st,Surrey,BC,V3R4H6
c05d6745612d6df1b34c,BC College of Optics,Private Institution,7327,137th street,Surrey,BC,V3W1A4
c0b31efa4b5cecd89048,Earl Marriott Secondary,Public School,15751,16 ave,Surrey,BC,V4A1S1
c37df36c7f432a688c5e,Halls Prairie Elementary,Public School,18035,8 ave,Surrey,BC,V3S9P9
c3b2288b94d8a6c1e913,M B Sanford StrongStart Centre,StrongStart BC,7318,143 st,Surrey,BC,V3W7T6
c5ed1cd8cc7fbcc03a2b,Ocean Cliff Elementary,Public School,12550,20 ave,Surrey,BC,V4A1Y6
c6e8aaca61175cbf2904,Henry Bose Elementary,Public School,6550,134 st,Surrey,BC,V3W4S3
c88299d643b8c79184c9,Laronde Elementary,Public School,1880,laronde dr,Surrey,BC,V4A9S4
c8ab967e343d24e2c5d3,Vancouver Career College - Surrey,Private Institution,230,13401 108 ave,Surrey,BC,V3T5T3
cae0746cd660a1f80e92,George Greenaway Elementary,Public School,17285,61a ave,Surrey,BC,V3S1W3
caf449ba60d06cc30c48,Strawberry Hill StrongStart Centre,StrongStart BC,7633,124 st,Surrey,BC,V3W8N2
cb880e5d7bd9fd3c800f,James Ardiel StrongStart Centre,StrongStart BC,13751,112 ave,Surrey,BC,V3R2G4
cf6ab552b8b114ca5327,Body Bar Laser Academy,Private Institution,3237,king george blvd,Surrey,BC,V4P1B7
cfa80c1b784ad3820841,Daughters and Sisters(PLEA)Program,Public School,14033,92 ave,Surrey,BC,V3V0B7
d0328082761e052ff6f4,Sikh Academy,Independent School,12895-85,ave,Surrey,BC,V3W0K8
d0b5b733d2455172df8d,Elgin Park Secondary,Public School,13484,24 ave,Surrey,BC,V4A2G5
d0cc4a1f9b0cdd1734e0,Adams Road Elementary,Public School,18228,68 ave,Surrey,BC,V3S9H5
d418bc2ff51c00e8bf7d,A J McLellan Elementary,Public School,16545,61 ave,Surrey,BC,V3S5V4
d482447095e9436a55df,Janice Churchill Elementary,Public School,8226,146 st,Surrey,BC,V3S3A5
d4e93e1c19520a86ab59,Maple Green Elementary,Public School,14898,spenser dr,Surrey,BC,V3S7K7
d60ff3ede4d7babc2ff4,William Watson Elementary,Public School,16450,80 ave,Surrey,BC,V4N0H3
da75d0431cde090c2060,George Greenaway StrongStart Centre,StrongStart BC,17285,61a ave,Surrey,BC,V3S1W3
dcf270fc788fceb093f3,Martha Currie StrongStart Centre,StrongStart BC,5811,184 st,Surrey,BC,V3S4N2
e147116e13663656b57f,Pacific Academy,Independent School,10238,168 st,Surrey,BC,V4N1Z4
e5ab83d346e223b19bc9,Mountainview Montessori,Public School,15225,98 ave,Surrey,BC,V3R1J2
e5f2a2dc02394280a01a,Harold Bishop Elementary,Public School,15670,104 ave,Surrey,BC,V4N2J3
e76ff75fd3ccdcfa91d6,Regent Christian Academy,Independent School,15100,66a ave,Surrey,BC,V3S2A6
e852bf4db9c1da92c645,Dogwood Elementary,Public School,10752,157 st,Surrey,BC,V4N1K6
e97b05d323a7668bcff7,Education Services,Public School,14033,92 ave,Surrey,BC,V3V0B7
eb9fd57b398dd9b1fc52,Martha Currie Elementary,Public School,5811,184 st,Surrey,BC,V3S4N2
ec85d87fc79e5c0f175f,Surrey Academy of Innovative Learning,Public School,14033,92 ave,Surrey,BC,V3V0B7
ee085a59c5fae17db64e,James Ardiel Elementary,Public School,13751,112 ave,Surrey,BC,V3R2G4
f3b14e8d84526dd42943,Royal Heights Elementary,Public School,11665,97 ave,Surrey,BC,V3V2B9
f4107c43f4f7f7b4e41e,CDI College of Business- Technology & Healthcare - South Surrey,Private Institution,112-14928,56th ave,Surrey,BC,V3S2N5
