Index,Facility_Name,Facility_Type,Street_No,Street_Name,City,Prov_Terr,Postal_Code
0e1b652fe3385d175384,Braemar Elementary,Public School,3600,mahon ave,North Vancouver,BC,V7N3T6
0fea5b87ed82f6582b8b,Montroyal StrongStart Centre,StrongStart BC,5310,sonora dr,North Vancouver,BC,V7R3V8
1241cd6a9003431d5a5b,Mountainside Secondary,Public School,3365,mahon ave,North Vancouver,BC,V7N3T7
17ba77affea744a5e46c,Argyle Secondary,Public School,1131,frederick rd,North Vancouver,BC,V7K1J3
1d0d70576f1efec0dae7,Blueridge Elementary,Public School,2650,bronte dr,North Vancouver,BC,V7H1M4
20a5f7d3e5321ee49208,Windsor Secondary,Public School,931,broadview dr,North Vancouver,BC,V7H2E9
210fbbbea14cb48022f9,Vancouver Waldorf School,Independent School,2725,st. christopher's rd,North Vancouver,BC,V7K2B6
218842d0c292dee062f5,Handsworth Secondary,Public School,1044,edgewood rd,North Vancouver,BC,V7R1Y7
271678d670d02b6d7638,Capilano University,University,2055,purcell way,North Vancouver,BC,V7J3H5
2ec9fee7033af944726f,Canyon Heights Elementary,Public School,4501,highland blvd,North Vancouver,BC,V7R3A2
2f0119871a0fb46a5cde,Norgate StrongStart Centre,StrongStart BC,1295,sowden st,North Vancouver,BC,V7P1L9
31111d7855ea78af2042,Upper Lynn Elementary,Public School,1540,coleman st,North Vancouver,BC,V7K1W8
3c626fef55171556fa26,Seymour Heights StrongStart Centre,StrongStart BC,2640,carnation st,North Vancouver,BC,V7H1H5
40847b3e1066bb7af32c,Ross Road Elementary,Public School,2875,bushnell pl,North Vancouver,BC,V7J2Y9
474ef16710fbd990e854,Brockton Preparatory School,Independent School,3467,duval rd,North Vancouver,BC,V7J3E8
4fef464ef14d487752e4,Eastview Elementary,Public School,1801,mountain hwy,North Vancouver,BC,V7J2M7
62ee9bd2638b168dfee0,Lions Gate Christian Academy,Independent School,919,tollcross rd,North Vancouver,BC,V7H2G3
6332fcbb60fc701aa168,Cove Cliff Elementary,Public School,1818,banbury rd,North Vancouver,BC,V7G1W4
6b5d87c3fe64f7501321,Eastview StrongStart Centre,StrongStart BC,1801,mountain hwy,North Vancouver,BC,V7J2M7
7154abf6eb7cfc0eade1,Carisbrooke Elementary,Public School,510,carisbrooke rd e,North Vancouver,BC,V7N1N5
7fefc3a355a0f9b5fcd8,Lynnmour Elementary School,Public School,800,forsman ave,North Vancouver,BC,V7J2G6
8ebdb2eb0d432a86319b,Montroyal Elementary,Public School,5310,sonora dr,North Vancouver,BC,V7R3V8
aa4a5d84bdae938a7fa9,Cousteau L'Ecole Francaise Interna'le,Independent School,3657,fromme rd,North Vancouver,BC,V7K2E6
ae7d31d48e503271fca6,Highlands Elementary,Public School,3150,colwood dr,North Vancouver,BC,V7R2R6
afe2274141d7bb267a95,Dorothy Lynas Elementary,Public School,4000,inlet cres,North Vancouver,BC,V7G2R2
b1a51c091b7b1fb9f38a,Lynn Valley Elementary,Public School,3207,institute road,North Vancouver,BC,V7K3E5
c06b0bcf2910c6bef534,Kenneth Gordon,Independent School,420,seymour river pl,North Vancouver,BC,V7H1S8
c22dff6cff983d65d53c,Andre-Piolat,Public School,380,kings rd w,North Vancouver,BC,V7N2L9
c63aa412a3db3be4514f,Brooksbank Elementary,Public School,980,13th st e,North Vancouver,BC,V7L2N2
cbae515c780c1fa746b9,North Star Montessori Elementary School,Independent School,1325,keith rd e,North Vancouver,BC,V7J1J3
cdd6391f8d7521ab3979,Seymour Heights Elementary,Public School,2640,carnation st,North Vancouver,BC,V7H1H5
cf3082efd68018d4f950,Norgate Community Elementary,Public School,1295,sowden st,North Vancouver,BC,V7P1L9
d4a0c79e191e145ef48f,St Pius X Elementary School,Independent School,1150,mount seymour rd,North Vancouver,BC,V7G1R6
d68ff78246e14f9d6ade,Sherwood Park Elementary,Public School,4085,dollar rd,North Vancouver,BC,V7G1A5
d7cb3a034d450cd13997,Cleveland Elementary,Public School,1255,eldon rd,North Vancouver,BC,V7R1T5
e768870ce128c39a50cf,Seycove Secondary Community,Public School,1204,caledonia ave,North Vancouver,BC,V7G2A6
f43d99ce607d89df44bc,North Vancouver Online Learning,Public School,3365,mahon ave,North Vancouver,BC,V7N3T7
fe2fca027b2d40f2eb5c,Lynnmour StrongStart Centre,StrongStart BC,800,forsman ave,North Vancouver,BC,V7J2G6
