Index,Facility_Name,Facility_Type,Street_No,Street_Name,City,Prov_Terr,Postal_Code
7be742c621096dc780af,SD36 Alternate S.Surrey/White Rock LC,Public School,,,Surrey,BC,V4A5A5
7c7b9b77f4e1cd2dbb1f,Guildford learning Centre,Public School,,,Surrey,BC,V3R4H6
7caa56121d29b9ec553d,Guildford Park Secondary,Public School,10707,146 st,Surrey,BC,V3R1T5
7ef7b2e6799a3d3f10fd,Diamond School,Independent School,18620,56 ave,Surrey,BC,V3S1G1
80013857090cf4d6e134,Chimney Hill Elementary,Public School,14755,74 ave,Surrey,BC,V3S8Y8
809676d29738488e8bff,Focus College - Surrey,Private Institution,105,13655 104th avenue,Surrey,BC,V3T1W3
82466d0753eb0bfca576,Bayridge Elementary,Public School,1730,142 st,Surrey,BC,V4A6G7
8322c5e07f71be93211d,Traditional Learning Academy Online,Independent School,5741,176 st,Surrey,BC,V3S4C9
8377ace23b5fbdae6294,Fraser Valley Elementary,Independent School,19533,64 avenue,Surrey,BC,V3S4J3
83905c212b2efaa0b819,South Meridian Elementary,Public School,16244,13 ave,Surrey,BC,V4A8E6
8656007ffc41625fde17,Panorama Ridge Secondary,Public School,13220,64 ave,Surrey,BC,V3W1X9
871d2b39047c8a481d18,North Surrey Learning Centre,Public School,9260,140 st,Surrey,BC,V3V5Z4
895ff8557d6e99f17d88,Woodland Park Elementary,Public School,9025,158 st,Surrey,BC,V4N2Y6
89d5f439ce99964b0d32,Cougar Creek StrongStart Centre,StrongStart BC,12236,70a ave,Surrey,BC,V3W4Z8
8a83b5ec38dc3c32b0b5,Coquitlam College - Surrey,Private Institution,9801,king george road,Surrey,BC,V3T5H6
8c81655be8d5ec443dfd,William F. Davidson Elementary,Public School,15550,99a ave,Surrey,BC,V3R9H5
8c9da994f746d130e58f,Newton Elementary,Public School,13359,81 ave,Surrey,BC,V3W3C5
8ce6e0ab200c209cc4cb,Panorama Park Elementary,Public School,12878,62 ave,Surrey,BC,V3X2E8
90f44257c9c412f10a84,Pacific Life Bible College,Private Institution,15030,66a avenue,Surrey,BC,V3S2A5
91af087e2da2553a61bf,iLearn Secondary School Society,Independent School,,,Surrey,BC,V3W3M8
9295a7613310f1487b2d,Automotive Training Centre,Private Institution,12160,88th avenue,Surrey,BC,V3W3J2
940f99c62c51af9bc0e4,Goldstone Park Elementary,Public School,6287,146 st,Surrey,BC,V3S3A3
947572d46a85f0e54efc,Gobind Sarvar School,Independent School,8820,168 st,Surrey,BC,V4N6G7
95e5e56fb0ce84770c38,Bridgeview Elementary,Public School,12834,115a ave,Surrey,BC,V3R2X4
96ce643f456a58f57607,L A Matheson Secondary,Public School,9484,122 st,Surrey,BC,V3V4M1
9769490da87af9096730,White Rock Christian Academy,Independent School,2265,152 st,Surrey,BC,V4A4P1
97a7250f068d91738fbf,Crescent Park Elementary,Public School,2440,128 st,Surrey,BC,V4A3W3
986da52e8cde09e4b23a,CDI College of Business- Technology & Healthcare - Surrey,Private Institution,,,Surrey,BC,V3V4V2
98e6601a134ec6facf5c,W E Kinvig StrongStart Centre,StrongStart BC,13266,70b ave,Surrey,BC,V3W8N1
9b8c6ed073ced45aba26,Johnston Heights Secondary,Public School,15350,99 ave,Surrey,BC,V3R0R9
9c77c12f86904a4cb4c8,Senator Reid StrongStart Centre,StrongStart BC,9341,126 st,Surrey,BC,V3V5C4
9ccb745c449b9d94a9f5,Rosemary Heights Elementary,Public School,15516,36 ave,Surrey,BC,V3Z0J5
9dc3320ce646f926bea2,Port Kells Elementary,Public School,19076,88 ave,Surrey,BC,V4N5T2
9e68ca1a1e7049191796,Surrey Christian,Independent School,8930,162 st,Surrey,BC,V4N3G1
9e99c10b0ad5ca699426,Hjorth Road Elementary,Public School,14781,104 ave,Surrey,BC,V3R5X4
9efe3614b86b9e23c816,Mary Jane Shannon StrongStart Centre,StrongStart BC,10682,144 st,Surrey,BC,V3T4W1
a06e654f71e25feced0a,Queen Elizabeth Secondary,Public School,9457,king george blvd,Surrey,BC,V3V5W4
a0db6e61fb76277c01a5,Prince Charles Elementary,Public School,12405,100 ave,Surrey,BC,V3V2X2
a13742c4db63e033f9b0,Erma Stephenson Elementary,Public School,10929,160 st,Surrey,BC,V4N1P3
a2b0bb0e23c789592d46,Ray Shepherd Elementary,Public School,1650,136 st,Surrey,BC,V4A4E4
a431a1e41ea67918e6a0,Brighton College - Surrey,Private Institution,,,Surrey,BC,V3T5H5
a4466c6dc2f4f11cf16d,Iqra School,Independent School,14590,116a ave,Surrey,BC,V3R2V1
a7463d2c012de489f7f2,Waypoint Substance Abuse House,Public School,14033,92 ave,Surrey,BC,V3V0B7
a74770e49051c2cdfd90,Coast Meridian Elementary,Public School,8222,168a st,Surrey,BC,V4N4T8
a7f838877afbde17114c,Khalsa Secondary School (Surrey),Independent School,10589,124 st,Surrey,BC,V3V0B1
a8c0c0cb06cd21ce3236,Semiahmoo Trail Elementary,Public School,3040,145a st,Surrey,BC,V4P1P8
a9cfa2978c8c0fa4af2d,Holly StrongStart Centre,StrongStart BC,10719,150 st,Surrey,BC,V3R4C8
aa396e09e1f53f576e9f,Old Yale Road StrongStart Centre,StrongStart BC,10135,132 st,Surrey,BC,V3T3T6
ac431cf03b49b10445b2,Oscar International College,Private Institution,,,Surrey,BC,V3W3A7
