Index,Facility_Name,Facility_Type,Street_No,Street_Name,City,Prov_Terr,Postal_Code
054780cc79e3ab6a3c3b,des Voyageurs,Public School,8736,216 st,Langley,BC,V1M2X9
06e4dbed49d04deb7c3c,Rayway Operator Training School Ltd.,Private Institution,1123,272 street,Aldergrove,BC,V4W2N2
0938dab4f664e469e31b,Coghlan Fundamental Elementary,Public School,4452,256th st,Aldergrove,BC,V4W1J3
104553323ea01b15c9cd,Topham Elementary,Public School,21555,91 ave,Langley,BC,V1M3Z3
19837ffd53d45d0cf216,Gordon Greenwood Elementary,Public School,9175,206 st,Langley,BC,V1M2X2
1ef2d7a68513ca4c9a95,Langley Flying School Inc.,Private Institution,5385,216 street,Langley,BC,V2Y2N3
2038a349a555255901db,James Hill StrongStart Centre,StrongStart BC,22144,old yale rd,Langley,BC,V2Z1B5
2410ae813577d0c247d7,Trinity Western University,Private Institution,7600,glover rd.,Langley,BC,V2Y1Y1
2daee1271a7c8122352c,Parkside Centennial StrongStart Centre,StrongStart BC,3300,270 st,Aldergrove,BC,V4W3H2
34730c102f70f2ebeb47,Shortreed Community School,Public School,27330,28 ave,Aldergrove,BC,V4W3K1
435eccec03f5107ddf78,Heli College Canada Training Inc.,Private Institution,2,216th street hanger,Langley,BC,V2Y2N3
48739cd8cffe126aa4bf,Richard Bulpitt Elementary,Public School,20965,77a ave,Langley,BC,V2Y2E6
4f1000cb1778c25c9565,Lynn Fripps Elementary,Public School,21020,83 ave,Langley,BC,V2Y0K8
5498fe1acd97985c168d,Willoughby StrongStart Centre,StrongStart BC,20766,80 ave,Langley,BC,V2Y1X6
558a06015fddcebe874a,Noel Booth Elementary,Public School,20202,35 ave,Langley,BC,V2Z1A2
5783d7cd0e91b2e11087,Khalsa School of the Fraser Valley,Independent School,26345,62 ave,Langley,BC,V4W1L8
6546562dc8e4bf89b8fe,Yorkson Creek Middle School,Public School,20686,84 ave,Langley,BC,V2Y2B5
6fbc8b15622e68b38735,James Hill Elementary,Public School,22144,old yale rd,Langley,BC,V2Z1B5
707f9d12e1f0c6d8f006,Murrayville Academy,Independent School,21488,old yale road,Langley,BC,V3A4M8
742690a8de6e87cd360c,Peter Ewart Middle School,Public School,7755,202a st,Langley,BC,V2Y1W4
80962e663c34ab168c1f,North Otter Elementary,Public School,5370,248 st,Aldergrove,BC,V4W1A7
80b8921766dd204e0f88,Betty Gilbert Middle,Public School,26845,27 ave,Aldergrove,BC,V4W3E6
8507e1a7460cd3fe20d2,Fraser Valley Adventist Academy,Independent School,26026,48th ave,Aldergrove,BC,V4W1J2
881e04023b3501c1afed,Belmont Elementary,Public School,20390,40 ave,Langley,BC,V3A2X1
8fe8708dedb4d3ee8202,Langley Equestrian Academy,Public School,20902,37a ave,Langley,BC,V3A5N2
90dbc04b756a4e4b0986,Langley Fundamental Middle/Secondary Sch,Public School,21250,42 ave,Langley,BC,V3A8K6
91ec4ca0b286708924a6,St Catherines School,Independent School,20244,32 ave,Langley,BC,V2Z2E1
92d663025431161b8f11,Fort Langley Elementary,Public School,8877,bartlett st,Fort Langley,BC,V1M2S6
94abad955066de5a3e35,Walnut Grove Secondary,Public School,8919,walnut grove dr,Langley,BC,V1M2N7
9552029076b640d664b6,Langley Online and Distributed Learning,Public School,21405,56 ave,Langley,BC,V2Y2N1
98a9b4c52110a6f20915,Franc Depart Voyageurs StrongStart,StrongStart BC,8736,216 st,Langley,BC,V1M2X9
9ca3c81ee03604ad9aba,Glenwood Elementary,Public School,20785,24 ave,Langley,BC,V2Z2B4
a110095970434793fe2b,Alex Hope Elementary,Public School,21150,85 ave,Langley,BC,V1M2M4
a28c5b7ed7a6d1d91910,Focus Alternate,Public School,21405,56 ave,Langley,BC,V2Y2N1
a5308d14c75dde053241,Langley Meadows Elementary,Public School,2244,willoughby way,Langley,BC,V2Y1C1
ad17cdd72a7b6a15d35c,Langley Secondary,Public School,21405,56 ave,Langley,BC,V2Y2N1
ba050de4f89f6bd3561b,Willoughby Elementary,Public School,20766,80 ave,Langley,BC,V2Y1X6
bcefb2a6b633ae47bae6,Dorothy Peacock Elementary,Public School,20292,91a ave,Langley,BC,V1M2G2
cc679e1034a2e6b8ea10,Langley Fundamental Elementary,Public School,21789,50 ave,Langley,BC,V3A3T2
d7b855f0fae4fe9d246b,Columbia Paramedic Academy - Langley,Private Institution,10-8948,202nd street,Langley,BC,V1M4A7
d96ede8dd85b952674be,Aldergrove Christian Academy,Independent School,26245,28th ave,Aldergrove,BC,V4W2W3
db24212c414ed6196e3d,James Kennedy Elementary,Public School,9060,212 st,Langley,BC,V1M2B7
dbe97707509958ea39c2,Langley Meadows StrongStart Centre,StrongStart BC,2244,willoughby way,Langley,BC,V2Y1C1
de8652a021e186ef8ed1,Parkside Centennial Elementary,Public School,3300,270 st,Aldergrove,BC,V4W3H2
e14c8ab2be44fccd5918,Wix-Brown Elementary,Public School,23851,24 ave,Langley,BC,V2Z3A3
e203f947e7d96dedfdcd,Langley Fine Arts School,Public School,9096,trattle st,Fort Langley,BC,V1M2S6
e6279d9408dbc1b32ade,Vanguard,Public School,3825,244 st,Langley,BC,V2Z2L1
e8cead30f3bcb2015ff8,Genuine Learning Academy,Independent School,24687,56 ave,Langley,BC,V2Z1B9
eca8775cfc8418adb5d6,North Otter StrongStart Centre,StrongStart BC,5370,248 st,Aldergrove,BC,V4W1A7
