Index,Facility_Name,Facility_Type,Street_No,Street_Name,City,Prov_Terr,Postal_Code
010674360bcfc146a8cf,Metropolitan Community College,Private Institution,900 549,howe street,Vancouver,BC,V6C2C2
0164fe588f8463529a5a,Arbutus College,Private Institution,473,west hastings st,Vancouver,BC,V6B1L4
017d88203556c7134306,Walter Moberly Elementary,Public School,1000,59th ave,Vancouver,BC,V5X1Y7
026e1853405723243751,St Regis Secondary School,Independent School,2140,41st ave,Vancouver,BC,V6M1Z1
03c902c8e187e09e89cd,Champlain Heights Annex,Public School,7835,champlain cres,Vancouver,BC,V5S4J6
0433fb617efb253cada9,Lord Selkirk Annex,Public School,4444,dumfries st,Vancouver,BC,V5N3T2
050c3d10d181ec9c7661,Johnathan Academy,Independent School,3513,18th ave,Vancouver,BC,V6S1A9
0594f92f36c5b606b2d4,New Image College,Private Institution,987,granville street,Vancouver,BC,V6Z1L3
05bc745be9facbea8d67,Tzu Chi International College of Traditional Chinese Medicine,Private Institution,201,1508 w broadway,Vancouver,BC,V6J1W8
05bccc72cdc421096faa,Vancouver Talmud Torah Elementary,Independent School,998,west 26th ave,Vancouver,BC,V5Z2G1
05d2dc0534baf6f707c6,Magee Secondary,Public School,6360,maple st,Vancouver,BC,V6M4M2
0609add68349988d6afc,Tecumseh Elementary,Public School,1850,41st ave,Vancouver,BC,V5P1K9
088d2ea89d02132f6bbc,Emily Carr University of Art + Design,University,520,e 1 avenue,Vancouver,BC,V5T0H2
0a598338c652e95b79da,Champlain Heights Annex StrongStart Cntr,StrongStart BC,7835,champlain cres,Vancouver,BC,V5S4J6
0c315e003c9f2a73ca59,King David High School,Independent School,5718,willow st,Vancouver,BC,V5Z4S9
0d9061b156d29ba7aee5,PRP-BCCH Child Psychiatric School Prgrm,Public School,1580,broadway,Vancouver,BC,V6J5K9
0e6ae5aa5773360c8764,Vancouver Community College,Technical and Vocational,250,west pender st.,Vancouver,BC,V6B1S9
0e752a2ee5d47825c51a,Ecole Jules Quesnel Elementary,Public School,3050,crown st,Vancouver,BC,V6R4K9
0f2b15fa0aff50446dbc,Notre Dame Regional Secondary,Independent School,2880,venables st,Vancouver,BC,V5K4Z6
0f868f94f1e9d4396ec4,The Westside School,Independent School,788,beatty st,Vancouver,BC,V6B2M1
1186a26a7bff2d97ae82,Grandview Elementary,Public School,2055,woodland dr,Vancouver,BC,V5N3N9
1229f6867626524d67a0,Century High School,Independent School,1788,broadway w,Vancouver,BC,V6J1Y1
12e88c9c32a82be8fcf4,Tillicum Community Annex,Public School,2450,cambridge st,Vancouver,BC,V5K1L2
13a5f4eee67f8fb42b90,Sprott Shaw College - Vancouver Pender,Private Institution,200-789,west pender street,Vancouver,BC,V6C1H2
154b745a7933f1bb776d,Drake Medox College - Vancouver,Private Institution,210-535,west 10th avenue,Vancouver,BC,V5Z1K9
16eb1edb185dcc0ccfc0,Lost Boys Studios - School of Visual Effects,Private Institution,1825,victoria diversion,Vancouver,BC,V5N2K2
17f87e5aaeaf9574287e,Little Flower Academy,Independent School,4195,alexandra st,Vancouver,BC,V6J4C6
1b08513a3e3ad91ffc8e,Sir Matthew Begbie Elementary,Public School,1430,lillooet st,Vancouver,BC,V5K4H6
1b28c309b46c22eef088,Montessori Training Centre of British Columbia,Private Institution,200 8555,cambie st,Vancouver,BC,V6P3J9
1d7b151bdd70a984e83b,Lord Beaconsfield Elementary,Public School,3663,penticton st,Vancouver,BC,V5M3C9
1e76e69a2f7ad65e236c,St Mary's,Independent School,5239,joyce st,Vancouver,BC,V5R4G8
1fb40bb965608c68294c,Walter Moberly StrongStart Centre,StrongStart BC,1000,59th ave,Vancouver,BC,V5X1Y7
20cff324858182593187,Vancouver Premier College of Hotel Management,Private Institution,200 1338,west broadway,Vancouver,BC,V6H1H2
20e5cf39c69ca063e9ca,Sir Richard McBride Annex,Public School,4750,st. catherines st,Vancouver,BC,V5V4M7
2178b346e96b6263d401,The Cut Fashion Design Academy,Private Institution,1888,1st avenue,Vancouver,BC,V6J1G5
22235b33c8a71976141d,Anne-Hebert,Public School,7051,killarney st,Vancouver,BC,V5S2Y5
2225de6ad7cd0c3e401b,Franklin School,Independent School,530,hornby st,Vancouver,BC,V6C2E7
23a0ef151f998fcdc574,Vancouver Hairdressing Academy - Vancouver,Private Institution,528,west broadway,Vancouver,BC,V5Z1E9
23dbc7dfa6099b07129e,Crofton House,Independent School,3200,west 41st avenue,Vancouver,BC,V6N3E1
23fbdde334367109c79d,Vancouver Hebrew Academy,Independent School,1545,62nd ave,Vancouver,BC,V6P2E8
2448927e75d646d4b271,Dr Annie B Jamieson Elementary,Public School,6350,tisdall street,Vancouver,BC,V5Z3N4
24697848d038dd50aabd,Blanche Macdonald Centre - Robson,Private Institution,460,robson street,Vancouver,BC,V6B2B5
24dcda1c9adb6f5bef4c,Vancouver Acting School,Private Institution,210-112,3rd ave,Vancouver,BC,V5T1C8
2505ed6f67da591bd6a3,Vancouver Learning Network,Public School,530,41st ave,Vancouver,BC,V5W1P3
26384fd79ca431b1f12f,Columbia College,Private Institution,438,terminal ave,Vancouver,BC,V6A0C1
2646ad8bc32e5b48371f,Tecumseh Annex,Public School,1551,37th ave,Vancouver,BC,V5P1E4
27e4a5d51a47556a3320,Blanche Macdonald Centre - City Square,Private Institution,100,555 west 12th avenue,Vancouver,BC,V5Z3X7
286f556e080f17ff0758,Admiral Seymour StrongStart Centre,StrongStart BC,1130,keefer st,Vancouver,BC,V6A1Z3
2a80631b566e77979a71,Canuck Place School Program,Public School,1690,matthews ave,Vancouver,BC,V6J2T2
