Index,Facility_Name,Facility_Type,Street_No,Street_Name,City,Prov_Terr,Postal_Code
0768baec178db513b16f,Harbour View Elementary,Public School,960,lillian st,Coquitlam,BC,V3J5C7
0d3cdda3e064846c3c00,Leigh Elementary,Public School,1230,soball st,Coquitlam,BC,V3B3H7
1ae1a1199b86134288f9,Smiling Creek Elementary,Public School,3456,princeton ave,Coquitlam,BC,V3E3H1
1eed4717c95cf0fcd763,Riverview StrongStart Centre,StrongStart BC,700,clearwater way,Coquitlam,BC,V3C6A3
219f375f349ea4d87f81,Bramblewood StrongStart Centre,StrongStart BC,2960,walton ave,Coquitlam,BC,V3B6V6
2aa32f601888dbc15213,Gleneagle Secondary,Public School,1195,lansdowne dr,Coquitlam,BC,V3B7Y8
2c32800a0316b9d0813a,Riverview Park Elementary,Public School,700,clearwater way,Coquitlam,BC,V3C6A3
2fa14a5b7d1ee9b4af48,Queen of All Saints Elementary,Independent School,1405,como lake ave,Coquitlam,BC,V3J3P4
324181a5157f1249051b,Mundy Road Elementary,Public School,2200,austin ave,Coquitlam,BC,V3K3S1
386123e654c94b6b5dcb,Centennial School,Public School,570,poirier st,Coquitlam,BC,V3J6A8
50a0d3085ddddc62da81,Bramblewood Elementary,Public School,2875,panorama dr,Coquitlam,BC,V3E2S7
53927e2d86acbe0ccba6,Eagle Ridge Elementary,Public School,1215,falcon dr,Coquitlam,BC,V3E1X9
5c858f189008bc1a80b1,École Glen Elementary,Public School,3064,glen dr,Coquitlam,BC,V3B2P9
5dc71260294ea9ccb186,Rochester StrongStart Centre,StrongStart BC,1300,rochester ave,Coquitlam,BC,V3K2X5
68e9e070529107162787,École Nestor Elementary,Public School,1266,nestor st,Coquitlam,BC,V3E2A4
6cc831c6b275e7b17d71,Royal Bridge High School,Independent School,,,Coquitlam,BC,V3B0M1
72f526d3e675b30d3c86,Coquitlam College - Coquitlam,Private Institution,516,brookmere ave,Coquitlam,BC,V3J4W9
7f3ad084ab7ff4283709,Canadian National Institute of Business,Private Institution,3030,lincoln avenue,Coquitlam,BC,V3B6B4
7fab970d80c6e285d3e3,Lord Baden-Powell Elementary,Public School,450,joyce st,Coquitlam,BC,V3K4G4
8a7083d05442a4365ffb,École Rochester Elementary,Public School,411,schoolhouse st,Coquitlam,BC,V3K4Y7
913b55bacfb48e8c51e9,Alderson Elementary,Public School,825,gauthier ave,Coquitlam,BC,V3K7C4
95cb7f0c8636c616c2db,Mundy Road StrongStart Centre,StrongStart BC,2200,austin ave,Coquitlam,BC,V3K3S1
bc489a4dfbc8be9b0c21,École Banting Middle,Public School,820,banting st,Coquitlam,BC,V3J4J4
beb401e98a8b48a50e76,Walton Elementary,Public School,2960,walton ave,Coquitlam,BC,V3B6V6
befb8aa834c250df05e1,Roy Stibbs Elementary,Public School,600,fairview st,Coquitlam,BC,V3J4A7
c0f9410ed65e82de0ca0,Coquitlam College - Brookmere Secondary,Independent School,516,brookmere ave,Coquitlam,BC,V3J1W9
c304e75cdf0f98dd38df,Hampton Park Elementary,Public School,1760,paddock dr,Coquitlam,BC,V3E3N8
c618f27cef524212c937,Encompass K-9,Public School,1600,king albert ave,Coquitlam,BC,V3J1Y5
cc5adf48f9c429b39c83,Ranch Park Elementary,Public School,2701,spuraway ave,Coquitlam,BC,V3C2C4
d1d13ef9a34289136f24,École Panorama Heights Elementary,Public School,1455,johnson st,Coquitlam,BC,V3E2T1
d45cd33473a07dddda03,Vancouver Career College - Coquitlam,Private Institution,,,Coquitlam,BC,V3B7L2
d7b44ce89d17fc97582d,Summit Middle School,Public School,1450,parkway blvd,Coquitlam,BC,V3E3L2
d847d812a1e053457bfb,Miller Park Community School,Public School,800,egmont ave,Coquitlam,BC,V3J4J8
d8e355973e454285de65,Como Lake Middle School,Public School,1121,king albert ave,Coquitlam,BC,V3J1X8
dd9400c948f4521fa6ff,Our Lady of Fatima,Independent School,315,walker st,Coquitlam,BC,V3K4C7
debf0134873e2d619a02,Parkland Elementary,Public School,1563,regan ave,Coquitlam,BC,V3J3B7
dfad2bf5cae6f4b1b5b7,École Maillard Middle,Public School,1300,rochester ave,Coquitlam,BC,V3K2X5
e2ba5898278af005c6ca,Scott Creek Middle School,Public School,1240,lansdowne dr,Coquitlam,BC,V3E3E7
e6cc513c05fb902a93fb,Children of Integrity Montessori,Independent School,2541,quay pl,Coquitlam,BC,V3H3S7
ec2d39866c752f0b9329,Baker Drive Elementary,Public School,885,baker dr,Coquitlam,BC,V3J6W9
ef6803ef45ad262fc66e,Meadowbrook Elementary,Public School,900,sharpe st,Coquitlam,BC,V3C3M3
f08fcd2046ca4e82688f,Mountain View Elementary,Public School,740,smith ave,Coquitlam,BC,V3J4E7
f22bdac5adcc8c0c1b3b,Coquitlam Alternate Basic Education,Public School,1411,foster ave,Coquitlam,BC,V3J2N1
faea9ac05aba18d2f3cc,Encompass 10-12,Public School,1600,king albert ave,Coquitlam,BC,V3J1Y5
