Index,Facility_Name,Facility_Type,Street_No,Street_Name,City,Prov_Terr,Postal_Code
070e0bcccf39f950ff63,Samuel Robertson Technical Secondary,Public School,10445,245 st,Maple Ridge,BC,V2W2G4
14ff34daf15ecf3e9af7,District 42 Alternative Secondary,Public School,23125,116 ave,Maple Ridge,BC,V2X0G8
216eff704c0c54349fc9,Alouette Elementary,Public School,22155,isaac cres,Maple Ridge,BC,V2X0V9
2c9a68641eb9d798058f,Eric Langton Elementary,Public School,12138,edge st,Maple Ridge,BC,V2X6G8
3b344f6196e7a2c17a7e,SD 42 Connected Learning Community,Public School,20575,thorne ave,Maple Ridge,BC,V2X9A6
43bf17e27f608653f8ff,Yennadon Elementary,Public School,23347,128 ave,Maple Ridge,BC,V2X4R9
56d1ef06715daf85901a,Garibaldi Secondary,Public School,24789,dewdney trunk rd,Maple Ridge,BC,V4R1X2
58b37e435f06c175d341,Blue Mountain StrongStart Centre,StrongStart BC,24789,dewdney trunk rd,Maple Ridge,BC,V4R1X2
58dcd6c2a7bf43c231c8,c'usqunela Elementary,Public School,24093,104 ave,Maple Ridge,BC,V2W1J2
59946e11c91ecbfc95d3,Continuing Ed SD 42,Public School,20575,thorne ave,Maple Ridge,BC,V2X9A6
67d4e80535a979f5bc90,c`usqunela StrongStart Centre,StrongStart BC,24093,104 ave,Maple Ridge,BC,V2W1J2
6adf2cf2c05d5cfa6c7a,Maple Ridge Elementary,Public School,20820,river rd,Maple Ridge,BC,V2X1Z7
70abc69b0241267fcfaa,Eric Langton StrongStart Centre,StrongStart BC,12138,edge st,Maple Ridge,BC,V2X6G8
7a5f56bb40bfb48a649b,Fairview StrongStart Centre,StrongStart BC,12209,206 st,Maple Ridge,BC,V2X1T8
9a874d9b727dd93748b7,Webster's Corners Elementary,Public School,25554,dewdney trunk rd,Maple Ridge,BC,V4R1X9
9ec4dbc00250a32cda97,Maple Ridge Christian School,Independent School,12140,204b st,Maple Ridge,BC,V2X2Z5
9fee584428cbbe35f256,Whonnock Elementary,Public School,27471,112 ave,Maple Ridge,BC,V2W1P9
a5157d10ccdd571ea98d,Alexander Robinson Elementary,Public School,11849,238b st,Maple Ridge,BC,V4R2T8
a97f7fc6a333122fab68,Sprott Shaw College - Maple Ridge,Private Institution,204,20395 lougheed highway,Maple Ridge,BC,V2X2P9
b7d0b50af12221292202,Outreach Alternate Secondary,Public School,21911,122 ave,Maple Ridge,BC,V2X3X2
c4a368a45e5f3355648c,Fairview Elementary,Public School,12209,206 st,Maple Ridge,BC,V2X1T8
ca4334a593f595a7b315,Kanaka Creek Elementary,Public School,11120,234a st,Maple Ridge,BC,V2W1C8
cd58d51fb4b62ce0479e,Discovery Community College - Maple Ridge,Private Institution,22141,119 avenue,Maple Ridge,BC,V2X2Y7
d2962dec3cf7e24ddf2c,Golden Ears Elementary,Public School,23124,118 ave,Maple Ridge,BC,V2X2N1
d398cca7f9189d10f508,Harry Hooge Elementary,Public School,12280,230 st,Maple Ridge,BC,V2X0P6
dd8e4e29546228f849ad,Meadow Montessori,Independent School,11391,dartford st,Maple Ridge,BC,V2X1V6
de562a9cddaf1f007ea1,Environmental School Project,Public School,23125,116 ave,Maple Ridge,BC,V2X0G8
def8be63f53e573512c8,Glenwood Elementary,Public School,21410,glenwood ave,Maple Ridge,BC,V2X3P6
e0b47a9188b8af57300e,Hammond Elementary,Public School,11520,203 st,Maple Ridge,BC,V2X4T6
e22f60263e0d450f42c3,Laity View Elementary,Public School,21023,123 ave,Maple Ridge,BC,V2X4B5
e6c07aab3e4bd4cd6317,Meadowridge School,Independent School,12224,240 st,Maple Ridge,BC,V4R1N1
e9eec31210b6d43561f9,Thomas Haney Centre,Public School,23000,116 ave,Maple Ridge,BC,V2X0T8
eb037f7c0393e4f110a8,Maple Ridge Secondary,Public School,21911,122 ave,Maple Ridge,BC,V2X3X2
eba9c010c87c6114ea1e,Hammond StrongStart Centre,StrongStart BC,11520,203 st,Maple Ridge,BC,V2X4T6
f89fbab53797376825f1,Albion Elementary,Public School,10031,240th st,Maple Ridge,BC,V2W1G2
