Index,Facility_Name,Facility_Type,Street_No,Street_Name,City,Prov_Terr,Postal_Code
035aa575cbf5a871f1a6,Virtuelle,Public School,,,Richmond,BC,V6V2J8
115f510b332f18348569,Daniel Woodward Elementary,Public School,10300,seacote rd,Richmond,BC,V7A4B2
13ef5696e9bca1e38ae4,R. C. Talmey Elementary,Public School,9500,kilby dr,Richmond,BC,V6X3N2
1794520e7d371c975a25,Cambria College - Richmond,Private Institution,880,5900 no3 road,Richmond,BC,V6X3P7
1b81634f2c4688d137f4,James McKinney Elementary,Public School,10451,lassam rd,Richmond,BC,V7E2C2
1c1dd7fe89e33a4649f8,City Vancouver Academy,Independent School,8766,mckim way,Richmond,BC,V6X4G4
1e5770dcd8c10f5b5ba2,Senniyo Aesthetics International School,Private Institution,7300,westminister hwy,Richmond,BC,V6X1A1
2067f020566292ce6c3f,Maple Leaf School - KPU,Independent School,8771,lansdowne rd,Richmond,BC,V6X3V8
22447cf2dfc63353bce0,Thomas Kidd Elementary,Public School,10851,shell rd,Richmond,BC,V7A3W6
24cc6ce9cba291d339ed,Academy of Learning-Richmond,Private Institution,4351,no 3 road,Richmond,BC,V6X3A7
2bc6843bc1660fc384de,Tomekichi Homma Elementary,Public School,5100,brunswick dr,Richmond,BC,V7E6K9
30e98495c38c752aacd4,Continuing Ed SD 38,Public School,7811,granville ave,Richmond,BC,V6Y3E3
48e30079ea16fa026e31,James Thompson StrongStart Centre,StrongStart BC,6211,forsyth cres,Richmond,BC,V7C2C4
4b6858c8be10d0ef7372,Sprott Shaw College - Richmond,Private Institution,7920,cambie road,Richmond,BC,V6X3K6
4d078d019a05698ec864,Tomsett Elementary,Public School,9671,odlin rd,Richmond,BC,V6X1E1
4fb6e8c4aa7acf0aa09c,Lord Byng Elementary,Public School,3711,georgia st,Richmond,BC,V7E6M3
5357e78ee8636ee54245,R M Grauer StrongStart Centre,StrongStart BC,4440,blundell rd,Richmond,BC,V7C1G9
5d6f8e2f8a375b58e9bb,John G Diefenbaker Elementary,Public School,4511,hermitage dr,Richmond,BC,V7E4T1
767379b80fb1b16c111b,Mitchell Elementary,Public School,12091,cambie rd,Richmond,BC,V6V1G5
7977627aba4118073418,Canada Star Secondary School,Independent School,11295,mellis dr,Richmond,BC,V6X1L8
8385b994ca445262a7c2,Maple Lane Elementary,Public School,7671,alouette dr,Richmond,BC,V7A4P2
8387448c9f326ab62311,J N Burnett Secondary,Public School,5011,granville ave,Richmond,BC,V7C1E6
888e32218a6195b8096b,Capital College,Private Institution,540,hazelbridge way,Richmond,BC,V6X3R8
92df68b6b38596ba4c93,Deaf/Blind Program,Public School,7811,granville ave,Richmond,BC,V6Y3E3
97459c60e83e27a9537e,Richmond Christian School,Independent School,10200,no 5 rd,Richmond,BC,V7A4E5
97586db5e4074dcdd7d1,Richmond Secondary,Public School,7171,minoru blvd,Richmond,BC,V6Y1Z3
995deaecf6ba0e93d8ea,Omni College,Private Institution,3130,8788 mckim way,Richmond,BC,V6X4E2
998f44fc881b3f3c3b3e,Quilchena Elementary,Public School,3760,moresby dr,Richmond,BC,V7C4G6
a055aca890d9f0d75e9c,Pythagoras Academy,Independent School,8671,odlin cres,Richmond,BC,V6X1G1
a2f119d72ebbec599baf,CDI College of Business- Technology & Healthcare - Richmond,Private Institution,,,Richmond,BC,V6X3A7
a4ce312f48a4b6bb9f90,Mia Montessori Academy,Independent School,3128,regent st,Richmond,BC,V7E2M4
a54c5a0daa141c8b454a,Choice School For Gifted Children,Independent School,20451,westminster hwy,Richmond,BC,V6V1B3
a5ab2cdd799b1898d386,James Thompson Elementary,Public School,6211,forsyth cres,Richmond,BC,V7C2C4
a8e6f05e83dc9d6a46d3,Robert Alexander McMath Secondary,Public School,4251,garry st,Richmond,BC,V7E2T9
aa88f2de17a8e13a38a0,R M Grauer Elementary,Public School,4440,blundell rd,Richmond,BC,V7C1G9
ac291ce09aceb09786d8,Samuel Brighouse Elementary,Public School,6800,azure rd,Richmond,BC,V7C2S8
b2abd19538427423ab49,Canadian Film and Television Institute,Private Institution,,,Richmond,BC,V6Y2J1
b69158fa3537488543a4,Universal Learning Institute - Richmond,Private Institution,200,ackroyd road,Richmond,BC,V6X3J9
ba626e395ec59ef99e91,BC Muslim School,Independent School,12300,blundell rd,Richmond,BC,V6W1B3
ba83cbebf9d1a58c12e9,General Currie Elementary,Public School,8220,general currie rd,Richmond,BC,V6Y1M1
c7913b1bd168d0e52406,Vancouver Beijing College of Chinese Medicine,Private Institution,8888,odlin cres,Vancouver,BC,V6X3Z8
cbcb873099de4f90bb97,Hugh McRoberts Secondary,Public School,8980,williams rd,Richmond,BC,V7A1G6
cdc0792261e0c008d9e8,Spul'u'kwuks Elementary,Public School,5999,blanshard dr,Richmond,BC,V7C5V4
d7a75d8f614b6d941609,Richmond Jewish Day School,Independent School,8760,no 5 rd,Richmond,BC,V6Y2V4
d84cb69eb1d8bb7c2062,Robert J Tait Elementary,Public School,10071,finlayson dr,Richmond,BC,V6X1W7
d950ad2fe7df04cc37b8,Fawkes Academy DL,Independent School,,,Richmond,BC,V6W0A5
e190317837c85851d8da,W D Ferris Elementary,Public School,7520,sunnymede cres,Richmond,BC,V6Y2V8
ea5375a1041412c16cd5,Hugh Boyd Secondary,Public School,9200,no 1 rd,Richmond,BC,V7E6L5
ecd4b2eaab92affec26e,James Gilmore Elementary,Public School,8380,elsmore rd,Richmond,BC,V7C2A1
