Index,Facility_Name,Facility_Type,Street_No,Street_Name,City,Prov_Terr,Postal_Code
6bf01fedbb76af989465,Langara College,Junior College,100,west 49th ave,Vancouver,BC,V5Y2Z6
6cb662a8057ededbfb4e,Sir Guy Carleton Community Elementary,Public School,3250,kingsway,Vancouver,BC,V5R5K5
6f28af31b9938838e445,Mount Pleasant StrongStart Centre,StrongStart BC,2300,guelph st,Vancouver,BC,V5T3P1
6ff47d49c63e8e57700b,Native Education College,Private Institution,285,e fifth ave,Vancouver,BC,V5T1H2
70450f1bb6ad5335320b,VSB Adult Education,Public School,6010,fraser st,Vancouver,BC,V5W2Z7
71af02b1e1e2632b22dd,Xpey' StrongStart Centre,StrongStart BC,1950,hastings st e,Vancouver,BC,V5L1T7
7249801ca0939af6896c,Elsie Roy Elementary,Public School,150,drake st,Vancouver,BC,V6Z2X1
730217da6ca1d60ce3d5,BrainStation,Private Institution,455,granville street,Vancouver,BC,V6C1T1
73da771ad1cdc8e8d437,Northwest Culinary Academy of Vancouver,Private Institution,2725,main street,Vancouver,BC,V5T3E9
73ded973e98c2bd547d9,Collingwood PM StrongStart Centre,StrongStart BC,3417,euclid ave,Vancouver,BC,V5R6H2
7419831a3c0c039ca1a5,Eton College,Private Institution,,,Vancouver,BC,V6A4C1
75924ea9b01b69d1591b,Dr R E McKechnie Elementary,Public School,7455,maple st,Vancouver,BC,V6P5P8
79909694ebc2ec4a6da9,Sir Wilfrid Laurier Elementary,Public School,7350,laurel st,Vancouver,BC,V6P3T9
79b1fc45ddc9af99c066,Hastings Community Elementary,Public School,2625,franklin st,Vancouver,BC,V5K3W7
79f63919a19bdf3672f1,St Francis Xavier,Independent School,428,great northern way,Vancouver,BC,V5T4S5
7a1a4ee5a28298cf4209,L'Ã‰cole Bilingue Elementary,Public School,1166,w 14th ave,Vancouver,BC,V6H1P6
7b6dde4461cff238ab97,Champlain Heights Community Elementary,Public School,6955,frontenac st,Vancouver,BC,V5S3T4
7d1b3bc6d549c7bbc7bf,Prince of Wales Secondary,Public School,2250,eddington dr,Vancouver,BC,V6L2E7
7dbb443a462dced69e2c,Charles Dickens Elementary,Public School,1010,east 17th ave,Vancouver,BC,V5V0A6
7e698bd6b6081ac12016,SD 39 DL Elementary,Public School,530,east 41st ave,Vancouver,BC,V5W1P3
7e9d6b6cde5b0c14d93c,Mount Pleasant Elementary,Public School,2300,guelph st,Vancouver,BC,V5T3P1
7ef73eee27e0fe84cfa3,Lord Tennyson Elementary,Public School,1936,10th ave,Vancouver,BC,V6J2B2
819786c739e55f553753,Canadian Health Care Academy - Vancouver,Private Institution,516,kingsway,Vancouver,BC,V5T3J9
85b93335fbf15f1f4b10,Pacific Institute of Culinary Arts,Private Institution,1505,west 2nd avenue,Vancouver,BC,V6H3Y4
86d03b621ba2bdb52559,Maple Grove Elementary,Public School,6199,cypress st,Vancouver,BC,V6M3S3
8782232d047b4925862a,Cambria College - Vancouver,Private Institution,549,howe street,Vancouver,BC,V6C2C2
8898f5065d32994736ec,LaSalle College Vancouver- Renfrew,Private Institution,2665,renfrew street,Vancouver,BC,V5M0A7
88b21d5bd7fe27fa7641,Crosstown Elementary,Public School,55,expo blvd,Vancouver,BC,V6B0P8
88c39bb91380a5b2300a,Vancouver Montessori School,Independent School,8650,barnard st,Vancouver,BC,V6P5G5
8c0c324bb65fedc7b950,University Canada West - Vancouver,Private Institution,,,Vancouver,BC,V6B1V9
8ca302380070202805b2,Canadian Tourism College - Vancouver,Private Institution,,,Vancouver,BC,V6E3V6
8d664a811a1ad1201bbd,Alexander Academy,Independent School,688,hastings st w,Vancouver,BC,V6B1P1
8deab5adfc364a8e886b,Secondaire Jules-Verne,Public School,5445,baillie st,Vancouver,BC,V5Z3M6
8ee5aa3366dda105cc22,Killarney Secondary,Public School,6454,killarney st,Vancouver,BC,V5S2X7
8f131a467a4829488376,Anne Hebert StrongStart Centre,StrongStart BC,7051,killarney st,Vancouver,BC,V5S2Y5
90d4f7381fe579975fd7,Kitsilano Secondary,Public School,2706,trafalgar st,Vancouver,BC,V6K2J6
92af8ae9ae10c3525097,Edith Cavell Elementary,Public School,500,20th ave,Vancouver,BC,V5Z1X7
9411ef364d128c15d9d9,Tamwood Careers,Private Institution,,,Vancouver,BC,V6C3B2
941f8c1f707d18cd7d34,Lighthouse Labs - Vancouver,Private Institution,,,Vancouver,BC,V6B5A1
9484138ebf5a388e3a7a,Sir Wilfred Grenfell StrongStart Centre,StrongStart BC,3323,wellington ave,Vancouver,BC,V5R4Y3
958624cc9021100602ba,St Jude's,Independent School,2953,15th ave,Vancouver,BC,V5M2K7
96066cfdcf23db14333f,Lord Roberts Annex,Public School,1150,nelson st,Vancouver,BC,V6E1J2
96546462b015b42264b1,John Norquay Elementary,Public School,4710,slocan st,Vancouver,BC,V5R2A1
9981e3114e145718ab6d,Shaughnessy Elementary,Public School,4250,marguerite st,Vancouver,BC,V6J4G3
998b5cb7bc753f850716,General Wolfe Elementary,Public School,5987,prince albert street,Vancouver,BC,V5W3E2
998e8a26f57783646abf,Charles Dickens Annex,Public School,3877,glen dr,Vancouver,BC,V5V4S9
9a185fe34696eee143a6,Sir William Osler Elementary,Public School,5970,selkirk st,Vancouver,BC,V6M2Y8
9b131ea6dd41e5b02f64,Visual College of Art and Design (VCAD),Private Institution,500,626 w pender st,Vancouver,BC,V6B1V9
a003169c1de0f22d5101,Vancouver College,Independent School,5400,cartier st,Vancouver,BC,V6M3A5
