Index,Facility_Name,Facility_Type,Street_No,Street_Name,City,Prov_Terr,Postal_Code
0ae6ec14b4969f272606,Royal Oak Secondary Program,Public School,5310,woodsworth st,Burnaby,BC,V5G1S4
0c6c42d69b684dbd5c0c,Ecole Marlborough Elementary,Public School,6060,marlborough ave,Burnaby,BC,V5H3L7
0cfafdb634a9c8fb26e8,Cariboo Hill Alternate Secondary Program,Public School,8580,16th ave,Burnaby,BC,V3N1S6
12d6da7a27a5e0ff2b89,Sprott Shaw College School of Trade,Private Institution,3216,betta avenue,Burnaby,BC,V5G4K4
180ce240078799606af0,St Francis de Sales,Independent School,6656,balmoral st,Burnaby,BC,V5E1J1
18c44d45b8a3aa0eee2b,Cariboo Hill Secondary,Public School,8580,16th ave,Burnaby,BC,V3N1S6
194789cddba35a1ee1f6,Windsor Elementary,Public School,6166,imperial st,Burnaby,BC,V5J1G5
1a79ec5c2277a35c07c2,Lakeview Elementary,Public School,7777,mayfield st,Burnaby,BC,V5E2J5
1f4696ea73c6e53e8642,CDI College of Business- Technology & Healthcare - Burnaby,Private Institution,500 5021,kingsway,Burnaby,BC,V5H4A5
241a2e17a409e2144bc4,Ecole Inman Elementary,Public School,3963,brandon st,Burnaby,BC,V5G2P6
258b9055d9769b3385f9,Chaffey-Burke StrongStart Centre,StrongStart BC,4404,sardis st,Burnaby,BC,V5H1K7
28bef3fc6b272dcf47eb,Burnaby Continuing Education,Public School,5325,kincaid st,Burnaby,BC,V5G1W2
2a6d263a837b43202424,Suncrest Elementary,Public School,3883,rumble st,Burnaby,BC,V5J1Z5
2c467956ad38151bf570,Alexander College,Private Institution,101-4603,kingsway,Burnaby,BC,V5H4M4
2dc62b64f114ca12f2a8,Glenwood Elementary,Public School,5787,marine dr,Burnaby,BC,V5J3H1
302fad06e0e112958966,Maywood Community Elementary,Public School,4567,imperial st,Burnaby,BC,V5J1B7
3092a109a6904adbe444,Twelfth Avenue Elementary,Public School,7622,12th ave,Burnaby,BC,V3N2K1
35df2fc362d1f9635ca8,Cambridge College,Private Institution,454-4800,kingsway,Burnaby,BC,V5H4J2
39d62bf6cefd63fbaaac,Winston College,Private Institution,4277,kingsway,Burnaby,BC,V5H3Z2
39e79cb626be8428a645,Forest Grove Elementary,Public School,8525,forest grove dr,Burnaby,BC,V5A4H5
4141be113ac81a00f870,St Thomas More Collegiate,Independent School,7450,12th ave,Burnaby,BC,V3N2K1
43b45b8dbbb61d8e3212,Moscrop Secondary,Public School,4433,moscrop st,Burnaby,BC,V5G2G3
473f76b600d719c8ac58,Brantford Elementary,Public School,6512,brantford ave,Burnaby,BC,V5E2S1
4a2a55326c7bd41abb7a,Douglas Road Elementary,Public School,4861,canada way,Burnaby,BC,V5G1L7
4c9563bdd67958df08bc,Burnaby Montessori School,Independent School,3905,norland ave,Burnaby,BC,V5G4T8
4f7668843361e4a2ba36,Taylor Park Elementary,Public School,7590,mission ave,Burnaby,BC,V3N5C7
5594bfb9be1f256231fa,Buckingham Elementary,Public School,6066,buckingham ave,Burnaby,BC,V5E2A4
627fe78ecd9cfc7ba091,Westridge Elementary,Public School,510,duncan ave,Burnaby,BC,V5B4L9
62806aa1db359b9d22ba,Forest Grove StrongStart Centre,StrongStart BC,8525,forest grove dr,Burnaby,BC,V5A4H5
63bcf16ee626ece69d25,Burnaby North Secondary,Public School,751,hammarskjold dr,Burnaby,BC,V5B4A1
672bae4e6a30f5b51c22,Take a Hike Secondary Program,Public School,5310,woodsworth st,Burnaby,BC,V5G1S4
69ea5cc56ec504b43493,Chaffey-Burke Elementary,Public School,4404,sardis st,Burnaby,BC,V5H1K7
6a96686afca03ff83740,Montecito Elementary,Public School,2176,duthie ave,Burnaby,BC,V5A2S2
75879604f7c30addf204,Nelson Elementary,Public School,4850,irmin st,Burnaby,BC,V5J1Y2
7bd533f5abe6e2fb887c,Vancouver Animation School,Private Institution,270-5489,byrne road,Burnaby,BC,V5J3J1
867a31ff8fda8a8e0583,Twelfth Avenue StrongStart Centre,StrongStart BC,7622,12th ave,Burnaby,BC,V3N2K1
889740620df199e8e73a,Stride Avenue Community Strongstart Cntr,StrongStart BC,7014,stride ave,Burnaby,BC,V3N1T4
8c8876cd622e5ea3b330,Gilmore Community Elementary,Public School,50,s gilmore ave,Burnaby,BC,V5C4P5
964dfe4f18e9a9ec3791,Lyndhurst Elementary,Public School,9847,lyndhurst st,Burnaby,BC,V3J1E9
9828520f369efe06bcdc,Pacific Link College - Burnaby,Private Institution,#200-4980,kingsway,Burnaby,BC,V5H4K7
9dbd22df696b7f22b155,Burnaby Online Program,Public School,8580,16th ave,Burnaby,BC,V3N1S6
9fdccae9f45f2f660450,British Columbia Institute of Technology,Technical and Vocational,3700,willingdon ave.,Burnaby,BC,V5G3H2
9fe78ff92fc07a2c565e,Brentwood Park Elementary,Public School,1455,delta ave,Burnaby,BC,V5B3G4
a678622706ce90ce60dd,Stride Avenue Community Elementary,Public School,7014,stride ave,Burnaby,BC,V3N1T4
a7699c2a2a5e7bcedf6e,Holy Cross Elementary School,Independent School,1450,delta ave,Burnaby,BC,V5B3G2
ae6307b9c2757f68a72f,Parkcrest Elementary,Public School,6055,halifax st,Burnaby,BC,V5B2P4
af3ddb4d87465d28fa8d,Whytecliff Agile Learning Centre-Burnaby,Independent School,3450,boundary rd,Burnaby,BC,V5M4A5
b119c8b213f4f349407b,Vancouver Career College - Burnaby,Private Institution,212 5021,kingsway,Burnaby,BC,V5H4A5
b553b7ba34139dcc28cd,Deer Lake SDA School,Independent School,5550,gilpin st,Burnaby,BC,V5G2H6
