Index,Facility_Name,Facility_Type,Street_No,Street_Name,City,Prov_Terr,Postal_Code
00b1281280ace12b23f6,Herbert Spencer Elementary,Public School,605,second st,New Westminster,BC,V3L5R9
066d59f9c1054e01a9e2,Connaught Heights StrongStart Centre,StrongStart BC,2201,london st,New Westminster,BC,V3M3G1
13b503f85113184c0f0a,Sprott Shaw College - New Westminster,Private Institution,88,6th street,New Westminster,BC,V3L5B3
15179e187908dee67b2b,Fraser River Middle,Public School,800,queens ave,New Westminster,BC,V3M0J2
1ed8a8e2a45a9a6cd689,John Knox Christian - Secondary Campus,Independent School,260,12th street,New Westminster,BC,V3M4H2
1fd25d68ad8964f30a50,Purpose Independent Secondary School,Independent School,40,begbie st,New Westminster,BC,V3M3L9
27685cf8dc2a5d848563,Hilltop Academy - New Westminster,Private Institution,215-810,quayside drive,New Westminster,BC,V3M6B9
31aa7d6fb995bff9a492,Al-Hidayah School,Independent School,7,6th st,New Westminster,BC,V3L2Y7
3f86be719bed5a7f4b3e,Boucher Institute of Naturopathic Medicine,Private Institution,200 435,columbia street,New Westminster,BC,V3L5N8
461c442cc467de223c18,CG Masters School of 3D Animation & VFX,Private Institution,323 800,carnarvon street,New Westminister,BC,V3M0G3
5968a8e357e9a9e733b7,F W Howay Elementary,Public School,91,courtney cres,New Westminster,BC,V3L4M1
5b707c8538d352d28ca1,Urban Academy Junior,Independent School,466,rousseau st,New Westminster,BC,V3L3R3
65d932b5b9ce422756b3,Douglas College - All campus's,Junior College,700,royal ave,New Westminster,BC,V3M5Z5
6ffc0f3dc5c7a8b3bc89,Richard McBride StrongStart Centre,StrongStart BC,331,richmond st,New Westminster,BC,V3L4B7
7805402154e2f009f03e,Home Learners Program,Public School,521,fader st,New Westminster,BC,V3L3T4
81f8e8bdc3be8e427082,Lord Tweedsmuir Elementary,Public School,1714,eighth ave,New Westminster,BC,V3M2S7
8c7b7e5819eab33be61c,Richard McBride Elementary,Public School,331,richmond st,New Westminster,BC,V3L4B7
90568297d0f9a8651aa0,Lord Kelvin Elementary,Public School,1010,hamilton st,New Westminster,BC,V3M2M9
978afac586c866f427b5,Justice Institute of British Columbia,Technical and Vocational,715,mcbride blvd.,New Westminster,BC,V3L5T4
9a1772922b0664ca5b71,Central College,Private Institution,220-60,8th street,New Westminster,BC,V8M3P1
9cc470ce085d75d33bb0,Urban Academy Senior,Independent School,466,rousseau st,New Westminster,BC,V3L3R3
9d03a9bb142b203a7951,Ecole Qayqayt Elementary,Public School,85,merivale st,New Westminster,BC,V3L0G2
a23cfcae588df140ba91,Queensborough Middle School,Public School,833,salter st,New Westminster,BC,V3M6G8
a2753c76b38c99e78321,Connaught Heights Elementary,Public School,2201,london st,New Westminster,BC,V3M3G1
c86563864df7d6553ab3,Queen Elizabeth Elementary,Public School,921,salter st,New Westminster,BC,V3M6G8
cd23d5e2267c60085495,Vancouver College of Dental Hygiene,Private Institution,1205,6th avenue,New Westminster,BC,V3M2C1
d4403ffb31e411dd7af5,Codecore - New Westminster,Private Institution,#600-628,6th avenue,New Westminster,BC,V3M6Z1
da752f764cb4ba9a5d0f,Yorkville University - Vancouver,Private Institution,#300-88,sixth street,New Westminster,BC,V3M1G9
df5f391198dde5844a94,West Coast College of Massage Therapy - Vancouver,Private Institution,613,columbia street,New Westminster,BC,V3M1A7
f19241478416efa67697,Queen Elizabeth StrongStart Centre,StrongStart BC,833,salter st,New Westminster,BC,V3M6G8
f30e213be9730e2fa657,Ark Elementary,Independent School,502-14,begbie st,New Westminster,BC,V3M0C4
