Index,Facility_Name,Facility_Type,Street_No,Street_Name,City,Prov_Terr,Postal_Code
a4f4e9ddaaa4b5d39145,Sir James Douglas Annex,Public School,7668,borden st,Vancouver,BC,V5P3E1
a591c6e0e5337adf07fc,Admiral Seymour Elementary,Public School,1130,keefer st,Vancouver,BC,V6A1Z3
a6053b519f1d93835143,Sir Charles Kingsford-Smith,Public School,6901,elliott st,Vancouver,BC,V5S2N1
a86355f4ad6cab80c8db,St Andrew's,Independent School,450,47th ave,Vancouver,BC,V5W2B4
a88092fdd842d6a422ef,des Colibris,Public School,590,w 65th ave,Vancouver,BC,V6P2P8
ac6477486bcb08fbb576,Quilchena Elementary,Public School,5300,maple st,Vancouver,BC,V6M3T6
ac898f4837a41373d11c,Kerrisdale Annex,Public School,3250,43rd ave,Vancouver,BC,V6N4K3
adce4993f0e17088de22,Lord Roberts Elementary,Public School,1100,bidwell st,Vancouver,BC,V6G2K4
add19d2102956db30269,Dr H N MacCorkindale Elementary,Public School,6100,battison st,Vancouver,BC,V5S3M8
aef9f16fe317d490e379,Pierre Elliott Trudeau Elementary,Public School,449,62nd ave,Vancouver,BC,V5X2G2
b184915d7c6d8ecd6ce1,Northeastern University - Vancouver,Private Institution,333,seymour street,Vancouver,BC,V6B5A7
b31831bbf00693ba5b23,Madlab School of Fitness,Private Institution,1980,clark dr,Vancouver,BC,V5N0A9
b79cf6485d00a8d4b2a4,David Thompson Secondary,Public School,1755,55th ave,Vancouver,BC,V5P1Z7
bb797d9e634cfd511e6a,Emily Carr Elementary,Public School,4070,oak st,Vancouver,BC,V6H2M8
bcf775e1f668e4035089,John Oliver Secondary,Public School,530,41st ave,Vancouver,BC,V5W1P3
bd34809dd26bf4098b0b,Collingwood AM StrongStart Centre,StrongStart BC,3417,euclid ave,Vancouver,BC,V5R6H2
bd36e833a990ee43e1a7,Pear Tree Elementary,Independent School,215-2678,broadway,Vancouver,BC,V6K2G3
becc1496633d1b588527,St Joseph's,Independent School,3261,fleming st,Vancouver,BC,V5N3V6
bfa99c1b7b96c95156d2,JCI Institute,Private Institution,150 220,cambie street,Vancouver,BC,V6B2M9
c07405f29ca3661f5457,Adler University,Private Institution,520,seymour street,Vancouver,BC,V6B3J5
c2e9aa4fa42d07e865d9,Renfrew Community StrongStart Centre,StrongStart BC,3315,22nd ave,Vancouver,BC,V5M2Z2
c3f457b45a737ca86405,Children's Hearing and Speech Centre BC,Independent School,3575,kaslo st,Vancouver,BC,V5M3H4
c63dfee1ee4752a769d1,Peak House,Public School,1580,broadway,Vancouver,BC,V6J5K9
c6bd299578f0d36027fc,Institute of Technology Development Canada,Private Institution,475,granville street,Vancouver,BC,V6C1T1
ca3a3c541a3d307990b6,Vancouver Institute of Media Arts (VANARTS),Private Institution,600-570,dunsmuir street,Vancouver,BC,V6B1Y1
cbf014243d2e3d8882f9,Sprott Shaw College - East Vancouver,Private Institution,501-333,terminal avenue,Vancouver,BC,V6A4C1
ce278fac999fc332514b,Sterling College,Private Institution,200-1111,melville steet,Vancouver,BC,V6E3V6
ce585c5e7a92ab11f4a7,Westside Montessori School,Independent School,4157,oak st,Vancouver,BC,V6H2N1
ce8b435db34dc919ac61,General Gordon Elementary,Public School,2268,bayswater st,Vancouver,BC,V6K4P5
cf0ddda89063a43ffac1,David Oppenheimer Elementary,Public School,2421,scarboro ave,Vancouver,BC,V5P2L5
d1ee7a9a449ec7bc61dc,Gladstone Secondary,Public School,4105,gladstone st,Vancouver,BC,V5N4Z2
d2569fcd3d5ad710ff89,Columbia College,Independent School,438,terminal ave,Vancouver,BC,V6A0C1
d41176a23e75101bc729,Story Institute,Private Institution,320,640 w. broadway,Vancouver,BC,V5Z1G4
d5e3601324a996aa1796,Queen Elizabeth Annex,Public School,4275,crown st,Vancouver,BC,V6S2K3
d60d20a1b3c5b947a60a,Sir Charles Tupper Secondary,Public School,419,24th ave,Vancouver,BC,V5V2A2
d69033a4ce3c21de3a43,Templeton Secondary,Public School,727,templeton dr,Vancouver,BC,V5L4N8
d6bfc261ef206fe75c9d,Fraser Academy,Independent School,2294,10th ave,Vancouver,BC,V6K2H8
d6d7dc79629015ff5eb6,Sir Wilfred Grenfell Community,Public School,3323,wellington ave,Vancouver,BC,V5R4Y3
d7cc2e1a2f4db72cb25a,Stratford Hall,Independent School,3000,commercial dr,Vancouver,BC,V5N4E2
d8b652e1dcb2bb2d29d0,Canada College Vancouver,Private Institution,300 900,burrard st.,Vancouver,BC,V6Z2N2
dc1918a17acdb46ab8af,Renfrew Community Elementary,Public School,3315,22nd ave,Vancouver,BC,V5M2Z2
dd401bdccb13ba72b7a1,Xpey' Elementary,Public School,1950,hastings st,Vancouver,BC,V5L1T7
de119de3bd74f30a8699,London School of Hairdressing & Aesthetics,Private Institution,114,west hastings street,Vancouver,BC,V6B1G8
e109c9987b1e6a1a6d3c,Chief Maquinna Elementary,Public School,1130,keefer street,Vancouver,BC,V5M1C9
e2227da79285f5da16ae,G T Cunningham Elementary,Public School,2330,37th ave,Vancouver,BC,V5R2T3
e2ef96da47f1ac717eb9,Westside Montessori Elementary School,Independent School,3396,cambie st,Vancouver,BC,V5Z2W5
e58f40b832e149b6be28,Lord Selkirk StrongStart Centre,StrongStart BC,1750,22nd ave,Vancouver,BC,V5N2P7
e70f4d6ac390ccf1faf7,Queen Alexandra Elementary,Public School,1300,broadway e,Vancouver,BC,V5N1V6
e786a95db885e1dcdc90,CDI College of Business- Technology & Healthcare - Vancouver,Private Institution,549,howe street,Vancouver,BC,V6C2C2
