Index,Facility_Name,Facility_Type,Street_No,Street_Name,City,Prov_Terr,Postal_Code
04c4f9ba8ead89b9ad69,McKenzie Elementary,Public School,4005,raymond st n,Victoria,BC,V8Z4K9
0d0aa1906dbddc6c36ab,Doncaster Elementary,Public School,1525,rowan st,Victoria,BC,V8P1X4
1629f786e42f56027068,Cordova Bay Elementary,Public School,5238,cordova bay rd,Victoria,BC,V8Y2L2
18c458b7d23efb05c6af,Tillicum Community School,Public School,3155,albina st,Victoria,BC,V9A1Z6
1dc38d4d5b512c61b8e0,Continuing Ed SD 63,Public School,,,Victoria,BC,V8X5J2
2a9a0b5e152d1bf73ee2,Glanford Middle School,Public School,4140,glanford ave,Victoria,BC,V8Z4A8
35db24c76d7fddf60d66,ArtsCalibre Academy,Independent School,4201,tyndall ave,Victoria,BC,V8N3R9
3616870fd383fe120e11,Artemis Place Secondary,Independent School,3020,richmond rd,Victoria,BC,V8R4V1
3c9f1e6508a08d797314,Reynolds Secondary,Public School,3963,borden st,Victoria,BC,V8P3H9
40eb3e8770483165c09b,Craigflower Elementary,Public School,2766,admirals rd,Victoria,BC,V9A2R3
423af0bc378c9f1e844d,Lochside Elementary,Public School,1145,royal oak dr,Victoria,BC,V8X3T7
49bf302db6699549fbf4,Colquitz Middle School,Public School,505,dumeresq st,Victoria,BC,V8Z1X3
4c6fe1a95c441bc892a2,Braefoot Elementary,Public School,1440,harrop road,Victoria,BC,V8P2S6
558261135ce1af4d0459,McKenzie StrongStart Centre,StrongStart BC,4005,raymond st n,Victoria,BC,V8Z4K9
57a515f2bf79fd2a3aeb,St Michaels University School - Senior,Independent School,3400,richmond rd,Victoria,BC,V8P4P5
5a085c9f71ff96e6127e,Gordon Head Middle School,Public School,1671,kenmore rd,Victoria,BC,V8N4M8
6261882f8d1336900b5a,Rogers Elementary,Public School,765,rogers ave,Victoria,BC,V8X5K6
68ccc4e5df05f2e978ac,Claremont Secondary,Public School,4980,wesley rd,Victoria,BC,V8Y1Y9
6fef43b7d4e98ea34869,Pacific Horticulture College,Private Institution,505,quayle rd,Victoria,BC,V9E2J7
70206d99c7d8d2c3c399,Craigflower StrongStart Centre,StrongStart BC,2766,admirals rd,Victoria,BC,V9A2R3
7ab0657332a189e98ceb,Frank Hobbs Elementary,Public School,3875,haro rd,Victoria,BC,V8N4A6
816d42335295807a1070,Lake Hill Elementary,Public School,1031,lucas ave,Victoria,BC,V8X5L2
81939b014ad7d8a41260,Campus View Elementary,Public School,3900,gordon head rd,Victoria,BC,V8P4X3
8e29da74bd5bab2a0f4f,Cloverdale Traditional Elementary,Public School,3427,quadra st,Victoria,BC,V8X1G8
95153bea397addeae908,Torquay Elementary,Public School,4413,torquay dr,Victoria,BC,V8N3L3
9a80b9d10404b67d1c85,Maria Montessori Academy,Independent School,991,ambassador ave,Victoria,BC,V8N1P8
a09bfaad06d09a2ae7ce,Q College - Victoria,Private Institution,,,Victoria,BC,V8X5A7
b1fb66703daffcbf6585,Camosun College - All campuses,Junior College,4461,interurban road,Victoria,BC,V9E2C1
b4db2f2f6aff6057b46a,Pacific Christian School,Independent School,654,agnes st,Victoria,BC,V8Z2E6
bdbacf1552b6ff31c6c6,Spectrum Community,Public School,957,burnside rd w,Victoria,BC,V8Z6E9
c7c86769e506899f38d2,Royal Oak Middle School,Public School,751,travino lane,Victoria,BC,V8Z0C6
ce6008eb63f85ea1dfe6,Columbia Paramedic Academy - Victoria,Private Institution,,,Victoria,BC,V8X1J6
d2dcee90effb47273c81,Lansdowne Middle School,Public School,1765,lansdowne rd,Victoria,BC,V8P1A7
d80eb709245bbeedc44a,Northridge Elementary,Public School,4190,carey rd,Victoria,BC,V8Z4G8
dbc6ae3baa229d0953a9,St Patrick's School,Independent School,2368,trent st,Victoria,BC,V8R4Z3
e1973feb1bd461f11f0d,Lambrick Park Secondary,Public School,4139,torquay dr,Victoria,BC,V8N3L1
e991dd34cc138634f630,Prospect Lake Elementary,Public School,321,prospect lake rd,Victoria,BC,V9E1J7
ea5bc233fac48b07b161,Strawberry Vale Elementary,Public School,4109,rosedale ave,Victoria,BC,V8Z5J5
ed49672d8dfcd6a7d705,St Andrew's Regional High,Independent School,880,mckenzie ave,Victoria,BC,V8X3G5
efb4cc41d9b137a35ea0,St Michaels University School - Middle,Independent School,3400,richmond rd,Victoria,BC,V8P4P5
efeae6d619ba89415ec0,Discovery School,Independent School,4052,wilkinson rd,Victoria,BC,V8Z5A5
f7f7b44bb3f6e3a30886,Ã‰cole Marigold School,Public School,3751,grange rd,Victoria,BC,V8Z4T2
f97ca36964126b22ed3c,Oshio College of Acupuncture & Herbology,Private Institution,100,saanich road,Victoria,BC,V8X1W8
