Index,Facility_Name,Facility_Type,Street_No,Street_Name,City,Prov_Terr,Postal_Code
01077efb3d03f8d57069,Glenlyon Norfolk School,Independent School,801,bank st,Victoria,BC,V8S4A8
0dc076cbf45f9ff3cb37,Victoria Academy of Dramatic Arts,Private Institution,,,Victoria,BC,V8V5B3
11c9fc49fa1d12d818aa,Beausoleil,Public School,1623,bank st,Victoria,BC,V8R4V5
179cb069a748959e6d2f,Pacific Design Academy - Victoria,Private Institution,1252,wharf street,Victoria,BC,V8W1T8
1c0e0ce57e062caef94a,Sprott-Shaw College - Victoria,Private Institution,637,bay street,Victoria,BC,V8T5J2
24681dc75522faa67415,James Bay Community,Public School,140,oswego st,Victoria,BC,V8V2B1
272785e0bfc57ebb427a,Victoria High,Public School,1260,grant st,Victoria,BC,V8T1C2
29eb30181d2ddf22c4cd,George Jay Elementary,Public School,1118,princess ave,Victoria,BC,V8T1L3
3579c15a9ce91a9c4f88,Ecole Quadra Elementary,Public School,3031,quadra st,Victoria,BC,V8T4G2
3c933dd5b0e5537c8307,Canadian School of Natural Nutrition - Vancouver Island,Private Institution,3045,douglas street,Victoria,BC,V8T4N2
487a7c447b7bc8a28152,Margaret Jenkins Elementary,Public School,1824,fairfield rd,Victoria,BC,V8S1G8
48ce2f3e2d4bb6ad7380,Victoria College of Art,Private Institution,1625,bank street,Victoria,BC,V8R4V5
5a101cc44009c21f06ea,Oak & Orca School (DL),Independent School,2738,higgins st,Victoria,BC,V8T3N1
5b88991b5ff9d278ed45,Orane International College,Private Institution,140,1675 douglas st,Victoria,BC,V8W2G5
652f4d2ac971397cff61,Regent Christian Online Academy,Independent School,,,Victoria,BC,V8V5A6
6a7afef8b6ca8be92d96,James Bay StrongStart Centre,StrongStart BC,140,oswego st,Victoria,BC,V8V2B1
6e549fd32a65cca5fa0b,Victor School,Public School,2260,victor st,Victoria,BC,V8R4C5
791f9709ad5a4b1f14c1,Oak and Orca Bioregional School,Independent School,2738,higgins st,Victoria,BC,V8T3N1
85410ed75ca92947c9cb,Christ Church Cathedral School,Independent School,912,vancouver st,Victoria,BC,V8V3V7
88eae296589388d4ee91,Oaklands Elementary,Public School,2827,belmont ave,Victoria,BC,V8R4B2
93482894054ce842e291,The Link,Public School,498,cecelia rd,Victoria,BC,V8T4T5
99a9b9054676140c2a1c,George Jay Community StrongStart Centre,StrongStart BC,2260,victor st,Victoria,BC,V8R4C5
9b49eb2749ee66158577,Victoria West Elementary,Public School,750,front st,Victoria,BC,V9A3Y4
9d8e27cd0380ca3066d1,Sir James Douglas Elementary,Public School,401,moss st,Victoria,BC,V8V4N2
a9af4bd678a400a75471,West Coast College of Massage Therapy - Victoria,Private Institution,,,Victoria,BC,V8W1E3
b36209a2a9acb2da2e87,Pacific Rim College,Private Institution,,,Victoria,BC,V8W3C6
b745c31c66187b637155,Vancouver Island School of Art,Private Institution,950,kings road,Victoria- BC,BC,V8T1W6
bcc962d2a7b60753d393,Lighthouse Labs - Victoria,Private Institution,2031,store street,Victoria,BC,V8T5L9
c628198f3fa9ddb2b6df,South Park Family School,Public School,508,douglas st,Victoria,BC,V8V2P7
cebabcd9b70772fc4c5c,Selkirk Montessori School,Independent School,2970,jutland rd,Victoria,BC,V8T5K2
d860a5ecdbb5dadd11a9,SJ Burnside Education Centre,Public School,498,cecelia rd,Victoria,BC,V8T4T5
ea3fea39f13591fd4996,Cambria College - Victoria,Private Institution,,,Victoria,BC,V8W1H2
ea65653aeeb9feb25921,Victoria School for Ideal Education,Independent School,2820,belmont ave,Victoria,BC,V8R4B1
eae312accda57c692b52,Pacific School of Innovation and Inquiry,Independent School,,,Victoria,BC,V8W2B6
f3b6ff557bbd28baab67,SJ Burnside Continuing Education,Public School,498,cecelia rd,Victoria,BC,V8T4T5
