Index,Facility_Name,Facility_Type,Street_No,Street_Name,City,Prov_Terr,Postal_Code
056e4329aa9f8e89a943,Coal Tyee Elementary,Public School,2280,sun valley dr,Nanaimo,BC,V9T6P1
074f7f518375b0509b08,Sprott Shaw College - Nanaimo,Private Institution,,,Nanaimo,BC,V9R5C5
0da83eab196e5573e904,Chase River Elementary,Public School,1503,cranberry ave,Nanaimo,BC,V9R6R7
2ed52807900b2a4883b2,Quarterway StrongStart Centre,StrongStart BC,1632,bowen rd,Nanaimo,BC,V9S1G6
409e2a31b7183309e2f7,Vancouver Island University,University,900,5th street,Nanaimo,BC,V9R5S5
45dd241ef8bbe9c5773a,Quarterway Elementary,Public School,1632,bowen rd,Nanaimo,BC,V9S1G6
497f88caada7c79c8a1e,Nanaimo Christian School,Independent School,198,holland rd,Nanaimo,BC,V9R6W2
5ad2bbf0fa92a07e0c64,Brechin Elementary,Public School,510,millstone ave,Nanaimo,BC,V9S5A9
5cbbbfd44c072b0a3db3,Oceane,Public School,1951,estevan rd,Nanaimo,BC,V9S3Y9
624cfcf1ce80efd48032,Discovery Community College - Nanaimo Seniors Village,Private Institution,6085,uplands drive,Nanaimo,BC,V9V1T8
642dd34b584c813bcec8,Bayview StrongStart Centre,StrongStart BC,140,view st,Nanaimo,BC,V9R4N6
6472f70f4e3dbf47862b,John Barsby Community School,Public School,550,seventh st,Nanaimo,BC,V9R3Z2
67493ead0914ad6b2ebd,McGirr StrongStart Centre,StrongStart BC,6199,mcgirr rd,Nanaimo,BC,V9V1C7
6b517a6169b52935b8fe,Forest Park Elementary,Public School,2050,latimer rd,Nanaimo,BC,V9S2W5
6ba1c3e0099b5b51515d,Pauline Haarer Elementary,Public School,400,campbell st,Nanaimo,BC,V9R3G7
717159442d80143c067c,The High School at VIU,Independent School,900,fifth st,Nanaimo,BC,V9R5S5
a08e445049f41e3788e6,The International High School @ VIU,Independent School,900,fifth st,Nanaimo,BC,V9R5S5
a0f96625ae81b2020cef,Randerson Ridge Elementary,Public School,6021,nelson rd,Nanaimo,BC,V9T5N7
a17276256261e0454899,Academy of Learning - Nanaimo,Private Institution,,,Nanaimo,BC,V9S3Y3
a2d22787c0acad8c8e68,McGirr Elementary,Public School,6199,mcgirr rd,Nanaimo,BC,V9V1C7
c25670fff0ca8df88837,Secondaire de Nanaimo,Public School,1951,estevan rd,Nanaimo,BC,V9S3Y9
c91e5776f2e34e75b71f,Georgia Ave StrongStart Centre,StrongStart BC,625,georgia ave,Nanaimo,BC,V9R3W3
d2df49077bc976fe2ebb,Discovery Community College-Nanaimo-Dunsmuir,Private Institution,,,Nanaimo,BC,V9R6V9
d70e5c937294841bd4fb,Frank J. Ney Elementary,Public School,5301,williamson rd,Nanaimo,BC,V9V1L1
de5cb5abab445b413bae,Island ConnectEd K-12,Public School,4355,jingle pot rd,Nanaimo,BC,V9T5P4
f5671e67393e54495d44,Georgia Avenue Elementary,Public School,625,georgia ave,Nanaimo,BC,V9R3W3
fa4413fca57cbf4760d5,Wellington Secondary,Public School,3135,mexicana rd,Nanaimo,BC,V9T2W8
feabab5d4fb002d5c457,Bayview Elementary,Public School,140,view st,Nanaimo,BC,V9R4N6
ff5466b7fc237a932d76,Discover Montessori School,Independent School,1111,dufferin cr,Nanaimo,BC,V9S2B5
