Index,Facility_Name,Facility_Type,Street_No,Street_Name,City,Prov_Terr,Postal_Code
22219f181ec54bec38d8,Thompson Rivers University,University,900,mcgill road,Kamloops,BC,V2C5N3
226b45d9bdddc279e1c3,Kamloops School of the Arts,Public School,1390,9th ave,Kamloops,BC,V2C3X6
28bf97e8a371d0e9a7c7,Dufferin Elementary,Public School,1880,hillside dr,Kamloops,BC,V2E2E2
2ae88d327e4099a41e83,@ KOOL,Public School,1770,springview pl,Kamloops,BC,V2E1X9
2b5a617355768f7569fd,Arthur Stevenson Elementary,Public School,2890,bank rd,Kamloops,BC,V2B6Y7
2fc63565c3580cfc136f,Sa-hali Secondary,Public School,255,arrowstone dr,Kamloops,BC,V2C1P8
3353a28fa34e1b6238f0,Bert Edwards Science & Technology,Public School,711,windsor ave,Kamloops,BC,V2B2B7
3735b42bdf2befa8f8f7,St Ann's Academy,Independent School,205,columbia st,Kamloops,BC,V2C2S7
386d3829de2a64af7590,Twin Rivers Education Centre,Public School,655,holt st,Kamloops,BC,V2B5G2
3cd25101e8a92cbdea9d,Kamloops Christian School,Independent School,750,cottonwood ave,Kamloops,BC,V2B3X2
456e376134eb2b3fcdd2,Interior Academy,Private Institution,113,victoria street,Kamloops,BC,V2C1Z4
456fde28153286b5590b,Marion Schilling Elementary,Public School,2200,park dr,Kamloops,BC,V2C4P6
478762f3cd7536cd7038,Parkcrest Elementary,Public School,2170,parkcrest ave,Kamloops,BC,V2B4Y1
4844efdf71fc152dcb9f,A E Perry Elementary,Public School,1380,sherbrooke ave,Kamloops,BC,V2B1W9
4e40beb83ffc28975178,Collines-d'or,Public School,2450,partridge dr,Kamloops,BC,V2B8G1
51632adec5c12c196142,Brocklehurst Middle School,Public School,985,windbreak st,Kamloops,BC,V2B5P5
5169ddaa193819af14c3,NorKam Senior Secondary,Public School,730,12th st,Kamloops,BC,V2B3C1
51af06c063c732e12b45,South Kamloops Secondary,Public School,821,munro st,Kamloops,BC,V2C3E9
5ab393f78174a2dbc3a1,South Sa-hali Elementary,Public School,1585,summit dr,Kamloops,BC,V2E1E9
5e390b31d77ca8bdcc51,Kay Bingham Elementary,Public School,950,southill st,Kamloops,BC,V2B5M2
6a0bcca30df2e33f3cfe,Rayleigh Elementary,Public School,306,puett ranch rd,Kamloops,BC,V2H1M9
7b11112f24f4d78d79b0,First Baptist Academy of Kamloops,Independent School,454,columbia st,Kamloops,BC,V2C2T5
7d799faee22b3df0190a,Ecole Lloyd George Elementary,Public School,830,pine st,Kamloops,BC,V2C3A1
841ea0812d5e638607db,McGowan Park Elementary,Public School,2080,tremerton dr,Kamloops,BC,V2E2S2
85af6b2051e276bf21ed,Academy of Learning - Kamloops,Private Institution,699,victoria st,Kamloops,BC,V2C2B3
889b6b7a554ddca8f1ec,Westsyde Secondary,Public School,855,bebek rd,Kamloops,BC,V2B6P2
8b59d977f0cd3b332f5b,Westmount Elementary,Public School,745,walkem rd,Kamloops,BC,V2B7Z8
9273cae4ce4a868687fc,Arthur Hatton StrongStart Centre,StrongStart BC,315,chestnut ave,Kamloops,BC,V2B1L4
9637b339681c381cf3b7,Pacific Way Elementary,Public School,2330,pacific way,Kamloops,BC,V1S1Z3
9b5d3c57b2b46fe8cec6,Summit Elementary,Public School,425,monarch crt,Kamloops,BC,V2E1Y3
ac8a696f032f98ee9368,Valleyview Secondary,Public School,1950,valleyview dr,Kamloops,BC,V2C4C2
b2bdf3a9ccc57bff4733,Juniper Ridge Elementary,Public School,2540,qu'appelle blvd,Kamloops,BC,V2E2E9
b82e112956fbc1b660ae,Aberdeen Elementary,Public School,2191,van horne dr,Kamloops,BC,V1S1L9
c5eee673271afd6c5d91,Continuing Ed SD 73,Public School,655,holt st,Kamloops,BC,V2B5G2
c8051baa685cba02439b,Our Lady of Perpetual Help,Independent School,235,poplar st,Kamloops,BC,V2B4B9
ca381e7d74c85ac490b9,Beattie Elementary,Public School,492,mcgill rd,Kamloops,BC,V2C1M3
d919df8d827bd9814b6c,Beattie StrongStart Centre,StrongStart BC,492,mcgill rd,Kamloops,BC,V2C1M3
db669e4de5cd4cafb144,A E Perry StrongStart Centre,StrongStart BC,1380,sherbrooke ave,Kamloops,BC,V2B1W9
dc451aac3b32be9fdd7c,Arthur Hatton Elementary,Public School,315,chestnut ave,Kamloops,BC,V2B1L4
de6deae20f7225a65768,Sprott Shaw College - Kamloops,Private Institution,,,Kamloops,BC,V2C2A5
de8a88ee72d71056d0ee,Robert L Clemitson Elementary,Public School,5990,todd rd,Kamloops,BC,V2C5B7
e68bd154db6a1bd2ae42,Dallas Elementary,Public School,296,harper rd,Kamloops,BC,V2C4Z2
f7d9eb25795f24aacba8,David Thompson Elementary,Public School,1051,pinesprings rd,Kamloops,BC,V2B7W3
