Index,Facility_Name,Facility_Type,Street_No,Street_Name,City,Prov_Terr,Postal_Code
03404902dc6c39b9835c,Dr Knox Middle School,Public School,121,drysdale blvd,Kelowna,BC,V1V2X9
097a58025835be9fcd41,Sprott Shaw College - Kelowna,Private Institution,200 546,leon avenue,Kelowna,BC,V1Y6J6
0b06fa33fb316dee2cde,Centre for Arts And Technology - Kelowna,Private Institution,100 1632,dickson avenue,Kelowna,BC,V1Y7T2
2e8ab42b300eb0ebf4fa,Springvalley Elementary,Public School,470,ziprick rd,Kelowna,BC,V1X4H4
31f88e6e805324e88cff,South Rutland Elementary,Public School,200,mallach rd,Kelowna,BC,V1X2W5
32a8ddb739d875fa942c,Diving Dynamics,Private Institution,1884,ambrosi road,Kelowna,BC,V1Y4R9
397613a0e648e2d280e4,The Balsam School,Independent School,205-251,lawrence ave,Kelowna,BC,V1Y6L2
3a913b138b35b238493a,Watson Road Elementary,Public School,475,yates rd,Kelowna,BC,V1V1R3
45e44c987a6f30870330,Okanagan Mountain Helicopters FTU Ltd.,Private Institution,6285,airport way,Kelowna,BC,V1V1S1
47dca9a1c3d39e24dcb2,Lakeside School Kelowna,Independent School,429,collett rd,Kelowna,BC,V1W1K6
4aa8912807aa511b5176,Bankhead Elementary,Public School,1280,wilson ave,Kelowna,BC,V1Y6Y6
4abf23b7a4124e7eb763,Anne McClymont Elementary,Public School,4489,lakeshore rd,Kelowna,BC,V1W1W9
4c6b3f5a7c79f2a3c75c,M.C. College - Kelowna,Private Institution,100,spall road,Kelowna,BC,V1Y4R2
575f881482a82c887990,Raymer StrongStart Centre,StrongStart BC,657,raymer ave,Kelowna,BC,V1Y4Z6
5b2d237cfc4ab67dca1a,Chute Lake Elementary,Public School,5240,lark st,Kelowna,BC,V1W4K8
67b2f1fd4d484dd9ae6e,Studio 9 Independent School of the Arts,Independent School,1180,houghton rd,Kelowna,BC,V1X2C9
6bc0b3392da7fa229ca6,Career City College,Private Institution,201-1634,harvey avenue,Kelowna,BC,V1Y6G2
7229c89db00ab06521b8,St Joseph Elementary School,Independent School,839,sutherland ave,Kelowna,BC,V1Y5X4
74b6710951322a6cde83,Casorso Elementary,Public School,3675,casorso rd,Kelowna,BC,V1W3E1
762895bf98a5bf4d4fb0,Raymer Elementary,Public School,657,raymer ave,Kelowna,BC,V1Y4Z6
797b9739bd55afbf95f0,Aberdeen Hall Preparatory School,Independent School,950,academy way,Kelowna,BC,V1V3A4
82a39583f0eee3a521e6,South Kelowna Elementary,Public School,4176,spiers rd,Kelowna,BC,V1W4B5
8504aba824ecff9f4282,de l'Anse-au-sable,Public School,675,lequime rd,Kelowna,BC,V1W1A3
888894e6160c4b26df61,KLO Middle School,Public School,3130,gordon dr,Kelowna,BC,V1W3M4
91f9082bdfa1e917c4cd,Okanagan College - All Campuses,Junior College,1000,klo road,Kelowna,BC,V1Y4X8
92d4eb233d29f3740692,Glenmore Elementary,Public School,960,glenmore dr,Kelowna,BC,V1Y4P1
9da369d7978c8b27239a,Rutland Senior Secondary,Public School,705,rutland rd n,Kelowna,BC,V1X3B6
9ed124ab6ac4733a51f4,Canscribe Career College,Private Institution,340 1632,dickson avenue,Kelowna,BC,V1Y7T2
a6071bbe48a959aefd8b,Quigley Elementary,Public School,705,kitch rd,Kelowna,BC,V1X5V8
a6de0285794286286590,Rutland Middle School,Public School,715,rutland rd n,Kelowna,BC,V1X3B6
afe2ea58c61265e51144,Academy of Learning - Kelowna,Private Institution,1640,leckie road,Kelowna,BC,V1X7C6
b1553e0d58fac72964ad,Black Mountain Elementary,Public School,1650,gallagher rd,Kelowna,BC,V1P1G7
c6bfea7b13bf6f0d3981,South Rutland StrongStart Centre,StrongStart BC,200,mallach rd,Kelowna,BC,V1X2W5
c7fcb99885f374ea9279,Willowstone Academy,Independent School,4091,lakeshore rd,Kelowna,BC,V1W1V7
c9047dbf70ed66cec834,KLEOS Open Learning (DL),Independent School,205-251,lawrence ave,Kelowna,BC,V1Y6L2
cb2f1e0729e9438a49f8,First College - Kelowna,Private Institution,532,leon ave,Kelowna,BC,V1Y6J6
d7cf1cfcc94bb6cd2729,North Glenmore Elementary,Public School,125,snowsell st north,Kelowna,BC,V1V2E3
d8078218e2dbaea978da,Rutland Elementary,Public School,620,webster rd,Kelowna,BC,V1X4V5
d9f6d434379a0cbf5275,Okanagan Mission Secondary,Public School,4544,gordon dr,Kelowna,BC,V1W1T4
db60320e436b5bb53047,Focus College - Kelowna,Private Institution,206 1470,st. paul street,Kelowna,BC,V1Y2E6
df7c3c7c4def9a2d3485,Okanagan Montessori Elementary School,Independent School,3439,east kelowna rd,Kelowna,BC,V1W4H1
eca9da74051391074caf,Dorothea Walker Elementary,Public School,4346,gordon dr,Kelowna,BC,V1W1S5
edb8596e27f420680538,Canyon Falls Middle School,Public School,1211,frost rd,Kelowna,BC,V1W4P1
ee3d6c228ff718cdcb32,Springvalley Middle School,Public School,350,ziprick rd,Kelowna,BC,V1X4H3
f5c1b3717c9af0e03896,Belgo Elementary School,Public School,125,adventure rd,Kelowna,BC,V1X1N3
f893536b143a55a2dcd9,Kelowna College of Professional Counselling,Private Institution,101,251 lawrence avenue,Kelowna,BC,V1Y6L2
