Index,Facility_Name,Facility_Type,Street_No,Street_Name,City,Prov_Terr,Postal_Code
08dc2fca5f4eae8c61ef,Canadian Vocational Training Centre,Private Institution,201,victoria steet,Prince George,BC,V2L2J5
0afe0c59cbd035550fc5,Alternate Community Programs,Public School,3400,westwood dr,Prince George,BC,V2N1S1
1214c9e26bf2a4e96bab,Prince George Secondary,Public School,2901,griffiths ave,Prince George,BC,V2M2S7
151ce577ff129918c446,Hart Highlands Elementary,Public School,2233,sussex lane,Prince George,BC,V2K3J1
1811ab220ad1465afb1e,Southridge Elementary,Public School,7300,southridge ave,Prince George,BC,V2N4Y6
202f6871e109a0133763,Edgewood Elementary,Public School,4440,craig dr,Prince George,BC,V2K3P5
2e2d71ab96bab1ad1c11,Pinewood Elementary,Public School,4140,campbell ave,Prince George,BC,V2N3A9
2faa171e1100a62c859a,Van Bien Elementary,Public School,311,wilson cres,Prince George,BC,V2L4P8
30b0184b809a61c8b70e,Vanway Elementary,Public School,4509,highway 16 w,Prince George,BC,V2N5M8
3603e0515f2f21ad25e0,St Mary's,Independent School,1088,gillett st,Prince George,BC,V2M2V3
3da414191f7be003d399,Immaculate Conception,Independent School,3285,cathedral ave,Prince George,BC,V2N5R2
416c40851bc34cf3c029,Sacred Heart,Independent School,785,patricia blvd,Prince George,BC,V2L3V5
4c54146ee1354b086fb3,Kelly Road/Shas ti Secondary,Public School,4540,handlen rd,Prince George,BC,V2K2J8
584040600e690748ce47,SD57 StrongStart Centre 05,StrongStart BC,3500,westwood dr,Prince George,BC,V2N1S1
5b7f0dd67f2236e22447,Nusdeh Yoh,Public School,2579,victoria st,Prince George,BC,V2L2M3
6078f9e2a8b7afa4b6c9,University of Northern British Columbia,University,3333,university way,Prince George,BC,V2N4Z9
63e3e802ed72cb72166a,Glenview Elementary,Public School,7310,cluff rd,Prince George,BC,V2K2M3
77e53097e4b892e84aa5,Westwood Elementary,Public School,2633,vanier dr,Prince George,BC,V2N1V1
7a96cbba7cf2b8f0230b,SD57 StrongStart Centre 02,StrongStart BC,2579,victoria st,Prince George,BC,V2L2M3
7b0723cb9985c80314e3,SD57 StrongStart Centre 01,StrongStart BC,3805,rainbow dr,Prince George,BC,V2M3W2
9151bc165570c3e06fe8,Polaris Montessori Elementary,Public School,7005,gladstone dr,Prince George,BC,V2N3N7
9472ddf6018b1510a2c4,SD57 StrongStart Centre 04,StrongStart BC,1193,harper st,Prince George,BC,V2M2X1
9737fed2814b0037e78d,Peden Hill Elementary,Public School,3500,westwood dr,Prince George,BC,V2N1S1
9e2cb8badc47497149a2,SD57 StrongStart Centre 08,StrongStart BC,7151,heather park rd,Prince George,BC,V2K5Y3
ae6fc35e60702d40c59a,Franco-nord,Public School,2641,ellison dr,Prince George,BC,V2M2S6
aea41f77707216dfbdcb,Heritage Elementary,Public School,257,anderson st,Prince George,BC,V2M6C1
b40135056a2780f31ce6,Ecole Lac des Bois,Public School,4131,rainbow dr,Prince George,BC,V2M3W3
baf59bf03088d0ff9098,CIDES - District 57 Connect,Public School,3400,westwood dr,Prince George,BC,V2N1S1
c19627f5aa3d1e55b67d,Camp Trapping,Public School,3400,westwood dr,Prince George,BC,V2N1S1
c78b855f4c9e0422a2b2,Continuing Ed SD 57,Public School,3400,westwood dr,Prince George,BC,V2N1S1
d1f8c042f7eb2c91087b,Foothills Elementary,Public School,4375,eaglenest cres,Prince George,BC,V2M4Y5
d38ad41b23399ce5b961,Heather Park Elementary,Public School,7151,heather park rd,Prince George,BC,V2K5Y3
d75de29c952c969be219,Springwood Elementary,Public School,4600,zral rd,Prince George,BC,V2K5X9
de77de09fec57b806ceb,Spruceland Traditional,Public School,3805,rainbow dr,Prince George,BC,V2M3W2
e4bd280fbad2f15dc7a0,Beaverly Elementary,Public School,9777,western rd,Prince George,BC,V2N6M9
f308b7b7c602ee442c7e,Harwin Elementary,Public School,1193,harper st,Prince George,BC,V2M2X1
f4c5019726275ec832df,Malaspina Elementary,Public School,7900,malaspina ave,Prince George,BC,V2N4A9
fc3ecf32e49e6793125e,College of New Caledonia,Junior College,3330,22 ave,Prince George,BC,V2N1P8
fe66ffd62b771c09be2e,D P Todd Secondary,Public School,4444,hill ave,Prince George,BC,V2M5V9
