Index,Facility_Name,Facility_Type,Street_No,Street_Name,City,Prov_Terr,Postal_Code
03e3a207bee9a53cdee7,North Peace Secondary,Public School,9304,86 st,Fort St John,BC,V1J6L9
09ac733a99295c38e0d7,Dr Kearney Middle School,Public School,10723,92 st,Fort St John,BC,V1J3J4
2885e80c236fef0ed2fb,Clearview Elem-Jr Secondary,Public School,10716,97 ave,Fort St John,BC,V1J6L7
422112e6d20c34ad1cbc,Robert Ogilvie Elementary,Public School,9907,86 st,Fort St John,BC,V1J4M7
4226913983c1ff3fd1cb,BC Virtual StrongStart,StrongStart BC,10511,99 ave,Fort St. John,BC,V1J1V6
4841d603558fe3787b36,Duncan Cran StrongStart Centre,StrongStart BC,8130,89 ave,Fort St John,BC,V1J5S5
5d547c16eb821b007d22,Energetic Learning Campus,Public School,9708,93 ave,Fort St John,BC,V1J6J8
71d94643b20f9a42074c,UA Piping Industry College of BC-Fort St John Campus,Private Institution,7825,100 ave.,Fort St John,BC,V1J1W1
80a7878391898d393e8d,C M Finch Elementary,Public School,10904,106 st,Fort St John,BC,V1J4G3
969b8f507f7715ffc04c,The Key Learning Centre DL,Public School,10511,99 ave,Fort St John,BC,V1J1V6
a014c0647db4ca546e8c,Ecole Central Elem School of the Arts,Public School,10215,99 ave,Fort St John,BC,V1J1V5
b44629a4565ca001211b,Upper Pine Elem-Jr Secondary,Public School,10716,97 ave,Fort St John,BC,V1J6L7
b83b5dd91466606752c4,Robert Ogilvie StrongStart Centre,StrongStart BC,9907,86 st,Fort St John,BC,V1J3G4
c90521bd545a0a544c5e,Duncan Cran Elementary,Public School,8130,89 ave,Fort St John,BC,V1J5S5
df80318c2747c15f6842,Anne Roberts Young Elementary,Public School,10112,105 ave,Fort St. John,BC,V1J4S4
e20ac8f0074f1b69b13c,Upper Halfway,Public School,10112,105 ave,Fort St. John,BC,V1J4S4
e8d5e3108c61bb713ae5,Key Learning Centre,Public School,10511,99 ave,Fort St John,BC,V1J1V6
e8e57a30d10cfb43d974,Christian Life School,Independent School,8923,112 ave,Fort St John,BC,V1J6G2
f5f849fcc544ec3a38cd,Bert Ambrose,Public School,9616,115 ave,Fort St. John,BC,V1J2Y1
faa1703cf60a3ccf714f,Bert Bowes Middle School,Public School,9816,106 st,Fort St John,BC,V1J4E6
fe5ed4a45f6dcd1164d3,Alwin Holland Elementary,Public School,10615,96 st,Fort St John,BC,V1J3R3
