Index,Facility_Name,Facility_Type,Street_No,Street_Name,City,Prov_Terr,Postal_Code
0095f358c0f5463ca526,F.H. Collins Secondary School,..,1001,lewes boulevard,Whitehorse,YT,Y1A 3J1
0a31dfde868b8bbcecd9,Vanier Catholic Secondary School,..,16,duke street,Whitehorse,YT,Y1A 4M2
0a73302b4271b45af985,Christ the King Elementary School,..,20,nisutlin drive,Whitehorse,YT,Y1A 3S5
21ff849b2f8a5f858de8,Gadzoosdaa Student Residence,..,15,selkirk street,Whitehorse,YT,Y1A 3J5
4d9e4116806283801f49,Holy Family Elementary School,..,55,wann road,Whitehorse,YT,Y1A5X4
59a8554fd321540e1b5a,Golden Horn Elementary School,..,,duncan drive,Whitehorse,YT,Y1A 7A1
601c2af5f8503ff63188,Alkan Air Flight Training,Private Institution,105,lodestar lane,Whitehorse,YT,Y1A6E6
6afb7d081b5a57a83954,Individual Learning Centre,..,4201,4th avenue,Whitehorse,YT,Y1A 5A1
723daac095c992e83fc2,Grey Mountain Primary School,..,186,alsek road,Whitehorse,YT,Y1A 4N9
7d9a431c5f52aea4fcbc,Elijah Smith Elementary School,..,1399,hamilton boulevard,Whitehorse,YT,Y1A 6G3
867bf14a446e77d7e2ee,Teen Parent Centre,..,1001b,lewes blvd,Whitehorse,YT,Y1A 5P9
8b73809753249cc72b58,Selkirk Elementary School,..,5,selkirk street,Whitehorse,YT,Y1A 3J5
9a423978a8dd56697d70,Yukon University,Technical and Vocational,,,Whitehorse,YT,Y1A5K4
a0d3d7a7502e184acfdd,Jack Hulland Elementary School,..,1304,fir street,Whitehorse,YT,Y1A 4C4
aff36b4cc54e60514310,École Whitehorse Elementary School,..,4181,4th avenue,Whitehorse,YT,Y1A1J7
e7f5d24edfb9997165ea,Aurora Virtual School,..,4201,4th avenue,Whitehorse,YT,Y1A 5A1
f00bbf448417ac8d3c49,École Émilie-Tremblay,..,20,falcon drive,Whitehorse,YT,Y1A6B2
f262de1ba240f059b383,Centre scolaire secondaire communautaire Paul-Émile Mercier (CSSC Mercier),..,1009,lewes boulevard,Whitehorse,YT,Y1A6B2
f5c0bd181b56502e9ea5,Hidden Valley Elementary School,..,5,macpherson road,Whitehorse,YT,Y1A5S3
fd964ed13c204fdb1b70,Porter Creek Secondary School,..,1405,hickory street,Whitehorse,YT,Y1A 4M4
