index,facility_name,odhf_facility_type,street_no,street_name,postal_code,city,province,latitude,longitude
2202,arborstone enhanced care,Nursing and residential care facilities,126,purcells cove rd,B3P1B5,halifax,ns,44.6328756,-63.60822714
2206,bissett court,Nursing and residential care facilities,74,chameau crescent,B2W0H5,cole harbour,ns,44.67789912,-63.49031476
2210,canadian forces health services centre - atlantic,Hospitals,,,B3K5X5,halifax,ns,44.659385,-63.590703000000005
2225,clarmar residential care facility,Nursing and residential care facilities,200,main street,B2X1S3,dartmouth,ns,44.68353015,-63.53262551
2226,cobequid community health centre,Hospitals,40,freer lane,,sackville,ns,44.757207,-63.65899399999999
2230,dartmouth general hospital,Hospitals,325,pleasant st,B2Y4G8,dartmouth,ns,44.6539875,-63.547621400000004
2236,east coast forensic hospital,Nursing and residential care facilities,88,gloria mccluskey avenue,,dartmouth,ns,44.72131801,-63.59190651
2241,eastern shore memorial,Hospitals,22637 #7,highway,B0J3B0,sheet harbour,ns,44.925852,-62.541326
2242,eastern shore memorial hospital,Hospitals,22637,rte 7,B0J3B0,sheet harbour,ns,44.920899,-62.532982999999994
2250,glasgow hall - parklands at the lakes limited,Nursing and residential care facilities,76,baker dr,B2W0C7,dartmouth,ns,44.66571626,-63.53063283
2259,harbourview lodge continuing care centre,Nursing and residential care facilities,22639,highway 7,B0J3B0,sheet harbour,ns,44.920405,-62.53265876
2272,ivy meadows continuing care centre,Nursing and residential care facilities,125,knowles crescent,B4G1E7,beaverbank,ns,44.90232904,-63.71091493
2273,iwk health centre,Ambulatory health care services,5850,5980 university ave,B3K6R8,halifax,ns,44.637993,-63.583484
2280,maplestone enhanced care limited,Nursing and residential care facilities,245,main ave,B3M1B7,halifax,ns,44.65374305,-63.64920759
2283,melville gardens nursing home,Nursing and residential care facilities,11,ramsgate lane,B3P2S9,halifax,ns,44.63200392,-63.61463688
2284,melville lodge,Nursing and residential care facilities,50,shoreham lane,B3P2R3,halifax,ns,44.62956069,-63.61525121
2289,musquodoboit valley home for special care association,Nursing and residential care facilities,126,higginsville road,B0N1X0,middle musquodoboit,ns,45.03997373,-63.13996247
2290,musquodoboit valley memorial hospital,Hospitals,492,archibald brook rd,B0N1X0,middle musquodoboit,ns,45.040463700000004,-63.1404927
2302,northwoodcare bedford incorporated- christina & hedley g. ivany place,Nursing and residential care facilities,123,gary martin drive,B4B0G7,bedford,ns,44.72371655,-63.70626578
2303,northwoodcare incorporated,Nursing and residential care facilities,2615,northwood terr,B3K3S5,halifax,ns,44.65718076,-63.59204668
2304,nova scotia environmental health centre,Ambulatory health care services,3064,highway 2,,fall river,ns,44.809976,-63.60599200000001
2305,nova scotia rehabilitation centre,Nursing and residential care facilities,1341,summer street,,halifax,ns,44.639724,-63.58215799999999
2306,oakwood terrace,Nursing and residential care facilities,10,mount hope avenue,B2Y4K1,dartmouth,ns,44.65352971,-63.54451843
2307,ocean view continuing care centre,Nursing and residential care facilities,1909,caldwell road,B3G1M4,eastern passage,ns,44.60672388,-63.47021578
2310,parkstone enhanced care limited,Nursing and residential care facilities,156,parkland drive,B3S1N9,halifax,ns,44.66338256,-63.67207336
2312,peter's place halifax - pjd rehab housing incorporated,Nursing and residential care facilities,12,swan crescent,B3M1T6,halifax,ns,44.66905884,-63.65842992
2315,precision health - 16 rannoch road,Nursing and residential care facilities,16,rannoch road,,dartmouth,ns,44.69066361,-63.53563314
2316,precision health - 24 kincardine street,Nursing and residential care facilities,24,kincardine street,B2X1H9,dartmouth,ns,44.69142556,-63.53708654
2317,precision health - washmill lake drive appartments,Nursing and residential care facilities,599,washmill lake drive,B3G1M4,halifax,ns,44.65001241,-63.65366567
2318,qeii - halifax infirmary site,Hospitals,1796,summer street,,halifax,ns,44.645784,-63.586389000000004
2319,qeii - victoria general (vg) site,Hospitals,1278,south park street,,halifax,ns,44.63840489,-63.58040241
2320,queen elizabeth ii health sciences centre,Hospitals,1276,south park st,B3K6A3,halifax,ns,44.638422,-63.581341
2334,saint vincent's nursing home,Nursing and residential care facilities,2080,windsor st,B3K5B2,halifax,ns,44.64791631,-63.59419064
2336,seabright rest home ltd.,Nursing and residential care facilities,11625,peggys cove road,B3Z2Y1,seabright,ns,44.62317275,-63.92622043
2351,sunshine personal home care inc.,Nursing and residential care facilities,38 a,withrod dr,B3N1B1,halifax,ns,44.63301289,-63.62351235
2356,the admiral long term care centre,Nursing and residential care facilities,6,admiral street,B2X1W4,dartmouth,ns,44.68431853,-63.54545574
2357,the birches,Nursing and residential care facilities,7704,highway 7,B0J2L0,musquodoboit harbour,ns,44.78303535,-63.15833345
2359,the east coast forensic hospital,Hospitals,88,gloria mccluskey ave,B3B2B8,dartmouth,ns,44.7213432,-63.59163420000001
2364,the nova scotia hospital,Hospitals,300,pleasant st,B2Y3Z9,dartmouth,ns,44.651053499999996,-63.5490045
2365,the sagewood continuing care centre,Nursing and residential care facilities,345,cobequid road,B4C4E6,sackville,ns,44.76140286,-63.65201397
2369,twin oaks memorial hospital,Hospitals,7702,hwy 7,B0J2L0,musquodoboit harbour,ns,44.783235,-63.158434
2383,white hills long term care centre,Nursing and residential care facilities,297,pockwock road,B4B1N5,hammonds plains,ns,44.744603999999995,-63.805761
