index,facility_name,odhf_facility_type,street_no,street_name,postal_code,city,province,latitude,longitude
2212,cape breton healthcare complex,Hospitals,1482,george street,B1P1P3,sydney,ns,46.116816,-60.170239
2218,cape breton regional health care complex,Ambulatory health care services,1482,george street,,sydney,ns,46.11301583,-60.17413362
2219,cape breton regional hospital,Hospitals,1482,george st,B1P1P3,sydney,ns,46.113409000000004,-60.174263
2220,carefield manor ltd,Nursing and residential care facilities,1,dryden ave,B1S1V3,sydney,ns,46.1708223,-60.1673939
2222,celtic court,Nursing and residential care facilities,16,st anthony drive,B1S2R5,sydney,ns,46.12197357,-60.19465838
2233,dominion community guest home,Nursing and residential care facilities,79,commercial st,B1G1B3,dominion,ns,46.21071558,-60.02235419
2234,dutch brook guest home,Nursing and residential care facilities,2400,highway 327,B1L1G1,dutch brook,ns,46.05163944,-60.20140324
2249,glace bay healthcare facility,Hospitals,300,south st,B1A1W5,glace bay,ns,46.183211,-59.938572
2256,harbour view facility,Nursing and residential care facilities,22,richard street,B1V2H7,sydney mines,ns,46.23474447,-60.22220735
2258,harbourstone enhanced care limited,Nursing and residential care facilities,84,kenwood dr,B1S3V7,sydney,ns,46.10704016,-60.21381807
2279,maple hill manor,Nursing and residential care facilities,700,king st,B1H3Z5,new waterford,ns,46.24071186,-60.08543333
2286,miner's memorial manor,Nursing and residential care facilities,15,lorne st,B1V3B9,sydney mines,ns,46.23959752,-60.21829662
2291,my cape breton home for seniors - north sydney,Nursing and residential care facilities,77,campbell street,B1P6J1,north sydney,ns,46.20477157,-60.26941415
2292,my cape breton home for seniors - sydney,Nursing and residential care facilities,137,riverdale drive,B1R0A9,sydney,ns,46.11836193,-60.22143907
2295,new waterford consolidated hospital,Hospitals,716,king st,B1H3Z5,new waterford,ns,46.240138,-60.085691000000004
2298,northside community guest home,Nursing and residential care facilities,11,queen st,B2A1A2,north sydney,ns,46.19500767,-60.26263014
2299,northside general hospital,Hospitals,520,purves st,B2A3M4,north sydney,ns,46.218293,-60.23561899999999
2300,northside general hospital 4 east,Nursing and residential care facilities,520,purves street,B2A3M4,north sydney,ns,46.21820836,-60.23555151
2326,r.c. macgillivray guest home,Nursing and residential care facilities,25,xavier dr,B1S2R9,sydney,ns,46.12356627,-60.19425513
2337,seaview manor,Nursing and residential care facilities,275,south street,B1A1W6,glace bay,ns,46.18448967,-59.93643857
2345,southview guest home ltd.,Nursing and residential care facilities,2027,highway 28,B1N3H6,sydney,ns,46.186236799999996,-60.19756978
2354,taigh na mara facility,Nursing and residential care facilities,974,main street,B1A4Z8,glace bay,ns,46.19945045,-59.977686899999995
2355,taigh solas,Nursing and residential care facilities,520,purves street,B2A3M4,north sydney,ns,46.21820836,-60.23555151
2358,the cove guest home,Nursing and residential care facilities,320,alexandra street,B1S2G1,sydney,ns,46.12106735,-60.19770963
2373,victoria haven nursing home,Nursing and residential care facilities,5,third st,B1A5V2,glace bay,ns,46.21158569,-59.96484069
2379,waterford heights,Nursing and residential care facilities,716,king st,B1H3Z5,new waterford,ns,46.23986335,-60.08579329
