index,facility_name,odhf_facility_type,street_no,street_name,postal_code,city,province,latitude,longitude
6217,atelier écono-poste (plateau sociocommunautaire de rimouski),Nursing and residential care facilities,555,rue de lausanne,G5L4A7,rimouski,qc,48.43493839999999,-68.55870909
6324,centre d'activités de jour des ateliers,Nursing and residential care facilities,117,rue des ateliers,G5M1B5,rimouski,qc,48.466756,-68.50612
6340,centre d'activités de jour lausanne (rimouski 1),Nursing and residential care facilities,555,rue de lausanne,G5L4A7,rimouski,qc,48.43493839999999,-68.55870909
6345,centre d'activités de jour sainte-anne,Nursing and residential care facilities,365,boulevard sainte-anne,G5M1E8,rimouski,qc,48.496055,-68.48557
6458,centre de réadaptation en déficience physique de rimouski-neigette,Nursing and residential care facilities,320,rue saint-germain est,G5L1C2,rimouski,qc,48.459749,-68.51815500000001
6525,centre de réadaptation pour les jeunes en difficulté d'adaptation arthur-buies,Nursing and residential care facilities,16,boulevard arthur-buies ouest,G5L5C3,rimouski,qc,48.440341,-68.51150200000001
6585,centre de santé et de services sociaux de rimouski-neigette,Hospitals,150,avenue rouleau,G5L5S9,rimouski,qc,48.447081,-68.532376
6936,cisss du bas-saint-laurent,Ambulatory health care services,355,boulevard saint-germain,G5L3N2,rimouski,qc,48.443365,-68.54059000000001
7030,clinique de médecine familiale de rimouski,Ambulatory health care services,160,rue de l'évêché ouest,G5L4H9,rimouski,qc,48.445130999999996,-68.529981
7035,clinique de médecine intégrée et de psychologie de rimouski,Ambulatory health care services,513,rue de denonville,G5N1C1,rimouski,qc,48.436867,-68.556374
7086,clinique médicale cathédrale,Ambulatory health care services,333,avenue de la cathédrale,G5L5J5,rimouski,qc,48.445412899999994,-68.5195213
7341,"clsc de rimouski (135 , 165 et 180 rue des gouverneurs)",Ambulatory health care services,165,rue des gouverneurs,G5L7R2,rimouski,qc,48.4550376,-68.5217353
7604,estran (l') centre de réadaptation en dépendance du bas-saint-laurent (rimouski),Nursing and residential care facilities,165,rue des gouverneurs,G5L7R2,rimouski,qc,48.4550376,-68.5217353
7641,gmf arthur-buies (clinique médicale arthur-buies),Ambulatory health care services,411,avenue sirois,G5L8B2,rimouski,qc,48.433976,-68.522917
7713,gmf de l'estuaire (clsc et gmf-u de rimouski),Ambulatory health care services,165,rue des gouverneurs,G5L7R2,rimouski,qc,48.4550376,-68.5217353
7779,gmf du boisé langevin (clinique médicale du boisé langevin),Ambulatory health care services,288,rue pierre-saindon,G5L9A8,rimouski,qc,48.445265,-68.523859
7784,gmf du fleuve (clinique médicale du docteur alain daigle),Ambulatory health care services,139,rue j-romuald-bérubé,G0L1B0,rimouski,qc,48.3730998,-68.71009649999999
7785,gmf du fleuve (clinique médicale du phare),Ambulatory health care services,822,boulevard sainte-anne,G5M1J5,rimouski,qc,48.506059,-68.466982
7957,groupe solutions médic du littoral,Ambulatory health care services,822,boulevard sainte-anne,G5M1J5,rimouski,qc,48.506112,-68.467015
8075,hôpital régional de rimouski,Hospitals,150,avenue rouleau,G5L5T1,rimouski,qc,48.446977000000004,-68.530111
8095,hôtellerie omer-brazeau (l'),Nursing and residential care facilities,151,rue saint-louis,G5L5R2,rimouski,qc,48.447936,-68.529962
8369,point de service mrc rimouski-neigette (centre de services externes de rimouski),Nursing and residential care facilities,274,rue potvin,G5L7P5,rimouski,qc,48.444928999999995,-68.52591
