index,facility_name,odhf_facility_type,street_no,street_name,postal_code,city,province,latitude,longitude
7391,clsc de sainte-foy - sillery,Ambulatory health care services,3108,chemin sainte-foy,G1X1P8,québec,qc,46.77513,-71.3125
7416,clsc des rivières (édifice christ-roi),Ambulatory health care services,900,boulevard wilfrid-hamel,G1M2R9,québec,qc,46.811479999999996,-71.258
7471,clsc la source nord,Ambulatory health care services,791,rue de sherwood,G2N1X7,québec,qc,46.905120000000004,-71.3201
7472,clsc la source sud,Ambulatory health care services,190,76e rue est,G1H7K4,québec,qc,46.85926,-71.265
7492,clsc orléans (beauport),Ambulatory health care services,3666,chemin royal,G1E1X5,québec,qc,46.853640000000006,-71.2012
7494,clsc orléans (maizerets),Ambulatory health care services,2480,chemin de la canardière,G1J2G1,québec,qc,46.84364,-71.2183
7495,clsc orléans (montmorency),Ambulatory health care services,66,103e rue,G1C2Z1,québec,qc,46.87728,-71.157
7550,cpej et services externes val-bélair,Nursing and residential care facilities,1465,rue de letna,G3K2S2,québec,qc,46.85503,-71.4159
7551,"cpej, services externes beauport",Nursing and residential care facilities,2915,avenue du bourg-royal,G1C3S2,québec,qc,46.85673,-71.2198
7553,"cpej, services externes et centre de jour de québec",Nursing and residential care facilities,1,avenue du sacré-coeur,G1N2W1,québec,qc,46.81261,-71.2459
7611,foyer de groupe de charlesbourg,Nursing and residential care facilities,,,,,qc,46.86388,-71.2499
7612,foyer de groupe de limoilou,Nursing and residential care facilities,,,,,qc,46.83365,-71.2548
7613,foyer de groupe des chênes,Nursing and residential care facilities,1810,26e rue,G1J1J4,québec,qc,46.84512,-71.2312
7614,foyer de groupe du parc,Nursing and residential care facilities,,,,,qc,46.852109999999996,-71.3624
7617,foyer de groupe le pélican,Nursing and residential care facilities,,,,,qc,46.791990000000006,-71.2612
7618,foyer de groupe phare du blanchon,Nursing and residential care facilities,,,,,qc,46.76351,-71.3253
7619,foyer de groupe pierre-boucher,Nursing and residential care facilities,,,,,qc,46.788140000000006,-71.2478
7671,gmf charlesbourg (centre médical cherbourg),Ambulatory health care services,8150,boulevard henri-bourassa,G1G4C9,québec,qc,46.863659000000006,-71.268904
7672,gmf charlesbourg (médi-clinique de la capitale),Ambulatory health care services,4225,4e avenue ouest,G1H6P3,québec,qc,46.8397,-71.25734200000001
7941,gmf-u maizerets (clsc et gmf-u de maizerets),Ambulatory health care services,2480,chemin de la canardière,G1J2G1,québec,qc,46.843623,-71.218276
7944,gmf-u quatre-bourgeois (gmf-u quatre-bourgeois),Ambulatory health care services,2690,chemin des quatre-bourgeois,G1V0B7,québec,qc,46.778074,-71.29441899999999
7945,gmf-u saint-françois d'assise (gmf-umf saint-françois d'assise),Ambulatory health care services,10,rue de l'espinay,G1L3L5,québec,qc,46.827727,-71.236474
7949,gouvernail (réadaptation interne adolescents) (le),Nursing and residential care facilities,3510,rue cambronne,G1E7H2,québec,qc,46.86327,-71.2094
7956,groupe santé medisys,Ambulatory health care services,3165,chemin saint-louis,G1W4R4,québec,qc,46.756239,-71.294824
7967,hopital chauveau,Hospitals,11999,rue de l'hôpital,G2A2T7,québec,qc,46.85321029999999,-71.37001120000001
7984,hôpital christ-roi,Hospitals,900,boulevard wilfrid-hamel,,québec city,qc,46.81135599,-71.25837456
7997,hôpital de l'enfant-jésus,Hospitals,1401,18e rue,G1J1Z4,québec,qc,46.83723,-71.226427
8027,hôpital du saint-sacrement,Hospitals,1050,chemin sainte-foy,G1S4L8,québec,qc,46.79931,-71.246122
8044,hôpital hôtel-dieu de québec,Hospitals,11,côte du palais,G1R2J6,québec,qc,46.8153,-71.210835
8046,hôpital jeffery hale,Hospitals,1250,chemin sainte-foy,,québec city,qc,46.79666529,-71.25326166
8047,hôpital jeffery hale - saint brigid's,Hospitals,1250,ch ste-foy,G1S2M6,québec,qc,46.796683,-71.25312
8050,hôpital laval,Hospitals,2725,ch ste-foy,G1V4G5,sainte-foy,qc,46.7791191,-71.2976016
8077,hôpital saint-françois d'assise,Hospitals,10,rue de l'espinay,G1L3L5,québec,qc,46.82757,-71.23630899999999
8096,hôtellerie pavillon marguerite-d'youville,Nursing and residential care facilities,2700,chemin des quatre-bourgeois 5ème,G1V0B8,québec,qc,46.778152,-71.294188
8118,institut universitaire de cardiologie et de pneumologie de québec,Hospitals,2725,chemin sainte-foy,G1V4G5,québec,qc,46.77904,-71.297706
8121,institut universitaire en santé mentale de québec,Hospitals,2601,chemin de la canardière,G1J2G3,québec,qc,46.847203,-71.219773
8127,irdpq - services de réadaptation aux adultes et aux aînés,Nursing and residential care facilities,525,boulevard wilfrid-hamel,G1M2S8,québec,qc,46.8209,-71.245
8128,irdpq - services de réadaptation aux enfants et aux adolescents,Nursing and residential care facilities,2975,chemin saint-louis,G1W1P9,québec,qc,46.75954,-71.2855
8135,l'hôtel-dieu de québec,Hospitals,11,côte du palais,,québec city,qc,46.81553405,-71.21085234
8138,la maison michel sarrazin,Nursing and residential care facilities,2101,ch saint-louis,G1T1P5,québec,qc,46.7843857,-71.26055550000001
8193,maison de naissance de la capitale-nationale,Ambulatory health care services,1280,1re avenue,G1L3K9,québec,qc,46.82698,-71.2346
8231,maison michel-sarrazin (la),Hospitals,2101,chemin saint-louis,G1T1P5,québec,qc,46.77352855,-71.25167326
8261,medic axion (lebourgneuf),Ambulatory health care services,1020,rue bouvier,G2K0K9,québec,qc,46.830836,-71.283123
8262,mon doc (cap-rouge),Ambulatory health care services,1147,rue charles-albanel,G1X4T9,québec,qc,46.766059000000006,-71.364641
8267,médicina inc.,Ambulatory health care services,2500,rue beaurevoir,G2C0M4,québec,qc,46.838296,-71.32056800000001
8272,pavillon de prévention des maladies cardiaques,Nursing and residential care facilities,2725,chemin sainte-foy,G1V4G5,québec,qc,46.77919,-71.2979
8290,pavillon patrice-villeneuve,Nursing and residential care facilities,9775,boulevard de l'ormière,G2B0P8,québec,qc,46.838390000000004,-71.35991899999999
8388,projet lune,Nursing and residential care facilities,65,rue notre-dame-des-anges,G1K3E4,québec,qc,46.811991,-71.23003
8413,reflet clinique,Ambulatory health care services,655,boulevard pierre-bertrand,G1M2E4,québec,qc,46.821096999999995,-71.271106
