index,facility_name,odhf_facility_type,street_no,street_name,postal_code,city,province,latitude,longitude
6173,accueil béthanie,Nursing and residential care facilities,2564,avenue langlois,G1E3T5,québec,qc,46.853633,-71.218492
6184,armée du salut (québec) (hôtellerie pour hommes),Nursing and residential care facilities,14,côte du palais,G1R4H8,québec,qc,46.8148443,-71.2111695
6218,athénée (l'),Nursing and residential care facilities,160,rue de carillon,G1K5A2,québec,qc,46.813506,-71.23870500000001
6234,bureau docteur patrick blouin,Ambulatory health care services,11000,boulevard de l'ormière,G2B5S1,québec,qc,46.845086,-71.368149
6322,centre d'activités de jour de québec (francois-1er),Nursing and residential care facilities,1395,avenue françois-1er,G1L4L1,québec,qc,46.82432,-71.2423
6328,centre d'activités de jour edouard-lavergne,Nursing and residential care facilities,390,rue arago ouest,G1K2J3,québec,qc,46.807359999999996,-71.2328
6352,centre d'hébergement du boisé,Nursing and residential care facilities,3690,boul neilson,G1W0A9,québec,qc,46.7539156,-71.32145109999999
6391,centre de pédopsychiatrie (résidence du sacré-coeur) du ciusss,Hospitals,1,avenue du sacré-coeur,G1N2W1,québec,qc,46.81263,-71.24588100000001
6655,centre de services de réadaptation en dépendance de la basse-ville,Nursing and residential care facilities,50,rue saint-joseph est,G1K3A5,québec,qc,46.81259,-71.2303
6664,centre de traitement le faubourg saint-jean,Nursing and residential care facilities,2525,chemin de la canardière,G1J2G2,québec,qc,46.84583,-71.2214
6683,centre hospitalier affilié universitaire de québec,Hospitals,1401,18e rue,G1J1Z4,québec,qc,46.836649,-71.225267
6687,centre hospitalier de l'université laval,Hospitals,,27050 boulevard laurier,,québec city,qc,46.7686865,-71.28344242
6688,centre hospitalier de l'université laval (chul),Hospitals,2705,boulevard laurier,G1V4G2,québec,qc,46.76885,-71.282303
6699,centre hospitalier robert-giffard,Hospitals,,chemin de la canardière,,québec city,qc,46.84793219,-71.22072592
6702,centre hospitalier universitaire de québec,Hospitals,11,cote du palais,G1R2J6,québec,qc,46.815324,-71.211388
6777,centre médical henri-bourassa,Ambulatory health care services,4850,boulevard henri-bourassa,G1H3A7,québec,qc,46.850651,-71.244699
6778,centre médical orsainville,Ambulatory health care services,14050,boulevard henri-bourassa,G1G5S9,québec,qc,46.879717,-71.285562
6782,centre médical racine (1ère avenue),Ambulatory health care services,2490,1re avenue,G1L5A8,québec,qc,46.834865,-71.242036
6812,ch affilié universitaire de québec - hôpital de l'enfant-jésus - hôpital du saint-sacrement,Hospitals,1401,18e rue,G1J1Z4,québec,qc,46.8366127,-71.2256926
6813,ch affilié universitaire de québec - hôpital du saint-sacrement,Hospitals,1050,ch ste-foy,G1S4L8,québec,qc,46.79939,-71.246124
6836,ch notre-dame du chemin inc.,Nursing and residential care facilities,510,ch ste-foy,G1S2J5,québec,qc,46.8026923,-71.2358273
6848,ch st-francois inc.,Nursing and residential care facilities,1604,1re av,G1L3L6,québec,qc,46.827833,-71.23667900000001
6850,ch universitaire de québec (chuq) (siège social) l'hôtel-dieu de québec,Hospitals,11,côte du palais,G1R2J6,québec,qc,46.815211700000006,-71.2107848
6851,ch universitaire de québec (chuq) - hôpital saint-francois d'assise (chu),Hospitals,10,rue de l'espinay,G1L3L5,québec,qc,46.827533,-71.236389
6852,ch universitaire de québec - chul (chu),Hospitals,2705,boul laurier,G1V4G2,québec,qc,46.769473100000006,-71.2827959
6862,chu de québec,Hospitals,11,côte du palais,G1R2J6,québec,qc,46.81523,-71.210797
6968,ciusss de la capitale-nationale,Ambulatory health care services,2915,avenue du bourg-royal,G1C3S2,québec,qc,46.85673,-71.2198
7018,"cjq-iu, centre de réadaptation l'escale",Nursing and residential care facilities,4810,rue escoffier,G1Y3A1,québec,qc,46.741409999999995,-71.3604
7020,clinik med-evolution,Ambulatory health care services,2880,chemin des quatre-bourgeois,G1V4X7,québec,qc,46.774207000000004,-71.300584
7037,clinique de planification des naissances (hôpital saint-francois d'assise),Hospitals,10,rue de l'espinay édifice c 3e étage,G1L3L5,québec,qc,46.82757,-71.2363
7046,clinique des troubles sexuels pour mineurs,Hospitals,1,avenue du sacré-coeur,G1N2W1,québec,qc,46.81259,-71.245856
7050,clinique docteure martine boucher et docteure denise latulippe,Ambulatory health care services,4850,boulevard henri-bourassa,G1H3A7,québec,qc,46.850651,-71.244699
7054,clinique du dre nadeau,Ambulatory health care services,1098,avenue fournier,G1V2H8,québec,qc,46.770389,-71.289739
7059,clinique familiale lac saint-charles,Ambulatory health care services,1514,rue jacques-bédard,G3G3C1,québec,qc,46.903341999999995,-71.36779399999999
7075,clinique médicale alpha,Ambulatory health care services,1147,boulevard pie-xi nord,G3K2P8,québec,qc,46.856688,-71.42206800000001
7082,clinique médicale bourg-royal,Ambulatory health care services,1289,boulevard louis-xiv,G2L1M1,québec,qc,46.875778000000004,-71.25081899999999
7097,clinique médicale de l'université laval,Ambulatory health care services,2305,rue de l'université,G1V0A6,québec,qc,46.779118,-71.26921999999999
7117,clinique médicale dr charest,Ambulatory health care services,102,rue armand-buteau,G1E7E5,québec,qc,46.87325,-71.180223
7144,clinique médicale legendre,Ambulatory health care services,1650,avenue jules-verne,G2G2R1,québec,qc,46.77794,-71.356543
7150,clinique médicale marie-de-l'incarnation,Ambulatory health care services,5,rue marie-de-lincarnation,G1M3J4,québec,qc,46.814306,-71.25141500000001
7192,clinique roy-rosseau,,2579,ch de la carnardière,G1J2G2,beauport,qc,46.8452061,-71.2179217
7198,cliniques médicales lacroix (cap-rouge),Ambulatory health care services,810,route jean-gauvin,G1X0B6,québec,qc,46.763642,-71.370074
7199,cliniques médicales lacroix (centre médical berger - centre administratif),Ambulatory health care services,1000,chemin sainte-foy,G1S2L6,québec,qc,46.799484,-71.244337
7200,cliniques médicales lacroix (lac-beauport),Ambulatory health care services,795,boulevard du lac,G2M0E4,québec,qc,46.930458,-71.315072
7203,clsc - chsld haute-ville-des-rivières - hôtel-dieu du sacré-coeur de jésus de québec,Ambulatory health care services,1,ave du sacré-coeur,G1N2W1,québec,qc,46.8122302,-71.24548359999999
7285,clsc de la basse-ville,Ambulatory health care services,50,rue saint-joseph est,G1K3A5,québec,qc,46.81245,-71.2304
7287,clsc de la haute-ville,Ambulatory health care services,55,chemin sainte-foy,G1R1S9,québec,qc,46.80615,-71.2279
7288,clsc de la haute-ville - édifice courchesne,Ambulatory health care services,383,chemin sainte-foy,G1S2J1,québec,qc,46.803490000000004,-71.2333
7289,clsc de la jacques-cartier (loretteville),Ambulatory health care services,11999,rue de l'hôpital,G2A2T7,québec,qc,46.85376,-71.37100000000001
