index,facility_name,odhf_facility_type,street_no,street_name,postal_code,city,province,latitude,longitude
6332,centre d'activités de jour en déficience intellectuelle et en troubles du spectre de l'autisme de saint-romuald,Nursing and residential care facilities,260,rue de saint-romuald,G6W3H2,lévis,qc,46.754993,-71.235608
6333,centre d'activités de jour en déficience intellectuelle et en troubles du spectre de l'autisme desjardins-est,Nursing and residential care facilities,7245,boulevard guillaume-couture,G6V7A3,lévis,qc,46.813996,-71.154185
6421,centre de réadaptation en déficience intellectuelle et en troubles du spectre de l'autisme de lévis,Nursing and residential care facilities,55,rue du mont-marie,G6V0B8,lévis,qc,46.812235,-71.179349
6450,centre de réadaptation en déficience physique de charny,Nursing and residential care facilities,9500,boulevard du centre-hospitalier,G6X0A1,lévis,qc,46.726006,-71.2577
6479,centre de réadaptation en dépendance de lévis (centre multiservices de santé et de services sociaux de lévis),Nursing and residential care facilities,99,rue du mont-marie,G6V0M4,lévis,qc,46.813394,-71.176558
6639,centre de services ambulatoires de lévis,Hospitals,106,rue jean-xxiii,G6V2K1,lévis,qc,46.816019,-71.17478
6644,centre de services ambulatoires en pédopsychiatrie de lévis,Hospitals,6550,rue saint-georges,G6V6X2,lévis,qc,46.813209,-71.173753
6859,chsld paul-gilbert (centre multiservices de santé et de services sociaux paul-gilbert),Hospitals,9330,boulevard du centre-hospitalier,G6X1L6,lévis,qc,46.72513675,-71.25915451
7141,clinique médicale lacroix (saint-jean-chrysostome),Ambulatory health care services,880,avenue taniata,G6Z2E2,lévis,qc,46.725359999999995,-71.2036
7160,clinique médicale pointe-lévy,Ambulatory health care services,920,rue saint-omer,G6V8N3,lévis,qc,46.80726,-71.1641
7208,clsc centre d'hébergement de charny,Nursing and residential care facilities,9330,boul du centre-hospitalier,G6X1L6,charny,qc,46.7244239,-71.2584421
7383,clsc de saint-romuald,Ambulatory health care services,1205,boulevard guillaume-couture,G6W0J6,lévis,qc,46.735714,-71.26351700000001
7451,clsc et chsld de lévis,Ambulatory health care services,99,rue du mont-marie,G6V0M4,lévis,qc,46.813461,-71.176558
7680,gmf clinique des ponts (clinique des ponts),Ambulatory health care services,1190-a,rue de courchevel,G6W0M5,lévis,qc,46.73166,-71.2626
7685,gmf clinique médicale saint-étienne (gmf clinique médicale saint-étienne),Ambulatory health care services,3010,route lagueux,G6J1T5,lévis,qc,46.6534,-71.3137
7731,gmf de lévis (centre médical lévis-lauzon),Ambulatory health care services,6750,boulevard guillaume-couture,G6V9H4,lévis,qc,46.80798,-71.1623
7835,gmf lévis-les rivières (gmf centre médical lévis-les rivières),Ambulatory health care services,809,route des rivières,G7A2V2,lévis,qc,46.730920000000005,-71.2958
7895,gmf taniata (clinique médicale taniata),Ambulatory health care services,700,avenue taniata,G6Z2C2,lévis,qc,46.736309999999996,-71.2132
7928,gmf-r lévis-métro (clinique médicale lévis-métro),Ambulatory health care services,5700,boulevard étienne-dallaire,G6V8R8,lévis,qc,46.79138,-71.1666
7931,gmf-u de lévis (groupe de médecine de famille universitaire de lévis),Ambulatory health care services,1205,boulevard guillaume-couture,G6W0J4,lévis,qc,46.73554,-71.2635
7974,hébergement îlot desjardins,Nursing and residential care facilities,81,côte du passage,G6V7R9,lévis,qc,46.806046,-71.182811
8197,maison de naissance mimosa,Ambulatory health care services,182,rue de saint-romuald,G6W3G9,lévis,qc,46.755798999999996,-71.237895
8200,maison de soins palliatifs du littoral,Nursing and residential care facilities,5445,rue saint-louis,G6V4G9,lévis,qc,46.799411,-71.188248
8295,pavillon saint-antoine,Nursing and residential care facilities,6194,rue fraser,G6V3R7,lévis,qc,46.814054,-71.18318599999999
8414,refuge roger cantin,Nursing and residential care facilities,302,rue saint-joseph,G6V1G2,lévis,qc,46.82617,-71.163884
8423,réhab (pavillon l'entre-temps),Nursing and residential care facilities,6661,rue saint-georges,G6V8P6,lévis,qc,46.814974,-71.173642
8485,services externes en deficience auditive du grand littoral,Nursing and residential care facilities,9500,boulevard du centre-hospitalier,G6X0A1,lévis,qc,46.726006,-71.2577
