facility_name,index,odhf_facility_type,street_no,street_name,postal_code,city,province
CH RÉGIONAL DE TROIS-RIVIÈRES,6843,Hospitals,731,rue ste julie,G9A 1Y1,trois-rivières,qc
CH RÉGIONAL DE TROIS-RIVIÈRES - PAVILLON SAINTE-MARIE,6844,Hospitals,1991,boul du carmel,G8Z 3R9,trois-rivières,qc
CLSC SAINTE-GENEVIÈVE,S1125,Ambulatory health care services,620, rue Sainte-Geneviève,G9A 3W7,Trois-Rivières,qc
CLSC LAVIOLETTE,S1141,Ambulatory health care services,1274, rue Laviolette,G9A 1W4,Trois-Rivières,qc
CLSC PÈRE-DANIEL,S1142,Ambulatory health care services,939, rue Père-Daniel,G9A 2W9,Trois-Rivières,qc
CLSC DU PAVILLON-DE-LA-SANTÉ,S1192,Ambulatory health care services,3351, boulevard des Forges,G8Z 4M3,Trois-Rivières,qc
CENTRE DE PROTECTION ET DE RÉADAPTATION POUR LES JEUNES ET LES MÈRES EN DIFFICULTÉ D'ADAPTATION DE TROIS-RIVIÈRES,S1312,Nursing and residential care facilities,1455, boulevard du Carmel,G8Z 3R7,Trois-Rivières,qc
CENTRE DE RÉADAPTATION EN DÉFICIENCE PHYSIQUE JACQUES-DE-LABADIE,S1323,Ambulatory health care services,4100, rue Jacques-de-Labadie,G8Y 1T6,Trois-Rivières,qc
CPEJ ET SERVICES EXTERNES DE TROIS-RIVIÈRES - DU PASSAGE,S1325,Nursing and residential care facilities,80, chemin du Passage,G8T 2M2,Trois-Rivières,qc
CENTRE DE PROTECTION ET DE RÉADAPTATION POUR LES JEUNES ET LES MÈRES EN DIFFICULTÉ D'ADAPTATION DES FORGES,S1339,Nursing and residential care facilities,2700, boulevard des Forges,G8Z 1V2,Trois-Rivières,qc
CENTRE DE PROTECTION ET DE RÉADAPTATION POUR LES JEUNES ET LES MÈRES EN DIFFICULTÉ D'ADAPTATION CHARLES-ÉDOUARD-BOURGEOIS,S1400,Nursing and residential care facilities,2735, rue Papineau,G8Z 1N8,Trois-Rivières,qc
CENTRE DE RÉADAPTATION EN DÉFICIENCE INTELLECTUELLE ET EN TROUBLE DU SPECTRE DE L'AUTISME DE TROIS-RIVIÈRES,S1418,Ambulatory health care services,920, place Boland,G8Z 4H2,Trois-Rivières,qc
CENTRE D'ACTIVITÉS DE JOUR EN DÉFICIENCE INTELLECTUELLE ET EN TROUBLES DU SPECTRE DE L'AUTISME BOLAND,S1419,Ambulatory health care services,1000, place Boland,G8Z 4H2,Trois-Rivières,qc
CENTRE D'ACTIVITÉS DE JOUR EN DÉFICIENCE INTELLECTUELLE ET EN TROUBLES DU SPECTRE DE L'AUTISME DE LA FONTAINE,S1421,Ambulatory health care services,1485, place de la Fontaine,G8Y 2S9,Trois-Rivières,qc
RÉADAPTATION FONCTIONNELLE INTENSIVE ET SERVICES EXTERNES SAINTE-MARGUERITE,S1460,Ambulatory health care services,3450, rue Sainte-Marguerite,G8Z 1X3,Trois-Rivières,qc
CENTRE D'HÉBERGEMENT COOKE,S1478,Nursing and residential care facilities,3450, rue Sainte-Marguerite,G8Z 1X3,Trois-Rivières,qc
CENTRE DE RÉADAPTATION EN DÉPENDANCE DE POINTE-DU-LAC,S1650,Nursing and residential care facilities,11931, rue Notre-Dame Ouest,G9B 6W9,Trois-Rivières,qc
CENTRE D'ACTIVITÉS DE JOUR EN DÉFICIENCE INTELLECTUELLE ET EN TROUBLES DU SPECTRE DE L'AUTISME SAINT-PAUL,S1773,Ambulatory health care services,800, rue Saint-Paul,G9A 1J1,Trois-Rivières,qc
CENTRE MULTISERVICES DE SANTÉ ET DE SERVICES SOCIAUX CLOUTIER,S238,Hospitals,155, rue Toupin,G8T 3Z8,Trois-Rivières,qc
CENTRE DE RÉADAPTATION EN DÉFICIENCE PHYSIQUE VACHON,S241,Ambulatory health care services,375, rue Vachon,G8T 8P6,Trois-Rivières,qc
CENTRE DE RÉADAPTATION EN DÉFICIENCE PHYSIQUE DE NIVERVILLE,S326,Ambulatory health care services,800, rue Niverville,G9A 2A8,Trois-Rivières,qc
CENTRE D'HÉBERGEMENT ROLAND-LECLERC,S396,Nursing and residential care facilities,3500, rue Sainte-Marguerite,G8Z 1X3,Trois-Rivières,qc
CENTRE DE RÉADAPTATION EN DÉFICIENCE INTELLECTUELLE ET EN TROUBLE DU SPECTRE DE L'AUTISME MARGUERITE-BOURGEOYS,S431,Ambulatory health care services,1025, rue Marguerite-Bourgeoys,G8Z 3T1,Trois-Rivières,qc
CENTRE DE RÉADAPTATION EN DÉFICIENCE PHYSIQUE SAINTE-MARGUERITE,S500,Ambulatory health care services,3470, rue Sainte-Marguerite,G8Z 1X3,Trois-Rivières,qc
FOYER DE GROUPE POUR LES JEUNES EN DIFFICULTÉ D'ADAPTATION ARCAND,S501,Nursing and residential care facilities,325, rue Arcand,G8T 6R1,Trois-Rivières,qc
CENTRE DE PROTECTION ET DE RÉADAPTATION POUR LES JEUNES EN DIFFICULTÉ D'ADAPTATION VILLE-JOIE,S511,Nursing and residential care facilities,11 441, rue Notre-Dame-Ouest,G9B 6W5,Trois-Rivières,qc
CENTRE D'HÉBERGEMENT LOUIS-DENONCOURT,S785,Nursing and residential care facilities,435, rue Saint-Roch,G9A 2L9,Trois-Rivières,qc
CENTRE DE SERVICES AMBULATOIRES EN SANTÉ MENTALE DE TROIS-RIVIÈRES,S943,Hospitals,1573, boulevard des Forges,G8Z 1T7,Trois-Rivières,qc
CENTRE MULTISERVICES DE SANTÉ ET DE SERVICES SOCIAUX SAINT-JOSEPH,S951,Hospitals,731, rue Sainte-Julie,G9A 1Y1,Trois-Rivières,qc
