index,facility_name,odhf_facility_type,street_no,street_name,postal_code,city,province,latitude,longitude
6209,atelier et centre d'activités de jour sherbrooke - prospect (centre de réadaptation pour les personnes présentant une déficience intellectuelle),Nursing and residential care facilities,1621,rue prospect,J1J1K4,sherbrooke,qc,45.41013205,-71.915228
6304,"centre corps, âme et esprit",Nursing and residential care facilities,595,chemin du sanctuaire,J1H0E1,sherbrooke,qc,45.446228999999995,-71.88624300000001
6323,centre d'activités de jour de sherbrooke - queen (crdi),Nursing and residential care facilities,36,rue queen,J1M1H9,sherbrooke,qc,45.359817,-71.857732
6348,centre d'hébergement alternatif de sherbrooke,Nursing and residential care facilities,1287,rue belvédère sud,J1H4E2,sherbrooke,qc,45.38678,-71.8964
6363,centre de crise l'accalmie (centre de réadaptation pour jeunes en difficulté d'adaptation),Nursing and residential care facilities,8701,chemin blanchette,J1N0C7,sherbrooke,qc,45.311795000000004,-72.013929
6382,centre de prélèvement (argyll),Hospitals,375,rue argyll,J1J3H5,sherbrooke,qc,45.404599,-71.914765
6384,centre de prélèvement (édifice murray),Hospitals,500,rue murray,J1G2K6,sherbrooke,qc,45.40063,-71.876239
6402,centre de réadaptation de l'estrie,Nursing and residential care facilities,300,rue king est,J1G1B1,sherbrooke,qc,45.40704,-71.880257
6451,centre de réadaptation en déficience physique de granby,Nursing and residential care facilities,10,rue saint-hubert,J2G5L9,granby,qc,45.40704,-71.880257
6538,centre de santé carillon,Ambulatory health care services,20,rue de carillon,J1J2K8,sherbrooke,qc,45.3985152,-71.9346741
6703,centre hospitalier universitaire de sherbrooke,Hospitals,555,rue murray,J1G2K8,sherbrooke,qc,45.3998,-71.878126
6715,centre jean-patrice-chiasson (le) (crpat),Nursing and residential care facilities,1930,rue king ouest,J1J2E2,sherbrooke,qc,45.39749075,-71.92226215
6853,ch universitaire de sherbrooke (chus),Hospitals,580,rue bowen sud,J1G2E8,sherbrooke,qc,45.398539899999996,-71.87755
6854,ch universitaire de sherbrooke - hôpital fleurimont,Hospitals,3001,12ieme ave nord,J1H5N4,fleurimont,qc,45.447421899999995,-71.8700561
6952,ciusss de l'estrie - centre hospitalier universitaire de sherbrooke,Ambulatory health care services,375,rue argyll,J1J3H5,sherbrooke,qc,45.4047735,-71.91446872
7038,"clinique de planning, santé sexuelle et planification familiale",Hospitals,1095,rue belvédère sud,J1H4C6,sherbrooke,qc,45.38998535,-71.89649042
7206,clsc camirand (50),Ambulatory health care services,50,rue camirand,J1H4J5,sherbrooke,qc,45.39855552,-71.89435337
7446,clsc et centre de services ambulatoires belvédère,Ambulatory health care services,1095,rue belvédère sud,J1H4C6,sherbrooke,qc,45.38998535,-71.89649042
7470,clsc king est,Ambulatory health care services,1200,rue king est,J1G1E4,sherbrooke,qc,45.407887,-71.86216
7486,clsc murray (bébé trucs),Ambulatory health care services,500,rue murray,J1G2K6,sherbrooke,qc,45.400495,-71.876378
7512,clsc speid,Ambulatory health care services,8,rue speid,J1M1R6,sherbrooke,qc,45.368937,-71.859093
7583,domaine orford (toxi-co-gîtes 2003 inc.),Nursing and residential care facilities,361,rue moore,J1H1C1,sherbrooke,qc,45.4068206,-71.89920732
7584,domaine perce-neige inc.,Nursing and residential care facilities,142,chemin moulton hill,J1M0A7,sherbrooke,qc,45.375783,-71.838693
7615,foyer de groupe kelly (centre de réadaptation pour jeunes en difficulté d'adaptation),Nursing and residential care facilities,1275,rue daniel,J1H5X3,sherbrooke,qc,45.387145000000004,-71.907794
8033,hôpital fleurimont,Hospitals,3001,12e avenue nord,J1H5N4,sherbrooke,qc,45.447556,-71.870172
8093,hôtel-dieu de sherbrooke,Hospitals,580,rue bowen sud,J1G2E8,sherbrooke,qc,45.3994613,-71.87757603
8149,maison aube-lumière (la),Nursing and residential care facilities,3071,12e avenue nord,J1H5H3,sherbrooke,qc,45.449071,-71.871555
8192,maison de naissance de l'estrie,Ambulatory health care services,65,rue de la croix,J1C0M2,sherbrooke,qc,45.47143,-71.945608
8218,maison l'intégrale,Nursing and residential care facilities,20,rue king est,J1G1A1,sherbrooke,qc,45.403452,-71.885914
8233,maison oxygène estrie,Nursing and residential care facilities,72,rue victoria,J1H3H7,sherbrooke,qc,45.399928,-71.9058446
8373,point de service val-du-lac (centre de réadaptation pour jeunes en difficulté d'adaptation),Nursing and residential care facilities,8475,chemin blanchette,J1N3A3,sherbrooke,qc,45.312103,-72.01718199999999
8515,villa marie-claire (centre de réadaptation pour jeunes mères en difficulté d'adaptation),Nursing and residential care facilities,470,rue victoria,J1H3J2,sherbrooke,qc,45.405529,-71.90522800000001
