index,facility_name,odhf_facility_type,street_no,street_name,postal_code,city,province,latitude,longitude
6221,auberge du coeur le baluchon,Nursing and residential care facilities,2290,avenue saint-joseph,J2S5L4,saint-hyacinthe,qc,45.629269,-72.95541
6347,centre d'hebergement de l'hôtel-dieu de saint-hyacinthe,Nursing and residential care facilities,1800,rue dessaulles,J2S2T2,saint-hyacinthe,qc,45.625782,-72.9501547
6399,centre de réadaptation (saint-hyacinthe) (jeunesse),Nursing and residential care facilities,730,rue saint-pierre est,J2T1N2,saint-hyacinthe,qc,45.627001,-72.934023
6433,centre de réadaptation en déficience intellectuelle et trouble du spectre de l'autisme - centre multiservices de saint-hyacinthe,Nursing and residential care facilities,5605,avenue trudeau,J2S1H5,saint-hyacinthe,qc,45.636226,-72.976524
6444,centre de réadaptation en déficience physique - installation saint-hyacinthe (adultes),Nursing and residential care facilities,1800,rue dessaulles,J2S2T2,saint-hyacinthe,qc,45.625825,-72.950197
6488,centre de réadaptation en dépendance du cisss de la montérégie-ouest - services externes de saint-hyacinthe,Nursing and residential care facilities,2115,boulevard casavant ouest,J2S7E5,saint-hyacinthe,qc,45.634276,-72.96585999999999
6625,centre de santé et de services sociaux richelieu-yamaska,Hospitals,2750,boulevard laframboise,J2S4Y8,saint-hyacinthe,qc,45.634890000000006,-72.959523
6633,centre de santé saint-pierre,Ambulatory health care services,2095,rue saint-pierre ouest,J2T1P8,saint-hyacinthe,qc,45.620191999999996,-72.94768499999999
6718,centre jeunesse de la montérégie (campus saint-hyacinthe),Nursing and residential care facilities,3000,avenue pratte,J2S4C7,saint-hyacinthe,qc,45.6409946,-72.9596594
6831,ch honoré-mercier,Hospitals,2750,boul laframboise,J2S4Y8,saint-hyacinthe,qc,45.634632700000004,-72.95966290000001
6913,cisss de la montérégie-est,Ambulatory health care services,2750,boulevard laframboise,J2S4Y8,saint-hyacinthe,qc,45.634603999999996,-72.959409
7411,clsc des maskoutains (le) (point de services centre-ville),Ambulatory health care services,1225,rue des cascades,J2S3H2,saint-hyacinthe,qc,45.635233,-72.9602
7845,gmf maska (clinique de saint-hyacinthe),Ambulatory health care services,1220,boulevard casavant est,J2S0L6,saint-hyacinthe,qc,45.646413,-72.953698
8041,hôpital honoré-mercier,Hospitals,2750,boulevard laframboise,J2S4Y8,saint-hyacinthe,qc,45.633596999999995,-72.960324
8146,maison alternative de développement humain inc,Nursing and residential care facilities,1990,rue dessaulles,J2S2T4,saint-hyacinthe,qc,45.623446,-72.94976899999999
8242,maisonnée (la),Nursing and residential care facilities,98,avenue brodeur,J2S4H6,saint-hyacinthe,qc,45.624611,-72.938804
8417,residence centre-ville,Nursing and residential care facilities,1205,rue marguerite-bourgeoys,J2S3M5,saint-hyacinthe,qc,45.624408,-72.942198
8419,residence louise boucher (rue concorde),Nursing and residential care facilities,225,avenue de la concorde nord,J2S4N6,saint-hyacinthe,qc,45.624515,-72.941077
8508,unité régionale de réadaptation di-ted saint-charles,Nursing and residential care facilities,2750,boulevard laframboise,J2S4Y8,saint-hyacinthe,qc,45.63429,-72.959624
8521,vision pro-santé,Ambulatory health care services,2860,boulevard laframboise,J2S4Z1,saint-hyacinthe,qc,45.634170000000005,-72.962285
