index,facility_name,odhf_facility_type,street_no,street_name,postal_code,city,province,latitude,longitude
6171,abri de la rive-sud,Nursing and residential care facilities,885,rue sainte-hélène,J4K3R7,longueuil,qc,45.526896,-73.491412
6179,antre temps (l') longueuil,Nursing and residential care facilities,950,boulevard roland-therrien,J4J5H3,longueuil,qc,45.539858,-73.488232
6215,atelier maisonneuve de longueuil,Nursing and residential care facilities,1219,rue maisonneuve,J4K2S7,longueuil,qc,45.509212,-73.476467
6230,bureau de docteure hélène chouinard,Ambulatory health care services,460,rue sainte-hélène,J4K3R2,longueuil,qc,45.521888,-73.51209300000001
6240,bureau du docteur ginette ménard,Ambulatory health care services,1144,rue saint-laurent ouest,J4K1E2,longueuil,qc,45.522582,-73.512752
6243,bureau du docteur jean-marc noiseux,Ambulatory health care services,2200,chemin de chambly,J4J3Z3,longueuil,qc,45.526703000000005,-73.475767
6244,bureau du docteur jean-pierre gouin,Ambulatory health care services,1144,rue saint-laurent ouest,J4K1E2,longueuil,qc,45.522597,-73.512763
6253,bureau du docteur yvon prévost,Ambulatory health care services,1144,rue saint-laurent ouest,J4K1E2,longueuil,qc,45.522605,-73.51280600000001
6255,bureau du docteure johanne a. béliveau,Ambulatory health care services,2944,boulevard taschereau,J4V2G8,longueuil,qc,45.499565999999994,-73.48732199999999
6350,centre d'hébergement champlain rive-sud,Nursing and residential care facilities,5300,ch chambly,J3Y3N7,saint-hubert,qc,45.5042501,-73.42199140000001
6370,centre de médecine intégrée (cmi) longueuil,Ambulatory health care services,1215,chemin du tremblay,J4N1R4,longueuil,qc,45.537952000000004,-73.463088
6432,centre de réadaptation en déficience intellectuelle et trouble du spectre de l'autisme - centre multiservices de saint-hubert,Nursing and residential care facilities,5980,chemin de chambly,J3Y6W9,longueuil,qc,45.498771000000005,-73.407014
6434,centre de réadaptation en déficience intellectuelle et trouble du spectre de l'autisme - clinique régionale d'évaluation des troubles complexes du développement (longueuil),Nursing and residential care facilities,1442,rue beauharnois,J4M1C2,longueuil,qc,45.535844,-73.453777
6442,centre de réadaptation en déficience physique - installation longueuil,Nursing and residential care facilities,388,rue lamarre,J4J1T2,longueuil,qc,45.53477005,-73.48470999
6443,centre de réadaptation en déficience physique - installation saint-hubert,Nursing and residential care facilities,5300,chemin de chambly,J3Y3N7,longueuil,qc,45.505317,-73.42132099999999
6486,centre de réadaptation en dépendance du cisss de la montérégie-ouest - services externes de longueuil,Nursing and residential care facilities,1525,rue joliette,J4K4W4,longueuil,qc,45.523404,-73.495835
6487,centre de réadaptation en dépendance du cisss de la montérégie-ouest - services externes de saint-hubert,Nursing and residential care facilities,5110,boulevard cousineau,J3Y7G5,longueuil,qc,45.50347,-73.42756999999999
6492,centre de réadaptation en dépendance du cisss de la montérégie-ouest  services résidentiels saint-hubert,Nursing and residential care facilities,3175,rue william,J4T2W7,longueuil,qc,45.500640000000004,-73.47509000000001
6624,centre de santé et de services sociaux pierre-boucher,Hospitals,1333,boulevard jacques-cartier est,J4M2A5,longueuil,qc,45.535931,-73.45772
6716,"centre jeunesse de la montérégie (campus longueuil) (1251, rue beauregard)",Nursing and residential care facilities,1251,rue beauregard,J4K2M3,longueuil,qc,45.51038,-73.487305
6717,"centre jeunesse de la montérégie (campus longueuil) (2010, rue limoges)",Nursing and residential care facilities,2010,rue limoges,J4G1C3,longueuil,qc,45.56978,-73.48055
6766,centre médical chambly latour,Ambulatory health care services,5580-b,chemin de chambly,J3Y3P5,longueuil,qc,45.502414,-73.41618199999999
6767,centre médical champlain,Ambulatory health care services,3716,boulevard taschereau,J4V2H8,longueuil,qc,45.488234000000006,-73.47290799999999
6910,cisss de la montérégie-centre,Ambulatory health care services,3120,boulevard taschereau,J4V2H1,longueuil,qc,45.496911,-73.48579000000001
7310,clsc de longueuil-ouest,Ambulatory health care services,201,boulevard curé-poirier ouest,J4J2G4,longueuil,qc,45.531744,-73.46964799999999
7504,clsc saint-hubert,Ambulatory health care services,6800,boulevard cousineau,J3Y8Z4,longueuil,qc,45.492792,-73.403262
7511,clsc simonne-monet-chartrand,Ambulatory health care services,1303,boulevard jacques-cartier est,J4M2Y8,longueuil,qc,45.536159000000005,-73.458361
7593,envol (l') et aquarelle,Nursing and residential care facilities,2010,rue limoges,J4G1C3,longueuil,qc,45.56978,-73.48055
7973,hébergement la casa bernard hubert,Nursing and residential care facilities,1215,boulevard sainte-foy,J4K1X4,longueuil,qc,45.515863,-73.498653
7983,hôpital charles lemoyne,Hospitals,3120,boul taschereau,J4V2H1,greenfield park,qc,45.4969984,-73.4859921
8064,hôpital pierre-boucher,Hospitals,1333,boul jacques-cartier est,J4M2A5,longueuil,qc,45.538096,-73.4581842
8110,institut nazareth et louis-braille (point de service longueuil - rue d'assigny),Nursing and residential care facilities,955,rue dassigny,J4K5C3,longueuil,qc,45.526824,-73.520538
8111,institut nazareth et louis-braille (point de service longueuil - rue saint-charles),Nursing and residential care facilities,1111,rue saint-charles ouest,J4K5G4,longueuil,qc,45.526096,-73.52005799999999
8214,maison jésus-marie (longueuil),Nursing and residential care facilities,86,rue saint-charles est,J4H1A9,longueuil,qc,45.541992,-73.50605999999999
8216,maison l'escargot (foyer de groupe arc-en-ciel) (campus longueuil),Nursing and residential care facilities,7000,rue louis-hébert,J3Y8E9,longueuil,qc,45.486340999999996,-73.399714
8243,maisons chez lise inc,Nursing and residential care facilities,470,chemin de chambly,J4H3L7,longueuil,qc,45.53828,-73.503279
