index,facility_name,odhf_facility_type,street_no,street_name,postal_code,city,province,latitude,longitude
6275,cabinet dre nada khoder,Ambulatory health care services,901,boul des seigneurs,J6W1T8,terrebonne,qc,45.702329,-73.640276
6462,centre de réadaptation en déficience physique de terrebonne,Nursing and residential care facilities,819,montée masson,J6W2C7,terrebonne,qc,45.706042,-73.629411
6616,centre de santé et de services sociaux du sud de lanaudière,Hospitals,911,montee des pionniers,J6V2H2,terrebonne,qc,45.723397999999996,-73.50802
6839,ch pierre-le gardeur,Hospitals,911,montée des pionniers,J6V2H2,terrebonne,qc,45.7241542,-73.51040809999999
7126,clinique médicale du vieux terrebonne,Ambulatory health care services,883,rue saint-pierre,J6W1E6,terrebonne,qc,45.6926896,-73.63682424
7130,clinique médicale excelle md,Ambulatory health care services,3195,boulevard de la pinière,J6X4P7,terrebonne,qc,45.722752,-73.68669
7295,clsc de la pinière - centre de prélèvements,Ambulatory health care services,3195,boulevard de la pinière,J6X4P7,terrebonne,qc,45.722775,-73.68669
7424,clsc desrosiers-langlois,Ambulatory health care services,821,rue de la soeur-marie-rose,J6V0E8,terrebonne,qc,45.722691,-73.510281
7442,clsc et centre de réadaptation en dépendance de terrebonne - volet clsc - clinique des jeunes,Ambulatory health care services,1045,chemin du coteau,J6W5Y8,terrebonne,qc,45.709138,-73.647453
7443,clsc et centre de réadaptation en dépendance de terrebonne - volet crd,Nursing and residential care facilities,1045,chemin du coteau,J6W5Y8,terrebonne,qc,45.709258,-73.64756
7473,clsc lamater de terrebonne,Ambulatory health care services,1317,boulevard des seigneurs,J6W5B1,terrebonne,qc,45.699658,-73.658745
7474,clsc lamater des seigneurs,Ambulatory health care services,2075,boulevard des seigneurs,J6X4A7,terrebonne,qc,45.718312,-73.681565
7475,clsc lamater les moulins,Ambulatory health care services,2099,boulevard des seigneurs,J6X4A7,terrebonne,qc,45.718318,-73.68156
7571,dianova,Nursing and residential care facilities,1600,côte de terrebonne,J6Y1G8,terrebonne,qc,45.684222999999996,-73.714878
7776,gmf des seigneurs (polyclinique médicale de terrebonne),Ambulatory health care services,901,boulevard des seigneurs,J6W1T8,terrebonne,qc,45.702319,-73.640438
7823,gmf laurier de la pinière (centre médical de la pinière),Ambulatory health care services,3395,boulevard de la pinière,J6X4N1,terrebonne,qc,45.7238639,-73.6826324
7824,gmf laurier de la pinière (centre médical laurier),Ambulatory health care services,5661,boulevard laurier,J7M1T7,terrebonne,qc,45.755899600000006,-73.7143176
7865,gmf polyclinique médicale pierre-le gardeur (gmf-r),Ambulatory health care services,1000,montée des pionniers,J6V1S8,terrebonne,qc,45.725788,-73.5091314
7882,gmf saint-charles (centre médical saint-charles),Ambulatory health care services,1740,chemin saint-charles,J6W3R3,terrebonne,qc,45.695747,-73.614851
7883,gmf saint-donat (clinique médicale du village),Ambulatory health care services,382,rue principale,J0T2C0,saint-donat,qc,45.695677,-73.614489
7920,gmf vivacité (clinique médicale omni plus),Ambulatory health care services,885,rue saint-pierre,J6W1E6,terrebonne,qc,45.69268945,-73.63685893
7921,gmf vivacité (clinique vivacité),Ambulatory health care services,1419,grande allée,J6W5M9,terrebonne,qc,45.707457,-73.62180500000001
8070,hôpital pierre-le gardeur,Hospitals,911,montée des pionniers,J6V2H2,terrebonne,qc,45.724464000000005,-73.510817
8137,la hutte - hébergement d'urgence,Nursing and residential care facilities,1284,boulevard des seigneurs,J6W4Z1,terrebonne,qc,45.699182,-73.655434
8144,maison adhémar-dion (la),Nursing and residential care facilities,4500,chemin saint-charles,J6V1A3,terrebonne,qc,45.707481,-73.51374799999999
8258,md-plus clinique privée (lachenaie),Ambulatory health care services,950,montée des pionniers,J6V1S8,terrebonne,qc,45.7247813,-73.5095168
8260,md-plus clinique privée (terrebonne),Ambulatory health care services,1020,montée masson,J6W2E3,terrebonne,qc,45.7106987,-73.6299902
8382,praxis clinique de santé familiale privée,Ambulatory health care services,1961,chemin gascon,J6X4H2,terrebonne,qc,45.720017299999995,-73.6610106
