index,facility_name,odhf_facility_type,street_no,street_name,postal_code,city,province,latitude,longitude
7850,gmf médi-centre chomedey (centre médical samson),Ambulatory health care services,4599,boulevard samson,H7W2H2,laval,qc,45.529325,-73.75753
7851,gmf médi-centre chomedey (super-clinique)(médi-centre chomedey),Ambulatory health care services,610,boulevard curé-labelle,H7V2T7,laval,qc,45.53662,-73.74261899999999
7864,gmf polyclinique du centre de l'île,Ambulatory health care services,3025,boulevard tessier,H7S2M1,laval,qc,45.569595,-73.74019200000001
7889,gmf sainte-dorothée (bureau des docteurs gilles et pierre liboiron),Ambulatory health care services,378,boulevard cartier ouest,H7N2K2,laval,qc,45.550515000000004,-73.710398
7890,gmf sainte-dorothée (bureau dr perron et al.),Ambulatory health care services,1600,boulevard curé-labelle chomedey,H7V2W2,laval,qc,45.550377000000005,-73.758933
7891,gmf sainte-dorothée (clinique médicale sainte-dorothée) (super-clinique),Ambulatory health care services,1,boulevard samson,H7X3S5,laval,qc,45.522912,-73.782703
7892,gmf sainte-rose (clinique médicale ste-rose),Ambulatory health care services,254,boulevard curé-labelle sainte-rose,H7L3A2,laval,qc,45.600504,-73.788713
7893,gmf sainte-rose (super-clinique) (clsc sainte-rose / centre d'hébergement rose-de-lima),Ambulatory health care services,280,boulevard du roi-du-nord,H7L4L2,laval,qc,45.608132,-73.78944
7937,gmf-u du marigot (clsc et gmf-u du marigot),Ambulatory health care services,1351,boulevard des laurentides,H7M2Y2,laval,qc,45.5868128,-73.71064770000001
7940,gmf-u laval (hôpital de la cité-de-la-santé),Ambulatory health care services,1755,boulevard rené-laennec,H7M3L9,laval,qc,45.602794,-73.71064100000001
7999,hôpital de la cité de la santé,Hospitals,1755,boul rené laennec,H7M3L9,laval,qc,45.603333,-73.7107385
8048,hôpital juif de réadaptation,Nursing and residential care facilities,3205,place alton-goldbloom,H7V1R2,laval,qc,45.548509,-73.737525
8113,institut nazareth et louis-braille - point de service laval,Nursing and residential care facilities,3205,place alton-goldbloom,H7V1R2,laval,qc,45.548509,-73.737525
8116,institut raymond-dewar,Nursing and residential care facilities,3205,place alton-goldbloom,H7V1R2,laval,qc,45.548509,-73.737525
8131,jewish rehabilitation hospital,Nursing and residential care facilities,3205,alton goldbloom pl,H7V1R2,laval,qc,45.548623,-73.73759100000001
8190,maison de la tourelle enr.,Nursing and residential care facilities,118,boulevard longpré,H7L3C5,laval,qc,45.607525,-73.79470400000001
8199,maison de soins palliatifs de laval,Nursing and residential care facilities,655,avenue bellevue,H7C0A8,laval,qc,45.613881,-73.642818
8206,maison du chat botté (les) maison peguy,Nursing and residential care facilities,315,rue péguy,H7K1B1,laval,qc,45.62888,-73.74764
8208,maison du marigot inc. (la),Nursing and residential care facilities,260-a,boulevard cartier ouest,H7N6K7,laval,qc,45.557671,-73.69546700000001
8246,manoir cardinal inc.,Nursing and residential care facilities,1111,boulevard chomedey,H7V3S4,laval,qc,45.54923,-73.742517
8247,manoir de laval,Nursing and residential care facilities,1775,rue favreau,H7T2H1,laval,qc,45.550109,-73.76548000000001
8249,manoir des prairies inc.,Nursing and residential care facilities,180,avenue legrand,H7N5V9,laval,qc,45.553403,-73.709233
8250,manoir des îles,Nursing and residential care facilities,4594,promenade paton,H7W3X6,laval,qc,45.523122,-73.752862
8251,manoir marc-aurèle fortin,Nursing and residential care facilities,275,boulevard sainte-rose sainte-rose,H7L3X7,laval,qc,45.613285,-73.791724
8252,manoir saint-martin,Nursing and residential care facilities,1020,boulevard chomedey,H7V3V4,laval,qc,45.545815000000005,-73.741241
8259,md-plus clinique privée (laval),Ambulatory health care services,1575,boulevard de l'avenir,H7S2N5,laval,qc,45.565864000000005,-73.725255
8266,médicentre benjamin-papineau,Ambulatory health care services,1600,boulevard curé-labelle chomedey,H7V2W2,laval,qc,45.550432,-73.759041
8282,pavillon duguay enr,Ambulatory health care services,3934,ch du souvenir,H7W1A8,laval,qc,45.5485683,-73.7579746
8283,pavillon fabre,Nursing and residential care facilities,943,40e avenue,H7R4X4,laval,qc,45.569593,-73.837325
8376,polyclinique médicale concorde ltée,Ambulatory health care services,300,boulevard de la concorde est,H7G2E6,laval,qc,45.577663,-73.681667
8377,polyclinique médicale fabreville,Ambulatory health care services,380,boulevard curé-labelle,H7P5L3,laval,qc,45.57643,-73.78672399999999
8430,résidence cartier (le 270 cartier),Nursing and residential care facilities,270,boulevard cartier ouest,H7N5R3,laval,qc,45.557131,-73.696883
8468,services du chat botté (les) maison bellerose,Nursing and residential care facilities,34,boulevard bellerose,H7K1S4,laval,qc,45.611948999999996,-73.733384
8494,soeurs missionnaires de l'immaculée-conception,Nursing and residential care facilities,100,place juge-desnoyers,H7G1A4,laval,qc,45.560019,-73.67687099999999
8495,soeurs missionnaires du christ-roi,Nursing and residential care facilities,4730,boulevard lévesque ouest,H7W2R4,laval,qc,45.527829,-73.75974599999999
8527,épisode de soins,Ambulatory health care services,1875,rue maurice-gauvin,H7S2M5,laval,qc,45.567071,-73.738242
