index,facility_name,odhf_facility_type,street_no,street_name,postal_code,city,province,latitude,longitude
6225,autisme chat botté (sainte-dorothée),Nursing and residential care facilities,573,rang saint-antoine,H7R6E8,laval,qc,45.547919,-73.835073
6233,bureau docteur andré forget,Ambulatory health care services,210,boulevard sainte-rose est,H7H1P3,laval,qc,45.629624,-73.755803
6235,bureau docteur tri cong nguyen,Ambulatory health care services,93,boulevard clermont,H7N2Z5,laval,qc,45.546983000000004,-73.716881
6238,bureau du docteur claude leblanc,Ambulatory health care services,1688,boulevard des laurentides vimont,H7M2P4,laval,qc,45.596247,-73.721861
6241,bureau du docteur guy brisson,Ambulatory health care services,1600,boulevard curé-labelle chomedey,H7V2W2,laval,qc,45.550419,-73.75894699999999
6246,bureau du docteur leslie newman,Ambulatory health care services,4415,boulevard notre-dame,H7W1T7,laval,qc,45.537690000000005,-73.759879
6248,bureau du docteur nick karellis,Ambulatory health care services,3828,boulevard notre-dame,H7V1R9,laval,qc,45.541382,-73.74647
6252,bureau du docteur william wai lim lau,Ambulatory health care services,4415,boulevard notre-dame,H7W1T7,laval,qc,45.537690000000005,-73.759879
6262,bureau photios giannakis,Ambulatory health care services,4379,boulevard saint-martin ouest,H7T1C5,laval,qc,45.548957,-73.769122
6407,centre de réadaptation en déficience intellectuelle en troubles du spectre de l'autisme louise-vachon,Nursing and residential care facilities,4390,boulevard saint-martin ouest,H7T1C3,laval,qc,45.548663,-73.768357
6409,centre de réadaptation en déficience intellectuelle et en trouble du spectre de l'autisme boulevard sainte-rose,Nursing and residential care facilities,261,boulevard sainte-rose,H7L1M1,laval,qc,45.612611,-73.789601
6420,centre de réadaptation en déficience intellectuelle et en troubles du spectre de l'autisme de laval,Nursing and residential care facilities,304,boulevard cartier ouest,H7N2J2,laval,qc,45.554469,-73.699173
6448,centre de réadaptation en déficience physique boulevard cartier,Nursing and residential care facilities,560,boulevard cartier ouest,H7V1J1,laval,qc,45.543818,-73.72338
6478,centre de réadaptation en dépendance de laval,Nursing and residential care facilities,312,boulevard cartier ouest,H7N2J2,laval,qc,45.554085,-73.699938
6498,centre de réadaptation en dépendances bienville,Nursing and residential care facilities,2255,rue bienville,H7H3C9,laval,qc,45.65424,-73.748271
6516,centre de réadaptation lethbridge-layton-mackay,Nursing and residential care facilities,3205,place alton-goldbloom,H7V1R2,laval,qc,45.548849,-73.737638
6526,centre de réadaptation pour les jeunes en difficulté d'adaptation cartier,Nursing and residential care facilities,306,boulevard cartier ouest,H7N2J2,laval,qc,45.555274,-73.697959
6530,centre de réadaptation pour les jeunes en difficulté d'adaptation de laval,Nursing and residential care facilities,310,boulevard cartier ouest,H7N2J2,laval,qc,45.555975,-73.69789499999999
6576,centre de santé et de services sociaux de laval,Hospitals,1515,boulevard chomedey,H7V3Y7,laval,qc,45.552305,-73.746238
6638,centre de services ambulatoires de laval,Ambulatory health care services,1515,boulevard chomedey,H7V3Y7,laval,qc,45.552457000000004,-73.74623199999999
6860,chsld st-jude-de-laval ltée,Nursing and residential care facilities,4410,boul st-martin ouest,H7T1C3,laval,qc,45.5484225,-73.76936590000001
6925,cisss de laval,Ambulatory health care services,1755,boulevard rené-laennec,H7M3L9,laval,qc,45.603462,-73.710824
7022,clinique accueil santé de laval,Ambulatory health care services,51,boulevard de la concorde ouest,H7N1H7,laval,qc,45.568219,-73.6967
7079,clinique médicale avenir md,Ambulatory health care services,3230,boulevard curé-labelle chomedey,H7P0H9,laval,qc,45.568081,-73.78143399999999
7127,clinique médicale duvernay,Ambulatory health care services,3333,boulevard de la concorde est,H7E2C3,laval,qc,45.593908,-73.663726
7137,clinique médicale kare,Ambulatory health care services,4415,boulevard notre-dame,H7W1T7,laval,qc,45.537677,-73.75966700000001
7151,clinique médicale md centropolis,Ambulatory health care services,655,promenade du centropolis,H7T0A3,laval,qc,45.561167,-73.747722
7170,clinique médicale rose-des-vents,Ambulatory health care services,3498,boulevard sainte-rose,H7P4K7,laval,qc,45.591143,-73.815071
7281,clsc de l'ouest de l'île,Ambulatory health care services,4250,boulevard dagenais fabreville ouest,H7R1L4,laval,qc,45.561935999999996,-73.835829
7413,clsc des mille-îles,Ambulatory health care services,4731,boulevard lévesque est,H7C1M9,laval,qc,45.60719,-73.645204
7434,clsc du ruisseau-papineau,Ambulatory health care services,1665,rue du couvent,H7W3A8,laval,qc,45.5497652,-73.7622712
7458,clsc et chsld idola saint-jean,Ambulatory health care services,250,boulevard cartier ouest,H7N5S5,laval,qc,45.558087,-73.693263
7459,clsc et chsld sainte-rose,Ambulatory health care services,280,boulevard du roi-du-nord,H7L4L2,laval,qc,45.607723,-73.78925600000001
7460,clsc et groupe de médecine de famille universitaire du marigot,Ambulatory health care services,1351,boulevard des laurentides,H7M2Y2,laval,qc,45.5868128,-73.71064770000001
7570,declic action / pavillon un foyer pour toi,Nursing and residential care facilities,600,avenue de la sorbonne,H7G4R5,laval,qc,45.579474,-73.687896
7589,déclic action,Nursing and residential care facilities,2255,rue bienville,H7H3C9,laval,qc,45.654090999999994,-73.74830899999999
7590,déclic action pavillon la maisonnée,Nursing and residential care facilities,2255,rue bienville,H7H3C9,laval,qc,45.654043,-73.748264
7636,foyer sainte-dorothée,Nursing and residential care facilities,690,rue mandel,H7X1L4,laval,qc,45.522154,-73.816242
7663,gmf boulevard de l'avenir (clinique médicale de l'avenir),Ambulatory health care services,1150,boulevard de l'avenir,H7N6L2,laval,qc,45.563519,-73.724491
7670,gmf centre médical laval (centre médical laval) (super-clinique),Ambulatory health care services,1110,boulevard vanier,H7C2R8,laval,qc,45.610921000000005,-73.658163
7684,gmf clinique médicale saint-françois,Ambulatory health care services,8048,avenue marcel-villeneuve,H7A4H5,laval,qc,45.672733,-73.595177
7687,gmf clinique santé 440 (clinique médicale bellerive),Ambulatory health care services,1,place de la belle-rive,H7V1B1,laval,qc,45.537071999999995,-73.726104
7688,gmf clinique santé 440 (clinique santé 440),Ambulatory health care services,4650,autoroute 440 desserte sud,H7T2Z8,laval,qc,45.558087,-73.79372
7689,gmf clinique santé 440 (docteure salpi hagopian et megerditch tarakdjian),Ambulatory health care services,1600,boulevard curé-labelle chomedey,H7V2W2,laval,qc,45.5504,-73.758933
7690,gmf concorde (super-clinique) (polyclinique médicale de la concorde),Ambulatory health care services,300,boulevard de la concorde est,H7G2E6,laval,qc,45.577728,-73.68164399999999
7772,gmf des boisés (clinique des boisés),Ambulatory health care services,4670,boulevard saint-martin ouest,H7T2Y2,laval,qc,45.546564000000004,-73.77673100000001
7799,gmf fabreville (super-clinique),Ambulatory health care services,380,boulevard curé-labelle,H7P5L3,laval,qc,45.576417,-73.786654
7816,gmf jolibourg (centre médical jolibourg),Ambulatory health care services,1271,boulevard jolibourg,H7Y1Z8,laval,qc,45.524665,-73.85285999999999
7826,gmf le carrefour médical (centre médical le carrefour),Ambulatory health care services,3030,boulevard le carrefour,H7T2P5,laval,qc,45.567495,-73.74998599999999
