index,facility_name,odhf_facility_type,street_no,street_name,postal_code,city,province,latitude,longitude
7965,havre-jeunesse (centre administratif),Nursing and residential care facilities,4360,boulevard lasalle,H4G2A8,montréal,qc,45.4602102,-73.56497359999999
7966,homewood du plateau,Nursing and residential care facilities,4387,avenue de l'esplanade,H2W1T3,montréal,qc,45.5178199,-73.5884153
7970,hâvre jeunesse - teen haven,Nursing and residential care facilities,1019,rue moffat,H4H1Z1,montréal,qc,45.4505174,-73.5803083
7975,hébergements de l'envol (les),Nursing and residential care facilities,6984,rue fabre,H2E2B2,montréal,qc,45.545345899999994,-73.60758320000001
7977,héberjeune de parc extension,Nursing and residential care facilities,7004,rue hutchison,H3N1Y6,montréal,qc,45.528855,-73.62240809999999
7982,hôpital catherine booth,Hospitals,4375,avenue montclair,H4B2J5,montréal,qc,45.464403000000004,-73.63549499999999
8001,hôpital de lachine du cusm,Hospitals,650,16e avenue,H8S3N5,montréal,qc,45.441059,-73.677263
8002,hôpital de lasalle,Hospitals,8585,terrasse champlain,H8P1C1,montréal,qc,45.420806799999994,-73.62353470000001
8009,hôpital de montréal pour enfants du cusm,Hospitals,1001,boulevard décarie,H4A3J1,montréal,qc,45.47208109,-73.60325961
8012,hôpital de réadaptation lindsay,Hospitals,6363,chemin hudson,H3S1M9,montréal,qc,45.5068804,-73.62967568
8018,hôpital de soins psychiatriques de l'est-de-montréal,Hospitals,7401,rue hochelaga,H1N3M5,montréal,qc,45.58891920000001,-73.5306798
8021,hôpital de verdun,Hospitals,4000,boulevard lasalle,H4G2A3,montréal,qc,45.464106,-73.563672
8026,hôpital du sacré-coeur-de-montréal,Hospitals,5400,boulevard gouin ouest,H4J1C5,montréal,qc,45.53261595,-73.71415343
8034,hôpital fleury,Hospitals,2180,rue fleury est,H2B1K3,montréal,qc,45.5717537,-73.6505287
8036,hôpital général de montréal du cusm,Hospitals,1650,avenue cedar,H3G1A4,montréal,qc,45.49709,-73.588735
8038,hôpital général juif (pavillon 4335),Hospitals,4335,chemin de la côte-sainte-catherine,H3T1E4,montréal,qc,45.495899,-73.63067099999999
8039,hôpital général juif sir mortimer b. davis,Hospitals,3755,chemin côte ste-catherine,H3T1E2,montréal,qc,45.497895,-73.62884
8040,hôpital général juif sir mortimer b. davis (centre administratif),Hospitals,3755,chemin de la côte-sainte-catherine,H3T1E2,montréal,qc,45.498107,-73.62945935
8045,hôpital jean-talon,Hospitals,1385,rue jean-talon est,H2E1S6,montréal,qc,45.546021200000006,-73.60934416
8052,hôpital louis-h. lafontaine,Hospitals,7401,rue hochelaga,H1N3M5,montréal,qc,45.5884937,-73.5291412
8053,hôpital maisonneuve-rosemont,Hospitals,5415,boul de l'assomption,H1T2M4,montréal,qc,45.573411,-73.55846600000001
8054,hôpital maisonneuve-rosemont (pavillon maisonneuve et pavillon marcel-lamoureux),Hospitals,5415,boulevard de l'assomption,H1T2M4,montréal,qc,45.573921,-73.559898
8055,hôpital maisonneuve-rosemont (pavillon rosemont),Hospitals,5689,boulevard rosemont,H1T2H1,montréal,qc,45.577484999999996,-73.56180400000001
8056,hôpital marie clarac,Hospitals,3530,boulevard gouin est,H1H1B7,montréal,qc,45.590999,-73.649862
8057,hôpital marie-clarac des soeurs de charité de sainte-marie (1995) inc. (centre administratif),Hospitals,3530,boulevard gouin est,H1H1B7,montréal,qc,45.590614,-73.64884
8061,hôpital neurologique de montréal du cusm,Hospitals,3801,rue university,H3A2B4,montréal,qc,45.50917825,-73.58091784
8062,hôpital notre-dame,Hospitals,1560,rue sherbrooke est,H2L4M1,montréal,qc,45.525845000000004,-73.564308
8071,hôpital richardson,Hospitals,5425,ave bessborough,H4V2S7,montréal,qc,45.471882799999996,-73.6461028
8072,hôpital rivière-des-prairies,Hospitals,7070,boul perras,H1E1A4,montréal,qc,45.6271766,-73.6147382
8073,hôpital royal victoria du cusm,Hospitals,1001,boulevard décarie,H4A3J1,montréal,qc,45.47208109,-73.60325961
8080,hôpital santa cabrini,Hospitals,5655,rue st-zotique est,H1T1P7,montréal,qc,45.580135600000006,-73.5714911
8081,hôpital santa cabrini (centre administratif),Hospitals,5655,rue saint-zotique est,H1T1P7,montréal,qc,45.579623,-73.571405
8082,hôpital shriners pour enfants (québec),Hospitals,1003,boulevard décarie,H4A0A9,montréal,qc,45.47172,-73.601326
8083,hôpital shriners pour enfants (québec) inc. (centre administratif),Hospitals,1003,Chemin Montreal,H4A0A9,montréal,qc,45.47172,-73.601326
8097,hôtelleries (les) (fondation québécoise du cancer),Nursing and residential care facilities,2075,rue de champlain,H2L2T1,montréal,qc,45.5255764,-73.56282359999999
8100,installation gingras-lindsay-de-montréal (institut de réadaptation de montréal),Hospitals,6300,avenue de darlington,H3S2J4,montréal,qc,45.5098608,-73.6304862
8101,installation raymond-dewar,Nursing and residential care facilities,2222,avenue laurier est,H2H2N8,montréal,qc,45.539275,-73.57899559999998
8102,institut allan memorial,Hospitals,1025,avenue des pins ouest,H3A1A1,montréal,qc,45.50613,-73.582145
8103,institut de cardiologie de montréal,Hospitals,5000,rue bélanger,H1T1C8,montréal,qc,45.57388625,-73.57808252
8104,institut de cardiologie de montréal (centre administratif),Hospitals,5000,rue bélanger,H1T1C8,montréal,qc,45.57388625,-73.57808252
8105,institut de réadaptation de montréal,Nursing and residential care facilities,6300,av darlington,H3S2J4,montréal,qc,45.5078433,-73.6282938
8106,institut national de phychiatrie légale philippe-pinel,Hospitals,10905,boulevard henri-bourassa est,H1C1H1,montréal,qc,45.655737,-73.533602
8107,institut national de psychiatrie légale philippe-pinel (centre administratif),Hospitals,10905,boulevard henri-bourassa est,H1C1H1,montréal,qc,45.655737,-73.533602
8108,institut nazareth et louis-braille (point de service Montréal - surdicécité),Nursing and residential care facilities,3800,rue radisson,H1M1X6,montréal,qc,45.5888447,-73.5428993
8109,institut nazareth et louis-braille (point de service de montréal),Nursing and residential care facilities,3744,rue jean-brillant,H3T1P1,montréal,qc,45.495106,-73.6239351
8114,institut philippe pinel de montréal,Hospitals,10905,boul henri bourassa est,H1C1H1,montréal,qc,45.655635,-73.533602
8117,institut thoracique de montréal du cusm,Hospitals,1001,boulevard décarie,H4A3J1,montréal,qc,45.47208109,-73.60325961
8120,institut universitaire de gériatrie de montréal,Nursing and residential care facilities,4565,ch queen mary,H3W1W5,montréal,qc,45.491178000000005,-73.623335
8122,institut universitaire en santé mentale douglas,Hospitals,6875,boulevard lasalle,H4H1R3,montréal,qc,45.442071,-73.58398299999999
