index,facility_name,odhf_facility_type,street_no,street_name,postal_code,city,province,latitude,longitude
7024,clinique communautaire de pointe saint-charles (avenue ash),Ambulatory health care services,500,avenue ash,H3K2R4,montréal,qc,45.478388,-73.556781
7025,clinique communautaire de pointe saint-charles (centre administratif),Ambulatory health care services,500,avenue ash,H3K2R4,montréal,qc,45.478388,-73.556781
7026,clinique communautaire de pointe-saint-charles (rue du centre),Ambulatory health care services,1955,rue du centre,H3K1J1,montréal,qc,45.482440000000004,-73.563452
7044,clinique des troubles anxieux,Hospitals,7401,rue hochelaga,H1N3M5,montréal,qc,45.58891920000001,-73.5306798
7045,clinique des troubles psychotiques l'étape de l'institut douglas,Hospitals,7105,boulevard lasalle,H4H1R2,montréal,qc,45.439529,-73.581416
7062,clinique lahaise 400 - tah,Hospitals,7401,hochelaga pavillon lahaise,H1N3M5,montréal,qc,45.588654,-73.52909
7197,cliniques de l'hôtel-dieu (chum),Hospitals,3840,rue saint-urbain,H2W1T8,montréal,qc,45.514528000000006,-73.577976
7212,clsc d'ahuntsic,Ambulatory health care services,1165,boulevard henri-bourassa est,H2C3K2,montréal,qc,45.560767999999996,-73.665961
7229,clsc de benny farm,Ambulatory health care services,6484,avenue de monkland,H4B1H3,montréal,qc,45.465392,-73.6317598
7232,clsc de bordeaux-cartierville,Ambulatory health care services,11822,avenue du bois-de-boulogne,H3M2X6,montréal,qc,45.541034,-73.689748
7252,clsc de côte-des-neiges,Ambulatory health care services,5700,chemin de la côte-des-neiges,H3T2A8,montréal,qc,45.4982107,-73.62726540000001
7253,clsc de côte-des-neiges (outremont),Ambulatory health care services,1271,avenue van horne,H2V1K5,montréal,qc,45.52176909,-73.61389861
7254,clsc de côte-des-neiges (programme régional d'accueil et d'intégration des demandeurs d'asile),Ambulatory health care services,3725,rue saint-denis,H2X3L9,montréal,qc,45.519090000000006,-73.57106
7257,clsc de dorval-lachine,Ambulatory health care services,1900,rue notre-dame,H8S2G2,montréal,qc,45.433514,-73.681186
7272,clsc de hochelaga-maisonneuve,Ambulatory health care services,4201,rue ontario est,H1V1K2,montréal,qc,45.551400799999996,-73.54099844
7279,clsc de l'est-de-montréal,Ambulatory health care services,13926,rue notre-dame est,H1A1T5,montréal,qc,45.6664093,-73.4934196
7294,clsc de la petite-patrie,Ambulatory health care services,6520,rue de saint-vallier,H2S2P7,montréal,qc,45.5346608,-73.60532725
7300,clsc de la visitation,Ambulatory health care services,1705,rue de la visitation,H2L3C3,montréal,qc,45.521038,-73.558939
7304,clsc de lasalle,Ambulatory health care services,8550,boulevard newman,H8N1Y5,montréal,qc,45.43144888,-73.63193368
7318,clsc de mercier-est,Ambulatory health care services,9503,rue sherbrooke est,H1L6P2,montréal,qc,45.611751299999995,-73.5270569
7321,clsc de montréal-nord,Ambulatory health care services,11441,boulevard lacordaire,H1G4J9,montréal,qc,45.607046000000004,-73.620058
7328,clsc de parc-extension,Ambulatory health care services,7085,rue hutchison,H3N1Y9,montréal,qc,45.529643,-73.62102900000001
7333,clsc de pierrefonds,Ambulatory health care services,13800,boulevard gouin ouest,H8Z3H6,montréal,qc,45.49703885,-73.84841897
7348,clsc de rivière-des-prairies,Ambulatory health care services,8655,boulevard perras,H1E4M7,montréal,qc,45.6445201,-73.58590583
7354,clsc de rosemont,Ambulatory health care services,2909,rue rachel est,H1W0A9,montréal,qc,45.54258355,-73.5621713
7367,clsc de saint-henri,Ambulatory health care services,3833,rue notre-dame ouest,H4C1P8,montréal,qc,45.4786821,-73.5828477
7371,clsc de saint-laurent,Ambulatory health care services,1055,avenue sainte-croix,H4L3Z2,montréal,qc,45.517396000000005,-73.680862
7373,clsc de saint-léonard,Ambulatory health care services,5540,rue jarry est,H1P1T9,montréal,qc,45.585432,-73.589905
7376,clsc de saint-michel,Ambulatory health care services,3355,rue jarry est,H1Z2E5,montréal,qc,45.565464,-73.60844499999999
7403,clsc de verdun,Ambulatory health care services,400,rue de l'église,H4G2M4,montréal,qc,45.462616,-73.56907199999999
7404,clsc de verdun à l'île-des-soeurs,Ambulatory health care services,1,place du commerce,H3E1A2,montréal,qc,45.468462,-73.565766
7405,clsc de villeray,Ambulatory health care services,1425,rue jarry est,H2E1A7,montréal,qc,45.5514042,-73.62109509999999
7425,clsc dorion (soutien à domicile),Ambulatory health care services,1360,rue jean-talon est,H2E1S2,montréal,qc,45.545416700000004,-73.6091991
7432,clsc du plateau-mont-royal,Ambulatory health care services,4625,avenue de lorimier,H2H2B4,montréal,qc,45.536348,-73.573971
7487,clsc métro,Ambulatory health care services,1801,boulevard de maisonneuve ouest,H3H1J9,montréal,qc,45.494659000000006,-73.5809625
7491,clsc olivier-guimond,Ambulatory health care services,5810,rue sherbrooke est,H1N1B2,montréal,qc,45.575130200000004,-73.5475661
7498,clsc parthenais,Ambulatory health care services,2260,rue parthenais,H2K3T5,montréal,qc,45.531029,-73.559811
7505,clsc saint-louis-du-parc,Ambulatory health care services,15,avenue du mont-royal ouest,H2T2R9,montréal,qc,45.5199886,-73.58667270000001
7507,clsc sainte-catherine,Ambulatory health care services,66,rue sainte-catherine est,H2X1K6,montréal,qc,45.510616999999996,-73.56297099999999
7522,clsc ville-émard-côte-saint-paul,Ambulatory health care services,6161,rue laurendeau,H4E3X6,montréal,qc,45.457212,-73.589344
7532,conseil cri de la santé et des services sociaux de la baie james,Hospitals,c.p. 250,,J0M1E0,chisasibi,qc,45.516341,-73.555272
7545,corporation félix hubert d'hérelle (la),Nursing and residential care facilities,3742,rue saint-hubert,H2L4A2,montréal,qc,45.520539,-73.5727217
7548,courte échelle (la),Nursing and residential care facilities,1900,rue sauvé est,H2B3A8,montréal,qc,45.5664948,-73.6488693
7586,douglas hospital,Hospitals,6875,boul lasalle blvd,H4H1R3,verdun,qc,45.443002,-73.584909
7595,ermitage sainte-croix (l'),Nursing and residential care facilities,21269,boulevard gouin ouest,H9K1C1,montréal,qc,45.455189600000004,-73.9379252
7597,espace la traversée,Nursing and residential care facilities,1460,boulevard crémazie est,H2E1A2,montréal,qc,45.552561299999994,-73.6255746
7630,foyer de jeunes travailleurs et travailleuses de montréal inc.,Nursing and residential care facilities,2650,rue davidson,H1W2Z2,montréal,qc,45.5455126,-73.557112
7927,gmf-r herzl (clinique sans rendez-vous herzl),Ambulatory health care services,5858,chemin de la côte-des-neiges,H3S1Z1,montréal,qc,45.49969,-73.63
7950,grace dart extended care centre,Nursing and residential care facilities,5155,st catherine st e,H1V2A5,montréal,qc,45.5589563,-73.5286176
