facility_name,index,odhf_facility_type,street_no,street_name,postal_code,city,province
CENTRE D'HÉBERGEMENT DES SEIGNEURS,S790,Nursing and residential care facilities,1800, rue Saint-Jacques,H3J 2R5,Montréal,qc
CHSLD AUCLAIR,S791,Nursing and residential care facilities,6910, rue Boyer,H2S 2J7,Montréal,qc
CENTRE D'HÉBERGEMENT ET DE SOINS DE LONGUE DURÉE DES FLORALIES-DE-LASALLE,S801,Nursing and residential care facilities,8200, rue Georges,H8P 3T6,Montréal,qc
CHSLD JEANNE-LE BER,S804,Nursing and residential care facilities,7445, rue Hochelaga,H1N 3V2,Montréal,qc
CENTRE DE RÉADAPTATION LISETTE-DUPRAS,S809,Ambulatory health care services,8000, rue Notre-Dame Ouest,H8R 1H2,Montréal,qc
CENTRE DE RÉADAPTATION POUR LES JEUNES EN DIFFICULTÉ D'ADAPTATION DE LA CITÉ-DES-PRAIRIES,S811,Nursing and residential care facilities,12165, boulevard Saint-Jean-Baptiste,H1C 1S4,Montréal,qc
CENTRE DE RÉADAPTATION POUR LES JEUNES EN DIFFICULTÉ D'ADAPTATION ROSE-VIRGINIE-PELLETIER,S812,Nursing and residential care facilities,9469, boulevard Gouin Ouest,H8Y 1T2,Montréal,qc
CENTRE D'HÉBERGEMENT CHAMPLAIN - MARIE-VICTORIN,S817,Nursing and residential care facilities,7150, rue Marie-Victorin,H1G 2J5,Montréal,qc
POINT DE SERVICE PIE-IX,S821,Ambulatory health care services,8274, boulevard Pie-IX,H1Z 3T6,Montréal,qc
ATELIER DE TRAVAIL ONTARIO,S823,Ambulatory health care services,4532, rue Ontario Est,H1V 1K7,Montréal,qc
ATELIER DE TRAVAIL ÉDISON,S828,Ambulatory health care services,9181, rue Édison,H1J 1T4,Montréal,qc
ATELIER DE TRAVAIL CHAMP D'EAU,S829,Ambulatory health care services,9125, rue Pascal-Gagnon,H1P 1Z4,Montréal,qc
CENTRE D'HÉBERGEMENT CAMILLE-LEFEBVRE,S834,Nursing and residential care facilities,637, 13e Avenue,H8S 4K4,Montréal,qc
FOYER DE GROUPE POUR LES JEUNES EN DIFFICULTÉ D'ADAPTATION DE VERDUN,S837,Nursing and residential care facilities,1230, rue Allard,H4H 2C8,Montréal,qc
HÔPITAL SANTA CABRINI,S841,Hospitals,5655, rue Saint-Zotique Est,H1T 1P7,Montréal,qc
FOYER DE GROUPE POUR LES JEUNES EN DIFFICULTÉ D'ADAPTATION SAGAMO,S861,Nursing and residential care facilities,6965, terrasse Sagamo,H1S 2E9,Montréal,qc
FOYER DE GROUPE POUR LES JEUNES EN DIFFICULTÉ D'ADAPTATION J.-O. ROUSSIN,S862,Nursing and residential care facilities,595, 3e Avenue,H1B 4P1,Montréal,qc
CENTRE DE SERVICES AMBULATOIRES JEAN-JACQUES-GAUTHIER,S863,Hospitals,11885, boulevard Laurentien,H4J 2R5,Montréal,qc
CHSLD LÉGARÉ,S868,Nursing and residential care facilities,1615, avenue Émile-Journault,H2M 2G3,Montréal,qc
CHSLD PIERRE-JOSEPH-TRIEST,S876,Nursing and residential care facilities,4900, boulevard Lapointe,H1K 4W9,Montréal,qc
GROUPE DE MÉDECINE DE FAMILLE UNIVERSITAIRE SACRÉ-CŒUR,S885,Hospitals,1575, boulevard Henri-Bourassa Ouest,H3M 3A9,Montréal,qc
GROUPE DE MÉDECINE DE FAMILLE UNIVERSITAIRE DE VERDUN,S888,Hospitals,3922, boulevard LaSalle,H4G 2A2,Montréal,qc
GROUPE DE MÉDECINE DE FAMILLE UNIVERSITAIRE ET CENTRE DE SERVICES AMBULATOIRES DE ST. MARY,S893,Hospitals,3777, rue Jean-Brillant,H3T 1M5,Montréal,qc
CENTRE HOSPITALIER DE L'UNIVERSITÉ DE MONTRÉAL,S894,Hospitals,1000, rue Saint-Denis,H2X 0A9,Montréal,qc
HÔPITAL NOTRE-DAME,S895,Hospitals,1560, rue Sherbrooke Est,H2L 4M1,Montréal,qc
PAVILLON ÉDOUARD-ASSELIN,S897,Hospitals,264, boulevard René-Lévesque Est,H2X 1P1,Montréal,qc
CENTRE DE RECHERCHE DU CENTRE HOSPITALIER DE L'UNIVERSITÉ DE MONTRÉAL,S898,Hospitals,900, rue Saint-Denis,H2X 0A9,Montréal,qc
CENTRE DE SERVICES AMBULATOIRES EN SANTÉ MENTALE FLEURY,S907,Hospitals,2330, rue Fleury Est,H2B 1K9,Montréal,qc
HÔPITAL COURTE DURÉE PLACE DUPUIS,S916,Hospitals,1415,rue Saint-Hubert,H2L 3Y9,Montréal,qc
HOPITAL DE JOUR LE TREMPLIN,S929,Hospitals,6617, boulevard Lasalle,H4H 1R2,Montréal,qc
INSTITUT DE CARDIOLOGIE DE MONTRÉAL,S930,Hospitals,5000, rue Bélanger,H1T 1C8,Montréal,qc
SNT - HÔPITAL DE LASALLE - ARÉNA JACQUES LEMAIRE,S937,Hospitals,8681, boulevard Champlain,H8P 1B8,Montréal,qc
HÔPITAL EN SANTÉ MENTALE ALBERT-PRÉVOST,S939,Hospitals,6555, boulevard Gouin Ouest,H4K 1B3,Montréal,qc
HÔPITAL MARIE-CLARAC,S940,Hospitals,3530, boulevard Gouin Est,H1H 1B7,Montréal,qc
CLINIQUE COMMUNAUTAIRE DE POINTE ST-CHARLES,S972,Ambulatory health care services,500, avenue Ash,H3K 2R4,Montréal,qc
HÔPITAL DU SACRÉ-CŒUR DE MONTRÉAL,S973,Hospitals,5400, boulevard Gouin Ouest,H4J 1C5,Montréal,qc
CLSC DE CÔTE-DES-NEIGES,S975,Ambulatory health care services,6560, chemin de la Côte-des-Neiges,H3S 2A7,Montréal,qc
HÔPITAL GÉNÉRAL DE MONTRÉAL,S984,Hospitals,1650, avenue Cedar,H3G 1A4,Montréal,qc
