index,facility_name,odhf_facility_type,street_no,street_name,postal_code,city,province,latitude,longitude
8129,jewish eldercare centre,Nursing and residential care facilities,5725,victoria ave,H3W3H6,montréal,qc,45.492871,-73.633826
8130,jewish general hospital,Hospitals,3755,côte ste-catherine,H3T1E2,montréal,qc,45.49785,-73.62871899999999
8140,le campus de lachine du cusm,Nursing and residential care facilities,650,16e ave,H8S3N5,lachine,qc,45.440847999999995,-73.6774557
8142,lindsay rehabilitation hospital,Nursing and residential care facilities,6363,ch hudson,H3S1M9,montréal,qc,45.5068674,-73.62946140000001
8191,maison de naissance côte-des-neiges,Ambulatory health care services,6560,chemin de la côte-des-neiges,H3S2A7,montréal,qc,45.5020483,-73.6350647
8210,maison elizabeth (centre administratif),Nursing and residential care facilities,2131,avenue de marlowe,H4A3L4,montréal,qc,45.4752,-73.6091565
8253,mcgill university health centre - Montréal chest institute,Hospitals,3650,st urbain,H2X2P4,montréal,qc,45.513014,-73.5752103
8254,mcgill university health centre - Montréal children's hospital,Hospitals,2300,tupper st,H3H1P3,montréal,qc,45.472852100000004,-73.60096870000001
8255,mcgill university health centre - Montréal general campus,Hospitals,1650,cedar ave,H3G1A4,montréal,qc,45.4970644,-73.5890322
8256,mcgill university health centre - Montréal neurological hospital,Hospitals,3801,university st,H3A2B4,montréal,qc,45.5089835,-73.5813425
8257,mcgill university health centre - royal victoria hospital,Hospitals,687,pine ave w,H3A1A1,montréal,qc,45.508147799999996,-73.5814085
8269,pavillon albert-prévost,Hospitals,6555,boulevard gouin ouest,H4K1B3,montréal,qc,45.527766,-73.728893
8289,pavillon notre-dame de la merci,Nursing and residential care facilities,555,boul gouin ouest,H3L1K5,montréal,qc,45.54736079999999,-73.68752359999999
8292,pavillon pierrefonds,Nursing and residential care facilities,5100,avenue du château-pierrefonds,H9K1P3,montréal,qc,45.4650661,-73.89667209999999
8293,pavillon rachel-tourigny,Hospitals,5305,boulevard de l'assomption,H1T2M4,montréal,qc,45.573492,-73.557298
8299,pavillon st-joseph de la providence,Nursing and residential care facilities,11844,rue bois-de-boulogne,H3M2X7,montréal,qc,45.541497,-73.69095300000001
8370,point de service pie-ix (accredited),Nursing and residential care facilities,8274,boulevard pie-ix,H1Z3T6,montréal,qc,45.573078,-73.6097017
8386,programme de recherche clinique chum-ircm,Hospitals,120,avenue des pins ouest,H2W2T2,montréal,qc,45.513345,-73.576482
8387,programme itinérance,Nursing and residential care facilities,3570,rue saint-urbain,H2X2N8,montréal,qc,45.512370000000004,-73.5754363
8433,résidence des garçons et/ou filles (havre-jeunesse),Nursing and residential care facilities,4360,boulevard lasalle,H4G2A8,montréal,qc,45.4602102,-73.56497359999999
8449,service d'aides techniques et services externes constance-lethbridge,Nursing and residential care facilities,7005,boulevard de maisonneuve ouest,H4B1T3,montréal,qc,45.4582597,-73.6360212
8453,service des ressources résidentielles,Hospitals,6617,boulevard lasalle,H4H1R2,montréal,qc,45.443874,-73.57937700000001
8492,shriners hospital for children,Hospitals,1529,cedar ave,H3G1A6,montréal,qc,45.499581,-73.588351
8493,site glen du centre universitaire de santé mcgill (cusm),Hospitals,1001,boulevard décarie,H4A3J1,montréal,qc,45.47208109,-73.60325961
8497,st. mary's hospital center,Hospitals,3830,lacombe ave,H3T1M5,montréal,qc,45.494902,-73.624099
8498,stadium physiosteo,Ambulatory health care services,4553,avenue pierre-de coubertin,H1V3N7,montréal,qc,45.558290500000005,-73.5489172
8500,steven e. robbins m.d.,Ambulatory health care services,800,boulevard rené-lévesque ouest,H3B1X9,montréal,qc,45.501011,-73.567605
8506,unité d'alcoologie et de toxicomanies (centre griffith edwards),Nursing and residential care facilities,1547,avenue des pins ouest,H3G1B3,montréal,qc,45.4980246,-73.58901390000001
8516,villa médica,Hospitals,225,rue sherbrooke est,H2X1C9,montréal,qc,45.514975,-73.56859
8517,villa médica inc. (centre administratif),Hospitals,225,rue sherbrooke est,H2X1C9,montréal,qc,45.514975,-73.56859
8523,y des femmes (ywca de montréal),Nursing and residential care facilities,1355,boulevard rené-lévesque ouest 3ème étage,H3G1T3,montréal,qc,45.4961708,-73.5752037
