index,facility_name,odhf_facility_type,street_no,street_name,postal_code,city,province,latitude,longitude
6365,centre de jour pour les jeunes en difficulté d'adaptation fullum,Nursing and residential care facilities,2025,rue fullum,H2K3N5,montréal,qc,45.5308757,-73.55775200000001
6396,centre de readaptation en dépendance foster - point de service externe Montréal,Nursing and residential care facilities,3285,boulevard cavendish,H4B2L9,montréal,qc,45.4633401,-73.6293069
6397,centre de readaptation mackay,Nursing and residential care facilities,3500,boulevard décarie,H4A3J5,montréal,qc,45.4753321,-73.6137196
6398,centre de recherche de l'institut universitaire en santé mentale de montréal,Hospitals,7331,rue hochelaga,H1N3V2,montréal,qc,45.588674,-73.52911999999999
6401,centre de réadaptation constance-lethbridge,Nursing and residential care facilities,7005,boulevard de maisonneuve ouest,H4B1T3,montréal,qc,45.4582597,-73.6360212
6403,centre de réadaptation de l'ouest-de-montréal (crom),Nursing and residential care facilities,8000,rue notre-dame,H8R1H2,montréal,qc,45.449057200000006,-73.6344465
6472,centre de réadaptation en dépandance (point de service de la pointe-de-l'île),Nursing and residential care facilities,13926,rue notre-dame est,H1A1T5,montréal,qc,45.666601,-73.49571879999999
6473,centre de réadaptation en dépendance (programme jeunesse - saint-urbain),Nursing and residential care facilities,3530,rue saint-urbain,H2X2N7,montréal,qc,45.511904799999996,-73.5743755
6480,centre de réadaptation en dépendance de montréal (pavillon prince-arthur) (le),Nursing and residential care facilities,110,rue prince-arthur ouest,H2X1S7,montréal,qc,45.512279,-73.57594809999999
6481,centre de réadaptation en dépendance de montréal - hôpital notre-dame,Nursing and residential care facilities,1560,rue sherbrooke est,H2L4M1,montréal,qc,45.5263108,-73.5658598
6482,centre de réadaptation en dépendance de montréal - service de liaison hôpital maisonneuve-rosemont,Nursing and residential care facilities,5415,boulevard de l'assomption,H1T2M4,montréal,qc,45.574086,-73.56163640000001
6518,centre de réadaptation lisette-dupras,Nursing and residential care facilities,8000,rue notre-dame,H8R1H2,montréal,qc,45.449057200000006,-73.6344465
6519,centre de réadaptation lucie-bruneau,Nursing and residential care facilities,2275,avenue laurier est,H2H2N8,montréal,qc,45.5401333,-73.5789637
6520,centre de réadaptation mab,Nursing and residential care facilities,7000,rue sherbrooke ouest,H4B1R3,montréal,qc,45.459106,-73.6379156
6521,centre de réadaptation marie enfant,Nursing and residential care facilities,5200,rue bélanger,H1T1C9,montréal,qc,45.5753164,-73.5793241
6548,centre de santé et de services sociaux d'ahuntsic et montréal-nord,Hospitals,1725,boulevard gouin est,H2C3H6,montréal,qc,45.568073999999996,-73.66203399999999
6555,centre de santé et de services sociaux de dorval-lachine-lasalle,Hospitals,1900,rue notre-dame,H8S2G2,lachine,qc,45.435251,-73.681326
6601,centre de santé et de services sociaux du coeur-de-l'île,Hospitals,1385,rue jean-talon est,H2E1S6,montréal,qc,45.545663,-73.609438
6617,centre de santé et de services sociaux du sud-ouest-verdun,Hospitals,6161,rue laurendeau,H4E3X6,montréal,qc,45.457226,-73.58892800000001
6641,centre de services ambulatoires de santé mentale papineau,Hospitals,10345,avenue papineau,H2B2A3,montréal,qc,45.568753,-73.653639
6642,centre de services ambulatoires de soins psychiatriques wellington,Hospitals,4932,rue wellington,H4G1X6,montréal,qc,45.456301,-73.567427
6661,centre de services en réadaptation beaubien,Nursing and residential care facilities,7085,rue beaubien est,H1M2Y2,montréal,qc,45.5940286,-73.55974609999998
6666,centre dollard-cormier (le),Nursing and residential care facilities,950,rue de louvain est,H2M2E8,montréal,qc,45.554359000000005,-73.65023670000001
6685,centre hospitalier de l'université de montréal,Hospitals,3840,rue saint-urbain,H2W1T8,montréal,qc,45.514428,-73.578024
6686,centre hospitalier de l'université de montréal (chum),Hospitals,1051,rue sanguinet,H2X3E4,montréal,qc,45.512218,-73.557819
6693,centre hospitalier de saint mary's,Hospitals,3830,avenue lacombe,H3T1M5,montréal,qc,45.494847,-73.623936
6694,centre hospitalier de st. mary,Hospitals,3830,avenue lacombe,H3T1M5,montréal,qc,45.494987,-73.623763
6704,centre hospitalier universitaire sainte-justine,Hospitals,3175,chemin de la côte-sainte-catherine,H3T1C5,montréal,qc,45.503269,-73.623964
6705,centre hospitalier universitaire sainte-justine (centre administratif),,3175,chemin de la côte-sainte-catherine,H3T1C5,montréal,qc,45.503269,-73.623964
6706,centre hospitalier universitaire sainte-justine - centre circuit,Hospitals,5757,avenue decelles,H3S2C3,montréal,qc,45.501245000000004,-73.62616
6719,centre jeunesse de montréal - bureau centre,Nursing and residential care facilities,5800,rue saint-denis,H2S3L5,montréal,qc,45.5301523,-73.6008144
6721,centre l'entre-toît,Nursing and residential care facilities,6117,rue saint-jacques ouest,H4B1T7,montréal,qc,45.4648155,-73.6178916
6722,centre l'entre-toît point de service agnès,Nursing and residential care facilities,838,rue agnès,H4C2P8,montréal,qc,45.4797328,-73.58883440000001
6731,centre multiservice gériatrique,Hospitals,7401,rue hochelaga,H1N3M5,montréal,qc,45.58891920000001,-73.5306798
6783,centre métropolitain de chirurgie plastique inc.,Hospitals,999,rue de salaberry,H3L1L2,montréal,qc,45.545429999999996,-73.693126
6801,centre universitaire de santé mcgill,Hospitals,1650,avenue cedar e6-140,H3G1A4,montréal,qc,45.497253,-73.589099
6802,centre universitaire de santé mcgill (centre administratif),,1650,avenue cedar,H3G1A4,montréal,qc,45.497113,-73.58909
6819,ch de l'université de montréal (chum) - hôpital notre-dame,Hospitals,1560,rue sherbrooke est,H2L4M1,montréal,qc,45.5261102,-73.5639003
6820,ch de l'université de montréal (chum) - hôpital saint-luc,Hospitals,1058,rue saint-denis,H2X3J4,montréal,qc,45.5123152,-73.5577136
6821,ch de l'université de montréal (chum) - hôtel-dieu (siège social),Hospitals,3840,rue st-urbain,H2W1T8,montréal,qc,45.514407299999995,-73.57794390000001
6825,ch de verdun,Hospitals,4000,boul la salle,H4G2A3,verdun,qc,45.463976,-73.563448
6855,champ d'eau,Nursing and residential care facilities,9125,rue pascal-gagnon,H1P1Z4,montréal,qc,45.606951,-73.5995092
6857,chsld cardinal inc.,Nursing and residential care facilities,12900,rue notre-dame est,H1A1R9,montréal,qc,45.6528725,-73.4898415
6858,chsld judith-jasmin,Nursing and residential care facilities,8850,rue bisaillon,H1K4N2,montréal,qc,45.606494500000004,-73.5320494
6861,chu - sainte-justine,Hospitals,3175,côte sainte-catherine,H3T1C5,montréal,qc,45.503005,-73.623688
6947,ciusss de l'est-de-l'île-de-montréal,Ambulatory health care services,5414,boulevard de l'assomption,H1T2M4,montréal,qc,45.574082000000004,-73.559706
6989,ciusss du centre-ouest-de-l'île-de-montréal,Ambulatory health care services,3755,chemin de la côte-sainte-catherine,H3T1E2,montréal,qc,45.497008,-73.630189
6994,ciusss du centre-sud-de-l'île-de-montréal,Ambulatory health care services,1560,rue sherbrooke est,H2L4M1,montréal,qc,45.526378,-73.563682
7002,ciusss du nord-de-l'île-de-montréal,Ambulatory health care services,555,boulevard gouin ouest,H3L1K5,montréal,qc,45.5477968,-73.68682135
