index,facility_name,odhf_facility_type,street_no,street_name,postal_code,city,province,latitude,longitude
6170,Montréal chinese hospital,Nursing and residential care facilities,189,viger ave e,H2X3Y9,montréal,qc,45.5095069,-73.5580434
6172,abri en ville (l'),Nursing and residential care facilities,2352,rue duvernay,H3J2X1,montréal,qc,45.4832085,-73.5749432
6177,andy's house treatment center,Nursing and residential care facilities,3360,rue notre-dame,H8T3E2,montréal,qc,45.4344799,-73.69591740000001
6181,appartement supervisé wilson,Nursing and residential care facilities,2291,avenue wilson,H4A2T4,montréal,qc,45.469801000000004,-73.614852
6186,association d'entraide le chaînon inc.,Nursing and residential care facilities,4373,avenue de l'esplanade,H2W1T2,montréal,qc,45.51767279999999,-73.58826390000002
6193,atelier de travail edison,Nursing and residential care facilities,9181,rue edison,H1J1T4,montréal,qc,45.613126,-73.570116
6194,atelier de travail et centre d'activités de jour benny,Nursing and residential care facilities,2221,avenue benny,H4B2R5,montréal,qc,45.463703,-73.623448
6196,atelier de travail novatek,Nursing and residential care facilities,2445,rue léger,H8N2V7,montréal,qc,45.4442245,-73.6269932
6197,atelier de travail uni,Nursing and residential care facilities,2425,rue dandurand,H2G2A1,montréal,qc,45.5440068,-73.5835571
6198,atelier des merveilles,Nursing and residential care facilities,75,rue de port-royal est,H3L3T1,montréal,qc,45.5476906,-73.6588375
6213,atelier le fil d'ariane,Nursing and residential care facilities,4837,rue boyer,H2J3E6,montréal,qc,45.5293588,-73.5860945
6214,atelier le fil d'ariane inc. (centre administratif),Nursing and residential care facilities,4837,rue boyer,H2J3E6,montréal,qc,45.5293588,-73.5860945
6219,auberge communautaire sud-ouest,Nursing and residential care facilities,4026,rue wellington,H4G1V3,montréal,qc,45.4634292,-73.568935
6227,avenue hébergement communautaire (l'),Nursing and residential care facilities,2587,rue leclaire,H1V3A8,montréal,qc,45.559977,-73.54725570000001
6250,bureau du docteur stephen greenberg,Ambulatory health care services,800,boulevard rené-lévesque ouest,H3B1X9,montréal,qc,45.501088700000004,-73.5697266
6257,bureau du dr pierre st-jean,Ambulatory health care services,7500,boulevard des galeries-danjou,H1M3M4,montréal,qc,45.5975484,-73.5701097
6261,bureau médical rachel est,Ambulatory health care services,835,avenue duluth est,H2L1B2,montréal,qc,45.52294439999999,-73.5743092
6263,cabinet des docteures anne-marie gravel et barbara april black,Ambulatory health care services,5025,rue sherbrooke ouest,H4A1S9,westmount,qc,45.477135,-73.696113
6265,cabinet des docteurs abikhzer et dashkovsky,Ambulatory health care services,5950,chemin de la côte-des-neiges,H3S1Z6,montréal,qc,45.500049,-73.63055899999999
6266,cabinet des docteurs armand elbaz et rita frydman,Ambulatory health care services,6000,chemin de la côte-des-neiges,H3S1Z8,montréal,qc,45.500244,-73.631547
6268,cabinet des docteurs lipes et trister,Ambulatory health care services,5858,chemin de la côte-des-neiges,H3S1Z1,montréal,qc,45.499590000000005,-73.630045
6270,"cabinet des docteurs savard, paquette et dophin",Ambulatory health care services,55,rue de l'église,H4G3E7,montréal,qc,45.462769,-73.56213199999999
6271,cabinet docteur domenico ciricillo,Ambulatory health care services,5953,rue bélanger,H1T1G8,montréal,qc,45.583201,-73.572254
6272,cabinet docteure vi thuy kieu,Ambulatory health care services,4321,avenue van horne,H3S1S2,montréal,qc,45.496973,-73.635657
6273,cabinet dr robert kaud,Ambulatory health care services,2520,place keller,H4K2T2,montréal,qc,45.519183,-73.723411
6274,cabinet dr tommy aumond-beaupré,Ambulatory health care services,6915,rue saint-denis,H2S2S3,montréal,qc,45.537116999999995,-73.611243
6276,cabinet du docteur alfred w. illescas,Ambulatory health care services,227,boulevard saint-joseph est,H2T1H9,montréal,qc,45.524871000000005,-73.589416
6278,cabinet du docteur asmae boutaleb,Ambulatory health care services,5855,boulevard gouin ouest,H4J1E5,montréal,qc,45.532077,-73.721165
6279,cabinet du docteur barry goldsman,Ambulatory health care services,5100,boulevard de maisonneuve ouest,H4A3T2,montréal,qc,45.474977,-73.60308
6280,cabinet du docteur benjamin klein,Ambulatory health care services,1200,avenue mcgill college,H3B4G7,montréal,qc,45.501621,-73.570642
6281,cabinet du docteur dimitrios lambrinos,Ambulatory health care services,915,rue jean-talon ouest,H3N1S7,montréal,qc,45.525335999999996,-73.62521
6282,cabinet du docteur gilles brouillette,Ambulatory health care services,1500,avenue dollard,H8N1T5,montréal,qc,45.427085,-73.62815
6284,cabinet du docteur jean mantha,Ambulatory health care services,2635,boulevard rosemont,H1Y1L1,montréal,qc,45.54861,-73.585018
6285,cabinet du docteur jirair kuyumjian,Ambulatory health care services,5855,boulevard gouin ouest,H4J1E5,montréal,qc,45.532247,-73.72118499999999
6287,cabinet du docteur léo lasalle,Ambulatory health care services,55,rue de l'église,H4G3E7,montréal,qc,45.462983,-73.564495
6292,caj centre d'animation,Nursing and residential care facilities,2101,avenue jeanne-darc,H1W3V6,montréal,qc,45.550355700000004,-73.54609740000001
6293,campus saint-laurent - pavillon webster (le),Nursing and residential care facilities,915,rue clark,H2Z1J8,montréal,qc,45.506809600000004,-73.5602702
6296,catherine booth hospital,Nursing and residential care facilities,4375,montclair ave,H4B2J5,montréal,qc,45.4638021,-73.6357376
6300,centre amaryllis,Nursing and residential care facilities,1462,rue panet,H2L2Z3,montréal,qc,45.5203092,-73.5581012
6305,centre d'accueil le programme de portage (admissions),Nursing and residential care facilities,1640,rue saint-antoine,H3J1A1,montréal,qc,45.491888,-73.57487370000001
6310,centre d'accueil le programme de portage inc.,Nursing and residential care facilities,865,place richmond,H3J1V8,montréal,qc,45.491879600000004,-73.5748715
6312,centre d'activites de jour saint-patrick,Nursing and residential care facilities,2475,rue saint-patrick,H3K1B3,montréal,qc,45.4814176,-73.57232540000001
6313,centre d'activité de jour ontario,Nursing and residential care facilities,4532,rue ontario est,H1V1K7,montréal,qc,45.554674299999995,-73.5402382
6319,centre d'activités de jour de la 17e avenue (accredited),Nursing and residential care facilities,7701,17e avenue,H2A2S4,montréal,qc,45.5661192,-73.603678
6346,centre d'activités de jour sud-ouest,Nursing and residential care facilities,2027,rue lapierre,H8N1B1,montréal,qc,45.4369202,-73.6165443
6349,centre d'hébergement champlain,Nursing and residential care facilities,1325,rue crawford,H4H2N6,verdun,qc,45.438846399999996,-73.5867681
6358,centre d'intégration communautaire,Nursing and residential care facilities,2103,avenue jeanne-darc,H1W3V6,montréal,qc,45.550468,-73.5461797
6361,centre de coordination de services beaubien,Nursing and residential care facilities,7077,rue beaubien est,H1M2Y2,montréal,qc,45.5937616,-73.55988719999999
6362,centre de coordination de services marie-bourassa,Nursing and residential care facilities,5695,avenue des marronniers,H1T2W3,montréal,qc,45.5700652,-73.56482340000001
