index,facility_name,odhf_facility_type,street_no,street_name,postal_code,city,province,latitude,longitude
6185,association clinique urgence mineur,Ambulatory health care services,200,rue durand,J7Z7E2,saint-jérôme,qc,45.766961,-74.001531
6251,bureau du docteur sylvain le dû (centre de santé ferme neuve),Ambulatory health care services,70,12e rue,J0W1C0,ferme-neuve,qc,45.766022,-74.000191
6359,centre d'youville,Nursing and residential care facilities,531,rue laviolette,J7Y2T8,saint-jérome,qc,45.7829075,-74.0061506
6388,centre de prélèvements de saint-jérôme,Ambulatory health care services,480,5e rue,J7Z0H6,saint-jérôme,qc,45.763839000000004,-73.99622600000001
6524,centre de réadaptation pour jeunes en difficulté saint-jérôme,Nursing and residential care facilities,148,rue castonguay,J7Y2J2,saint-jérôme,qc,45.777258,-74.008042
6588,centre de santé et de services sociaux de saint-jérôme,Hospitals,290,rue montigny,J7Z5T3,saint-jérôme,qc,45.766829,-73.999044
6667,centre du flores / centre administratif,Nursing and residential care facilities,500,boulevard des laurentides,J7Z4M2,saint-jérôme,qc,45.762282,-73.99409
6676,centre du florès / point de service rivière du nord,Nursing and residential care facilities,500,boulevard des laurentides,J7Z4M2,saint-jérôme,qc,45.76215,-73.99393
6677,"centre du florès / point de service, casis lafontaine",Nursing and residential care facilities,55,104e avenue,J7Y1H5,saint-jérôme,qc,45.79757,-74.01031
6713,centre intégré de santé et de services sociaux des laurentides,Ambulatory health care services,290,rue de montigny,J7Z5T3,saint-jérôme,qc,45.766290999999995,-74.00052600000001
7061,clinique i.d.,Ambulatory health care services,200,rue durand,J7Z7E2,saint-jérôme,qc,45.766968,-74.000876
7066,clinique medicale des laurentides,Ambulatory health care services,1950,boulevard du curé-labelle,J7Y1S1,saint-jérôme,qc,45.800119,-74.010121
7118,clinique médicale dr joël girardin,Ambulatory health care services,358,rue melançon,J7Z4J5,saint-jérôme,qc,45.776738,-73.996978
7168,clinique médicale privée.net,Ambulatory health care services,17,boulevard de la salette,J5L2H8,saint-jérôme,qc,45.795103999999995,-74.030459
7182,clinique médicale sainte-adèle,Ambulatory health care services,1150,rue du bourg-joli,J8B1W8,sainte-adèle,qc,45.776716,-73.99718100000001
7196,clinique universitaire de médecine de famille de saint-jérôme (cumf de saint-jérôme),Hospitals,1000,rue labelle,J7Z5N6,saint-jérôme,qc,45.793325,-74.009201
7427,clsc du centre-ville-de-saint-jérome,Ambulatory health care services,430,rue labelle,J7Z5L3,saint-jérôme,qc,45.779356,-74.004006
7461,clsc et groupe de médecine de famille universitaire lafontaine,Ambulatory health care services,1000,rue labelle,J7Z5N6,saint-jérôme,qc,45.793126,-74.009201
8076,hôpital régional de saint-jérôme,Hospitals,290,rue de montigny,J7Z5T3,saint-jérôme,qc,45.76619,-74.000968
8092,hôtel-dieu de saint-jérôme,Hospitals,290,rue montigny,J7Z5T3,saint-jérome,qc,45.7658895,-74.00017259999998
8158,maison d'hebergement jeunesse la parenthèse,Nursing and residential care facilities,582,rue du boisé,J7Z0C7,saint-jérôme,qc,45.752175,-73.97728199999999
8265,muséocabinet,Ambulatory health care services,571,du palais,J7Z1Y4,saint-jérôme,qc,45.777640999999996,-73.993299
8294,pavillon rosaire-lapointe,Hospitals,190,rue saint-marc,J7Z2V8,saint-jérôme,qc,45.765126,-73.998343
8379,polyclinique saint-jerome (urgence médicale privée),Ambulatory health care services,200,rue durand,J7Z7E2,saint-jérôme,qc,45.76683,-74.001602
8450,service de désintoxication et de réadaptation,Nursing and residential care facilities,465,5e rue,J7Z0J3,saint-jérôme,qc,45.763818,-73.997008
