index,facility_name,odhf_facility_type,street_no,street_name,postal_code,city,province,latitude,longitude
6182,arche agapè inc. (l'),Nursing and residential care facilities,19,rue hanson,J8Y3M4,gatineau,qc,45.42579285,-75.72697785
6220,auberge du coeur et héberge-ados (secteur hull),Nursing and residential care facilities,39,rue richard,J8Y4Y6,gatineau,qc,45.457934200000004,-75.74366540000001
6245,bureau du docteur jean-serge lalonde,Ambulatory health care services,455,montée paiement,J8P0B1,gatineau,qc,45.493342,-75.67715799999999
6499,centre de réadaptation en dépendances de l'outaouais (administration),Nursing and residential care facilities,25,rue saint-françois,J9A1B1,gatineau,qc,45.42255195,-75.74871894
6500,centre de réadaptation en dépendances de l'outaouais (gatineau),Nursing and residential care facilities,444,boulevard saint-rené est,J8P8A9,gatineau,qc,45.49270115,-75.63912185
6506,centre de réadaptation en dépendances de l'outaouais (secteur buckingham),Nursing and residential care facilities,129,rue joseph,J8L1G1,gatineau,qc,45.588741,-75.415175
6556,centre de santé et de services sociaux de gatineau,Hospitals,777,boulevard de la gappe,J8T8R2,gatineau,qc,45.483271,-75.685797
6584,centre de santé et de services sociaux de papineau,Hospitals,578,rue maclaren est,J8L2W1,gatineau,qc,45.588046000000006,-75.402757
6643,centre de services ambulatoires en pédiatrie de l'outaouais,Ambulatory health care services,500,boulevard de l'hôpital,J8V2P5,gatineau,qc,45.493266999999996,-75.688731
6698,centre hospitalier pierre-janet,Hospitals,20,rue pharand,,gatineau,qc,45.425276000000004,-75.739988
6794,centre régional de réadaptation la ressourse (135 saint-raymond),Nursing and residential care facilities,135,boulevard saint-raymond,J8Y6X7,gatineau,qc,45.44551135,-75.74604177
6795,centre régional de réadaptation la ressourse (92 saint-raymond),Nursing and residential care facilities,92,boulevard saint-raymond,J8Y1S7,gatineau,qc,45.447177,-75.74201500000001
6799,centre régional de réadaptation la ressourse (territoire vallée-de-la-lièvre),Nursing and residential care facilities,156,rue maclaren est,J8L1K4,gatineau,qc,45.587725,-75.41222664
6810,centres résidentiels communautaires de l'outaouais (les),Nursing and residential care facilities,575,boulevard gréber,J8T8G2,gatineau,qc,45.4916208,-75.70255095
6838,ch pierre-janet,Hospitals,20,rue pharand,J9A1K7,gatineau,qc,45.4248523,-75.7406789
6884,cisss de l'outaouais (administration),Ambulatory health care services,80,avenue gatineau,J8T4J3,gatineau,qc,45.480118100000006,-75.72298116
7032,clinique de médecine familiale du versant,Ambulatory health care services,520,boulevard de l'hôpital,J8V2P5,gatineau,qc,45.493986,-75.688794
7042,clinique des femmes de l'outaouais,Ambulatory health care services,228,boulevard saint-joseph,J8Y3X4,gatineau,qc,45.435261,-75.732816
7074,clinique médicale 819 (gmf delta santé),Ambulatory health care services,444,boulevard de l'hôpital,J8T7X6,gatineau,qc,45.491206,-75.68747900000001
7090,clinique médicale d'urgence de l'outaouais,Ambulatory health care services,25,chemin de la savane,J8T8A4,gatineau,qc,45.4751033,-75.7049507
7132,clinique médicale gamelin,Ambulatory health care services,520,boulevard de l'hôpital,J8V2P5,gatineau,qc,45.494613,-75.689097
7169,clinique médicale riel,Ambulatory health care services,455,boulevard riel,J8Z2J8,gatineau,qc,45.464962,-75.772351
7201,clsc (maison de naissance de l'outaouais),Ambulatory health care services,76,avenue gatineau,J8T4J3,gatineau,qc,45.478956,-75.72268199999999
7264,clsc de gatineau (clinique de santé mentale pour adultes),Ambulatory health care services,85,rue saint-rédempteur,J8X4E6,gatineau,qc,45.427007,-75.722015
7265,clsc de gatineau (de la gappe),Ambulatory health care services,777,boulevard de la gappe,J8T8R2,gatineau,qc,45.483264,-75.685793
7266,clsc de gatineau (leguerrier),Ambulatory health care services,425,rue leguerrier,J9H6N8,gatineau,qc,45.399322,-75.836089
7267,clsc de gatineau (saint-rédempteur),Ambulatory health care services,85,rue saint-rédempteur,J8X4E6,gatineau,qc,45.4274757,-75.72159930000001
7518,clsc vallée-de-la-lièvre (rue maclaren est),Ambulatory health care services,578,rue maclaren est,J8L2W1,gatineau,qc,45.5885296,-75.40435240000001
7566,csss de papineau,Hospitals,155,rue maclaren est,J8L0C2,gatineau,qc,45.5884516,-75.4117374
7664,gmf carrefour santé (centre médical du portage),Ambulatory health care services,200,promenade du portage,J8X4B7,gatineau,qc,45.4267415,-75.7141413
7665,gmf carrefour santé (clinique médicale 119 wellington),Ambulatory health care services,119,rue wellington,J8X0B7,gatineau,qc,45.426586,-75.71970300000001
7666,gmf carrefour santé (clinique médicale du carrefour santé aylmer),Ambulatory health care services,362,chemin daylmer,J9H1A6,gatineau,qc,45.396194,-75.823509
7697,gmf d'aylmer (clinique médicale du vieux aylmer),Ambulatory health care services,204,chemin daylmer,J9H1A1,gatineau,qc,45.395383,-75.83369
7698,gmf d'aylmer (clinique médicale santé équilibre),Ambulatory health care services,77,chemin vanier,J9H1X4,gatineau,qc,45.385048,-75.804753
7699,gmf d'aylmer (clsc de gatineau - leguerrier),Ambulatory health care services,425,rue leguerrier,J9H6N8,gatineau,qc,45.399306,-75.835932
7700,gmf de gatineau (centre de médecine familiale de gatineau),Ambulatory health care services,908,boulevard maloney est,J8P1H5,gatineau,qc,45.488265999999996,-75.59871600000001
7701,gmf de hull (clinique médicale de l'île),Ambulatory health care services,182,rue montcalm,J8Y3B5,gatineau,qc,45.429967,-75.727467
7702,gmf de hull (clinique médicale du faubourg),Ambulatory health care services,1160,boulevard saint-joseph,J8Z1T3,gatineau,qc,45.47412,-75.739418
7714,gmf de l'outaouais (clinique de médecine familiale de hull),Ambulatory health care services,15,boulevard montclair,J8Y2E2,gatineau,qc,45.439862,-75.73060799999999
7715,gmf de l'outaouais (clinique médicale cité-des-jeunes),Ambulatory health care services,214,boulevard de la cité-des-jeunes,J8Y6S8,gatineau,qc,45.450168,-75.754692
7716,gmf de l'outaouais (médecine familiale montclair),Ambulatory health care services,15,boulevard montclair,J8Y2E2,gatineau,qc,45.439883,-75.730754
7719,gmf de la basse lièvre (coop santé buckingham),Ambulatory health care services,620,avenue de buckingham,J8L2H5,gatineau,qc,45.583688,-75.413443
7720,gmf de la basse lièvre (polyclinique buckingham s.e.n.c.),Ambulatory health care services,147,rue joseph,J8L1G3,gatineau,qc,45.5894805,-75.41362079
7745,gmf de touraine (clinique médicale touraine),Ambulatory health care services,520,boulevard de l'hôpital,J8V2P5,gatineau,qc,45.493846000000005,-75.688732
7858,gmf omni-plateau (clinique médicale champlain),Ambulatory health care services,260,boulevard saint-raymond,J9A3G7,gatineau,qc,45.427099,-75.762591
7859,gmf omni-plateau (clinique médicale du plateau),Ambulatory health care services,195,rue de l'atmosphère,J9A0A3,gatineau,qc,45.437999,-75.784745
7860,gmf omni-plateau (omniclinique de l'outaouais),Ambulatory health care services,28,boulevard du mont-bleu,J8Z1J1,gatineau,qc,45.462594,-75.745182
7881,gmf saint-alexandre (clinique médicale saint-alexandre),Ambulatory health care services,2310,rue saint-louis,J8T5L7,gatineau,qc,45.48738,-75.745459
7924,gmf-r clinique médigo (clinique medigo),Ambulatory health care services,165,boulevard saint-raymond,J8Y0A7,gatineau,qc,45.445957,-75.750426
