index,facility_name,odhf_facility_type,street_no,street_name,postal_code,city,province,latitude,longitude
7958,gîte-ami (le),Nursing and residential care facilities,85,rue morin,J8X0A1,gatineau,qc,45.433204499999995,-75.72618995
7991,hôpital de gatineau,Hospitals,909,boul la vérendrye ouest,J8P7H2,gatineau,qc,45.493367,-75.691282
7993,hôpital de hull,Hospitals,116,boulevard lionel-émond,J8Y1W7,gatineau,qc,45.444855700000005,-75.74604702
7994,hôpital de jour (pavillon marcel d'amour) (clinique externe),Hospitals,30,rue pharand,J9A1K7,gatineau,qc,45.42507545,-75.74100536
7995,hôpital de jour gériatrique,Hospitals,455,montée paiement,,gatineau,qc,45.493517,-75.676739
8010,hôpital de papineau,Hospitals,155,rue maclaren est,J8L0C2,gatineau,qc,45.58853445,-75.41196955
8065,hôpital pierre-janet (20 pharand),Hospitals,20,rue pharand,J9A1K7,gatineau,qc,45.4255799,-75.74021944
8066,hôpital pierre-janet (programme soutien dans la communauté santé mentale ) (siv-sim),Hospitals,73,boulevard moussette,J8Y5J8,gatineau,qc,45.439485999999995,-75.74375500000001
8067,hôpital pierre-janet (résidence corbeil),Hospitals,63,rue corbeil,J8Y5W8,gatineau,qc,45.4510319,-75.75084885
8068,hôpital pierre-janet (résidence laferrière),Hospitals,20,rue laferrière,J8T3C1,gatineau,qc,45.4735169,-75.6919295
8069,hôpital pierre-janet (résidence lucien brault),Hospitals,46,rue lucien-brault,J8Z1H8,gatineau,qc,45.462853,-75.7492665
8230,maison mathieu froment-savoie,Nursing and residential care facilities,170,rue sherbrooke,J8Y2L6,gatineau,qc,45.43837565,-75.74293264
8237,maison réalité/ressource d'hébergement/centre d'activités/soutien dans la communauté,Nursing and residential care facilities,10,rue jeanne-darc,J8Y2H2,gatineau,qc,45.439677,-75.73348557
8273,pavillon du parc (secteur hull-aylmer) (centre multi-services),Nursing and residential care facilities,200,rue robert-wright,J9H5L1,gatineau,qc,45.406836,-75.848876
8274,pavillon du parc inc (administration),Nursing and residential care facilities,124,rue lois,J8Y3R7,gatineau,qc,45.436331200000005,-75.73164545
8275,pavillon du parc inc (secteur aylmer et les collines) (robert-wright),Nursing and residential care facilities,200,rue robert-wright,J9H5L1,gatineau,qc,45.406836,-75.848876
8276,pavillon du parc inc (secteur gatineau) (centre communautaire),Nursing and residential care facilities,594,boulevard de l'hôpital,J8V2S9,gatineau,qc,45.4961666,-75.68854477
8278,pavillon du parc inc (services externes de la vallée-de-la-lièvre),Nursing and residential care facilities,610,avenue de buckingham,J8L2H5,gatineau,qc,45.5836552,-75.41408239
8281,pavillon du parc inc. centre de jour (secteur aylmer),Nursing and residential care facilities,74,rue principale,J9H3L7,gatineau,qc,45.394514,-75.847234
8285,pavillon larocque,Nursing and residential care facilities,125,rue berri,J8Y4H9,gatineau,qc,45.4357229,-75.7355179
8429,résidence broad,Nursing and residential care facilities,129,rue broad,J9H7M3,gatineau,qc,45.406358000000004,-75.84597281
8442,résidence mcconnell,Nursing and residential care facilities,659,chemin mcconnell,J9J1G3,gatineau,qc,45.414243,-75.78657173
8443,résidence michel l'écuyer,Nursing and residential care facilities,1515,chemin de  ouest,J8M1V9,gatineau,qc,45.521028,-75.50175842
8445,résidence washington,Nursing and residential care facilities,30,rue washington,J9H7E6,gatineau,qc,45.398846,-75.84201245
