index,facility_name,odhf_facility_type,street_no,street_name,postal_code,city,province,latitude,longitude
6460,centre de réadaptation en déficience physique de rouyn-noranda,Nursing and residential care facilities,7,9e rue,J9X2A9,rouyn-noranda,qc,48.24433,-79.020351
6587,centre de santé et de services sociaux de rouyn-noranda,Hospitals,4,9e rue,J9X2B2,rouyn-noranda,qc,48.244073,-79.019816
6711,centre intégré de santé et de services sociaux de l'abitibi-témiscamingue,Nursing and residential care facilities,100,chemin du docteur-lemay,J9X5T2,rouyn-noranda,qc,48.228221000000005,-79.018346
6785,centre normand (services externes - rouyn-noranda),Nursing and residential care facilities,1,9e rue,J9X2A9,rouyn-noranda,qc,48.243375,-79.021006
6840,ch rouyn-noranda,Hospitals,4,9e rue,J9X2B2,rouyn-noranda,qc,48.2435816,-79.01948409999999
6875,cisss de l'abitibi-témiscamingue,Ambulatory health care services,1,9e rue,J9X2A9,rouyn-noranda,qc,48.243324,-79.020973
7064,clinique medic-ami,Ambulatory health care services,179,avenue mercier,J9X4X8,rouyn-noranda,qc,48.237965,-79.024961
7128,clinique médicale eric chaize,Ambulatory health care services,12,rue gamble est,J9X3B7,rouyn-noranda,qc,48.239681,-79.019522
7355,clsc de rouyn-noranda,Ambulatory health care services,1,9e rue,J9X2A9,rouyn-noranda,qc,48.243324,-79.020973
7554,crdi de l'abitibi-témiscamingue clair foyer (secteur de rouyn-noranda),Nursing and residential care facilities,26,rue monseigneur-rhéaume est,J9X3J5,rouyn-noranda,qc,48.235892,-79.01928000000001
7871,gmf rouyn-noranda (accueil gmf),Ambulatory health care services,8,rue du terminus est,J9X3B4,rouyn-noranda,qc,48.241631,-79.02000600000001
7872,gmf rouyn-noranda (centre médical larivière),Ambulatory health care services,423,avenue larivière,J9X4H9,rouyn-noranda,qc,48.23107,-79.014285
7873,gmf rouyn-noranda (clinique alliance),Ambulatory health care services,121,8e rue,J9X2A5,rouyn-noranda,qc,48.247597999999996,-79.018058
7874,gmf rouyn-noranda (clinique médicale accès-santé),Ambulatory health care services,8,rue du terminus est,J9X3B4,rouyn-noranda,qc,48.241631,-79.02000600000001
7875,gmf rouyn-noranda (clinique médicale du cuivre),Ambulatory health care services,12,rue gamble est,J9X3B7,rouyn-noranda,qc,48.239724,-79.01960600000001
7876,gmf rouyn-noranda (clinique médicale fleur de lys),Ambulatory health care services,8,rue du terminus est,J9X3B4,rouyn-noranda,qc,48.241631,-79.02000600000001
7877,gmf rouyn-noranda (clinique médicale évain),Ambulatory health care services,2813,boulevard rideau,J0Z1Y0,rouyn-noranda,qc,48.237802,-79.131445
7878,gmf rouyn-noranda (clsc partage des eaux),Ambulatory health care services,1,9e rue,J9X2A9,rouyn-noranda,qc,48.243328999999996,-79.021069
7879,gmf rouyn-noranda (gmf-u rouyn-noranda),Ambulatory health care services,3,9e rue,J9X2A9,rouyn-noranda,qc,48.244026,-79.02049
8011,hôpital de rouyn-noranda,Hospitals,4,9e rue,J9X2B2,rouyn-noranda,qc,48.243586,-79.019483
8188,maison de l'envol de rouyn-noranda,Nursing and residential care facilities,1405,rue perreault est,J9X5H5,rouyn-noranda,qc,48.238526,-78.987347
8319,point de service de première ligne de cadillac,Ambulatory health care services,2-a,rue dumont est,J0Y1C0,rouyn-noranda,qc,48.221677,-78.38075400000001
8320,point de service de première ligne de cléricy,Ambulatory health care services,883,rue du rivage,J0Z1P0,rouyn-noranda,qc,48.363989000000004,-78.862752
8321,point de service de première ligne de destor,Ambulatory health care services,7182,rang du parc,J9X5A3,rouyn-noranda,qc,48.45964,-78.95576700000001
8329,point de service de première ligne de montbeillard,Ambulatory health care services,9632,boulevard rideau,J0Z2X0,rouyn-noranda,qc,48.045574,-79.259615
