facility_name,index,odhf_facility_type,street_no,street_name,postal_code,city,province
CH - CHSLD - CLSC CLÉOPHAS-CLAVEAU,6811,Hospitals,1000,rue dr desgagné,G7B 3P9,la baie,qc
CSSS DE CHICOUTIMI,7561,Hospitals,305,rue saint-vallier,G7H 5H6,chicoutimi,qc
CLSC DU FJORD-À-LA BAIE,S1002,Ambulatory health care services,800, rue Aimé-Gravel,G7B 2M4,Saguenay,qc
CLSC DE JONQUIÈRE,S1022,Ambulatory health care services,3667, boulevard Harvey,G7X 3A9,Saguenay,qc
HÔPITAL DE CHICOUTIMI,S1137,Hospitals,305, rue Saint-Vallier,G7H 5H6,Saguenay,qc
MAISON DE NAISSANCE DU FJORD-AU-LAC,S1168,Ambulatory health care services,282, rue Saint-Vallier,G7H 4J1,Saguenay,qc
CENTRE DE PROTECTION ET DE RÉADAPTATION POUR LES JEUNES EN DIFFICULTÉ D'ADAPTATION DE CHICOUTIMI,S1352,Nursing and residential care facilities,1109, rue Bégin,G7H 4P1,Saguenay,qc
CENTRE DE PROTECTION ET DE RÉADAPTATION POUR LES JEUNES EN DIFFICULTÉ D'ADAPTATION DE JONQUIÈRE,S1390,Nursing and residential care facilities,3639, boulevard Harvey,G7X 3B2,Saguenay,qc
CENTRE D'HÉBERGEMENT JACQUES-CARTIER,S1475,Nursing and residential care facilities,904, rue Jacques-Cartier Est,G7H 2A9,Saguenay,qc
CENTRE D'HÉBERGEMENT SAINTE-MARIE,S1484,Nursing and residential care facilities,2184, rue Perrier,G7X 9C9,Saguenay,qc
CENTRE DE RÉADAPTATION EN DÉFICIENCE INTELLECTUELLE ET EN TROUBLES DU SPECTRE DE L'AUTISME DU CÉNACLE,S1578,Ambulatory health care services,766, rue du Cénacle,G7H 2J2,Saguenay,qc
APPARTEMENT SUPERVISÉ POUR LES JEUNES EN DIFFICULTÉ D'ADAPTATION DE CHICOUTIMI,S1585,Nursing and residential care facilities,507, rue Jacques-Cartier Est,G7H 2A1,Saguenay,qc
CENTRE D'HÉBERGEMENT SAINT-JOSEPH,S1602,Nursing and residential care facilities,1893, rue Alexis-Simard,G7B 2K9,Saguenay,qc
CENTRE D'HÉBERGEMENT DE BAGOTVILLE,S1603,Nursing and residential care facilities,562, rue Victoria,G7B 3M6,Saguenay,qc
ATELIER DE TRAVAIL EN DÉFICIENCE INTELLECTUELLE ET EN TROUBLES DU SPECTRE DE L'AUTISME MANOUANE,S1632,Ambulatory health care services,150, rue Pinel,G7G 3N8,Saguenay,qc
CENTRE DE RÉADAPTATION EN DÉFICIENCE INTELLECTUELLE ET EN TROUBLES DU SPECTRE DE L'AUTISME DU LONG-SAULT,S1767,Ambulatory health care services,2509, rue du Long-Sault,G7X 4J2,Saguenay,qc
CENTRE D'HÉBERGEMENT ST-FRANÇOIS,S373,Nursing and residential care facilities,912, rue Jacques-Cartier Est,G7H 2A9,Saguenay,qc
CENTRE DE RÉADAPTATION EN DÉFICIENCE INTELLECTUELLE ET EN TROUBLES DU SPECTRE DE L'AUTISME DE LA BAIE,S427,Ambulatory health care services,3, rue Monseigneur-Dufour,G7B 4H5,Saguenay,qc
CENTRE D'HÉBERGEMENT DE LA COLLINE,S429,Nursing and residential care facilities,150, rue Pinel,G7G 3N8,Saguenay,qc
CENTRE D'HÉBERGEMENT DESCHÊNES,S514,Nursing and residential care facilities,1841, rue Deschênes,G7S 4K6,Saguenay,qc
CENTRE D'HÉBERGEMENT MGR-VICTOR-TREMBLAY,S547,Nursing and residential care facilities,1236, rue d'Angoulème,G7H 6P9,Saguenay,qc
HÔPITAL ET CENTRE DE RÉADAPTATION DE JONQUIÈRE,S614,Hospitals,2230, rue de l'Hôpital,G7X 7X2,Saguenay,qc
HÔPITAL DE LA BAIE,S633,Hospitals,1000, rue du Docteur-Desgagné,G7B 2Y6,Saguenay,qc
CENTRE D'HÉBERGEMENT GEORGES-HÉBERT,S770,Nursing and residential care facilities,2841, rue Faraday,G7S 5C8,Saguenay,qc
CENTRE D'HÉBERGEMENT DES PENSÉES,S771,Nursing and residential care facilities,3240, rue des Pensées,G7S 5T9,Saguenay,qc
CLSC DE CHICOUTIMI,S978,Ambulatory health care services,411, rue de l'Hôtel-Dieu,G7H 7Z5,Saguenay,qc
CLSC DE CHICOUTIMI-NORD,S979,Ambulatory health care services,222, rue Saint-Éphrem,G7G 2W5,Saguenay,qc
