index,facility_name,odhf_facility_type,street_no,street_name,postal_code,city,province,latitude,longitude
2437,akausivik inuit family health team (formerly tungasuvvingat inuit),Ambulatory health care services,24,selkirk street,K1L0A4,ottawa,on,45.43172166,-75.66769193
2465,alta vista manor,Nursing and residential care facilities,751,peter morand crescent,K1G6S9,ottawa,on,45.40349445,-75.63938942
2508,amelie residence,Nursing and residential care facilities,3866,albion road,K1T1B3,ottawa,on,45.34295944,-75.63716051
2509,amethyst women's addiction centre,Nursing and residential care facilities,488,wilbrod street,K1N6M8,ottawa,on,45.42991766,-75.67444133
2527,amica at westboro park,Nursing and residential care facilities,491,richmond road,K2A1G4,ottawa,on,45.38886545,-75.76081176
2568,at-home hospice,Ambulatory health care services,1419,carling avenue,K1Z7L6,ottawa,on,45.38617585,-75.74015465
2596,bariatric medical institute inc - css,Ambulatory health care services,575,west hunt club road,K2G5W5,ottawa,on,45.33352244,-75.72851974
2598,barrhaven manor,Nursing and residential care facilities,110,berrigan drive,K2J5A6,ottawa,on,45.27769903,-75.74225964
2621,beacon heights retirement residence,Nursing and residential care facilities,2201,montreal road,K1J0B4,ottawa,on,45.45085876,-75.5870252
2623,bearbrook retirement residence,Nursing and residential care facilities,2645,innes road,K1B3J7,ottawa,on,45.43259036,-75.56384389
2654,billings lodge retirement community,Nursing and residential care facilities,1180,belanger avenue,K1H8A2,ottawa,on,45.38338775,-75.67274113
2655,billingswood manor,Nursing and residential care facilities,1370,bank street,K1H8N6,ottawa,on,45.38492745,-75.67327503
2656,billy buffett's house of welcome inc.,Nursing and residential care facilities,243,granville street,K1L6Z3,ottawa,on,45.43901656,-75.65640123
2667,blackburn senior retirement home,Nursing and residential care facilities,2412,cleroux crescent,K1W1A3,ottawa,on,45.43604286,-75.54856219
2721,bridlewood trails retirement community,Nursing and residential care facilities,480,brigitta street,K2S0K7,ottawa,on,45.27421082,-75.86090248
2742,bruyere academic fht,Ambulatory health care services,43,bruyere street,K1N5C8,ottawa,on,45.43194006,-75.69701384
2743,bruyère - hôpital saint-vincent hospital,Nursing and residential care facilities,60,cambridge st n,K1R7A5,ottawa,on,45.413491,-75.708815
2745,bruyère continuing care - saint-vincent hospital,Hospitals,60,cambridge street n,K1R7A5,ottawa,on,45.41342185,-75.70813274
2746,bruyère continuing care - élisabeth bruyère hospital,Hospitals,43,bruyere street,K1N5C8,ottawa,on,45.43174946,-75.69687954
2747,bruyère continuing care inc. - palliative care program,Ambulatory health care services,43,bruyère street,K1N5C8,ottawa,on,45.43194006,-75.69701384
2758,"c.n.i.b. ontario division, ottawa & cornwall districts",Ambulatory health care services,1355,bank street,K1H8K7,ottawa,on,45.38799185,-75.67505383
2769,camilla gardens retirement home,Nursing and residential care facilities,1119,bathgate drive,K1J9N4,ottawa,on,45.43271076,-75.61778811
2776,canadian hearing society - ottawa,Ambulatory health care services,2197,riverside drive,K1H7X3,ottawa,on,45.38909365,-75.67634693
2799,canadian mental health association (cmha) ottawa branch,Nursing and residential care facilities,1355,bank street,K1H8K7,ottawa,on,45.38799185,-75.67505383
2845,carefor health & community services - ottawa-carleton branch,Ambulatory health care services,760,belfast road,K1G6M8,ottawa,on,45.41411106,-75.64156832
2884,carleton lodge,Nursing and residential care facilities,55,lodge road,K2C3H1,ottawa,on,45.26559733,-75.70705903
2887,carleton residence attendant services program,Ambulatory health care services,1125,colonel by drive,K1S5B6,ottawa,on,45.38748295,-75.69598713
2888,carlington community health centre,Nursing and residential care facilities,900,merivale road,K1Z5Z8,ottawa,on,45.38332675,-75.73342345
2889,carlingview manor,Nursing and residential care facilities,2330,carling avenue,K2B7H1,ottawa,on,45.36711344,-75.77672586
2890,carlingwood retirement community,Nursing and residential care facilities,200,lockhart avenue,K2A4C6,ottawa,on,45.37561924,-75.77213836
2906,causeway work centre,Nursing and residential care facilities,22,omeara street,K1Y4N6,ottawa,on,45.40666475,-75.72365445
2939,centre d'accueil champlain,Nursing and residential care facilities,275,perrier avenue,K1L5C6,ottawa,on,45.44308406,-75.66040993
2948,centre de services guigues,Nursing and residential care facilities,162,murray street,K1N5M8,ottawa,on,45.43059996,-75.69116704
2963,centretown community health centre,Hospitals,420,cooper street,K2P2N6,ottawa,on,45.41547135,-75.69776014
2964,centretown community health centre inc.,Nursing and residential care facilities,420,cooper street,K2P2N6,ottawa,on,45.41547135,-75.69776014
2967,champlain community care access centre (css),Ambulatory health care services,4200,labelle street,K1J1J8,ottawa,on,45.42165526,-75.62991862
2968,champlain local health integration network,Ambulatory health care services,1900,city park drive,K1J1A3,ottawa,on,45.42855856,-75.61471891
2969,champlain local health integration network (lhin op),Ambulatory health care services,1900,city park drive,K1J1A3,ottawa,on,45.42855856,-75.61471891
2972,chapel hill retirement residence,Nursing and residential care facilities,2305,pagé road,K1W1H3,ottawa,on,45.44605817,-75.52636768
2989,chartwell belcourt residence pour retraités,Nursing and residential care facilities,1344,belcourt boulevard,K1C1L9,ottawa,on,45.47099417,-75.52244358
2992,chartwell bridlewood retirement residence,Nursing and residential care facilities,3998,bridle path drive,L1T4H4,ottawa,on,45.34850954,-75.64630022
3003,chartwell duke of devonshire retirement residence,Nursing and residential care facilities,1095,carling avenue,K1Y4P6,ottawa,on,45.39043205,-75.72455914
3006,chartwell empress kanata retirement residence,Nursing and residential care facilities,170,mcgibbon drive,K2L4H5,ottawa,on,45.30730983,-75.9068857
3018,chartwell héritage residence pour retraités,Nursing and residential care facilities,624,wilson street,K1K4S5,ottawa,on,45.44081286,-75.64156412
3022,chartwell kanata retirement residence,Nursing and residential care facilities,20,shirleys brook drive,K2K2W8,ottawa,on,45.35276403,-75.92250971
3029,chartwell lord lansdowne retirement residence,Nursing and residential care facilities,920,bank street,K1S1M8,ottawa,on,45.39947355,-75.68676793
3035,chartwell new edinburgh square retirement residence,Nursing and residential care facilities,420,mackay street,K1M2C4,ottawa,on,45.43982596,-75.67705673
3078,chartwell rideau place retirement residence,Nursing and residential care facilities,550,wilbrod street,K1N9M3,ottawa,on,45.43062676,-75.67279853
3079,chartwell riverpark retirement residence,Nursing and residential care facilities,1,corkstown road,K2H1B6,ottawa,on,45.34839464,-75.82177497
