facility_name,index,odhf_facility_type,street_no,street_name,postal_code,city,province
THE OTTAWA HOSPITAL/L'HÔPITAL D'OTTAWA - GENERAL CAMPUS,5657,Hospitals,501,smyth rd,K1H 8L6,ottawa,on
the Ottawa Hospital - Riverside Campus,5658,Hospitals,1967,riverside dr,K1H 7W9,ottawa,on
THE OTTAWA HOSPITAL/L'HÔPITAL D'OTTAWA - THE REHABILITATION CENTRE,5659,Hospitals,505,smyth rd,K1H 8M2,ottawa,on
the Ottawa Hospital - Civic Campus,5660,Hospitals,1053,carling ave,K1Y 4E9,ottawa,on
the Ravines,5665,Nursing and residential care facilities,626,prado private,K2E 0B3,ottawa,on
the Ravines Seniors' Suites,5666,Nursing and residential care facilities,636,prado private,K2E 0B6,ottawa,on
the Salvation Army Ottawa Grace Manor,5683,Nursing and residential care facilities,1156,wellington street,K1Y 2Z3,ottawa,on
the University of Ottawa Heart Institute,5696,Hospitals,40,ruskin st,K1Y 4W7,ottawa,on
the Waterford Retirement Community - Ottawa,5718,Nursing and residential care facilities,2431,bank street,K1V 8R9,ottawa,on
the Westwood,5722,Nursing and residential care facilities,2370,carling avenue,K2B 8G9,ottawa,on
Thorncliffe Place Retirement Home,5736,Nursing and residential care facilities,1,thorncliffe place,K2H 9N9,ottawa,on
Township of Osgoode Care Centre,5780,Nursing and residential care facilities,7650,snake island road,K0A 2P0,ottawa,on
Unitarian House of Ottawa,5836,Nursing and residential care facilities,20,cleary avenue,K2A 3Z9,ottawa,on
University of Ottawa Health Services Fht,5858,Ambulatory health care services,100,marie curie pvt,K1N 6N5,ottawa,on
v!Va Barrhaven Retirement Community,5867,Nursing and residential care facilities,275,tartan drive,K2J 6A9,ottawa,on
Valley Stream Manor,5875,Nursing and residential care facilities,2,valley stream drive,K2H 0A5,ottawa,on
Vesta Recovery Program for Women Inc.,5885,Ambulatory health care services,101,james street,K1R 5M2,ottawa,on
Vha Health & Home Support,5886,Ambulatory health care services,250,city centre avenue,K1R 6K7,ottawa,on
Victorian Order of Nurses for Canada Ottawa,5906,Ambulatory health care services,2315,laurent boulevard,K1G 4J8,ottawa,on
Villa Elmsmere Villa,5915,Nursing and residential care facilities,889,elmsmere road,K1J 9L5,ottawa,on
Villa Marconi,5920,Nursing and residential care facilities,1026,baseline road,K2C 0A6,ottawa,on
Villagia in the Glebe,5929,Nursing and residential care facilities,480,metcalfe street,K1S 3N6,ottawa,on
Vista Centre,5933,Ambulatory health care services,211,bronson avenue,K1R 6H5,ottawa,on
Wabano Centre for Aboriginal Health,5946,Nursing and residential care facilities,299,montreal road,K1L 6B8,ottawa,on
West Carleton Fht,6009,Ambulatory health care services,119,langstaff drive,K0A 1L0,ottawa,on
Westend Familycare Clinic Fht,6031,Ambulatory health care services,80,michael cowpland drive,K2M 1P6,ottawa,on
Western Ottawa Community Resource Centre,6032,Ambulatory health care services,2,macneil court,K2L 4H7,ottawa,on
Windsor Park Manor,6071,Nursing and residential care facilities,990,hunt club road,K1V 8S8,ottawa,on
ÉLISABETH-BRUYÈRE RESIDENCE,6133,Nursing and residential care facilities,75,bruyère street,K1N 5C8,ottawa,on
