index,facility_name,odhf_facility_type,street_no,street_name,postal_code,city,province,latitude,longitude
3093,chartwell stillwater creek retirement residence,Nursing and residential care facilities,2018,robertson road,K2H1C6,ottawa,on,45.32345073,-75.82748427
3094,chartwell stonehaven retirement residence,Nursing and residential care facilities,70,stonehaven drive,K2M3B4,ottawa,on,45.29185263,-75.85586078
3143,children's hospital of eastern ontario,Hospitals,401,smyth road,K1H8L1,ottawa,on,45.40076679999999,-75.652152
3144,children's hospital of eastern ontario (cheo),Nursing and residential care facilities,2675,queensview drive,K2B8K2,ottawa,on,45.35305824,-75.78762576
3160,cite parkway retirement residence,Nursing and residential care facilities,380,leboutillier avenue,K1K3W3,ottawa,on,45.44484246,-75.63376962
3168,city of ottawa - adult day programs,Ambulatory health care services,100,constellation crescent w,K2A4A4,ottawa,on,45.34567414,-75.76391455
3188,city view retirement community,Nursing and residential care facilities,151,meadowlands drive w,K2G2S3,ottawa,on,45.34284694,-75.75549625
3215,colonel by,Nursing and residential care facilities,43,aylmer avenue,K1S5R4,ottawa,on,45.39488455,-75.68678253
3252,connexion family health team,Ambulatory health care services,5307,canotek road,K1J9M2,ottawa,on,45.45294156,-75.5878435
3341,cumberland lodge,Nursing and residential care facilities,2564,market street,K4C1P3,ottawa,on,45.51561708,-75.40637035
3345,dave smith youth treatment centre / centre de traitement pour jeunes dave smith,Nursing and residential care facilities,112,willowlea road,K0A1L0,ottawa,on,45.27423822,-75.96233511
3369,dementia society of ottawa and renfrew county,Ambulatory health care services,1750,russell road,K1G5Z6,ottawa,on,45.40374035,-75.63671562
3426,eastern ottawa community fht / équipe de santé familiale communautaire de l'est,Ambulatory health care services,3095,saint joseph boulevard,K1E3W6,ottawa,on,45.48022467,-75.50899988
3427,eastern ottawa resource centre,Ambulatory health care services,1980,ogilvie road,K1J8M6,ottawa,on,45.4726308,-75.4956947
3454,embassy west senior living,Nursing and residential care facilities,1400,carling avenue,K1Z7L8,ottawa,on,45.38364335,-75.73827195
3458,empathy house of recovery,Nursing and residential care facilities,83,glencairn avenue,K1S1M5,ottawa,on,45.40108045,-75.67543973
3465,equipe de sante familiale academique montfort,Ambulatory health care services,745,montreal road,K1K0T1,ottawa,on,45.44476036,-75.63723032
3500,extendicare laurier manor,Nursing and residential care facilities,1715,montreal road,K1J6N4,ottawa,on,45.44640676,-75.61084101
3503,extendicare medex,Nursing and residential care facilities,1865,baseline road,K2C3K6,ottawa,on,45.35435184,-75.75821985
3505,extendicare new orchard lodge,Nursing and residential care facilities,99,new orchard avenue,K2B5E6,ottawa,on,45.37526254,-75.77907516
3514,extendicare starwood,Nursing and residential care facilities,114,starwood road,K2G3N5,ottawa,on,45.35366004,-75.75058715
3519,extendicare west end villa,Nursing and residential care facilities,2179,elmira drive,K2C3S1,ottawa,on,45.35438354,-75.77592346
3524,fairfield manor retirement residence,Nursing and residential care facilities,17,lombardo drive,K2L4E8,ottawa,on,45.30090253,-75.88533859
3545,family first fht,Ambulatory health care services,4270,innes road,L4A5E6,ottawa,on,45.45712527,-75.49522137
3551,family services à la famille ottawa,Nursing and residential care facilities,312,parkdale avenue,K1Y4X5,ottawa,on,45.40313215,-75.73068205
3567,forest hill,Nursing and residential care facilities,6501,campeau drive,K2K3E9,ottawa,on,45.31439133,-75.9096673
3569,forest valley terrace by symphony,Nursing and residential care facilities,1510,saint joseph boulevard,K1C7L1,ottawa,on,45.45881737,-75.5586327
3602,garden terrace,Nursing and residential care facilities,100,aird place,K2L4H8,ottawa,on,45.30976033,-75.90097929999999
3607,garry j. armstrong home,Nursing and residential care facilities,200,island lodge road,K1N5M2,ottawa,on,45.43785466,-75.68321333
3628,geriatric psychiatry community services of ottawa,Nursing and residential care facilities,75,bruyère street,K1N5C7,ottawa,on,45.43220386,-75.69601434
3634,glebe centre,Nursing and residential care facilities,950,bank street,K1S5G6,ottawa,on,45.39876525,-75.68635693
3635,glebe centre inc. (the),Ambulatory health care services,950,bank street,K1S5G6,ottawa,on,45.39876525,-75.68635693
3655,good companions seniors' center,Ambulatory health care services,670,albert street,K1R6L2,ottawa,on,45.41364475,-75.71017064
3665,governor's walk retirement residence,Nursing and residential care facilities,150,stanley avenue,K1M2J7,ottawa,on,45.44025126,-75.68767054
3684,granite ridge care community,Nursing and residential care facilities,5501,abbott street e,K2S2C5,ottawa,on,45.26988372,-75.90499269
3691,greenbelt family health team,Ambulatory health care services,3500,fallowfield road,K2J4A7,ottawa,on,45.29303723,-75.74235664
3814,hazeldean gardens retirement residence,Nursing and residential care facilities,6130,hazeldean road,K2S2M2,ottawa,on,45.27115462,-75.9329051
3863,hillel lodge,Nursing and residential care facilities,10,nadolny sachs private,K2A4G7,ottawa,on,45.37622944,-75.75281145
3886,hopital montfort,Ambulatory health care services,713,montreal road,K1K0T2,ottawa,on,45.44597846,-75.63936652
3889,hospice at may court (the),Ambulatory health care services,114,cameron avenue,K1S0X1,ottawa,on,45.39004145,-75.68318573
3890,hospice care ottawa,Ambulatory health care services,114,cameron avenue,K1S0X1,ottawa,on,45.39004145,-75.68318573
3939,hunt club manor,Nursing and residential care facilities,1351,hunt club road,K1V1A6,ottawa,on,45.35522785,-75.64663482
3968,hôpital montfort hospital,Hospitals,713,ch montréal rd,K1K0T2,ottawa,on,45.4459814,-75.63923840000001
3971,hôpital Élisabeth bruyère hospital,Nursing and residential care facilities,43,bruyère st,K1N5C8,ottawa,on,45.431931,-75.6970115
4012,jardin royal garden inc.,Nursing and residential care facilities,2802,saint joseph boulevard,K1C1G5,ottawa,on,45.47293607,-75.51997248
4029,jewish family services of ottawa-carleton,Nursing and residential care facilities,312,parkdale avenue,K1Y4X5,ottawa,on,45.40313215,-75.73068205
4069,king's daughters dinner wagon (the),Ambulatory health care services,670,allbert street,K1R6L2,ottawa,on,45.41364475,-75.71017064
4101,l'union culturelle des franco-ontariennes,Ambulatory health care services,450,rideau street,K1N5Z4,ottawa,on,45.43068626,-75.68049423
4149,landmark court,Nursing and residential care facilities,140,darlington private,K1V0X7,ottawa,on,45.35328584,-75.66901942
