index,facility_name,odhf_facility_type,street_no,street_name,postal_code,city,province,latitude,longitude
2431,adelaide place retirement community,Nursing and residential care facilities,84,adelaide street s,K9V0G6,kawartha lakes,on,44.34636004,-78.74439154
2853,caressant care - lindsay,Nursing and residential care facilities,240,mary street w,K9V5K5,kawartha lakes,on,44.34327843,-78.75034644
2860,caressant care lindsay nursing home,Nursing and residential care facilities,240,mary street w,K9V5K5,kawartha lakes,on,44.34327843,-78.75034644
2880,caressant care on mclaughlin road,Nursing and residential care facilities,114,mclaughlin road,K9V6L1,kawartha lakes,on,44.344764700000006,-78.7610205
2898,case manor care community,Nursing and residential care facilities,28,boyd street,K0M1A0,kawartha lakes,on,44.54008478,-78.54103519
3165,city of kawartha lakes family health team,Ambulatory health care services,55,angeline street n,K9V5B7,kawartha lakes,on,44.35532244,-78.75488564
3220,community care city of kawartha lakes,Hospitals,34,cambridge street s,K9V3B8,kawartha lakes,on,44.35293494,-78.73833674
3286,country estates retirement home,Nursing and residential care facilities,512,thunder bridge road,K9V4R1,kawartha lakes,on,44.37744874,-78.76719105
3496,extendicare kawartha lakes,Nursing and residential care facilities,125,colborne street e,K9V6J2,kawartha lakes,on,44.36383334,-78.72369584
3553,fenelon court,Nursing and residential care facilities,44,wychwood crescent,K0M1N0,kawartha lakes,on,44.52846487,-78.73121905
3597,frost manor,Nursing and residential care facilities,225,mary street w,K9V5K3,kawartha lakes,on,44.342364,-78.747889
4042,kawartha lakes retirement residence,Nursing and residential care facilities,60,west street,K0M1A0,kawartha lakes,on,44.53823228,-78.55655859999999
4043,kawartha north family health team,Ambulatory health care services,50,colborne street,K0M1N0,kawartha lakes,on,44.53732307,-78.73569846
4115,lakeland village,Nursing and residential care facilities,60,saint george street,K9V1M7,kawartha lakes,on,44.36378564,-78.72377954
4787,pinecrest nursing home (bobcaygeon),Nursing and residential care facilities,3418,kawartha lakes county road 36,K0M1A0,little britain,on,44.52836508,-78.53389679
5064,ross memorial hospital (css),Ambulatory health care services,10,angeline street n,K9V4M8,kawartha lakes,on,44.3536194,-78.7522193
5065,"ross memorial hospital, the",Nursing and residential care facilities,10,angeline street n,K9V4M8,kawartha lakes,on,44.35177464,-78.75137034
5890,victoria manor home for the aged,Nursing and residential care facilities,220,angeline street s,K9V4R2,kawartha lakes,on,44.33869223,-78.74399304
6061,william place,Nursing and residential care facilities,140,william street n,K9V5R4,kawartha lakes,on,44.36064104,-78.73882294
