index,facility_name,odhf_facility_type,street_no,street_name,postal_code,city,province,latitude,longitude
2476,alzheimer society of durham region,Ambulatory health care services,419,king street w,L1J2K5,oshawa,on,43.88944965,-78.87895794
2695,brain injury association of durham region,Ambulatory health care services,850,king street w,L1J8N5,oshawa,on,43.89162635,-78.89514265
2784,canadian mental health association (cmha) durham,Nursing and residential care facilities,60,bond street w,L1G1A5,oshawa,on,43.89821385,-78.86653234
2810,canadian mental health association - durham (css),Ambulatory health care services,60,bond street w,L1G1A5,oshawa,on,43.89821385,-78.86653234
2914,cedarcroft place,Nursing and residential care facilities,649,king street e,L1H8P9,oshawa,on,43.90261095,-78.83985223
2993,chartwell centennial retirement residence,Nursing and residential care facilities,259,hillcroft street,L1G8E4,oshawa,on,43.91235415,-78.85972124
3116,chartwell wynfield long term care residence,Nursing and residential care facilities,451,woodmount drive,L1G8E3,hampton,on,43.94673256,-78.87267965
3117,chartwell wynfield retirement residence,Nursing and residential care facilities,431,woodmount drive,L1K0P7,oshawa,on,43.94642766,-78.87369675
3197,cmha durham,Ambulatory health care services,60,bond street w,L1G1A5,oshawa,on,43.89821385,-78.86653234
3411,durham community health centre,Hospitals,115,grassmere avenue,L1H3X7,oshawa,on,43.86928605,-78.84479043
3506,extendicare oshawa,Nursing and residential care facilities,82,park road n,L1J4L1,oshawa,on,43.89733765,-78.87514724
3540,faith place,Ambulatory health care services,44,william street w,L1G1J9,oshawa,on,43.89998245,-78.86653234
3800,harmony hill retirement community,Nursing and residential care facilities,1335,benson street,L1K0W6,oshawa,on,43.94184456,-78.83499383
3864,hillsdale estates,Nursing and residential care facilities,590,oshawa boulevard n,L1G5T9,oshawa,on,43.91384855,-78.86330374
3865,hillsdale terraces,Nursing and residential care facilities,600,oshawa boulevard n,L1G5T9,oshawa,on,43.91500165,-78.86454214
4119,lakeridge health - oshawa,Hospitals,1,hospital crt,L1G2B9,oshawa,on,43.905564,-78.869384
4124,lakeridge health css,Ambulatory health care services,850,champlain avenue,L1G8R2,oshawa,on,43.87402855,-78.88859885
4674,oshawa community health centre,Hospitals,115,grassmere avenue,L1H3X7,oshawa,on,43.86928605,-78.84479043
4675,oshawa senior citizens centre- john & northview branch,Ambulatory health care services,43,john street w,L1H1W8,oshawa,on,43.89348755,-78.86343644
4880,r. s. mclaughlin durham regional cancer centre,Hospitals,1,hospital ct,L1G2B9,oshawa,on,43.906608399999996,-78.8703454
5531,sunrise seniors place,Ambulatory health care services,75,john street w,L1H1W9,oshawa,on,43.89323215,-78.86458634
5595,the carriage house retirement residence,Nursing and residential care facilities,60,bond street e,L1G8C9,oshawa,on,43.89926785,-78.86188844
5737,thorntonview,Nursing and residential care facilities,186,thornton road s,L1J5Y2,oshawa,on,43.8859505,-78.8922213
5781,traditions of durham retirement residence,Nursing and residential care facilities,1255,bloor street e,L1H0B3,oshawa,on,43.89015215,-78.81017172
