index,facility_name,odhf_facility_type,street_no,street_name,postal_code,city,province,latitude,longitude
2736,brookside court/hilltop place,Nursing and residential care facilities,1000,elgin mills road,L4S1M4,richmond hill,on,43.89785833,-79.41245401
2838,carefirst family health team,Ambulatory health care services,420,highway 7 e,L4B3K2,richmond hill,on,43.84347762,-79.39086230000001
3362,delmanor elgin mills,Nursing and residential care facilities,80,elgin mills road e,L4C0L3,richmond hill,on,43.89114592,-79.43936142
3447,elginwood,Nursing and residential care facilities,182,yorkland street,L4S2M9,richmond hill,on,43.90172983,-79.44169122
4147,lance krasman memorial centre for community mental health,Nursing and residential care facilities,10121,yonge street,L4C1T7,richmond hill,on,43.87424932,-79.43774412
4153,langstaff square care community,Nursing and residential care facilities,170,red maple road,L4B4T8,richmond hill,on,43.84482422,-79.42478351
4235,mackenzie health,Ambulatory health care services,10,trench street,L4C4Z3,richmond hill,on,43.87045412,-79.45081182
4236,mackenzie health - richmond hill,Hospitals,10,trench street,L4C4Z3,richmond hill,on,43.87030772,-79.44955502
4237,mackenzie health long term care facility,Nursing and residential care facilities,10,trench street,L4C4Z3,richmond hill,on,43.87045412,-79.45081182
4242,mackenzie richmond hill hospital,Hospitals,10,trench st,L4C4Z3,richmond hill,on,43.8705482,-79.4503859
4309,march of dimes canada - york,Ambulatory health care services,13311,yonge street,L4E3L6,richmond hill,on,43.95209263,-79.45593283
4310,march of dimes canada - york simcoe,Ambulatory health care services,13311,yonge street,L4E3L6,richmond hill,on,43.95209263,-79.45593283
4317,mariann home,Ambulatory health care services,9915,yonge street,L4C1V1,richmond hill,on,43.86921402,-79.43615722
4418,mon sheong richmond hill long term care centre,Nursing and residential care facilities,11199,yonge street,L4S1L2,richmond hill,on,43.90134473,-79.44320193
4616,oak ridges retirement community,Nursing and residential care facilities,12925,yonge street,L4E0T7,richmond hill,on,43.94277283,-79.45320773
4656,ontario association of residents' councils - oarc,Ambulatory health care services,80,fulton way,L4B1J5,richmond hill,on,43.85204332,-79.3801191
5012,richmond hill retirement residence,Nursing and residential care facilities,70,bernard avenue,L4C0W7,richmond hill,on,43.89552572,-79.44037102
5082,royalton retirement home,Nursing and residential care facilities,531,16 avenue,L4C7A7,richmond hill,on,43.85601072,-79.41728601
5528,sunrise senior living of richmond hill,Nursing and residential care facilities,9800,yonge street,L4C0P5,richmond hill,on,43.86580402,-79.43672372
5632,the lance krasman memorial centre for community mental health - css,Ambulatory health care services,10121,yonge street,L4C1T7,richmond hill,on,43.87424932,-79.43774412
6120,york central hospital,Hospitals,10,trench street,L4C4Z3,richmond hill,on,43.87062,-79.45081
6121,york central hospital - adult day program,Ambulatory health care services,10,trench street,L4C4Z3,richmond hill,on,43.87045412,-79.45081182
