index,facility_name,odhf_facility_type,street_no,street_name,postal_code,city,province,latitude,longitude
2525,amica at thornhill,Nursing and residential care facilities,546,steeles avenue w,L4J1A2,vaughan,on,43.79438891,-79.43905361
2882,caritas school of life,Nursing and residential care facilities,241,hanlan road,L4L3R7,vaughan,on,43.7693971,-79.55938155
2897,casa dolce casa,Nursing and residential care facilities,7890,pine valley drive,L4L2J3,vaughan,on,43.7876026,-79.57491686
3001,chartwell constantia retirement residence,Nursing and residential care facilities,784,centre street,L4J9G7,vaughan,on,43.81000591,-79.45672392
3047,chartwell pine grove long term care residence,Nursing and residential care facilities,8403,islington avenue,L4L1X3,vaughan,on,43.797729,-79.58431476
3048,chartwell pine grove retirement residence,Nursing and residential care facilities,8403,islington avenue,L4L1X3,vaughan,on,43.797729,-79.58431476
3100,chartwell valley vista retirement residence,Nursing and residential care facilities,600,valley vista drive,L6A4H2,vaughan,on,43.85950242,-79.48212453
3277,cosmetic surgery hospital,Hospitals,4650,hwy 7,L4L1S7,woodbridge,on,43.7833018,-79.57800300000001
3582,four elms retirement residence,Nursing and residential care facilities,1500,steeles avenue w,L4J4H6,vaughan,on,43.7877523,-79.46946902
3596,friuli terrace (friuli benevolent corp / friuli),Ambulatory health care services,60,friuli court,L4L8G8,vaughan,on,43.76625,-79.57303415
3854,hesperus fellowship community of ontario,Ambulatory health care services,1,hesperus road,L4J0G9,vaughan,on,43.84396791,-79.46448243
4099,kristus darzs latvian home,Nursing and residential care facilities,11290,pine valley drive,L4L1A6,vaughan,on,43.87156441,-79.59579547
5017,richview manor retirement living,Nursing and residential care facilities,10500,dufferin street,L6A4R1,vaughan,on,43.87877462,-79.49212484
5230,sherwood court long term care centre,Nursing and residential care facilities,300,ravineview drive,L6A3P8,vaughan,on,43.88950162,-79.51877245
5523,sunrise of thornhill,Nursing and residential care facilities,484,steeles avenue w,L4J0C7,vaughan,on,43.79523551,-79.43742711
5868,v!va thornhill woods retirement community,Nursing and residential care facilities,9700,bathurst street,L6A4V2,vaughan,on,43.85502132,-79.46108083
5878,vaughan community health centre,Hospitals,9401,jane street,L6A4H7,vaughan,on,43.83562281,-79.53180675
5913,villa da vinci retirement residence,Nursing and residential care facilities,7371,martin grove road,L4L9E4,vaughan,on,43.76663009,-79.60660827
5919,villa leonardo gambin,Nursing and residential care facilities,40,friuli court,L4L9T3,vaughan,on,43.7661994,-79.57417395
5935,vitanova foundation,Nursing and residential care facilities,6299,rutherford road,L4L1A7,vaughan,on,43.8076987,-79.63927978
6090,woodbridge medical centre fht,Ambulatory health care services,9600,islington avenue,L4H2T1,vaughan,on,43.8252479,-79.60942347
6091,woodbridge vista care community,Nursing and residential care facilities,5400,steeles avenue w,L4L9S1,vaughan,on,43.75961009,-79.59777826
6122,york region maple health centre,Nursing and residential care facilities,10424,keele street,L6A2L1,vaughan,on,43.86500652,-79.51564435
