index,facility_name,odhf_facility_type,street_no,street_name,postal_code,city,province,latitude,longitude
2428,addiction services for york region,Nursing and residential care facilities,4261,highway 7,L3R9W6,markham,on,43.85908432,-79.31460658
2523,amica at swan lake,Nursing and residential care facilities,6360,16 avenue,L3P7Y6,markham,on,43.89526623,-79.25243066
2526,amica at unionville,Nursing and residential care facilities,34,main street unionville,L3R4Z8,markham,on,43.85638152,-79.31000908
2646,bethany lodge,Nursing and residential care facilities,23,second street,L3R2C2,markham,on,43.86204073,-79.30139068
2931,central local health integration network,Ambulatory health care services,11,allstate parkway,L3R9T8,markham,on,43.85033152,-79.364423
2932,central local health integration network (lhin op),Ambulatory health care services,11,allstate parkway,L3R9T8,markham,on,43.85033152,-79.364423
2965,cerebral palsy parent council of toronto (participation house),Ambulatory health care services,9,butternut lane,L3P3M1,markham,on,43.88344503,-79.23506466
3085,chartwell rouge valley retirement residence,Nursing and residential care facilities,5958,16 avenue,L3P3J3,markham,on,43.89121033,-79.26722977
3115,chartwell woodhaven long term care residence,Nursing and residential care facilities,380,church street,L6B1E1,markham,on,43.88586653,-79.23093356
3643,glynnwood,Nursing and residential care facilities,7700,bayview avenue,L3T5W1,markham,on,43.81983661,-79.40361491
3821,health for all fht,Ambulatory health care services,379,church street,L6B0T1,markham,on,43.88472803,-79.23194586
4319,markham fht,Ambulatory health care services,379,church street,L6B1A1,markham,on,43.88472803,-79.23194586
4320,markham stouffville hospital,Hospitals,381,church st,L3P7P3,markham,on,43.883994,-79.231971
4325,markhaven,Nursing and residential care facilities,54,parkway avenue,L3P2G4,markham,on,43.88371943,-79.25422906
4417,mon sheong private care,Nursing and residential care facilities,2,sun yat-sen avenue,L3R5Z3,markham,on,43.82684752,-79.29923177
4470,new unionville home society,Ambulatory health care services,4300,highway 7,L3R1L8,markham,on,43.86143002,-79.31443048
5109,saint elizabeth foundation,Ambulatory health care services,90,allstate parkway,L3R6H3,markham,on,43.85374742,-79.3693504
5236,shouldice hospital ltd.,Hospitals,7750,bayview ave,L3T4A3,thornhill,on,43.8206976,-79.40423840000001
5529,sunrise senior living of unionville,Nursing and residential care facilities,38,swansea road,L3R5K2,markham,on,43.86308503,-79.29911048
5834,union villa,Nursing and residential care facilities,4300,highway 7,L3R1L8,markham,on,43.86143002,-79.31443048
6109,yee hong centre - markham,Ambulatory health care services,2780,bur oak avenue,L6B1C9,markham,on,43.89427733,-79.23115846
6125,york support services network,Nursing and residential care facilities,50,mcintosh drive,L3R9T3,markham,on,43.85480762,-79.35861539
