index,facility_name,odhf_facility_type,street_no,street_name,postal_code,city,province,latitude,longitude
2402,147 elder street inc.,Nursing and residential care facilities,147,elder street,M3H5G9,toronto,on,43.762894200000005,-79.45410882
2403,2 spirited people of the 1st nations,Ambulatory health care services,145,front street e,M5A1E3,toronto,on,43.64982129,-79.36935038
2406,a better way retirement home corp.,Nursing and residential care facilities,22,purpledusk trail,M1E4C7,toronto,on,43.78366142,-79.20760054
2407,a-way express courier service,Nursing and residential care facilities,2168,danforth avenue,M4C1K3,toronto,on,43.68664259,-79.31066676
2413,abi possibilities,Ambulatory health care services,208,evans avenue,M8Z1J7,toronto,on,43.61822987,-79.51489762
2418,access alliance multicultural health and community services,Hospitals,340,college street,M5T3A9,toronto,on,43.65757158,-79.40343899
2420,access independent living services,Ambulatory health care services,50,ashwarren road,M3J1Z5,toronto,on,43.7584873,-79.48115742
2422,"accommodation, information and support inc.",Nursing and residential care facilities,720,spadina avenue,M5S2T9,toronto,on,43.66539409,-79.40348049
2423,across boundaries: an ethnocultural mental health centre,Nursing and residential care facilities,1,york gate boulevard,M3N3A1,toronto,on,43.758994799999996,-79.51880674
2432,adeline's lodge,Nursing and residential care facilities,379,lake promenade,M8W1C1,toronto,on,43.58781597,-79.53873663
2434,advent forestview retirement residence,Nursing and residential care facilities,537,finch avenue w,M2R0A8,toronto,on,43.7703728,-79.44469031
2446,alexis lodge retirement residence,Nursing and residential care facilities,707,ellesmere road,M1P2W1,toronto,on,43.76371901,-79.28864066
2464,alpha house,Nursing and residential care facilities,647,broadview avenue,M4K2N9,toronto,on,43.67333379,-79.35586548
2466,altamont care community,Nursing and residential care facilities,92,island road,M1C2P5,toronto,on,43.79854962,-79.14005432
2491,alzheimer society of ontario,Ambulatory health care services,1200,bay street,M5R2A5,toronto,on,43.66999639,-79.38985879
2501,alzheimer society of toronto,Ambulatory health care services,20,eglinton avenue w,M4R1K8,toronto,on,43.70669329,-79.39948989
2513,amica at bayview,Nursing and residential care facilities,15,barberry place,M2K1G4,toronto,on,43.766395,-79.38399909
2514,amica at bayview gardens,Nursing and residential care facilities,19,rean drive,M2K0A4,toronto,on,43.76720841,-79.38241549
2524,amica at the balmoral club,Nursing and residential care facilities,155,balmoral avenue,M4V1J5,toronto,on,43.68422839,-79.40018149
2534,anishnawbe health toronto,Nursing and residential care facilities,22,vaughan road,M6G2N1,toronto,on,43.68166709,-79.41843809999999
2535,anishnawbe health toronto community health centre,Hospitals,225,queen street e,M5A1S4,toronto,on,43.65422059,-79.36981238
2537,anne johnston health station - tobias house attendant care,Hospitals,2398,yonge street,M4P2H4,toronto,on,43.70972309,-79.39930509
2538,anne johnston health station - tobias house attendant care (css),Ambulatory health care services,695,coxwell avenue,M4C5R6,toronto,on,43.68309609,-79.32334507
2549,aphasia institute,Ambulatory health care services,73,scarsdale road,M3B2R2,toronto,on,43.7494936,-79.35469398
2564,arul oli senior centre,Nursing and residential care facilities,8,snowy owl way,M1X0B4,toronto,on,43.83209692,-79.23443505
2567,association of ontario health centres,Ambulatory health care services,970,lawrence avenue,M6A3B6,toronto,on,43.71371849,-79.45837461
2576,atrium at kew beach,Nursing and residential care facilities,500,kingston road,M4L1V3,toronto,on,43.67800329,-79.30274076
2588,balance for blind adults,Ambulatory health care services,2340,dundas street w,M6P4A9,toronto,on,43.65694408,-79.45227951
2589,balance for blind adults (tc lhin),Ambulatory health care services,4920,dundas street w,M9A1B7,toronto,on,43.64861988,-79.52910703
2590,balance for blind adults (toronto central lhin),Ambulatory health care services,2340,dundas street w,M6P4A9,toronto,on,43.65694408,-79.45227951
2595,"barbra schlifer commemorative clinic, the",Nursing and residential care facilities,489,college street,M6G1A5,toronto,on,43.65588248,-79.40919499
2610,baycrest centre for geriatric care,Nursing and residential care facilities,3560,bathurst street,M6A2E1,toronto,on,43.7300765,-79.43421181
2611,baycrest geriatric health care system,Nursing and residential care facilities,3560,bathurst st,M6A2E1,toronto,on,43.7305734,-79.433654
2612,baycrest hospital,Ambulatory health care services,3560,bathurst street,M6A2E1,toronto,on,43.7300765,-79.43421181
2613,baycrest hospital - north york,Hospitals,3560,bathurst street,M6A2E1,toronto,on,43.730336,-79.43236041
2620,beach arms retirement residence,Nursing and residential care facilities,505,kingston road,M4L1V5,toronto,on,43.67733999,-79.30233976
2631,bellwood health services inc.,Nursing and residential care facilities,175,brentcliffe road,M4G0C5,toronto,on,43.7195849,-79.36622688
2632,bellwoods centres,Ambulatory health care services,789,don mills road,M3C1T5,toronto,on,43.7185524,-79.33749378
2633,belmont house,Nursing and residential care facilities,55,belmont street,M5R1R1,toronto,on,43.67461349,-79.39106979
2638,bendale acres,Nursing and residential care facilities,2920,lawrence avenue e,M1P2T8,toronto,on,43.75493801,-79.25183955
2641,bernard betel centre for creative living,Ambulatory health care services,1003,steeles avenue w,M2R3T6,toronto,on,43.79192171,-79.44721752
2649,bethseda home,Nursing and residential care facilities,76,silversted drive,M1S3A5,toronto,on,43.80182762,-79.26619476
2650,better living at thompson house,Ambulatory health care services,1,overland drive,M3C2C3,toronto,on,43.7324901,-79.34677178
2651,better living health and community services,Ambulatory health care services,1,overland drive,M3C2C3,toronto,on,43.7324901,-79.34677178
2652,bill mcmurray residence,Nursing and residential care facilities,180,sheridan avenue,M6K3C7,toronto,on,43.65162918,-79.43470119999999
2661,birdsilver gardens senior support centre,Nursing and residential care facilities,16,birdsilver gardens,M1C4M5,toronto,on,43.79197732,-79.13066792
2664,black creek community health centre,Nursing and residential care facilities,2202,jane street,M3M1A4,toronto,on,43.72178469,-79.51168893
2692,bradgate arms,Nursing and residential care facilities,54,foxbar road,M4V2G6,toronto,on,43.68566339,-79.40066839
2713,breakaway addiction services,Nursing and residential care facilities,21,strickland avenue,M6K3E6,toronto,on,43.64322438,-79.4311146
