index,facility_name,odhf_facility_type,street_no,street_name,postal_code,city,province,latitude,longitude
2503,alzheimer society peel,Ambulatory health care services,60,briarwood avenue,L5G3N6,mississauga,on,43.56089946,-79.58102284
2504,alzheimer society peel (central west lhin),Ambulatory health care services,60,briarwood avenue,L5G3N6,mississauga,on,43.56089946,-79.58102284
2516,amica at city centre,Nursing and residential care facilities,380,princess royal drive,L5B4M9,mississauga,on,43.58723066,-79.64714336
2518,amica at erin mills,Nursing and residential care facilities,4620,kimbermount avenue,L5M5W5,mississauga,on,43.54959005,-79.71614718
2617,bayshore healthcare ltd,Ambulatory health care services,2101,hadwen road,L5K2L3,mississauga,on,43.52298305,-79.65538916
2687,bough beeches place,Nursing and residential care facilities,1130,bough beeches boulevard,L4W4G3,mississauga,on,43.62599437,-79.60046495
2768,camilla care community,Nursing and residential care facilities,2250,hurontario street,L5B1M8,mississauga,on,43.57311436,-79.60700205
2815,canadian national institute for the blind (the) - halton-peel,Ambulatory health care services,50,burnhamthorpe road,L5B3C2,mississauga,on,43.59177946,-79.63634556
2818,canadian red cross - peel branch,Ambulatory health care services,2624,dunwin drive,L5L3T5,mississauga,on,43.52662255,-79.68270717
2908,cawthra gardens,Nursing and residential care facilities,590,lolita gardens,L5A4N8,mississauga,on,43.59302306,-79.60362445
3015,chartwell heritage glen retirement residence,Nursing and residential care facilities,6509,glen erin drive,L5N8P9,mississauga,on,43.58275466,-79.7524751
3052,chartwell regency retirement residence,Nursing and residential care facilities,29,mississauga road n,L5H2H7,mississauga,on,43.54916686,-79.59085414
3081,chartwell robert speck retirement residence,Nursing and residential care facilities,100,robert speck parkway,L4Z0A1,mississauga,on,43.59758416,-79.63359016
3106,chartwell wenleigh long term care residence,Nursing and residential care facilities,2065,leanne boulevard,L5K2L6,mississauga,on,43.52485635,-79.65178876
3136,cheshire homes - peel cheshire homes inc. (streetsville),Ambulatory health care services,361,queen street s,L5M1M3,mississauga,on,43.57605736,-79.70511818
3167,city of mississauga -the next step to active living program,Ambulatory health care services,2233,south millway drive,L5L3H7,mississauga,on,43.542555,-79.684402
3195,closing the gap healthcare group inc.,Ambulatory health care services,2810,matheson boulevard e,L4W4X7,mississauga,on,43.66542478,-79.59519885
3253,constitution place,Nursing and residential care facilities,3051,constitution boulevard,L4Y2Z1,mississauga,on,43.60446857,-79.59239015
3256,cooksville care centre,Nursing and residential care facilities,55,the queensway w,L5B1B5,mississauga,on,43.57334286,-79.60968605
3325,credit river retirement residence,Nursing and residential care facilities,175,rutledge road,L5M0X7,mississauga,on,43.58094516,-79.71729218
3326,credit valley family health team,Ambulatory health care services,2300,eglinton avenue w,L5M2V8,mississauga,on,43.55907115,-79.70554618
3327,credit valley hospital,Hospitals,2200,eglinton ave w,L5M2N1,mississauga,on,43.559349600000004,-79.7032464
3374,dixie bloor neighbourhood drop-in centre,Ambulatory health care services,3650,dixie road,L4Y3V9,mississauga,on,43.62129377,-79.60303445
3470,erin mills lodge nursing home,Nursing and residential care facilities,2132,dundas street w,L5K2K7,mississauga,on,43.53474615,-79.66736096
3485,evergreen retirement residence,Nursing and residential care facilities,820,scollard court,L5V0A1,mississauga,on,43.59259706,-79.67056277
3504,extendicare mississauga,Nursing and residential care facilities,855,john watt boulevard,L5W1G2,mississauga,on,43.63238897,-79.72791359
3575,forum italia community services - micba,Ambulatory health care services,155,forum drive,L4Z3M9,mississauga,on,43.61192657,-79.65063147
3694,greenway lodge retirement home,Nursing and residential care facilities,860,the greenway,L5G1P6,mississauga,on,43.56395956,-79.56964054
3828,hearthouse hospice inc.,Ambulatory health care services,855,matheson boulevard e,L4W4L6,mississauga,on,43.63071277,-79.64556487
3848,heritage house mississauga,Nursing and residential care facilities,73,king street w,L5B1H1,mississauga,on,43.57761356,-79.61660025
3984,india rainbow community services of peel,Ambulatory health care services,3038,hurontario street,L5B3B9,mississauga,on,43.58101986,-79.61814785
3985,indian rainbow community services of peel (central west lhin),Ambulatory health care services,3038,hurontario street,L5B3B9,mississauga,on,43.58101986,-79.61814785
4003,ivan franko home (mississauga),Ambulatory health care services,3058,winston churchill boulevard,L5L3J1,oakville,on,43.52425545,-79.68407247
4066,king gardens,Nursing and residential care facilities,85,king street e,L5A4G6,mississauga,on,43.58106776,-79.61299345
4255,malton village long term care centre,Nursing and residential care facilities,7075,rexwood road,L4T4M1,mississauga,on,43.71847959,-79.62437147
4305,march of dimes canada - peel,Ambulatory health care services,2227,south millway,L5L3R6,mississauga,on,43.54312435,-79.68396367
4404,mississauga long term care facility,Nursing and residential care facilities,26,peter street n,L5H2G7,mississauga,on,43.54970386,-79.59094324
4708,parkland on the glen,Nursing and residential care facilities,1665,the collegeway,L5L0A9,mississauga,on,43.54388615,-79.66402826
4733,peel halton dufferin acquired brain injury services,Ambulatory health care services,176,robert speck parkway,L4Z3G1,mississauga,on,43.59702356,-79.63297036
4735,peel senior link,Ambulatory health care services,50,burnhamthorpe road w,L5B3C2,mississauga,on,43.59177946,-79.63634556
4736,peel senior link (central west lhin),Ambulatory health care services,50,burnhamthorpe road west,,mississauga,on,43.59177946,-79.63634556
4806,port credit residences,Nursing and residential care facilities,33,hurontario street,L5G3E8,mississauga,on,43.55675776,-79.58341274
4850,punjabi community health services,Ambulatory health care services,2980,drew road,L4T0A7,mississauga,on,43.7102895,-79.6521369
4851,punjabi community health services (pchs),Nursing and residential care facilities,2980,drew road,L4T0A7,mississauga,on,43.70988098,-79.65170517
4932,regional municipality of peel,Ambulatory health care services,7120,hurontario street,L5M2C2,mississauga,on,43.64747107,-79.70905269
5199,services and housing in the province (ship) - css,Ambulatory health care services,969,derry road e,L5T2J7,mississauga,on,43.66503417,-79.68613508
5229,sheridan villa,Nursing and residential care facilities,2460,truscott drive,L5J3Z8,mississauga,on,43.51060205,-79.64829886
5272,silverthorn care community,Nursing and residential care facilities,4350,mississauga road,L5M7C8,mississauga,on,43.56232545,-79.68858187
5497,streetsville care community,Nursing and residential care facilities,1742,bristol road w,L5M1X9,mississauga,on,43.58212646,-79.70532398
