index,facility_name,odhf_facility_type,street_no,street_name,postal_code,city,province,latitude,longitude
5525,sunrise senior living of erin mills,Nursing and residential care facilities,4046,erin mills parkway,L5L2W7,mississauga,on,43.54899385,-79.68808997
5526,sunrise senior living of mississauga,Nursing and residential care facilities,1279,burnhamthorpe road e,L4Y3V7,mississauga,on,43.62096837,-79.60555515
5541,supportive housing in peel (s.h.i.p.) css,Ambulatory health care services,969,derry road e,L5T2J7,mississauga,on,43.665173200000005,-79.687076
5570,the beechwood,Nursing and residential care facilities,1500,rathburn road e,L4W4L7,mississauga,on,43.62827797,-79.60432645
5575,the canadian hearing society - peel/waterloo region,Ambulatory health care services,2227,south millway,L5L3R6,mississauga,on,43.54312435,-79.68396367
5612,the erinview,Nursing and residential care facilities,2132,dundas street w,L5K2K7,mississauga,on,43.53474615,-79.66736096
5704,the village of erin meadows,Nursing and residential care facilities,2930,erin centre boulevard,L5M7M4,mississauga,on,43.55312755,-79.72147048
5793,trillium health centre,Hospitals,100,queensway w,L5B1B8,mississauga,on,43.571601,-79.60848299999999
5794,trillium health centre - mississauga,Hospitals,100,queensway w,L5B1B8,mississauga,on,43.571585999999996,-79.607685
5796,trillium health partners - credit valley,Hospitals,2200,eglinton avenue w,L5M2N1,mississauga,on,43.5591213,-79.70370030000001
5798,trillium health partners -css,Ambulatory health care services,100,queensway w,L5B1B8,mississauga,on,43.57143586,-79.60855415
5803,trillium health partners- mississauga,Hospitals,100,queensway w,L5B1B8,mississauga,on,43.57225606,-79.60962385
5828,tyndall nursing home,Nursing and residential care facilities,1060,eglinton avenue e,L4W1K3,mississauga,on,43.62835307,-79.62744866
5916,villa forum,Nursing and residential care facilities,175,forum drive,L4Z4E5,mississauga,on,43.61180807,-79.65152977
5936,viva mississauga retirement community,Nursing and residential care facilities,5575,bonnie street,L5M0N8,mississauga,on,43.559595,-79.735105
5952,walden circle retirement community,Nursing and residential care facilities,1907,lakeshore road w,L5J1J7,mississauga,on,43.51402375,-79.62731705
5972,wawel villa incorporated,Ambulatory health care services,880,clarkson road,L5J4N4,mississauga,on,43.51334465,-79.62142035
5973,wawel villa seniors residence,Nursing and residential care facilities,880,clarkson road s,L5J4N4,mississauga,on,43.51334465,-79.62142035
6110,yee hong centre - mississauga,Nursing and residential care facilities,5510,mavis road,L5V2X5,mississauga,on,43.60476896,-79.68690548
6114,yee hong centre for geriatric care,Ambulatory health care services,5510,mavis road,L5V2X5,mississauga,on,43.60476896,-79.68690548
6119,ymca of greater toronto,Nursing and residential care facilities,151,city centre drive,L5B1M7,mississauga,on,43.59072586,-79.63981896
