facility_name,index,odhf_facility_type,street_no,street_name,postal_code,city,province
Alzheimer Society of Guelph-Wellington,2479,Ambulatory health care services,111,macdonell street,N1H 2Z7,guelph,on
Chartwell Royal on Gordon Retirement Residence,3088,Nursing and residential care facilities,1691,gordon street,N1L 1E1,guelph,on
Chartwell Wellington Park Retirement Residence,3105,Nursing and residential care facilities,181,janefield avenue,N1G 1V2,guelph,on
Cmha - Waterloo Wellington Dufferin Branch (Css),3196,Ambulatory health care services,80,waterloo avenue,N1H 0A1,guelph,on
Community Options Program to Employment (Cope) - Torchlight Services,3239,Ambulatory health care services,30,edinburgh road n,N1H 7J1,guelph,on
Corporation of the City of Guelph,3264,Ambulatory health care services,1,carden street,N1H 3A1,guelph,on
"Dunara Homes for Recovery, Inc.",3403,Nursing and residential care facilities,329,gordon street,N1G 1X7,guelph,on
Family Counselling and Support Services for Guelph-Wellington,3542,Ambulatory health care services,109,surrey street e,N1H 3P7,guelph,on
Guelph Community Health Centre,3721,Ambulatory health care services,176,wyndham street n,N1H 8N9,guelph,on
Guelph Fht,3722,Ambulatory health care services,55,wyndham street n,N1H 7T8,guelph,on
Guelph General Hospital,3723,Hospitals,115,delhi st,N1E 4J4,guelph,on
Guelph Independent Living,3724,Ambulatory health care services,255,woodlawn road w,N1H 8J1,guelph,on
Heritage House Guelph,3847,Nursing and residential care facilities,2113,gordon street,N1L 1G7,guelph,on
Homewood Health Centre,3880,Hospitals,150,delhi st,N1E 6K9,guelph,on
Hospice Wellington,3908,Nursing and residential care facilities,795,scottsdale drive,N1G 3R8,guelph,on
Lapointe-Fisher Nursing Home,4154,Nursing and residential care facilities,271,metcalfe street,N1E 4Y8,guelph,on
Norfolk Manor,4517,Nursing and residential care facilities,128,norfolk street,N1H 4J8,guelph,on
St. Joseph's Health Centre - Guelph,5428,Nursing and residential care facilities,100,westmount rd,N1H 5H8,guelph,on
Stone Lodge,5484,Nursing and residential care facilities,165,cole road,N1G 4N9,guelph,on
Stonehenge Therapeutic Community Inc.,5486,Nursing and residential care facilities,60,westwood road,N1H 7X3,guelph,on
the Elliott Long Term Care Residence,5611,Nursing and residential care facilities,170,metcalfe street,N1E 4Y3,guelph,on
the Village of Arbour Trails,5702,Nursing and residential care facilities,32,bayberry drive,N1G 0A2,guelph,on
the Village of Riverside Glen,5707,Nursing and residential care facilities,60,woodlawn road e,N1H 8M8,guelph,on
Trellis Mental Health and Developmental Services,5786,Ambulatory health care services,147,delhi street,N1E 4J3,guelph,on
Wellington-Dufferin-Guelph Health Unit,6000,Ambulatory health care services,160,chancellors way,N1G 0E1,guelph,on
