index,facility_name,odhf_facility_type,street_no,street_name,postal_code,city,province,latitude,longitude
2550,appleby place,Nursing and residential care facilities,500,appleby line,L7L5Z6,burlington,on,43.36821872,-79.75569998
2653,billings court manor,Nursing and residential care facilities,3700,billings court,L7N3N6,burlington,on,43.36439192,-79.78777539
2753,burlington family health team,Ambulatory health care services,1221,lakeshore road,L7S0A1,burlington,on,43.31523311,-79.80179169
2754,burloak,Nursing and residential care facilities,5959,new street,L7L6W5,burlington,on,43.38147032,-79.73937757
2764,cama woodlands nursing home,Nursing and residential care facilities,159,panin road,L7P5A6,burlington,on,43.3099325,-79.86719201
2816,canadian red cross - halton branch,Ambulatory health care services,3210,harvester road,L7N3T1,burlington,on,43.35481671,-79.79474219
2892,caroline family health team of burlington,Ambulatory health care services,3305,harvester road,L7N3N2,burlington,on,43.35804601,-79.79246529
2991,chartwell brant centre long term care residence,Nursing and residential care facilities,1182,northshore boulevard e,L7S1C5,burlington,on,43.31651571,-79.80381069
2997,chartwell christopher terrace retirement residence,Nursing and residential care facilities,3131,new street,L7N3P8,burlington,on,43.34219451,-79.78182398
3024,chartwell lakeshore retirement residence,Nursing and residential care facilities,5314,lakeshore road,L7L6L8,burlington,on,43.36642542,-79.73256877
3030,chartwell martha's landing retirement residence,Nursing and residential care facilities,2109,lakeshore road,L7R4Z4,burlington,on,43.32692581,-79.79224629
3329,creek way village,Nursing and residential care facilities,5200,corporate drive,L7L7G7,burlington,on,43.39302822,-79.77985319
3744,halton cheshire homes incorporated - carey house,Ambulatory health care services,3060,mainway drive,L7M1A3,burlington,on,43.35761511,-79.80927849
3757,halton region health department,Ambulatory health care services,3350,fairview street,L7N3L5,burlington,on,43.35405261,-79.78458289
3789,hampton terrace care centre,Nursing and residential care facilities,75,plains road w,L7T1E8,burlington,on,43.3054339,-79.8554984
3851,heritage place,Nursing and residential care facilities,4151,kilmer drive,L7M5A9,burlington,on,43.379940000000005,-79.801331
4034,joseph brant hospital,Nursing and residential care facilities,1230,north shore boulevard,L7S1W7,burlington,on,43.31703371,-79.80267739
4035,joseph brant hospital - adult day service,Ambulatory health care services,1230,northshore boulevard,L7S1W7,burlington,on,43.31703371,-79.80267739
4036,joseph brant memorial hospital,Hospitals,1230,north shore blvd,L8S1W7,burlington,on,43.31715,-79.80261999999999
4158,lasalle park retirement community,Nursing and residential care facilities,18,plains road w,L7T1E9,burlington,on,43.3061966,-79.8527417
4292,maple villa long term care centre,Nursing and residential care facilities,441,maple avenue,L7S1L8,burlington,on,43.31995171,-79.80289539
4433,mount nemo christian nursing home,Nursing and residential care facilities,4486,guelph line,L7P0N2,burlington,on,43.40257242,-79.87556992
4696,park avenue manor,Nursing and residential care facilities,924,park avenue w,L7T1N7,burlington,on,43.3045489,-79.8518665
4720,participation house - hamilton and district,Ambulatory health care services,1022,waterdown road,L7T1N3,burlington,on,43.3071135,-79.853595
4731,pearl and pine retirement residence,Nursing and residential care facilities,390,pearl street,L7R0A4,burlington,on,43.32623411,-79.79452329
5504,summit housing & outreach programs,Nursing and residential care facilities,760,brant street,L7R4B7,burlington,on,43.33226941,-79.80880339
5522,sunrise of burlington,Nursing and residential care facilities,5401,lakeshore road,L7L6S5,burlington,on,43.36880982,-79.72973777
5709,the village of tansley woods,Nursing and residential care facilities,4100,upper middle road,L7M4W8,burlington,on,43.38367062,-79.79950979
5725,the wharton medical clinic inc. - css,Ambulatory health care services,2951,walkers line,L7M4Y1,burlington,on,43.39210732,-79.82164859999999
5726,the williamsburg,Nursing and residential care facilities,1893,appleby line,L7L0G5,burlington,on,43.39273432,-79.78777969
5998,wellington park care centre,Nursing and residential care facilities,802,hager avenue,L7S1X2,burlington,on,43.33141191,-79.81188229
