index,facility_name,odhf_facility_type,street_no,street_name,postal_code,city,province,latitude,longitude
2421,acclaim health,Ambulatory health care services,2370,speers road,L6L5M2,oakville,on,43.40795623,-79.72589097
2521,amica at oakville,Nursing and residential care facilities,160,bronte road,L6L3C1,oakville,on,43.39473282,-79.71469797
2811,"canadian mental health association, halton region branch (css)",Ambulatory health care services,1540,cornwall road,L6J7W5,oakville,on,43.47872304,-79.65802046
3039,chartwell oakville retirement residence,Nursing and residential care facilities,180,oak park boulevard,L6H0A6,oakville,on,43.48067364,-79.71759898
3102,chartwell waterford long term care residence,Nursing and residential care facilities,2140,baronwood drive,L6M4V6,oakville,on,43.42715623,-79.76303438
3103,chartwell waterford retirement residence,Nursing and residential care facilities,2160,baronwood drive,L6M0Y1,oakville,on,43.42740353,-79.76329719
3157,churchill place,Nursing and residential care facilities,345,church street,L6J7G4,oakville,on,43.44942594,-79.66593136
3363,delmanor glen abbey,Nursing and residential care facilities,1459,nottinghill gate,L6M4W1,oakville,on,43.44530143,-79.73083328
3388,dorval medical associates family health team,Ambulatory health care services,465,morden road,L6K3W6,oakville,on,43.44193983,-79.69414926
3746,halton healthcare services,Hospitals,327,reynolds st,L6J3L7,oakville,on,43.453245,-79.67416999999999
3749,halton healthcare services - oakville,Hospitals,3001,hospital gate,L6M0L8,oakville,on,43.44892573,-79.76659729
3750,halton healthcare services corporation,Ambulatory health care services,3001,hospital gate,L6M0L8,oakville,on,43.45041353,-79.76475299
3752,halton healthcare services corporation - oakville site,Hospitals,327,reynolds st,L6J3L7,oakville,on,43.453245,-79.6741696
3883,hope place centres,Nursing and residential care facilities,775,pacific road,L6L6M4,oakville,on,43.41330933,-79.73311187
4194,links2care,Ambulatory health care services,2030,bristol circle,L6H0H2,oakville,on,43.51086305,-79.67178966
4401,mississauga halton local health integration network,Ambulatory health care services,700,dorval drive,L6K3V3,oakville,on,43.44351973,-79.69677947
4402,mississauga halton local health integration network (lhin op),Ambulatory health care services,700,dorval drive,L6K3V3,oakville,on,43.44351973,-79.69677947
4403,mississauga integrated care centre (css),Ambulatory health care services,700,dorval drive,L6K3V3,oakville,on,43.44351973,-79.69677947
4599,northridge,Nursing and residential care facilities,496,postridge drive,L6H7A2,oakville,on,43.48960334,-79.71426817
4613,nucleus housing,Ambulatory health care services,2030,bristol circle,L6H0H2,oakville,on,43.51086305,-79.67178966
4614,nucleus housing incorporated,Ambulatory health care services,2030,bristol circle,L6H0H2,oakville,on,43.51086305,-79.67178966
4619,oaklands regional centre,,53,bond st,L6K1L8,oakville,on,43.444444,-79.6782414
4620,oakmed family health team,Ambulatory health care services,231,oak park boulevard,L6H7S8,oakville,on,43.48264074,-79.71632578
4623,oakville kiwanis meals on wheels,Ambulatory health care services,165,cross avenue,L6J0A9,oakville,on,43.45576294,-79.68516326
4624,oakville senior citizens residence,Ambulatory health care services,2222,lakeshore road,L6L5G5,oakville,on,43.39955423,-79.70524236
4625,oakville wheels to meals,Ambulatory health care services,1565,old lakeshore road,L6L6N1,oakville,on,43.40493173,-79.69712876
4691,palermo village retirement residence,Nursing and residential care facilities,3136,dundas street w,L6M4J3,oakville,on,43.43165293,-79.77985319
4815,post inn village,Nursing and residential care facilities,203,georgian drive,L6H7H9,oakville,on,43.48026034,-79.71675247
4856,queens avenue retirement residence,Nursing and residential care facilities,1056,queens avenue,L6H6R3,oakville,on,43.46395854,-79.68888876
5107,s.e.n.a.c.a. seniors day program - halton incorporated,Ambulatory health care services,53,bond street,L6K1L8,oakville,on,43.44271483,-79.67788876
5138,schizophrenia society of ontario,Nursing and residential care facilities,235,lakeshore road e,L6J1H7,oakville,on,43.44647254,-79.66785156
5187,seniors life enhancement centres,Ambulatory health care services,2030,bristol circle,L6H0H2,oakville,on,43.51086305,-79.67178966
5527,sunrise senior living of oakville,Nursing and residential care facilities,456,trafalgar road,L6J7X1,oakville,on,43.45397384,-79.68064656
5630,the kensington,Nursing and residential care facilities,25,lakeshore road w,L6K1C6,oakville,on,43.44195673,-79.67261076
5782,trafalgar lodge,Nursing and residential care facilities,299,randall street,L6J6B4,oakville,on,43.44891054,-79.66803676
5934,vistamere retirement residence,Nursing and residential care facilities,380,sherin drive,L6L4J3,oakville,on,43.41596933,-79.70567767
6021,west oak village,Nursing and residential care facilities,2370,third line,L6M4E2,oakville,on,43.44708343,-79.75633228
6039,westover treatment centre,Nursing and residential care facilities,1476,speers road,L6L2X6,oakville,on,43.42015843,-79.71529937
6108,wyndham manor long term care centre,Nursing and residential care facilities,291,reynolds street,L6J3L5,oakville,on,43.45245024,-79.67269066
