index,facility_name,odhf_facility_type,street_no,street_name,postal_code,city,province,latitude,longitude
5431,st. joseph's healthcare - charlton campus,Hospitals,50,charlton ave e,L8N4A6,hamilton,on,43.240445,-79.884108
5432,st. joseph's healthcare - west 5th campus,Hospitals,100,west 5 st,L8N3K7,hamilton,on,43.240445,-79.884108
5433,st. joseph's healthcare hamilton,Nursing and residential care facilities,100,james street s,L8P2Z2,hamilton,on,43.25397419,-79.8705761
5434,st. joseph's healthcare hamilton - charlton campus,Hospitals,50,charlton avenue e,L8N4A6,hamilton,on,43.249140000000004,-79.8702179
5435,st. joseph's healthcare hamilton - king campus,Hospitals,2757,king street e,L8G5E4,hamilton,on,43.22058869,-79.77488487
5436,st. joseph's home care,Ambulatory health care services,1550,upper james street,L9B2L6,hamilton,on,43.20362518,-79.89552741
5443,st. joseph's villa (dundas),Ambulatory health care services,56,governors road,L9H5G7,hamilton,on,43.26175889,-79.95770113
5463,st. matthew's house,Nursing and residential care facilities,785,britannia avenue,L8H2B6,hamilton,on,43.24002559,-79.78103737
5472,st. peter's residence at chedoke,Nursing and residential care facilities,125,redfern avenue,L9C7W9,hamilton,on,43.24048479,-79.92012482
5551,tara retirement home,Nursing and residential care facilities,843,mohawk road e,L8T2R4,hamilton,on,43.21727849,-79.83453609
5555,tele-touch seniors,Ambulatory health care services,414,victoria avenue n,L8L5G8,hamilton,on,43.2655201,-79.85059749999999
5593,the cardinal retirement residence,Nursing and residential care facilities,10,herkimer street,L8P2G2,hamilton,on,43.24925099,-79.8731636
5594,the carlisle retirement residence,Nursing and residential care facilities,467,main street e,L8N1K1,hamilton,on,43.25084779,-79.8515302
5682,the salvation army mountberry adult day service,Ambulatory health care services,1050,paramount drive,L8J1P8,hamilton,on,43.19880249,-79.79429247
5711,the village of wentworth heights,Nursing and residential care facilities,1620,upper wentworth street,L9B2W3,hamilton,on,43.19832568,-79.8734372
5719,the wellington nursing home,Nursing and residential care facilities,1430,upper wellington street,L9A5H3,hamilton,on,43.20948778,-79.8796767
5887,victoria gardens long term care,Nursing and residential care facilities,176,victoria avenue n,L8L5G1,hamilton,on,43.25834859,-79.8542586
5917,villa italia retirement residence,Nursing and residential care facilities,530,upper paradise road,L9C7W2,hamilton,on,43.23106209,-79.91453832
5925,village manor,Nursing and residential care facilities,57,john street w,L0R2H0,hamilton,on,43.33535221,-79.89811232
5944,von hamilton,Ambulatory health care services,414,victoria avenue n,L8L5G8,hamilton,on,43.2655201,-79.85059749999999
5959,waterdown manor,Nursing and residential care facilities,335,dundas street e,L0R2H0,hamilton,on,43.33519751,-79.89141602
5978,wayside house of hamilton,Ambulatory health care services,15,charlton avenue w,L8P2B8,hamilton,on,43.24987719,-79.8729744
5992,welcome inn community centre of hamilton,Ambulatory health care services,40,wood street e,L8L3Y3,hamilton,on,43.2710224,-79.8607054
6003,wentworth lodge,Nursing and residential care facilities,41,south street w,L9H4C4,hamilton,on,43.25983089,-79.94970123
6007,wesley,Nursing and residential care facilities,52,catherine street n,L8R1J1,hamilton,on,43.25701519,-79.8643783
6008,wesley urban ministries inc.,Ambulatory health care services,52,catharine street n,L8R1J1,hamilton,on,43.25701519,-79.8643783
6035,westmount terrace i,Nursing and residential care facilities,723,rymal road w,L9B2W1,hamilton,on,43.20988088,-79.92649772
6128,yorkville retirement residence,Nursing and residential care facilities,211,york road,L9H1M9,hamilton,on,43.27595799,-79.94104643
