index,facility_name,odhf_facility_type,street_no,street_name,postal_code,city,province,latitude,longitude
2628,bella senior care residences,Nursing and residential care facilities,8720,willoughby drive,L2G7X3,niagara falls,on,43.05084229,-79.04543772
2907,cavendish manor residence,Nursing and residential care facilities,5781,dunn street,L2G2N9,niagara falls,on,43.0794347,-79.08873644
3455,emerald retirement residence,Nursing and residential care facilities,5807,ferry street,L2G1S8,niagara falls,on,43.0900705,-79.09116624
3714,greycliffe manor,Nursing and residential care facilities,8158,lundys lane,L2H1H1,niagara falls,on,43.0883215,-79.13431826
3827,heart niagara,Nursing and residential care facilities,4635,queen street,L2E2L7,niagara falls,on,43.106741299999996,-79.06999624
4223,lundy manor,Nursing and residential care facilities,7860,lundys lane,L2H1H1,niagara falls,on,43.08831729999999,-79.12817585
4361,meals on wheels niagara falls ont. inc.,Ambulatory health care services,5546,portage road,L2G5X7,niagara falls,on,43.0941845,-79.09047414
4390,millennium trail manor,Nursing and residential care facilities,6861,oakwood drive,L2E6S5,niagara falls,on,43.076347,-79.11734305
4475,niagara falls community health centre,Nursing and residential care facilities,4481,queen street,L2E2L4,niagara falls,on,43.1068325,-79.06717924
4480,niagara health system - greater niagara,Hospitals,5546,portage road,L2E6X2,niagara falls,on,43.0942273,-79.0894642
4481,niagara health system - greater niagara general site,Hospitals,5546,portage rd,L2E6X2,niagara falls,on,43.094227000000004,-79.089464
4494,niagara medical group fht,Ambulatory health care services,4421,queen street,L2E2L2,niagara falls,on,43.10689910000001,-79.06618594
4500,nimigon retirement home,Nursing and residential care facilities,7715,beaverdams road,L2H2J4,niagara falls,on,43.0900255,-79.12455225
4626,oakwood park lodge,Nursing and residential care facilities,6747,oakwood drive,L2G0J3,niagara falls,on,43.0769904,-79.11785895
4810,portage medical fht,Ambulatory health care services,4256,portage road,L2E6A4,niagara falls,on,43.1119107,-79.09685505
4858,queenston place retirement residence,Nursing and residential care facilities,6440,valley way,L2E7E3,niagara falls,on,43.0974671,-79.10210755
4879,r. h. lawson eventide home,Nursing and residential care facilities,5050,jepson street,L2E1K5,niagara falls,on,43.0997467,-79.07748394
5030,river road retirement residence,Nursing and residential care facilities,4067,river road,L2E3E5,niagara falls,on,43.1140665,-79.06294324
5641,the meadows of dorchester,Nursing and residential care facilities,6623,kalar road,L2H2T3,niagara falls,on,43.07925789,-79.13696046
5874,valley park lodge,Nursing and residential care facilities,6400,valley way,L2E7E3,niagara falls,on,43.0977475,-79.10129525
6063,willoughby manor retirement residence,Nursing and residential care facilities,3584,bridgewater street,L2G6H1,niagara falls,on,43.0613146,-79.04920033
