index,facility_name,odhf_facility_type,street_no,street_name,postal_code,city,province,latitude,longitude
2472,alzheimer society of cambridge,Ambulatory health care services,1145,concession road,N3H4L6,cambridge,on,43.39701529,-80.34420357
2765,cambridge country manor,Nursing and residential care facilities,3680,speedsville road,N3H4R6,cambridge,on,43.4552726,-80.35775290000001
2766,cambridge memorial hospital,Hospitals,700,coronation blvd,N1R3G2,cambridge,on,43.378516999999995,-80.32855
3051,chartwell queen's square retirement residence,Nursing and residential care facilities,10,melville street n,N1S1H5,cambridge,on,43.36033629,-80.31694255
3263,corporation of the city of cambridge,Ambulatory health care services,50,dickson street,N1R5W8,cambridge,on,43.36018659,-80.31241555
3534,fairview mennonite home,Nursing and residential care facilities,515,langs drive,N3H5E4,cambridge,on,43.398556400000004,-80.34314607
3538,fairview suites retirement home,Nursing and residential care facilities,799,concession road,N3H4L1,cambridge,on,43.398728799999994,-80.34534257
3653,golden years nursing home,Nursing and residential care facilities,704,eagle street n,N3H4T3,cambridge,on,43.4042795,-80.35454667
3680,grandview fht,Ambulatory health care services,167,hespeler road,N1R3H7,cambridge,on,43.38142249,-80.31935576
3683,granite landing,Nursing and residential care facilities,30,light drive,N1T0B9,cambridge,on,43.389179999999996,-80.28204865
4152,langs farm village association,Hospitals,887,langs drive,N3H5K4,cambridge,on,43.3999977,-80.33580576
4312,marian residence retirement home,Nursing and residential care facilities,640,hillview road,N3H5H3,cambridge,on,43.39325349,-80.37658168
4357,meals on wheels and community home support,Ambulatory health care services,800,franklin boulevard,N1R7Z1,cambridge,on,43.37975439,-80.29956155
4747,peoplecare hilltop manor cambridge,Nursing and residential care facilities,42,elliott street,N1R2J2,cambridge,on,43.35352749,-80.30996865
5031,riverbend place,Nursing and residential care facilities,650,coronation boulevard,N1R7S6,cambridge,on,43.37692539,-80.32575336
5111,saint luke's place,Nursing and residential care facilities,1624,franklin boulevard,N3C3P4,cambridge,on,43.4253246,-80.31029116
5112,saint luke's place - css,Ambulatory health care services,1624,franklin boulevard,N3C3P4,cambridge,on,43.4253246,-80.31029116
5395,st. andrew's terrace long term care community,Nursing and residential care facilities,255,st andrews street,N1S1P1,cambridge,on,43.34600049,-80.32871446
5479,stirling heights,Nursing and residential care facilities,200,stirling macgregor drive,N1S5B7,cambridge,on,43.33915669,-80.33371706
5827,two rivers family health team,Ambulatory health care services,350,conestoga boulevard,N1R7L7,cambridge,on,43.390102299999995,-80.31365946
5909,vila nova place,Nursing and residential care facilities,611,dunbar road,N3H2T4,cambridge,on,43.38794039,-80.33758986
5962,waterloo region,Ambulatory health care services,13,water street n,N1R3B2,cambridge,on,43.35947039,-80.31521805
