index,facility_name,odhf_facility_type,street_no,street_name,postal_code,city,province,latitude,longitude
2419,access better living inc.,Ambulatory health care services,733,ross avenue e,P4N8S8,timmins,on,48.48601227,-81.31161512
2500,alzheimer society of timmins-porcupine district inc.,Ambulatory health care services,70,cedar street s,P4N2G6,timmins,on,48.47470957,-81.32914363
2821,canadian red cross - timmins and district branch,Ambulatory health care services,60,wilson avenue,P4N2S7,timmins,on,48.47561417,-81.33694163
2942,centre de reeducation cor jesus de timmins incorporee,Nursing and residential care facilities,140,jubilee avenue w,P4N4M9,timmins,on,48.48744427,-81.33941713
2996,chartwell chateau georgian retirement residence,Nursing and residential care facilities,455,cedar street n,P4N8K4,timmins,on,48.48577307,-81.33032493
3203,cnib - timmins & district branch,Ambulatory health care services,206,fifth avenue,P4N5L3,timmins,on,48.47744267,-81.32947753
3209,cochrane temiskaming resource centre,Ambulatory health care services,600,toke st,P4N6W1,timmins,on,48.488455,-81.317921
3516,extendicare timmins,Nursing and residential care facilities,62,st-jean avenue,P4R0A6,timmins,on,48.47746467,-81.37922804
3648,golden manor,Nursing and residential care facilities,481,melrose boulevard,P4N5H3,timmins,on,48.48606627,-81.34352493
4397,misiway milopemahtesewin community health centre,Hospitals,130,wilson avenue,P4N2S9,timmins,on,48.47551847,-81.33909213
4595,northern college (east end fht),Ambulatory health care services,4715,algonquin boulevard e,P4N8R6,timmins,on,48.47690227,-81.32062182
4805,porcupine health unit,Ambulatory health care services,169,pine street s,P4N8B7,timmins,on,48.47250127,-81.32867053
5303,soins palliatifs horizon-timmins inc./horizon-timmins palliative care inc.,Ambulatory health care services,733,ross avenue e,P4N8S8,timmins,on,48.48601227,-81.31161512
5319,south cochrane addictions services inc.,Nursing and residential care facilities,85,pine street s,P4N2K1,timmins,on,48.47443527,-81.32863693
5384,spruce hill lodge,Nursing and residential care facilities,,bruce avenue w,P0N1H0,timmins,on,48.478149,-81.22005300000001
5459,st. mary's gardens,Nursing and residential care facilities,225,fifth avenue,P4N0B2,timmins,on,48.47675827,-81.32892253
5717,the walford timmins,Nursing and residential care facilities,750,tamarack street,P4N0A4,timmins,on,48.49152857,-81.32532123
5754,timmins and district hospital,Nursing and residential care facilities,700,ross avenue e,P4N8P2,timmins,on,48.48744277,-81.31420672
5755,timmins and district hospital/l'hôpitall de timmins et du district,Hospitals,700,ross ave e,P4N8P2,timmins,on,48.487586900000004,-81.3135915
5756,timmins consumer survivor network (tcsn) inc.,Nursing and residential care facilities,330,second avenue,P4N8A4,timmins,on,48.47331947,-81.32526923
5757,timmins family counselling centre inc./centre de counselling familial de timmins inc.,Nursing and residential care facilities,60,wilson avenue,P4N2S7,timmins,on,48.47561417,-81.33694163
5758,timmins family health team/equipe de santé familiale de timmins,Ambulatory health care services,123,third avenue,P4N1C6,timmins,on,48.47474187,-81.33185253
5759,timmins finnish seniors home inc.,Ambulatory health care services,231,huot street,P0N1H0,timmins,on,48.48503318,-81.20553009
5760,timmins native friendship centre,Ambulatory health care services,179,kirby avenue,P4N1K1,timmins,on,48.47037187,-81.33017263
5761,timmins senior citizens recreation centre (h.r. bielek),Ambulatory health care services,272,third avenue,P4N1E3,timmins,on,48.475089000000004,-81.32730600000001
5949,wabun tribal council,Ambulatory health care services,313,railway street,P4N2P4,timmins,on,48.46968537,-81.32560832
