index,facility_name,odhf_facility_type,street_no,street_name,postal_code,city,province,latitude,longitude
8528,9th avenue north medical clinic,Ambulatory health care services,2306,9 ave n,S4R8C5,regina,sk,50.484705,-104.614231
8529,al ritchie heritage community health centre,Hospitals,1550,14 avenue,S4P0W6,regina,sk,50.444203,-104.60315899999999
8530,albert and parliament primary health care centre,Hospitals,3992,albert street,S4S3R1,regina,sk,50.415871,-104.619286
8536,autism centre,Hospitals,2166,broad street,S4P1Y5,regina,sk,50.444378,-104.606664
8537,avon medical clinic,Hospitals,2781,avonhurst dr,S4R3J3,regina,sk,50.470403999999995,-104.62225699999999
8560,broad street medical clinic,Ambulatory health care services,2210,broad street,S4P4V6,regina,sk,50.443324,-104.607271
8635,family medicine unit,Ambulatory health care services,1621,albert street,,regina,sk,50.452644,-104.61771800000001
8642,four directions community health centre,Hospitals,1504,albert street,S4P2S4,regina,sk,50.454957,-104.61835400000001
8648,gateway alliance medical clinic (north),Ambulatory health care services,4535,rochdale blvd,S4X4R3,regina,sk,50.496028,-104.646666
8649,gateway alliance medical clinic (south),Ambulatory health care services,4661,rae street,S4S3R3,regina,sk,50.404968,-104.620637
8658,greens medical clinic,Ambulatory health care services,712437,green falls drive,S4V3T6,regina,sk,50.416796000000005,-104.517287
8664,harbour landing medical clinic,Ambulatory health care services,4500,gordon road,S4W0B7,regina,sk,50.408252000000005,-104.64598199999999
8676,integral medical centre (imc),Ambulatory health care services,6210,dewdney ave,S4T1E2,regina,sk,50.455490999999995,-104.669915
8677,integrated wellness and health balance center,Hospitals,2318,9 avenue n,S4R8C5,regina,sk,50.484753000000005,-104.61455
8694,kidney health centre,Hospitals,235,albert street n,S4R3C2,regina,sk,50.479628000000005,-104.61715500000001
8733,lifelabs - albert park,Ambulatory health care services,3984,albert street,,regina,sk,50.416136,-104.619194
8734,lifelabs - gardiner park,Ambulatory health care services,372,university park drive,,regina,sk,50.43562,-104.55605200000001
8735,lifelabs - normanview crossing,Ambulatory health care services,344,mccarthy blvd n,,regina,sk,50.482015999999994,-104.666163
8736,lifelabs - towers mall,Ambulatory health care services,2723,avonhurst drive,,regina,sk,50.469947,-104.62006
8737,lifelabs- broad street,Ambulatory health care services,2162,broad street,,regina,sk,50.444417,-104.606971
8754,maximily medical clinic,Ambulatory health care services,3100,dewdney avenue,S4T0Y4,regina,sk,50.4554,-104.62560500000001
8759,meadow primary health care centre,Ambulatory health care services,4006,dewdney avenue,S4T1A2,regina,sk,50.455290999999995,-104.638929
8781,normanview mall medi-clinic,Ambulatory health care services,330,mccarthy blvd n,S4R7M2,regina,sk,50.481376000000004,-104.66614799999999
8786,north network (public health office),Ambulatory health care services,204,wascana street,,regina,sk,50.475266999999995,-104.640158
8787,northgate medi clinic,Ambulatory health care services,489,albert street n,S4R3C3,regina,sk,50.482566,-104.615204
8788,northgate medical centre,Ambulatory health care services,2711,avonhurst dr,S4R3J3,regina,sk,50.469763,-104.618967
8801,park plaza medical centre,Ambulatory health care services,2036,park street,S4N2G6,regina,sk,50.446022,-104.57324100000001
8806,pasqua hospital,Hospitals,4101,dewdney avenue,S4T1A5,regina,sk,50.454433,-104.638463
8807,pasqua south medical centre,Ambulatory health care services,3515,pasqua street,S4S7G9,regina,sk,50.423482,-104.64038599999999
8842,rawlco centre hostel,,1440,14 avenue,,regina,sk,50.443974,-104.59284
8848,regent park medical clinic,Ambulatory health care services,3847,sherwood drive,S4R4A8,regina,sk,50.474249,-104.635786
8850,regina general hospital,Hospitals,1440,14 ave,S4P0W5,regina,sk,50.4439653,-104.6009937
8852,regina medical centre,Hospitals,2550,12 avenue,S4P3X1,regina,sk,50.449179,-104.61721700000001
8859,rochdale crossing medical clinic,Ambulatory health care services,1452022,rochdale blvd,S4X2P9,regina,sk,50.495829,-104.664075
8872,santa maria senior citizens home,Nursing and residential care facilities,4215,regina avenue,S4T6L8,regina,sk,50.434784,-104.639108
8888,south end medical clinic,Ambulatory health care services,2907,gordon rd,S4S6H7,regina,sk,50.403868,-104.62087199999999
8890,south/east network (public health office),Ambulatory health care services,1911,park street,,regina,sk,50.448395,-104.57157600000001
8918,stapleford medical clinic,Ambulatory health care services,372,mccarthy blvd n,S4R7M2,regina,sk,50.483108,-104.665959
8934,transcona medical clinic,Ambulatory health care services,4936,fourth avenue,S4T0J3,regina,sk,50.463377,-104.651972
8951,warehouse district medical clinic,Ambulatory health care services,1-1230,st john st,S4R1R9,regina,sk,50.459299,-104.602236
8953,wascana rehabilitation centre,Nursing and residential care facilities,2180,23 ave,S4S0A5,regina,sk,50.4251896,-104.61106240000001
