index,facility_name,odhf_facility_type,street_no,street_name,postal_code,city,province,latitude,longitude
337,123 walk-in clinic,Ambulatory health care services,108-2777,gladwin road,V2T4V1,abbotsford,bc,49.051786,-122.315463
354,58th avenue home,Nursing and residential care facilities,29172,58 ave,V4X2G1,abbotsford,bc,49.107193,-122.41584499999999
365,abbotsford regional hospital and cancer care,Hospitals,2179,mccallum rd,V2S3P1,abbotsford,bc,49.041893,-122.29513600000001
366,abbotsford regional hospital and cancer centre,Hospitals,32900,marshall rd,V2S0C2,abbotsford,bc,49.037872,-122.312854
367,abbotsford village medical clinic,Ambulatory health care services,302-2050,sumas way,V2S2C7,abbotsford,bc,49.038729,-122.269714
369,abby central medical and dental clinic,Ambulatory health care services,2855,gladwin road,V2T6Y4,abbotsford,bc,49.0541,-122.3176
389,allwood medical centre,Ambulatory health care services,102-2752,allwood street,V2T3R7,abbotsford,bc,49.051728000000004,-122.31981499999999
410,archway community services,Ambulatory health care services,101-32555,simon avenue,V2T4Y2,abbotsford,bc,49.053349,-122.32308
417,ashley home,Nursing and residential care facilities,32885,ashley way,V2S5W3,abbotsford,bc,49.042617,-122.31325600000001
466,bethesda abbotsford home,Nursing and residential care facilities,1895,jackson st,V2S2Z8,abbotsford,bc,49.03631420000001,-122.3077081
467,bethesda chilcotin home,Nursing and residential care facilities,32704,chilcotin dr,V2T5S5,abbotsford,bc,49.0710888,-122.3183114
468,bethesda clearbrook home,Nursing and residential care facilities,32553,willingdon cres,V2T1S1,abbotsford,bc,49.047716799999996,-122.32210049999999
470,bethesda matsqui home,Nursing and residential care facilities,32768,bevan ave,V2S1T1,abbotsford,bc,49.041617200000005,-122.31668590000001
475,bethesda west clearbrook home,Nursing and residential care facilities,2339,arbutus st,V2T2V8,abbotsford,bc,49.0446238,-122.33974599999999
477,bevan village,Nursing and residential care facilities,33386,bevan ave,V2S5G6,abbotsford,bc,49.0413325,-122.2992395
495,bradner house,Nursing and residential care facilities,3098,bradner rd,V4X1K2,abbotsford,bc,49.0586,-122.42523600000001
665,cresst,Nursing and residential care facilities,33720,mcdougall ave,V2S1W4,abbotsford,bc,49.045199,-122.2903273
744,eleanor house,Nursing and residential care facilities,2052,eleanor ave,V2S4L6,abbotsford,bc,49.0392857,-122.26643500000002
751,ellwood medical clinic,Ambulatory health care services,100-30495,cardinal avenue,V2T5R9,abbotsford,bc,49.06074,-122.3788
763,evergreen residence,Nursing and residential care facilities,2841,evergreen st,V2T2S2,abbotsford,bc,49.053649799999995,-122.3450986
776,ferguson home,Nursing and residential care facilities,32375,george ferguson way,V2T2L2,abbotsford,bc,49.0552957,-122.32755049999999
811,fraser valley detox and treatment centre,Nursing and residential care facilities,6705,satchell st,V4X2E3,abbotsford,bc,49.1239695,-122.4160247
874,grant st. east,Nursing and residential care facilities,2364,grant st,V2T2M7,abbotsford,bc,49.045139299999995,-122.34349499999999
875,grant st. west,Nursing and residential care facilities,2375,grant st,V2T2M8,abbotsford,bc,49.0453384,-122.3443139
926,hillside home,Nursing and residential care facilities,2916,mountview st,V2S6R2,abbotsford,bc,49.055155,-122.296419
936,holmberg house hospice,Nursing and residential care facilities,32780,marshall rd,V2S1J7,abbotsford,bc,49.0381016,-122.316119
945,hylan home,Nursing and residential care facilities,32223,hylan ave,V2T1S8,abbotsford,bc,49.0486682,-122.33172569999999
1005,kinghaven treatment centre,Nursing and residential care facilities,31250,king rd,V2T6C2,abbotsford,bc,49.0307485,-122.358792
1027,la rosa de matsqui,Nursing and residential care facilities,28711,huntingdon rd,V4X1A8,abbotsford,bc,49.017373,-122.428874
1080,m.s.a. manor,Nursing and residential care facilities,2510,gladwin rd,V2T3N9,abbotsford,bc,49.047544200000004,-122.3144389
1098,maplewood house,Nursing and residential care facilities,1919,jackson st,V2S2Z8,abbotsford,bc,49.036607200000006,-122.30914840000001
1112,matsqui-sumas-abbotsford general hospital cottage and worthington pavilions,Hospitals,2179,mccallum road,V2S3P1,abbotsford,bc,49.041893,-122.29513600000001
1116,mayfair (the),Nursing and residential care facilities,33433,marshall rd,V2S1K8,abbotsford,bc,49.039494,-122.29768929999999
1133,menno extended care hospital,Nursing and residential care facilities,32945,marshall rd,V2S1K1,abbotsford,bc,49.0384349,-122.31174140000002
1134,menno place - menno home,Nursing and residential care facilities,32910,brundige ave,V2S1N2,abbotsford,bc,49.03968,-122.31129299999999
1145,mill lake residence,Nursing and residential care facilities,33056,mill lake rd,V2S2A3,abbotsford,bc,49.04811779999999,-122.3077854
1174,mountain view home,Nursing and residential care facilities,5133,boundary rd,V3G2N4,abbotsford,bc,49.0955257,-122.08145390000001
1253,oriole lodge,Nursing and residential care facilities,32539,oriole cres,V2T4C7,abbotsford,bc,49.057249600000006,-122.32300390000002
1256,osprey home,Nursing and residential care facilities,30772,osprey dr,V2T5J4,abbotsford,bc,49.057665,-122.3712483
1305,peardonville house treatment centre,Nursing and residential care facilities,825,peardonville rd,V4X2K3,abbotsford,bc,49.017735200000004,-122.4065114
1518,skyline lodge,Nursing and residential care facilities,33134,marshall rd,V2S1K5,abbotsford,bc,49.0377195,-122.30636570000001
1533,southern place,Nursing and residential care facilities,2957,southern pl,V2T5H7,abbotsford,bc,49.0565309,-122.3563942
1585,swensson house,Nursing and residential care facilities,27830,swensson,V4X1H4,abbotsford,bc,49.0498845,-122.4532155
1586,tabor home,Nursing and residential care facilities,31944,sunrise cres,V2T1N5,abbotsford,bc,49.047016,-122.338899
1633,the oxford - senior living and care,Nursing and residential care facilities,32073,sherwood cr,V2T1C1,abbotsford,bc,49.041810600000005,-122.33497390000001
1635,the regional treatment centre (pacific),Hospitals,33344,king rd,V2S4P4,abbotsford,bc,49.03108579999999,-122.30031570000001
1699,valhaven rest home,Nursing and residential care facilities,4212,balmoral st,V4X1Y5,abbotsford,bc,49.0789671,-122.38571529999999
1743,viva care,Ambulatory health care services,3122,mount lehman road,V4X0B3,abbotsford,bc,49.05795,-122.3783
1746,walker,Nursing and residential care facilities,34691,walker cres,V2S1J4,abbotsford,bc,49.037446100000004,-122.26383290000001
