index,facility_name,odhf_facility_type,street_no,street_name,postal_code,city,province,latitude,longitude
363,9511 steveston highway,Nursing and residential care facilities,9511,steveston hwy,V7A1M7,richmond,bc,49.13373789999999,-123.1212091
427,azure group home,Nursing and residential care facilities,6531,azure rd,V7C2S1,richmond,bc,49.163382,-123.1552752
471,bethesda richmond home,Nursing and residential care facilities,7540,acheson road,V6Y1M9,richmond,bc,49.1598783,-123.1400007
472,bethesda south richmond home,Nursing and residential care facilities,10984,springmont gate,V7E1Y4,richmond,bc,49.134028799999996,-123.1915231
476,bethesda west richmond,Nursing and residential care facilities,10120,no 1 road,V7E1S2,richmond,bc,49.1399135,-123.18091969999999
481,birch station,Nursing and residential care facilities,5100,blundell rd,V7C1H4,richmond,bc,49.1553185,-123.1682267
542,camsell house,Nursing and residential care facilities,6631,camsell cres,V7C2M9,richmond,bc,49.169821500000005,-123.15589569999999
647,cook road medical clinic,Ambulatory health care services,100-8171,cook road,V6Y3T8,richmond,bc,49.166672999999996,-123.134096
658,courtyard gardens,Nursing and residential care facilities,7051,moffatt road,V6Y3W2,richmond,bc,49.162096999999996,-123.14416840000001
681,curzon house,Nursing and residential care facilities,7671,curzon st,V7C4H8,richmond,bc,49.1559857,-123.1511773
805,francis house,Nursing and residential care facilities,8640,cruickshank drive,V6Y2X6,richmond,bc,49.149711200000006,-123.1472723
813,fraserview intermediate care lodge,Nursing and residential care facilities,9580,williams road,V7A1H2,richmond,bc,49.1398092,-123.11747659999999
876,granville house,Nursing and residential care facilities,7315,no 4 road,V6Y2T4,richmond,bc,49.160059999999994,-123.11399999999999
888,gvcss - steveston group home,Nursing and residential care facilities,10351,steveston hwy,V7A1N3,richmond,bc,49.133770899999995,-123.1096721
889,gvcss - williams road home,Nursing and residential care facilities,4811,williams rd,V7E1J7,richmond,bc,49.1413308,-123.17244869999999
912,healthvue medical clinic,Ambulatory health care services,180-11700,cambie road,V6X1L5,richmond,bc,49.184267999999996,-123.09342
941,horizon house,Nursing and residential care facilities,10355,mcleod court,V6X3L3,richmond,bc,49.193443200000004,-123.1089233
997,khazamipour medical services,Ambulatory health care services,130-8120,cook road,V6Y1T9,richmond,bc,49.166534000000006,-123.13488999999998
1045,langton road,Nursing and residential care facilities,7611,langton rd,V7C4B4,richmond,bc,49.1570209,-123.16069440000001
1065,live well medical centre,Ambulatory health care services,160-8980,no 3 road,V6Y2E8,richmond,bc,49.148846,-123.136661
1131,mega fu medical,Ambulatory health care services,9251,alderbridge way,V6X0N1,richmond,bc,49.178089,-123.11986100000001
1144,milford home,Nursing and residential care facilities,10420,milford dr,V7A4J7,richmond,bc,49.139108,-123.1151772
1152,minoru residence,Nursing and residential care facilities,7333,gollner ave,V6Y1Y4,richmond,bc,49.16897,-123.15
1185,muscroft house,Nursing and residential care facilities,4433,francis road,V7C1J8,richmond,bc,49.148604,-123.1746239
1213,no. 5 road group home,Nursing and residential care facilities,10731,no 5 road,V7A4E6,richmond,bc,49.1340512,-123.09265330000001
1286,parker place medical clinic,Ambulatory health care services,4380,no 3 road,V6X3V7,richmond,bc,49.181670000000004,-123.1347
1309,pendleton house,Nursing and residential care facilities,9580,pendleton road,V7E4N1,richmond,bc,49.14485429999999,-123.17729070000001
1320,pinegrove place,Nursing and residential care facilities,11331,mellis drive,V6X1L8,richmond,bc,49.186792499999996,-123.09844709999999
1413,richfield group home,Nursing and residential care facilities,10591,bissett dr,V7A4K8,richmond,bc,49.1477141,-123.107216
1414,richmond central medical clinic,Ambulatory health care services,150-7997,westminster highway,V6X1A4,richmond,bc,49.170249,-123.136592
1415,richmond hospital,Hospitals,7000,westminster hwy,V6X1A2,richmond,bc,49.1689707,-123.14657700000001
1416,richmond hospital - child health centre,Hospitals,7000,westminster highway,V6X1A2,richmond,bc,49.168979,-123.146976
1417,richmond house,Nursing and residential care facilities,8691,no 2 rd,V7C3M4,richmond,bc,49.1492749,-123.1593858
1418,richmond in-store medical clinic,Ambulatory health care services,4651,no 3 road,V6X2C4,richmond,bc,49.179216,-123.13850900000001
1420,richmond lions manor - bridgeport,Nursing and residential care facilities,9020,bridgeport rd,V6X1S1,richmond,bc,49.191517100000006,-123.1251463
1432,robinson group home,Nursing and residential care facilities,8400,robinson rd,V6Y1B5,richmond,bc,49.149099799999995,-123.13037179999999
1440,rosewood manor,Nursing and residential care facilities,6260,blundell rd,V7C5C4,richmond,bc,49.1551041,-123.1553156
1532,southdale manor,Nursing and residential care facilities,10691,southdale road,V7A2W8,richmond,bc,49.1351705,-123.1195313
1563,steveston residence,Nursing and residential care facilities,11119,no 1 rd,V7E1S6,richmond,bc,49.132846,-123.182
1638,the richmond bridge house,Nursing and residential care facilities,10220,granville ave,V6Y1R4,richmond,bc,49.162539,-123.11076259999999
1675,turning point recovery society - richmond men's house,Nursing and residential care facilities,10411,odlin road,V6X1E3,richmond,bc,49.1820657,-123.1082596
1679,turning point richmond women's,Nursing and residential care facilities,10191,no 2 road,V7E2E4,richmond,bc,49.138995,-123.1593558
1759,wellness first medical clinic,Ambulatory health care services,140-10111,no 3 road,V7A1G3,richmond,bc,49.140190000000004,-123.1378
1768,west steveston medical clinic,Ambulatory health care services,3100-11666,steveston highway,V7A5J3,richmond,bc,49.132,-123.0961
1793,williams road group home,Nursing and residential care facilities,8380,williams rd,V7A1G6,richmond,bc,49.140605900000004,-123.13144380000001
1809,woodrich,Nursing and residential care facilities,7360,no 2 rd,V7C3L9,richmond,bc,49.1592408,-123.15844809999999
1811,woodwards home,Nursing and residential care facilities,5728,woodwards road,V7E1H1,richmond,bc,49.143749799999995,-123.1592847
