facility_name,index,odhf_facility_type,street_no,street_name,postal_code,city,province
Mango Medical Clinic,1089,Ambulatory health care services,4392,beresford street,V5H 0E7,burnaby,bc
Millers Way,1147,Nursing and residential care facilities,7710,15 ave,V3N 1W5,burnaby,bc
Nazirah House,1189,Nursing and residential care facilities,4560,imperial st,V5J 1B6,burnaby,bc
Nelson Avenue,1192,Nursing and residential care facilities,7077,nelson ave,V5J 4B9,burnaby,bc
Neville House,1196,Nursing and residential care facilities,5675,neville st,V5J 2J1,burnaby,bc
New Britton House,1197,Nursing and residential care facilities,7478,britton st,V3N 3A5,burnaby,bc
New Vista Care Home i,1200,Nursing and residential care facilities,7550,rosewood st,V5E 3Z3,burnaby,bc
Normanna Rest Home Ii,1217,Nursing and residential care facilities,7725,4 st,V3N 5B6,burnaby,bc
Oakland,1232,Nursing and residential care facilities,6110,sperling ave,V5E 2T9,burnaby,bc
Old Orchard Medical Clinic,1235,Ambulatory health care services,924005,kingsway,V5H 2A1,burnaby,bc
Orchard Heights,1243,Nursing and residential care facilities,5538,chaffey ave,V5H 2S2,burnaby,bc
Primecare Medical Centre,1342,Ambulatory health care services,201-7315,edmonds street,V3N 1A7,burnaby,bc
Rainbow Lodge,1376,Nursing and residential care facilities,7510,6 st,V3N 3M1,burnaby,bc
Randall House,1379,Nursing and residential care facilities,6610,gilley ave,V5C 5T5,burnaby,bc
Rosewood,1439,Nursing and residential care facilities,7916,rosewood st,V5E 2H3,burnaby,bc
Sardis House,1471,Nursing and residential care facilities,4521,sardis st,V5H 1K8,burnaby,bc
Sardis New Chaffey,1472,Nursing and residential care facilities,4751,sardis st,V5H 1L4,burnaby,bc
Shiloah,1492,Nursing and residential care facilities,7401,sussex ave,V5J 3V6,burnaby,bc
Sidley Street,1500,Nursing and residential care facilities,4942,sidley st,V5J 1T5,burnaby,bc
Spring Medical Centre,1536,Ambulatory health care services,4453,lougheed highway,V5C 3Z2,burnaby,bc
Station Square Medical Clinic,1559,Ambulatory health care services,150-6200,mckay avenue,V5H 4L7,burnaby,bc
the Crossing House,1611,Nursing and residential care facilities,4845,sardis st,V5H 1L4,burnaby,bc
Twelfth Avenue,1682,Nursing and residential care facilities,7755,12 ave,V3N 2K6,burnaby,bc
Vista House,1742,Nursing and residential care facilities,6108,neville st,V5J 2J6,burnaby,bc
Welcome Medical Clinic,1756,Ambulatory health care services,105-7885,6 street,V3N 3N4,burnaby,bc
Adrian House,376,Nursing and residential care facilities,948,howard ave,V5B 3R6,burnaby,bc
Altesse,390,Nursing and residential care facilities,3762,thurston st,V5H 1H7,burnaby,bc
Brentwood Medical Clinic,499,Ambulatory health care services,212-4567,lougheed highway,V5C 3Z6,burnaby,bc
Buckingham House,517,Nursing and residential care facilities,7516,imperial st,V5E 1P6,burnaby,bc
Burnaby Hospital,523,Hospitals,3935,kincaid st,V5G 2X6,burnaby,bc
Canway Medical Centre,544,Ambulatory health care services,4695,canada way,V5G 1K8,burnaby,bc
Carlton Gardens Care Centre,559,Nursing and residential care facilities,4108,norfolk st,V5G 0B4,burnaby,bc
Carson House,562,Nursing and residential care facilities,5155,carson st,V5J 2Z1,burnaby,bc
Charlford House,588,Nursing and residential care facilities,6845,kitchener st,V5B 2J8,burnaby,bc
Community Living Society - Neville House,639,Nursing and residential care facilities,5678,neville st,V5J 2H9,burnaby,bc
Cumberland House,679,Nursing and residential care facilities,7533,cumberland st,V3N 3X6,burnaby,bc
Dania Home,683,Nursing and residential care facilities,4175,norland ave,V4G 3Z6,burnaby,bc
Dawson Medical Clinic,688,Ambulatory health care services,4238,dawson street,V5C 0B8,burnaby,bc
Deer Lake House,690,Nursing and residential care facilities,6098,sperling ave,V5E 2T9,burnaby,bc
Duthie Avenue,721,Nursing and residential care facilities,1055,duthie ave,V5A 2R3,burnaby,bc
Eastlawn,733,Nursing and residential care facilities,1190,eastlawn dr,V5B 3H1,burnaby,bc
Edmonds House,739,Nursing and residential care facilities,7731,wedgewood st,V5E 2E5,burnaby,bc
Elicare Medical,746,Ambulatory health care services,9618,cameron street,V3J 1M2,burnaby,bc
Emily House,754,Nursing and residential care facilities,4672,neville st,V5J 2H1,burnaby,bc
Fair Haven Burnaby Lodge,766,Nursing and residential care facilities,7557,sussex ave,V5J 3V6,burnaby,bc
Finnish Manor,781,Nursing and residential care facilities,3460,kalyk ave,V5G 3B2,burnaby,bc
Forglen 5450,796,Nursing and residential care facilities,5450,forglen dr,V5H 3K7,burnaby,bc
Fraserside Residence,812,Nursing and residential care facilities,7738,gilley ave,V5J 4Y2,burnaby,bc
George Derby Centre,830,Nursing and residential care facilities,7550,cumberland st,V3N 3X5,burnaby,bc
