index,facility_name,odhf_facility_type,street_no,street_name,postal_code,city,province,latitude,longitude
1385,renfrew house,Nursing and residential care facilities,3402,worthington dr,V5M3X8,vancouver,bc,49.254321999999995,-123.0301071
1433,robson medical centre,Ambulatory health care services,238,robson street,V6B6A1,vancouver,bc,49.278437,-123.115388
1446,royal arch masonic home,Nursing and residential care facilities,7850,champlain cres,V5S4C7,vancouver,bc,49.213532799999996,-123.0288043
1457,s.u.c.c.e.s.s. simon k.y. lee seniors care home,Nursing and residential care facilities,555,carrall st,V6B2J8,vancouver,bc,49.279790000000006,-123.105
1466,salvation army harbour light centre,Nursing and residential care facilities,119,e cordova st,V6A1K8,vancouver,bc,49.282434,-123.101
1485,seymour health centre,Ambulatory health care services,1530,west 7 avenue,V6J1S3,vancouver,bc,49.26514,-123.1405
1489,shaw place,Nursing and residential care facilities,488,e 41 ave,V5W1P2,vancouver,bc,49.2326234,-123.0949923
1513,simply wellness,Ambulatory health care services,1818,kingsway,V5N2S7,vancouver,bc,49.246217,-123.067617
1514,sina pharmacy and health centre,Ambulatory health care services,505,smithe street,V6B6H1,vancouver,bc,49.279476,-123.11935
1524,sophia house,Nursing and residential care facilities,4824,sophia st,V5V3W6,vancouver,bc,49.241574799999995,-123.0982494
1526,south granville park lodge,Nursing and residential care facilities,1645,w 14 ave,V6J2J4,vancouver,bc,49.259225,-123.14200000000001
1531,south vancouver medical clinic,Ambulatory health care services,350,marine drive se,V5X2S5,vancouver,bc,49.20884,-123.0993
1546,st. jude's anglican home,Nursing and residential care facilities,810,w 27 ave,V5Z2G7,vancouver,bc,49.2468877,-123.12273259999999
1549,st. paul's hospital - burrard building,Hospitals,1081,burrard street,V6Z1Y6,vancouver,bc,49.280614,-123.12891299999998
1550,st. paul's hospital - providence building,Hospitals,1081,burrard street,V6Z1Y6,vancouver,bc,49.280614,-123.12891299999998
1551,st. paul's hospital - providence ii building,Hospitals,1081,burrard street,V6Z1Y6,vancouver,bc,49.280614,-123.12891299999998
1553,st. vincent's brock fahrni pavilion,Nursing and residential care facilities,4650,oak st,V6H4J4,vancouver,bc,49.243305,-123.12321200000001
1554,st. vincent's langara,Nursing and residential care facilities,255,w 62 ave,V5X2E2,vancouver,bc,49.214793,-123.1112858
1558,starburst home care,Nursing and residential care facilities,665,e 27 ave,V5V2K7,vancouver,bc,49.246892200000005,-123.0909955
1573,sunny hill health centre for children,Nursing and residential care facilities,3644,slocan st,V5M3E8,vancouver,bc,49.25197429999999,-123.0482504
1577,sunrise of vancouver,Nursing and residential care facilities,999,w 57 ave,V6P6Y9,vancouver,bc,49.219576200000006,-123.1278011
1591,tanner house,Nursing and residential care facilities,3402,e 29 ave,V5R1W7,vancouver,bc,49.2442213,-123.0313165
1613,the doctors' office,Ambulatory health care services,101-777,west broadway,V5Z4J7,vancouver,bc,49.263577000000005,-123.12153799999999
1650,three links care centre,Nursing and residential care facilities,2934,e 22 ave,V5M2Y4,vancouver,bc,49.2503144,-123.0429307
1652,tilikum house,Nursing and residential care facilities,3126,grandview hwy,V5M2E8,vancouver,bc,49.2578371,-123.03837140000002
1657,together we can,Nursing and residential care facilities,2831,kingsway,V5R5H9,vancouver,bc,49.236999,-123.04700000000001
1676,turning point recovery society - vancouver,Nursing and residential care facilities,445/455,w 13 ave,V5Y1W4,vancouver,bc,49.259694399999994,-123.1138887
1691,ultima medical services,Ambulatory health care services,1055,dunsmuir street,V7X1L4,vancouver,bc,49.2864911,-123.1213
1692,una medical clinic,Ambulatory health care services,1027,west 15 avenue,V6H1R7,vancouver,bc,49.257857,-123.127501
1705,vancouver detoxification centre,Nursing and residential care facilities,377,e 2 ave,V5T1B9,vancouver,bc,49.267258,-123.09700000000001
1706,vancouver general hospital,Hospitals,855,w 12 ave,V5Z1M9,vancouver,bc,49.261616,-123.12391129999999
1707,vancouver general hospital - banfield pavilion,Hospitals,2785,ash street,V5Z1M9,vancouver,bc,49.261231,-123.118806
1708,vancouver general hospital - gordon and leslie diamond health care centre,Hospitals,2775,laurel street,V5Z1M9,vancouver,bc,49.261187,-123.12565500000001
1709,vancouver general hospital - health centre,Hospitals,715,west 12 avenue,V5Z1N1,vancouver,bc,49.26052,-123.12084899999999
1710,vancouver general hospital - jim pattison pavilion,Hospitals,899,west 12 avenue,V5Z1M9,vancouver,bc,49.260558,-123.124094
1711,vancouver general hospital - leon judah blackmore pavilion,Hospitals,855,12 avenue,V5Z1M9,west vancouver,bc,49.260542,-123.122823
1712,vancouver general hospital - willow pavilion,Hospitals,805,west 12 avenue,V5Z1M9,vancouver,bc,49.26051,-123.12200000000001
1715,vancouver hospice,Nursing and residential care facilities,4615,granville st,V6H3M1,vancouver,bc,49.24427,-123.14
1716,vancouver hospital and health sciences centre,Hospitals,899,12 ave,V5Z1M9,w vancouver,bc,49.260571999999996,-123.124372
1722,venture,Nursing and residential care facilities,220,e 13 ave,V5T2K4,vancouver,bc,49.2590505,-123.10028840000001
1734,victory house,Nursing and residential care facilities,353,e cordova st,V6A1L4,vancouver,bc,49.28248129999999,-123.09636299999998
1736,villa carital,Nursing and residential care facilities,3050,penticton st,V5M4W2,vancouver,bc,49.256583899999995,-123.0521465
1737,villa cathay care home,Nursing and residential care facilities,970,union st,V6A3V1,vancouver,bc,49.277208,-123.084
1740,virginia house,Nursing and residential care facilities,1754,w 11 ave,V6J2C3,vancouver,bc,49.2615516,-123.14476409999999
1741,vista,Nursing and residential care facilities,3360,fleming st,V5N3V5,vancouver,bc,49.254868,-123.071
1753,waterloo rest home ltd,Nursing and residential care facilities,1835,waterloo st,V6R3G5,vancouver,bc,49.2697648,-123.17999440000001
1754,wave medical clinic,Ambulatory health care services,201-1160,burrard street,V6Z2E8,vancouver,bc,49.279513,-123.12848000000001
1761,west 63rd home,Nursing and residential care facilities,369,w 63 ave,V5X2J1,vancouver,bc,49.213449700000005,-123.11393559999999
1803,windermere care centre,Nursing and residential care facilities,900,w 12 ave,V5Z1N3,vancouver,bc,49.260325,-123.125
