facility_name,index,odhf_facility_type,street_no,street_name,postal_code,city,province
Bethayne House,465,Nursing and residential care facilities,17412,58a ave,V3S 1M8,surrey,bc
Bethesda Surrey Home,473,Nursing and residential care facilities,16321,108 ave,V3R 6C5,surrey,bc
Bethesda West Abbotsford Home,474,Nursing and residential care facilities,31126,kingfisher dr,V2T 5K4,abbotsford,bc
Beyond Health and Medical Centre,479,Ambulatory health care services,101-19211,fraser highway,V3S 7C9,surrey,bc
Boundary Park Medical Centre,492,Ambulatory health care services,115-6350,120 street,V3X 3K1,surrey,bc
Brickyard Medical Clinic,500,Ambulatory health care services,150-17475,56 avenue,V3S 2X6,surrey,bc
Brookside Lodge,512,Nursing and residential care facilities,19550,fraser hwy,V3S 6K5,surrey,bc
Careplace Medical Centre,553,Ambulatory health care services,306-9014,152 street,V3R 4E7,surrey,bc
Celebration & Rainbow Manor,577,Nursing and residential care facilities,10130,159a st,V4N 2P8,surrey,bc
Cherington Place,596,Nursing and residential care facilities,13453,111a ave,V3R 2C5,surrey,bc
Civic Family Health Centre,613,Ambulatory health care services,110-13588,88 avenue,V3W 3K8,surrey,bc
Clayton Heights Medical Clinic,615,Ambulatory health care services,204-18730,fraser highway,V3S 7Y4,surrey,bc
Clover Care Medical Clinic,617,Ambulatory health care services,102-17770,56 avenue,V3S 1C7,surrey,bc
Cloverhill Medical Clinic,619,Ambulatory health care services,111-18438,64 avenue,V3S 1E9,surrey,bc
COLEBROOKÃ‚ MEDICAL CLINIC,627,Ambulatory health care services,107-15240,56 avenue,V3S 5K7,surrey,bc
Coopershawk Court,648,Nursing and residential care facilities,8041,coopershawk ct,V3W 0V1,surrey,bc
"Crawford Manor (""a"")",662,Nursing and residential care facilities,10008,128 st,V3T 2Y9,surrey,bc
Crescent Gardens,664,Nursing and residential care facilities,1222,king george blvd,V4A 9W6,surrey,bc
Cresst - South Fraser,666,Nursing and residential care facilities,13525,98 ave,V3T 1B9,surrey,bc
Cristina Home,672,Nursing and residential care facilities,14336,88 ave,V3W 3L7,surrey,bc
Croydon Villa,678,Nursing and residential care facilities,2828,croydon dr,V3S 0C5,surrey,bc
Denning Health Group,699,Ambulatory health care services,3110-10153,king george highway,V3T 2W1,surrey,bc
Ehn Canada White Rock Mental Health Services Inc,741,Nursing and residential care facilities,2567,king george blvd,V4P 1H5,surrey,bc
Elgin House,745,Nursing and residential care facilities,2942,144 st,V4P 1P6,surrey,bc
Evergreen Hamlets at Fleetwood,761,Nursing and residential care facilities,8382,156 st,V3S 3R7,surrey,bc
Fifty Fourth Avenue Home,778,Nursing and residential care facilities,12780,54 ave,V3X 3C2,surrey,bc
First Canadian Medical Clinic,783,Ambulatory health care services,14888,104 avenue,V3R 1M4,surrey,bc
Fleetwood House,789,Nursing and residential care facilities,9407,161 st,V4N 2P3,surrey,bc
Fleetwood Place,790,Nursing and residential care facilities,16011,83 ave,V4N 0N2,surrey,bc
Green Cross Medical Clinic and Pharmacy,879,Ambulatory health care services,115-6363,168 street,V3S 3Y2,surrey,bc
Guildford Medical Clinic,886,Ambulatory health care services,14650,104 avenue,V3R 1M3,surrey,bc
Guildford Seniors Village,887,Nursing and residential care facilities,14568,104a ave,V3R 1R3,surrey,bc
Harrison at Elim Village,902,Nursing and residential care facilities,9025,160 st,V4N 2X7,surrey,bc
Hazelmere Lodge Ltd.,909,Nursing and residential care facilities,19475,16 ave,V3Z 9V2,surrey,bc
Hillside Lodge Ltd,927,Nursing and residential care facilities,10592,125b st,V3V 5A7,surrey,bc
Hilltop Medical Clinic,931,Ambulatory health care services,107-15331,16 avenue,V4A 0C1,surrey,bc
Hilton Villa Care Centre,932,Nursing and residential care facilities,13525,hilton rd,V3R 5J3,surrey,bc
Holly Park House,934,Nursing and residential care facilities,14557,105a ave,V3R 1S2,surrey,bc
Jim Pattison Outpatient Care and Surgery Centre,969,Hospitals,9750,140 street,V3T 0G9,surrey,bc
