facility_name,index,odhf_facility_type,street_no,street_name,postal_code,city,province
Mentmore,1137,Nursing and residential care facilities,523,mentmore st,V3J 4P5,coquitlam,bc
Montgomery House,1159,Nursing and residential care facilities,227,montgomery st,V3K 5E7,coquitlam,bc
Mundy Street Residence,1181,Nursing and residential care facilities,316,mundy st,V3K 5M4,coquitlam,bc
Pinetree Lodge,1321,Nursing and residential care facilities,1370,el camino dr,V3E 2W6,coquitlam,bc
Plateau Medical Clinic,1323,Ambulatory health care services,1410,parkway boulevard,V3E 3J7,coquitlam,bc
Porter Lane,1336,Nursing and residential care facilities,1107,como lake ave,V3J 3N9,coquitlam,bc
Quadling House a,1359,Nursing and residential care facilities,820,quadling ave,V3K 2A4,coquitlam,bc
Raven House,1380,Nursing and residential care facilities,841,levis st,V3J 6A2,coquitlam,bc
Riverview Hospital,1430,Hospitals,2601,lougheed hwy,V3C 4J2,coquitlam,bc
Sakura House,1464,Nursing and residential care facilities,566,schoolhouse st,V3J 5P3,coquitlam,bc
Shaw House,1488,Nursing and residential care facilities,560,shaw ave,V3K 2R1,coquitlam,bc
Sunwood Medical Clinic,1581,Ambulatory health care services,3000,lougheed highway,V3B 1C5,coquitlam,bc
Well Medical Clinic,1757,Ambulatory health care services,109-1001,austin avenue,V3K 3N9,coquitlam,bc
Wingate House,1805,Nursing and residential care facilities,1234,winslow ave,V3J 2G2,coquitlam,bc
917 Foster,361,Nursing and residential care facilities,917,foster ave,V3J 2L8,coquitlam,bc
Able Care Medical Clinic,371,Ambulatory health care services,56-2991,lougheed highway,V3B 6J6,coquitlam,bc
Alice Lake Place Group Home,387,Nursing and residential care facilities,2724,alice lake pl,V3C 5W8,coquitlam,bc
Caremart Medical,552,Ambulatory health care services,2929,barnet highway,V3B 5R5,coquitlam,bc
Cartier House Care Centre,563,Nursing and residential care facilities,1419,cartier ave,V3K 2C6,coquitlam,bc
Catherine House,568,Nursing and residential care facilities,809,catherine ave,V3J 4L6,coquitlam,bc
Cochrane House,626,Nursing and residential care facilities,567,cochrane ave,V3J 2A3,coquitlam,bc
Como Lake House,640,Nursing and residential care facilities,1433,como lake ave,V3J 3P5,coquitlam,bc
Decaire House,689,Nursing and residential care facilities,498,decaire st,V3K 5A3,coquitlam,bc
Evergreen House,762,Nursing and residential care facilities,638,kemsley ave,V3J 3Z3,coquitlam,bc
Fleet Street Group Home,788,Nursing and residential care facilities,2994,fleet st,V3C 3R8,coquitlam,bc
Foothills Medical Clinic,792,Ambulatory health care services,203-3387,david avenue,V3E 0K4,coquitlam,bc
Foyer Maillard,804,Nursing and residential care facilities,1010,alderson ave,V3K 1W1,coquitlam,bc
