index,facility_name,odhf_facility_type,street_no,street_name,postal_code,city,province,latitude,longitude
334,11a home,Nursing and residential care facilities,5145,11a ave,V4M1Z7,delta,bc,49.024152799999996,-123.0812712
420,augustine house,Nursing and residential care facilities,3820,arthur dr,V4K5E6,delta,bc,49.0730448,-123.0769909
532,cabeldu,Nursing and residential care facilities,6473,cabeldu cres,V4E1R2,delta,bc,49.1204814,-122.9062557
598,chestnut house,Nursing and residential care facilities,4576,55b st,V4K3W5,delta,bc,49.0860239,-123.0685534
610,christel house,Nursing and residential care facilities,11753,82 ave,V4C2C3,delta,bc,49.152412,-122.897278
668,crestlene lodge ltd,Nursing and residential care facilities,11660,86 ave,V4C2X6,delta,bc,49.1593008,-122.8997933
693,delta hospital,Hospitals,5800,mountain view blvd,V4K3V6,delta,bc,49.0856773,-123.06188359999999
694,delta house,Nursing and residential care facilities,7415,116a st,V2X2Z3,delta,bc,49.1377685,-122.90048829999999
695,delta lodge,Nursing and residential care facilities,11030,river rd,V4C2S2,delta,bc,49.1699318,-122.9145102
696,delta medical center,Ambulatory health care services,140-4977,trenant street,V4K2K5,delta,bc,49.09232,-123.085306
743,eightieth avenue house,Nursing and residential care facilities,11448,80 ave,V4C1X3,delta,bc,49.148371999999995,-122.90575
755,english bluff,Nursing and residential care facilities,4836,13 ave,V4M2B8,delta,bc,49.0260605,-123.0898037
832,georgia house,Nursing and residential care facilities,4812,georgia st,V4K2S9,delta,bc,49.0905341,-123.0876367
942,house 4,Nursing and residential care facilities,3800,72 st,V4K3N2,delta,bc,49.071478000000006,-123.023601
954,irene thomas hospice,Nursing and residential care facilities,4635,clarence taylor cres,V4K4L8,delta,bc,49.086884000000005,-123.06008700000001
1009,kinvillage,Nursing and residential care facilities,5410,10 ave,V4M3X8,delta,bc,49.0214852,-123.07364799999999
1028,ladner 1,Nursing and residential care facilities,5281,westminster ave,V4K2J4,delta,bc,49.099275,-123.07606990000001
1139,mercy medical clinic,Ambulatory health care services,7155,120 street,V4E2B1,delta,bc,49.132875,-122.89259399999999
1225,northcrest care centre ltd.,Nursing and residential care facilities,6771,120 st,V4E2A7,delta,bc,49.126442,-122.8911054
1343,primrose centre for community living,Nursing and residential care facilities,4807,georgia st,V4K2T1,delta,bc,49.090422499999995,-123.08850600000001
1375,rai medical clinic,Ambulatory health care services,101-6905,120 street,V4E2A8,delta,bc,49.128771,-122.89095
1646,the waterford,Nursing and residential care facilities,1345,56 st,V4L2P9,delta,bc,49.0271841,-123.07016029999998
