index,facility_name,odhf_facility_type,street_no,street_name,postal_code,city,province,latitude,longitude
752,emerald place,Nursing and residential care facilities,15,renfrew st,V5K4A5,vancouver,bc,49.2845069,-123.0445436
753,emerge addiction recovery program,Nursing and residential care facilities,415,w pender st,V6B1V2,vancouver,bc,49.28313320000001,-123.1119351
767,fair haven homes vancouver lodge,Nursing and residential care facilities,2720,e 48 ave,V5S1G7,vancouver,bc,49.225367799999994,-123.05136940000001
772,false creek residence,Nursing and residential care facilities,1167,forge walk,V6H3R1,vancouver,bc,49.267340000000004,-123.12899999999999
780,finnish home,Nursing and residential care facilities,2288,harrison dr,V5P2P6,vancouver,bc,49.20822879999999,-123.06074540000002
784,firstcare medical centre,Ambulatory health care services,2590,commercial drive,V5N4C2,vancouver,bc,49.261542,-123.069778
794,forensic psychiatric hospital (forensic psychiatric services commission),Hospitals,70,colony farm rd,V3C5X9,port coquitlam,bc,49.263318,-123.11141699999999
803,fourth and alma,Nursing and residential care facilities,3625,w 4 ave,V6R1P2,vancouver,bc,49.268865000000005,-123.1845142
817,g.f. strong rehabilitation centre,Nursing and residential care facilities,4255,laurel st,V5Z2G9,vancouver,bc,49.246789,-123.12541499999999
831,george pearson centre,Nursing and residential care facilities,700,west 57 ave,V6P1S1,vancouver,bc,49.21877,-123.121144
833,georgia medical clinic,Ambulatory health care services,683,denman street,V6G2L3,vancouver,bc,49.292361,-123.134202
834,german canadian care home,Nursing and residential care facilities,2010,harrison dr,V5P2P6,vancouver,bc,49.2098793,-123.0651145
840,gladstone house ( l & t services),Nursing and residential care facilities,2182,e 30 ave,V5N3A6,vancouver,bc,49.24299439999999,-123.0635011
841,gladstone street group home,Nursing and residential care facilities,5425,gladstone st,V5P4S1,vancouver,bc,49.2356384,-123.0623051
877,granville medical clinic,Ambulatory health care services,2578,granville street,V6H3G8,vancouver,bc,49.262912,-123.13856499999999
900,haro park centre,Nursing and residential care facilities,1233,haro st,V6E3Y5,vancouver,bc,49.285771000000004,-123.12899999999999
904,hastings sunrise medical clinic,Ambulatory health care services,102-2280,east hastings street,V5L1V4,vancouver,bc,49.280892,-123.05828400000001
911,health and home care society of british columbia,Nursing and residential care facilities,2711,e 49 ave,V5S1K3,vancouver,bc,49.224896,-123.051
937,holy family hospital,Hospitals,7801,argyle street,V5P3L6,vancouver,bc,49.213284,-123.073098
964,jasper crescent care home,Nursing and residential care facilities,7887,jasper cres,V5P3T2,vancouver,bc,49.212233000000005,-123.06653020000002
972,journeys,Nursing and residential care facilities,3318,e 2 ave,V5M1G5,vancouver,bc,49.2682035,-123.0330655
988,keefer medical clinic,Ambulatory health care services,118,keefer street,V6A1X4,vancouver,bc,49.279292,-123.101951
993,kerrisdale medical clinic,Ambulatory health care services,2077,west 42 avenue,V6M2B4,vancouver,bc,49.233569,-123.154106
1003,king edward house,Nursing and residential care facilities,820,e king edward ave,V5V2E4,vancouver,bc,49.2483529,-123.08704479999999
1025,kopernik lodge,Nursing and residential care facilities,3150,rosemont dr,V5S2C9,vancouver,bc,49.21522,-123.039
1037,lakeside house,Nursing and residential care facilities,3597,gladstone st,V5N4Y8,vancouver,bc,49.250461,-123.06048770000001
1054,leaside place,Nursing and residential care facilities,1807,e 64 ave,V5P2M9,vancouver,bc,49.2121813,-123.06893500000001
1062,little mountain place,Nursing and residential care facilities,330,e 36 ave,V5W3Z4,vancouver,bc,49.2376636,-123.09985320000001
1068,louis brier home,Nursing and residential care facilities,1055,w 41 ave,V6M1W9,vancouver,bc,49.23448,-123.12899999999999
1070,louis brier hospital,Nursing and residential care facilities,1055,w 41 ave,V6M1W9,vancouver,bc,49.2340705,-123.1293368
1071,loyal medical clinic,Ambulatory health care services,112-1055,west georgia street,V6E3P1,vancouver,bc,49.285409,-123.12195
1093,maple medical clinic,Ambulatory health care services,103-2025,west broadway,V6J1Z6,vancouver,bc,49.263853999999995,-123.151159
1104,marine gateway medical clinic,Ambulatory health care services,301-470,sw marine drive,V5X0C4,vancouver,bc,49.210378999999996,-123.11683000000001
1113,matters of health medical clinic,Ambulatory health care services,5591,west boulevard,V6M3W6,vancouver,bc,49.235586,-123.155556
1115,may's place,Nursing and residential care facilities,333,powell st,V6A1G5,vancouver,bc,49.28324,-123.09700000000001
1132,melody house,Nursing and residential care facilities,1730,macdonald st,V6K3X8,vancouver,bc,49.270557000000004,-123.1681564
1140,mid-main community health centre,Ambulatory health care services,3998,main street,V5V3P2,vancouver,bc,49.249493,-123.10061100000001
1166,mount saint joseph hospital,Hospitals,3080,prince edward street,V5T3N4,vancouver,bc,49.257699,-123.09635800000001
1169,mount st. joseph hospital - extended care unit,Nursing and residential care facilities,3080,prince edward st,V5T3N4,vancouver,bc,49.25788,-123.095
1240,onsite detox and transitional housing,Nursing and residential care facilities,137,e hastings st,V6A1N5,vancouver,bc,49.2816658,-123.1012105
1258,our place,Nursing and residential care facilities,287,e 33 ave,V5V2Z7,vancouver,bc,49.2407212,-123.09933259999998
1262,pacific medical clinic,Ambulatory health care services,6176,fraser street,V5W3A1,vancouver,bc,49.2286,-123.09063200000001
1264,pacifica treatment centre,Nursing and residential care facilities,1755,e 11 ave,V5N1Y9,vancouver,bc,49.2607112,-123.0684104
1308,pender house,Nursing and residential care facilities,2596,e pender st,V5K2B5,vancouver,bc,49.279942,-123.052
1328,point grey medical clinic,Ambulatory health care services,4448,west 10 avenue,V6R2H9,vancouver,bc,49.26383,-123.20751100000001
1349,providence health care (administrative office) - st. paul's hospital,Hospitals,1081,burrard st,V6Z1Y6,vancouver,bc,49.280516,-123.1281872
1350,providence health care - holy family hospital,Nursing and residential care facilities,7801,argyle st,V5P3L6,vancouver,bc,49.212701,-123.07308
1351,providence health care - mount saint joseph hospital,Hospitals,3080,prince edward st,V5T3N4,vancouver,bc,49.258002000000005,-123.095299
1358,qe park medical clinic,Ambulatory health care services,4060,cambie street,V5Z2X8,vancouver,bc,49.249472999999995,-123.11521599999999
