index,facility_name,odhf_facility_type,street_no,street_name,postal_code,city,province,latitude,longitude
394,amica at edgemont village,Nursing and residential care facilities,3225,highland blvd,V7R0A3,north vancouver,bc,49.33829,-123.101
440,barlynn house,Nursing and residential care facilities,1240,barlynn crescent,V7J1P6,north vancouver,bc,49.3286133,-123.0398721
459,berkley care centre,Nursing and residential care facilities,2444,burr pl,V7H3A5,north vancouver,bc,49.312278000000006,-123.006
488,blueridge house,Nursing and residential care facilities,2669,standish dr,V7H1M9,north vancouver,bc,49.3249901,-123.00026399999999
546,capilano house,Nursing and residential care facilities,4410,capilano road,V7R4J9,north vancouver,bc,49.3511,-123.107354
547,capilano road,Nursing and residential care facilities,4537,capilano rd,V7R4K2,north vancouver,bc,49.35321029999999,-123.1074121
550,carefiniti health corporation,Ambulatory health care services,101-1277,marine drive,V7P1T3,north vancouver,bc,49.323719,-123.109974
560,carnation house,Nursing and residential care facilities,2524,carnation street,V7H1H5,north vancouver,bc,49.318318700000006,-123.00458859999999
576,cedarview lodge,Nursing and residential care facilities,1200,cedar village close,V7J3P3,north vancouver,bc,49.326053,-123.04
628,coleman street group home,Nursing and residential care facilities,1693,coleman st,V7K1X2,north vancouver,bc,49.3504116,-123.0254987
736,edgemont house,Nursing and residential care facilities,2490,edgemont blvd,V7R2M8,north vancouver,bc,49.3328531,-123.0948838
737,edgemont medical clinic,Ambulatory health care services,104-3053,edgemont boulvard n,V7R2N5,vancouver,bc,49.336925,-123.10161799999999
814,frederick road,Nursing and residential care facilities,1075,frederick road,V7K1H9,north vancouver,bc,49.3416966,-123.04401750000001
950,integrated wellness medical clinic,Ambulatory health care services,502-1150,marine drive,V7P1S8,north vancouver,bc,49.324315999999996,-123.105667
994,kerrstead place,Nursing and residential care facilities,1608,kerrstead pl,V7J3T4,north vancouver,bc,49.338103499999995,-123.03023859999999
998,khyaht ayahm,Nursing and residential care facilities,3895,phyllis rd,V7K2T7,north vancouver,bc,49.3445718,-123.02374070000002
999,kilmer house,Nursing and residential care facilities,1434,kilmer road,V7K1R2,north vancouver,bc,49.346388399999995,-123.0341251
1067,loraine avenue,Nursing and residential care facilities,3908,loraine ave,V7R4B8,north vancouver,bc,49.34458729999999,-123.1065884
1075,lynn valley care centre,Nursing and residential care facilities,1070,lynn valley road,V7J1Z8,north vancouver,bc,49.33396,-123.045
1076,lynn valley house,Nursing and residential care facilities,1525/1527,lynn valley road,V7J2B1,north vancouver,bc,49.340396000000005,-123.0310686
1078,lynn valley medical and travel clinic,Ambulatory health care services,102-1200,lynn valley road,V7J2A2,north vancouver,bc,49.33592,-123.0412
1082,maginnis avenue,Nursing and residential care facilities,3660,maginnis avenue n,V7K2L6,vancouver,bc,49.342687100000006,-123.03414199999999
1168,mount seymour parkway house,Nursing and residential care facilities,3403,mt seymour pkwy,V7H1G4,north vancouver,bc,49.3153534,-122.97735449999999
1188,nancy greene way,Nursing and residential care facilities,5793,nancy greene way,V7R4W4,north vancouver,bc,49.3687958,-123.100531
1203,newmarket drive,Nursing and residential care facilities,2985,newmarket dr,V7R2T7,north vancouver,bc,49.3365841,-123.10268529999999
1228,northshore medical clinic,Ambulatory health care services,101-1171,marine drive,V7P1T1,north vancouver,bc,49.323377,-123.10657900000001
1229,norwood house,Nursing and residential care facilities,3636,norwood ave,V7N3P7,north vancouver,bc,49.3429472,-123.0767595
1257,our house,Nursing and residential care facilities,2620,hoskins road,V7J3A3,north vancouver,bc,49.3323066,-123.02578090000002
1307,pemberton marine medical clinic,Ambulatory health care services,1224,marine drive,V7P1T2,north vancouver,bc,49.32489,-123.1098
1313,peters road house,Nursing and residential care facilities,1904,peters road,V7J1Y9,north vancouver,bc,49.341873,-123.02222140000002
1327,plymouth group home,Nursing and residential care facilities,972,plymouth dr,V7H2J1,north vancouver,bc,49.31471810000001,-122.99203030000001
1442,ross road home,Nursing and residential care facilities,1680,ross rd,V7J1V4,north vancouver,bc,49.3362883,-123.02776809999999
1493,shone house,Nursing and residential care facilities,4060,shone rd,V7G2N4,north vancouver,bc,49.3187921,-122.95930320000001
1576,sunrise of lynn valley,Nursing and residential care facilities,980,lynn valley rd,V7J3V7,north vancouver,bc,49.3326532,-123.0472914
1667,trillium house,Nursing and residential care facilities,2749,wyat pl,V7H1K5,north vancouver,bc,49.3206867,-122.9980666
1677,turning point recovery society north shore men's,Nursing and residential care facilities,2431,burr pl,V7H0B9,north vancouver,bc,49.312108,-123.005
1678,turning point recovery society north shore women's,Nursing and residential care facilities,2670,lloyd ave,V7R3X1,north vancouver,bc,49.334326000000004,-123.104
1749,walpole house,Nursing and residential care facilities,2597,walpole crescent,V7H1K6,north vancouver,bc,49.3216264,-123.0014172
1804,windridge house,Nursing and residential care facilities,2209,windridge dr,V7H1B6,north vancouver,bc,49.309766700000004,-123.01420420000001
