index,facility_name,odhf_facility_type,street_no,street_name,postal_code,city,province,latitude,longitude
339,13333 - 20th avenue,Nursing and residential care facilities,13333,20 ave,V4A1Z3,surrey,bc,49.038953,-122.85258200000001
355,5960 angus place,Nursing and residential care facilities,5960,angus pl,V3S4W7,surrey,bc,49.110777,-122.747127
356,5984 - 191a street,Nursing and residential care facilities,5984,191a st,V3S7N1,surrey,bc,49.110683200000004,-122.69183500000001
399,amica white rock,Nursing and residential care facilities,15333,16 ave,V4A1R6,surrey,bc,49.031330600000004,-122.7979716
411,archway house,Nursing and residential care facilities,5933,168 st,V3S3X5,surrey,bc,49.110294399999994,-122.75686340000001
419,aster house,Nursing and residential care facilities,15625,aster rd,V4A1Y4,surrey,bc,49.037309,-122.789768
429,bakerview court,Nursing and residential care facilities,18919,62a ave,V3S8S4,surrey,bc,49.11592,-122.698825
465,bethayne house,Nursing and residential care facilities,17412,58a ave,V3S1M8,surrey,bc,49.108379,-122.74014299999999
473,bethesda surrey home,Nursing and residential care facilities,16321,108 ave,V3R6C5,surrey,bc,49.1989643,-122.77015800000001
474,bethesda west abbotsford home,Nursing and residential care facilities,31126,kingfisher dr,V2T5K4,abbotsford,bc,49.199194,-122.770159
479,beyond health and medical centre,Ambulatory health care services,101-19211,fraser highway,V3S7C9,surrey,bc,49.11913,-122.6903
492,boundary park medical centre,Ambulatory health care services,115-6350,120 street,V3X3K1,surrey,bc,49.118235,-122.89017199999999
500,brickyard medical clinic,Ambulatory health care services,150-17475,56 avenue,V3S2X6,surrey,bc,49.10453,-122.7394
512,brookside lodge,Nursing and residential care facilities,19550,fraser hwy,V3S6K5,surrey,bc,49.114096999999994,-122.681031
553,careplace medical centre,Ambulatory health care services,306-9014,152 street,V3R4E7,surrey,bc,49.16775,-122.7998
577,celebration & rainbow manor,Nursing and residential care facilities,10130,159a st,V4N2P8,surrey,bc,49.186507,-122.77991000000002
596,cherington place,Nursing and residential care facilities,13453,111a ave,V3R2C5,surrey,bc,49.205653000000005,-122.84933400000001
613,civic family health centre,Ambulatory health care services,110-13588,88 avenue,V3W3K8,surrey,bc,49.162652,-122.846488
615,clayton heights medical clinic,Ambulatory health care services,204-18730,fraser highway,V3S7Y4,surrey,bc,49.128209999999996,-122.7067
617,clover care medical clinic,Ambulatory health care services,102-17770,56 avenue,V3S1C7,surrey,bc,49.10265,-122.7301
619,cloverhill medical clinic,Ambulatory health care services,111-18438,64 avenue,V3S1E9,surrey,bc,49.118604,-122.711505
627,colebrook√¢ medical clinic,Ambulatory health care services,107-15240,56 avenue,V3S5K7,surrey,bc,49.103543,-122.799043
648,coopershawk court,Nursing and residential care facilities,8041,coopershawk ct,V3W0V1,surrey,bc,49.150452,-122.828694
662,"crawford manor (""a"")",Nursing and residential care facilities,10008,128 st,V3T2Y9,surrey,bc,49.18459910000001,-122.8673672
664,crescent gardens,Nursing and residential care facilities,1222,king george blvd,V4A9W6,surrey,bc,49.024671000000005,-122.76523600000002
666,cresst - south fraser,Nursing and residential care facilities,13525,98 ave,V3T1B9,surrey,bc,49.1806892,-122.8476199
672,cristina home,Nursing and residential care facilities,14336,88 ave,V3W3L7,surrey,bc,49.162594,-122.825181
678,croydon villa,Nursing and residential care facilities,2828,croydon dr,V3S0C5,surrey,bc,49.053692,-122.793128
699,denning health group,Ambulatory health care services,3110-10153,king george highway,V3T2W1,surrey,bc,49.18544,-122.8474
741,ehn canada white rock mental health services inc,Nursing and residential care facilities,2567,king george blvd,V4P1H5,surrey,bc,49.048515,-122.797706
745,elgin house,Nursing and residential care facilities,2942,144 st,V4P1P6,surrey,bc,49.055582,-122.82293700000001
761,evergreen hamlets at fleetwood,Nursing and residential care facilities,8382,156 st,V3S3R7,surrey,bc,49.155213,-122.78985300000001
778,fifty fourth avenue home,Nursing and residential care facilities,12780,54 ave,V3X3C2,surrey,bc,49.100283000000005,-122.868452
783,first canadian medical clinic,Ambulatory health care services,14888,104 avenue,V3R1M4,surrey,bc,49.191351,-122.80976000000001
789,fleetwood house,Nursing and residential care facilities,9407,161 st,V4N2P3,surrey,bc,49.173384000000006,-122.77644199999999
790,fleetwood place,Nursing and residential care facilities,16011,83 ave,V4N0N2,surrey,bc,49.153895,-122.778049
879,green cross medical clinic and pharmacy,Ambulatory health care services,115-6363,168 street,V3S3Y2,surrey,bc,49.117839000000004,-122.756821
886,guildford medical clinic,Ambulatory health care services,14650,104 avenue,V3R1M3,surrey,bc,49.191481,-122.815324
887,guildford seniors village,Nursing and residential care facilities,14568,104a ave,V3R1R3,surrey,bc,49.192422,-122.8183
902,harrison at elim village,Nursing and residential care facilities,9025,160 st,V4N2X7,surrey,bc,49.1669154,-122.78132509999999
909,hazelmere lodge ltd.,Nursing and residential care facilities,19475,16 ave,V3Z9V2,surrey,bc,49.031543,-122.683476
927,hillside lodge ltd,Nursing and residential care facilities,10592,125b st,V3V5A7,surrey,bc,49.195422,-122.873663
931,hilltop medical clinic,Ambulatory health care services,107-15331,16 avenue,V4A0C1,surrey,bc,49.031121,-122.798056
932,hilton villa care centre,Nursing and residential care facilities,13525,hilton rd,V3R5J3,surrey,bc,49.202605,-122.847214
934,holly park house,Nursing and residential care facilities,14557,105a ave,V3R1S2,surrey,bc,49.194299,-122.818758
969,jim pattison outpatient care and surgery centre,Hospitals,9750,140 street,V3T0G9,surrey,bc,49.179456,-122.833248
1000,kimbelee place,Nursing and residential care facilities,12935,96 ave,V3V7K6,surrey,bc,49.177417999999996,-122.86411799999999
1006,kings house,Nursing and residential care facilities,8512,164 st,V4N1E5,surrey,bc,49.157599,-122.76725400000001
1007,kinsmen lodge,Nursing and residential care facilities,9650,137a st,V3T4H9,surrey,bc,49.1777346,-122.84179950000001
