facility_name,index,odhf_facility_type,street_no,street_name,postal_code,city,province
Lansdowne Treatment Centre,1047,Ambulatory health care services,120-1641,hillside avenue,V8T 5G1,victoria,bc
Mckenzie Home,1122,Nursing and residential care facilities,1112,mckenzie st,V8V 2W2,victoria,bc
Moss Rock Medical Centre,1162,Ambulatory health care services,1282,fairfield road,V8V 4W3,victoria,bc
Oak Bay Medical Clinic,1231,Ambulatory health care services,101-1640,oak bay avenue,V8R 1B2,victoria,bc
Onyx House,1241,Nursing and residential care facilities,1725,pearl st,V8R 2Z4,victoria,bc
Parkwood Court,1294,Nursing and residential care facilities,3000,shelbourne st,V8R 4M8,victoria,bc
Pearl House,1306,Nursing and residential care facilities,1727,pearl st,V8X 5L3,victoria,bc
Piercy Respite Hotel,1317,Nursing and residential care facilities,1454,hillside ave,V8T 2B7,victoria,bc
Quadra Village Medical Clinic,1360,Ambulatory health care services,2631,quadra street,V8T 4E4,victoria,bc
Redfern Home,1381,Nursing and residential care facilities,937,redfern st,V8S 4E7,victoria,bc
Royal Jubilee Hospital,1452,Hospitals,1952,bay st,V8R 1J8,victoria,bc
Selkirk Seniors Village,1480,Nursing and residential care facilities,385,waterfront cres,V8T 0A7,victoria,bc
Selkirk Waterfront,1481,Nursing and residential care facilities,390,waterfront cres,V8T 5K3,victoria,bc
Shelmarie Rest Home,1491,Nursing and residential care facilities,630,foul bay rd,V8S 4H3,victoria,bc
Sj Willis Home,1517,Nursing and residential care facilities,2860,quadra st,V8T 4E7,victoria,bc
St. Charles Manor,1541,Nursing and residential care facilities,1006,st charles st,V8S 3P6,victoria,bc
Sunrise of Victoria,1578,Nursing and residential care facilities,920,humboldt st,V8V 4W7,victoria,bc
the Kiwanis Pavilion,1630,Nursing and residential care facilities,3034,cedar hill rd,V8T 3J3,victoria,bc
the Styles Apartments,1641,Nursing and residential care facilities,1230,styles st,V9A 3Z5,victoria,bc
Victoria Chinatown Care Centre,1726,Nursing and residential care facilities,555,herald st,V8W 1S5,victoria,bc
Victoria Mental Health Centre,1731,Ambulatory health care services,2328,trent street,V8R 4Z3,victoria,bc
Yates and Quadra Integrated Health Centre,1818,Ambulatory health care services,105-911,yates street,V8V 4X3,victoria,bc
Aberdeen Hospital - Victoria,370,Nursing and residential care facilities,1450,hillside ave,V8T 2B7,victoria,bc
Adanac House,374,Nursing and residential care facilities,1745,adanac st,V8R 2C4,victoria,bc
Amica Douglas House,395,Nursing and residential care facilities,50,douglas st,V8V 2N8,victoria,bc
ARC EN CIEL,409,Nursing and residential care facilities,3114,irma st,V9A 1S8,victoria,bc
Beacon Hill Villa,449,Nursing and residential care facilities,635,superior st,V8V 1V1,victoria,bc
Beckley Farm Lodge,450,Nursing and residential care facilities,530,simcoe st,V8V 4W4,victoria,bc
Clover Point Care,618,Nursing and residential care facilities,90,linden ave,V8V 4C8,victoria,bc
Craigdarroch Care Home,661,Nursing and residential care facilities,1048,craigdarroch rd,V8W 3C8,victoria,bc
Douglas Care Community,708,Nursing and residential care facilities,657,niagara st,V8V 1J1,victoria,bc
Elivan,748,Nursing and residential care facilities,3127,irma st,V9A 1S9,victoria,bc
Fairfield Medical Treatment Centre,770,Ambulatory health care services,302-1990,fort street,V8R 6V4,victoria,bc
Glengarry Hospital,842,Hospitals,1780,fairfield rd,V8S 1G7,victoria,bc
Grosvenor House,885,Nursing and residential care facilities,2825,grosvenor rd,V8M 3M8,victoria,bc
Hart House,903,Nursing and residential care facilities,1961,fairfield rd,V8W 3C8,victoria,bc
James Bay Care Centre,961,Nursing and residential care facilities,336,simcoe st,V8V 1L2,victoria,bc
James Bay Medical Treatment Centre,962,Ambulatory health care services,230,menzies street,V8V 2G7,victoria,bc
Jubilee Medical Clinic and Treatment Centre,975,Ambulatory health care services,1902,richmond road,V8R 4Y2,victoria,bc
Khatsahlano Medical Clinics,996,Ambulatory health care services,101a-230,cook street,V8V 3X3,victoria,bc
