facility_name,index,odhf_facility_type,street_no,street_name,postal_code,city,province
Lindsay Home,1058,Nursing and residential care facilities,754,lindsay st,V8Z 3E1,victoria,bc
Lucas Home,1072,Nursing and residential care facilities,909,lucas ave,V8X 4M7,victoria,bc
Luther Court,1073,Nursing and residential care facilities,1525,cedar hill x rd,V8P 5M1,victoria,bc
Mariposa,1105,Nursing and residential care facilities,4133,mariposa heights,V8Z 6P5,victoria,bc
Millgrove Home,1148,Nursing and residential care facilities,3028,millgrove st,V9A 1X5,victoria,bc
Mimi's House,1150,Nursing and residential care facilities,1631,earlston ave,V8P 2Z6,victoria,bc
Mina Care Home,1151,Nursing and residential care facilities,1061,mina ave,V8Z 6P8,victoria,bc
Mount Tolmie Hospital,1171,Nursing and residential care facilities,3690,richmond rd,V8P 4R6,victoria,bc
Nigel House,1209,Nursing and residential care facilities,846,nigel ave,V8X 4E5,victoria,bc
Normandy House,1216,Nursing and residential care facilities,575,normandy rd,V8Z 3J3,victoria,bc
Orillia House,1251,Nursing and residential care facilities,2965,orillia st,V9A 1Y6,victoria,bc
Panama House,1268,Nursing and residential care facilities,4148,carey rd,V8Z 4G8,victoria,bc
Parkside House,1288,Nursing and residential care facilities,1740,feltham rd,V8N 2A3,victoria,bc
Paskin Home,1295,Nursing and residential care facilities,761,paskin way,V8Z 6N4,victoria,bc
Queen Alexandra Centre for Children's Health,1363,Hospitals,2400,arbutus rd,V8N 1V7,victoria,bc
Royal Oak House,1453,Nursing and residential care facilities,780,royal oak ave,V8X 3T1,victoria,bc
Saanich Plaza Medical Clinic,1460,Ambulatory health care services,3544,blanshard street,V8X 1W3,victoria,bc
San Miguel,1468,Nursing and residential care facilities,1860,san miguel rd,V8N 6G8,victoria,bc
Shelbourne Medical Clinic,1490,Ambulatory health care services,150-3200,shelbourne street,V8P 5G8,victoria,bc
Tait Street,1587,Nursing and residential care facilities,585,tait st,V8Z 2E1,victoria,bc
the Heights,1628,Nursing and residential care facilities,1236,mariposa ave,V8Z 6P4,victoria,bc
the Heights at Mount View,1629,Nursing and residential care facilities,3814,carey rd,V8Z 4C4,victoria,bc
Tillicum Group Home,1653,Nursing and residential care facilities,3715,tillicum rd,V8Z 4H9,victoria,bc
Tillicum Medical Clinic,1654,Ambulatory health care services,14-3170,tillicum road,V9A 7C5,victoria,bc
Twin Oaks,1684,Nursing and residential care facilities,1216,royal oak dr,V8X 3T8,victoria,bc
Tyndall Home,1686,Nursing and residential care facilities,4482,tyndall ave,V8N 3S6,victoria,bc
Uptown Medical Clinic,1697,Ambulatory health care services,3460,saanich road,V8X 1W7,victoria,bc
Viewmont House,1735,Nursing and residential care facilities,4541,viewmont ave,V8Z 5L3,victoria,bc
Wascana House,1751,Nursing and residential care facilities,110,hampton rd,V8Z 1G7,victoria,bc
Amica on the Gorge,397,Nursing and residential care facilities,994,gorge rd w,V9A 1P2,victoria,bc
Bed & Breakfast,452,Nursing and residential care facilities,910,easter rd,V8X 2Z8,victoria,bc
Berwick House,461,Nursing and residential care facilities,4062,shelbourne st,V8N 3E6,victoria,bc
Berwick Royal Oak,464,Nursing and residential care facilities,4680,elk lake dr,V8Z 5M1,victoria,bc
Blenkinsop Home,487,Nursing and residential care facilities,3924,blenkinsop rd,V8P 3P5,victoria,bc
Burnside Family Medical Clinic,524,Ambulatory health care services,101,burnside w,V9A 1B7,victoria,bc
Burnside Home,525,Nursing and residential care facilities,595,burnside rd w,V8Z 1M7,victoria,bc
Carey House,554,Nursing and residential care facilities,4241,carey rd,V8Z 4H1,victoria,bc
Cartref,564,Nursing and residential care facilities,4024,livingstone ave n,V8N 5Z5,victoria,bc
Cook and Quadra Medical Clinic,645,Ambulatory health care services,3461,cook street,V8X 1B3,victoria,bc
"Cridge Brain Injury Residence, the",671,Nursing and residential care facilities,1251,santa rosa ave,V8Z 2V5,victoria,bc
Dustin House,720,Nursing and residential care facilities,4967,dustin crt,V8Y 3B5,victoria,bc
Eagle Rock Heights,727,Nursing and residential care facilities,972,greenridge cres,V8X 3B9,victoria,bc
Feltham,775,Nursing and residential care facilities,1765,feltham rd,V8N 2A4,victoria,bc
Forrester House,798,Nursing and residential care facilities,1998,forrester st,V8R 3H1,victoria,bc
Gordon Head Medical Treatment Centre,865,Ambulatory health care services,103-1595,mckenzie avenue,V8N 1A4,victoria,bc
Gorge View Home,867,Nursing and residential care facilities,2972,wascana st,V9H 1V7,victoria,bc
Greenlea Group Home,880,Nursing and residential care facilities,758,greenlea dr,V8Z 3E6,victoria,bc
Greenridge Place,881,Nursing and residential care facilities,970,greenridge cres,V8X 3B9,victoria,bc
Happy Rock,896,Nursing and residential care facilities,3034,donald st,V9A 1Y2,victoria,bc
