facility_name,index,odhf_facility_type,street_no,street_name,postal_code,city,province
Kingfisher Place,1004,Nursing and residential care facilities,4328,crystal drive,V1T 8V5,vernon,bc
Mulberry Place,1180,Nursing and residential care facilities,2803,39 st,V1T 6J3,vernon,bc
Noric House,1215,Nursing and residential care facilities,1400,mission rd,V1T 9C3,vernon,bc
North Okanagan Hospice House,1221,Nursing and residential care facilities,3506,27 ave,V1T 1S4,vernon,bc
North Okanagan Medical Clinic,1222,Ambulatory health care services,5001,anderson way,V1T 9V1,vernon,bc
Sterling Centre Clinic,1561,Ambulatory health care services,101-3210,25 avenue,V1T 1P1,vernon,bc
the Gateby,1617,Nursing and residential care facilities,3000,gateby pl,V1T 8V8,vernon,bc
the Hamlets at Vernon,1626,Nursing and residential care facilities,3050,29 ave,V1T 9Y9,vernon,bc
Vernon Jubilee Hospital,1724,Hospitals,2101,s 32 st,V1T 5L2,vernon,bc
Willow House,1797,Nursing and residential care facilities,1812,22 st,V1T 7G2,vernon,bc
Willowview,1801,Nursing and residential care facilities,1808,30 st,V1T 5C5,vernon,bc
17th Street Home,341,Nursing and residential care facilities,4200,17 st,V1T 8R7,vernon,bc
35th Avenue Home,350,Nursing and residential care facilities,902,35 ave,V1T 2R3,vernon,bc
Creekside Landing,663,Nursing and residential care facilities,6190,okanagan landing rd,V1H 1M3,vernon,bc
Dobie House,703,Nursing and residential care facilities,3307,26 st,V1T 4V2,vernon,bc
down's Residence,711,Nursing and residential care facilities,1304,43 avenue,V1T 8B2,vernon,bc
Good Samaritan Canada Heron Grove,860,Nursing and residential care facilities,4900,20 st,V1T 9W3,vernon,bc
Hawthorn House,906,Nursing and residential care facilities,4217,16 ave,V1T 6P2,vernon,bc
Hearthstone Manor,914,Nursing and residential care facilities,2800,40 st,V1T 6J7,vernon,bc
Heritage Square,918,Nursing and residential care facilities,3904,27 st,V1T 4X7,vernon,bc
Juniper Place Group Home,976,Nursing and residential care facilities,3508,42 ave,V1T 3J9,vernon,bc
