index,facility_name,odhf_facility_type,street_no,street_name,postal_code,city,province,latitude,longitude
482,birchview residences,Nursing and residential care facilities,7780,hart hwy,V2K3B3,prince george,bc,53.999924,-122.8011
522,burden residential home,Nursing and residential care facilities,1680,burden st,V2M2J8,prince george,bc,53.908657,-122.77613999999998
536,campbell,Nursing and residential care facilities,4057,campbell ave,V2M5A3,prince george,bc,53.900245999999996,-122.80605
649,corless crescent,Nursing and residential care facilities,238,corless cres,V2M5X9,prince george,bc,53.93008100000001,-122.80623
685,davis drive,Nursing and residential care facilities,4237,davis rd,V2N6M6,prince george,bc,53.87534599999999,-122.78296999999999
787,flamingo road,Nursing and residential care facilities,8244,flamingo rd,V2N2J1,prince george,bc,54.005809,-122.82061999999999
827,gateway lodge complex care,Nursing and residential care facilities,1488,20 ave,V2L0A5,prince george,bc,53.905864,-122.7543
868,gorse street residence,Nursing and residential care facilities,1945,gorse st,V2L1G7,prince george,bc,53.905864,-122.7543
910,hazelton residence,Nursing and residential care facilities,2554,hazelton st,V2L1H2,prince george,bc,53.898272,-122.73828999999999
1055,leonard place,Nursing and residential care facilities,4761,leonard pl,V2M6Z5,prince george,bc,53.938607999999995,-122.81031000000002
1060,lisgar residence,Nursing and residential care facilities,2471,lisgar cres,V2N1C4,prince george,bc,53.897987,-122.79234
1190,nechako center - adult,Nursing and residential care facilities,1308,alward st,V2M7B1,prince george,bc,53.911018299999995,-122.76638090000002
1191,nechako medical clinic,Ambulatory health care services,143-1600,15 avenue,V2L3X3,prince george,bc,53.91085,-122.7588
1255,ospika residence,Nursing and residential care facilities,2690,ospika blvd s,V2N2L8,prince george,bc,53.893632999999994,-122.78843
1289,parkside intermediate care home,Nursing and residential care facilities,788,ospika blvd,V2M6W5,prince george,bc,53.917384999999996,-122.7952
1345,prince george regional hospital,Hospitals,1475,edmonton st,V2M1S2,prince george,bc,53.9113826,-122.76447579999999
1370,quince street residence,Nursing and residential care facilities,2012,quince st,V2L5B4,prince george,bc,53.905294,-122.75336999999999
1374,radcliffe residence,Nursing and residential care facilities,501,radcliffe dr,V2M3N5,prince george,bc,53.928429099999995,-122.79361920000001
1443,rotary hospice house,Nursing and residential care facilities,3089,clapperton st,V2L5N4,prince george,bc,53.889563,-122.75596000000002
1467,salveo medical clinic,Ambulatory health care services,2155,ferry avenue,V2N5E8,prince george,bc,53.887457,-122.769326
1540,st catherine's community home,Nursing and residential care facilities,6899,ogrady rd,V2N4Z1,prince george,bc,53.8601203,-122.7796175
1643,"the university hospital of northern british columbia, prince george",Hospitals,1475,edmonton street,V2M1S2,prince george,bc,53.911312,-122.763377
1694,university hospital of northern british columbia,Hospitals,1475,edmonton street,V2M1S2,prince george,bc,53.911251,-122.763153
1695,university of northern british columbia,Ambulatory health care services,3333,university way,V2N4Z9,prince george,bc,53.8922,-122.8134
