index,facility_name,odhf_facility_type,street_no,street_name,postal_code,city,province,latitude,longitude
9002,birch lodge,nursing and residential care facilities,6189,6th avenue,Y1A5P5,whitehorse,yt,60.724230000000006,-135.064
9003,blood ties four directions centre drop-in and street clinic,Ambulatory health care services,307,strickland st.,Y1A2S5,whitehorse,yt,60.72526,-135.063
9006,copper ridge place,nursing and residential care facilities,60,lazulite drive,Y1A6S9,whitehorse,yt,60.69943000000001,-135.11
9011,family practice unit,Ambulatory health care services,402,hanson street,Y1A1Y8,whitehorse,yt,60.71674,-135.055
9014,klondyke medical clinic,Ambulatory health care services,302,ogilvie street,Y1A0M1,whitehorse,yt,60.7263,-135.06
9018,mental wellness and substance use services,Nursing and residential care facilities,609,steele street,Y1A1M9,whitehorse,yt,60.71855,-135.062
9022,pine medical clinic,Ambulatory health care services,5110,fifth avenue,Y1A1L4,whitehorse,yt,60.718759999999996,-135.059
9023,referred care clinic,Ambulatory health care services,210,elliott st.,Y1A2A2,whitehorse,yt,60.718540000000004,-135.054
9024,river valley medical clinic,Ambulatory health care services,106,lambert street,Y1A1Z2,whitehorse,yt,60.71838,-135.05
9028,thomson centre,Nursing and residential care facilities,6,hospital road,Y1A3H8,whitehorse,yt,60.718669999999996,-135.045
9031,whistlebend place,Nursing and residential care facilities,90,olive may way,Y1A5P5,whitehose,yt,60.77495,-135.105
9032,whitehorse emergency shelter,Nursing and residential care facilities,405,alexander st,Y1A3H7,whitehorse,yt,60.722390000000004,-135.06
9033,whitehorse general hospital,Hospitals,5,hospital rd,Y1A3H7,whitehorse,yt,60.71926,-135.04399999999998
9034,whitehorse health centre,Hospitals,9010,quartz road,Y1A2C6,whitehorse,yt,60.731590000000004,-135.066
9035,whitehorse medical clinic,Ambulatory health care services,406,lambert street,Y1A1Z7,whitehorse,yt,60.71743000000001,-135.056
9036,yukon communicable disease control (ycdc),Ambulatory health care services,#4,hospital road,Y1A3H8,whitehorse,yt,60.717890000000004,-135.04399999999998
9037,yukon gynecology and obstetrics clinic,Ambulatory health care services,5,hospital road,Y1A3H7,whitehorse,yt,60.718959999999996,-135.04399999999998
9038,yukon sexual health clinic,Ambulatory health care services,406,lambert street,Y1A1Z7,whitehorse,yt,60.71743000000001,-135.056
9039,yukon surgical clinic,Ambulatory health care services,5,hospital road,Y1A3H7,whitehorse,yt,60.718959999999996,-135.04399999999998
